{"type":"Feature","properties":{"GID_3":"IDN.11.37.4_1","GID_0":"IDN","country":"Indonesia","GID_1":"IDN.11_1","province":"JawaTimur","NL_NAME_1":"NA","GID_2":"IDN.11.37_1","county":"Tuban","NL_NAME_2":"NA","city":"Jatirogo","VARNAME_3":"NA","NL_NAME_3":"NA","TYPE_3":"Kecamatan","ENGTYPE_3":"Sub-district","CC_3":"3523180","HASC_3":"NA","name":"Jatirogo.city"},
"geometry":{"type": "MultiPolygon","coordinates": [[[[111.6978,-6.9286,100.2453],[111.7134,-6.9282,150.1689],[111.7214,-6.9177,95.901],[111.7213,-6.9117,78.9505],[111.7255,-6.9132999999999996,77.9153],[111.7335,-6.9051,89.2288],[111.7391,-6.9042,83.5979],[111.7395,-6.9063,82.3123],[111.7417,-6.9068,85.3931],[111.748,-6.9014,114.708],[111.7505,-6.8934,72.9701],[111.7471,-6.894,92.0358],[111.7461,-6.8892,73.7439],[111.742,-6.8869,89.5157],[111.7411,-6.8818,97.4767],[111.7359,-6.8788,74.4262],[111.7382,-6.8722,63.5688],[111.737,-6.8605,57.652],[111.7264,-6.8562,73.6505],[111.7209,-6.856,99.2893],[111.7082,-6.8519,95.2398],[111.6994,-6.8475,93.7117],[111.6897,-6.8361,71.4415],[111.6863,-6.8359,78.6466],[111.6854,-6.8323,57.1024],[111.6873,-6.8278,51.1384],[111.6847,-6.8241,51.3076],[111.6862,-6.8194,56.697],[111.6894,-6.8179,59.2189],[111.6879,-6.8141,50.7403],[111.6797,-6.8137,52.3309],[111.6753,-6.8071,57.1303],[111.6735,-6.8093,61.1399],[111.6704,-6.8092,71.7539],[111.6688,-6.8085,71.7539],[111.6687,-6.806,56.2525],[111.6615,-6.8019,49.4453],[111.6572,-6.8069,42.2996],[111.6585,-6.8083,44.8317],[111.6578,-6.8115,52.4023],[111.6612,-6.8167,54.7101],[111.6527,-6.8254,65.6424],[111.6492,-6.8229,73.8116],[111.647,-6.8233,69.1495],[111.635,-6.8289,117.4619],[111.631,-6.8258,150.6563],[111.6193,-6.8217,152.9441],[111.6135,-6.8317,149.616],[111.6105,-6.8455,118.1387],[111.6107,-6.8494,109.1245],[111.6133,-6.8544,112.0352],[111.6114,-6.8546,97.4586],[111.6125,-6.8605,85.9708],[111.6157,-6.8623,86.0669],[111.6126,-6.864,87.22],[111.6095,-6.871,97.4858],[111.6123,-6.8754,90.5753],[111.6108,-6.8792,94.2187],[111.6143,-6.8775,93.2288],[111.6258,-6.8893,92.1089],[111.6568,-6.9005,106.7022],[111.6707,-6.9137,59.203],[111.6749,-6.9153,59.6848],[111.6745,-6.9187,58.8579],[111.6825,-6.9258,84.9789],[111.6901,-6.9288,97.8447],[111.6978,-6.9286,100.2453]]]]}}