{"type":"Feature","properties":{"GID_3":"IDN.31.9.7_1","GID_0":"IDN","country":"Indonesia","GID_1":"IDN.31_1","province":"SumateraSelatan","NL_NAME_1":"NA","GID_2":"IDN.31.9_1","county":"OganKomeringIlir","NL_NAME_2":"NA","city":"MesujiMakmur","VARNAME_3":"NA","NL_NAME_3":"NA","TYPE_3":"Kecamatan","ENGTYPE_3":"Sub-district","CC_3":"1602022","HASC_3":"NA","name":"Mesuji_Makmur.city"},
"geometry":{"type": "MultiPolygon","coordinates": [[[[104.7849,-4.2589,55.0893],[104.7906,-4.2644,51.9001],[104.7928,-4.2647,53.6425],[104.7956,-4.2607,57.549],[104.7949,-4.254,48.2582],[104.7962,-4.2508,51.0018],[104.804,-4.2506,45.915],[104.8073,-4.2473,55.4885],[104.8216,-4.2409,47.7126],[104.8277,-4.2458,48.8212],[104.8283,-4.2401,41.9089],[104.8336,-4.2385,44.8971],[104.8466,-4.2395,38.6042],[104.847,-4.2383,38.6042],[104.8555,-4.2409,35.0279],[104.8617,-4.2352,34.5156],[104.8628,-4.2319,35.0318],[104.8744,-4.234,31.8518],[104.8778,-4.227,33.2548],[104.8752,-4.2226,30.571],[104.8763,-4.2177,30.2729],[104.8889,-4.2181,29.5001],[104.8924,-4.2159,27.9935],[104.8948,-4.2101,25.9843],[104.8999,-4.2106,26.2774],[104.9039,-4.2081,25.3315],[104.9061,-4.2033,23.6554],[104.9125,-4.1995,24.1374],[104.9176,-4.2004,22.5156],[104.9282,-4.1926,22.7802],[104.9406,-4.1902,20.7508],[104.9459,-4.1922,21.3093],[104.9496,-4.1815,20.7132],[104.9532,-4.1782,19.8681],[104.962,-4.1757,18.0611],[104.9673,-4.1718,18.7183],[104.9693,-4.1731,17.1666],[104.9766,-4.172,15.8413],[104.9892,-4.1749,16.5664],[104.9927,-4.1778,15.1234],[104.9951,-4.1755,14.3822],[105.002,-4.1775,13.4827],[105.0086,-4.1753,14.223],[105.0094,-4.1735,12.951599999999999],[105.0131,-4.1737,13.8078],[105.0188,-4.1664,13.0363],[105.021,-4.1658,13.8552],[105.0216,-4.159,12.5445],[105.0011,-4.1144,19.4173],[104.9932,-4.1083,41.4187],[104.9944,-4.0965,48.3309],[105.002,-4.0975,37.3122],[105.0028,-4.0921,44.2611],[105.0026,-4.0802,42.5728],[104.9998,-4.0744,32.1824],[105.0002,-4.0695,21.9642],[104.9974,-4.0677,28.2976],[104.9996,-4.0651,32.9771],[104.9989,-4.0598,35.0463],[105.0009,-4.0549,36.1733],[105.0075,-4.0445,31.6026],[105.0075,-4.0389,35.6524],[105.0002,-4.0305,38.8591],[105.0064,-4.0207,34.6748],[105.0044,-4.0074,48.7883],[104.9929,-4.013,48.7034],[104.9812,-4.0136,52.3368],[104.9744,-4.0161,53.9622],[104.9318,-4.0048,41.6362],[104.9169,-3.9934,27.0441],[104.9177,-3.9946,33.6444],[104.9137,-4.0052,36.1538],[104.9093,-4.0095,31.201],[104.9078,-4.0092,29.1917],[104.9083,-4.0113,34.7166],[104.8941,-4.0126,30.8112],[104.891,-4.0159,29.6031],[104.8867,-4.0165,30.6349],[104.8859,-4.0183,29.0363],[104.8829,-4.0184,28.7014],[104.8801,-4.0209,30.347],[104.8754,-4.0213,30.1123],[104.8713,-4.0245,31.8055],[104.869,-4.0307,35.498],[104.8647,-4.0319,35.6018],[104.8626,-4.0343,32.9009],[104.8617,-4.0336,32.9009],[104.8601,-4.0362,37.1439],[104.8556,-4.0365,31.3323],[104.8554,-4.0419,43.0281],[104.8529,-4.0433,35.7072],[104.8536,-4.0468,41.0757],[104.8503,-4.0493,37.0439],[104.8483,-4.0547,41.7859],[104.8329,-4.0615,39.8362],[104.8275,-4.0709,37.0944],[104.832,-4.0758,39.9881],[104.8302,-4.0781,38.6709],[104.8333,-4.0852,40.9346],[104.8324,-4.0906,39.1903],[104.8345,-4.0941,37.5634],[104.8333,-4.094,37.5634],[104.8341,-4.0995,39.6383],[104.8235,-4.1081,39.222],[104.8157,-4.107,40.5713],[104.8064,-4.1099,40.8877],[104.8047,-4.1202,64.4696],[104.7941,-4.1254,46.2754],[104.7954,-4.1268,48.805],[104.7927,-4.1275,45.7309],[104.7918,-4.1321,48.791],[104.7888,-4.135,47.4293],[104.7909,-4.1398,60.9361],[104.7914,-4.1491,52.1338],[104.7907,-4.1554,60.2936],[104.7856,-4.1604,54.998],[104.7877,-4.1707,67.3536],[104.7783,-4.1744,57.2278],[104.7748,-4.1838,58.5373],[104.772,-4.1854,60.7693],[104.7702,-4.195,68.3261],[104.7644,-4.1945,81.4936],[104.7581,-4.215,72.5831],[104.7477,-4.2231,78.1761],[104.7505,-4.2268,95.5222],[104.7554,-4.2268,90.5757],[104.7558,-4.2468,63.4249],[104.7585,-4.2487,63.5005],[104.7649,-4.2458,65.6031],[104.7687,-4.2496,59.2934],[104.7849,-4.2589,55.0893]]],
[[[105.0627,-4.1254,8.0272],[105.0656,-4.1202,11.1744],[105.0636,-4.1087,11.2983],[105.062,-4.1071,8.4375],[105.0638,-4.1035,8.8718],[105.0621,-4.0982,9.7296],[105.0668,-4.0947,8.1134],[105.0572,-4.086,20.2709],[105.0542,-4.0869,21.695],[105.0475,-4.0828,33.5592],[105.0384,-4.0829,35.3282],[105.0413,-4.1015,20.8154],[105.0307,-4.1074,15.964],[105.0456,-4.1283,31.1516],[105.0477,-4.1417,10.8361],[105.05,-4.1413,18.4216],[105.0532,-4.1333,11.8866],[105.0627,-4.1254,8.0272]]]]}}