{"type":"Feature","properties":{"GID_3":"IDN.31.9.16_1","GID_0":"IDN","country":"Indonesia","GID_1":"IDN.31_1","province":"SumateraSelatan","NL_NAME_1":"NA","GID_2":"IDN.31.9_1","county":"OganKomeringIlir","NL_NAME_2":"NA","city":"TanjungLubuk","VARNAME_3":"NA","NL_NAME_3":"NA","TYPE_3":"Kecamatan","ENGTYPE_3":"Sub-district","CC_3":"1602050","HASC_3":"NA","name":"Tanjung_Lubuk.city"},
"geometry":{"type": "MultiPolygon","coordinates": [[[[104.7462,-3.6255,18.5362],[104.7395,-3.6054,24.1573],[104.7384,-3.5951,17.7769],[104.7522,-3.5834,19.3984],[104.7597,-3.5854,17.5784],[104.7842,-3.5867,18.0941],[104.7859,-3.5756,15.2965],[104.7761,-3.5772,25.2616],[104.7758,-3.5736,25.832],[104.7745,-3.5731,25.5519],[104.7558,-3.5725,15.9899],[104.7544,-3.5713,16.5193],[104.7561,-3.5484,13.6376],[104.7647,-3.5452,16.4726],[104.7666,-3.5411,15.448],[104.7652,-3.5309,14.5164],[104.7616,-3.5268,14.071],[104.7481,-3.5195,16.2809],[104.748,-3.5157,16.6083],[104.7535,-3.5131,11.8579],[104.7687,-3.4942,16.5711],[104.7564,-3.4821,14.3099],[104.7633,-3.4793,13.5069],[104.7841,-3.4655,15.1104],[104.7744,-3.4609,12.8344],[104.7579,-3.4688,9.8052],[104.7572,-3.4727,8.9362],[104.743,-3.4797,15.0299],[104.7421,-3.4851,13.0051],[104.7391,-3.4865,15.9589],[104.7331,-3.4817,12.9999],[104.7328,-3.4761,12.0854],[104.7086,-3.4653,8.6433],[104.6965,-3.4856,9.482],[104.6788,-3.4933,10.4116],[104.6794,-3.5022,8.3874],[104.6737,-3.5203,15.1181],[104.6696,-3.5416,15.2072],[104.6631,-3.5529,15.8346],[104.6509,-3.5673,15.333],[104.6487,-3.5786,13.4738],[104.6492,-3.5947,14.6727],[104.646,-3.6009,15.428],[104.6418,-3.6248,28.1096],[104.6431,-3.6287,24.7907],[104.6426,-3.6551,17.4654],[104.6477,-3.6525,17.6501],[104.6485,-3.6568,28.7894],[104.6528,-3.6579,19.4214],[104.6565,-3.6545,16.9742],[104.6616,-3.6586,26.2271],[104.6811,-3.6516,29.9206],[104.7046,-3.6493,21.3625],[104.7213,-3.6533,24.5648],[104.7332,-3.6594,33.3062],[104.7389,-3.6664,34.617],[104.7384,-3.6736,31.7809],[104.7605,-3.6812,27.8571],[104.7747,-3.6632,24.3347],[104.758,-3.6518,26.8785],[104.7462,-3.6255,18.5362]]],
[[[104.6412,-3.6558,17.4594],[104.6405,-3.6562,17.4594],[104.6418,-3.6555,17.4654],[104.6412,-3.6558,17.4594]]]]}}