{"type":"Feature","properties":{"GID_3":"IDN.31.9.17_1","GID_0":"IDN","country":"Indonesia","GID_1":"IDN.31_1","province":"SumateraSelatan","NL_NAME_1":"NA","GID_2":"IDN.31.9_1","county":"OganKomeringIlir","NL_NAME_2":"NA","city":"TelukGelam","VARNAME_3":"NA","NL_NAME_3":"NA","TYPE_3":"Kecamatan","ENGTYPE_3":"Sub-district","CC_3":"1602051","HASC_3":"NA","name":"Teluk_Gelam.city"},
"geometry":{"type": "MultiPolygon","coordinates": [[[[104.8093,-3.6735,35.6906],[104.8092,-3.6316,28.0836],[104.8311,-3.6304,22.7328],[104.8315,-3.6061,10.9415],[104.8374,-3.5994,9.6918],[104.8441,-3.5958,7.1819],[104.8467,-3.5891,7.0],[104.8291,-3.5893,29.9597],[104.8281,-3.5529,10.2018],[104.8094,-3.5532,19.7232],[104.807,-3.5367,26.9245],[104.8074,-3.5201,22.3367],[104.8119,-3.5069,24.6761],[104.8105,-3.4937,15.9041],[104.8159,-3.4925,17.1751],[104.8142,-3.4834,11.7992],[104.7978,-3.4661,11.7562],[104.787,-3.4649,11.5424],[104.7839,-3.4654,15.1104],[104.7633,-3.4793,13.5069],[104.7564,-3.4821,14.3099],[104.7687,-3.4942,16.5711],[104.7535,-3.5131,11.8579],[104.748,-3.5157,16.6083],[104.7484,-3.5203,15.8138],[104.7616,-3.5268,14.071],[104.7652,-3.5309,14.5164],[104.7666,-3.5411,15.448],[104.7647,-3.5452,16.4726],[104.7561,-3.5484,13.6376],[104.7544,-3.5713,16.5193],[104.7558,-3.5725,15.9899],[104.7745,-3.5731,25.5519],[104.7758,-3.5736,25.832],[104.7761,-3.5772,25.2616],[104.7859,-3.5756,15.2965],[104.7842,-3.5867,18.0941],[104.7597,-3.5854,17.5784],[104.7522,-3.5834,19.3984],[104.7384,-3.5951,17.7769],[104.7395,-3.6054,24.1573],[104.7463,-3.6258,18.5362],[104.758,-3.6518,26.8785],[104.7747,-3.6632,24.3347],[104.7605,-3.6812,27.8571],[104.774,-3.6861,32.0738],[104.7728,-3.7174,35.9813],[104.8092,-3.7182,29.4278],[104.8093,-3.6735,35.6906]]]]}}