{"type":"Feature","properties":{"GID_3":"IDN.31.9.18_1","GID_0":"IDN","country":"Indonesia","GID_1":"IDN.31_1","province":"SumateraSelatan","NL_NAME_1":"NA","GID_2":"IDN.31.9_1","county":"OganKomeringIlir","NL_NAME_2":"NA","city":"TulungSelapan","VARNAME_3":"NA","NL_NAME_3":"NA","TYPE_3":"Kecamatan","ENGTYPE_3":"Sub-district","CC_3":"1602030","HASC_3":"NA","name":"Tulung_Selapan.city"},
"geometry":{"type": "MultiPolygon","coordinates": [[[[105.2615,-3.3714,10.9934],[105.2654,-3.3748,11.9438],[105.2709,-3.3849,12.7307],[105.276,-3.3887,10.3567],[105.2895,-3.3874,7.2516],[105.3411,-3.4067,5.6114],[105.3659,-3.4081,6.9761],[105.3748,-3.4057,5.2484],[105.3826,-3.4011,5.293],[105.3956,-3.3995,6.8242],[105.4179,-3.3917,8.4187],[105.4283,-3.3932,2.0492],[105.4351,-3.3873,1.8334],[105.4389,-3.3779,1.8149],[105.4438,-3.3752,1.8404],[105.4448,-3.3693,1.8077],[105.4417,-3.3586,2.1212],[105.4451,-3.3572,1.9542],[105.4506,-3.3511,1.7015],[105.4599,-3.3366,1.8974],[105.4696,-3.3312,1.9593],[105.4745,-3.3312,2.1749],[105.4832,-3.339,1.9828],[105.4861,-3.3395,2.0565],[105.5051,-3.3331,2.0784],[105.5134,-3.3317,2.3566],[105.5174,-3.3325,3.9267],[105.5223,-3.3282,6.9472],[105.5236,-3.325,6.0626],[105.5223,-3.3186,5.7571],[105.5234,-3.3151,2.1718],[105.5368,-3.307,4.429],[105.5462,-3.2966,3.3601],[105.5489,-3.2907,3.5603],[105.5549,-3.2932,3.5887],[105.5641,-3.2919,10.6855],[105.5719,-3.2814,5.9932],[105.5745,-3.2804,3.4117],[105.5724,-3.2787,10.6677],[105.5746,-3.277,3.0483],[105.5949,-3.268,9.6764],[105.5979,-3.2628,5.4701],[105.5996,-3.2549,6.5602],[105.6041,-3.2539,6.8461],[105.6076,-3.2554,7.5142],[105.6143,-3.2635,10.2096],[105.6178,-3.264,5.544],[105.6249,-3.2557,4.6805],[105.6232,-3.2469,3.861],[105.6251,-3.2452,3.8063],[105.6313,-3.2466,5.3489],[105.6339,-3.2539,5.8822],[105.637,-3.2572,7.0723],[105.64,-3.2573,6.5048],[105.6456,-3.2563,5.5461],[105.6489,-3.2539,7.129],[105.6496,-3.2458,7.8666],[105.6526,-3.2444,8.8777],[105.6594,-3.2484,8.9006],[105.6619,-3.2526,4.9567],[105.6602,-3.258,4.4967],[105.6551,-3.263,3.1599],[105.6567,-3.2659,3.6779],[105.6763,-3.2657,7.8784],[105.6789,-3.2566,8.4726],[105.684,-3.2558,7.6882],[105.6894,-3.263,6.9573],[105.6955,-3.2659,5.0477],[105.6971,-3.2693,8.2807],[105.694,-3.2763,5.5458],[105.6954,-3.2824,6.2709],[105.6988,-3.2828,6.6307],[105.7049,-3.279,6.2212],[105.7087,-3.2802,8.5524],[105.711,-3.284,5.8358],[105.7109,-3.2903,2.0195],[105.7175,-3.2952,3.1387],[105.7173,-3.2993,3.9596],[105.7142,-3.3033,4.175],[105.7146,-3.3081,7.2004],[105.7241,-3.3173,4.0371],[105.7189,-3.3213,0.9344],[105.7178,-3.3261,4.327],[105.719,-3.3285,4.7127],[105.7225,-3.3278,4.4665],[105.7261,-3.3241,3.3536],[105.7337,-3.3239,6.2775],[105.7361,-3.3197,5.6679],[105.7396,-3.3191,4.066],[105.7402,-3.327,8.5765],[105.7424,-3.3269,6.5163],[105.7464,-3.3321,2.0881],[105.7476,-3.3385,6.9306],[105.7512,-3.3401,6.1007999999999996],[105.7548,-3.3345,3.2056],[105.758,-3.3357,7.557],[105.764,-3.3427,5.2523],[105.7711,-3.3473,2.2781],[105.7799,-3.3489,3.1248],[105.7787,-3.3545,8.2776],[105.7874,-3.3581,7.4874],[105.7902,-3.3565,3.224],[105.7902,-3.3521,5.4361],[105.7922,-3.3513,7.6965],[105.7966,-3.3532,2.4076],[105.8117,-3.3528,1.8243],[105.8165,-3.3552,3.3533],[105.8213,-3.3607,2.4356],[105.8312,-3.3659,2.0702],[105.836,-3.3732,6.3295],[105.8703,-3.3985,5.2158],[105.8908,-3.4246,0.0],[105.8997,-3.4248,0.0],[105.9324,-3.3782,0.0],[105.935,-3.3677,0.0],[105.939,-3.3625,0.0],[105.9331,-3.3608,0.0],[105.9455,-3.3561,0.0],[105.9544,-3.3422,0.0],[105.9561,-3.3364,0.0],[105.9615,-3.3385,0.0],[105.9855,-3.3158,0.0],[105.9873,-3.3115,18.4116],[105.9932,-3.312,0.0],[106.0379,-3.2786,3.0792],[106.0562,-3.2759,7.1435],[106.0673,-3.2712,0.967],[106.0669,-3.2654,1.8425],[106.0765,-3.2643,5.3077],[106.0876,-3.2561,6.7069],[106.0961,-3.2408,0.0],[106.0981,-3.2282,0.0],[106.0921,-3.201,0.0],[106.0691,-3.1373,0.0],[106.0641,-3.1319,0.0],[106.0601,-3.1188,0.0],[106.0672,-3.1148,0.0],[106.0628,-3.1109,0.0],[106.0614,-3.0939,0.0],[106.0706,-3.0756,0.0],[106.0706,-3.0651,0.0],[106.06,-3.0127,0.0],[106.0513,-2.9871,0.0],[105.999,-2.9678,8.542],[105.9888,-2.9709,18.1191],[105.9789,-2.9532,0.0],[105.9634,-2.953,20.309],[105.9597,-2.9618,12.7101],[105.9459,-2.9619,14.4367],[105.9518,-2.9683,2.9492],[105.9281,-2.967,5.5401],[105.9017,-2.9736,5.691],[105.8806,-2.9671,2.7738],[105.8512,-2.9415,0.0],[105.8318,-2.9291,0.0],[105.8106,-2.8988,0.0],[105.8041,-2.8807,0.0],[105.7982,-2.8769,0.0],[105.8027,-2.8532,0.0],[105.8014,-2.8401,0.0],[105.8027,-2.827,0.0],[105.8001,-2.8179,0.0],[105.8066,-2.7877,0.0],[105.8066,-2.7642,0.0],[105.804,-2.7498,0.0],[105.8026,-2.717,0.0],[105.8,-2.7026,0.0],[105.7967,-2.6922,0.0],[105.7864,-2.6895,0.0],[105.7685,-2.7059,11.2005],[105.5711,-2.8223,21.1618],[105.4427,-2.9016,5.0315],[105.3873,-2.9559,4.0752],[105.3643,-2.9824,3.2238],[105.3706,-2.9844,3.2544],[105.3712,-2.9881,3.8548],[105.3762,-2.9955,4.4178],[105.3775,-3.0016,6.7104],[105.3762,-3.0079,6.7816],[105.3675,-3.0227,8.7818],[105.3486,-3.0418,7.8433],[105.2667,-3.1111,9.7891],[105.2517,-3.127,10.1462],[105.2391,-3.1311,8.7711],[105.2363,-3.1291,8.1588],[105.2358,-3.1239,8.4983],[105.2284,-3.1234,7.568],[105.2209,-3.1269,7.1683],[105.2177,-3.1329,9.8227],[105.2099,-3.1351,8.925],[105.201,-3.1494,23.6617],[105.197,-3.1589,27.5805],[105.1975,-3.1654,21.5291],[105.2017,-3.1739,34.3505],[105.1945,-3.188,13.1353],[105.1905,-3.2065,24.9175],[105.2052,-3.228,20.6414],[105.2112,-3.2318,25.2211],[105.2132,-3.2353,20.0214],[105.2139,-3.2423,18.7852],[105.2169,-3.2453,21.1459],[105.2184,-3.2498,7.7929],[105.2172,-3.2535,11.029],[105.207,-3.256,12.2197],[105.1903,-3.2892,11.0],[105.1988,-3.2972,16.8373],[105.2021,-3.3038,13.3922],[105.2108,-3.3131,12.2423],[105.235,-3.3338,9.5647],[105.2502,-3.3519,11.8176],[105.2528,-3.3604,9.6001],[105.2615,-3.3714,10.9934]]],
[[[106.1683,-3.2969,0.0],[106.1632,-3.2965,0.0],[106.1617,-3.2988,0.0],[106.1732,-3.31,0.0],[106.1822,-3.3153,0.0],[106.1888,-3.3167,0.0],[106.1893,-3.3136,0.0],[106.1872,-3.3097,0.0],[106.1777,-3.3013,0.0],[106.1683,-3.2969,0.0]]]]}}