{"type":"Feature","properties":{"GID_3":"IDN.26.24.10_1","GID_0":"IDN","country":"Indonesia","GID_1":"IDN.26_1","province":"SulawesiSelatan","NL_NAME_1":"NA","GID_2":"IDN.26.24_1","county":"Wajo","NL_NAME_2":"NA","city":"Penrang","VARNAME_3":"NA","NL_NAME_3":"NA","TYPE_3":"Kecamatan","ENGTYPE_3":"Sub-district","CC_3":"7313061","HASC_3":"NA","name":"Penrang.city"},
"geometry":{"type": "MultiPolygon","coordinates": [[[[120.1757,-4.1313,6.4758],[120.1777,-4.1321,7.2009],[120.1818,-4.1239,10.0699],[120.1843,-4.1213,10.2015],[120.1876,-4.1216,11.427],[120.1896,-4.118,11.7658],[120.1939,-4.1149,14.3699],[120.1949,-4.1079,18.5014],[120.1931,-4.1067,24.714],[120.1925,-4.1007,22.0888],[120.195,-4.0969,24.1276],[120.1946,-4.0939,25.9271],[120.1971,-4.0922,25.4204],[120.1981,-4.087,27.473],[120.1997,-4.0859,28.6943],[120.1982,-4.0815,36.2228],[120.1988,-4.0773,36.0749],[120.2043,-4.0787,40.7859],[120.2106,-4.0842,42.7337],[120.2117,-4.0929,55.0569],[120.2193,-4.1005,47.9246],[120.2323,-4.1045,31.6662],[120.24,-4.1115,26.818],[120.252,-4.1182,27.5005],[120.2639,-4.12,25.1512],[120.2723,-4.1134,24.2512],[120.2773,-4.1147,17.6814],[120.2867,-4.1132,26.1954],[120.2917,-4.1153,18.1893],[120.3007,-4.1141,15.3549],[120.3032,-4.112,11.8499],[120.3053,-4.1057,3.7974],[120.3088,-4.1052,2.0],[120.3125,-4.1017,2.0],[120.3142,-4.0927,2.0],[120.3161,-4.0911,2.0],[120.3223,-4.0978,1.25],[120.3345,-4.0958,1.0651],[120.3459,-4.0797,3.0776],[120.3489,-4.0741,1.9614],[120.3486,-4.0717,0.9209],[120.3364,-4.0646,2.5],[120.3346,-4.0607,2.6232],[120.3351,-4.0558,2.7769],[120.3327,-4.055,2.8525],[120.3338,-4.0534,2.5],[120.3297,-4.0532,2.5461],[120.328,-4.051,2.5],[120.3256,-4.0537,2.9415],[120.3225,-4.0523,2.612],[120.3117,-4.0554,3.7003],[120.3052,-4.0545,5.1939],[120.2996,-4.0725,9.9641],[120.297,-4.0751,14.9346],[120.2728,-4.0645,13.4036],[120.2842,-4.0444,16.5768],[120.2946,-4.0444,13.747],[120.2994,-4.0391,13.7762],[120.3012,-4.0336,14.5687],[120.3035,-4.0068,8.0315],[120.3031,-4.0052,4.2935],[120.2958,-4.0015,2.5273],[120.2831,-4.0043,3.1602],[120.2778,-4.003,3.8208],[120.2662,-3.9965,4.6501],[120.2613,-3.997,5.7843],[120.259,-3.998,6.6191],[120.2562,-4.0135,15.2103],[120.2551,-4.0201,27.9],[120.2565,-4.0257,13.424],[120.2374,-4.0455,19.3409],[120.2332,-4.0462,25.0243],[120.2297,-4.0432,21.9718],[120.2268,-4.0434,23.1409],[120.222,-4.0458,26.4372],[120.2188,-4.0518,33.453],[120.2101,-4.0555,37.5408],[120.2042,-4.0606,46.7856],[120.1906,-4.0625,67.3419],[120.1834,-4.066,56.9651],[120.1772,-4.0637,52.1354],[120.1724,-4.0693,36.2416],[120.1717,-4.0754,34.9917],[120.1731,-4.0795,33.0807],[120.1708,-4.0885,23.8498],[120.173,-4.0931,22.6485],[120.1723,-4.0969,20.6936],[120.165,-4.1019,15.5103],[120.1614,-4.1071,13.5001],[120.1621,-4.1112,12.3743],[120.1664,-4.1142,8.233],[120.1675,-4.1187,12.4985],[120.1668,-4.1213,12.9149],[120.1639,-4.1232,6.4182],[120.166,-4.1345,3.3921],[120.1639,-4.1379,3.5004],[120.1615,-4.1504,4.8828],[120.1636,-4.1517,4.903],[120.1659,-4.1503,5.3148],[120.1757,-4.1313,6.4758]]]]}}