{"type":"Feature","properties":{"GID_3":"IDN.12.7.11_1","GID_0":"IDN","country":"Indonesia","GID_1":"IDN.12_1","province":"KalimantanBarat","NL_NAME_1":"NA","GID_2":"IDN.12.7_1","county":"Landak","NL_NAME_2":"NA","city":"Sebangki","VARNAME_3":"NA","NL_NAME_3":"NA","TYPE_3":"Kecamatan","ENGTYPE_3":"Sub-district","CC_3":"6103020","HASC_3":"NA","name":"Sebangki.city"},
"geometry":{"type": "MultiPolygon","coordinates": [[[[109.6345,0.0324,7.3339],[109.6357,0.0341,11.2811],[109.6355,0.0422,2.8961],[109.629,0.0466,2.0892],[109.6354,0.0506,11.1492],[109.6456,0.0516,5.2209],[109.6428,0.0412,2.6477],[109.6529,0.0363,11.1614],[109.6562,0.0363,2.2258],[109.6578,0.0379,1.0],[109.6502,0.0438,15.2514],[109.6491,0.0483,5.1045],[109.6504,0.0518,3.1066],[109.6528,0.0507,13.695],[109.6584,0.0422,11.8703],[109.6614,0.041,12.3146],[109.6644,0.0423,6.1315],[109.6643,0.0452,3.1934],[109.6567,0.0503,9.0251],[109.6562,0.0565,9.6904],[109.6586,0.0596,7.208],[109.6675,0.0561,2.9357],[109.6601,0.0615,4.2172],[109.6586,0.0645,3.7103],[109.6623,0.0664,14.3428],[109.6669,0.0614,3.1076],[109.6704,0.0722,15.3942],[109.6724,0.0708,8.1021],[109.6709,0.0615,6.9937],[109.6732,0.0569,1.6979],[109.6771,0.0682,9.1549],[109.6824,0.0641,12.5274],[109.689,0.0675,12.6794],[109.6945,0.064,17.1592],[109.696,0.0646,4.8072],[109.6881,0.074,14.317],[109.6873,0.0813,13.1688],[109.6916,0.0904,11.7807],[109.6976,0.09,11.3291],[109.697,0.0999,4.5765],[109.6955,0.1012,10.748],[109.6915,0.0998,10.1831],[109.6891,0.1018,11.1148],[109.6944,0.1053,14.5933],[109.692,0.1132,14.6099],[109.7009,0.1276,12.1105],[109.7129,0.1366,13.33],[109.7109,0.1385,7.5717],[109.7049,0.1385,5.8346],[109.7098,0.1421,13.9097],[109.7051,0.1624,10.2973],[109.703,0.2387,48.6054],[109.701,0.2507,50.5918],[109.6932,0.2662,32.6906],[109.6751,0.2818,361.6768],[109.6193,0.3172,222.6194],[109.6066,0.3207,160.6176],[109.5899,0.3184,45.5501],[109.5847,0.3137,31.4414],[109.568,0.3068,21.9648],[109.5507,0.3069,52.6834],[109.5325,0.3109,93.7851],[109.5277,0.299,34.5268],[109.5158,0.2854,27.9852],[109.5126,0.2756,13.9693],[109.5116,0.2702,25.415],[109.5161,0.2475,12.7603],[109.5138,0.2342,13.9565],[109.5054,0.2265,7.1839],[109.4988,0.2248,6.5749],[109.4944,0.2204,11.5888],[109.4913,0.2202,8.4566],[109.48779999999999,0.2146,8.8363],[109.4893,0.2064,11.0126],[109.493,0.2024,6.9968],[109.489,0.192,12.0506],[109.4908,0.185,8.9168],[109.4886,0.1858,9.2728],[109.4901,0.1782,7.6563],[109.487,0.1756,15.1099],[109.48779999999999,0.1665,5.447],[109.4915,0.1622,9.2328],[109.4924,0.1645,11.6902],[109.4949,0.1649,13.7559],[109.4954,0.1607,9.2291],[109.4998,0.1566,6.76],[109.5015,0.1499,11.126],[109.4996,0.1461,11.7576],[109.507,0.1455,8.8464],[109.5074,0.1391,10.1908],[109.5018,0.14,6.6834],[109.5013,0.1388,7.7154],[109.5037,0.136,6.2212],[109.5067,0.1358,7.7657],[109.5073,0.1317,5.08],[109.5103,0.1277,6.1068],[109.5078,0.1241,6.5379],[109.5113,0.1179,8.3742],[109.5008,0.0989,5.0935],[109.5032,0.0926,10.5022],[109.5011,0.0915,7.1289],[109.4964,0.0927,6.8239],[109.4954,0.0902,4.9267],[109.5001,0.087,5.1965],[109.5015,0.0691,5.5116],[109.508,0.0633,3.7636],[109.522,0.0391,7.7558],[109.5213,0.0349,5.569],[109.5144,0.0256,4.5933],[109.5097,0.0129,5.7343],[109.5075,0.0032,5.1863],[109.5105,-0.0093,10.8521],[109.5008,-0.024,3.4147],[109.5019,-0.0308,7.2319],[109.5041,-0.0317,3.2102],[109.5134,-0.0245,10.7121],[109.5255,-0.0243,2.9283],[109.5311,-0.0166,5.6555],[109.5486,-0.0103,11.4293],[109.5492,-0.0072,4.0158],[109.5434,-0.0025,2.7161],[109.5432,0.0005,9.0551],[109.5502,-0.0013,5.1888],[109.5568,0.0023,3.215],[109.5621,0.0019,6.061],[109.5625,-0.0001,5.4636],[109.5575,-0.005,2.0629],[109.5621,-0.0136,2.9235],[109.5676,-0.0028,5.2604],[109.5809,-0.0042,8.2124],[109.5811,-0.0009,1.6329],[109.5703,0.0073,3.2784],[109.5792,0.0153,1.8291],[109.5822,0.0148,1.9569],[109.5874,0.0092,2.9756],[109.5891,0.0131,1.8636],[109.5892,0.0219,4.1193],[109.5873,0.026,1.6958],[109.5848,0.0278,9.6193],[109.5806,0.022,2.8904],[109.579,0.0219,3.0756],[109.577,0.0285,3.822],[109.5678,0.032,3.4696],[109.5678,0.0344,3.9972],[109.5724,0.0386,5.6143],[109.5821,0.0347,3.6415],[109.5841,0.0356,5.0791],[109.5853,0.0404,2.1808],[109.5921,0.0396,4.7664],[109.5938,0.0354,1.0],[109.5924,0.0258,7.4882],[109.5935,0.0244,1.6599],[109.6045,0.0356,11.6165],[109.6128,0.0195,2.7522],[109.6145,0.0201,1.798],[109.6149,0.0223,3.6467],[109.6115,0.0326,2.2498],[109.6145,0.0359,10.2185],[109.6167,0.0355,4.0923],[109.6144,0.0301,3.3787],[109.6153,0.0266,2.7431],[109.6209,0.0236,2.6605],[109.6272,0.0258,5.9527],[109.6263,0.0339,3.1204],[109.6279,0.0371,9.5918],[109.6301,0.0371,10.5959],[109.6345,0.0324,7.3339]]]]}}