{"type":"Feature","properties":{"GID_3":"IDN.29.12.11_1","GID_0":"IDN","country":"Indonesia","GID_1":"IDN.29_1","province":"SulawesiUtara","NL_NAME_1":"NA","GID_2":"IDN.29.12_1","county":"MinahasaUtara","NL_NAME_2":"NA","city":"Wori","VARNAME_3":"NA","NL_NAME_3":"NA","TYPE_3":"Kecamatan","ENGTYPE_3":"Sub-district","CC_3":"7106060","HASC_3":"NA","name":"Wori.city"},
"geometry":{"type": "MultiPolygon","coordinates": [[[[124.8948,1.5706,64.0044],[124.9023,1.5703,51.1949],[124.9065,1.5724,71.0808],[124.9053,1.5799,189.4119],[124.9062,1.5846,132.9808],[124.9015,1.5996,78.806],[124.9074,1.6157,344.1767],[124.9151,1.6263,215.3954],[124.9246,1.6343,187.9943],[124.9335,1.6306,227.9793],[124.9404,1.6305,341.9547],[124.9434,1.6323,273.9513],[124.9461,1.6379,264.5631],[124.9462,1.6507,102.6112],[124.9483,1.6582,86.1168],[124.9534,1.6625,43.8521],[124.9571,1.6599,15.5659],[124.9614,1.6648,11.7616],[124.9604,1.674,6.1328],[124.9588,1.6743,4.8843],[124.9598,1.6753,6.1328],[124.9585,1.6767,5.6526],[124.9603,1.6786,3.6318],[124.9564,1.6826,0.3289],[124.9518,1.6829,1.6253],[124.9496,1.6816,1.7653],[124.9445,1.6865,2.0619],[124.9408,1.6831,3.079],[124.9408,1.6844,2.0571],[124.939,1.6841,2.0571],[124.9409,1.6935,0.1913],[124.9381,1.6916,0.7241],[124.9372,1.6875,2.5685],[124.9357,1.6883,0.0],[124.93,1.6837,0.0],[124.9303,1.6752,0.9458],[124.9265,1.6763,0.0],[124.9241,1.6733,0.0],[124.9252,1.6648,0.0],[124.9305,1.6658,3.137],[124.9323,1.6648,2.169],[124.93,1.6653,2.021],[124.9285,1.6632,0.0],[124.9311,1.6618,2.7228],[124.928,1.6614,1.7845],[124.9313,1.6565,3.3467],[124.9249,1.6622,0.0],[124.9231,1.6608,0.7464],[124.923,1.6581,3.5708],[124.9206,1.6578,2.6287],[124.9248,1.6553,3.419],[124.9258,1.6514,3.7001],[124.9244,1.6526,3.329],[124.9246,1.6548,3.419],[124.9211,1.6563,2.345],[124.9188,1.6518,5.8567],[124.9171,1.6514,8.7598],[124.922,1.6614,0.5709],[124.921,1.664,0.0],[124.9181,1.6629,0.0],[124.9172,1.6598,1.4012],[124.9122,1.657,0.0],[124.9114,1.6534,1.2631],[124.9019,1.6495,0.0],[124.8958,1.6385,5.5391],[124.8824,1.6317,0.9485],[124.8713,1.6206,1.7339],[124.8723,1.6173,0.0],[124.8679,1.6135,1.7102],[124.8674,1.6068,11.3159],[124.8691,1.6031,19.9267],[124.8671,1.599,5.7338],[124.8655,1.5978,5.0162],[124.8659,1.5997,0.284],[124.8622,1.6002,4.6943],[124.862,1.6033,0.1515],[124.8555,1.5987,4.2065],[124.851,1.5996,0.0],[124.8494,1.5978,0.8526],[124.8475,1.5984,1.4367],[124.8474,1.5968,4.3752],[124.8465,1.5983,1.4367],[124.8448,1.5966,4.9081],[124.8422,1.597,0.0],[124.8383,1.5938,1.4327],[124.8293,1.592,0.0],[124.8276,1.5883,2.3962],[124.8206,1.5825,1.5363],[124.8446,1.5657,602.8481],[124.8499,1.569,354.2517],[124.857,1.569,194.6198],[124.8702,1.5718,57.1191],[124.8749,1.5766,53.0396],[124.8778,1.5747,37.8328],[124.8767,1.571,58.784],[124.8797,1.5729,38.758],[124.8825,1.5714,47.4659],[124.8863,1.574,47.1155],[124.8908,1.5692,36.4652],[124.8948,1.5706,64.0044]]],
[[[124.7783,1.7095,3.7838],[124.7759,1.716,0.5027],[124.7702,1.7237,2.552],[124.7704,1.7292,0.0],[124.7691,1.7312,0.3192],[124.7704,1.7363,0.0],[124.7667,1.7446,0.0],[124.7563,1.7394,7.4115],[124.7507,1.733,4.1348],[124.7481,1.724,3.6214],[124.7522,1.7184,3.1713],[124.7451,1.7227,5.9094],[124.7403,1.7285,3.6931],[124.7391,1.7332,1.3491],[124.7361,1.732,2.9121],[124.7369,1.7301,2.9753],[124.7346,1.7307,0.0],[124.7314,1.728,4.7049],[124.7342,1.7133,0.0],[124.7441,1.7036,0.0],[124.7644,1.6929,1.6222],[124.7727,1.6928,0.0],[124.7784,1.6951,0.0],[124.7784,1.698,4.2161],[124.7807,1.6975,0.0],[124.7802,1.7058,1.251],[124.7783,1.7095,3.7838]]],
[[[124.796,1.785,29.2713],[124.7986,1.7939,0.0],[124.7929,1.7954,4.8224],[124.7895,1.7909,24.672],[124.7883,1.7855,0.0],[124.7904,1.7772,39.0908],[124.7978,1.776,0.0],[124.796,1.785,29.2713]]],
[[[124.8038,1.7843,1.9988],[124.8048,1.7839,1.9988],[124.8051,1.7848,1.9988],[124.8045,1.7852,1.9988],[124.8038,1.7843,1.9988]]],
[[[124.7464,1.7422,0.0],[124.7445,1.7412,5.845],[124.7431,1.7425,6.8801],[124.7444,1.744,3.3811],[124.744,1.7499,2.4978],[124.7407,1.7528,2.2141],[124.738,1.7523,0.8732],[124.7355,1.7489,6.4572],[124.7345,1.7433,0.0],[124.74,1.7326,1.2101],[124.7447,1.7287,0.0],[124.748,1.732,0.0],[124.7492,1.738,3.8508],[124.7464,1.7422,0.0]]],
[[[124.757,1.7412,2.7027],[124.7571,1.7405,2.7027],[124.758,1.7406,3.6165],[124.7573,1.7413,2.7027],[124.757,1.7412,2.7027]]],
[[[124.7598,1.7414,3.6165],[124.7662,1.7452,0.0],[124.7584,1.7532,1.4481],[124.7551,1.7453,3.7496],[124.7598,1.7414,3.6165]]],
[[[124.7538,1.7475,3.6696],[124.755,1.7473,3.6696],[124.7549,1.749,3.2451],[124.7537,1.7488,0.0],[124.7538,1.7475,3.6696]]],
[[[124.7507,1.746,1.7502],[124.7515,1.7473,1.1356],[124.7473,1.7508,0.0],[124.7464,1.7475,6.1504],[124.7507,1.746,1.7502]]],
[[[124.7491,1.7517,2.542],[124.7502,1.751,0.0],[124.7503,1.7527,0.0],[124.7496,1.7526,0.0],[124.7491,1.7517,2.542]]]]}}