{"type":"Feature","properties":{"GID_3":"IDN.12.7.8_1","GID_0":"IDN","country":"Indonesia","GID_1":"IDN.12_1","province":"KalimantanBarat","NL_NAME_1":"NA","GID_2":"IDN.12.7_1","county":"Landak","NL_NAME_2":"NA","city":"Menyuke","VARNAME_3":"NA","NL_NAME_3":"NA","TYPE_3":"Kecamatan","ENGTYPE_3":"Sub-district","CC_3":"6103080","HASC_3":"NA","name":"Menyuke.city"},
"geometry":{"type": "MultiPolygon","coordinates": [[[[109.6533,0.5041,62.6238],[109.6677,0.5108,76.3281],[109.6746,0.5109,140.3228],[109.6814,0.5066,97.2885],[109.6919,0.491,113.0445],[109.6981,0.4862,128.2596],[109.7339,0.4675,53.0029],[109.7449,0.4704,54.2189],[109.7447,0.4893,70.6953],[109.7499,0.4993,41.3615],[109.7537,0.5123,45.1434],[109.7659,0.5304,52.3274],[109.7675,0.5391,53.5289],[109.7718,0.5424,54.7568],[109.7847,0.5453,153.58],[109.7976,0.556,220.6776],[109.8095,0.5627,216.8882],[109.812,0.566,211.4453],[109.8145,0.5796,213.6548],[109.8113,0.5822,204.347],[109.8049,0.5817,239.581],[109.8009,0.583,236.863],[109.7923,0.5796,221.8593],[109.7881,0.5798,218.1167],[109.7868,0.584,191.6692],[109.7909,0.5916,226.3472],[109.7894,0.6015,243.0702],[109.7789,0.6108,259.9698],[109.7772,0.6186,120.4549],[109.7771,0.6301,92.501],[109.7739,0.6336,95.5074],[109.7609,0.6389,118.5334],[109.7488,0.6485,105.6156],[109.731,0.6536,93.7638],[109.7112,0.6494,88.6534],[109.6866,0.6502,79.5612],[109.6747,0.6583,94.9964],[109.6708,0.6733,311.9205],[109.6685,0.6911,334.3052],[109.6626,0.7052,401.5999],[109.6611,0.7203,167.2565],[109.6533,0.7473,100.6676],[109.6329,0.7433,79.0733],[109.612,0.7316,100.9308],[109.6034,0.7298,85.6307],[109.5811,0.7179,122.931],[109.5653,0.7188,254.8608],[109.565,0.7174,222.0081],[109.5737,0.7099,130.3087],[109.5785,0.6975,109.1343],[109.5767,0.6947,143.7834],[109.5866,0.6968,106.9968],[109.5925,0.694,141.0877],[109.6061,0.6938,121.5135],[109.6094,0.6897,118.9749],[109.6102,0.6695,85.6126],[109.6221,0.6553,106.7217],[109.6226,0.6505,98.0001],[109.62,0.6467,71.2085],[109.6203,0.6404,76.9292],[109.6279,0.6323,79.9775],[109.6279,0.6265,80.1083],[109.6248,0.6217,76.4765],[109.6221,0.6212,65.0774],[109.5878,0.6209,65.8406],[109.5925,0.6177,60.059],[109.599,0.6051,79.8974],[109.599,0.599,68.95],[109.5915,0.5867,90.8071],[109.5727,0.5697,64.3212],[109.5553,0.5632,124.3051],[109.5512,0.5632,158.1655],[109.5446,0.5586,175.5528],[109.5295,0.5584,294.2407],[109.5347,0.5498,248.6744],[109.532,0.5333,148.6359],[109.5342,0.5294,184.5712],[109.5404,0.5255,226.8282],[109.5462,0.5164,157.0346],[109.5491,0.5079,110.7703],[109.5519,0.49,114.5005],[109.5562,0.485,225.7173],[109.5724,0.4727,360.5508],[109.5832,0.4578,180.3076],[109.5921,0.4675,359.7779],[109.5941,0.4795,396.6784],[109.5963,0.4824,349.4667],[109.6069,0.4819,290.0891],[109.6176,0.4759,121.7369],[109.6248,0.4766,121.4141],[109.6288,0.4806,150.873],[109.6293,0.4907,108.9218],[109.6326,0.4963,215.8889],[109.6414,0.5012,99.6969],[109.6533,0.5041,62.6238]]]]}}