{"type":"Feature","properties":{"GID_3":"IDN.32.4.16_1","GID_0":"IDN","country":"Indonesia","GID_1":"IDN.32_1","province":"SumateraUtara","NL_NAME_1":"NA","GID_2":"IDN.32.4_1","county":"DeliSerdang","NL_NAME_2":"NA","city":"Patumbak","VARNAME_3":"NA","NL_NAME_3":"NA","TYPE_3":"Kecamatan","ENGTYPE_3":"Sub-district","CC_3":"1212210","HASC_3":"NA","name":"Patumbak.city"},
"geometry":{"type": "MultiPolygon","coordinates": [[[[98.7083,3.4689,47.3171],[98.7069,3.4616,58.6267],[98.708,3.4519,72.3759],[98.7152,3.4397,91.5168],[98.7276,3.4599,69.1625],[98.7404,3.4859,61.3037],[98.7449,3.5074,39.8194],[98.7448,3.5235,34.9799],[98.7424,3.5294,32.1835],[98.7013,3.5313,36.7471],[98.7052,3.5109,41.4282],[98.7044,3.4995,43.2983],[98.7083,3.4689,47.3171]]]]}}