{"type":"Feature","properties":{"GID_3":"IDN.17.14.7_1","GID_0":"IDN","country":"Indonesia","GID_1":"IDN.17_1","province":"Lampung","NL_NAME_1":"NA","GID_2":"IDN.17.14_1","county":"WayKanan","NL_NAME_2":"NA","city":"GunungLabuhan","VARNAME_3":"NA","NL_NAME_3":"NA","TYPE_3":"Kecamatan","ENGTYPE_3":"Sub-district","CC_3":"1807021","HASC_3":"NA","name":"Gunung_Labuhan.city"},
"geometry":{"type": "MultiPolygon","coordinates": [[[[104.6196,-4.8248,134.9689],[104.6262,-4.8034,168.3809],[104.6236,-4.7999,160.3768],[104.6289,-4.7986,155.5182],[104.6365,-4.7843,139.9504],[104.6385,-4.7848,141.1584],[104.6405,-4.7808,154.0922],[104.6418,-4.7739,128.9918],[104.6376,-4.7689,153.8605],[104.6376,-4.766,185.3465],[104.6427,-4.7598,237.7011],[104.6451,-4.7528,146.9525],[104.6391,-4.7491,113.9026],[104.6309,-4.7337,119.4662],[104.6286,-4.7317,108.8956],[104.6251,-4.7315,97.1019],[104.6177,-4.7171,126.743],[104.6285,-4.7113,106.3131],[104.6308,-4.7021,112.9397],[104.6279,-4.6977,131.7365],[104.6147,-4.6944,124.942],[104.6055,-4.686,107.2863],[104.6063,-4.6812,120.7998],[104.6108,-4.6798,109.0182],[104.6103,-4.6764,116.0254],[104.6141,-4.6692,106.4372],[104.602,-4.6671,135.556],[104.5975,-4.663,132.2428],[104.5845,-4.6574,132.5101],[104.5619,-4.6428,75.8733],[104.5624,-4.6454,75.7768],[104.5656,-4.6461,83.5348],[104.5698,-4.6524,81.2832],[104.5718,-4.6603,79.7802],[104.5742,-4.6624,79.5767],[104.5709,-4.668,77.8797],[104.5722,-4.6744,87.1871],[104.5711,-4.6756,87.624],[104.5733,-4.6768,78.4463],[104.5755,-4.6753,87.4057],[104.5761,-4.6808,83.01],[104.5787,-4.682,81.7123],[104.5786,-4.685,89.4885],[104.577,-4.6836,82.001],[104.5752,-4.6862,93.0971],[104.5773,-4.6892,82.5575],[104.5733,-4.689,88.9496],[104.5761,-4.6918,98.4919],[104.5732,-4.6976,90.2363],[104.575,-4.6999,93.7017],[104.5723,-4.7091,96.7648],[104.5746,-4.7107,92.0177],[104.5733,-4.7148,100.8576],[104.5771,-4.7177,97.4501],[104.5736,-4.7208,99.7167],[104.5768,-4.7249,108.9868],[104.5741,-4.7266,99.8371],[104.569,-4.7358,94.4234],[104.5614,-4.7366,99.3748],[104.5619,-4.7443,103.2529],[104.5586,-4.7463,105.1427],[104.563,-4.7573,151.8994],[104.5674,-4.7778,189.229],[104.5532,-4.7944,169.8309],[104.5385,-4.7884,136.5633],[104.536,-4.7906,133.4149],[104.5355,-4.7931,144.0631],[104.5323,-4.7946,136.5481],[104.5361,-4.7976,137.2809],[104.5345,-4.7978,137.2809],[104.5335,-4.8026,149.2107],[104.5315,-4.8011,144.47],[104.5285,-4.8027,145.6722],[104.5277,-4.8061,149.5194],[104.5254,-4.8064,146.4635],[104.5242,-4.8101,169.3147],[104.5248,-4.8154,177.7048],[104.5237,-4.8175,160.8267],[104.5215,-4.8178,176.8223],[104.5221,-4.8209,168.293],[104.5312,-4.8202,212.9259],[104.5414,-4.8269,218.7075],[104.5525,-4.8307,178.5067],[104.604,-4.8251,174.9915],[104.6078,-4.8271,199.7644],[104.6102,-4.8312,172.6105],[104.6125,-4.8313,140.4455],[104.6196,-4.8248,134.9689]]]]}}