{"type":"Feature","properties":{"GID_3":"IDN.28.12.2_1","GID_0":"IDN","country":"Indonesia","GID_1":"IDN.28_1","province":"SulawesiTenggara","NL_NAME_1":"NA","GID_2":"IDN.28.12_1","county":"Wakatobi","NL_NAME_2":"NA","city":"KaledupaSelatan","VARNAME_3":"NA","NL_NAME_3":"NA","TYPE_3":"Kecamatan","ENGTYPE_3":"Sub-district","CC_3":"7407031","HASC_3":"NA","name":"Kaledupa_Selatan.city"},
"geometry":{"type": "MultiPolygon","coordinates": [[[[123.8247,-5.5869,0.0],[123.8237,-5.5826,1.0584],[123.8183,-5.5823,1.0491],[123.8199,-5.5991,0.0],[123.823,-5.5964,0.0],[123.8247,-5.5869,0.0]]],
[[[123.8179,-5.5588,3.0672],[123.812,-5.5585,1.9397],[123.806,-5.5469,0.0],[123.789,-5.5329,0.0],[123.786,-5.5377,11.6251],[123.776,-5.546,52.5434],[123.773,-5.5464,40.6227],[123.769,-5.5391,64.1252],[123.764,-5.5359,54.3998],[123.755,-5.5436,0.8497],[123.7621,-5.5526,6.2816],[123.7619,-5.5585,0.0],[123.7709,-5.5666,6.4432],[123.7834,-5.5917,3.9933],[123.7914,-5.5955,0.0],[123.8031,-5.5952,3.0635],[123.815,-5.6017,0.0],[123.82,-5.602,0.0],[123.818,-5.5897,7.1011],[123.8136,-5.5866,4.9228],[123.8105,-5.5793,0.0],[123.8145,-5.5748,0.0],[123.8266,-5.5716,0.0],[123.8278,-5.5639,3.4455],[123.827,-5.5594,0.0],[123.8179,-5.5588,3.0672]]],
[[[123.8427,-5.5514,9.8869],[123.8383,-5.5544,10.9501],[123.8357,-5.5483,0.0],[123.8259,-5.5499,0.0],[123.8284,-5.5549,0.0],[123.8351,-5.5572,24.3821],[123.8305,-5.5612,11.0825],[123.8301,-5.5647,7.0064],[123.8314,-5.5747,0.0],[123.8335,-5.577,13.6869],[123.8334,-5.5794,15.8594],[123.8309,-5.5811,10.4337],[123.8312,-5.5837,3.1474],[123.8333,-5.586,12.1039],[123.8488,-5.5881,0.0],[123.8649,-5.5944,2.9525],[123.8728,-5.5925,1.1426],[123.8777,-5.585,0.0],[123.8841,-5.5841,0.0],[123.8852,-5.5792,0.0],[123.883,-5.5723,0.0],[123.8696,-5.5647,0.0],[123.8649,-5.5685,0.0],[123.8618,-5.5683,3.0744],[123.8608,-5.5659,0.0],[123.8583,-5.5652,2.4633],[123.8591,-5.5601,0.0],[123.8577,-5.5581,0.0],[123.8495,-5.5574,0.0],[123.8479,-5.5525,10.7754],[123.8427,-5.5514,9.8869]]],
[[[123.8671,-5.5391,16.665],[123.8697,-5.542,2.2298],[123.8712,-5.5338,0.0],[123.8647,-5.5333,23.0788],[123.8595,-5.54,29.8153],[123.8517,-5.5451,1.3908],[123.8506,-5.5478,12.1998],[123.8519,-5.5527,39.377],[123.8613,-5.5569,10.9086],[123.8671,-5.5562,0.0],[123.871,-5.5481,9.5163],[123.8674,-5.5463,0.0],[123.8671,-5.5391,16.665]]]]}}