{"type":"Feature","properties":{"GID_3":"IDN.32.25.7_1","GID_0":"IDN","country":"Indonesia","GID_1":"IDN.32_1","province":"SumateraUtara","NL_NAME_1":"NA","GID_2":"IDN.32.25_1","county":"Pematangsiantar","NL_NAME_2":"NA","city":"SiantarTimur","VARNAME_3":"NA","NL_NAME_3":"NA","TYPE_3":"Kecamatan","ENGTYPE_3":"Sub-district","CC_3":"1273050","HASC_3":"NA","name":"Siantar_Timur.city"},
"geometry":{"type": "MultiPolygon","coordinates": [[[[99.0773,2.9504,375.9858],[99.0813,2.9496,371.9305],[99.0832,2.9512,365.6116],[99.0842,2.9557,360.3902],[99.0815,2.9567,365.729],[99.0884,2.9646,352.6544],[99.0878,2.9672,344.3036],[99.0902,2.9726,327.4538],[99.0845,2.9726,344.6788],[99.0827,2.9751,354.0359],[99.0765,2.9745,363.549],[99.074,2.9704,374.0652],[99.0761,2.9693,374.8659],[99.0745,2.9671,378.5577],[99.0718,2.9668,379.8111],[99.0708,2.9637,381.0355],[99.0725,2.962,385.6972],[99.0702,2.961,384.0868],[99.0701,2.9588,387.1758],[99.0717,2.9562,380.8534],[99.0692,2.9533,384.8308],[99.0707,2.9488,388.7772],[99.0773,2.9504,375.9858]]]]}}