{"type":"Feature","properties":{"GID_3":"IDN.29.5.11_1","GID_0":"IDN","country":"Indonesia","GID_1":"IDN.29_1","province":"SulawesiUtara","NL_NAME_1":"NA","GID_2":"IDN.29.5_1","county":"BolaangMongondow","NL_NAME_2":"NA","city":"Poigar","VARNAME_3":"NA","NL_NAME_3":"NA","TYPE_3":"Kecamatan","ENGTYPE_3":"Sub-district","CC_3":"7101090","HASC_3":"NA","name":"Poigar.city"},
"geometry":{"type": "MultiPolygon","coordinates": [[[[124.2914,0.8287,740.2224],[124.3043,0.833,719.4531],[124.3034,0.8365,629.5194],[124.3049,0.843,777.4123],[124.3087,0.8495,904.6492],[124.3135,0.8512,855.4118],[124.3151,0.8568,996.9443],[124.3199,0.8599,945.4879],[124.3208,0.8624,981.1533],[124.3252,0.8626,955.0596],[124.3261,0.864,1021.1122],[124.3234,0.8698,1092.811],[124.3283,0.8725,1019.4952],[124.3297,0.8762,958.1962],[124.3355,0.8792,948.18],[124.345,0.8808,988.1945],[124.3544,0.8749,979.0875],[124.3638,0.8757,770.6533],[124.379,0.8707,587.8534],[124.3806,0.8792,564.5377],[124.3783,0.8849,516.7914],[124.3797,0.8892,491.3646],[124.377,0.9118,378.9138],[124.3717,0.9185,280.4664],[124.3662,0.9206,245.8552],[124.3669,0.9266,279.783],[124.3691,0.9305,202.4032],[124.3693,0.9375,174.9587],[124.3719,0.9427,160.7989],[124.3704,0.9475,140.8396],[124.3723,0.9484,144.0405],[124.3726,0.9518,140.9557],[124.3774,0.9517,131.5074],[124.3758,0.9569,123.4216],[124.3708,0.9569,140.1346],[124.3731,0.9595,195.6131],[124.3706,0.9631,110.3543],[124.3684,0.9607,123.131],[124.3651,0.9636,96.0168],[124.3611,0.9628,89.1449],[124.3648,0.968,75.4222],[124.3623,0.9676,78.7134],[124.363,0.9733,143.6732],[124.3602,0.9728,77.2628],[124.3574,0.9757,53.7864],[124.3581,0.9813,47.7342],[124.3558,0.9862,46.646],[124.3517,0.9856,37.4704],[124.3447,0.9887,32.7913],[124.3442,0.9914,30.0569],[124.3367,0.9876,22.6202],[124.3341,0.9879,22.911],[124.3338,0.9905,21.7483],[124.3315,0.9903,51.2506],[124.329,0.9945,14.6543],[124.3262,0.9951,14.056],[124.3247,1.0016,15.3058],[124.321,1.0004,23.6036],[124.3182,1.0029,9.2888],[124.3185,1.007,11.443],[124.3168,1.0081,11.8263],[124.309,1.0051,10.1457],[124.3046,1.0054,6.3049],[124.304,1.004,6.3049],[124.3056,1.0021,7.5717],[124.3043,1.0012,11.4322],[124.2986,1.0014,7.7653],[124.2971,1.0097,1.9726],[124.29,1.0045,9.7065],[124.2763,0.9991,1.1167],[124.2678,0.9991,4.5092],[124.2579,1.0024,0.0],[124.2525,0.9999,3.1935],[124.244,1.0016,6.0144],[124.2441,0.9982,1.6762],[124.242,0.9994,0.0],[124.2371,0.9936,2.3911],[124.2289,0.9899,17.7418],[124.2185,0.9899,4.9533],[124.215,0.993,4.2143],[124.2098,0.9875,3.5434],[124.2074,0.9871,4.1786],[124.2032,0.9897,13.7835],[124.1941,0.985,26.7877],[124.1938,0.9827,11.3558],[124.1907,0.983,5.6928],[124.1868,0.9771,5.5546],[124.1844,0.9761,22.7131],[124.184,0.9738,31.4552],[124.1813,0.9731,0.0],[124.1819,0.9685,20.9868],[124.1789,0.9668,0.0],[124.1769,0.9631,2.7385],[124.1784,0.9612,5.0238],[124.1748,0.9561,4.2006],[124.1771,0.9536,43.1983],[124.1787,0.9546,87.0753],[124.1823,0.9525,164.7825],[124.2015,0.9575,377.3327],[124.2124,0.9534,367.6794],[124.219,0.9407,480.3383],[124.2196,0.9344,617.9946],[124.2236,0.9326,664.6783],[124.231,0.9224,756.7263],[124.2326,0.913,690.4419],[124.2309,0.904,433.4035],[124.2324,0.8975,242.6389],[124.2314,0.8953,215.0346],[124.2291,0.8949,179.1505],[124.2366,0.89,271.9324],[124.2394,0.8765,573.4119],[124.2355,0.8709,720.4554],[124.2352,0.865,880.5481],[124.2249,0.8639,905.554],[124.2247,0.8588,957.4492],[124.2226,0.8557,1042.0393],[124.2267,0.8514,886.9138],[124.2346,0.85,962.4866],[124.2423,0.8422,946.0126],[124.254,0.8412,1123.9941],[124.2605,0.845,1235.8579],[124.2644,0.8425,1278.2626],[124.2683,0.8435,1288.0229],[124.2673,0.832,1110.9404],[124.2737,0.8283,1049.45],[124.277,0.8224,883.1125],[124.2914,0.8287,740.2224]]]]}}