{"type":"Feature","properties":{"GID_3":"IDN.17.1.6_1","GID_0":"IDN","country":"Indonesia","GID_1":"IDN.17_1","province":"Lampung","NL_NAME_1":"NA","GID_2":"IDN.17.1_1","county":"BandarLampung","NL_NAME_2":"NA","city":"Sukarame","VARNAME_3":"NA","NL_NAME_3":"NA","TYPE_3":"Kecamatan","ENGTYPE_3":"Sub-district","CC_3":"1871090","HASC_3":"NA","name":"Sukarame.city"},
"geometry":{"type": "MultiPolygon","coordinates": [[[[105.2662,-5.3857,108.0472],[105.2659,-5.3928,106.8633],[105.2717,-5.397,91.9966],[105.2775,-5.3954,90.0113],[105.2801,-5.3917,95.4928],[105.2827,-5.3918,93.4079],[105.2843,-5.3943,90.6699],[105.2979,-5.3928,106.5247],[105.3036,-5.3944,101.4065],[105.3219,-5.3951,107.6601],[105.3217,-5.3887,102.8682],[105.3156,-5.3878,97.2829],[105.3171,-5.3824,102.2634],[105.3156,-5.3757,101.5376],[105.3102,-5.375,101.315],[105.3102,-5.3737,101.7806],[105.3084,-5.3747,102.1639],[105.3081,-5.3613,109.2283],[105.3053,-5.3612,111.986],[105.3057,-5.3585,109.5477],[105.2898,-5.369,97.6003],[105.2895,-5.3706,95.6724],[105.2883,-5.3697,95.6724],[105.2877,-5.3711,95.6724],[105.2765,-5.3729,106.2416],[105.2852,-5.3816,105.248],[105.2781,-5.3828,100.5534],[105.272,-5.3807,110.4056],[105.2705,-5.387,100.8614],[105.2662,-5.3857,108.0472]]]]}}