{"type":"Feature","properties":{"GID_3":"IDN.20.5.10_1","GID_0":"IDN","country":"Indonesia","GID_1":"IDN.20_1","province":"NusaTenggaraBarat","NL_NAME_1":"NA","GID_2":"IDN.20.5_1","county":"LombokTengah","NL_NAME_2":"NA","city":"Praya","VARNAME_3":"NA","NL_NAME_3":"NA","TYPE_3":"Kecamatan","ENGTYPE_3":"Sub-district","CC_3":"5202060","HASC_3":"NA","name":"Praya.city"},
"geometry":{"type": "MultiPolygon","coordinates": [[[[116.2787,-8.7128,95.8023],[116.2784,-8.716,94.393],[116.2736,-8.7204,89.5],[116.2806,-8.7196,95.1458],[116.2829,-8.7158,100.4857],[116.2826,-8.717,105.3561],[116.2817,-8.7192,97.2324],[116.281,-8.7196,95.1458],[116.2745,-8.7212,89.8463],[116.2755,-8.7243,89.5],[116.2776,-8.7253,89.5],[116.2813,-8.723,90.9831],[116.2821,-8.7243,92.0765],[116.2849,-8.7236,97.0618],[116.2863,-8.7242,100.493],[116.286,-8.7278,99.309],[116.2919,-8.7297,104.4286],[116.3007,-8.7262,114.4494],[116.2995,-8.7231,120.0545],[116.2848,-8.7131,103.2437],[116.2958,-8.7084,118.9097],[116.2977,-8.7023,124.7258],[116.2969,-8.7,126.5132],[116.3004,-8.6968,141.4493],[116.3039,-8.696,146.6832],[116.3111,-8.6882,194.9735],[116.3124,-8.6788,231.9288],[116.3108,-8.6759,242.1337],[116.3128,-8.6685,257.0643],[116.3164,-8.6598,274.3148],[116.321,-8.6557,292.6201],[116.318,-8.6501,300.9449],[116.3139,-8.6482,306.4224],[116.3163,-8.6437,318.9998],[116.3139,-8.6415,317.186],[116.306,-8.6434,304.4749],[116.2998,-8.6419,301.3209],[116.299,-8.6434,296.1643],[116.2929,-8.6408,291.9355],[116.2853,-8.6405,268.3063],[116.2836,-8.6418,263.9671],[116.2793,-8.6414,257.8043],[116.2744,-8.6456,243.4443],[116.2675,-8.6417,236.3248],[116.2607,-8.645,213.316],[116.2642,-8.6502,215.2345],[116.2658,-8.6503,217.9963],[116.2621,-8.6569,184.7547],[116.2626,-8.661,183.6985],[116.2556,-8.6719,152.5745],[116.2584,-8.6773,147.8215],[116.2527,-8.6876,120.3913],[116.2555,-8.6888,112.0909],[116.2551,-8.6927,104.6114],[116.2507,-8.6981,99.4257],[116.2566,-8.7078,94.1291],[116.2554,-8.7148,93.1977],[116.2565,-8.7159,93.1977],[116.2614,-8.7129,91.8228],[116.2618,-8.7112,92.4248],[116.2625,-8.7172,89.7194],[116.2657,-8.7138,93.7242],[116.2665,-8.7185,89.5],[116.2722,-8.7163,89.5],[116.2718,-8.7145,92.4587],[116.2743,-8.711,94.5048],[116.2716,-8.7182,89.5],[116.2723,-8.7196,89.5],[116.2783,-8.715,94.393],[116.2787,-8.7128,95.8023]]]]}}