{"type":"Feature","properties":{"GID_3":"IDN.23.3.13_1","GID_0":"IDN","country":"Indonesia","GID_1":"IDN.23_1","province":"Papua","NL_NAME_1":"NA","GID_2":"IDN.23.3_1","county":"BovenDigoel","NL_NAME_2":"NA","city":"Mandobo","VARNAME_3":"NA","NL_NAME_3":"NA","TYPE_3":"Distrik","ENGTYPE_3":"District","CC_3":"9413030","HASC_3":"NA","name":"Mandobo.city"},
"geometry":{"type": "MultiPolygon","coordinates": [[[[140.076,-6.3396,51.612],[140.0761,-6.381,54.4035],[140.1395,-6.3869,53.9264],[140.199,-6.3611,57.0164],[140.2149,-6.3393,53.8552],[140.2248,-6.3155,48.4917],[140.2268,-6.2997,61.8458],[140.2565,-6.2858,58.4639],[140.2962,-6.2759,7.5417],[140.3299,-6.258,32.2299],[140.3933,-6.2124,28.9039],[140.4211,-6.2382,33.4075],[140.4489,-6.2739,60.5101],[140.4766,-6.2977,61.975],[140.5024,-6.3254,57.588],[140.5202,-6.3373,46.3607],[140.5441,-6.3076,51.7148],[140.5758,-6.3017,53.0096],[140.6035,-6.2679,44.1906],[140.611,-6.2426,48.2514],[140.6348,-6.1911,60.37],[140.6308,-6.1574,46.4723],[140.6308,-6.1356,54.3015],[140.6129,-6.1078,51.4841],[140.5772,-6.0443,58.8146],[140.5475,-6.0424,74.3599],[140.5178,-6.0285,55.45],[140.4452,-5.9803,52.8298],[140.4147,-5.9529,43.5098],[140.3792,-5.9336,47.6246],[140.3508,-5.9204,33.7309],[140.3305,-5.9214,37.9708],[140.3132,-5.9458,29.209599999999998],[140.297,-5.963,29.2716],[140.2574,-5.962,55.7795],[140.232,-5.957,74.603],[140.1761,-5.9377,81.4224],[140.1213,-5.9285,76.3178],[140.0817,-5.9042,64.1397],[140.0594,-5.9021,56.4723],[140.0259,-5.891,53.1686],[140.0167,-5.891,46.3085],[140.0025,-5.895,62.283],[139.9761,-5.8991,35.8186],[139.9477,-5.8991,24.6329],[139.9213,-5.9031,14.463],[139.7919,-5.9319,46.3869],[139.8551,-6.1428,26.4098],[139.8891,-6.1356,23.8358],[139.9146,-6.1238,22.278199999999998],[139.9303,-6.1336,23.24],[139.9481,-6.1534,39.9815],[139.9838,-6.1832,33.6937],[140.0155,-6.199,43.2553],[140.0453,-6.2208,62.0975],[140.0587,-6.2457,52.0751],[140.0294,-6.2545,56.8853],[140.0446,-6.2503,46.8287],[140.0592,-6.2457,52.0751],[140.0696,-6.2664,55.9352],[140.0775,-6.3002,55.0444],[140.076,-6.3396,51.612]]]]}}