{"type":"Feature","properties":{"GID_3":"IDN.22.8.13_1","GID_0":"IDN","country":"Indonesia","GID_1":"IDN.22_1","province":"PapuaBarat","NL_NAME_1":"NA","GID_2":"IDN.22.8_1","county":"Sorong","NL_NAME_2":"NA","city":"Moraid","VARNAME_3":"NA","NL_NAME_3":"NA","TYPE_3":"Distrik","ENGTYPE_3":"District","CC_3":"9107060","HASC_3":"NA","name":"Moraid.city"},
"geometry":{"type": "MultiPolygon","coordinates": [[[[131.7948,-0.7403,388.1188],[131.8033,-0.7472,351.7018],[131.7927,-0.7628,85.5261],[131.8113,-0.7601,90.5729],[131.8366,-0.7618,84.7254],[131.8505,-0.7555,92.9789],[131.8712,-0.7512,111.2464],[131.8771,-0.7456,267.0556],[131.8628,-0.7255,115.5802],[131.8547,-0.7095,15.717],[131.851,-0.6951,0.0],[131.8273,-0.7111,0.0],[131.8176,-0.7154,4.714],[131.802,-0.7149,0.0],[131.7771,-0.7204,0.0],[131.763,-0.7216,0.0],[131.7652,-0.7285,296.2366],[131.7735,-0.7351,360.3354],[131.7785,-0.7372,345.7253],[131.7891,-0.7377,315.7319],[131.7948,-0.7403,388.1188]]],
[[[131.899,-0.674,0.0],[131.9093,-0.6783,18.2325],[131.9085,-0.6872,17.9413],[131.9178,-0.686,11.8796],[131.9363,-0.6755,165.019],[131.9507,-0.6777,198.5237],[131.9767,-0.7052,135.9316],[131.9944,-0.7103,45.772],[132.0168,-0.712,56.4815],[132.0337,-0.7237,107.0637],[132.0501,-0.7189,294.5019],[132.1027,-0.683,440.3269],[132.124,-0.6752,669.7991],[132.1359,-0.6549,868.2822],[132.0985,-0.6432,407.5947],[132.0415,-0.5826,485.7156],[132.0212,-0.5497,0.0],[131.9835,-0.5649,0.0],[131.9491,-0.6018,0.0],[131.9347,-0.6089,0.0],[131.9234,-0.6192,0.0],[131.9136,-0.6249,0.0],[131.9101,-0.6345,0.0],[131.9117,-0.6476,0.0],[131.8984,-0.6612,0.0],[131.8931,-0.6625,0.0],[131.8897,-0.6699,0.0],[131.899,-0.674,0.0]]]]}}