{"type":"Feature","properties":{"GID_3":"IDN.14.1.4_1","GID_0":"IDN","country":"Indonesia","GID_1":"IDN.14_1","province":"KalimantanTengah","NL_NAME_1":"NA","GID_2":"IDN.14.1_1","county":"BaritoSelatan","NL_NAME_2":"NA","city":"GunungBintangAwai","VARNAME_3":"NA","NL_NAME_3":"NA","TYPE_3":"Kecamatan","ENGTYPE_3":"Sub-district","CC_3":"6204060","HASC_3":"NA","name":"Gunung_Bintang_Awai.city"},
"geometry":{"type": "MultiPolygon","coordinates": [[[[115.0535,-1.6329,44.1461],[115.0645,-1.6399,59.2354],[115.0824,-1.6791,54.9056],[115.1007,-1.6696,61.8132],[115.1312,-1.6486,56.155],[115.1607,-1.6458,84.2274],[115.2048,-1.647,73.9176],[115.2155,-1.6454,120.8086],[115.227,-1.6422,326.5298],[115.2361,-1.6331,218.7701],[115.2457,-1.6303,124.393],[115.2842,-1.6299,113.3402],[115.3503,-1.6368,156.3005],[115.4136,-1.4246,190.2363],[115.4162,-1.4238,213.0239],[115.4454,-1.4288,611.2047],[115.455,-1.4234,476.735],[115.4757,-1.4161,814.815],[115.4723,-1.4132,639.3608],[115.4671,-1.3866,487.1309],[115.4594,-1.36,564.5697],[115.4559,-1.3554,410.0423],[115.4337,-1.34,332.1341],[115.4121,-1.3293,297.8809],[115.3151,-1.3359,134.7572],[115.237,-1.333,93.8325],[115.2381,-1.3145,86.9891],[115.2363,-1.3121,76.0942],[115.1621,-1.3067,80.0617],[115.157,-1.3371,76.9379],[115.168,-1.3543,79.0092],[115.173,-1.3774,113.641],[115.1747,-1.4001,109.2275],[115.1818,-1.4143,88.0393],[115.1856,-1.4282,77.8597],[115.1729,-1.4596,93.1509],[115.1395,-1.466,57.7029],[115.144,-1.4974,57.1634],[115.1317,-1.5007,67.4276],[115.0977,-1.5044,75.4717],[115.0617,-1.5054,71.5029],[115.035,-1.5099,51.9268],[115.0031,-1.5218,57.9596],[114.9769,-1.541,35.8774],[114.9709,-1.5507,26.3011],[114.9673,-1.5637,34.3154],[114.967,-1.5839,39.8806],[114.9834,-1.6108,46.8287],[115.0074,-1.5986,58.3261],[115.0535,-1.6329,44.1461]]]]}}