{"type":"Feature","properties":{"GID_3":"IDN.13.12.2_1","GID_0":"IDN","country":"Indonesia","GID_1":"IDN.13_1","province":"KalimantanSelatan","NL_NAME_1":"NA","GID_2":"IDN.13.12_1","county":"TanahLaut","NL_NAME_2":"NA","city":"Bati-Bati","VARNAME_3":"NA","NL_NAME_3":"NA","TYPE_3":"Kecamatan","ENGTYPE_3":"Sub-district","CC_3":"6301040","HASC_3":"NA","name":"Bati-Bati.city"},
"geometry":{"type": "MultiPolygon","coordinates": [[[[114.7022,-3.5909,2.5097],[114.691,-3.6192,1.5272],[114.698,-3.6202,1.9379],[114.7055,-3.6141,1.7012],[114.7255,-3.6175,2.5155],[114.7284,-3.615,2.5377],[114.7291,-3.6164,2.4518],[114.7397,-3.6194,2.4145],[114.7416,-3.6239,2.4246],[114.7404,-3.6257,2.4274],[114.7448,-3.6262,2.4379],[114.7508,-3.6318,2.6041],[114.7572,-3.6265,2.5656],[114.7762,-3.5985,3.7005],[114.7943,-3.6083,23.7279],[114.8283,-3.6153,42.191],[114.8585,-3.6087,56.2139],[114.8627,-3.6096,69.0411],[114.8809,-3.6247,96.6103],[114.8938,-3.6027,161.5843],[114.9033,-3.5928,227.9758],[114.9201,-3.5852,121.2673],[114.9076,-3.562,121.5406],[114.9095,-3.5499,118.0518],[114.9088,-3.5428,37.4517],[114.9064,-3.542,64.0777],[114.9019,-3.5447,43.069],[114.8991,-3.5426,31.7296],[114.892,-3.5461,32.1088],[114.8856,-3.5471,29.8594],[114.8814,-3.557,33.7684],[114.8768,-3.5524,29.9059],[114.873,-3.5547,36.0012],[114.8691,-3.5545,28.7911],[114.8688,-3.5565,21.1424],[114.866,-3.558,23.9259],[114.8674,-3.5597,22.7606],[114.8656,-3.5603,20.5614],[114.8653,-3.5649,22.1576],[114.8621,-3.5654,18.926],[114.8582,-3.5694,19.1443],[114.8535,-3.565,19.6183],[114.854,-3.5637,23.2198],[114.856,-3.5649,21.9792],[114.8578,-3.5635,22.879],[114.856,-3.5621,22.8966],[114.8574,-3.5606,22.9889],[114.8525,-3.558,23.5217],[114.85,-3.5588,23.4068],[114.849,-3.557,18.8396],[114.8451,-3.5581,15.3781],[114.8482,-3.5539,28.2248],[114.8465,-3.5508,18.6959],[114.8409,-3.5527,20.5292],[114.839,-3.5507,17.9011],[114.8388,-3.5519,23.9736],[114.8373,-3.5511,18.0767],[114.8363,-3.5478,13.7804],[114.8351,-3.5479,25.3888],[114.8345,-3.5513,10.9896],[114.8276,-3.55,14.6311],[114.8189,-3.5431,14.5816],[114.8117,-3.5402,13.6919],[114.8099,-3.5336,13.2922],[114.8122,-3.5299,15.8381],[114.8099,-3.5258,10.9646],[114.7982,-3.5236,8.8821],[114.7863,-3.5255,7.0887],[114.7716,-3.5235,3.453],[114.7697,-3.5217,5.868],[114.7649,-3.521,7.0305],[114.7653,-3.5188,10.8473],[114.7635,-3.5168,10.2184],[114.759,-3.5158,3.0159],[114.7573,-3.5095,2.817],[114.7541,-3.5092,2.9263],[114.7118,-3.5122,2.4243],[114.7119,-3.5192,2.1806],[114.7068,-3.5375,2.0882],[114.7052,-3.5503,4.42],[114.7111,-3.5691,2.3283],[114.7095,-3.5774,3.2433],[114.7022,-3.5909,2.5097]]]]}}