{"type":"Feature","properties":{"GID_3":"IDN.10.36.10_1","GID_0":"IDN","country":"Indonesia","GID_1":"IDN.10_1","province":"JawaTengah","NL_NAME_1":"NA","GID_2":"IDN.10.36_1","county":"Wonosobo","NL_NAME_2":"NA","city":"Sapuran","VARNAME_3":"NA","NL_NAME_3":"NA","TYPE_3":"Kecamatan","ENGTYPE_3":"Sub-district","CC_3":"3307030","HASC_3":"NA","name":"Sapuran.city"},
"geometry":{"type": "MultiPolygon","coordinates": [[[[109.9917,-7.4961,580.0282],[109.9919,-7.4935,587.1342],[109.998,-7.4918,603.0119],[109.9999,-7.4832,644.9856],[110.0091,-7.4825,671.524],[110.0134,-7.4722,729.8362],[110.0179,-7.4664,772.4469],[110.0226,-7.4657,840.3676],[110.0264,-7.4568,893.9993],[110.0345,-7.4484,1014.4521],[110.0358,-7.4436,1068.5817],[110.0616,-7.4079,1957.0078],[110.0643,-7.397,2454.8191],[110.0712,-7.3902,2950.6597],[110.0699,-7.3921,2857.8921],[110.067,-7.3951,2561.8701],[110.0652,-7.4023,2201.9355],[110.0742,-7.3857,3279.8467],[110.0657,-7.3878,2987.6746],[110.0632,-7.3913,2550.4897],[110.0434,-7.4027,1734.3771],[110.0357,-7.4096,1368.937],[110.0303,-7.4112,1298.5352],[110.0268,-7.4144,1226.1365],[110.0257,-7.4196,1168.7687],[110.0149,-7.4281,1014.7209],[110.0166,-7.419,1126.7646],[110.0126,-7.4162,1119.8148],[110.0069,-7.4177,1033.684],[110.0054,-7.4159,1019.6473],[110.0029,-7.4175,1005.52],[110.0004,-7.4158,1006.3077],[109.9968,-7.4175,971.1412],[109.9933,-7.4221,921.8934],[109.9784,-7.4284,833.9381],[109.9687,-7.4357,779.3999],[109.9648,-7.4447,748.8495],[109.9497,-7.4462,751.6365],[109.9457,-7.445,741.8303],[109.9446,-7.4425,747.4169],[109.9388,-7.4436,717.663],[109.933,-7.4492,704.1553],[109.9246,-7.4472,688.4448],[109.9205,-7.4502,659.9299],[109.9202,-7.4532,665.8315],[109.9232,-7.4557,693.9652],[109.9227,-7.4588,705.6671],[109.9275,-7.465,793.4835],[109.9313,-7.4647,835.8056],[109.9414,-7.46,826.9099],[109.9491,-7.466,839.6119],[109.953,-7.4712,827.6442],[109.9528,-7.4816,828.1642],[109.9554,-7.4837,831.1925],[109.9563,-7.487,806.6509],[109.9468,-7.4932,874.9447],[109.9457,-7.4954,893.4839],[109.9503,-7.4966,801.3565],[109.9541,-7.4956,751.3896],[109.9608,-7.498,581.967],[109.967,-7.4941,741.1537],[109.9725,-7.495,681.3436],[109.9784,-7.4899,750.998],[109.9837,-7.504,604.0465],[109.9912,-7.5057,676.148],[109.9942,-7.5045,616.7772],[109.9916,-7.5013,641.9534],[109.9917,-7.4961,580.0282]]]]}}