{"type":"Feature","properties":{"GID_3":"IDN.9.12.25_1","GID_0":"IDN","country":"Indonesia","GID_1":"IDN.9_1","province":"JawaBarat","NL_NAME_1":"NA","GID_2":"IDN.9.12_1","county":"Indramayu","NL_NAME_2":"NA","city":"Sindang","VARNAME_3":"NA","NL_NAME_3":"NA","TYPE_3":"Kecamatan","ENGTYPE_3":"Sub-district","CC_3":"3212160","HASC_3":"NA","name":"Sindang.city"},
"geometry":{"type": "MultiPolygon","coordinates": [[[[108.3162,-6.3544,5.6247],[108.3112,-6.3487,6.7247],[108.3173,-6.3489,5.6725],[108.3161,-6.3449,6.288],[108.3173,-6.3371,6.4039],[108.3209,-6.3402,4.8922],[108.3234,-6.339,4.8387],[108.324,-6.3316,5.8427],[108.3186,-6.3169,5.366],[108.3206,-6.3144,2.5397],[108.3245,-6.3166,1.7923],[108.3255,-6.3143,4.0501],[108.3204,-6.3112,2.1174],[108.3216,-6.3108,2.8459],[108.321,-6.3089,1.5398],[108.3224,-6.3089,1.5398],[108.3213,-6.3078,1.1167],[108.3096,-6.3016,1.034],[108.2984,-6.3022,0.8927],[108.2953,-6.3005,0.5],[108.2864,-6.3001,0.5],[108.2862,-6.3022,0.5],[108.271,-6.299,0.5],[108.2646,-6.3048,0.5],[108.2579,-6.3024,1.432],[108.2734,-6.3282,3.984],[108.2814,-6.3336,1.6012],[108.2813,-6.3481,6.6335],[108.2859,-6.3529,3.0372],[108.2858,-6.3611,8.2544],[108.287,-6.3623,3.1676],[108.2923,-6.3614,4.0203],[108.293,-6.3674,4.1595],[108.2963,-6.3691,6.9199],[108.2961,-6.3719,7.2353],[108.2917,-6.376,6.5176],[108.2967,-6.3789,8.3389],[108.2972,-6.376,8.5169],[108.3022,-6.3764,7.5142],[108.3067,-6.3731,7.4921],[108.3127,-6.3755,8.6887],[108.3146,-6.3731,8.0806],[108.3113,-6.3717,10.588],[108.3114,-6.37,11.9832],[108.3165,-6.366,6.7267],[108.3142,-6.3617,4.7794],[108.3189,-6.3619,6.3822],[108.3195,-6.3677,7.8052],[108.3246,-6.3668,6.7775],[108.3216,-6.3614,6.4951],[108.3223,-6.356,6.6945],[108.3162,-6.3544,5.6247]]]]}}