{"type":"Feature","properties":{"GID_3":"IDN.9.24.27_1","GID_0":"IDN","country":"Indonesia","GID_1":"IDN.9_1","province":"JawaBarat","NL_NAME_1":"NA","GID_2":"IDN.9.24_1","county":"Sukabumi","NL_NAME_2":"NA","city":"Kadudampit","VARNAME_3":"NA","NL_NAME_3":"NA","TYPE_3":"Kecamatan","ENGTYPE_3":"Sub-district","CC_3":"3202190","HASC_3":"NA","name":"Kadudampit.city"},
"geometry":{"type": "MultiPolygon","coordinates": [[[[106.8977,-6.8735,702.8387],[106.9024,-6.8714,714.8116],[106.9037,-6.8723,717.9858],[106.9001,-6.8752,705.5834],[106.9039,-6.8777,719.491],[106.9067,-6.8787,722.8485],[106.9113,-6.8767,733.5479],[106.9135,-6.8771,728.795],[106.9129,-6.8795,722.5707],[106.9168,-6.8788,732.6998],[106.9144,-6.8929,674.7192],[106.9161,-6.8933,668.2633],[106.9162,-6.8952,668.676],[106.9195,-6.8907,659.1324],[106.9238,-6.8898,672.2739],[106.927,-6.8861,699.3372],[106.9258,-6.8839,706.348],[106.9273,-6.8812,727.0271],[106.9306,-6.8798,746.871],[106.9348,-6.8748,824.1323],[106.9359,-6.8685,869.0129],[106.94,-6.8657,886.5771],[106.9432,-6.8591,955.1574],[106.9514,-6.8525,1073.443],[106.9554,-6.839,1251.0415],[106.9602,-6.8348,1341.3325],[106.9622,-6.8307,1460.9735],[106.9637,-6.8185,1648.0781],[106.9751,-6.8043,2310.6353],[106.9768,-6.7991,2401.5825],[106.9848,-6.7909,2919.3228],[106.9709,-6.7801,2545.6196],[106.968,-6.7728,2838.4497],[106.9616,-6.7637,2666.5798],[106.9583,-6.7614,2572.4043],[106.947,-6.7608,2623.666],[106.9337,-6.7693,2203.499],[106.9323,-6.7716,2223.5349],[106.9345,-6.795,1896.3923],[106.9288,-6.801,1612.3258],[106.9178,-6.8215,1114.016],[106.9077,-6.833,940.4579],[106.9051,-6.8383,923.983],[106.9001,-6.842,870.3234],[106.9003,-6.844,858.2899],[106.8969,-6.8484,833.5159],[106.8894,-6.8538,794.6783],[106.8881,-6.8568,766.4448],[106.8856,-6.8564,759.5803],[106.8842,-6.8603,744.3728],[106.8825,-6.8605,744.3728],[106.8823,-6.8635,758.0015],[106.8792,-6.8646,711.0427],[106.8828,-6.8673,721.9095],[106.8816,-6.8761,657.0032],[106.8867,-6.8766,653.816],[106.8839,-6.8796,641.4662],[106.8844,-6.8812,644.1161],[106.8942,-6.8788,674.3171],[106.8951,-6.8756,690.3653],[106.8977,-6.8735,702.8387]]]]}}