{"type":"Feature","properties":{"GID_3":"IDN.32.31.17_1","GID_0":"IDN","country":"Indonesia","GID_1":"IDN.32_1","province":"SumateraUtara","NL_NAME_1":"NA","GID_2":"IDN.32.31_1","county":"TapanuliTengah","NL_NAME_2":"NA","city":"Sosorgadong","VARNAME_3":"NA","NL_NAME_3":"NA","TYPE_3":"Kecamatan","ENGTYPE_3":"Sub-district","CC_3":"1204071","HASC_3":"NA","name":"Sosorgadong.city"},
"geometry":{"type": "MultiPolygon","coordinates": [[[[98.4975,1.9348,0.0],[98.4994,1.9385,0.0],[98.4957,1.937,0.0],[98.4953,1.9346,0.0],[98.4975,1.9348,0.0]]],
[[[98.5188,1.9309,4.8765],[98.5214,1.929,0.0],[98.5342,1.9441,5.4747],[98.5639,1.9625,299.8966],[98.5719,1.9755,533.9574],[98.5758,1.9865,339.6917],[98.5747,1.9935,344.7214],[98.5764,2.0191,757.379],[98.5858,2.0333,592.2337],[98.6023,2.0491,323.3656],[98.6058,2.0573,549.7614],[98.6065,2.0616,460.5531],[98.596,2.0712,1086.0616],[98.592,2.083,770.5804],[98.5832,2.0819,710.5436],[98.5799,2.0797,601.1975],[98.5759,2.0807,757.1162],[98.5622,2.0746,548.2791],[98.5539,2.074,634.6006],[98.549,2.0785,556.0933],[98.5394,2.0832,472.7035],[98.5283,2.082,294.6259],[98.5255,2.0835,251.6892],[98.5197,2.0833,209.1088],[98.5061,2.0797,468.6092],[98.4808,2.0854,227.3429],[98.4764,2.0783,203.9191],[98.4683,2.0719,145.4403],[98.4497,2.062,118.6243],[98.4373,2.0461,86.0787],[98.4355,2.0345,218.1701],[98.4321,2.0258,21.7949],[98.4332,2.0201,14.4467],[98.436,2.017,6.24],[98.4326,2.0067,3.0562],[98.447,1.9997,2.2116],[98.4773,1.974,0.0],[98.4827,1.9711,0.0],[98.5001,1.9508,5.9011],[98.5002,1.9427,0.0],[98.5022,1.9407,1.2912],[98.5077,1.9421,4.7049],[98.5108,1.941,5.929],[98.5188,1.9309,4.8765]]]]}}