{"type":"Feature","properties":{"GID_2":"IDN.26.1_1","GID_0":"IDN","country":"Indonesia","GID_1":"IDN.26_1","province":"SulawesiSelatan","NL_NAME_1":"NA","county":"Bantaeng","VARNAME_2":"NA","NL_NAME_2":"NA","TYPE_2":"Kabupaten","ENGTYPE_2":"Regency","CC_2":"7303","HASC_2":"ID.SE.BT","name":"Bantaeng.county"},
"geometry":{"type": "MultiPolygon","coordinates": [[[[120.0996,-5.5707,14.1031],[120.0982,-5.567,20.5911],[120.0999,-5.5656,28.1966],[120.0956,-5.5626,29.7053],[120.1011,-5.5588,36.7167],[120.1021,-5.5559,43.2581],[120.0997,-5.5544,41.8492],[120.1009,-5.5527,45.5606],[120.0985,-5.5504,49.1382],[120.0998,-5.5485,57.2803],[120.0974,-5.546,54.4295],[120.0997,-5.5439,62.8922],[120.0989,-5.5331,81.5869],[120.0973,-5.5312,95.5536],[120.098,-5.5255,114.2751],[120.0959,-5.5197,121.1316],[120.095,-5.508,149.3681],[120.0905,-5.4988,178.0251],[120.0913,-5.491,208.9397],[120.0872,-5.4871,222.1107],[120.0836,-5.4782,246.6988],[120.0703,-5.4626,343.1977],[120.0699,-5.4596,346.9968],[120.067,-5.4568,363.1814],[120.0677,-5.4551,371.4018],[120.0589,-5.4508,415.1543],[120.0566,-5.452,418.6816],[120.0566,-5.4496,420.8694],[120.0532,-5.4484,457.6207],[120.0528,-5.4438,499.2521],[120.0563,-5.4388,460.9441],[120.05029999999999,-5.4371,481.1592],[120.04,-5.4238,593.0839],[120.0389,-5.4198,630.1833],[120.031,-5.413,731.6645],[120.0298,-5.4099,701.0031],[120.0337,-5.4085,667.4628],[120.0345,-5.4064,651.4437],[120.0287,-5.3933,739.4738],[120.0263,-5.3932,762.1293],[120.0225,-5.3899,771.3987],[120.0158,-5.3899,821.0134],[120.0117,-5.387,854.3082],[120.0069,-5.3886,881.6925],[120.0032,-5.3869,915.9571],[119.9998,-5.3905,1016.465],[119.991,-5.389,1049.4559],[119.9892,-5.391,1066.5492],[119.9832,-5.3919,1128.3154],[119.9798,-5.3902,1130.7551],[119.9802,-5.386,1201.7562],[119.9699,-5.3674,1541.876],[119.9634,-5.3621,1703.1151],[119.9636,-5.3592,1846.3752],[119.9597,-5.3556,2125.2559],[119.9374,-5.3556,2794.2302],[119.932,-5.3637,2616.8945],[119.9302,-5.3709,2441.436],[119.932,-5.3771,2287.6821],[119.938,-5.3846,2193.6411],[119.9366,-5.4088,1716.5898],[119.9263,-5.4203,1431.9973],[119.9264,-5.4248,1405.0908],[119.9241,-5.4284,1360.7039],[119.9233,-5.4353,1267.9691],[119.9123,-5.4428,1147.1594],[119.9064,-5.4558,1021.6199],[119.8992,-5.4616,911.7642],[119.8963,-5.4767,782.6696],[119.8796,-5.4907,581.8817],[119.8786,-5.4994,514.0924],[119.8741,-5.5042,450.0775],[119.8759,-5.5093,341.3741],[119.8734,-5.5187,245.2635],[119.876,-5.5274,194.9227],[119.8738,-5.528,226.7778],[119.8689,-5.5234,302.7044],[119.8536,-5.5158,533.9816],[119.8547,-5.5211,464.935],[119.8604,-5.526,406.6024],[119.8625,-5.5305,349.8033],[119.8614,-5.5405,287.5117],[119.8576,-5.5478,244.2293],[119.8563,-5.5543,188.5887],[119.8642,-5.5546,188.9912],[119.8663,-5.5529,204.6511],[119.8744,-5.5566,106.6166],[119.8828,-5.5567,55.5296],[119.8907,-5.5625,32.3846],[119.9001,-5.5572,14.9856],[119.902,-5.559,12.2363],[119.9012,-5.5606,11.961],[119.9027,-5.5638,12.1601],[119.9079,-5.5642,4.7262],[119.9068,-5.5655,5.7797],[119.9087,-5.57,5.325],[119.9048,-5.5722,3.3774],[119.9075,-5.5768,2.5637],[119.9176,-5.565,3.5526],[119.9188,-5.559,1.7459],[119.9228,-5.5532,0.5692],[119.9302,-5.5465,2.4003],[119.9369,-5.5443,3.3346],[119.9439,-5.5461,4.484],[119.9519,-5.5533,0.3528],[119.9649,-5.5542,2.513],[119.9726,-5.5591,0.0],[119.9823,-5.5608,1.6185],[119.9881,-5.5609,0.3464],[119.9926,-5.559,2.71],[120.0014,-5.5607,3.6349],[120.0158,-5.569,1.0888],[120.036,-5.5738,2.889],[120.0474,-5.5789,0.9778],[120.0528,-5.5782,0.0],[120.0591,-5.5828,1.4368],[120.0836,-5.5883,0.0],[120.0916,-5.584,1.8708],[120.1013,-5.5857,3.0387],[120.0987,-5.5802,5.2118],[120.1002,-5.5749,8.5455],[120.0981,-5.5739,12.2878],[120.1004,-5.5719,13.8993],[120.0996,-5.5707,14.1031]]]]}}