{"type":"Feature","properties":{"GID_3":"IDN.10.5.13_1","GID_0":"IDN","country":"Indonesia","GID_1":"IDN.10_1","province":"JawaTengah","NL_NAME_1":"NA","GID_2":"IDN.10.5_1","county":"Boyolali","NL_NAME_2":"NA","city":"Nogosari","VARNAME_3":"NA","NL_NAME_3":"NA","TYPE_3":"Kecamatan","ENGTYPE_3":"Sub-district","CC_3":"3309120","HASC_3":"NA","name":"Nogosari.city"},
"geometry":{"type": "MultiPolygon","coordinates": [[[[110.7479,-7.5015,128.3457],[110.7509,-7.4942,124.2245],[110.7533,-7.495,120.322],[110.7563,-7.4931,122.525],[110.7611,-7.4926,117.726],[110.7631,-7.4955,117.1834],[110.7696,-7.4975,112.8113],[110.7689,-7.494,115.9731],[110.7705,-7.4855,127.188],[110.7781,-7.4868,127.9154],[110.7867,-7.4857,119.5296],[110.7874,-7.4843,121.157],[110.8061,-7.4862,126.184],[110.8048,-7.4593,116.9338],[110.8016,-7.4592,119.297],[110.8001,-7.4608,118.5722],[110.7974,-7.4598,118.2933],[110.7961,-7.4616,119.8844],[110.7932,-7.4605,118.0185],[110.7919,-7.4573,121.327],[110.7892,-7.4586,121.4846],[110.7849,-7.4541,125.1915],[110.7809,-7.4531,125.7247],[110.7782,-7.4456,130.1904],[110.7743,-7.4447,133.9616],[110.7708,-7.4402,134.3835],[110.7745,-7.4358,156.1651],[110.7811,-7.4366,158.0472],[110.7821,-7.4311,165.63],[110.7745,-7.4291,160.5376],[110.769,-7.4173,178.3134],[110.7666,-7.418,168.8811],[110.765,-7.414,164.5477],[110.7622,-7.4129,167.3125],[110.754,-7.4169,166.2504],[110.7538,-7.4192,165.3319],[110.7572,-7.4255,160.1876],[110.7552,-7.4286,136.7223],[110.7518,-7.4265,141.1652],[110.7496,-7.4263,143.162],[110.7475,-7.4291,143.3816],[110.7459,-7.4275,149.6285],[110.7391,-7.4339,141.1157],[110.7312,-7.4288,151.1377],[110.7255,-7.4282,148.6217],[110.7216,-7.4302,152.8892],[110.7193,-7.4336,157.9839],[110.7165,-7.4351,159.2006],[110.7148,-7.4339,155.3302],[110.7071,-7.4385,161.0615],[110.7179,-7.4449,167.5734],[110.7334,-7.4432,169.735],[110.7295,-7.4468,166.6959],[110.7231,-7.4491,174.671],[110.7207,-7.4566,168.7176],[110.7111,-7.4589,190.0625],[110.7099,-7.461,193.7705],[110.715,-7.4624,187.6464],[110.7164,-7.4654,182.6405],[110.72,-7.4667,182.0753],[110.7207,-7.4655,183.1541],[110.7256,-7.4706,170.3575],[110.7273,-7.4731,156.7449],[110.7272,-7.4795,170.5678],[110.7287,-7.4823,169.8482],[110.7335,-7.4831,175.6394],[110.735,-7.4849,169.0833],[110.7347,-7.489,157.7509],[110.7401,-7.4945,141.9482],[110.7384,-7.501,147.0085],[110.7402,-7.5032,142.5561],[110.7463,-7.5042,133.3177],[110.7479,-7.5015,128.3457]]]]}}