{"type":"Feature","properties":{"GID_3":"IDN.9.14.3_1","GID_0":"IDN","country":"Indonesia","GID_1":"IDN.9_1","province":"JawaBarat","NL_NAME_1":"NA","GID_2":"IDN.9.14_1","county":"KotaBandung","NL_NAME_2":"NA","city":"Arcamanik","VARNAME_3":"NA","NL_NAME_3":"NA","TYPE_3":"Kecamatan","ENGTYPE_3":"Sub-district","CC_3":"3273130","HASC_3":"NA","name":"Arcamanik.city"},
"geometry":{"type": "MultiPolygon","coordinates": [[[[107.667,-6.9322,675.2957],[107.6698,-6.9386,674.3234],[107.6833,-6.9377,671.7723],[107.6815,-6.9315,671.9396],[107.6862,-6.9265,672.8362],[107.6852,-6.9237,675.0112],[107.6871,-6.9224,674.9053],[107.6859,-6.9192,677.4826],[107.688,-6.9178,678.3731],[107.6891,-6.9188,678.8058],[107.6915,-6.9123,684.1714],[107.6881,-6.9082,684.0275],[107.6815,-6.9052,699.0251],[107.667,-6.9042,687.5628],[107.6691,-6.9098,683.4373],[107.6676,-6.9117,681.9644],[107.6675,-6.9176,679.7865],[107.6663,-6.9179,679.7865],[107.669,-6.9229,675.4047],[107.6673,-6.9248,674.7545],[107.6684,-6.9292,675.0251],[107.6664,-6.9302,676.5057],[107.667,-6.9322,675.2957]]]]}}