{"type":"Feature","properties":{"GID_3":"IDN.26.17.4_1","GID_0":"IDN","country":"Indonesia","GID_1":"IDN.26_1","province":"SulawesiSelatan","NL_NAME_1":"NA","GID_2":"IDN.26.17_1","county":"Pinrang","NL_NAME_2":"NA","city":"Lanrisang","VARNAME_3":"NA","NL_NAME_3":"NA","TYPE_3":"Kecamatan","ENGTYPE_3":"Sub-district","CC_3":"7315021","HASC_3":"NA","name":"Lanrisang.city"},
"geometry":{"type": "MultiPolygon","coordinates": [[[[119.5757,-3.9139,6.8162],[119.5783,-3.9187,2.9619],[119.5733,-3.9226,4.9574],[119.5726,-3.9249,4.9296],[119.5757,-3.9299,3.8217],[119.5791,-3.9297,4.747],[119.5818,-3.9275,5.1988],[119.5823,-3.9191,3.6466],[119.5846,-3.9169,3.8025],[119.5895,-3.918,6.0882],[119.5907,-3.9241,3.1572],[119.5928,-3.9268,5.8069],[119.6056,-3.9221,8.9485],[119.6086,-3.9188,4.8492],[119.6096,-3.9142,3.613],[119.6147,-3.9126,8.3632],[119.6171,-3.9056,4.8328],[119.6219,-3.8984,5.4391],[119.6215,-3.8932,8.8465],[119.6242,-3.889,6.2104],[119.6226,-3.8841,6.2476],[119.6176,-3.8826,7.3807],[119.6144,-3.8777,8.6189],[119.6162,-3.8735,12.5496],[119.6206,-3.872,8.4141],[119.6234,-3.873,10.677],[119.6234,-3.8713,9.1397],[119.6197,-3.8696,10.4565],[119.6114,-3.8705,5.2098],[119.6034,-3.8683,4.4442],[119.6055,-3.8674,4.802],[119.608,-3.8624,5.6193],[119.6027,-3.8587,5.3497],[119.6036,-3.8573,8.3921],[119.6018,-3.856,11.0967],[119.5976,-3.8566,7.2986],[119.5979,-3.851,6.2421],[119.5956,-3.8441,7.8841],[119.5889,-3.8465,5.6243],[119.5782,-3.8369,4.8286],[119.5656,-3.8623,3.8247],[119.5473,-3.8584,2.5829],[119.542,-3.8547,2.6959],[119.5364,-3.864,0.7178],[119.534,-3.8647,0.2782],[119.5289,-3.8625,0.0],[119.5241,-3.8634,0.0],[119.5371,-3.8983,1.844],[119.5489,-3.9179,0.3641],[119.5542,-3.9221,0.0],[119.5636,-3.912,0.7575],[119.5694,-3.9109,5.1894],[119.5757,-3.9139,6.8162]]]]}}