{"type":"Feature","properties":{"GID_3":"IDN.23.23.7_1","GID_0":"IDN","country":"Indonesia","GID_1":"IDN.23_1","province":"Papua","NL_NAME_1":"NA","GID_2":"IDN.23.23_1","county":"Puncak","NL_NAME_2":"NA","city":"Sinak","VARNAME_3":"NA","NL_NAME_3":"NA","TYPE_3":"Distrik","ENGTYPE_3":"District","CC_3":"9433040","HASC_3":"NA","name":"Sinak.city"},
"geometry":{"type": "MultiPolygon","coordinates": [[[[137.8896,-3.8557,2754.947],[137.9091,-3.8421,3169.8867],[137.9204,-3.8376,3598.3647],[137.913,-3.8294,3251.4014],[137.899,-3.7993,2819.5588],[137.8914,-3.7713,1860.7192],[137.8907,-3.7497,1904.0698],[137.8539,-3.7604,1862.1699],[137.8292,-3.7653,1980.4551],[137.8109,-3.7668,2282.7732],[137.7771,-3.7741,2314.4648],[137.7496,-3.7668,2128.1323],[137.7368,-3.7695,2378.9785],[137.6993,-3.7732,2598.2107],[137.6655,-3.786,2294.9006],[137.6454,-3.7988,2575.25],[137.649,-3.8143,2744.1628],[137.6563,-3.8271,3258.0652],[137.6774,-3.8427,3430.7759],[137.7021,-3.8445,3508.8086],[137.7204,-3.8518,3907.6174],[137.7322,-3.8619,3375.4587],[137.7518,-3.8705,3451.9937],[137.7595,-3.8663,3705.8521],[137.795,-3.8592,3383.6943],[137.8192,-3.8646,3613.2544],[137.8423,-3.8675,2728.562],[137.8529,-3.8669,2380.9126],[137.86,-3.8592,2245.2915],[137.8695,-3.8551,2317.9993],[137.8896,-3.8557,2754.947]]]]}}