{"type":"Feature","properties":{"GID_3":"IDN.11.34.14_1","GID_0":"IDN","country":"Indonesia","GID_1":"IDN.11_1","province":"JawaTimur","NL_NAME_1":"NA","GID_2":"IDN.11.34_1","county":"Sumenep","NL_NAME_2":"NA","city":"Kalianget","VARNAME_3":"NA","NL_NAME_3":"NA","TYPE_3":"Kecamatan","ENGTYPE_3":"Sub-district","CC_3":"3529060","HASC_3":"NA","name":"Kalianget.city"},
"geometry":{"type": "MultiPolygon","coordinates": [[[[113.8829,-7.0708,0.6678],[113.8902,-7.0621,1.281],[113.9067,-7.0471,1.7409],[113.9145,-7.0436,1.126],[113.9213,-7.0436,3.3104],[113.9414,-7.0575,2.5578],[113.9439,-7.0571,1.1071],[113.9475,-7.0532,3.0001],[113.9481,-7.0481,12.8925],[113.9446,-7.0426,0.0],[113.9266,-7.0352,7.782],[113.9208,-7.031,2.6232],[113.9213,-7.0232,1.5412],[113.9174,-7.0247,1.272],[113.917,-7.0227,2.2717],[113.9132,-7.0231,1.1436],[113.9135,-7.0212,2.5457],[113.9107,-7.0205,1.2735],[113.9133,-7.0193,1.8462],[113.9102,-7.0177,1.4203],[113.9091,-7.0211,1.8841],[113.9006,-7.0262,2.0312],[113.8975,-7.0242,2.0582],[113.8979,-7.021,4.3525],[113.8946,-7.0184,2.951],[113.8908,-7.0247,2.3374],[113.9013,-7.0323,3.6616],[113.8983,-7.0365,3.2007],[113.8971,-7.0379,5.0198],[113.8895,-7.0317,5.6468],[113.884,-7.0301,2.196],[113.8765,-7.0373,2.0],[113.869,-7.0492,1.6897],[113.8656,-7.0483,1.5155],[113.8653,-7.0503,1.0],[113.8639,-7.0499,1.0],[113.8658,-7.0539,1.0806],[113.8647,-7.0555,1.3518],[113.8692,-7.0578,1.0],[113.8703,-7.0616,1.1006],[113.8692,-7.063,1.9485],[113.8617,-7.0641,1.0],[113.8552,-7.0729,2.2679],[113.8759,-7.0826,0.6609],[113.8829,-7.0708,0.6678]]]]}}