{"type":"Feature","properties":{"GID_3":"IDN.9.24.28_1","GID_0":"IDN","country":"Indonesia","GID_1":"IDN.9_1","province":"JawaBarat","NL_NAME_1":"NA","GID_2":"IDN.9.24_1","county":"Sukabumi","NL_NAME_2":"NA","city":"KalapaNunggal","VARNAME_3":"NA","NL_NAME_3":"NA","TYPE_3":"Kecamatan","ENGTYPE_3":"Sub-district","CC_3":"3202270","HASC_3":"NA","name":"Kalapa_Nunggal.city"},
"geometry":{"type": "MultiPolygon","coordinates": [[[[106.6917,-6.8539,515.8003],[106.6936,-6.8503,506.0986],[106.7011,-6.8482,498.676],[106.7021,-6.8455,481.7503],[106.6945,-6.8422,505.9482],[106.6905,-6.8356,526.9337],[106.692,-6.8329,553.1363],[106.6964,-6.8327,558.3377],[106.6998,-6.8344,518.8992],[106.6984,-6.8264,540.3855],[106.6954,-6.8175,563.915],[106.688,-6.8083,630.3339],[106.6891,-6.8047,650.9473],[106.6824,-6.8016,755.154],[106.6818,-6.7953,883.0958],[106.6844,-6.7963,842.2184],[106.6862,-6.793,887.5676],[106.6842,-6.7906,981.5283],[106.6821,-6.7912,1024.038],[106.6819,-6.7945,937.3445],[106.6793,-6.7921,919.7097],[106.6781,-6.794,864.4431],[106.6773,-6.7931,864.4431],[106.6791,-6.7874,1087.5598],[106.6781,-6.7807,1446.0942],[106.6817,-6.7641,1181.0952],[106.6815,-6.7557,1350.9923],[106.6731,-6.7574,1242.9507],[106.671,-6.7565,1200.8628],[106.6689,-6.7586,1171.912],[106.6648,-6.7592,1150.1096],[106.6649,-6.7635,1126.1627],[106.6602,-6.7717,992.631],[106.6478,-6.7769,880.4536],[106.6475,-6.7791,815.1031],[106.6452,-6.7804,795.0529],[106.6453,-6.7854,769.3903],[106.6419,-6.788,728.8107],[106.6425,-6.7909,712.1599],[106.6413,-6.7906,729.7083],[106.6427,-6.798,657.7996],[106.641,-6.799,675.9039],[106.6416,-6.8013,666.4991],[106.6394,-6.8024,636.2152],[106.6408,-6.8046,651.39],[106.6435,-6.8048,619.6892],[106.6442,-6.8114,616.2377],[106.6386,-6.8188,548.7709],[106.6387,-6.8226,527.2623],[106.6332,-6.8266,572.9341],[106.6347,-6.8283,497.7532],[106.6331,-6.8318,553.2955],[106.6348,-6.8331,488.5307],[106.6329,-6.8337,518.1445],[106.6335,-6.8365,499.5152],[106.6301,-6.8396,464.3648],[106.6324,-6.841,466.0142],[106.6322,-6.8443,449.5613],[106.6349,-6.8438,447.816],[106.6348,-6.8467,475.273],[106.6364,-6.8458,461.9442],[106.6392,-6.8471,419.2794],[106.6389,-6.8506,439.3192],[106.6412,-6.8532,403.8274],[106.6451,-6.853,463.4784],[106.6501,-6.843,604.163],[106.6563,-6.8376,588.1458],[106.6603,-6.8411,619.9143],[106.6648,-6.8414,582.573],[106.6737,-6.8499,572.9558],[106.6745,-6.8609,548.7618],[106.6776,-6.8645,559.7234],[106.6849,-6.8638,524.3431],[106.6885,-6.8596,514.2491],[106.6916,-6.861,500.8155],[106.6937,-6.8588,509.5038],[106.6917,-6.8539,515.8003]]]]}}