{"type":"Feature","properties":{"GID_3":"IDN.1.10.6_1","GID_0":"IDN","country":"Indonesia","GID_1":"IDN.1_1","province":"Aceh","NL_NAME_1":"NA","GID_2":"IDN.1.10_1","county":"AcehTimur","NL_NAME_2":"NA","city":"IdiRayeuk","VARNAME_3":"NA","NL_NAME_3":"NA","TYPE_3":"Kecamatan","ENGTYPE_3":"Sub-district","CC_3":"1105130","HASC_3":"NA","name":"Idi_Rayeuk.city"},
"geometry":{"type": "MultiPolygon","coordinates": [[[[97.7729,4.9385,23.1979],[97.7722,4.9345,21.7042],[97.7835,4.9293,17.9022],[97.7891,4.9222,12.0859],[97.793,4.9222,16.3265],[97.7958,4.9259,7.8811],[97.7949,4.929,8.193],[97.7984,4.9322,5.94],[97.7937,4.9365,3.2553],[97.7941,4.9406,1.3342],[97.7919,4.9405,3.1532],[97.7937,4.9423,1.6263],[97.7935,4.9475,0.0],[97.7792,4.9595,0.0],[97.7792,4.9624,0.0],[97.7482,4.9885,0.0],[97.7461,4.984,1.0],[97.7438,4.9839,1.1459],[97.7438,4.9779,3.4975],[97.7422,4.9753,3.3085],[97.74,4.9736,4.6786],[97.7348,4.9733,7.9214],[97.7293,4.9675,6.7252],[97.7249,4.9673,20.5301],[97.7244,4.9639,6.8781],[97.727,4.9583,25.1794],[97.7247,4.9485,31.4885],[97.7298,4.9458,37.21],[97.7467,4.9478,13.4548],[97.745,4.9446,19.973],[97.7488,4.9395,9.7177],[97.7527,4.9403,8.2645],[97.7533,4.9368,8.667],[97.7596,4.9345,7.695],[97.7636,4.9394,7.8731],[97.7647,4.9476,6.3273],[97.7733,4.9439,8.094],[97.7729,4.9385,23.1979]]]]}}