{"type":"Feature","properties":{"GID_3":"IDN.10.33.12_1","GID_0":"IDN","country":"Indonesia","GID_1":"IDN.10_1","province":"JawaTengah","NL_NAME_1":"NA","GID_2":"IDN.10.33_1","county":"Temanggung","NL_NAME_2":"NA","city":"Ngadirejo","VARNAME_3":"NA","NL_NAME_3":"NA","TYPE_3":"Kecamatan","ENGTYPE_3":"Sub-district","CC_3":"3323100","HASC_3":"NA","name":"Ngadirejo.city"},
"geometry":{"type": "MultiPolygon","coordinates": [[[[110.0489,-7.2702,1090.1356],[110.0527,-7.2682,1043.6071],[110.0582,-7.27,981.0012],[110.062,-7.2695,953.2278],[110.0665,-7.2667,916.71],[110.0762,-7.2655,850.4209],[110.0756,-7.2619,857.8502],[110.0781,-7.2616,846.2939],[110.0743,-7.257,850.6476],[110.0751,-7.2552,843.1371],[110.0804,-7.2537,802.262],[110.082,-7.2514,802.625],[110.0854,-7.2528,787.2193],[110.0898,-7.2505,776.7197],[110.086,-7.2418,768.8101],[110.0838,-7.2421,773.4346],[110.081,-7.2458,792.5791],[110.0789,-7.2431,796.1656],[110.0704,-7.244,825.4427],[110.0731,-7.2328,797.3602],[110.0689,-7.228,803.6324],[110.0648,-7.2264,822.6685],[110.062,-7.2184,810.6934],[110.0622,-7.2144,809.3002],[110.043,-7.2228,888.8865],[110.0427,-7.2253,905.3028],[110.0336,-7.2324,972.6468],[110.031,-7.2362,999.3942],[110.0267,-7.2383,1055.2819],[110.0223,-7.2457,1147.834],[110.0094,-7.2577,1426.8367],[110.0032,-7.267,1651.9724],[110.0044,-7.2842,2047.7551],[110.0096,-7.2893,2211.7725],[110.0196,-7.2869,1820.087],[110.0322,-7.2823,1410.7228],[110.0472,-7.2728,1094.4553],[110.0489,-7.2702,1090.1356]]]]}}