{"type":"Feature","properties":{"GID_3":"IDN.22.5.2_1","GID_0":"IDN","country":"Indonesia","GID_1":"IDN.22_1","province":"PapuaBarat","NL_NAME_1":"NA","GID_2":"IDN.22.5_1","county":"Maybrat","NL_NAME_2":"NA","city":"AifatTimur","VARNAME_3":"NA","NL_NAME_3":"NA","TYPE_3":"Distrik","ENGTYPE_3":"District","CC_3":"9110110","HASC_3":"NA","name":"Aifat_Timur.city"},
"geometry":{"type": "MultiPolygon","coordinates": [[[[132.5569,-1.3988,131.1343],[132.5728,-1.3984,144.6609],[132.5946,-1.4394,63.6292],[132.5999,-1.4146,115.6075],[132.6096,-1.3953,169.937],[132.6328,-1.3619,114.9261],[132.6721,-1.2953,366.4109],[132.7199,-1.219,763.1127],[132.7233,-1.1967,1001.6151],[132.7227,-1.184,606.6515],[132.7088,-1.1605,816.9659],[132.676,-1.1455,900.4484],[132.5812,-1.1344,278.3429],[132.5813,-1.1332,278.3429],[132.577,-1.1329,243.8434],[132.5771,-1.14,215.7182],[132.5806,-1.1426,272.2956],[132.5944,-1.1422,242.2366],[132.6016,-1.14,262.5619],[132.6035,-1.1407,259.9283],[132.6038,-1.1429,235.2651],[132.6104,-1.1457,250.0396],[132.6054,-1.1712,301.8296],[132.6104,-1.1929,190.3353],[132.606,-1.1989,213.9534],[132.5997,-1.1992,262.8534],[132.5985,-1.2011,213.5726],[132.6067,-1.2024,218.5352],[132.6064,-1.2061,202.2356],[132.6016,-1.2049,220.7115],[132.5994,-1.2061,254.0374],[132.6001,-1.2109,192.9565],[132.5758,-1.2326,210.4081],[132.579,-1.2439,175.0835],[132.5876,-1.25,223.6788],[132.5911,-1.2799,234.3406],[132.5952,-1.2884,185.7689],[132.6008,-1.295,158.6903],[132.6008,-1.302,174.4692],[132.5974,-1.302,201.4752],[132.5955,-1.3045,174.7627],[132.5845,-1.2931,161.9173],[132.5647,-1.3032,145.422],[132.5565,-1.3001,271.6266],[132.5543,-1.3029,287.5486],[132.553,-1.3108,129.7385],[132.5492,-1.3155,264.4429],[132.5411,-1.3196,155.1199],[132.5397,-1.325,249.7959],[132.5479,-1.3386,154.4647],[132.5531,-1.3429,177.9808],[132.5566,-1.3432,192.6273],[132.5661,-1.3548,157.4299],[132.5569,-1.3988,131.1343]]]]}}