{"type":"Feature","properties":{"GID_3":"IDN.23.28.16_1","GID_0":"IDN","country":"Indonesia","GID_1":"IDN.23_1","province":"Papua","NL_NAME_1":"NA","GID_2":"IDN.23.28_1","county":"Yahukimo","NL_NAME_2":"NA","city":"Kosarek","VARNAME_3":"NA","NL_NAME_3":"NA","TYPE_3":"Distrik","ENGTYPE_3":"District","CC_3":"9416033","HASC_3":"NA","name":"Kosarek.city"},
"geometry":{"type": "MultiPolygon","coordinates": [[[[139.5471,-4.2061,3033.0344],[139.5497,-4.2152,2927.0637],[139.5646,-4.2257,3100.8037],[139.5637,-4.2433,2969.9531],[139.5663,-4.2758,3600.3308],[139.5778,-4.2995,3704.8394],[139.5778,-4.3205,3825.5781],[139.5804,-4.3478,3236.3967],[139.6637,-4.3812,3943.4917],[139.6527,-4.3453,3478.3889],[139.6605,-4.2891,3391.2764],[139.6543,-4.2672,3434.4053],[139.6434,-4.2469,3025.6135],[139.6231,-4.222,2963.1406],[139.6153,-4.197,2815.0264],[139.6043,-4.1767,2645.8843],[139.5825,-4.1205,2293.9919],[139.5778,-4.1002,1596.5271],[139.5655,-4.063,1564.2352],[139.5337,-4.0687,902.2553],[139.4942,-4.0803,1481.6196],[139.484,-4.0855,1298.0529],[139.4896,-4.1577,2007.8408],[139.497,-4.1748,2535.2141],[139.511,-4.1845,2838.2219],[139.5383,-4.1906,2530.2622],[139.5471,-4.2061,3033.0344]]]]}}