{"type":"Feature","properties":{"GID_3":"IDN.13.7.5_1","GID_0":"IDN","country":"Indonesia","GID_1":"IDN.13_1","province":"KalimantanSelatan","NL_NAME_1":"NA","GID_2":"IDN.13.7_1","county":"HuluSungaiTengah","NL_NAME_2":"NA","city":"BatuBenawa","VARNAME_3":"NA","NL_NAME_3":"NA","TYPE_3":"Kecamatan","ENGTYPE_3":"Sub-district","CC_3":"6307020","HASC_3":"NA","name":"Batu_Benawa.city"},
"geometry":{"type": "MultiPolygon","coordinates": [[[[115.4127,-2.6195,28.9092],[115.4031,-2.6194,18.2802],[115.3956,-2.6213,23.742],[115.3884,-2.6269,16.2779],[115.3852,-2.6266,18.827],[115.3831,-2.6329,22.357],[115.3935,-2.6488,27.8146],[115.3989,-2.6483,176.2703],[115.4077,-2.6418,52.166],[115.4178,-2.6455,69.6473],[115.4185,-2.6526,78.7649],[115.4157,-2.6664,98.0672],[115.4281,-2.6569,125.058],[115.4309,-2.6534,76.3353],[115.4307,-2.6496,37.1017],[115.4345,-2.6468,35.3823],[115.4362,-2.6464,35.3823],[115.4374,-2.6485,37.8112],[115.4398,-2.6474,42.954],[115.4419,-2.6486,43.3322],[115.4458,-2.6403,59.7449],[115.4829,-2.6191,144.5576],[115.4948,-2.605,185.2348],[115.5063,-2.6043,313.559],[115.5098,-2.5978,358.5123],[115.5,-2.5931,300.8831],[115.4961,-2.5934,260.0771],[115.4921,-2.5974,193.1794],[115.4836,-2.5985,101.426],[115.4732,-2.6028,77.7497],[115.4677,-2.6027,74.5603],[115.4605,-2.5993,51.3273],[115.4503,-2.5902,17.5058],[115.4411,-2.5864,23.3603],[115.433,-2.5863,15.4486],[115.42,-2.5798,14.7634],[115.4059,-2.5785,13.8737],[115.403,-2.5934,13.974],[115.421,-2.6116,19.3765],[115.4127,-2.6195,28.9092]]]]}}