{"type":"Feature","properties":{"GID_3":"IDN.32.8.1_1","GID_0":"IDN","country":"Indonesia","GID_1":"IDN.32_1","province":"SumateraUtara","NL_NAME_1":"NA","GID_2":"IDN.32.8_1","county":"KotaBinjai","NL_NAME_2":"NA","city":"BinjaiBarat","VARNAME_3":"NA","NL_NAME_3":"NA","TYPE_3":"Kecamatan","ENGTYPE_3":"Sub-district","CC_3":"1276050","HASC_3":"NA","name":"Binjai_Barat.city"},
"geometry":{"type": "MultiPolygon","coordinates": [[[[98.4728,3.6039,31.8091],[98.4705,3.6,31.3537],[98.4726,3.5998,31.1153],[98.4746,3.6021,32.3858],[98.4762,3.5992,29.1953],[98.4795,3.6034,30.4725],[98.4781,3.6086,33.0336],[98.4866,3.6092,30.1174],[98.4919,3.6133,29.7672],[98.4919,3.6222,28.0305],[98.4884,3.6263,23.6988],[98.4857,3.6267,24.6916],[98.486,3.6361,25.4271],[98.4839,3.6384,24.2751],[98.4811,3.6352,24.7649],[98.4816,3.639,28.385],[98.4788,3.6391,22.5271],[98.4787,3.6421,27.1365],[98.4731,3.6419,27.7773],[98.4747,3.6458,24.5294],[98.4712,3.6491,24.0176],[98.4649,3.6501,28.6733],[98.4616,3.6539,22.6395],[98.4577,3.6552,23.9822],[98.454,3.6531,24.429],[98.4467,3.6559,21.2499],[98.4467,3.6515,22.06],[98.4516,3.6508,21.8239],[98.4575,3.6526,23.8604],[98.4604,3.6497,26.0431],[98.4609,3.6441,27.5225],[98.4719,3.6409,27.7252],[98.4744,3.6356,27.2615],[98.4738,3.6169,32.5787],[98.4427,3.6128,31.2305],[98.4405,3.6054,36.9653],[98.4451,3.6043,42.4829],[98.4451,3.5984,46.9954],[98.459,3.5944,35.8965],[98.4602,3.5964,32.7394],[98.4584,3.5975,40.8565],[98.4607,3.6004,40.4537],[98.4619,3.598,38.3853],[98.4631,3.5995,31.6036],[98.467,3.5978,32.012],[98.4683,3.5989,31.8402],[98.4665,3.6016,32.3981],[98.4669,3.6037,31.1773],[98.4707,3.6026,30.9967],[98.4728,3.6039,31.8091]]]]}}