{"type":"Feature","properties":{"GID_3":"IDN.34.10.6_1","GID_0":"IDN","country":"Indonesia","GID_1":"IDN.34_1","province":"KalimantanTimur","NL_NAME_1":"NA","GID_2":"IDN.34.10_1","county":"Paser","NL_NAME_2":"NA","city":"MuaraKomam","VARNAME_3":"NA","NL_NAME_3":"NA","TYPE_3":"Kecamatan","ENGTYPE_3":"Sub-district","CC_3":"6401070","HASC_3":"NA","name":"Muara_Komam.city"},
"geometry":{"type": "MultiPolygon","coordinates": [[[[115.7191,-1.7986,671.2336],[115.7215,-1.8011,824.4357],[115.7247,-1.8002,1082.3982],[115.742,-1.792,1053.4846],[115.7435,-1.7887,946.42],[115.7568,-1.7758,999.9001],[115.7645,-1.776,635.6235],[115.7695,-1.771,596.1066],[115.7711,-1.7579,591.3379],[115.7808,-1.7385,456.649],[115.7894,-1.7302,281.0335],[115.8001,-1.7242,230.366],[115.8053,-1.7192,196.8377],[115.8246,-1.7228,55.272],[115.8358,-1.7341,48.6971],[115.8457,-1.7355,82.7728],[115.8602,-1.7242,219.8967],[115.8768,-1.7213,551.3008],[115.8845,-1.7178,550.4561],[115.8861,-1.7115,527.3254],[115.8796,-1.6984,442.4186],[115.8698,-1.6931,515.4081],[115.8698,-1.6886,655.7534],[115.8778,-1.6837,547.9612],[115.884,-1.6822,440.8049],[115.9005,-1.684,246.1322],[115.9057,-1.6435,305.1878],[115.894,-1.6289,509.8391],[115.8956,-1.6241,578.9545],[115.8954,-1.616,499.3721],[115.9023,-1.6126,444.8141],[115.9057,-1.6053,485.4184],[115.9101,-1.5921,517.4031],[115.9099,-1.5835,527.9118],[115.9165,-1.5806,452.6664],[115.9165,-1.5674,522.7209],[115.9198,-1.56,546.2905],[115.9182,-1.5531,512.207],[115.9232,-1.5414,632.1286],[115.9294,-1.5385,623.0468],[115.9375,-1.5387,562.909],[115.9376,-1.5301,517.6515],[115.9407,-1.5239,536.2054],[115.9489,-1.5142,536.0391],[115.9592,-1.5091,543.4507],[115.973,-1.4993,608.6493],[115.9728,-1.487,668.2135],[115.9795,-1.4803,796.9378],[115.9781,-1.4722,644.9808],[115.9796,-1.4674,690.5469],[115.986,-1.4611,642.2309],[115.9829,-1.4399,530.1324],[115.9922,-1.4364,693.5617],[115.9957,-1.4235,891.4663],[115.9892,-1.4124,924.7947],[115.9917,-1.3911,982.1031],[115.9881,-1.3915,1046.3354],[115.9789,-1.3836,598.4661],[115.9737,-1.3639,518.7102],[115.9671,-1.3515,439.3658],[115.9605,-1.3442,350.7318],[115.9494,-1.337,291.6519],[115.9461,-1.3259,247.3857],[115.9382,-1.3206,259.8099],[115.9362,-1.3022,185.5597],[115.9382,-1.2943,189.2121],[115.9415,-1.2924,186.4039],[115.9494,-1.2937,169.0211],[115.9507,-1.2779,142.17],[115.9553,-1.2681,124.0098],[115.954,-1.2595,112.9261],[115.9362,-1.2477,121.0307],[115.9339,-1.2405,121.7584],[115.9307,-1.2379,161.1899],[115.9136,-1.2425,181.124],[115.9123,-1.2234,187.2883],[115.9083,-1.207,170.6078],[115.9005,-1.2031,177.9124],[115.8788,-1.186,179.0451],[115.8749,-1.169,162.9146],[115.8716,-1.1657,174.9919],[115.8519,-1.1624,352.2631],[115.8471,-1.1592,257.3778],[115.8457,-1.1647,360.0544],[115.8412,-1.1691,399.3529],[115.8186,-1.182,361.5982],[115.7967,-1.1998,194.9546],[115.7836,-1.213,202.15],[115.7716,-1.229,190.841],[115.7651,-1.2487,229.6123],[115.7615,-1.2661,322.4148],[115.7552,-1.2799,216.1943],[115.7576,-1.3074,232.2286],[115.754,-1.315,212.5487],[115.7493,-1.315,204.5211],[115.749,-1.336,320.0628],[115.7443,-1.3418,340.0748],[115.7426,-1.3546,381.1312],[115.7363,-1.3655,328.8885],[115.73,-1.3679,413.0887],[115.7232,-1.3729,484.4465],[115.7194,-1.3898,507.7601],[115.7104,-1.4056,516.0389],[115.7086,-1.4126,576.3356],[115.6996,-1.4139,470.3939],[115.6939,-1.4168,529.7172],[115.6974,-1.4245,640.3694],[115.6919,-1.4257,658.9752],[115.692,-1.4346,665.7245],[115.6882,-1.442,609.7711],[115.6887,-1.4489,701.6765],[115.6821,-1.4477,689.2993],[115.6786,-1.455,671.0677],[115.6776,-1.4629,663.8839],[115.6709,-1.4607,531.6975],[115.6683,-1.4685,494.7697],[115.6593,-1.4704,492.5946],[115.6599,-1.477,379.9633],[115.6562,-1.4832,436.7306],[115.6544,-1.495,490.8922],[115.6523,-1.4994,474.1214],[115.6553,-1.5122,129.3687],[115.641,-1.5192,405.2819],[115.6361,-1.5272,343.9562],[115.6314,-1.5303,320.8973],[115.6313,-1.5347,302.3799],[115.6329,-1.5385,346.6316],[115.6344,-1.5387,282.6082],[115.6365,-1.5458,340.5103],[115.6442,-1.5507,229.0464],[115.6457,-1.5547,270.7998],[115.6454,-1.561,298.3055],[115.6385,-1.5674,405.3935],[115.6357,-1.5727,406.8116],[115.6334,-1.5727,396.5872],[115.6297,-1.576,356.7768],[115.6302,-1.5786,421.7013],[115.6361,-1.5811,400.9124],[115.6395,-1.5853,361.7597],[115.6397,-1.5916,358.1866],[115.6361,-1.5969,358.6093],[115.6362,-1.604,354.8326],[115.6393,-1.6037,352.3843],[115.6394,-1.6092,349.2741],[115.6431,-1.6121,359.8204],[115.6545,-1.6138,372.7967],[115.6516,-1.6166,393.8094],[115.6507,-1.6209,386.638],[115.6547,-1.6261,381.3546],[115.6586,-1.6281,412.1709],[115.6678,-1.6292,603.4529],[115.6709,-1.6418,743.1554],[115.6696,-1.6479,670.7583],[115.6741,-1.664,706.798],[115.6711,-1.6754,585.6832],[115.6677,-1.6802,540.8239],[115.666,-1.6969,490.0392],[115.6673,-1.6997,454.8376],[115.6655,-1.7071,454.5658],[115.6694,-1.7094,388.1825],[115.6793,-1.7102,476.7253],[115.6813,-1.7152,499.0082],[115.691,-1.7178,348.38],[115.7069,-1.7326,658.1488],[115.7067,-1.7352,672.084],[115.702,-1.7392,653.6011],[115.7015,-1.7422,645.255],[115.6899,-1.752,834.8549],[115.6869,-1.7577,827.7943],[115.6866,-1.7667,818.2126],[115.6897,-1.7714,698.9725],[115.6901,-1.779,700.293],[115.6855,-1.786,601.7903],[115.6808,-1.7892,548.5038],[115.681,-1.7947,573.6216],[115.6846,-1.8009,585.0549],[115.691,-1.8042,601.6791],[115.693,-1.7999,576.3246],[115.7001,-1.7929,627.109],[115.7081,-1.7882,678.1907],[115.7191,-1.7986,671.2336]]]]}}