{"type":"Feature","properties":{"GID_3":"IDN.23.16.20_1","GID_0":"IDN","country":"Indonesia","GID_1":"IDN.23_1","province":"Papua","NL_NAME_1":"NA","GID_2":"IDN.23.16_1","county":"Merauke","NL_NAME_2":"NA","city":"Waan","VARNAME_3":"NA","NL_NAME_3":"NA","TYPE_3":"Distrik","ENGTYPE_3":"District","CC_3":"9401011","HASC_3":"NA","name":"Waan.city"},
"geometry":{"type": "MultiPolygon","coordinates": [[[[137.6991,-8.4205,4.8125],[137.7364,-8.4057,3.9916],[137.7944,-8.3942,5.3165],[137.8571,-8.3849,0.0],[137.8631,-8.382,1.3396],[137.8705,-8.3726,13.2908],[137.8745,-8.3722,22.2477],[137.8762,-8.3796,1.1929],[137.8914,-8.3828,2.9795],[137.9725,-8.3847,0.0],[137.9925,-8.3824,1.331],[138.0033,-8.3853,0.0],[138.0766,-8.3874,0.0],[138.0997,-8.3833,0.0],[138.1026,-8.386,0.0],[138.1159,-8.3864,0.0],[138.1322,-8.384,1.8183],[138.1483,-8.386,0.0],[138.1786,-8.3842,2.7397],[138.1882,-8.3852,0.0],[138.1924,-8.3827,2.3951],[138.2,-8.384,0.0],[138.2227,-8.3784,1.693],[138.228,-8.3805,0.0],[138.2289,-8.3847,0.0],[138.2483,-8.3882,0.0],[138.2538,-8.3901,0.0],[138.2554,-8.393,0.0],[138.257,-8.391,0.0],[138.2627,-8.3905,0.0],[138.2639,-8.3919,6.4566],[138.2638,-8.3998,13.342],[138.2619,-8.4016,3.2769],[138.2616,-8.4063,0.9925],[138.2628,-8.4153,0.0],[138.2653,-8.4194,0.5431],[138.2811,-8.4234,0.0],[138.3033,-8.4249,0.0],[138.324,-8.4223,1.0256],[138.341,-8.4197,0.0],[138.3756,-8.4107,2.8464],[138.4039,-8.4008,0.5815],[138.4422,-8.3841,0.0],[138.4914,-8.3465,0.0],[138.5008,-8.3295,0.0],[138.4996,-8.3178,0.0],[138.5009,-8.316,7.2867],[138.5101,-8.3132,0.0],[138.5108,-8.3061,10.1271],[138.5113,-8.3129,5.5671],[138.533,-8.3055,0.0],[138.4988,-8.2589,4.4475],[138.4871,-8.2191,12.3496],[138.4661,-8.1887,4.2419],[138.4497,-8.149,4.8338],[138.4427,-8.1116,9.8757],[138.4193,-8.0578,5.4336],[138.4053,-8.0087,5.4044],[138.3866,-7.9643,5.6462],[138.3132,-7.9718,5.6645],[138.2924,-7.9718,6.1282],[138.2613,-7.9692,7.4824],[138.2354,-7.9614,4.1442],[138.2069,-7.9484,4.7938],[138.1887,-7.9381,6.0099],[138.1576,-7.9303,3.163],[138.1395,-7.9277,3.4183],[138.1058,-7.9277,3.4985],[138.0824,-7.9225,3.3604],[138.0694,-7.9096,3.7309],[138.0409,-7.9096,3.4173],[138.0176,-7.894,3.2127],[137.9787,-7.881,4.3797],[137.9139,-7.8473,2.6974],[137.882,-7.8331,0.0],[137.877,-7.8463,7.0303],[137.8733,-7.8472,0.8329],[137.8687,-7.8528,4.0949],[137.8666,-7.862,6.3869],[137.8654,-7.862,7.7676],[137.8665,-7.8644,11.4482],[137.8646,-7.8637,12.2103],[137.8599,-7.8704,10.1957],[137.8593,-7.8767,0.4407],[137.8613,-7.8795,6.1724],[137.8582,-7.8791,3.7092],[137.8587,-7.8812,8.4789],[137.8504,-7.8887,9.1473],[137.8499,-7.8905,11.7102],[137.8519,-7.8924,10.7932],[137.8512,-7.8964,11.249],[137.8481,-7.8961,0.0],[137.8459,-7.9008,4.4417],[137.8476,-7.9045,15.0319],[137.8436,-7.9039,6.1457],[137.8364,-7.9153,1.4992],[137.8361,-7.9185,1.6642],[137.8419,-7.9234,13.0981],[137.8358,-7.9232,8.8507],[137.8303,-7.9305,13.2124],[137.829,-7.9392,6.7174],[137.825,-7.9416,1.8569],[137.8174,-7.9536,5.612],[137.8177,-7.9568,2.0968],[137.8198,-7.9568,9.4674],[137.8204,-7.9595,0.3613],[137.8228,-7.9606,15.8716],[137.8154,-7.9639,11.8493],[137.8126,-7.9712,11.7684],[137.8151,-7.9744,11.1586],[137.8093,-7.9761,1.4933],[137.8048,-7.9857,13.0563],[137.8047,-7.9894,13.299],[137.8065,-7.9909,10.432],[137.803,-7.9926,10.7076],[137.8001,-8.0004,12.6978],[137.7984,-8.012,13.1659],[137.7992,-8.0176,12.5486],[137.8022,-8.0249,10.5782],[137.8048,-8.025,12.0759],[137.8096,-8.0329,3.3365],[137.8144,-8.0337,0.0],[137.8157,-8.0383,0.0],[137.8035,-8.0448,8.0543],[137.797,-8.0461,0.0],[137.7953,-8.0494,0.5042],[137.7885,-8.0498,2.3568],[137.7882,-8.0519,7.211],[137.7856,-8.0519,3.9973],[137.7861,-8.0538,11.0669],[137.7817,-8.0551,4.3736],[137.7779,-8.0609,9.7538],[137.78,-8.0692,14.2639],[137.7738,-8.065,12.8999],[137.7666,-8.0704,0.0],[137.7639,-8.0771,3.3099],[137.7677,-8.0804,12.5869],[137.7643,-8.0811,0.0],[137.763,-8.086,9.2885],[137.7589,-8.0868,13.9601],[137.7542,-8.0917,3.4303],[137.7521,-8.1012,12.3805],[137.745,-8.1061,6.5463],[137.7406,-8.1176,4.8943],[137.7347,-8.1238,12.5986],[137.7326,-8.1293,11.888],[137.7276,-8.1331,4.399],[137.7287,-8.137,13.6335],[137.721,-8.1446,12.1478],[137.7173,-8.1555,13.9255],[137.7144,-8.1588,5.2267],[137.7191,-8.1637,5.9477],[137.7182,-8.1644,5.9477],[137.7169,-8.1623,2.1387],[137.7146,-8.1619,11.3933],[137.7065,-8.1722,6.1854],[137.7077,-8.1748,13.5659],[137.7038,-8.1798,12.1523],[137.7036,-8.1852,13.3155],[137.6941,-8.2113,13.0521],[137.6909,-8.2148,13.2882],[137.6893,-8.2248,13.6032],[137.684,-8.236,12.4623],[137.6843,-8.2406,12.7553],[137.6824,-8.2461,12.1406],[137.6841,-8.2475,11.9731],[137.6804,-8.2513,8.2903],[137.6793,-8.2619,12.9619],[137.6772,-8.2652,12.3251],[137.6781,-8.2679,12.7532],[137.6755,-8.272,12.5943],[137.6733,-8.2829,12.296],[137.6715,-8.2844,11.3469],[137.6712,-8.2928,12.3656],[137.6676,-8.299,11.3763],[137.6658,-8.3085,11.7273],[137.6669,-8.3116,10.1348],[137.6638,-8.3166,12.3368],[137.6604,-8.3522,12.9003],[137.649,-8.3832,0.0],[137.6431,-8.413,0.0],[137.6403,-8.4176,1.6261],[137.6403,-8.4233,4.5669],[137.6427,-8.4309,4.5858],[137.6477,-8.4381,10.0398],[137.6551,-8.4461,11.2872],[137.6603,-8.4476,7.7131],[137.6649,-8.4435,11.1951],[137.6648,-8.4395,12.1343],[137.6727,-8.437,12.7625],[137.684,-8.429,10.1093],[137.6893,-8.4215,7.957],[137.691,-8.4215,10.529],[137.6911,-8.4184,13.8594],[137.6961,-8.4213,10.867],[137.6991,-8.4205,4.8125]]]]}}