{"type":"Feature","properties":{"GID_3":"IDN.22.4.17_1","GID_0":"IDN","country":"Indonesia","GID_1":"IDN.22_1","province":"PapuaBarat","NL_NAME_1":"NA","GID_2":"IDN.22.4_1","county":"Manokwari","NL_NAME_2":"NA","city":"Mubarni/Arfu","VARNAME_3":"NA","NL_NAME_3":"NA","TYPE_3":"Distrik","ENGTYPE_3":"District","CC_3":"9105161","HASC_3":"NA","name":"Mubarni_Arfu.city"},
"geometry":{"type": "MultiPolygon","coordinates": [[[[133.4322,-0.8784,1318.8591],[133.4528,-0.8831,1083.1991],[133.4701,-0.8838,1100.0208],[133.4697,-0.8608,521.0209],[133.4732,-0.8103,253.5585],[133.4837,-0.7735,54.2639],[133.4957,-0.7637,150.1518],[133.5083,-0.7435,5.7393],[133.4844,-0.7404,7.1956],[133.4525,-0.7404,11.5483],[133.4183,-0.7364,0.0],[133.3953,-0.7407,0.0],[133.3895,-0.7397,10.4632],[133.3737,-0.725,0.0],[133.3499,-0.7149,19.081],[133.3215,-0.6986,8.3505],[133.29,-0.6606,0.0],[133.2722,-0.6506,3.0691],[133.2541,-0.6321,1.5883],[133.1473,-0.77,1318.5278],[133.1436,-0.7872,904.1783],[133.1352,-0.807,838.9319],[133.1838,-0.8179,888.3923],[133.2094,-0.8197,1014.2138],[133.2201,-0.8185,930.0331],[133.2204,-0.8174,1005.7059],[133.2309,-0.8231,877.9199],[133.2439,-0.8351,773.6532],[133.2729,-0.8441,620.6364],[133.3229,-0.8531,859.0022],[133.3699,-0.8681,789.7088],[133.4018,-0.8701,1013.5828],[133.4322,-0.8784,1318.8591]]]]}}