{"type":"Feature","properties":{"GID_3":"IDN.26.13.5_1","GID_0":"IDN","country":"Indonesia","GID_1":"IDN.26_1","province":"SulawesiSelatan","NL_NAME_1":"NA","GID_2":"IDN.26.13_1","county":"Maros","NL_NAME_2":"NA","city":"Lau","VARNAME_3":"NA","NL_NAME_3":"NA","TYPE_3":"Kecamatan","ENGTYPE_3":"Sub-district","CC_3":"7308023","HASC_3":"NA","name":"Lau.city"},
"geometry":{"type": "MultiPolygon","coordinates": [[[[119.588,-4.9724,1.6751],[119.59,-4.9679,3.8698],[119.5934,-4.9695,3.0702],[119.599,-4.9751,3.3577],[119.5974,-4.9767,3.771],[119.5999,-4.9826,8.1653],[119.6043,-4.9815,4.4627],[119.607,-4.9849,4.4199],[119.6151,-4.9743,6.2876],[119.6149,-4.9702,5.8263],[119.6125,-4.9694,5.1067],[119.6102,-4.9644,5.7844],[119.6033,-4.9628,6.2522],[119.599,-4.955,1.8123],[119.5949,-4.9542,2.5946],[119.5926,-4.9515,4.5485],[119.5944,-4.947,2.7002],[119.5933,-4.9422,2.1509],[119.5983,-4.9435,1.541],[119.6,-4.9423,2.0984],[119.5982,-4.9382,0.125],[119.5987,-4.9356,0.7267],[119.5939,-4.9377,0.25],[119.591,-4.9367,0.125],[119.5891,-4.9395,0.5],[119.5872,-4.9394,1.4851],[119.5867,-4.9318,1.2016],[119.5849,-4.9308,1.2838],[119.5835,-4.9337,1.0781],[119.5818,-4.9336,0.125],[119.5834,-4.9283,0.25],[119.5818,-4.9273,0.125],[119.5782,-4.9289,0.25],[119.575,-4.9281,0.25],[119.5746,-4.9313,0.7781],[119.5724,-4.9331,1.0908],[119.5726,-4.9371,0.5],[119.5702,-4.9385,0.6133],[119.5704,-4.9409,1.1538],[119.5633,-4.9387,0.9133],[119.558,-4.9459,0.7674],[119.555,-4.9468,0.5],[119.5437,-4.9455,0.5],[119.5367,-4.9464,0.5],[119.5191,-4.9396,0.5],[119.5146,-4.9466,0.5],[119.5117,-4.9462,0.0],[119.5078,-4.9492,0.0],[119.5015,-4.96,2.9033],[119.5049,-4.9613,0.5],[119.5041,-4.9643,0.7528],[119.5059,-4.9653,1.072],[119.5082,-4.9609,0.9146],[119.5099,-4.9683,0.5],[119.5144,-4.9674,0.5],[119.5207,-4.9745,0.5],[119.5211,-4.9782,1.6341],[119.5233,-4.9788,1.0643],[119.5471,-4.9708,0.625],[119.5482,-4.9739,0.5],[119.5524,-4.9747,0.5],[119.5545,-4.9767,0.9684],[119.5538,-4.9782,0.7485],[119.5556,-4.9788,1.5209],[119.5556,-4.9854,2.0479],[119.5593,-4.9873,1.4202],[119.5577,-4.9944,1.1918],[119.5648,-4.9933,1.6324],[119.5802,-4.9969,1.9507],[119.5792,-5.0018,2.3843],[119.5811,-5.0047,4.7783],[119.5832,-4.9974,7.004],[119.5825,-4.9898,6.7198],[119.5842,-4.988,2.5139],[119.5837,-4.9795,2.5638],[119.588,-4.9724,1.6751]]]]}}