{"type":"Feature","properties":{"GID_3":"IDN.5.8.10_1","GID_0":"IDN","country":"Indonesia","GID_1":"IDN.5_1","province":"Bengkulu","NL_NAME_1":"NA","GID_2":"IDN.5.8_1","county":"Mukomuko","NL_NAME_2":"NA","city":"PondokSuguh","VARNAME_3":"NA","NL_NAME_3":"NA","TYPE_3":"Kecamatan","ENGTYPE_3":"Sub-district","CC_3":"1706020","HASC_3":"NA","name":"Pondok_Suguh.city"},
"geometry":{"type": "MultiPolygon","coordinates": [[[[101.4085,-2.9187,2.9276],[101.4108,-2.9174,2.8507],[101.4125,-2.9132,2.8606],[101.4108,-2.9103,2.791],[101.4059,-2.9097,2.1503],[101.4039,-2.9056,4.6327],[101.404,-2.9011,4.027],[101.4079,-2.8937,11.923],[101.4122,-2.8918,4.9304],[101.4133,-2.8879,4.2677],[101.4212,-2.883,13.6475],[101.4269,-2.8822,10.4114],[101.4277,-2.8842,19.1337],[101.4296,-2.8816,15.6275],[101.432,-2.8817,19.1743],[101.4351,-2.8789,26.7241],[101.4368,-2.8795,23.7763],[101.4322,-2.872,20.7731],[101.4414,-2.8665,48.1016],[101.4442,-2.862,52.7016],[101.4525,-2.8606,59.3924],[101.4567,-2.8621,72.7938],[101.4623,-2.8618,68.8502],[101.4678,-2.8582,29.5118],[101.4731,-2.8578,46.1639],[101.4754,-2.8597,38.7771],[101.4811,-2.8565,41.2785],[101.4821,-2.8585,33.1446],[101.4837,-2.8567,33.6359],[101.4854,-2.8577,29.0565],[101.4888,-2.8448,54.2184],[101.4932,-2.8443,58.1721],[101.4947,-2.8461,52.571],[101.4976,-2.8417,48.658],[101.4981,-2.8431,59.0541],[101.4998,-2.8422,55.1191],[101.5037,-2.8381,66.928],[101.5076,-2.8376,83.569],[101.5104,-2.834,110.6645],[101.5152,-2.8332,141.4081],[101.5167,-2.8312,163.9641],[101.5225,-2.8307,173.2367],[101.526,-2.8323,183.8117],[101.5265,-2.8262,230.7868],[101.5357,-2.8143,290.3045],[101.5394,-2.8126,303.8722],[101.539,-2.809,306.6091],[101.543,-2.8056,319.6371],[101.5466,-2.8072,322.1691],[101.5498,-2.8066,338.5371],[101.551,-2.8035,345.1798],[101.5583,-2.8014,333.4097],[101.5597,-2.7972,305.8102],[101.5669,-2.7875,308.5493],[101.5758,-2.7833,251.9875],[101.5967,-2.7661,306.247],[101.6246,-2.7265,348.3149],[101.7074,-2.5729,1467.8115],[101.7025,-2.5653,1505.3801],[101.6823,-2.5449,1505.9946],[101.6758,-2.5328,1536.7594],[101.6644,-2.5289,1407.0934],[101.6581,-2.5284,1484.1843],[101.6502,-2.5304,1417.6294],[101.6273,-2.5813,773.5466],[101.6235,-2.599,522.4029],[101.5862,-2.6093,402.7996],[101.5254,-2.6673,559.8142],[101.5095,-2.6937,499.9255],[101.4834,-2.7121,275.2206],[101.481,-2.7109,246.5629],[101.4674,-2.7126,276.6652],[101.4599,-2.7087,222.7351],[101.4544,-2.7107,208.7747],[101.4506,-2.7086,193.9888],[101.4432,-2.7104,206.7365],[101.4408,-2.7124,191.1297],[101.4419,-2.7155,162.5772],[101.4359,-2.7221,99.738],[101.4327,-2.723,105.0537],[101.4294,-2.7273,90.6225],[101.4269,-2.7262,88.9478],[101.4242,-2.7294,93.3206],[101.4186,-2.7307,71.3045],[101.4187,-2.7326,60.5643],[101.4169,-2.7334,53.437],[101.4164,-2.7394,44.0524],[101.4111,-2.7462,43.4949],[101.4122,-2.7493,38.0265],[101.4096,-2.7516,35.3169],[101.409,-2.761,35.5815],[101.4013,-2.7587,30.6069],[101.3953,-2.7613,36.8663],[101.389,-2.7593,30.3184],[101.3895,-2.7633,28.1603],[101.3863,-2.7663,27.5629],[101.3865,-2.7704,25.3255],[101.3828,-2.7735,25.9771],[101.3819,-2.7774,17.4266],[101.3783,-2.7786,19.5447],[101.3797,-2.7838,21.7795],[101.3783,-2.7917,13.5509],[101.3806,-2.794,20.858],[101.3794,-2.7959,17.3194],[101.3753,-2.7968,11.7783],[101.376,-2.7996,9.2589],[101.3742,-2.802,6.4461],[101.3771,-2.8059,4.6045],[101.3741,-2.8084,3.1011],[101.3745,-2.8136,4.3268],[101.3766,-2.8152,9.6771],[101.3776,-2.8189,9.4241],[101.3735,-2.8242,8.4332],[101.3681,-2.8271,9.9535],[101.3677,-2.8294,10.0296],[101.3623,-2.8306,0.0],[101.3976,-2.9121,1.0466],[101.4042,-2.9205,2.9766],[101.4085,-2.9187,2.9276]]]]}}