{"type":"Feature","properties":{"GID_3":"IDN.30.9.5_1","GID_0":"IDN","country":"Indonesia","GID_1":"IDN.30_1","province":"SumateraBarat","NL_NAME_1":"NA","GID_2":"IDN.30.9_1","county":"PadangPariaman","NL_NAME_2":"NA","city":"EnamLingkung","VARNAME_3":"NA","NL_NAME_3":"NA","TYPE_3":"Kecamatan","ENGTYPE_3":"Sub-district","CC_3":"1306051","HASC_3":"NA","name":"Enam_Lingkung.city"},
"geometry":{"type": "MultiPolygon","coordinates": [[[[100.2686,-0.6266,46.0168],[100.2689,-0.6281,48.6444],[100.2657,-0.6258,45.9597],[100.2657,-0.623,48.719],[100.2635,-0.6208,45.2639],[100.2672,-0.615,57.2978],[100.2649,-0.6134,54.1199],[100.2656,-0.6122,56.8971],[100.2622,-0.6114,51.0195],[100.2648,-0.6074,60.3695],[100.268,-0.608,57.945],[100.2609,-0.602,63.8304],[100.2519,-0.6028,50.6086],[100.2461,-0.6009,75.1412],[100.2413,-0.6128,52.5159],[100.2347,-0.6123,41.3358],[100.2287,-0.6156,52.9656],[100.2272,-0.6253,29.2286],[100.2193,-0.6215,46.913],[100.2162,-0.6273,41.5516],[100.2184,-0.6375,17.2063],[100.217,-0.642,19.1136],[100.2149,-0.6419,20.9683],[100.2181,-0.6463,26.2628],[100.2306,-0.6517,23.4697],[100.2292,-0.6529,25.6141],[100.24,-0.649,31.3278],[100.2894,-0.6524,29.1693],[100.2916,-0.6488,32.2022],[100.3098,-0.6407,39.1901],[100.3155,-0.6262,75.9237],[100.315,-0.6191,78.3612],[100.3219,-0.6181,53.9359],[100.3216,-0.6157,107.1163],[100.3237,-0.6147,80.299],[100.3243,-0.6098,221.6118],[100.3211,-0.6069,212.908],[100.313,-0.6134,88.436],[100.3123,-0.6118,74.0455],[100.3074,-0.6105,54.0816],[100.2932,-0.6115,73.9325],[100.2847,-0.6081,89.9338],[100.2845,-0.6092,89.9338],[100.2818,-0.6089,78.508],[100.2686,-0.6266,46.0168]]]]}}