{"type":"Feature","properties":{"GID_3":"IDN.30.9.13_1","GID_0":"IDN","country":"Indonesia","GID_1":"IDN.30_1","province":"SumateraBarat","NL_NAME_1":"NA","GID_2":"IDN.30.9_1","county":"PadangPariaman","NL_NAME_2":"NA","city":"SungaiLimau","VARNAME_3":"NA","NL_NAME_3":"NA","TYPE_3":"Kecamatan","ENGTYPE_3":"Sub-district","CC_3":"1306080","HASC_3":"NA","name":"Sungai_Limau.city"},
"geometry":{"type": "MultiPolygon","coordinates": [[[[100.0922,-0.4794,127.4762],[100.0693,-0.4723,105.7787],[100.0637,-0.4816,89.4466],[100.047,-0.4808,57.6789],[100.0427,-0.4783,28.859],[100.0477,-0.4723,49.3026],[100.0481,-0.463,65.2785],[100.0334,-0.4706,62.331],[100.0194,-0.4855,0.7459],[100.0411,-0.5056,8.6557],[100.0622,-0.5303,0.0],[100.0773,-0.5451,0.1907],[100.0904,-0.567,0.0],[100.0911,-0.5628,2.7825],[100.0945,-0.5608,6.2871],[100.0966,-0.5613,1.8501],[100.0968,-0.5585,7.1385],[100.0942,-0.5559,5.4405],[100.0991,-0.5558,3.1374],[100.098,-0.5524,5.9406],[100.1042,-0.5502,6.9321],[100.1033,-0.5429,8.9129],[100.1091,-0.534,11.5865],[100.1032,-0.5274,12.3934],[100.1022,-0.523,16.4791],[100.1045,-0.5222,16.8875],[100.1048,-0.5199,16.2954],[100.1072,-0.5211,16.4781],[100.1061,-0.5176,27.015],[100.1129,-0.5124,25.1591],[100.1155,-0.5028,31.9312],[100.1236,-0.5005,108.6219],[100.1311,-0.4885,71.8992],[100.1212,-0.4873,137.9993],[100.1154,-0.4836,73.7381],[100.1161,-0.4787,84.4644],[100.1113,-0.4766,141.8925],[100.1044,-0.4829,138.5882],[100.0922,-0.4794,127.4762]]]]}}