{"type":"Feature","properties":{"GID_3":"IDN.30.9.16_1","GID_0":"IDN","country":"Indonesia","GID_1":"IDN.30_1","province":"SumateraBarat","NL_NAME_1":"NA","GID_2":"IDN.30.9_1","county":"PadangPariaman","NL_NAME_2":"NA","city":"VKotoTimur","VARNAME_3":"NA","NL_NAME_3":"NA","TYPE_3":"Kecamatan","ENGTYPE_3":"Sub-district","CC_3":"1306071","HASC_3":"NA","name":"V_Koto_Timur.city"},
"geometry":{"type": "MultiPolygon","coordinates": [[[[100.133,-0.5503,66.725],[100.1359,-0.5604,30.9053],[100.1321,-0.5628,30.4981],[100.1312,-0.5713,16.8502],[100.1353,-0.5724,31.3887],[100.1382,-0.5701,44.4533],[100.1406,-0.5724,60.2959],[100.1453,-0.5727,53.6589],[100.1487,-0.5706,54.8967],[100.1503,-0.5722,51.3801],[100.153,-0.5695,44.1235],[100.1528,-0.56,73.4307],[100.1548,-0.5598,59.3677],[100.1538,-0.5559,67.5888],[100.157,-0.5544,75.1075],[100.1588,-0.5409,76.6064],[100.1637,-0.5395,112.2583],[100.1726,-0.541,66.4676],[100.1701,-0.5356,98.3994],[100.1705,-0.5291,114.9117],[100.1715,-0.527,111.3703],[100.1763,-0.5245,117.3209],[100.1805,-0.5168,158.6346],[100.1861,-0.5165,115.5928],[100.2031,-0.5082,162.5455],[100.2096,-0.5001,199.938],[100.212,-0.4942,238.9509],[100.2188,-0.4897,249.0963],[100.2364,-0.4846,206.1495],[100.2424,-0.4753,258.7545],[100.2465,-0.4676,326.6545],[100.2462,-0.4598,332.3026],[100.2384,-0.4485,390.7427],[100.2266,-0.4458,452.9473],[100.223,-0.4383,593.9042],[100.2156,-0.432,806.0291],[100.2155,-0.4282,969.3976],[100.2185,-0.4203,1058.0219],[100.2169,-0.4149,1319.5614],[100.2139,-0.4135,1338.6034],[100.2096,-0.4147,1320.7954],[100.2038,-0.4133,1178.4512],[100.1993,-0.4155,1079.6576],[100.1899,-0.4142,1118.1204],[100.1838,-0.4373,559.8987],[100.1891,-0.4453,441.1775],[100.1891,-0.453,377.8384],[100.2004,-0.4615,252.9558],[100.1995,-0.4628,252.9558],[100.2014,-0.464,266.0121],[100.202,-0.4688,216.6467],[100.2003,-0.4687,231.6165],[100.2003,-0.4713,198.9119],[100.1976,-0.4729,228.9297],[100.1984,-0.4756,186.3589],[100.1948,-0.4772,188.5919],[100.1923,-0.4883,223.2678],[100.1906,-0.4895,223.2678],[100.1845,-0.4905,227.0247],[100.1841,-0.4874,214.0614],[100.1866,-0.4845,143.2285],[100.1863,-0.4826,153.9412],[100.1809,-0.482,159.2513],[100.1801,-0.4842,130.0132],[100.175,-0.4823,134.5471],[100.1746,-0.4845,117.5422],[100.1711,-0.4859,120.5507],[100.1697,-0.492,121.6306],[100.1589,-0.5012,125.3474],[100.1485,-0.5059,120.7307],[100.1407,-0.5153,54.1989],[100.1342,-0.515,27.6094],[100.1317,-0.5164,22.2768],[100.1361,-0.521,33.4123],[100.1376,-0.5254,76.8896],[100.133,-0.5503,66.725]]]]}}