{"type":"Feature","properties":{"GID_2":"IDN.5.6_1","GID_0":"IDN","country":"Indonesia","GID_1":"IDN.5_1","province":"Bengkulu","NL_NAME_1":"NA","county":"Kepahiang","VARNAME_2":"NA","NL_NAME_2":"NA","TYPE_2":"Kabupaten","ENGTYPE_2":"Regency","CC_2":"1708","HASC_2":"ID.BE.KE","name":"Kepahiang.county"},
"geometry":{"type": "MultiPolygon","coordinates": [[[[102.5934,-3.758,970.3541],[102.6065,-3.7812,1126.1135],[102.6106,-3.7976,1345.4216],[102.6143,-3.8005,1434.2252],[102.6186,-3.8011,1443.4827],[102.6237,-3.7949,1313.821],[102.6418,-3.7933,777.5203],[102.649,-3.7873,666.261],[102.6559,-3.7718,448.3365],[102.6616,-3.7718,431.8366],[102.7388,-3.7476,312.9988],[102.7376,-3.7218,369.2433],[102.742,-3.7095,392.2081],[102.7522,-3.6668,480.7017],[102.7663,-3.6425,590.0975],[102.7768,-3.6359,622.8691],[102.7811,-3.6308,614.9989],[102.7981,-3.6261,673.9075],[102.8085,-3.6095,718.8495],[102.8057,-3.5988,749.1125],[102.8004,-3.5901,783.4113],[102.7946,-3.5862,815.0347],[102.7946,-3.5813,819.3394],[102.7975,-3.5707,859.9722],[102.8024,-3.5637,912.2757],[102.8079,-3.5593,971.277],[102.8114,-3.5516,1063.6791],[102.8125,-3.5377,1550.5122],[102.8102,-3.5301,1722.3501],[102.7964,-3.5374,1158.6509],[102.7849,-3.5407,950.5629],[102.7749,-3.5469,882.799],[102.751,-3.5432,873.785],[102.7222,-3.5526,1014.0639],[102.7069,-3.5473,1096.9941],[102.6875,-3.5463,1133.2937],[102.6775,-3.5484,1148.4514],[102.6825,-3.5451,1143.7196],[102.6848,-3.5396,1121.7196],[102.6634,-3.5383,1245.9689],[102.6615,-3.5421,1261.8374],[102.655,-3.5407,1305.1128],[102.6375,-3.5326,1516.5762],[102.6307,-3.5231,1801.2173],[102.6282,-3.5164,1708.5381],[102.6246,-3.5164,1715.7883],[102.601,-3.5259,1737.6863],[102.5942,-3.5256,1826.4923],[102.5656,-3.5077,882.7913],[102.5331,-3.4961,646.0521],[102.5185,-3.496,620.1552],[102.5121,-3.4978,609.4173],[102.5117,-3.494,610.8793],[102.5088,-3.4957,606.7433],[102.509,-3.4981,607.062],[102.5005,-3.5008,601.8306],[102.4976,-3.5068,607.7972],[102.4969,-3.5136,638.9423],[102.4872,-3.5161,644.5475],[102.4809,-3.5197,609.7272],[102.472,-3.5309,732.4929],[102.4659,-3.5321,763.6516],[102.4555,-3.5293,778.0762],[102.4507,-3.5301,770.38],[102.4429,-3.5275,807.7714],[102.4431,-3.535,831.713],[102.4544,-3.5473,801.9156],[102.4564,-3.549,806.7003],[102.4786,-3.5527,783.0393],[102.503,-3.5759,762.132],[102.5073,-3.5835,714.1201],[102.5118,-3.5864,738.9545],[102.5141,-3.5943,743.5751],[102.5127,-3.6019,721.7773],[102.5192,-3.6125,750.0682],[102.5132,-3.6212,781.8193],[102.5169,-3.6265,821.7651],[102.524,-3.6312,711.085],[102.5286,-3.6438,749.616],[102.5283,-3.6569,905.2216],[102.543,-3.6593,870.6108],[102.5466,-3.6614,855.8531],[102.5512,-3.6612,681.3703],[102.5528,-3.6626,656.9241],[102.5529,-3.6702,671.5571],[102.5545,-3.6721,704.1628],[102.5634,-3.6786,750.465],[102.5772,-3.6835,922.0933],[102.5754,-3.6951,856.138],[102.5787,-3.7048,843.8854],[102.5783,-3.7139,871.1486],[102.5822,-3.738,926.2779],[102.5934,-3.758,970.3541]]]]}}