{"type":"Feature","properties":{"GID_3":"IDN.11.32.5_1","GID_0":"IDN","country":"Indonesia","GID_1":"IDN.11_1","province":"JawaTimur","NL_NAME_1":"NA","GID_2":"IDN.11.32_1","county":"Sidoarjo","NL_NAME_2":"NA","city":"Jabon","VARNAME_3":"NA","NL_NAME_3":"NA","TYPE_3":"Kecamatan","ENGTYPE_3":"Sub-district","CC_3":"3515050","HASC_3":"NA","name":"Jabon.city"},
"geometry":{"type": "MultiPolygon","coordinates": [[[[112.7559,-7.5734,2.9884],[112.7624,-7.5749,3.9959],[112.7699,-7.574,3.2129],[112.7697,-7.5719,3.6682],[112.7716,-7.5705,3.6458],[112.7769,-7.5725,2.8948],[112.778,-7.5683,2.4541],[112.7847,-7.5628,1.4123],[112.7902,-7.5644,1.102],[112.7959,-7.5612,1.2262],[112.7995,-7.5605,1.5995],[112.8014,-7.562,0.5],[112.8021,-7.5591,0.7503],[112.805,-7.5593,0.5],[112.8065,-7.555,1.0432],[112.8116,-7.5546,0.625],[112.8109,-7.5568,0.5],[112.8129,-7.5587,0.6642],[112.8167,-7.5589,0.8172],[112.832,-7.5524,2.1215],[112.8342,-7.5539,2.5292],[112.8369,-7.5658,1.627],[112.8449,-7.5748,1.0564],[112.8604,-7.5762,0.5],[112.8684,-7.5691,2.608],[112.8714,-7.5608,3.8498],[112.8722,-7.5522,0.0],[112.8703,-7.5502,0.0],[112.8682,-7.5508,2.1166],[112.8663,-7.5475,0.8523],[112.8697,-7.5418,0.0],[112.8669,-7.5399,0.7926],[112.8723,-7.5367,2.5218],[112.8703,-7.5329,2.1384],[112.8722,-7.5309,0.0],[112.8671,-7.5268,0.0],[112.8672,-7.522,0.0],[112.8649,-7.5183,0.0],[112.8571,-7.5186,0.0],[112.8544,-7.516,0.0],[112.8493,-7.5158,0.0],[112.8374,-7.5118,3.5238],[112.831,-7.5009,1.673],[112.8237,-7.4938,2.1536],[112.821,-7.4973,0.7852],[112.8239,-7.502,1.3932],[112.8227,-7.5059,1.4338],[112.8236,-7.5108,2.6493],[112.8207,-7.5184,1.5019],[112.8148,-7.5219,1.9945],[112.8136,-7.5255,2.571],[112.8108,-7.5255,2.6417],[112.8077,-7.5214,2.6408],[112.8013,-7.5203,1.3511],[112.7956,-7.5236,1.0771],[112.7877,-7.5225,0.0],[112.7901,-7.5256,0.5],[112.7886,-7.5289,1.1246],[112.785,-7.5274,0.9504],[112.7817,-7.5285,0.4701],[112.7791,-7.5268,1.0179],[112.7757,-7.5278,1.1422],[112.774,-7.5257,0.0],[112.767,-7.5279,1.5844],[112.7583,-7.5253,0.8575],[112.7522,-7.5287,0.0],[112.7521,-7.5322,0.0],[112.7495,-7.5348,0.0],[112.745,-7.5336,1.2117],[112.7423,-7.5372,1.3206],[112.7305,-7.5319,3.7698],[112.7287,-7.5349,4.1678],[112.7152,-7.5343,8.5319],[112.7114,-7.5378,10.5129],[112.7076,-7.5361,7.5],[112.7057,-7.5385,7.5],[112.704,-7.5451,3.927],[112.7062,-7.5449,3.7061],[112.7095,-7.5479,6.0518],[112.7116,-7.557,4.5967],[112.7197,-7.5615,5.5109],[112.7246,-7.5702,5.1025],[112.7389,-7.5732,4.1167],[112.7477,-7.5719,3.9688],[112.7529,-7.5752,3.868],[112.7559,-7.5734,2.9884]]]]}}