{"type":"Feature","properties":{"GID_2":"IDN.10.29_1","GID_0":"IDN","country":"Indonesia","GID_1":"IDN.10_1","province":"JawaTengah","NL_NAME_1":"NA","county":"Sragen","VARNAME_2":"NA","NL_NAME_2":"NA","TYPE_2":"Kabupaten","ENGTYPE_2":"Regency","CC_2":"3314","HASC_2":"ID.JT.SG","name":"Sragen.county"},
"geometry":{"type": "MultiPolygon","coordinates": [[[[111.1196,-7.5221,412.0515],[111.1239,-7.5191,338.3648],[111.125,-7.5129,304.7031],[111.1297,-7.511,328.5367],[111.1308,-7.5153,357.2364],[111.1396,-7.5239,430.9893],[111.1481,-7.5253,436.3516],[111.152,-7.5219,413.7642],[111.1502,-7.5204,405.7079],[111.1507,-7.5181,389.3622],[111.1481,-7.5164,376.5562],[111.1503,-7.5113,344.6296],[111.1537,-7.5092,324.9039],[111.1521,-7.5077,354.6643],[111.1534,-7.5055,338.6528],[111.1518,-7.4979,295.765],[111.1481,-7.4941,296.099],[111.1448,-7.4934,258.4555],[111.1414,-7.4862,220.2592],[111.1394,-7.4868,219.7328],[111.1352,-7.4837,199.0895],[111.1368,-7.4802,195.7685],[111.1332,-7.475,180.8798],[111.1351,-7.4735,174.9241],[111.1345,-7.4685,158.9393],[111.1372,-7.4657,159.909],[111.1347,-7.4621,152.2297],[111.1318,-7.4644,144.9985],[111.1322,-7.4611,144.5163],[111.1287,-7.4611,137.1849],[111.131,-7.4566,132.0056],[111.1284,-7.4515,122.5726],[111.1252,-7.4504,126.7066],[111.1242,-7.4443,116.74],[111.1259,-7.4444,114.5109],[111.1261,-7.4427,113.7094],[111.1252,-7.4395,106.8759],[111.1228,-7.4391,111.316],[111.1239,-7.4344,104.6726],[111.1214,-7.4253,98.4362],[111.1191,-7.4233,96.7638],[111.1199,-7.4171,88.9655],[111.1184,-7.4145,88.7506],[111.1202,-7.412,88.9183],[111.1199,-7.4094,88.1643],[111.1242,-7.4092,85.6642],[111.1234,-7.4056,83.7066],[111.1264,-7.4051,82.4726],[111.1296,-7.4015,84.4605],[111.1284,-7.4007,78.3224],[111.1291,-7.3993,79.8179],[111.1273,-7.3988,82.5975],[111.1282,-7.3969,81.9197],[111.1293,-7.3955,80.8077],[111.131,-7.396,80.4378],[111.1335,-7.3911,76.7756],[111.1392,-7.3857,75.2483],[111.1365,-7.3824,73.6769],[111.1371,-7.379,72.0487],[111.1432,-7.3743,71.0841],[111.1415,-7.3732,70.9623],[111.1455,-7.3683,70.469],[111.1436,-7.3673,70.9232],[111.1441,-7.3648,69.9635],[111.1417,-7.3636,69.165],[111.1443,-7.3619,67.4098],[111.1446,-7.3596,67.2407],[111.1413,-7.361,66.0972],[111.1428,-7.3577,63.4512],[111.1414,-7.3572,67.7537],[111.1406,-7.3527,62.183],[111.143,-7.3472,87.5257],[111.1415,-7.3416,97.4267],[111.1429,-7.3375,99.444],[111.142,-7.3326,89.9891],[111.1435,-7.3289,100.3649],[111.1494,-7.3237,97.3834],[111.1494,-7.3208,112.3841],[111.1553,-7.3133,115.2888],[111.1469,-7.3082,123.5772],[111.1421,-7.3074,122.5983],[111.137,-7.2975,112.3901],[111.138,-7.2938,103.7204],[111.1414,-7.29,101.9468],[111.1401,-7.2838,136.5829],[111.1439,-7.2814,126.6849],[111.1443,-7.2795,134.0487],[111.1468,-7.2796,137.6757],[111.1504,-7.2737,150.1188],[111.1508,-7.2688,147.0994],[111.1487,-7.2644,153.0033],[111.1463,-7.2645,156.3531],[111.1438,-7.2617,145.5664],[111.136,-7.2618,139.9254],[111.1341,-7.2596,140.7745],[111.1274,-7.258,144.6871],[111.1257,-7.251,122.2448],[111.1215,-7.2481,149.5432],[111.1119,-7.2492,162.0303],[111.1071,-7.2472,156.5377],[111.1025,-7.2474,162.5295],[111.1011,-7.2494,158.534],[111.098,-7.2491,157.0629],[111.0953,-7.2525,156.2375],[111.0915,-7.2529,153.5986],[111.089,-7.2511,147.9731],[111.0852,-7.2548,148.0163],[111.0802,-7.2543,145.9184],[111.0788,-7.2574,147.7224],[111.0793,-7.262,138.3049],[111.0749,-7.2626,144.3987],[111.0722,-7.2671,164.8083],[111.0655,-7.2671,165.6243],[111.0578,-7.2706,163.2643],[111.0457,-7.2661,154.9483],[111.0414,-7.267,160.9615],[111.032,-7.2645,157.8674],[111.0331,-7.2579,154.1913],[111.0299,-7.2567,163.8366],[111.0234,-7.2582,158.6164],[111.0205,-7.2607,164.6341],[111.0181,-7.2589,155.0287],[111.013,-7.2621,154.7929],[111.0073,-7.2609,151.7032],[111.0056,-7.2661,134.2675],[110.9965,-7.2675,141.9902],[110.995,-7.2739,154.7083],[110.9864,-7.2744,151.1481],[110.9854,-7.2764,143.6814],[110.9824,-7.2772,136.6917],[110.9782,-7.2774,145.7468],[110.9773,-7.2762,158.7259],[110.971,-7.2776,139.0352],[110.9687,-7.2755,135.5596],[110.9636,-7.276,132.9846],[110.9578,-7.2819,127.4566],[110.9548,-7.2827,127.568],[110.9479,-7.2813,135.2864],[110.945,-7.2772,132.59],[110.9385,-7.2778,130.9372],[110.9319,-7.2761,107.0023],[110.9288,-7.2776,98.4397],[110.9252,-7.275,94.3918],[110.9222,-7.2696,92.535],[110.9197,-7.2805,107.8508],[110.9174,-7.282,90.8439],[110.9078,-7.2814,89.9155],[110.9047,-7.2832,83.6812],[110.9007,-7.282,79.4438],[110.9008,-7.2759,76.0425],[110.8951,-7.2738,79.3428],[110.8892,-7.2727,92.7683],[110.8788,-7.2742,103.3375],[110.877,-7.2751,114.7935],[110.877,-7.2773,113.0715],[110.8744,-7.2762,110.1737],[110.8697,-7.2731,92.6403],[110.8712,-7.2692,113.7557],[110.8672,-7.2651,101.7247],[110.8578,-7.2711,134.8043],[110.8554,-7.2695,107.897],[110.852,-7.2699,87.5],[110.8531,-7.2715,100.7401],[110.8503,-7.2702,87.5],[110.8494,-7.2724,91.4211],[110.844,-7.2699,90.7812],[110.8427,-7.2745,92.8172],[110.8443,-7.2756,91.913],[110.8432,-7.2757,102.5501],[110.8412,-7.2713,114.1804],[110.8423,-7.2686,88.7683],[110.8404,-7.2694,93.0293],[110.8411,-7.2675,87.5],[110.8384,-7.2666,94.1709],[110.8369,-7.2678,114.8406],[110.8375,-7.2653,87.5],[110.8337,-7.2639,87.5],[110.8321,-7.2655,88.5653],[110.8323,-7.2688,93.3419],[110.8306,-7.2683,87.5],[110.8311,-7.2713,92.1824],[110.8339,-7.2736,96.7457],[110.8329,-7.2746,91.4832],[110.8351,-7.2765,93.0316],[110.8344,-7.2769,93.0316],[110.8335,-7.2766,93.0316],[110.829,-7.2725,87.5],[110.8304,-7.2752,92.1431],[110.8294,-7.2761,92.1431],[110.8326,-7.2781,87.5],[110.8329,-7.2802,87.5],[110.8349,-7.2796,87.5],[110.8342,-7.2823,87.5],[110.8372,-7.2809,91.6794],[110.8352,-7.2827,87.5],[110.8365,-7.2845,87.5],[110.8334,-7.2839,88.1915],[110.8334,-7.287,87.5],[110.839,-7.2861,89.1919],[110.8403,-7.2829,94.7765],[110.8404,-7.2878,87.5],[110.8445,-7.2855,89.5203],[110.8422,-7.2878,87.5],[110.8426,-7.2907,93.0111],[110.839,-7.2892,87.5],[110.84,-7.293,87.5],[110.8418,-7.2932,89.6551],[110.8404,-7.2938,87.5],[110.845,-7.2971,87.5],[110.8425,-7.2984,93.0499],[110.8399,-7.2954,87.5],[110.8386,-7.2967,92.6112],[110.8368,-7.2905,87.5],[110.8347,-7.2924,87.5],[110.8367,-7.2926,87.5],[110.8369,-7.296,87.5],[110.8354,-7.2951,87.5],[110.8359,-7.2968,89.275],[110.8343,-7.2966,87.5],[110.8354,-7.2983,89.7177],[110.8324,-7.2973,88.5937],[110.8328,-7.2948,87.5],[110.8302,-7.2968,87.5],[110.8285,-7.2956,88.5677],[110.8304,-7.2941,87.5],[110.8264,-7.2929,87.5],[110.8241,-7.2939,87.5],[110.8272,-7.2951,88.5677],[110.8251,-7.297,87.5],[110.828,-7.2961,88.5677],[110.8305,-7.2988,87.5],[110.8317,-7.2976,88.5937],[110.8309,-7.2987,87.5],[110.8324,-7.2996,87.5],[110.8299,-7.3,87.5],[110.8329,-7.3007,87.5],[110.8326,-7.3022,87.5],[110.8377,-7.2994,102.468],[110.8361,-7.303,87.5],[110.8408,-7.3012,100.0046],[110.8479,-7.304,91.8633],[110.841,-7.3033,87.5],[110.8415,-7.3052,91.1057],[110.8374,-7.3048,88.4999],[110.8385,-7.3072,90.6515],[110.8366,-7.3055,87.5],[110.8294,-7.3062,87.5],[110.8333,-7.3079,87.8891],[110.8347,-7.307,87.8891],[110.837,-7.31,87.5],[110.8382,-7.3095,97.1003],[110.8358,-7.3129,87.5],[110.8389,-7.3128,87.5],[110.839,-7.3095,97.1003],[110.841,-7.3101,87.5],[110.8408,-7.312,87.5],[110.8427,-7.3085,92.4073],[110.8441,-7.3099,87.5],[110.8434,-7.3115,87.5],[110.8469,-7.3085,92.8352],[110.8476,-7.3107,87.5],[110.8509,-7.3085,89.5219],[110.8489,-7.3106,87.5],[110.8577,-7.3114,94.1277],[110.8557,-7.3121,92.5229],[110.8466,-7.3123,90.2596],[110.8462,-7.3116,90.2596],[110.8422,-7.3129,87.5],[110.8416,-7.3148,87.5],[110.8444,-7.3164,87.5],[110.8502,-7.3153,92.3564],[110.8613,-7.3162,98.4721],[110.8542,-7.3172,89.0344],[110.8543,-7.3182,111.5512],[110.8509,-7.3165,87.5],[110.8506,-7.3174,87.5],[110.8533,-7.3185,95.638],[110.8503,-7.318,91.2653],[110.8498,-7.3193,91.2653],[110.8496,-7.3172,87.5],[110.8475,-7.3176,87.5],[110.8486,-7.3182,90.8791],[110.8469,-7.3182,88.5375],[110.8471,-7.3194,88.5375],[110.8427,-7.3184,87.5],[110.8394,-7.3202,89.9756],[110.8395,-7.3219,87.5],[110.8442,-7.3229,92.0746],[110.8399,-7.3229,87.5],[110.8395,-7.3242,88.4949],[110.8384,-7.322,87.5],[110.8366,-7.323,87.5],[110.8386,-7.3268,87.5],[110.8418,-7.3261,95.8833],[110.8398,-7.3282,87.5],[110.8427,-7.3273,92.7208],[110.8428,-7.3291,87.5],[110.8396,-7.3299,87.5],[110.8409,-7.3298,87.5],[110.8415,-7.3321,87.5],[110.8458,-7.3317,97.9854],[110.8432,-7.3336,92.9061],[110.8379,-7.3321,87.5],[110.8378,-7.3383,101.1778],[110.835,-7.3396,87.5],[110.835,-7.3442,87.5],[110.8332,-7.3447,92.884],[110.8347,-7.3419,87.5],[110.8313,-7.3398,87.5],[110.8337,-7.3402,87.5],[110.836,-7.3356,87.5],[110.8347,-7.3335,89.5802],[110.8361,-7.3337,87.5],[110.838,-7.3304,87.5],[110.8345,-7.3295,87.5],[110.8353,-7.3276,87.5],[110.8332,-7.329,87.5],[110.8342,-7.3276,87.5],[110.8319,-7.3271,89.8794],[110.8346,-7.3265,87.5],[110.8335,-7.326,87.5],[110.8358,-7.3243,87.5],[110.8314,-7.324,87.5],[110.8266,-7.3278,91.0509],[110.8287,-7.3256,87.5],[110.828,-7.3249,87.5],[110.8323,-7.3227,87.5],[110.8304,-7.3216,87.5],[110.821,-7.3241,87.5],[110.8201,-7.3227,87.5],[110.8247,-7.3221,87.5],[110.8243,-7.3207,92.7099],[110.8256,-7.3218,87.5],[110.8302,-7.321,96.3184],[110.8346,-7.3223,88.7512],[110.8358,-7.3207,94.2623],[110.8365,-7.3217,88.1915],[110.8373,-7.3194,87.5],[110.8403,-7.3186,87.5],[110.8377,-7.3172,87.5],[110.8392,-7.3148,87.5],[110.8367,-7.3167,96.2454],[110.8374,-7.3149,87.5],[110.8351,-7.3154,91.2444],[110.8374,-7.3135,87.5],[110.8345,-7.3151,91.2444],[110.8312,-7.3147,90.4108],[110.8301,-7.3123,87.5],[110.8294,-7.3134,88.284],[110.8284,-7.3118,87.5],[110.827,-7.3129,87.5],[110.8228,-7.3119,93.1233],[110.8257,-7.3104,87.5],[110.8234,-7.3097,88.3618],[110.8225,-7.3118,93.1233],[110.8213,-7.3117,93.1233],[110.8216,-7.3095,87.5],[110.819,-7.3121,97.166],[110.8215,-7.3084,87.5],[110.8207,-7.3074,87.5],[110.8259,-7.3056,87.5],[110.8221,-7.3038,87.5],[110.8191,-7.3076,87.5],[110.8188,-7.3031,87.5],[110.8174,-7.3077,87.5],[110.8159,-7.3081,87.5],[110.8173,-7.3103,87.5],[110.8152,-7.3113,87.5],[110.8146,-7.3142,92.1354],[110.8142,-7.3118,87.5],[110.811,-7.313,103.4208],[110.8153,-7.309,87.5],[110.8086,-7.309,94.3161],[110.8144,-7.3077,91.9458],[110.8149,-7.3025,87.5],[110.8105,-7.303,87.5],[110.8077,-7.3063,104.8686],[110.8053,-7.3053,87.5],[110.7972,-7.3078,87.5],[110.7983,-7.3132,128.0106],[110.8015,-7.3173,151.2237],[110.8032,-7.3275,140.0106],[110.7981,-7.3405,144.8794],[110.7967,-7.351,147.036],[110.7903,-7.3548,156.6427],[110.7886,-7.362,131.4272],[110.7925,-7.3627,138.0231],[110.7929,-7.3654,126.4629],[110.7948,-7.3644,144.583],[110.7952,-7.3667,130.4154],[110.8026,-7.3685,116.6024],[110.799,-7.3695,127.9548],[110.7984,-7.3712,118.322],[110.7885,-7.3774,121.0735],[110.788,-7.38,121.6965],[110.7815,-7.3863,131.839],[110.7784,-7.3864,135.4538],[110.7784,-7.3887,148.8401],[110.7764,-7.3879,145.0256],[110.7727,-7.3922,157.1224],[110.7728,-7.4132999999999996,185.9037],[110.7746,-7.4175,186.4947],[110.7734,-7.4189,181.0508],[110.769,-7.4173,178.3134],[110.7745,-7.4291,160.5376],[110.7825,-7.4323,165.4176],[110.7811,-7.4366,158.0472],[110.7745,-7.4358,156.1651],[110.7708,-7.4402,134.3835],[110.7743,-7.4447,133.9616],[110.7782,-7.4456,130.1904],[110.7809,-7.4531,125.7247],[110.7849,-7.4541,125.1915],[110.7892,-7.4586,121.4846],[110.7919,-7.4573,121.327],[110.7932,-7.4605,118.0185],[110.7966,-7.4616,119.8844],[110.7974,-7.4598,118.2933],[110.8001,-7.4608,118.5722],[110.8016,-7.4592,119.297],[110.8059,-7.4597,119.0174],[110.8089,-7.4583,118.3969],[110.8127,-7.4603,115.555],[110.8136,-7.4589,114.1709],[110.8186,-7.4596,122.5821],[110.8234,-7.4579,115.9087],[110.8242,-7.4561,126.8335],[110.8259,-7.4585,122.406],[110.8281,-7.4575,109.1048],[110.8408,-7.4596,93.2236],[110.8475,-7.4716,104.11],[110.8478,-7.4687,90.1423],[110.8511,-7.4676,95.641],[110.8532,-7.4699,93.5018],[110.8556,-7.4685,96.3844],[110.8575,-7.4695,99.5515],[110.8573,-7.4731,101.5966],[110.8637,-7.473,95.5386],[110.8651,-7.4763,101.6737],[110.8636,-7.4794,94.5237],[110.8657,-7.4806,89.864],[110.8656,-7.4829,92.2762],[110.872,-7.4854,89.2397],[110.872,-7.4888,93.0393],[110.8738,-7.4886,86.771],[110.8745,-7.4863,87.0745],[110.8765,-7.4883,87.5149],[110.8807,-7.4862,89.7251],[110.8832,-7.4876,87.3368],[110.8828,-7.492,86.5704],[110.8892,-7.4916,81.8396],[110.8925,-7.4896,83.6259],[110.8951,-7.4935,85.9465],[110.9181,-7.4961,88.1301],[110.9205,-7.4909,86.9358],[110.9395,-7.4949,92.6072],[110.9516,-7.5002,155.2325],[110.9541,-7.5035,160.6446],[110.964,-7.5075,175.4989],[110.9755,-7.5157,161.7177],[110.9886,-7.5211,169.0835],[111.0026,-7.5247,187.4955],[111.0091,-7.5291,205.9903],[111.0135,-7.5282,217.3665],[111.0176,-7.5296,233.4961],[111.0211,-7.5319,236.5624],[111.0243,-7.5277,239.6278],[111.0318,-7.5341,268.2241],[111.0431,-7.537,308.3464],[111.0494,-7.5373,323.3489],[111.0458,-7.5271,283.1364],[111.0413,-7.5207,256.4289],[111.0403,-7.5113,241.5866],[111.0498,-7.508,257.4702],[111.0571,-7.5093,241.8956],[111.0583,-7.5038,216.5739],[111.063,-7.5028,215.5799],[111.0622,-7.4989,203.123],[111.0639,-7.4958,196.3487],[111.0723,-7.4987,205.8755],[111.073,-7.4966,205.4524],[111.0748,-7.4967,193.6906],[111.0793,-7.4996,203.4551],[111.0789,-7.508,226.5039],[111.0812,-7.5082,230.6397],[111.0802,-7.5114,246.8242],[111.0829,-7.5131,264.4262],[111.0793,-7.5172,272.7294],[111.0808,-7.5219,260.5433],[111.0788,-7.5248,284.4941],[111.0814,-7.5276,269.732],[111.0884,-7.5283,324.7179],[111.0923,-7.5306,379.4248],[111.0963,-7.5292,348.1757],[111.1113,-7.5313,444.7621],[111.1154,-7.5292,425.0737],[111.116,-7.5262,435.9215],[111.1177,-7.5259,488.949],[111.1167,-7.5214,373.9231],[111.1196,-7.5221,412.0515]],
[[110.8353,-7.3074,88.4042],[110.8354,-7.3072,88.4042],[110.8356,-7.3072,88.4042],[110.8355,-7.3074,88.4042],[110.8353,-7.3074,88.4042]]],
[[[110.7951,-7.2988,128.1465],[110.7969,-7.3059,88.2076],[110.8023,-7.306,87.5],[110.8013,-7.3043,100.1233],[110.8028,-7.3053,87.5],[110.8057,-7.3037,87.5],[110.8037,-7.3029,87.5],[110.8033,-7.3001,89.7853],[110.8062,-7.3021,87.5],[110.8062,-7.3,98.9968],[110.8133,-7.298,87.5],[110.8133,-7.2944,88.1546],[110.8157,-7.2952,87.5],[110.8156,-7.2965,87.5],[110.817,-7.2956,87.5],[110.8156,-7.2937,87.5],[110.8137,-7.2941,88.1546],[110.8141,-7.2907,87.5],[110.8108,-7.2963,89.2519],[110.8095,-7.2944,88.5396],[110.8073,-7.2959,90.9702],[110.807,-7.293,90.2234],[110.8111,-7.2928,87.5],[110.81,-7.2919,108.1292],[110.8119,-7.2897,87.5],[110.8102,-7.2883,103.4819],[110.8116,-7.2878,87.5],[110.8107,-7.2868,87.5],[110.8087,-7.2882,103.4819],[110.8066,-7.2852,87.5],[110.8064,-7.2872,87.5],[110.801,-7.2877,100.5386],[110.8043,-7.2863,87.5],[110.8035,-7.2854,88.7113],[110.8059,-7.2824,98.7635],[110.8079,-7.2832,87.5],[110.8088,-7.2814,87.5],[110.8109,-7.2833,87.5],[110.8092,-7.281,98.3097],[110.8117,-7.2801,87.5],[110.8112,-7.2788,87.5],[110.8141,-7.2755,87.5],[110.8045,-7.2774,89.8292],[110.8107,-7.2736,87.5],[110.8067,-7.2734,93.7763],[110.8081,-7.2722,93.3907],[110.8072,-7.2713,93.3907],[110.8177,-7.2697,87.5],[110.8102,-7.269,97.3813],[110.8102,-7.2677,87.5],[110.8075,-7.2671,87.5],[110.8064,-7.2685,96.2633],[110.8066,-7.2668,87.5],[110.8041,-7.2657,87.5],[110.8042,-7.2711,89.2385],[110.8023,-7.2722,94.0092],[110.8024,-7.2742,108.0571],[110.7996,-7.2718,87.5],[110.7979,-7.275,94.121],[110.7968,-7.2739,87.5],[110.7941,-7.2752,97.422],[110.7931,-7.281,137.3335],[110.7944,-7.284,123.0267],[110.7927,-7.2894,121.3007],[110.7948,-7.2925,106.1897],[110.7936,-7.2954,111.7515],[110.7951,-7.2988,128.1465]]]]}}