{"type":"Feature","properties":{"GID_3":"IDN.11.17.4_1","GID_0":"IDN","country":"Indonesia","GID_1":"IDN.11_1","province":"JawaTimur","NL_NAME_1":"NA","GID_2":"IDN.11.17_1","county":"KotaProbolinggo","NL_NAME_2":"NA","city":"Mayangan","VARNAME_3":"NA","NL_NAME_3":"NA","TYPE_3":"Kecamatan","ENGTYPE_3":"Sub-district","CC_3":"3574030","HASC_3":"NA","name":"Mayangan.city"},
"geometry":{"type": "MultiPolygon","coordinates": [[[[113.23,-7.7654,15.1997],[113.2344,-7.7665,12.312],[113.2364,-7.7639,11.2756],[113.2341,-7.759,10.4669],[113.2347,-7.7567,11.2451],[113.2321,-7.7552,9.1135],[113.2357,-7.7477,4.5725],[113.2372,-7.7403,5.4119],[113.2279,-7.7393,3.2929],[113.2242,-7.7378,3.7049],[113.2214,-7.7343,4.5912],[113.2222,-7.7323,2.8473],[113.2254,-7.7337,0.0],[113.229,-7.7251,0.0],[113.2256,-7.7327,0.0],[113.2236,-7.7319,2.8473],[113.2241,-7.7302,1.243],[113.2225,-7.7313,2.8473],[113.2251,-7.7251,0.0],[113.2266,-7.7247,0.0],[113.225,-7.725,0.0],[113.2218,-7.7327,3.1627],[113.2198,-7.7319,4.3198],[113.2203,-7.7273,1.2514],[113.2176,-7.7268,1.8832],[113.2177,-7.7247,1.5197],[113.2168,-7.7365,4.936],[113.2161,-7.7336,4.5581],[113.2173,-7.7275,1.8832],[113.2161,-7.7277,1.8832],[113.2151,-7.7363,5.4708],[113.2039,-7.7415,1.9615],[113.1979,-7.7415,2.8266],[113.1993,-7.7449,2.4413],[113.1991,-7.754,7.4141],[113.2133,-7.7534,11.9178],[113.2139,-7.7478,7.841],[113.2155,-7.7479,9.0889],[113.2158,-7.745,9.0387],[113.2183,-7.7453,9.5582],[113.217,-7.7539,14.9713],[113.219,-7.7546,15.1385],[113.2187,-7.7563,13.9219],[113.2265,-7.7581,13.5271],[113.225,-7.7651,15.2137],[113.227,-7.7642,13.8559],[113.2278,-7.7588,13.5271],[113.2295,-7.7596,13.5554],[113.23,-7.7654,15.1997]]],
[[[113.2176,-7.7222,0.6695],[113.2175,-7.7222,0.6695],[113.2173,-7.7275,1.8832],[113.2175,-7.7246,1.5197],[113.2176,-7.7222,0.6695]]],
[[[113.2177,-7.7247,1.5197],[113.2182,-7.7225,0.0],[113.2181,-7.7225,0.0],[113.2177,-7.7247,1.5197]]]]}}