{"type":"Feature","properties":{"GID_3":"IDN.10.4.7_1","GID_0":"IDN","country":"Indonesia","GID_1":"IDN.10_1","province":"JawaTengah","NL_NAME_1":"NA","GID_2":"IDN.10.4_1","county":"Blora","NL_NAME_2":"NA","city":"Jepon","VARNAME_3":"NA","NL_NAME_3":"NA","TYPE_3":"Kecamatan","ENGTYPE_3":"Sub-district","CC_3":"3316090","HASC_3":"NA","name":"Jepon.city"},
"geometry":{"type": "MultiPolygon","coordinates": [[[[111.4686,-7.0765,117.4597],[111.4684,-7.0739,103.7903],[111.4751,-7.0696,119.7747],[111.4742,-7.0655,131.9864],[111.4763,-7.0615,122.8311],[111.4757,-7.0591,142.5274],[111.4701,-7.0565,176.3865],[111.4676,-7.0581,204.9984],[111.4649,-7.0576,227.2176],[111.4616,-7.0547,237.8034],[111.456,-7.0528,192.7375],[111.4545,-7.0505,181.7542],[111.4608,-7.0427,140.6769],[111.4613,-7.0398,138.8814],[111.4825,-7.0347,171.0628],[111.4821,-7.0269,140.2849],[111.4851,-7.0251,139.6172],[111.4844,-7.0224,133.9265],[111.4916,-7.0175,131.6238],[111.4927,-7.0124,119.1822],[111.4893,-7.0009,109.5464],[111.4916,-6.9974,106.6811],[111.4898,-6.993,103.9862],[111.496,-6.9854,117.4312],[111.4995,-6.9858,122.1848],[111.5046,-6.9946,116.1301],[111.5087,-6.9928,120.1255],[111.5046,-6.9901,120.0081],[111.5044,-6.9818,121.9453],[111.503,-6.9808,119.6569],[111.504,-6.9782,118.2828],[111.5024,-6.9766,119.5123],[111.5028,-6.9714,139.1054],[111.5069,-6.9667,178.3589],[111.5025,-6.964,176.5409],[111.4956,-6.9638,155.8146],[111.4906,-6.9575,138.9184],[111.4855,-6.9561,147.8164],[111.4859,-6.9536,154.4473],[111.4834,-6.9522,147.8854],[111.4835,-6.9476,127.4049],[111.4814,-6.9456,118.6248],[111.4832,-6.9381,108.8928],[111.4806,-6.9349,106.4934],[111.4758,-6.9345,105.0154],[111.4744,-6.933,103.3096],[111.4782,-6.9241,108.5699],[111.4805,-6.9237,109.6094],[111.482,-6.9179,131.2616],[111.4882,-6.9132,181.2667],[111.4914,-6.9082,213.735],[111.4935,-6.9008,285.9491],[111.4973,-6.8973,386.0103],[111.4979,-6.8941,439.0118],[111.4961,-6.8935,441.9024],[111.4948,-6.8889,402.9377],[111.4881,-6.8812,362.5956],[111.4765,-6.8871,178.0833],[111.4785,-6.8886,175.9422],[111.4796,-6.8935,188.7683],[111.4762,-6.8969,217.4067],[111.4777,-6.9051,157.0781],[111.4752,-6.9092,133.2079],[111.4703,-6.9105,140.3578],[111.4701,-6.9121,131.6001],[111.4671,-6.913,119.3864],[111.4675,-6.915,121.3804],[111.4611,-6.9145,119.6491],[111.4577,-6.9199,103.5213],[111.4562,-6.9289,102.8226],[111.4581,-6.9306,105.3212],[111.4568,-6.9339,101.7827],[111.4583,-6.9371,97.9229],[111.4561,-6.9406,94.1904],[111.4521,-6.9428,94.0222],[111.4532,-6.9479,92.8355],[111.4504,-6.9525,90.49],[111.4531,-6.9537,95.0104],[111.4487,-6.9591,90.4695],[111.4457,-6.9589,91.338],[111.4441,-6.9628,87.7963],[111.4453,-6.965,92.0154],[111.4423,-6.9677,91.2405],[111.4487,-6.9679,88.9469],[111.4487,-6.9717,91.0293],[111.4459,-6.9721,89.6066],[111.4524,-6.9747,91.8606],[111.4508,-6.9788,89.9654],[111.4494,-6.9795,86.4026],[111.4478,-6.9781,88.8673],[111.4481,-6.9797,90.6749],[111.444,-6.9827,86.3458],[111.444,-6.9798,89.0702],[111.4418,-6.9766,89.4869],[111.4376,-6.9798,88.9207],[111.4373,-6.982,88.4988],[111.448,-6.9895,97.1931],[111.449,-6.9937,92.4011],[111.4581,-6.9995,98.7458],[111.456,-7.0094,100.8389],[111.462,-7.0206,136.4259],[111.4542,-7.0264,129.9913],[111.4502,-7.0248,118.4527],[111.4501,-7.0192,116.6399],[111.444,-7.0171,103.0271],[111.4401,-7.0129,100.7964],[111.4375,-7.0132,100.7306],[111.4338,-7.0073,102.3355],[111.4318,-7.0078,94.6479],[111.4287,-7.0056,95.8174],[111.425,-7.0067,92.6742],[111.4262,-7.0107,95.586],[111.4286,-7.0124,99.645],[111.4281,-7.0193,107.6074],[111.4311,-7.0234,113.289],[111.429,-7.0245,107.8275],[111.4311,-7.0273,112.9533],[111.4305,-7.0304,111.9921],[111.4328,-7.0318,121.4321],[111.4314,-7.0415,147.3781],[111.4297,-7.0408,132.0091],[111.4207,-7.0471,133.4715],[111.4131,-7.056,157.0496],[111.41,-7.0629,171.6379],[111.4043,-7.0665,178.7],[111.3993,-7.0735,225.8884],[111.4038,-7.0799,172.9293],[111.4031,-7.0825,170.8361],[111.4066,-7.0952,124.6616],[111.4286,-7.0914,125.6955],[111.4361,-7.0994,141.0069],[111.4389,-7.0994,130.5572],[111.4468,-7.1038,126.5361],[111.4539,-7.105,124.5028],[111.4582,-7.1123,134.163],[111.4655,-7.1145,111.37],[111.471,-7.1122,100.163],[111.4722,-7.1084,93.8034],[111.4844,-7.1037,72.739],[111.4829,-7.0984,75.5457],[111.4758,-7.0869,87.7549],[111.4761,-7.084,90.368],[111.4731,-7.0828,97.8208],[111.4686,-7.0765,117.4597]]]]}}