{"type":"Feature","properties":{"GID_2":"IDN.16.5_1","GID_0":"IDN","country":"Indonesia","GID_1":"IDN.16_1","province":"KepulauanRiau","NL_NAME_1":"NA","county":"Lingga","VARNAME_2":"NA","NL_NAME_2":"NA","TYPE_2":"Kabupaten","ENGTYPE_2":"Regency","CC_2":"2104","HASC_2":"ID.KR.LI","name":"Lingga.county"},
"geometry":{"type": "MultiPolygon","coordinates": [[[[105.2503,-1.2984,0.0],[105.2535,-1.2951,0.0],[105.2514,-1.2929,0.0],[105.246,-1.2962,0.0],[105.2503,-1.2984,0.0]]],
[[[105.2449,-1.281,0.0],[105.246,-1.2778,0.0],[105.245,-1.2747,0.0],[105.2417,-1.2789,0.0],[105.2449,-1.281,0.0]]],
[[[105.267,-1.2052,-0.4046],[105.2628,-1.2001,37.6333],[105.2605,-1.2005,7.5888],[105.2634,-1.2088,3.4167],[105.2633,-1.2146,0.0],[105.2648,-1.2137,0.7404],[105.2702,-1.2166,1.0809],[105.2732,-1.2125,5.1106],[105.271,-1.2117,15.9731],[105.267,-1.2052,-0.4046]]],
[[[105.3109,-1.1773,0.4836],[105.311,-1.1773,0.4836],[105.311,-1.1771,0.4836],[105.3109,-1.1773,0.4836]]],
[[[105.31,-1.1764,0.0],[105.31,-1.1769,0.0],[105.3106,-1.1767,0.4836],[105.3103,-1.1765,0.4836],[105.31,-1.1764,0.0]]],
[[[105.3089,-1.1752,0.5649],[105.3091,-1.175,0.5649],[105.309,-1.1743,0.0],[105.3085,-1.1748,0.5649],[105.3089,-1.1752,0.5649]]],
[[[105.2882,-1.1607,7.8206],[105.2887,-1.1606,7.8206],[105.2894,-1.1598,7.8206],[105.2885,-1.1599,7.8206],[105.2882,-1.1607,7.8206]]],
[[[105.6938,-0.931,0.0],[105.6906,-0.9364,0.0],[105.6916,-0.9418,0.0],[105.6938,-0.9418,0.0],[105.6959,-0.9353,0.0],[105.6938,-0.931,0.0]]],
[[[105.838,-0.8648,0.0],[105.8294,-0.8659,0.0],[105.8283,-0.8692,0.0],[105.8326,-0.8713,0.0],[105.838,-0.8703,0.0],[105.838,-0.8648,0.0]]],
[[[104.4069,-0.8568,14.7201],[104.4019,-0.8569,39.1035],[104.4012,-0.859,34.6327],[104.4039,-0.8613,0.0],[104.409,-0.8595,0.0],[104.41,-0.8557,4.4467],[104.4069,-0.8568,14.7201]]],
[[[104.4202,-0.8491,1.5074],[104.4191,-0.8493,0.476],[104.4168,-0.8508,0.0],[104.4185,-0.8511,4.2153],[104.4202,-0.8491,1.5074]]],
[[[104.9288,-0.7782,112.5471],[104.9254,-0.7803,59.1076],[104.9257,-0.7816,45.2457],[104.9333,-0.7844,3.7452],[104.9346,-0.7723,0.0],[104.9305,-0.7736,15.1655],[104.9288,-0.7782,112.5471]]],
[[[104.9428,-0.7641,6.1822],[104.9416,-0.7622,32.2395],[104.9399,-0.7627,32.2395],[104.9414,-0.7661,0.0],[104.9425,-0.7665,0.0],[104.9428,-0.7641,6.1822]]],
[[[105.3161,-1.1712,1.3101],[105.3165,-1.1719,1.2526],[105.3174,-1.1708,1.0085],[105.3165,-1.1699,1.0085],[105.3161,-1.1712,1.3101]]],
[[[105.3143,-1.171,1.3101],[105.3147,-1.1705,1.3101],[105.3134,-1.1698,1.2814],[105.3138,-1.1708,1.2814],[105.3143,-1.171,1.3101]]],
[[[105.2892,-1.1491,1.1795],[105.2859,-1.1499,18.2867],[105.2805,-1.144,3.5985],[105.2754,-1.1463,0.0],[105.276,-1.1478,0.0],[105.2793,-1.1478,94.2439],[105.2836,-1.1502,19.9438],[105.285,-1.1533,0.0],[105.2878,-1.1546,3.1206],[105.2896,-1.159,11.0234],[105.2939,-1.1614,20.536],[105.2942,-1.1633,2.1276],[105.2998,-1.1655,0.8968],[105.2999,-1.1692,21.0113],[105.3029,-1.1715,0.1729],[105.3038,-1.1707,9.4859],[105.3066,-1.1728,5.9581],[105.3078,-1.1708,4.9969],[105.3117,-1.1698,3.0675],[105.31,-1.1659,34.7639],[105.308,-1.1661,13.6102],[105.3085,-1.1647,34.7639],[105.3066,-1.1639,12.9869],[105.3067,-1.1612,10.5564],[105.2998,-1.1596,62.085],[105.2892,-1.1491,1.1795]]],
[[[104.5027,-0.7036,17.1237],[104.4992,-0.7039,0.0],[104.5026,-0.7066,0.0],[104.5054,-0.704,15.0333],[104.5027,-0.7036,17.1237]]],
[[[104.4822,-0.6997,1.1533],[104.4823,-0.6977,0.0],[104.4777,-0.6966,0.0],[104.4771,-0.7097,0.0],[104.4809,-0.7101,0.0],[104.4831,-0.7086,0.0],[104.4817,-0.7049,1.4903],[104.4822,-0.6997,1.1533]]],
[[[104.4773,-0.6938,3.9319],[104.4729,-0.6914,5.9447],[104.4712,-0.6975,4.5111],[104.4769,-0.6949,0.9234],[104.4773,-0.6938,3.9319]]],
[[[104.0275,-0.5384,0.0],[104.0297,-0.5413,0.0],[104.0311,-0.5412,0.0],[104.0299,-0.5331,2.1704],[104.0289,-0.5338,2.1704],[104.0275,-0.5384,0.0]]],
[[[104.0396,-0.5146,15.2846],[104.0392,-0.5124,0.0],[104.0354,-0.5124,1.9085],[104.0362,-0.517,0.0],[104.0385,-0.5198,0.0],[104.0404,-0.5182,38.8233],[104.0396,-0.5146,15.2846]]],
[[[104.0411,-0.5037,0.9987],[104.0405,-0.5045,0.0],[104.0415,-0.5056,2.3623],[104.0421,-0.5047,2.3623],[104.0411,-0.5037,0.9987]]],
[[[104.0379,-0.4996,0.0],[104.04,-0.5026,10.3855],[104.0408,-0.5004,0.0],[104.0381,-0.4979,0.0],[104.0379,-0.4996,0.0]]],
[[[104.1994,-0.3935,12.0674],[104.1957,-0.3928,3.7471],[104.1954,-0.391,0.0],[104.1894,-0.3941,10.3076],[104.1912,-0.3969,4.2012],[104.189,-0.4003,2.2018],[104.1928,-0.4008,5.4655],[104.1917,-0.406,12.0863],[104.1969,-0.407,0.0],[104.1984,-0.4095,4.9236],[104.1967,-0.4134,0.0],[104.1983,-0.4158,3.452],[104.1955,-0.4216,4.4457],[104.1963,-0.4239,0.0],[104.2022,-0.4263,0.2453],[104.206,-0.4245,4.5301],[104.2105,-0.4247,1.5737],[104.2098,-0.4284,0.9882],[104.212,-0.4291,2.5529],[104.2215,-0.4258,4.3855],[104.2232,-0.4297,0.0],[104.2245,-0.4205,0.0],[104.2228,-0.4163,11.2785],[104.2264,-0.4115,0.0],[104.2247,-0.4065,0.0],[104.2291,-0.4055,7.4197],[104.2296,-0.4027,23.3366],[104.2323,-0.4012,0.0],[104.2312,-0.3978,0.0],[104.2289,-0.3973,4.063],[104.2293,-0.3935,2.9079],[104.223,-0.3939,0.0],[104.22,-0.3972,2.5203],[104.2202,-0.3997,7.0677],[104.2181,-0.3979,0.0],[104.2129,-0.3983,0.0],[104.2088,-0.4013,1.838],[104.2082,-0.3998,0.3207],[104.2142,-0.3955,6.2409],[104.2137,-0.393,2.4318],[104.211,-0.395,4.9725],[104.2103,-0.3932,2.3959],[104.2062,-0.3947,2.88],[104.2019,-0.3917,6.2836],[104.1994,-0.3935,12.0674]]],
[[[104.1819,-0.3976,7.2049],[104.1836,-0.397,0.0],[104.1823,-0.3917,0.7758],[104.1784,-0.3957,1.8166],[104.1792,-0.3978,2.7139],[104.1819,-0.3976,7.2049]]],
[[[104.2365,-0.6557,0.0],[104.2353,-0.6535,4.4098],[104.2328,-0.6589,2.2145],[104.2418,-0.6625,0.0],[104.244,-0.6615,0.0],[104.246,-0.6636,0.0],[104.2421,-0.6565,1.5538],[104.2381,-0.6571,0.8667],[104.2365,-0.6557,0.0]]],
[[[104.2518,-0.6117,0.0],[104.2515,-0.6135,0.0],[104.2537,-0.6084,0.0],[104.2514,-0.6109,2.0852],[104.2518,-0.6117,0.0]]],
[[[104.4672,-0.6856,2.8316],[104.465,-0.6822,0.9344],[104.4618,-0.6832,2.7742],[104.4632,-0.6846,6.5934],[104.4608,-0.6869,8.8457],[104.4636,-0.687,7.1396],[104.4653,-0.6892,7.3091],[104.4653,-0.6969,0.0],[104.4713,-0.6913,0.8258],[104.4712,-0.6886,0.0],[104.4672,-0.6856,2.8316]]],
[[[104.485,-0.6822,1.0496],[104.4861,-0.6832,0.0],[104.4864,-0.6831,0.0],[104.4858,-0.6817,1.0496],[104.485,-0.6822,1.0496]]],
[[[104.4863,-0.6816,1.0496],[104.4862,-0.6821,1.0496],[104.487,-0.6825,1.0496],[104.4871,-0.6818,0.0],[104.4863,-0.6816,1.0496]]],
[[[104.1238,-0.3068,0.3471],[104.1244,-0.3004,6.7569],[104.123,-0.2997,6.7569],[104.1225,-0.3019,0.0],[104.1177,-0.3057,0.0],[104.1164,-0.3096,0.0],[104.1197,-0.3124,0.0],[104.1238,-0.3068,0.3471]]],
[[[104.1916,-0.3907,2.9107],[104.193,-0.3898,0.0],[104.1932,-0.3889,0.0],[104.1905,-0.3891,0.9428],[104.1916,-0.3907,2.9107]]],
[[[104.1589,-0.3697,0.0],[104.158,-0.3698,0.0],[104.1577,-0.3705,0.0],[104.1591,-0.3704,0.0],[104.1589,-0.3697,0.0]]],
[[[104.2666,-0.3828,0.0],[104.266,-0.3848,0.0],[104.2692,-0.3859,0.0],[104.2681,-0.383,9.4704],[104.2666,-0.3828,0.0]]],
[[[104.1691,-0.3703,0.9333],[104.1674,-0.3707,3.4508],[104.1661,-0.3687,0.0],[104.1623,-0.3691,0.0],[104.1614,-0.3757,0.0],[104.1666,-0.3847,2.0552],[104.1754,-0.3899,0.0],[104.1779,-0.3859,3.1921],[104.177,-0.3846,3.1921],[104.1791,-0.3835,1.7404],[104.1751,-0.3814,4.1876],[104.1781,-0.3799,12.653],[104.1742,-0.3767,3.194],[104.1727,-0.3785,17.1681],[104.1716,-0.375,1.1791],[104.1669,-0.3778,9.0406],[104.1699,-0.3733,1.8139],[104.1659,-0.3748,7.7251],[104.1669,-0.3731,1.0533],[104.1658,-0.3722,6.2565],[104.1684,-0.3723,1.4434],[104.1691,-0.3703,0.9333]]],
[[[104.2656,-0.3772,1.116],[104.2629,-0.3749,0.0],[104.2603,-0.3757,0.0],[104.2632,-0.3755,0.0],[104.2641,-0.3782,0.0],[104.2656,-0.3772,1.116]]],
[[[104.1803,-0.3882,0.0],[104.1829,-0.3907,0.0],[104.1823,-0.387,1.3775],[104.1805,-0.3856,0.0],[104.1803,-0.3882,0.0]]],
[[[104.2734,-0.371,0.0],[104.2703,-0.3674,0.0],[104.2691,-0.3683,3.3246],[104.2704,-0.372,2.7551],[104.2734,-0.371,0.0]]],
[[[104.4242,-0.3583,1.6528],[104.4239,-0.3569,0.67],[104.4221,-0.3574,0.604],[104.4236,-0.3579,0.67],[104.4242,-0.3583,1.6528]]],
[[[104.4194,-0.3573,0.0],[104.4189,-0.3569,0.0],[104.4189,-0.3573,0.0],[104.4194,-0.3573,0.0]]],
[[[104.2701,-0.365,0.0],[104.2718,-0.3642,1.8827],[104.272,-0.3635,1.8827],[104.27,-0.3635,1.7232],[104.2701,-0.365,0.0]]],
[[[104.1938,-0.3623,1.1869],[104.1929,-0.3613,1.1869],[104.1895,-0.3631,5.2568],[104.1856,-0.3607,0.4599],[104.1832,-0.3647,4.2836],[104.1812,-0.3642,0.0],[104.1813,-0.3703,5.3629],[104.178,-0.3706,4.5456],[104.1741,-0.366,0.0],[104.1718,-0.3713,0.0],[104.1729,-0.3734,2.1727],[104.1806,-0.3759,22.8316],[104.1777,-0.3769,0.0],[104.1805,-0.3824,5.3853],[104.1847,-0.3837,25.1613],[104.1835,-0.3861,5.5138],[104.1854,-0.3885,1.7607],[104.1885,-0.3883,3.3999],[104.1866,-0.3872,9.8919],[104.1876,-0.3835,3.1043],[104.1905,-0.3874,14.4841],[104.1919,-0.3873,2.8816],[104.1924,-0.3838,4.6569],[104.1977,-0.3883,0.0],[104.1976,-0.3862,2.7255],[104.2033,-0.3829,4.466],[104.2095,-0.3855,7.8864],[104.211,-0.3889,2.2545],[104.2154,-0.3848,2.8567],[104.2159,-0.3886,5.5122],[104.2173,-0.389,5.5122],[104.2197,-0.3868,11.3413],[104.2214,-0.3908,0.0],[104.2289,-0.3863,1.049],[104.2322,-0.388,0.0],[104.2338,-0.3868,1.0444],[104.2335,-0.378,0.8011],[104.2294,-0.3742,5.5968],[104.2347,-0.3685,0.0],[104.2296,-0.3644,0.0],[104.222,-0.3683,1.3448],[104.2099,-0.3685,1.2063],[104.2033,-0.3738,1.797],[104.2038,-0.3687,0.5002],[104.2007,-0.3687,2.0908],[104.1943,-0.3652,1.752],[104.1938,-0.3623,1.1869]]],
[[[104.1737,-0.3632,0.0],[104.169,-0.3591,0.0],[104.1641,-0.362,16.3318],[104.1686,-0.3637,27.1708],[104.1693,-0.3668,1.1114],[104.1737,-0.3632,0.0]]],
[[[104.5205,-0.3515,0.0],[104.5182,-0.3505,0.0],[104.5197,-0.3542,3.6872],[104.5212,-0.3531,0.0],[104.5205,-0.3515,0.0]]],
[[[104.4261,-0.3588,8.6096],[104.4335,-0.3569,4.8546],[104.4332,-0.3524,0.0],[104.4276,-0.3497,1.1428],[104.4261,-0.3588,8.6096]]],
[[[104.2056,-0.3549,0.0],[104.2086,-0.3576,0.5723],[104.2101,-0.3554,0.0],[104.2056,-0.3494,0.0],[104.2034,-0.3532,0.729],[104.2056,-0.3549,0.0]]],
[[[104.1735,-0.3442,0.0],[104.1558,-0.3382,0.0],[104.1534,-0.343,1.7792],[104.1509,-0.343,0.0],[104.1485,-0.3467,1.6655],[104.1427,-0.3488,0.0],[104.1442,-0.3594,0.0],[104.1464,-0.3617,1.1846],[104.1577,-0.3647,0.0],[104.1616,-0.3607,11.629],[104.1651,-0.3595,2.9589],[104.1631,-0.3588,6.0976],[104.1634,-0.3547,2.7783],[104.157,-0.3535,2.1863],[104.16,-0.3526,0.0],[104.1595,-0.3495,2.9685],[104.1615,-0.3522,0.0],[104.1661,-0.3521,17.0135],[104.1697,-0.3569,0.0],[104.172,-0.3571,2.4341],[104.1772,-0.3518,0.0],[104.1749,-0.35,0.0],[104.1735,-0.3442,0.0]]],
[[[104.2697,-0.3468,0.0],[104.2699,-0.341,0.0],[104.2613,-0.3469,13.7228],[104.2583,-0.362,0.0],[104.266,-0.3638,2.2053],[104.2715,-0.3591,0.0],[104.2704,-0.3539,9.3729],[104.2728,-0.3516,2.3206],[104.2697,-0.3468,0.0]]],
[[[104.2565,-0.3468,0.0],[104.2557,-0.3473,0.0],[104.2568,-0.3485,0.0],[104.2578,-0.3468,0.0],[104.2565,-0.3468,0.0]]],
[[[104.2711,-0.3376,1.72],[104.2719,-0.3413,0.0],[104.2732,-0.339,0.0],[104.2719,-0.3368,1.72],[104.2711,-0.3376,1.72]]],
[[[104.2374,-0.3337,0.1915],[104.2339,-0.3322,0.3972],[104.2337,-0.3291,0.0],[104.2312,-0.327,0.9972],[104.23,-0.3301,1.1279],[104.2244,-0.3346,4.8345],[104.2248,-0.3387,2.4002],[104.2214,-0.3425,0.0],[104.2215,-0.3444,0.0],[104.2319,-0.3507,16.3841],[104.2332,-0.3557,1.2435],[104.2382,-0.3462,0.0],[104.239,-0.3354,0.615],[104.2374,-0.3337,0.1915]]],
[[[104.3866,-0.2957,0.0],[104.3859,-0.2957,0.0],[104.3854,-0.2965,0.0],[104.3866,-0.2963,0.0],[104.3866,-0.2957,0.0]]],
[[[104.3842,-0.2953,0.0],[104.3836,-0.2959,1.153],[104.3836,-0.2964,0.0],[104.385,-0.296,0.0],[104.3842,-0.2953,0.0]]],
[[[104.3877,-0.2952,0.0],[104.3872,-0.2953,0.0],[104.3873,-0.2958,0.0],[104.388,-0.2959,0.0],[104.3877,-0.2952,0.0]]],
[[[104.3774,-0.2771,0.0],[104.3803,-0.2767,0.0],[104.3806,-0.2752,3.4162],[104.3774,-0.2762,0.0],[104.3774,-0.2771,0.0]]],
[[[104.385,-0.287,4.5897],[104.3881,-0.287,3.2954],[104.388,-0.2859,4.468],[104.3832,-0.2826,0.0],[104.384,-0.2772,4.7644],[104.3824,-0.2765,4.7644],[104.3807,-0.2857,0.7379],[104.385,-0.287,4.5897]]],
[[[104.4048,-0.2766,0.0],[104.4038,-0.2769,1.7829],[104.4037,-0.2778,1.7829],[104.4049,-0.2773,0.0],[104.4048,-0.2766,0.0]]],
[[[104.4543,-0.1503,0.0],[104.4493,-0.1528,0.0],[104.4495,-0.1595,2.4037],[104.4555,-0.1567,0.6216],[104.4556,-0.1505,0.0],[104.4543,-0.1503,0.0]]],
[[[104.4343,-0.1748,6.2123],[104.4334,-0.1754,0.0],[104.4334,-0.176,0.0],[104.4351,-0.1756,6.2123],[104.4343,-0.1748,6.2123]]],
[[[104.9119,-0.1691,0.0],[104.9159,-0.1698,0.0],[104.9162,-0.1682,0.0],[104.913,-0.165,0.0],[104.9119,-0.1691,0.0]]],
[[[104.9264,-0.1359,2.5924],[104.9266,-0.1365,0.0],[104.9278,-0.1358,0.0],[104.9267,-0.1352,2.5924],[104.9264,-0.1359,2.5924]]],
[[[104.9196,-0.1268,0.0],[104.9151,-0.1251,12.8634],[104.9167,-0.1357,2.7926],[104.912,-0.1351,4.2248],[104.9104,-0.1366,0.0],[104.9135,-0.1398,0.0],[104.9233,-0.1388,0.0],[104.92529999999999,-0.1331,9.1928],[104.9221,-0.13,7.1221],[104.9203,-0.1308,8.5009],[104.9196,-0.1268,0.0]]],
[[[104.7424,-0.1496,1.2017],[104.7481,-0.156,0.0],[104.7507,-0.1574,1.2098],[104.7516,-0.1563,1.2098],[104.7504,-0.1527,3.1677],[104.7411,-0.1453,0.0],[104.7424,-0.1496,1.2017]]],
[[[104.8211,-0.1277,1.9162],[104.8214,-0.1307,0.6902],[104.8219,-0.131,0.6902],[104.8241,-0.1276,0.7059],[104.8211,-0.1277,1.9162]]],
[[[104.7425,-0.1348,1.5131],[104.7439,-0.1388,0.0],[104.7539,-0.1444,1.3942],[104.7555,-0.1509,0.0],[104.757,-0.1517,0.0],[104.7627,-0.149,17.0306],[104.7633,-0.1473,15.0618],[104.7609,-0.1421,0.0],[104.7552,-0.1379,8.9575],[104.7547,-0.1326,0.0],[104.7505,-0.129,0.0],[104.7498,-0.1269,21.9845],[104.7513,-0.125,6.2433],[104.7299,-0.0957,0.0],[104.7288,-0.0965,0.0],[104.7293,-0.1038,0.0],[104.7425,-0.1348,1.5131]]],
[[[104.9051,-0.1171,0.0],[104.9072,-0.1178,0.0],[104.9083,-0.1153,0.0],[104.9055,-0.1153,0.0],[104.9051,-0.1171,0.0]]],
[[[104.8851,-0.0891,0.8291],[104.8845,-0.0883,0.8291],[104.8833,-0.0891,0.0],[104.884,-0.0897,0.0],[104.8851,-0.0891,0.8291]]],
[[[104.801,-0.0961,2.3817],[104.8006,-0.0924,1.8149],[104.7979,-0.0908,1.6754],[104.7984,-0.0957,0.8582],[104.801,-0.0961,2.3817]]],
[[[104.8357,-0.0842,0.0],[104.8366,-0.0858,0.0],[104.8387,-0.0828,1.4542],[104.8359,-0.0829,0.0],[104.8357,-0.0842,0.0]]],
[[[104.8533,-0.0793,4.0221],[104.8517,-0.0768,5.5523],[104.8484,-0.0781,0.2516],[104.8508,-0.0804,0.135],[104.8533,-0.0793,4.0221]]],
[[[104.7108,-0.0659,41.0733],[104.709,-0.0589,0.0],[104.7043,-0.0585,22.3702],[104.7017,-0.0539,0.0],[104.693,-0.0494,0.0],[104.6858,-0.0407,0.0],[104.6862,-0.044,0.0],[104.6944,-0.0554,1.5275],[104.6955,-0.0609,0.0],[104.7012,-0.0684,8.6584],[104.7105,-0.0725,24.5806],[104.7141,-0.0758,4.3523],[104.7138,-0.0782,0.0],[104.718,-0.0794,28.8858],[104.7266,-0.0874,10.1541],[104.7281,-0.0862,0.0],[104.7201,-0.0763,28.2315],[104.7199,-0.0741,0.0],[104.7108,-0.0659,41.0733]]],
[[[104.8303,-0.0567,5.5813],[104.834,-0.0604,0.0],[104.8365,-0.0673,0.0],[104.8436,-0.0715,0.0],[104.8458,-0.062,0.937],[104.8445,-0.0589,3.6314],[104.8394,-0.0578,3.9465],[104.8354,-0.0534,28.3761],[104.8318,-0.0525,17.9751],[104.8303,-0.0567,5.5813]]],
[[[104.8267,-0.0445,0.0],[104.8279,-0.0449,0.0],[104.8283,-0.0438,0.0],[104.8273,-0.0434,0.0],[104.8267,-0.0445,0.0]]],
[[[104.6848,-0.0399,0.0],[104.682,-0.0367,12.2585],[104.6803,-0.0372,0.0],[104.6835,-0.0405,3.9043],[104.6848,-0.0399,0.0]]],
[[[104.8482,-0.0428,0.0],[104.8448,-0.0403,25.279],[104.8423,-0.0349,0.0],[104.8393,-0.0406,1.8111],[104.8333,-0.0391,6.1145],[104.8377,-0.0531,1.4631],[104.8431,-0.0554,0.963],[104.845,-0.0589,3.6314],[104.8464,-0.0632,0.0],[104.859,-0.0663,2.5164],[104.8606,-0.0688,1.2384],[104.867,-0.0715,0.5041],[104.8684,-0.075,0.0],[104.8741,-0.0768,3.1827],[104.8772,-0.0801,2.676],[104.8761,-0.0747,0.0],[104.871,-0.0652,35.4447],[104.8628,-0.0586,5.7156],[104.8609,-0.0602,1.2236],[104.8585,-0.0596,2.1093],[104.8584,-0.0554,0.0],[104.8545,-0.0512,19.1675],[104.8548,-0.0494,17.4432],[104.8506,-0.0476,12.6918],[104.8482,-0.0428,0.0]]],
[[[104.8373,-0.0341,12.9706],[104.8343,-0.0306,0.0],[104.8362,-0.038,11.3069],[104.8395,-0.0354,0.0],[104.8386,-0.0342,12.9706],[104.8381,-0.0358,1.7907],[104.8373,-0.0341,12.9706]]],
[[[104.8176,-0.0249,0.0],[104.8184,-0.0243,0.8399],[104.8177,-0.0234,0.0],[104.8171,-0.0238,0.0],[104.8176,-0.0249,0.0]]],
[[[104.6525,-0.0087,0.0],[104.6538,-0.0104,0.5471],[104.6578,-0.0081,1.97],[104.6536,-0.007,0.0],[104.6519,-0.0075,0.0],[104.6525,-0.0087,0.0]]],
[[[104.537,-0.0052,1.4676],[104.5351,-0.0041,1.7298],[104.5346,-0.0054,2.8406],[104.5361,-0.0066,0.0],[104.537,-0.0052,1.4676]]],
[[[104.4899,-0.0048,3.4962],[104.4874,-0.003,6.5416],[104.4872,-0.0034,6.5416],[104.4894,-0.0057,3.4962],[104.4899,-0.0048,3.4962]]],
[[[104.5273,-0.0085,1.7188],[104.5257,-0.0087,0.0],[104.528,-0.0102,0.0],[104.528,-0.0098,0.0],[104.5273,-0.0085,1.7188]]],
[[[104.5286,-0.0034,7.6315],[104.5282,-0.0052,0.0],[104.5304,-0.0081,0.0],[104.5339,-0.0085,0.0],[104.5331,-0.0033,0.0],[104.5313,-0.0022,3.9414],[104.5286,-0.0034,7.6315]]],
[[[104.65,-0.0232,0.0],[104.6522,-0.0229,0.0],[104.6519,-0.0207,0.0],[104.6508,-0.021,0.0],[104.65,-0.0232,0.0]]],
[[[104.6593,-0.0134,0.0],[104.6612,-0.0191,1.7667],[104.6669,-0.0257,3.1993],[104.6738,-0.0289,2.6526],[104.6618,-0.013,0.0],[104.6593,-0.0134,0.0]]],
[[[104.814,-0.0198,0.0],[104.8143,-0.0206,0.0],[104.8149,-0.0207,0.0],[104.8148,-0.0198,0.0],[104.814,-0.0198,0.0]]],
[[[104.8299,-0.0159,0.0],[104.8309,-0.0147,0.0],[104.8297,-0.0136,5.1861],[104.8258,-0.0155,1.5651],[104.8263,-0.0207,0.0],[104.8301,-0.0213,0.0],[104.8299,-0.0159,0.0]]],
[[[104.8324,-0.013,0.0],[104.8322,-0.0125,2.7655],[104.8309,-0.0123,2.7655],[104.8312,-0.0135,0.0],[104.8324,-0.013,0.0]]],
[[[104.9991,-0.2916,0.0],[105.0007,-0.295,0.0],[105.0026,-0.2954,0.0],[105.0033,-0.2922,0.0],[105.0012,-0.289,0.0],[104.9991,-0.2916,0.0]]],
[[[104.6504,-0.2816,0.0],[104.6481,-0.2828,0.0],[104.648,-0.2836,0.0],[104.6499,-0.2832,0.0],[104.6504,-0.2816,0.0]]],
[[[104.6546,-0.2735,0.0],[104.656,-0.2744,0.0],[104.656,-0.2723,0.0],[104.6547,-0.2724,0.0],[104.6546,-0.2735,0.0]]],
[[[104.4656,-0.2688,0.0],[104.4655,-0.2692,0.0],[104.4664,-0.2693,0.0],[104.4664,-0.2688,0.0],[104.4656,-0.2688,0.0]]],
[[[104.5905,-0.2585,11.3878],[104.5877,-0.2581,7.944],[104.5867,-0.2615,0.0],[104.5923,-0.2598,0.0],[104.5905,-0.2585,11.3878]]],
[[[104.5577,-0.2553,0.0],[104.5581,-0.2547,0.0],[104.5567,-0.2555,0.0],[104.557,-0.2557,0.0],[104.5577,-0.2553,0.0]]],
[[[104.5865,-0.2531,0.0],[104.5852,-0.2526,0.0],[104.5845,-0.2534,0.0],[104.5858,-0.2543,0.0],[104.5865,-0.2531,0.0]]],
[[[104.5718,-0.2485,0.0],[104.5699,-0.2489,0.0],[104.5698,-0.2495,0.0],[104.5711,-0.2502,0.0],[104.5718,-0.2485,0.0]]],
[[[104.5565,-0.2528,0.0],[104.5562,-0.253,0.0],[104.5562,-0.2538,0.0],[104.557,-0.2533,0.0],[104.5565,-0.2528,0.0]]],
[[[104.4483,-0.2463,0.0],[104.4487,-0.2473,0.0],[104.4493,-0.247,0.0],[104.4493,-0.2462,15.5348],[104.4483,-0.2463,0.0]]],
[[[104.4643,-0.2467,0.0],[104.4644,-0.247,0.0],[104.465,-0.2469,0.0],[104.4647,-0.2464,0.0],[104.4643,-0.2467,0.0]]],
[[[104.5812,-0.2429,5.382],[104.581,-0.244,0.0],[104.583,-0.2448,0.0],[104.5822,-0.2435,0.9123],[104.5812,-0.2429,5.382]]],
[[[104.4358,-0.2404,8.6438],[104.4371,-0.2409,8.6438],[104.4388,-0.2407,0.0],[104.4372,-0.2395,0.0],[104.4358,-0.2404,8.6438]]],
[[[104.7935,-0.1942,2.1916],[104.7938,-0.1915,0.0],[104.7932,-0.1912,0.0],[104.7914,-0.1936,0.0],[104.7935,-0.1942,2.1916]]],
[[[104.7798,-0.1881,0.0],[104.7807,-0.1858,3.3929],[104.7785,-0.1858,0.0],[104.7773,-0.1878,1.1286],[104.7798,-0.1881,0.0]]],
[[[104.7934,-0.1802,0.0],[104.7955,-0.1805,3.6316],[104.7958,-0.1796,0.0],[104.7949,-0.1787,2.5513],[104.7934,-0.1802,0.0]]],
[[[104.9017,-0.181,1.3037],[104.9034,-0.1812,0.0],[104.9035,-0.1796,0.0],[104.9009,-0.1779,0.0],[104.8999,-0.1794,3.5547],[104.9017,-0.181,1.3037]]],
[[[104.6377,-0.2697,0.0],[104.6337,-0.2672,5.5804],[104.6317,-0.2681,0.0],[104.6345,-0.2738,0.0],[104.6376,-0.2719,0.0],[104.6377,-0.2697,0.0]]],
[[[104.541,-0.2674,0.0],[104.5411,-0.2683,0.0],[104.5419,-0.2676,0.0],[104.5416,-0.2673,0.0],[104.541,-0.2674,0.0]]],
[[[104.4627,-0.2676,0.0],[104.463,-0.2651,0.0],[104.4594,-0.2666,2.8998],[104.4571,-0.265,0.0],[104.4574,-0.2669,2.0268],[104.4616,-0.2696,0.0],[104.4627,-0.2676,0.0]]],
[[[104.4936,-0.2686,0.0],[104.4942,-0.2676,2.9799],[104.4932,-0.2671,0.0],[104.493,-0.2681,0.0],[104.4936,-0.2686,0.0]]],
[[[104.5009,-0.2685,0.0],[104.5007,-0.2673,2.254],[104.4996,-0.2671,2.254],[104.5002,-0.2684,0.0],[104.5009,-0.2685,0.0]]],
[[[104.4547,-0.2669,0.0],[104.4541,-0.2661,0.0],[104.4524,-0.2664,7.8836],[104.453,-0.2671,7.8836],[104.4547,-0.2669,0.0]]],
[[[104.4678,-0.2674,0.0],[104.4682,-0.2678,0.0],[104.4694,-0.2667,0.0],[104.4689,-0.2664,0.0],[104.4678,-0.2674,0.0]]],
[[[104.4971,-0.2679,2.4508],[104.4984,-0.267,0.0],[104.498,-0.266,0.0],[104.4972,-0.2668,2.4508],[104.4971,-0.2679,2.4508]]],
[[[104.9901,-0.3332,0.0],[104.9908,-0.333,0.0],[104.9892,-0.3313,0.0],[104.9886,-0.3337,0.0],[104.9901,-0.3332,0.0]]],
[[[104.9996,-0.3184,0.0],[104.9929,-0.3128,6.5772],[104.9852,-0.3171,4.1065],[104.9844,-0.3214,0.0],[104.9879,-0.3218,0.0],[104.9891,-0.3182,0.0],[104.9911,-0.3175,2.7349],[104.9996,-0.3184,0.0]]],
[[[104.4868,-0.3187,0.0],[104.4884,-0.3209,17.5291],[104.4913,-0.3205,0.0],[104.4895,-0.3177,0.0],[104.4868,-0.3187,0.0]]],
[[[104.9705,-0.3068,0.0],[104.9685,-0.3076,0.0],[104.9684,-0.3085,0.0],[104.9709,-0.3093,0.0],[104.9705,-0.3068,0.0]]],
[[[104.8275,-0.3085,0.0],[104.8279,-0.3088,0.0],[104.8274,-0.3081,0.0],[104.8273,-0.3084,0.0],[104.8275,-0.3085,0.0]]],
[[[104.8646,-0.317,0.0],[104.8646,-0.3165,0.0],[104.8639,-0.317,0.0],[104.8642,-0.3171,0.0],[104.8646,-0.317,0.0]]],
[[[104.4914,-0.3248,0.0],[104.4917,-0.3242,0.0],[104.4908,-0.323,0.0],[104.4909,-0.3261,0.0],[104.4914,-0.3248,0.0]]],
[[[104.4911,-0.33,0.0],[104.4918,-0.3296,0.0],[104.4917,-0.3285,0.0],[104.4908,-0.3298,0.0],[104.4911,-0.33,0.0]]],
[[[104.4636,-0.3256,13.4264],[104.4655,-0.3284,2.5147],[104.4676,-0.3285,5.5974],[104.4701,-0.3252,19.0717],[104.4677,-0.3218,11.5672],[104.4642,-0.3205,0.0],[104.4636,-0.3256,13.4264]]],
[[[104.4881,-0.3248,0.0],[104.4875,-0.324,0.0],[104.4872,-0.3241,0.0],[104.4871,-0.3249,0.0],[104.4881,-0.3248,0.0]]],
[[[104.4888,-0.3527,0.0],[104.4861,-0.3508,1.0546],[104.4844,-0.346,0.0],[104.481,-0.3439,0.0],[104.4816,-0.3418,0.8898],[104.4853,-0.3399,0.0],[104.4826,-0.3354,0.0],[104.4781,-0.3349,0.0],[104.469,-0.3399,2.5668],[104.4671,-0.3386,0.0],[104.4671,-0.3402,1.5315],[104.4618,-0.3401,0.0],[104.461,-0.3441,1.6042],[104.4563,-0.3416,0.0],[104.451,-0.3431,0.0],[104.4487,-0.3375,0.0],[104.4409,-0.3395,0.0],[104.4369,-0.3441,4.6223],[104.4371,-0.3503,6.1482],[104.4347,-0.3525,0.0],[104.4347,-0.3562,0.0],[104.432,-0.3584,3.8125],[104.4277,-0.3592,3.499],[104.4251,-0.3637,0.0],[104.4258,-0.3656,5.3043],[104.4312,-0.3678,5.003],[104.432,-0.381,3.8327],[104.4302,-0.3835,5.0534],[104.4267,-0.3879,8.7495],[104.4228,-0.3876,0.0],[104.4224,-0.3916,2.321],[104.4202,-0.3918,1.9686],[104.4145,-0.4004,1.5674],[104.3955,-0.4092,0.0],[104.389,-0.4083,0.0],[104.389,-0.4111,0.0],[104.3863,-0.4128,0.0],[104.384,-0.4123,0.0],[104.3822,-0.4089,0.0],[104.3799,-0.4087,4.2925],[104.3787,-0.4046,0.6645],[104.3752,-0.4035,0.0],[104.3727,-0.4039,0.0],[104.3722,-0.4063,5.1432],[104.3652,-0.4077,0.0],[104.3583,-0.4055,1.6673],[104.3543,-0.4012,7.7814],[104.3542,-0.3987,3.081],[104.3501,-0.3959,2.6064],[104.3506,-0.3916,1.5507],[104.3472,-0.3874,0.0],[104.3466,-0.3923,0.0],[104.3424,-0.3922,0.0],[104.3408,-0.3948,0.0],[104.3438,-0.407,1.1264],[104.3471,-0.4103,0.6024],[104.3399,-0.412,0.7252],[104.3378,-0.4155,0.0],[104.3438,-0.4299,0.6752],[104.3513,-0.4303,1.9975],[104.3462,-0.4349,0.0],[104.3439,-0.4395,0.0],[104.3461,-0.4463,2.8715],[104.3391,-0.4395,0.4299],[104.3335,-0.441,0.2595],[104.3296,-0.4399,0.0],[104.3288,-0.4339,0.0],[104.3236,-0.4311,0.8007],[104.3226,-0.4233,0.0],[104.3195,-0.419,0.9485],[104.3104,-0.4174,1.7806],[104.3126,-0.4154,0.7667],[104.3121,-0.4115,3.2463],[104.3151,-0.4126,0.7872],[104.3167,-0.4068,0.636],[104.3232,-0.3963,2.25],[104.3338,-0.3922,2.4977],[104.3375,-0.3885,3.2881],[104.3345,-0.3804,23.197],[104.3369,-0.3787,0.0],[104.3347,-0.3755,19.2738],[104.3352,-0.3719,1.0908],[104.3304,-0.3628,0.0],[104.3272,-0.3613,4.5971],[104.3275,-0.3574,10.0151],[104.3306,-0.3554,4.1562],[104.3265,-0.3492,27.5631],[104.3274,-0.3458,1.2875],[104.3252,-0.3433,6.6019],[104.3265,-0.3402,13.2389],[104.3237,-0.3402,2.2162],[104.323,-0.3465,15.8032],[104.3181,-0.3505,0.0],[104.3207,-0.3562,26.2899],[104.3209,-0.361,27.791],[104.3185,-0.3657,0.0],[104.3179,-0.3737,0.0],[104.3129,-0.3795,0.0],[104.3111,-0.3891,0.0],[104.2937,-0.3967,3.4842],[104.2773,-0.3962,0.0],[104.2761,-0.4006,0.0],[104.2772,-0.4072,29.8099],[104.2731,-0.4142,7.8955],[104.2752,-0.4205,1.9649],[104.2722,-0.4245,0.0],[104.2671,-0.4266,1.9646],[104.2693,-0.432,7.2708],[104.2688,-0.4415,0.0],[104.2641,-0.4474,0.9134],[104.2607,-0.4484,0.9243],[104.2638,-0.4523,2.5824],[104.2627,-0.4564,5.4015],[104.2578,-0.4571,0.0],[104.2625,-0.4648,0.8563],[104.2589,-0.4685,7.508],[104.2598,-0.4754,4.641],[104.2553,-0.4781,4.7368],[104.25,-0.4774,0.0],[104.2494,-0.482,0.0],[104.2524,-0.4845,13.3582],[104.2525,-0.4874,4.6874],[104.2444,-0.4854,7.5505],[104.2458,-0.4882,5.5934],[104.2516,-0.4907,19.4534],[104.2539,-0.4947,0.0],[104.2647,-0.5022,0.0],[104.2715,-0.5095,11.3509],[104.2787,-0.5129,12.3322],[104.2806,-0.5155,2.0011],[104.2791,-0.5161,0.0],[104.2876,-0.522,8.4962],[104.2926,-0.5272,1.6173],[104.2936,-0.5303,0.0],[104.2958,-0.5306,13.1234],[104.3035,-0.5377,0.0],[104.3095,-0.5404,0.9671],[104.3169,-0.5369,1.1846],[104.3198,-0.5376,0.0],[104.3196,-0.5402,0.0],[104.3174,-0.5413,0.0],[104.3217,-0.5466,2.42],[104.3237,-0.557,0.5881],[104.3263,-0.5621,0.0],[104.3272,-0.5712,0.0],[104.3294,-0.5714,2.2381],[104.3314,-0.5749,5.9644],[104.3315,-0.5815,3.924],[104.3381,-0.6122,0.0],[104.3421,-0.6149,3.224],[104.3439,-0.6259,0.0],[104.3418,-0.632,0.0],[104.3419,-0.6388,0.0],[104.3441,-0.6474,0.0],[104.3436,-0.6529,1.9603],[104.3417,-0.6555,2.1108],[104.3462,-0.6595,1.6861],[104.3485,-0.6673,7.176],[104.3548,-0.6716,0.0],[104.3569,-0.6751,8.9357],[104.3575,-0.6812,35.3622],[104.3593,-0.6826,4.1377],[104.366,-0.6837,0.0],[104.3806,-0.6745,21.5318],[104.382,-0.6715,8.3603],[104.3891,-0.667,3.0872],[104.3874,-0.6613,5.6285],[104.3838,-0.6592,2.5064],[104.3831,-0.6555,0.0],[104.3873,-0.6419,4.796],[104.3958,-0.6292,1.7611],[104.3929,-0.6226,0.0],[104.3973,-0.6016,3.0311],[104.4073,-0.5944,6.0424],[104.4168,-0.5906,6.8321],[104.4241,-0.5897,0.0],[104.4311,-0.5833,0.0],[104.4327,-0.5841,3.6918],[104.4345,-0.5824,3.0069],[104.4407,-0.5873,2.6593],[104.4472,-0.5992,2.5807],[104.4548,-0.6198,3.0886],[104.4572,-0.6223,1.3693],[104.4694,-0.6257,2.1157],[104.4736,-0.6318,2.9592],[104.4744,-0.6371,0.0],[104.4845,-0.6403,0.0],[104.4922,-0.6449,0.0],[104.5006,-0.6455,5.2762],[104.5046,-0.6433,7.0405],[104.5076,-0.6234,3.7679],[104.5083,-0.6132,0.0],[104.5069,-0.6048,0.0],[104.5087,-0.5958,0.0],[104.5168,-0.574,0.0],[104.5284,-0.5588,0.0],[104.5351,-0.5392,1.3132],[104.547,-0.5221,0.0],[104.5652,-0.5018,1.2476],[104.5709,-0.5064,0.0],[104.5719,-0.5055,0.0],[104.5667,-0.5016,0.0],[104.5743,-0.4959,1.5558],[104.5799,-0.4939,3.2441],[104.5853,-0.4967,0.0],[104.5893,-0.4939,2.1518],[104.591,-0.4957,0.0],[104.5924,-0.4938,0.0],[104.5926,-0.4846,0.0],[104.5973,-0.4789,0.4656],[104.5984,-0.4726,0.0],[104.6022,-0.468,0.0],[104.5993,-0.4662,2.934],[104.5967,-0.458,1.07],[104.5928,-0.4567,8.927],[104.5861,-0.4511,0.0],[104.5783,-0.4495,0.0],[104.5731,-0.4439,6.54],[104.5638,-0.4204,0.0],[104.561,-0.4204,6.5343],[104.5593,-0.4184,0.0],[104.5558,-0.4093,0.0],[104.5522,-0.4092,0.0],[104.5411,-0.3914,0.0],[104.5391,-0.371,0.0],[104.5298,-0.3639,2.2135],[104.5229,-0.3614,0.0],[104.5166,-0.3639,3.3701],[104.5058,-0.3629,0.0],[104.4981,-0.357,0.0],[104.4944,-0.3563,9.9713],[104.4912,-0.3516,0.0],[104.4888,-0.3527,0.0]]],
[[[104.9261,-0.3404,12.638],[104.9271,-0.3423,8.3502],[104.9297,-0.3428,0.0],[104.9276,-0.3406,1.7549],[104.928,-0.3359,0.0],[104.9262,-0.3381,6.1505],[104.9261,-0.3404,12.638]]],
[[[104.511,-0.3378,3.7344],[104.5115,-0.3372,3.7344],[104.5103,-0.3351,0.0],[104.5097,-0.3366,3.7344],[104.511,-0.3378,3.7344]]],
[[[104.4483,-0.283,3.7041],[104.4278,-0.2895,0.0],[104.4252,-0.2874,0.0],[104.4103,-0.2842,0.0],[104.4069,-0.2805,2.8742],[104.4046,-0.2804,0.0],[104.3992,-0.2866,3.936],[104.3952,-0.2862,0.0],[104.3946,-0.2845,0.0],[104.3907,-0.2863,0.0],[104.3896,-0.2947,0.0],[104.386,-0.2981,0.0],[104.39,-0.3,0.0],[104.3919,-0.3039,10.4378],[104.3907,-0.3065,0.0],[104.3965,-0.3052,12.3844],[104.4061,-0.3098,0.0],[104.4145,-0.3191,0.0],[104.4147,-0.3215,0.0],[104.42,-0.3241,1.3768],[104.4235,-0.3226,6.357],[104.4293,-0.325,1.9764],[104.445,-0.3229,21.9864],[104.4544,-0.3244,28.5405],[104.4602,-0.3289,0.0],[104.4606,-0.3198,0.0],[104.4625,-0.3197,0.0],[104.4638,-0.3162,1.1902],[104.4636,-0.3129,2.1201],[104.4622,-0.3147,9.5838],[104.4612,-0.314,0.0],[104.4628,-0.3115,2.1201],[104.4657,-0.3131,2.4499],[104.465,-0.3161,14.044],[104.4683,-0.3184,0.0],[104.4692,-0.3166,4.5004],[104.4709,-0.3195,17.123],[104.474,-0.3175,8.0128],[104.4774,-0.3197,0.0],[104.4796,-0.3176,21.7632],[104.4819,-0.3188,2.6585],[104.4856,-0.3175,5.8446],[104.4872,-0.3148,0.0],[104.4858,-0.3132,2.3838],[104.4919,-0.3056,0.0],[104.4839,-0.2937,4.0017],[104.4828,-0.2823,3.6559],[104.4762,-0.278,21.5832],[104.4716,-0.2774,0.0],[104.4686,-0.2776,0.0],[104.468,-0.2806,7.961],[104.4604,-0.281,0.0],[104.4579,-0.2833,9.7733],[104.4483,-0.283,3.7041]]],
[[[104.7542,0.0796,7.7592],[104.7487,0.0798,4.0898],[104.7469,0.0824,2.9689],[104.7495,0.0866,2.7664],[104.7485,0.0888,0.0],[104.7443,0.0859,0.6167],[104.7398,0.0866,0.0],[104.7386,0.0814,1.8002],[104.7405,0.0759,1.8241],[104.7495,0.0756,4.4914],[104.7542,0.0796,7.7592]]],
[[[104.7405,0.088,1.0047],[104.7416,0.0897,2.2461],[104.7414,0.0923,1.2829],[104.7397,0.0907,0.0],[104.7405,0.088,1.0047]]],
[[[104.7377,0.0977,8.2219],[104.7332,0.1025,3.2205],[104.7313,0.1023,0.0],[104.7339,0.0989,0.0],[104.7333,0.0931,0.0],[104.7368,0.0941,0.0],[104.7377,0.0977,8.2219]]],
[[[104.5396,0.1061,4.2177],[104.5373,0.1099,2.7578],[104.5343,0.1067,0.0],[104.5358,0.1057,2.5109],[104.5396,0.1061,4.2177]]],
[[[104.5002,0.1109,0.0],[104.4985,0.1119,11.2575],[104.4973,0.1101,0.0],[104.5004,0.1069,0.0],[104.5013,0.1087,7.0788],[104.5002,0.1109,0.0]]],
[[[104.504,0.1041,1.0609],[104.5051,0.1047,1.0609],[104.5041,0.1063,0.8078],[104.5033,0.106,0.0],[104.504,0.1041,1.0609]]],
[[[104.6264,0.082,0.668],[104.6247,0.0829,0.0],[104.6239,0.0825,0.0],[104.6251,0.0812,0.668],[104.6264,0.082,0.668]]],
[[[104.4814,0.0897,1.8752],[104.4826,0.0838,0.5745],[104.4987,0.0722,1.2888],[104.5005,0.0727,0.0],[104.5012,0.0761,3.844],[104.4927,0.0876,0.0],[104.486,0.0925,8.8913],[104.4843,0.09,2.0068],[104.4814,0.0897,1.8752]]],
[[[104.6216,0.0787,0.0],[104.6247,0.0784,0.8489],[104.6235,0.0804,13.1517],[104.6209,0.0797,6.218],[104.6216,0.0787,0.0]]],
[[[104.6176,0.0765,0.0],[104.6192,0.0759,0.0],[104.6169,0.0782,27.3799],[104.6161,0.0772,4.6189],[104.6176,0.0765,0.0]]],
[[[104.5366,0.0765,0.0],[104.5361,0.0785,7.7706],[104.5349,0.0789,1.0436],[104.5344,0.077,1.9269],[104.5366,0.0765,0.0]]],
[[[104.5427,0.0904,11.4279],[104.5463,0.0846,0.0],[104.5616,0.0724,0.0],[104.5589,0.0802,14.7851],[104.5464,0.0926,5.2874],[104.5421,0.102,4.4542],[104.5389,0.1032,5.9057],[104.5356,0.1019,1.1488],[104.5341,0.1002,2.0165],[104.5343,0.0959,1.9334],[104.5427,0.0904,11.4279]]],
[[[104.5169,0.0949,0.1029],[104.5138,0.0983,4.8035],[104.511,0.0973,0.0],[104.5179,0.0914,0.0],[104.5185,0.0932,0.0],[104.5169,0.0949,0.1029]]],
[[[104.5256,0.1035,1.2091],[104.5267,0.1075,0.0],[104.5232,0.1106,0.0],[104.521,0.1068,0.0],[104.5225,0.1034,1.3038],[104.521,0.1033,0.0],[104.5251,0.1016,0.0],[104.5256,0.1035,1.2091]]],
[[[104.7066,0.1265,0.0],[104.7089,0.1266,0.0],[104.7097,0.1293,0.0],[104.7074,0.1342,0.0],[104.7059,0.133,0.0],[104.7079,0.1284,0.0],[104.7066,0.1265,0.0]]],
[[[104.5471,0.1381,1.8892],[104.5442,0.1398,0.0],[104.5445,0.1359,0.0],[104.5495,0.1302,0.0],[104.5528,0.1297,0.0],[104.5524,0.1322,1.4577],[104.5471,0.1381,1.8892]]],
[[[104.5158,0.1319,10.2464],[104.5106,0.1347,7.2922],[104.5104,0.1307,1.8861],[104.5146,0.1298,0.3346],[104.5158,0.1319,10.2464]]],
[[[104.5284,0.1372,0.0],[104.5277,0.1383,4.5581],[104.5262,0.1373,4.5581],[104.5271,0.1365,0.0],[104.5284,0.1372,0.0]]],
[[[104.2021,0.1483,2.3268],[104.2003,0.1473,0.0],[104.2045,0.1425,0.0],[104.2068,0.1498,6.2311],[104.2021,0.1483,2.3268]]],
[[[104.1943,0.1557,6.1368],[104.1907,0.1601,10.8337],[104.1871,0.1726,11.1334],[104.1826,0.1753,8.8453],[104.1798,0.1793,2.4295],[104.1785,0.179,2.4295],[104.1826,0.1677,12.2302],[104.189,0.165,0.3803],[104.1876,0.1613,0.0],[104.1899,0.1563,0.0],[104.1941,0.1534,0.0],[104.1954,0.1551,1.3532],[104.1943,0.1557,6.1368]]],
[[[104.2339,0.1306,0.0],[104.2378,0.1318,0.0],[104.2337,0.1359,0.237],[104.2277,0.137,4.4133],[104.222,0.1353,0.0],[104.2223,0.134,0.0],[104.2339,0.1306,0.0]]],
[[[104.4135,0.1194,0.9842],[104.4128,0.121,1.2923],[104.4116,0.1201,1.352],[104.4123,0.1185,0.0],[104.4135,0.1194,0.9842]]],
[[[104.4474,0.1317,3.9595],[104.446,0.1267,4.3734],[104.4514,0.1236,0.0],[104.4544,0.1168,4.2416],[104.4601,0.115,0.0],[104.4657,0.1057,3.2253],[104.4706,0.1006,19.4534],[104.4785,0.096,1.0047],[104.4781,0.101,0.6852],[104.4795,0.1028,0.0],[104.4781,0.1078,7.042],[104.4702,0.1145,20.3674],[104.4565,0.136,0.0],[104.4479,0.1383,0.0],[104.4489,0.1342,5.1012],[104.4474,0.1317,3.9595]]],
[[[104.4938,0.1215,11.9077],[104.4919,0.1247,6.396],[104.4874,0.1253,3.1913],[104.4897,0.1233,3.2705],[104.4898,0.1176,2.5756],[104.4958,0.1145,0.0],[104.4954,0.1199,0.0],[104.4938,0.1215,11.9077]]],
[[[104.5001,0.1177,9.6787],[104.5026,0.116,1.1115],[104.5034,0.1171,6.991],[104.4977,0.125,0.0],[104.4946,0.126,0.0],[104.4959,0.1214,7.0021],[104.5001,0.1177,9.6787]]],
[[[104.4859,0.1232,8.5061],[104.4831,0.1243,3.1832],[104.4834,0.1219,0.0],[104.4873,0.1204,0.0],[104.4878,0.1213,0.0],[104.4859,0.1232,8.5061]]],
[[[104.513,0.1271,0.2555],[104.5098,0.1288,0.0],[104.5081,0.1318,7.098],[104.5084,0.1364,11.7695],[104.5071,0.1374,2.7722],[104.5056,0.1362,21.2457],[104.5057,0.1388,0.0],[104.4998,0.1427,15.5049],[104.4976,0.1464,0.0],[104.4936,0.1468,0.1653],[104.4891,0.1424,1.9682],[104.4899,0.1354,6.3311],[104.4946,0.1291,1.7694],[104.5025,0.1254,0.0],[104.503,0.1233,0.0],[104.5103,0.1208,1.2036],[104.5083,0.1179,17.783],[104.5088,0.1162,5.0701],[104.515,0.1091,16.6554],[104.5175,0.1111,3.1028],[104.5155,0.113,4.0322],[104.5162,0.116,4.2814],[104.5192,0.1138,2.2507],[104.5201,0.1148,0.24],[104.5177,0.124,2.9853],[104.513,0.1271,0.2555]]],
[[[104.4786,0.1296,0.0],[104.4802,0.1261,4.5946],[104.482,0.1264,1.1128],[104.4833,0.129,6.9554],[104.488,0.1289,1.0302],[104.4895,0.1317,0.0],[104.4866,0.1338,0.0],[104.4786,0.1296,0.0]]],
[[[104.447,0.1368,0.0],[104.4468,0.1377,0.0],[104.4427,0.1384,0.0],[104.4455,0.1329,3.8586],[104.447,0.1368,0.0]]],
[[[104.4764,0.1312,0.0],[104.4773,0.1301,0.0],[104.4802,0.131,1.8093],[104.4824,0.1362,1.9055],[104.4804,0.1407,1.3973],[104.4763,0.1436,2.8623],[104.4734,0.1414,2.0495],[104.4744,0.1389,2.3175],[104.4756,0.1406,3.1353],[104.4773,0.1389,0.7179],[104.4755,0.136,0.0],[104.4764,0.1312,0.0]]],
[[[104.4858,0.1404,0.0],[104.4868,0.1407,4.4699],[104.4874,0.1422,1.9682],[104.486,0.1426,5.7755],[104.4858,0.1404,0.0]]],
[[[104.4466,0.1425,0.0],[104.4435,0.1447,12.0669],[104.4455,0.1391,7.6348],[104.4472,0.1394,2.6796],[104.4466,0.1425,0.0]]],
[[[104.4429,0.1431,6.8615],[104.441,0.1455,7.1327],[104.4381,0.1427,2.3496],[104.4386,0.1408,1.7935],[104.4416,0.14,2.7721],[104.4429,0.1431,6.8615]]],
[[[104.4844,0.1463,0.5298],[104.4842,0.1428,0.0],[104.4885,0.143,1.9682],[104.4928,0.1481,3.6713],[104.4882,0.1509,0.7669],[104.4846,0.1486,0.3189],[104.4844,0.1463,0.5298]]],
[[[104.4674,0.1515,10.7852],[104.465,0.1537,10.444],[104.4644,0.1503,0.0],[104.466,0.1465,0.0],[104.4675,0.1444,0.0],[104.4716,0.143,1.0549],[104.4708,0.1478,0.3919],[104.4674,0.1515,10.7852]]],
[[[104.6447,0.047,0.0],[104.6518,0.0375,6.9396],[104.6573,0.0322,9.0608],[104.6592,0.0324,7.7011],[104.6477,0.0465,0.7076],[104.6447,0.047,0.0]]],
[[[104.5145,0.0431,2.3183],[104.5154,0.0429,2.3183],[104.5156,0.0437,2.3183],[104.5144,0.0437,2.3183],[104.5145,0.0431,2.3183]]],
[[[104.5345,0.0467,2.3231],[104.5323,0.0504,14.1133],[104.5267,0.0543,2.9856],[104.5249,0.0543,10.6705],[104.5215,0.0507,0.0],[104.527,0.043,0.4893],[104.5289,0.0454,2.9449],[104.5297,0.0442,2.9449],[104.5282,0.0406,0.0],[104.5296,0.038,0.0],[104.5346,0.0348,0.0],[104.5343,0.0402,2.1511],[104.5375,0.0364,0.0],[104.5442,0.0326,5.2792],[104.5404,0.0423,9.1878],[104.5345,0.0467,2.3231]]],
[[[104.4921,0.0468,0.5433],[104.4934,0.049,0.777],[104.4921,0.0502,5.6298],[104.4904,0.0476,1.0668],[104.4921,0.0468,0.5433]]],
[[[104.5047,0.0504,1.1582],[104.5079,0.0504,0.0],[104.5084,0.0526,4.5312],[104.5035,0.0599,21.7369],[104.499,0.0636,1.2594],[104.4946,0.0627,0.0],[104.4941,0.0536,1.4099],[104.4976,0.0541,21.0991],[104.4965,0.0517,5.0157],[104.501,0.0483,0.0],[104.5047,0.0504,1.1582]]],
[[[104.5086,0.0693,3.2914],[104.5089,0.0634,0.9635],[104.5161,0.0551,1.7165],[104.5209,0.0526,1.3576],[104.5254,0.0564,0.3783],[104.5204,0.0633,5.2453],[104.5086,0.0693,3.2914]]],
[[[104.5102,-0.0027,3.4883],[104.5118,-0.0016,1.2653],[104.512,0.0015,0.5422],[104.5068,0.0077,0.0],[104.5036,0.0073,0.0],[104.5044,0.0039,0.5769],[104.5027,-0.0003,0.4899],[104.507,-0.0041,1.9682],[104.5102,-0.0027,3.4883]]],
[[[104.9028,-0.2884,0.0],[104.9122,-0.2826,1.3246],[104.9163,-0.2779,1.8247],[104.9328,-0.2786,0.0],[104.9368,-0.2798,0.0],[104.9481,-0.2882,3.2617],[104.9522,-0.2947,0.0],[104.954,-0.295,0.0],[104.9553,-0.293,2.7807],[104.964,-0.293,0.0],[104.97,-0.2972,1.0543],[104.9734,-0.2969,0.4381],[104.9818,-0.2998,3.3731],[104.9816,-0.3033,6.3044],[104.9839,-0.3053,14.8147],[104.9828,-0.3073,0.0],[104.9853,-0.3091,0.0],[104.9885,-0.3067,15.0892],[104.9916,-0.3077,3.6731],[104.9941,-0.3051,5.7503],[104.9967,-0.306,0.0],[104.9987,-0.3033,0.0],[105.0013,-0.3044,8.9106],[105.0008,-0.3004,8.261],[104.9975,-0.2991,0.0],[104.9936,-0.2906,2.6802],[104.9953,-0.2865,7.6093],[104.9985,-0.2849,0.0],[104.9981,-0.2789,0.0],[104.9902,-0.2758,22.7284],[104.9848,-0.278,17.2001],[104.9828,-0.2813,10.215],[104.9797,-0.2819,8.5184],[104.9705,-0.2782,14.5621],[104.9699,-0.2804,14.6467],[104.9664,-0.2802,5.1806],[104.9591,-0.2761,0.0],[104.9538,-0.275,1.8966],[104.9422,-0.2679,0.0],[104.9255,-0.2545,0.0],[104.9065,-0.2366,38.2146],[104.8967,-0.2296,0.0],[104.887,-0.2179,0.0],[104.879,-0.1959,0.0],[104.8666,-0.1886,4.1347],[104.8557,-0.1672,0.0],[104.8466,-0.1545,20.1413],[104.8425,-0.1524,9.109],[104.8362,-0.1425,20.0776],[104.8282,-0.1341,2.5558],[104.8269,-0.1337,2.5558],[104.8246,-0.1429,8.5862],[104.819,-0.1513,12.0771],[104.814,-0.153,5.3801],[104.8137,-0.1547,1.8327],[104.8164,-0.1648,4.993],[104.8146,-0.1714,6.8575],[104.8164,-0.1858,1.4788],[104.8237,-0.1904,1.1568],[104.8256,-0.1944,8.0451],[104.8211,-0.2011,11.1663],[104.807,-0.2069,11.8168],[104.7905,-0.2069,10.401],[104.7881,-0.2062,6.8216],[104.7781,-0.1956,0.0],[104.7694,-0.1975,9.0473],[104.7573,-0.1956,15.8865],[104.7438,-0.1814,16.1012],[104.7371,-0.1676,4.418],[104.7365,-0.1487,0.0],[104.7341,-0.1409,0.0],[104.7284,-0.1366,5.3068],[104.7167,-0.1328,0.0],[104.7082,-0.1196,3.5787],[104.7015,-0.114,1.1712],[104.696,-0.0988,0.0],[104.6841,-0.0844,0.0],[104.6813,-0.0839,2.7418],[104.6794,-0.0875,0.0],[104.6704,-0.0852,11.6316],[104.6615,-0.0926,0.7738],[104.6686,-0.1094,5.0642],[104.6683,-0.1171,0.6847],[104.6664,-0.1137,0.0],[104.6613,-0.1127,2.9682],[104.6562,-0.1059,0.0],[104.65,-0.1041,1.1687],[104.641,-0.0952,0.793],[104.6367,-0.096,1.6758],[104.636,-0.1004,0.7514],[104.6343,-0.1,1.7894],[104.6334,-0.0948,0.0],[104.6263,-0.0817,2.9539],[104.6281,-0.0764,0.0],[104.6326,-0.0764,0.0],[104.6382,-0.0798,3.5963],[104.6398,-0.084,0.0],[104.6431,-0.084,0.0],[104.6443,-0.0859,0.0],[104.651,-0.0879,0.0],[104.6622,-0.0852,0.0],[104.6691,-0.0814,0.0],[104.6686,-0.0755,0.0],[104.6546,-0.0525,0.0],[104.6436,-0.0452,3.4573],[104.6397,-0.0353,0.0],[104.6293,-0.0335,2.1367],[104.6213,-0.0237,0.0],[104.5952,-0.0013,2.0831],[104.5827,0.0053,2.4315],[104.5609,0.0214,0.0],[104.5537,0.0295,0.0],[104.5496,0.0313,0.0],[104.5478,0.0179,0.0],[104.5495,0.0124,11.9953],[104.5529,0.009,0.0],[104.5548,0.0038,0.0],[104.5429,-0.0019,12.414],[104.5413,-0.0059,2.4706],[104.5421,-0.0087,1.7201],[104.5397,-0.0078,0.0],[104.5361,-0.0111,2.73],[104.5424,-0.0215,0.312],[104.5474,-0.025,1.2041],[104.5482,-0.0276,1.3723],[104.5408,-0.0218,0.312],[104.5333,-0.022,1.1036],[104.5321,-0.0226,0.4945],[104.5338,-0.0299,3.793],[104.5354,-0.0311,2.2453],[104.5337,-0.0307,3.793],[104.5319,-0.0243,0.0],[104.526,-0.0232,6.57],[104.5319,-0.0221,0.4945],[104.5383,-0.0179,2.6799],[104.5364,-0.0147,1.0951],[104.527,-0.0124,1.6996],[104.5184,-0.0055,2.0474],[104.5128,-0.0068,0.0],[104.5147,-0.0105,2.2427],[104.5134,-0.0087,1.9353],[104.4985,-0.0027,34.6083],[104.5009,-0.0073,2.5239],[104.5047,-0.0102,0.6739],[104.5068,-0.0162,2.4903],[104.5022,-0.0105,2.2679],[104.4975,-0.0114,7.5639],[104.4966,-0.0131,24.3333],[104.4969,-0.0194,0.9727],[104.4955,-0.0208,3.979],[104.4993,-0.0211,2.4268],[104.5018,-0.0269,5.1673],[104.5019,-0.0464,38.6641],[104.4994,-0.0517,5.928],[104.5002,-0.0537,0.0],[104.5092,-0.0555,0.2871],[104.5102,-0.0606,2.7448],[104.508,-0.0641,0.3572],[104.5108,-0.068,0.6137],[104.508,-0.0828,1.75],[104.5091,-0.1085,3.6369],[104.5076,-0.1107,0.0],[104.5087,-0.1128,4.6353],[104.5059,-0.1286,2.7124],[104.5033,-0.132,3.2956],[104.49,-0.1358,15.1493],[104.4837,-0.1347,5.4351],[104.4864,-0.1395,5.0817],[104.4805,-0.1386,5.1307],[104.477,-0.1364,2.0443],[104.4737,-0.1383,7.128],[104.4727,-0.1359,0.0],[104.4704,-0.1361,0.0],[104.4674,-0.1417,0.0],[104.4693,-0.1457,4.7739],[104.477,-0.1509,4.141],[104.4757,-0.1573,1.4043],[104.4694,-0.1628,0.0],[104.4679,-0.1626,7.0739],[104.4676,-0.1605,2.8007],[104.4638,-0.1599,5.6851],[104.4623,-0.1573,0.0],[104.4518,-0.1605,0.0],[104.4518,-0.1633,0.0],[104.454,-0.1629,24.766],[104.4565,-0.1659,36.5015],[104.4511,-0.1679,0.0],[104.4519,-0.1711,0.0],[104.4502,-0.1735,40.0146],[104.4523,-0.1756,59.5205],[104.4509,-0.1773,14.9901],[104.4495,-0.1764,5.2211],[104.4497,-0.1823,0.8338],[104.445,-0.1817,1.1499],[104.4432,-0.1778,0.0],[104.4412,-0.1776,0.0],[104.4272,-0.1834,8.5032],[104.4262,-0.199,79.787],[104.4297,-0.2033,39.5677],[104.4284,-0.2071,13.9405],[104.4308,-0.2108,0.0],[104.4289,-0.2142,0.0],[104.4267,-0.215,19.5622],[104.4243,-0.2236,0.0],[104.4258,-0.2287,38.457],[104.4294,-0.2331,1.0101],[104.4295,-0.2369,8.9494],[104.434,-0.2357,16.4311],[104.4404,-0.2379,8.4251],[104.4436,-0.2432,0.0],[104.4478,-0.2457,16.8988],[104.4528,-0.2439,24.9463],[104.4614,-0.2472,13.7297],[104.4692,-0.2415,1.0384],[104.4752,-0.2416,7.9062],[104.476,-0.2429,7.9062],[104.4774,-0.2416,3.7098],[104.4829,-0.2437,4.6853],[104.4869,-0.241,23.5063],[104.4981,-0.2414,1.8358],[104.5005,-0.2448,1.1661],[104.5039,-0.246,1.9163],[104.5054,-0.2494,0.3207],[104.5037,-0.2551,2.4875],[104.5013,-0.2556,0.0],[104.5022,-0.2616,2.7246],[104.505,-0.2628,4.3583],[104.5043,-0.2674,0.0],[104.5087,-0.2715,3.311],[104.5133,-0.2715,0.6997],[104.5151,-0.2736,4.3062],[104.5174,-0.2733,2.1352],[104.518,-0.275,1.2234],[104.522,-0.2758,1.3727],[104.5227,-0.2744,11.0889],[104.5271,-0.2735,0.0],[104.5286,-0.2703,0.0],[104.5345,-0.2685,0.0],[104.5353,-0.2649,0.0],[104.5392,-0.2651,1.6104],[104.5382,-0.2618,3.8399],[104.5406,-0.2593,0.0],[104.5473,-0.256,21.8072],[104.5514,-0.2577,0.0],[104.5512,-0.2538,0.413],[104.5572,-0.2499,0.0],[104.5607,-0.2436,6.05],[104.5691,-0.2393,5.1588],[104.5813,-0.242,5.382],[104.5876,-0.2458,7.3199],[104.5931,-0.2461,13.5301],[104.5991,-0.2513,0.0],[104.6001,-0.244,14.0676],[104.603,-0.2415,0.0],[104.6122,-0.2394,5.1404],[104.6293,-0.2308,0.0],[104.6312,-0.2285,0.0],[104.6309,-0.2262,5.2197],[104.648,-0.2173,3.1681],[104.6819,-0.2064,0.0],[104.6995,-0.2047,0.0],[104.7072,-0.2076,0.0],[104.7241,-0.2186,16.6659],[104.7352,-0.2325,8.1498],[104.7369,-0.2321,0.0],[104.7375,-0.2295,1.8762],[104.7407,-0.2289,4.0213],[104.7473,-0.233,0.0],[104.7486,-0.2319,0.7988],[104.7529,-0.2337,9.0996],[104.7543,-0.2395,4.9209],[104.7532,-0.2451,7.094],[104.7469,-0.2491,4.2202],[104.7492,-0.2517,0.0],[104.7503,-0.2494,6.9111],[104.7527,-0.2501,15.4972],[104.7532,-0.2543,10.9773],[104.7572,-0.2572,10.1127],[104.7623,-0.2585,27.5008],[104.7688,-0.2645,19.4008],[104.7757,-0.2597,10.7703],[104.7828,-0.2598,0.0],[104.7898,-0.2625,5.7209],[104.7942,-0.2713,5.1378],[104.7896,-0.277,0.0],[104.7894,-0.2793,6.507],[104.798,-0.2834,4.7166],[104.8045,-0.2841,30.9584],[104.8129,-0.291,6.9735],[104.8143,-0.295,10.679],[104.8193,-0.2999,0.0],[104.8207,-0.2994,0.0],[104.8186,-0.2915,0.0],[104.82,-0.2905,2.447],[104.8246,-0.2916,1.2441],[104.8287,-0.2994,5.6696],[104.8236,-0.3022,8.1778],[104.8243,-0.3039,3.4251],[104.8374,-0.3155,8.3985],[104.8424,-0.317,21.4614],[104.8494,-0.3228,2.6403],[104.8507,-0.3209,6.3084],[104.8517,-0.3218,0.0],[104.8528,-0.317,8.9599],[104.8554,-0.3152,0.0],[104.8654,-0.3135,0.8485],[104.8679,-0.3159,1.5968],[104.8716,-0.3155,0.0],[104.875,-0.3194,5.7676],[104.8799,-0.3214,0.0],[104.8819,-0.3265,0.0],[104.884,-0.3271,0.0],[104.8876,-0.3246,0.0],[104.8932,-0.3264,4.4902],[104.8974,-0.3249,12.0702],[104.9032,-0.3257,7.1962],[104.9065,-0.3293,0.0],[104.9064,-0.3317,0.0],[104.9081,-0.329,5.048],[104.9101,-0.3293,10.0575],[104.9128,-0.3366,8.6717],[104.9169,-0.3369,29.0788],[104.9213,-0.3301,0.0],[104.9251,-0.327,12.1356],[104.9286,-0.3268,0.0],[104.9292,-0.3245,5.8241],[104.9196,-0.3228,5.4337],[104.9163,-0.3199,43.1052],[104.9125,-0.32,18.2827],[104.9122,-0.3173,4.3469],[104.9094,-0.3175,17.6275],[104.9079,-0.3138,11.0922],[104.9039,-0.3116,17.5829],[104.9046,-0.3027,5.4326],[104.8999,-0.2973,0.2238],[104.9007,-0.2889,0.9635],[104.9028,-0.2884,0.0]]],
[[[104.5465,0.0043,14.3407],[104.5461,0.0051,14.3407],[104.5421,0.0043,2.8558],[104.5459,0.0032,0.0],[104.5465,0.0043,14.3407]]],
[[[104.5395,0.0217,1.2573],[104.538,0.0222,0.0],[104.5432,0.0182,0.0],[104.5416,0.0209,0.3256],[104.5395,0.0217,1.2573]]],
[[[104.5152,0.0251,0.4735],[104.5156,0.0237,0.0],[104.5168,0.0249,0.3034],[104.5158,0.0251,0.4735],[104.5152,0.0251,0.4735]]],
[[[104.5407,0.0153,0.8043],[104.5404,0.0169,5.1994],[104.5354,0.0192,4.2578],[104.5358,0.0214,17.8115],[104.5321,0.0259,2.0442],[104.5312,0.0188,1.9937],[104.5241,0.0178,3.6332],[104.5207,0.0146,1.075],[104.5223,0.0096,3.1699],[104.5179,0.0116,3.3024],[104.5178,0.0133,2.1826],[104.5137,0.0124,0.0],[104.5185,0.0037,0.4369],[104.5205,0.0033,0.915],[104.5198,0.0015,0.0],[104.5233,-0.0009,3.4898],[104.5361,0.0022,2.2227],[104.5421,0.0062,4.3254],[104.5454,0.0067,0.0],[104.5426,0.0103,21.5304],[104.5439,0.0113,0.1977],[104.5426,0.0133,6.8328],[104.5399,0.0136,23.1073],[104.5407,0.0153,0.8043]]],
[[[104.5232,0.0254,0.0],[104.5245,0.0258,0.0],[104.5217,0.0259,0.0],[104.5222,0.0254,0.0],[104.5232,0.0254,0.0]]],
[[[104.7805,0.0307,13.7522],[104.7844,0.0316,22.5456],[104.7844,0.034,21.6789],[104.7812,0.0386,8.3505],[104.7814,0.0419,42.1486],[104.7755,0.0464,8.5846],[104.772,0.0531,0.0],[104.7725,0.0567,10.9441],[104.7673,0.0637,19.2033],[104.7653,0.0631,2.8137],[104.7657,0.0457,0.1843],[104.7557,0.0431,1.5402],[104.7398,0.0472,1.8786],[104.7347,0.0425,1.4782],[104.7397,0.0324,0.0],[104.7532,0.0303,0.0],[104.7623,0.0351,1.4046],[104.7725,0.0334,0.0],[104.7754,0.035,0.0],[104.7784,0.031,14.4759],[104.7805,0.0307,13.7522]]],
[[[104.6166,0.0269,0.0],[104.6179,0.0299,17.3895],[104.6136,0.0305,0.0],[104.6142,0.0282,0.0],[104.6166,0.0269,0.0]]],
[[[104.5264,0.0286,0.0],[104.5277,0.0303,4.143],[104.5257,0.0324,4.5298],[104.5174,0.0321,0.0],[104.5182,0.0287,0.0],[104.5264,0.0286,0.0]]],
[[[104.5432,0.0246,0.5257],[104.542,0.0261,2.306],[104.5427,0.0237,0.0],[104.5443,0.023,0.0],[104.5433,0.0239,0.5257],[104.5432,0.0246,0.5257]]],
[[[104.522,0.0361,24.6897],[104.5215,0.038,16.5557],[104.5189,0.039,3.1673],[104.5198,0.0404,3.1673],[104.5186,0.0418,9.9981],[104.5166,0.0418,9.3816],[104.5164,0.0404,13.8232],[104.5127,0.0394,0.0],[104.5131,0.0345,1.0139],[104.5108,0.0329,0.3386],[104.5144,0.0313,0.0],[104.5176,0.0356,9.063],[104.522,0.0344,7.1817],[104.522,0.0361,24.6897]]],
[[[104.5108,0.0416,5.8563],[104.5131,0.0444,14.6969],[104.5181,0.045,0.0],[104.5142,0.0505,0.0],[104.5094,0.0497,0.0],[104.5076,0.0466,19.1051],[104.4973,0.044,0.4637],[104.4963,0.0411,2.6009],[104.492,0.0398,0.4297],[104.4902,0.0349,0.0],[104.4912,0.0333,0.4723],[104.4942,0.0335,1.1313],[104.4917,0.0318,0.3683],[104.4982,0.026,1.4656],[104.5016,0.0303,0.2866],[104.5058,0.0321,0.1889],[104.5063,0.0354,1.0316],[104.508,0.0349,0.0],[104.5108,0.0416,5.8563]]],
[[[104.3239,0.253,2.0082],[104.3255,0.2524,0.0],[104.3261,0.2524,0.0],[104.3234,0.2538,0.0],[104.3239,0.253,2.0082]]],
[[[104.4332,0.2528,3.1057],[104.432,0.252,2.8745],[104.4329,0.251,2.8745],[104.4338,0.2513,1.4124],[104.4332,0.2528,3.1057]]],
[[[104.4385,0.2522,0.0],[104.4377,0.252,0.7251],[104.4383,0.2512,0.7251],[104.4389,0.252,0.7251],[104.4385,0.2522,0.0]]],
[[[104.5115,0.2546,0.0],[104.5117,0.2554,0.0],[104.5106,0.2555,0.0],[104.5107,0.2547,0.0],[104.5115,0.2546,0.0]]],
[[[104.5001,0.2544,0.6648],[104.4995,0.2539,0.6648],[104.5005,0.2532,0.0],[104.5008,0.2541,0.6648],[104.5001,0.2544,0.6648]]],
[[[104.3333,0.2486,0.0],[104.3331,0.2482,0.0],[104.3335,0.2481,0.0],[104.3335,0.2484,0.0],[104.3333,0.2486,0.0]]],
[[[104.4406,0.2495,1.467],[104.4409,0.2485,2.673],[104.4424,0.2482,2.0069],[104.4424,0.2506,0.0],[104.4406,0.2495,1.467]]],
[[[104.4442,0.2504,0.9376],[104.4431,0.2503,1.6459],[104.4432,0.2495,1.6459],[104.4437,0.2495,1.6459],[104.4442,0.2504,0.9376]]],
[[[104.4495,0.2649,2.5784],[104.4492,0.2653,2.5784],[104.4472,0.2652,1.5368],[104.4485,0.2639,2.5784],[104.4495,0.2649,2.5784]]],
[[[104.434,0.2662,0.0],[104.4336,0.2661,0.0],[104.434,0.2657,0.0],[104.434,0.2658,0.0],[104.434,0.2662,0.0]]],
[[[104.3189,0.2567,5.7008],[104.3145,0.2575,0.0],[104.3104,0.2633,1.8302],[104.3076,0.2624,0.0],[104.3093,0.259,6.6529],[104.3201,0.2514,0.0],[104.3207,0.2535,0.0],[104.3228,0.2541,0.0],[104.3189,0.2567,5.7008]]],
[[[104.3403,0.2601,4.6768],[104.3411,0.2583,1.6075],[104.3419,0.2578,1.6075],[104.3414,0.2597,0.396],[104.3403,0.2601,4.6768]]],
[[[104.4565,0.256,3.2591],[104.4568,0.2545,0.8946],[104.4575,0.2537,0.0],[104.4581,0.258,2.7847],[104.4565,0.256,3.2591]]],
[[[104.4543,0.2605,0.0],[104.454,0.2621,0.0],[104.4519,0.2623,2.3975],[104.4503,0.2579,2.2105],[104.4531,0.258,5.3399],[104.4532,0.2559,7.2373],[104.4551,0.255,0.0],[104.4564,0.2593,0.0],[104.4543,0.2605,0.0]]],
[[[104.365,0.2589,2.1234],[104.3646,0.2608,1.3857],[104.3621,0.2605,0.244],[104.3622,0.2567,0.0],[104.3647,0.2561,0.0],[104.365,0.2589,2.1234]]],
[[[104.5099,0.2526,2.9329],[104.5075,0.2559,17.9808],[104.5012,0.2562,2.6591],[104.5085,0.2479,7.2041],[104.5113,0.2501,23.209],[104.5099,0.2526,2.9329]]],
[[[104.4486,0.262,11.8814],[104.4451,0.2621,3.3616],[104.4492,0.2597,1.9713],[104.4501,0.2619,2.7046],[104.4486,0.262,11.8814]]],
[[[104.3051,0.2629,2.0597],[104.307,0.2633,0.0],[104.304,0.2656,0.0],[104.3039,0.265,0.0],[104.3051,0.2629,2.0597]]],
[[[104.3566,0.2652,3.7994],[104.3537,0.2666,7.1553],[104.3484,0.2658,41.896],[104.3496,0.2614,0.0],[104.354,0.2592,7.6749],[104.3543,0.2571,0.0],[104.3577,0.2567,0.5417],[104.3588,0.2625,0.0],[104.3566,0.2652,3.7994]]],
[[[104.4885,0.2638,0.0],[104.488,0.2635,0.0],[104.4884,0.2629,0.0],[104.4888,0.2633,0.0],[104.4885,0.2638,0.0]]],
[[[104.4513,0.263,2.3975],[104.4515,0.2642,5.6412],[104.4493,0.2642,2.5784],[104.4493,0.2632,0.3769],[104.4513,0.263,2.3975]]],
[[[104.4602,0.2836,0.0],[104.46,0.2837,0.0],[104.4597,0.2831,0.0],[104.4599,0.2831,0.0],[104.4602,0.2836,0.0]]],
[[[104.4029,0.2823,3.583],[104.403,0.2827,3.583],[104.4025,0.283,0.0],[104.4024,0.2823,0.0],[104.4029,0.2823,3.583]]],
[[[104.3836,0.2845,3.4008],[104.3857,0.2839,2.2562],[104.3864,0.285,0.0],[104.3846,0.2868,0.9912],[104.3836,0.2845,3.4008]]],
[[[104.4017,0.2845,1.5917],[104.4015,0.2877,1.4014],[104.3975,0.2862,3.3212],[104.3979,0.2855,3.3212],[104.4017,0.2845,1.5917]]],
[[[104.4478,0.2761,0.0],[104.4479,0.2758,0.0],[104.4488,0.2759,0.0],[104.4487,0.2763,0.0],[104.4478,0.2761,0.0]]],
[[[104.4296,0.2757,1.4068],[104.4311,0.2751,0.0],[104.4295,0.2776,0.0],[104.4288,0.2767,0.6475],[104.4296,0.2757,1.4068]]],
[[[104.3896,0.2777,1.1398],[104.3888,0.2764,5.1628],[104.3904,0.2753,10.3672],[104.3908,0.2762,7.665],[104.3896,0.2777,1.1398]]],
[[[104.4156,0.2773,26.6253],[104.4171,0.2797,0.0],[104.4132,0.2797,10.3991],[104.4138,0.2767,4.0179],[104.4156,0.2773,26.6253]]],
[[[104.3919,0.2793,1.5669],[104.3938,0.2778,2.4956],[104.3949,0.278,0.0],[104.3935,0.2806,0.0],[104.3919,0.2793,1.5669]]],
[[[104.4254,0.2777,0.0],[104.4237,0.2756,4.6956],[104.4257,0.2756,0.0],[104.4265,0.2779,0.0],[104.4254,0.2777,0.0]]],
[[[104.4087,0.2838,3.4053],[104.4055,0.2848,9.5414],[104.4033,0.2833,3.583],[104.4063,0.281,1.4727],[104.4091,0.2818,0.0],[104.4087,0.2838,3.4053]]],
[[[104.5604,0.3484,0.8439],[104.5568,0.3494,0.0],[104.554,0.3466,4.0367],[104.5509,0.3462,1.1695],[104.5524,0.339,0.7036],[104.5563,0.3342,4.1904],[104.5597,0.3395,0.0],[104.5638,0.3401,0.0],[104.5666,0.3427,0.0],[104.5604,0.3484,0.8439]]],
[[[104.5468,0.3453,0.0],[104.5466,0.3453,0.0],[104.5466,0.345,0.0],[104.5468,0.345,0.0],[104.5468,0.3453,0.0]]],
[[[104.3006,0.3495,3.5159],[104.2997,0.35,0.0],[104.2998,0.3486,0.0],[104.3003,0.3486,0.0],[104.3006,0.3495,3.5159]]],
[[[104.5452,0.3524,0.0],[104.5457,0.3522,0.0],[104.5459,0.353,0.0],[104.5454,0.353,0.0],[104.5452,0.3524,0.0]]],
[[[104.3029,0.3509,4.5517],[104.3032,0.3485,0.0],[104.3046,0.3481,0.0],[104.3048,0.3499,0.0],[104.3029,0.3509,4.5517]]],
[[[104.3075,0.3055,0.0],[104.3044,0.306,1.175],[104.3063,0.3031,0.0],[104.3081,0.304,0.0],[104.3075,0.3055,0.0]]],
[[[104.2571,0.3751,27.9929],[104.2549,0.3761,0.0],[104.2556,0.3733,21.4948],[104.2537,0.3733,12.0024],[104.254,0.3714,7.7036],[104.2571,0.3682,0.0],[104.2582,0.3691,44.0463],[104.2634,0.3668,0.0],[104.2639,0.3686,12.134],[104.2571,0.3751,27.9929]]],
[[[104.4374,0.2998,1.3547],[104.4399,0.2991,0.3241],[104.4401,0.3012,2.0491],[104.4383,0.3015,3.4365],[104.4374,0.2998,1.3547]]],
[[[104.4439,0.3056,0.0],[104.4398,0.3085,0.6161],[104.4359,0.3069,37.4355],[104.441,0.3005,2.0491],[104.4489,0.2978,0.0],[104.4486,0.2999,6.1158],[104.4439,0.3056,0.0]]],
[[[104.4344,0.3044,0.9851],[104.4343,0.3029,1.4769],[104.4357,0.303,0.0],[104.4358,0.3046,5.6657],[104.4344,0.3044,0.9851]]],
[[[104.395,0.2895,0.5366],[104.3951,0.2881,0.8714],[104.3955,0.2877,0.8714],[104.3957,0.289,0.5366],[104.395,0.2895,0.5366]]],
[[[104.4072,0.2859,3.6228],[104.4078,0.2905,0.9178],[104.4034,0.292,4.9479],[104.4031,0.2858,2.2881],[104.4072,0.2859,3.6228]]],
[[[104.4268,0.2913,2.53],[104.4293,0.2911,3.6535],[104.4306,0.2919,2.0123],[104.4281,0.2932,6.1407],[104.4268,0.2913,2.53]]],
[[[104.4227,0.2958,0.0],[104.4147,0.2953,0.7233],[104.4127,0.2928,0.0],[104.4127,0.2878,0.301],[104.4158,0.2865,0.2209],[104.419,0.2892,5.9974],[104.4189,0.2924,5.3574],[104.4234,0.2933,0.0],[104.4253,0.2953,7.1405],[104.4227,0.2958,0.0]]],
[[[104.4096,0.2928,0.8014],[104.4101,0.2917,0.0],[104.4107,0.2918,0.0],[104.4107,0.2926,0.8014],[104.4096,0.2928,0.8014]]],
[[[104.4319,0.2831,0.0],[104.4306,0.2909,2.0123],[104.429,0.2899,1.4713],[104.4298,0.2877,0.9358],[104.4258,0.2901,2.4654],[104.4231,0.289,0.0],[104.4177,0.283,4.2334],[104.4185,0.2814,1.4252],[104.4223,0.2819,3.265],[104.4209,0.2794,0.7614],[104.4235,0.2784,0.0],[104.4319,0.2831,0.0]]],
[[[104.3423,0.2893,2.0668],[104.3378,0.2899,62.8523],[104.3327,0.2929,27.7262],[104.3299,0.29,45.6918],[104.332,0.2847,12.4498],[104.3356,0.2837,18.5975],[104.3435,0.2765,4.7539],[104.3472,0.2814,0.0],[104.3477,0.2844,0.0],[104.3451,0.2883,2.1381],[104.3423,0.2893,2.0668]]],
[[[104.4137,0.3058,0.9061],[104.4133,0.3045,1.2378],[104.4135,0.3043,1.2378],[104.4147,0.3055,0.9061],[104.4137,0.3058,0.9061]]],
[[[104.4467,0.3095,13.2062],[104.4493,0.3076,1.6412],[104.4496,0.3076,1.6412],[104.4464,0.3114,3.9361],[104.4467,0.3095,13.2062]]],
[[[104.4448,0.3115,1.5649],[104.4434,0.3138,10.4965],[104.4409,0.3144,1.0053],[104.4421,0.3118,0.493],[104.4448,0.3115,1.5649]]],
[[[104.4286,0.3247,0.0],[104.4292,0.3243,0.0],[104.4294,0.3251,0.0],[104.4289,0.3254,0.0],[104.4286,0.3247,0.0]]],
[[[104.4303,0.304,4.8392],[104.4318,0.3042,0.0],[104.4314,0.3058,3.4154],[104.4266,0.3072,0.7894],[104.4269,0.3056,4.8181],[104.4303,0.304,4.8392]]],
[[[104.3743,0.3056,0.0],[104.3752,0.3101,0.297],[104.3734,0.3108,9.0232],[104.3709,0.309,1.2706],[104.3743,0.3056,0.0]]],
[[[104.3206,0.3224,5.1769],[104.3239,0.3251,4.3976],[104.3209,0.3385,0.0],[104.3153,0.3399,0.0],[104.3107,0.3456,0.0],[104.3025,0.3463,7.0787],[104.3034,0.3393,0.0],[104.3084,0.3294,9.5793],[104.3083,0.3222,47.9635],[104.3061,0.3211,6.9463],[104.3034,0.3148,0.0],[104.2999,0.3137,5.8453],[104.3003,0.3121,5.8453],[104.3025,0.3127,0.0],[104.3018,0.3094,0.0],[104.305,0.3088,3.5177],[104.3035,0.3071,0.0],[104.3094,0.3087,0.0],[104.3096,0.3109,2.4212],[104.3121,0.3128,2.2076],[104.3163,0.3116,5.2062],[104.3183,0.3129,32.4561],[104.3192,0.3104,10.8876],[104.3206,0.3108,0.0],[104.3194,0.3176,6.4435],[104.3206,0.3224,5.1769]]],
[[[104.2649,0.4146,0.0],[104.2652,0.414,0.0],[104.2649,0.4152,0.0],[104.2648,0.4151,0.0],[104.2649,0.4146,0.0]]],
[[[104.2951,0.389,11.1868],[104.3003,0.3876,9.3527],[104.3015,0.3886,9.3527],[104.2965,0.3917,19.655],[104.2951,0.3914,8.2383],[104.2951,0.389,11.1868]]],
[[[104.4388,0.3935,2.5998],[104.438,0.3928,2.5998],[104.4387,0.3921,2.5998],[104.4397,0.393,2.5998],[104.4388,0.3935,2.5998]]],
[[[104.3707,0.3912,2.4787],[104.3724,0.3895,1.9321],[104.3736,0.3903,1.9321],[104.373,0.3934,20.8888],[104.3694,0.3963,0.0],[104.3689,0.3946,2.3325],[104.3707,0.3912,2.4787]]],
[[[104.5644,0.4071,0.0],[104.5619,0.4076,0.0],[104.5615,0.4074,0.0],[104.5654,0.4047,0.0],[104.5644,0.4071,0.0]]],
[[[104.4407,0.4024,0.0],[104.4382,0.4024,0.478],[104.4384,0.4065,0.0],[104.4358,0.4064,12.2179],[104.4358,0.3994,4.0345],[104.4396,0.3967,0.1157],[104.4423,0.3904,0.0],[104.4478,0.3914,1.1171],[104.4567,0.3896,0.0],[104.4563,0.394,0.0],[104.4517,0.4009,0.0],[104.4459,0.4031,4.1689],[104.4407,0.4024,0.0]]],
[[[104.3635,0.4027,0.0],[104.3661,0.4015,0.0],[104.3663,0.4035,0.0],[104.3637,0.4063,0.0],[104.3633,0.406,0.0],[104.3635,0.4027,0.0]]],
[[[104.3741,0.4469,0.0],[104.3737,0.447,0.0],[104.3737,0.4466,0.0],[104.3741,0.4466,0.0],[104.3741,0.4469,0.0]]],
[[[104.4241,0.4409,1.344],[104.422,0.4428,0.8421],[104.4206,0.4401,0.8704],[104.4219,0.4393,1.0793],[104.4241,0.4409,1.344]]],
[[[104.41,0.425,0.6398],[104.4114,0.4249,0.0],[104.4089,0.4269,0.4263],[104.4088,0.4243,0.0],[104.41,0.425,0.6398]]],
[[[104.4018,0.4311,1.2757],[104.4023,0.4327,0.8307],[104.4002,0.4321,0.0],[104.4004,0.4315,0.6332],[104.4018,0.4311,1.2757]]],
[[[104.3581,0.4929,4.4552],[104.3586,0.4919,0.0],[104.359,0.4919,0.0],[104.3592,0.493,4.4552],[104.3581,0.4929,4.4552]]],
[[[104.3565,0.4987,2.3585],[104.3576,0.4981,0.0],[104.3571,0.4998,2.4313],[104.3567,0.4998,2.4313],[104.3565,0.4987,2.3585]]],
[[[104.3583,0.4959,0.0],[104.3566,0.4961,0.0],[104.3568,0.4949,1.8548],[104.3578,0.495,0.0],[104.3583,0.4959,0.0]]],
[[[104.4132,0.509,0.0],[104.4106,0.5103,13.0949],[104.4089,0.5063,11.923],[104.4129,0.4997,0.0],[104.4138,0.4941,1.4787],[104.4155,0.4951,0.0],[104.4149,0.4982,4.5665],[104.4163,0.5003,7.2659],[104.4145,0.5021,11.9087],[104.4168,0.5029,8.2958],[104.4171,0.505,0.0],[104.4132,0.509,0.0]]],
[[[104.3802,0.4768,0.6611],[104.3811,0.4762,0.6611],[104.3825,0.4773,0.0],[104.3809,0.4785,2.6719],[104.3802,0.4768,0.6611]]],
[[[104.3863,0.4969,3.9273],[104.3843,0.4969,8.2858],[104.3856,0.4897,1.9155],[104.3842,0.4871,3.9527],[104.3712,0.4826,0.0],[104.3716,0.4803,0.0],[104.374,0.4811,2.8029],[104.3791,0.4798,0.9883],[104.3796,0.4809,3.669],[104.3802,0.479,3.8716],[104.3828,0.478,0.0],[104.3842,0.4829,0.0],[104.391,0.4878,1.0957],[104.3903,0.4928,5.3699],[104.3874,0.4919,3.1716],[104.3863,0.4969,3.9273]]],
[[[104.4448,0.4634,0.0],[104.4409,0.4636,1.9721],[104.4406,0.461,1.8416],[104.4441,0.4596,0.0],[104.4448,0.4634,0.0]]],
[[[104.4071,0.4651,0.5237],[104.4071,0.4656,2.8621],[104.4066,0.4655,4.5125],[104.4066,0.4652,0.8322],[104.4071,0.4651,0.5237]]],
[[[104.3943,0.4614,2.7389],[104.3938,0.4626,0.7257],[104.3918,0.4619,2.8319],[104.3898,0.4583,0.0],[104.3949,0.4573,0.8998],[104.3969,0.4604,0.0],[104.3962,0.4622,0.845],[104.3943,0.4614,2.7389]]],
[[[104.383,0.4607,0.0],[104.3816,0.4615,0.0],[104.3813,0.4595,0.0],[104.382,0.4594,0.0],[104.383,0.4607,0.0]]],
[[[104.3807,0.4638,0.0],[104.3809,0.4635,0.0],[104.3813,0.4638,0.0],[104.3807,0.4643,0.0],[104.3807,0.4638,0.0]]],
[[[104.409,0.4721,0.0],[104.4065,0.4759,1.6829],[104.402,0.4727,1.542],[104.4018,0.471,3.1765],[104.4012,0.4739,0.0],[104.3992,0.4725,5.2224],[104.3973,0.4734,1.6589],[104.4015,0.4659,4.1409],[104.4015,0.4627,3.7946],[104.4034,0.4626,1.4123],[104.4057,0.4656,4.5125],[104.4084,0.4669,2.8621],[104.4149,0.4649,9.111],[104.414,0.4631,3.2674],[104.4157,0.4617,0.0],[104.4266,0.4592,0.0],[104.4255,0.4649,0.0],[104.4204,0.4692,0.8606],[104.4154,0.4692,0.8957],[104.409,0.4721,0.0]]],
[[[104.3828,0.4615,0.0],[104.3833,0.4611,0.0],[104.3836,0.4623,0.0],[104.3831,0.4623,0.0],[104.3828,0.4615,0.0]]],
[[[104.3956,0.4624,0.845],[104.3959,0.4628,0.845],[104.3951,0.463,0.845],[104.3951,0.4625,0.845],[104.3956,0.4624,0.845]]],
[[[104.3921,0.4639,0.3193],[104.3921,0.4634,1.3431],[104.3923,0.4632,1.3431],[104.3927,0.4636,0.7257],[104.3921,0.4639,0.3193]]],
[[[104.3908,0.4613,2.8319],[104.3911,0.4635,1.3431],[104.39,0.4647,0.0],[104.3884,0.4615,1.2727],[104.3908,0.4613,2.8319]]],
[[[104.3912,0.464,0.3193],[104.3914,0.4634,1.3431],[104.3919,0.4634,1.3431],[104.3918,0.4638,0.3193],[104.3912,0.464,0.3193]]],
[[[104.366,0.4678,0.0],[104.3674,0.4701,2.0192],[104.3596,0.468,7.5109],[104.361,0.4655,3.6464],[104.366,0.4678,0.0]]],
[[[104.37,0.4722,2.4885],[104.3705,0.4713,0.5979],[104.3729,0.4757,0.0],[104.3714,0.4742,0.0],[104.3708,0.4726,2.4885],[104.37,0.4722,2.4885]]],
[[[104.4337,0.4454,0.0],[104.4343,0.4468,7.5114],[104.4325,0.4487,9.3912],[104.4282,0.4469,1.7253],[104.4315,0.445,0.0],[104.4337,0.4454,0.0]]],
[[[104.4128,0.4433,1.1138],[104.4154,0.4443,1.594],[104.4144,0.4453,4.3103],[104.4157,0.4479,2.6844],[104.4187,0.4487,0.8438],[104.4179,0.452,0.2225],[104.4141,0.4513,0.1233],[104.4066,0.4465,3.6017],[104.4001,0.4459,1.4295],[104.3985,0.4475,0.5534],[104.3942,0.4479,1.0113],[104.3903,0.4438,2.106],[104.3938,0.4368,0.0],[104.3961,0.4359,5.8848],[104.3991,0.4411,1.8953],[104.4081,0.4442,3.9836],[104.4128,0.4433,1.1138]]],
[[[104.3897,0.4454,2.106],[104.3909,0.4511,0.0],[104.3887,0.4524,0.7],[104.3869,0.4514,7.2593],[104.3819,0.4556,0.0],[104.3833,0.4527,8.5253],[104.3791,0.4504,14.3028],[104.3805,0.4469,28.691],[104.3774,0.4452,3.6087],[104.3803,0.4392,48.7461],[104.3792,0.4378,0.0],[104.3805,0.4352,0.0],[104.3831,0.4351,0.0],[104.3822,0.4382,1.1062],[104.3851,0.4381,0.0],[104.3844,0.4416,2.1434],[104.3876,0.4414,1.113],[104.3897,0.4454,2.106]]],
[[[104.4204,0.4494,2.1211],[104.4203,0.4485,0.0],[104.4216,0.4487,0.0],[104.4215,0.4491,0.0],[104.4204,0.4494,2.1211]]],
[[[104.3705,0.4496,2.2492],[104.3699,0.4498,2.2492],[104.3703,0.4484,0.0],[104.3713,0.4491,2.2492],[104.3705,0.4496,2.2492]]],
[[[104.3773,0.4496,2.3212],[104.3768,0.4495,2.3212],[104.3763,0.4489,2.3212],[104.377,0.4487,0.0],[104.3773,0.4496,2.3212]]],
[[[104.4049,0.4558,1.2666],[104.401,0.4567,1.7005],[104.4003,0.454,2.226],[104.3994,0.4562,1.0226],[104.3967,0.4513,4.5583],[104.4007,0.4491,0.6343],[104.4009,0.4519,2.5157],[104.4017,0.4492,0.6343],[104.4074,0.4505,2.006],[104.4068,0.4522,3.9532],[104.4091,0.4516,0.0],[104.4091,0.454,0.0],[104.4049,0.4558,1.2666]]],
[[[104.3742,0.4542,2.8884],[104.3744,0.4525,5.4849],[104.3761,0.4532,0.0],[104.3742,0.4553,2.8884],[104.3742,0.4542,2.8884]]],
[[[104.3667,0.4518,7.1702],[104.3687,0.4519,0.0],[104.3691,0.4565,8.7827],[104.3707,0.4578,1.1689],[104.3692,0.4587,2.4302],[104.3661,0.4536,12.7304],[104.3667,0.4518,7.1702]]],
[[[104.4524,0.4788,0.0],[104.4455,0.4799,1.8943],[104.4375,0.4846,0.1269],[104.4371,0.4824,1.6044],[104.4401,0.4785,0.6896],[104.4511,0.4714,0.9997],[104.4529,0.4631,4.0118],[104.4621,0.4543,0.0],[104.4599,0.4614,24.3792],[104.4574,0.4624,4.3238],[104.4556,0.4678,4.2403],[104.4566,0.4784,0.0],[104.4524,0.4788,0.0]]],
[[[104.2783,0.3686,2.3276],[104.2781,0.368,2.3276],[104.2793,0.3682,0.0],[104.2787,0.3692,0.0],[104.2783,0.3686,2.3276]]],
[[[104.2761,0.3702,0.0],[104.2769,0.3694,0.0],[104.2773,0.3694,0.0],[104.2768,0.3713,4.1488],[104.2761,0.3702,0.0]]],
[[[104.2746,0.3715,0.0],[104.2753,0.3708,4.1488],[104.2759,0.3713,4.1488],[104.2753,0.3723,0.0],[104.2746,0.3715,0.0]]],
[[[104.452,0.3828,0.0],[104.4531,0.3822,0.0],[104.4534,0.3822,0.0],[104.4513,0.3832,0.0],[104.452,0.3828,0.0]]],
[[[104.2813,0.3667,0.0],[104.2806,0.3668,1.9309],[104.2806,0.3657,1.9309],[104.2813,0.3659,0.0],[104.2813,0.3667,0.0]]],
[[[104.2794,0.3734,0.0],[104.2794,0.3728,0.0],[104.2801,0.3729,0.0],[104.2799,0.3737,0.0],[104.2794,0.3734,0.0]]],
[[[104.2847,0.3631,0.0],[104.2842,0.362,0.0],[104.2843,0.3615,0.0],[104.2851,0.3625,0.0],[104.2847,0.3631,0.0]]],
[[[104.475,0.361,1.1156],[104.4722,0.3607,0.7394],[104.467,0.366,0.3742],[104.464,0.3643,0.6097],[104.4575,0.3533,0.0],[104.4599,0.3486,0.0],[104.4635,0.3479,1.7092],[104.4759,0.3515,0.3972],[104.4798,0.3487,0.0],[104.4858,0.3485,0.0],[104.4906,0.3462,3.0032],[104.4903,0.3483,5.3213],[104.4876,0.3494,0.0],[104.4819,0.3572,0.2067],[104.4778,0.3583,12.376],[104.475,0.361,1.1156]]],
[[[104.2843,0.3637,0.0],[104.2839,0.364,0.0],[104.2838,0.3639,0.0],[104.2841,0.3634,0.0],[104.2843,0.3637,0.0]]],
[[[104.4782,0.3629,2.2184],[104.4723,0.372,5.1965],[104.4684,0.372,3.0234],[104.4717,0.365,0.6085],[104.4782,0.3629,2.2184]]],
[[[104.426,0.369,0.2232],[104.4227,0.3702,5.4275],[104.4181,0.3678,7.582],[104.4197,0.3642,4.8714],[104.4231,0.3659,2.8706],[104.4267,0.363,1.4181],[104.4261,0.3606,5.0943],[104.4274,0.3595,1.8507],[104.4299,0.3604,0.0],[104.4299,0.3636,0.0],[104.4363,0.3667,0.0],[104.4295,0.3696,0.4796],[104.4283,0.3678,3.5192],[104.426,0.369,0.2232]]],
[[[104.4677,0.3717,3.0234],[104.4665,0.3741,0.1339],[104.4625,0.3723,22.9991],[104.467,0.3697,0.0],[104.4677,0.3717,3.0234]]],
[[[104.4693,0.3822,0.0],[104.4684,0.3837,9.6584],[104.4647,0.3833,27.1536],[104.463,0.3806,12.5273],[104.4729,0.3737,4.6923],[104.4738,0.3698,1.1425],[104.4768,0.3666,0.6243],[104.4801,0.3655,3.0236],[104.4876,0.3664,0.0],[104.484,0.3682,3.6062],[104.4838,0.3708,0.0],[104.4808,0.37,3.8628999999999998],[104.4794,0.3748,0.0],[104.4738,0.3768,11.8089],[104.4725,0.3785,7.9549],[104.473,0.3815,0.0],[104.4711,0.3829,0.0],[104.4693,0.3822,0.0]]],
[[[104.3202,0.3712,0.0],[104.326,0.3691,3.8971],[104.3271,0.3774,21.7236],[104.3248,0.3749,18.3374],[104.3201,0.3742,5.7271],[104.3188,0.3721,3.1291],[104.3202,0.3712,0.0]]],
[[[104.3211,0.3757,63.0774],[104.3215,0.3815,5.098],[104.3201,0.3846,56.7826],[104.314,0.3858,0.0],[104.3137,0.3841,4.2025],[104.307,0.3843,4.3643],[104.3081,0.3815,18.7747],[104.3138,0.3789,0.0],[104.3134,0.3757,3.9028],[104.3162,0.3735,0.0],[104.3211,0.3757,63.0774]]],
[[[104.4259,0.3759,0.4514],[104.4252,0.3753,0.0],[104.4253,0.3749,0.0],[104.4261,0.3753,0.0],[104.4259,0.3759,0.4514]]],
[[[104.4328,0.3822,0.7151],[104.4302,0.3851,2.2653],[104.4252,0.385,0.4149],[104.4227,0.3831,0.9651],[104.4135,0.3826,0.2547],[104.4091,0.3786,3.178],[104.4105,0.3741,0.1682],[104.414,0.3721,3.3664],[104.4169,0.3726,4.8851],[104.417,0.3757,3.1427],[104.4242,0.3753,0.0],[104.4264,0.3776,4.2062],[104.4324,0.3729,3.3684],[104.4346,0.3727,8.0347],[104.4357,0.3759,0.0],[104.4328,0.3822,0.7151]]],
[[[104.334,0.3735,29.8043],[104.3318,0.3763,0.0],[104.3285,0.3753,19.6876],[104.3287,0.3675,3.4265],[104.3375,0.3578,0.0],[104.348,0.3491,5.7034],[104.3518,0.3487,4.7685],[104.3546,0.3447,0.0],[104.3537,0.3434,0.2553],[104.3463,0.344,0.4117],[104.3386,0.3408,0.0],[104.338,0.339,0.0],[104.3503,0.3185,0.6357],[104.3542,0.3137,0.0],[104.3589,0.3123,2.7469],[104.3654,0.3141,8.3813],[104.3671,0.3125,55.7602],[104.3656,0.3127,8.1941],[104.3665,0.3094,0.0],[104.376,0.3122,0.2321],[104.3764,0.3141,0.2023],[104.3737,0.3174,2.6874],[104.3757,0.3182,0.2033],[104.3777,0.3168,0.0982],[104.3789,0.3121,2.1864],[104.3813,0.3109,1.8044],[104.3782,0.3062,1.4912],[104.3809,0.3032,1.6558],[104.3794,0.3032,0.0],[104.3791,0.3006,0.7545],[104.3827,0.2967,0.0],[104.3833,0.2999,0.957],[104.386,0.2996,0.7948],[104.3871,0.302,0.0],[104.3863,0.306,1.4564],[104.3899,0.3095,9.9493],[104.3887,0.3046,0.9602],[104.3917,0.3046,3.8033],[104.3892,0.3023,0.3399],[104.3892,0.3004,0.0],[104.3947,0.3021,5.0035],[104.3907,0.2982,2.7415],[104.3926,0.2962,4.2262],[104.39,0.2956,0.0],[104.3906,0.2896,0.0],[104.3925,0.2901,3.4878],[104.3929,0.288,0.0],[104.3946,0.2905,0.4149],[104.394,0.2924,2.6127],[104.3955,0.293,1.9844],[104.3965,0.2907,0.4149],[104.3976,0.2911,2.1125],[104.3972,0.2964,2.1619],[104.3986,0.2977,6.0739],[104.4003,0.2915,0.0],[104.4016,0.2937,0.9478],[104.4025,0.2927,0.9478],[104.4063,0.2937,0.0],[104.4067,0.2965,5.4772],[104.4116,0.2936,0.0],[104.4208,0.2988,1.2636],[104.4181,0.3011,0.2711],[104.4138,0.3007,2.7385],[104.4107,0.309,0.6936],[104.4083,0.3071,2.819],[104.4026,0.3119,4.0595],[104.4004,0.3112,12.2706],[104.3967,0.3133,4.4519],[104.3974,0.3154,1.7572],[104.3995,0.3145,0.0],[104.4033,0.3165,4.6895],[104.4045,0.3144,0.8554],[104.4063,0.3154,1.2455],[104.4093,0.3133,0.0],[104.4129,0.3154,2.5908],[104.412,0.3126,2.2311],[104.4168,0.3115,0.0],[104.4212,0.3081,0.0],[104.4271,0.3088,5.9016],[104.4296,0.3073,5.5475],[104.4342,0.3074,11.1224],[104.4347,0.3098,17.7446],[104.433,0.3122,7.3948],[104.423,0.3187,8.9136],[104.4217,0.3256,2.3322],[104.4245,0.3258,7.3138],[104.4245,0.3271,0.0],[104.4166,0.3315,31.5457],[104.4048,0.3338,0.0],[104.4028,0.3364,0.0],[104.3954,0.3369,8.4227],[104.3947,0.3411,0.0],[104.3914,0.3416,7.7422],[104.38,0.3483,21.968],[104.3764,0.3483,7.3839],[104.3752,0.3496,0.8875],[104.3689,0.3481,1.7992],[104.3648,0.3506,0.0],[104.3644,0.3525,2.8708],[104.3716,0.3499,0.0],[104.3728,0.3511,3.4223],[104.3713,0.3554,5.4228],[104.3605,0.3591,30.9182],[104.3506,0.3658,2.2576],[104.3431,0.3677,0.0],[104.3408,0.3713,10.9832],[104.3363,0.3712,13.1665],[104.334,0.3735,29.8043]]],
[[[104.5175,0.4295,1.4755],[104.5138,0.4342,0.0],[104.5117,0.4283,0.0],[104.5171,0.4167,2.5939],[104.5165,0.4085,2.3612],[104.5218,0.4009,0.0],[104.5266,0.3815,3.9604],[104.5259,0.3722,0.0],[104.531,0.3622,17.8624],[104.5333,0.3608,0.0],[104.5375,0.3661,0.3153],[104.5338,0.3721,1.928],[104.5346,0.3756,0.0],[104.5325,0.3826,0.0],[104.5339,0.3869,0.0],[104.5318,0.3874,0.9009],[104.5346,0.3906,0.0],[104.5307,0.3947,0.0],[104.5293,0.4052,1.9199],[104.5345,0.409,0.0],[104.5344,0.4119,0.0],[104.5387,0.415,0.0],[104.5425,0.4152,0.0],[104.5507,0.4098,0.7572],[104.5598,0.4091,0.9098],[104.5624,0.412,0.9717],[104.5606,0.4145,3.4925],[104.5551,0.4137,4.2543],[104.55029999999999,0.4224,0.0],[104.548,0.4238,0.0],[104.5434,0.4215,5.4738],[104.5346,0.425,1.6492],[104.527,0.4231,2.121],[104.5213,0.4248,8.8716],[104.5173,0.4278,0.7117],[104.5175,0.4295,1.4755]]],
[[[104.3032,0.266,5.0841],[104.3007,0.268,5.2653],[104.2998,0.2678,0.0],[104.301,0.2656,3.5395],[104.3032,0.266,5.0841]]],
[[[104.487,0.2684,0.0],[104.487,0.2668,0.0],[104.4882,0.2694,0.0],[104.4872,0.2691,0.0],[104.487,0.2684,0.0]]],
[[[104.4074,0.2693,1.0002],[104.4061,0.2732,0.8311],[104.4042,0.2728,0.3169],[104.4029,0.2685,9.7605],[104.4054,0.2653,0.0],[104.4075,0.264,2.392],[104.411,0.2645,0.0],[104.4112,0.2674,0.0],[104.4074,0.2693,1.0002]]],
[[[104.4337,0.2684,1.7154],[104.4331,0.2683,0.0],[104.433,0.2674,0.0],[104.4335,0.2674,0.0],[104.4337,0.2684,1.7154]]],
[[[104.431,0.2681,0.9284],[104.4305,0.2681,0.9284],[104.4304,0.268,0.9284],[104.4308,0.2679,0.9284],[104.431,0.2681,0.9284]]],
[[[104.5005,0.2609,2.6357],[104.4939,0.2658,0.0],[104.4905,0.2674,0.0],[104.4888,0.2665,3.8063],[104.4941,0.2598,0.6165],[104.4984,0.2577,13.0467],[104.5021,0.2585,31.437],[104.5029,0.2595,4.9559],[104.5005,0.2609,2.6357]]],
[[[104.3778,0.2685,30.0401],[104.3748,0.2704,3.0024],[104.3732,0.2678,0.0],[104.3728,0.2554,0.0],[104.3752,0.2557,10.4905],[104.3771,0.2597,10.8335],[104.375,0.2625,11.1734],[104.3782,0.2651,0.0],[104.3778,0.2685,30.0401]]],
[[[104.3363,0.2653,0.0],[104.3373,0.2632,2.0718],[104.3391,0.2627,0.0],[104.335,0.2683,11.7996],[104.3363,0.2653,0.0]]],
[[[104.3571,0.2724,2.1655],[104.3532,0.2746,4.4695],[104.3507,0.2739,0.0],[104.3606,0.2644,1.2299],[104.3616,0.2616,0.244],[104.3652,0.2636,3.5897],[104.3662,0.2605,0.0],[104.3658,0.2681,0.0],[104.3632,0.2685,14.5665],[104.3639,0.2667,9.1683],[104.3616,0.2652,20.4684],[104.3625,0.2681,14.5665],[104.3571,0.2724,2.1655]]],
[[[104.483,0.2726,0.0],[104.4827,0.2725,0.0],[104.4827,0.2721,0.0],[104.4833,0.2722,0.0],[104.483,0.2726,0.0]]],
[[[104.4309,0.2684,0.9284],[104.4318,0.27,0.0],[104.4302,0.2709,1.6478],[104.4294,0.2699,0.0],[104.4309,0.2684,0.9284]]],
[[[104.3343,0.2692,8.8813],[104.3341,0.2697,8.8813],[104.3316,0.2713,1.9672],[104.3346,0.268,3.9529],[104.3343,0.2692,8.8813]]],
[[[104.4839,0.2702,0.0],[104.4833,0.27,0.0],[104.4833,0.2698,0.0],[104.4844,0.2698,0.0],[104.4839,0.2702,0.0]]],
[[[104.4491,0.2705,0.0],[104.4498,0.2705,0.0],[104.4498,0.2708,0.0],[104.4491,0.271,0.0],[104.4491,0.2705,0.0]]],
[[[104.4823,0.2713,0.0],[104.4821,0.2707,0.0],[104.4824,0.2703,0.0],[104.4828,0.2709,0.0],[104.4823,0.2713,0.0]]],
[[[104.3416,0.2758,0.0],[104.3271,0.282,0.0],[104.3297,0.2783,10.4194],[104.3435,0.267,0.9253],[104.3481,0.2671,22.6274],[104.3488,0.2726,0.0],[104.3458,0.2741,2.6785],[104.3477,0.2758,0.0],[104.3416,0.2758,0.0]]],
[[[104.3964,0.2764,0.1389],[104.3965,0.2738,1.1523],[104.392,0.278,1.7302],[104.3909,0.2773,1.7302],[104.3917,0.274,10.3672],[104.4015,0.2681,0.0],[104.4006,0.2721,0.0],[104.3987,0.2733,0.0],[104.3993,0.2757,0.0],[104.3964,0.2764,0.1389]]],
[[[104.448,0.2755,0.0],[104.4474,0.275,0.81],[104.4481,0.2744,0.0],[104.4482,0.2753,0.0],[104.448,0.2755,0.0]]],
[[[104.4238,0.2749,11.1247],[104.4208,0.2765,10.7514],[104.4189,0.274,2.6126],[104.4245,0.2733,0.0],[104.4238,0.2749,11.1247]]],
[[[104.3542,0.3098,4.4011],[104.344,0.3137,12.0893],[104.3432,0.3161,0.0],[104.3373,0.3189,28.0468],[104.333,0.3235,9.3954],[104.3288,0.3252,8.3485],[104.3278,0.3275,2.0894],[104.3254,0.3273,0.0],[104.3231,0.3164,15.6853],[104.3285,0.3059,0.0],[104.332,0.3014,0.0],[104.3357,0.2998,0.0],[104.3378,0.3031,0.0],[104.3398,0.303,0.4993],[104.3442,0.2933,0.0],[104.3492,0.2918,7.2334],[104.3509,0.2885,0.0],[104.3551,0.289,0.4515],[104.3517,0.284,4.5844],[104.3548,0.2788,0.0],[104.364,0.2737,0.0],[104.3658,0.2743,0.0],[104.3666,0.2796,0.0],[104.3753,0.2796,4.178],[104.3866,0.274,0.0],[104.3836,0.2783,0.591],[104.3752,0.2838,6.3073],[104.3864,0.2785,0.0],[104.3901,0.2816,4.0511],[104.3882,0.283,0.7097],[104.3866,0.2816,4.8993],[104.3809,0.2846,6.7497],[104.38,0.2866,14.3533],[104.3829,0.2865,1.5566],[104.3833,0.2892,0.0],[104.382,0.2903,2.116],[104.3796,0.2897,0.2947],[104.3793,0.2876,1.7495],[104.3777,0.2884,9.3753],[104.3763,0.2903,1.8585],[104.3787,0.2905,0.0],[104.3775,0.2937,6.4314],[104.3747,0.2924,3.3844],[104.3745,0.2943,0.0],[104.3732,0.2924,1.7472],[104.37,0.2937,7.9175],[104.3733,0.2972,3.6888],[104.3725,0.3009,0.3883],[104.3708,0.3,3.4373],[104.3679,0.3025,0.7292],[104.3687,0.3059,0.0],[104.3627,0.3059,1.339],[104.3542,0.3098,4.4011]]],
[[[104.3369,0.1095,3.8686],[104.3369,0.1293,0.0],[104.3315,0.1333,16.484],[104.3187,0.1483,14.9501],[104.3128,0.1521,0.0],[104.2919,0.1758,7.218],[104.2904,0.1758,1.7803],[104.2897,0.1738,3.6856],[104.2956,0.1652,0.0],[104.2993,0.156,0.0],[104.2998,0.1486,1.4896],[104.2917,0.1429,0.0],[104.2976,0.1397,0.0],[104.2968,0.1365,3.7933],[104.3015,0.1325,0.0],[104.302,0.1295,20.7591],[104.2993,0.1281,0.0],[104.3081,0.1251,0.0],[104.3091,0.1318,1.9928],[104.3133,0.1333,0.507],[104.3155,0.1315,1.0189],[104.3231,0.1137,0.1543],[104.3261,0.1144,0.0],[104.3263,0.1115,0.7186],[104.3239,0.1085,0.0],[104.3248,0.1065,9.8632],[104.3361,0.106,12.5404],[104.3369,0.1095,3.8686]]],
[[[104.4958,0.166,0.709],[104.494,0.1659,0.6792],[104.4939,0.1597,0.3408],[104.4984,0.159,2.1751],[104.5016,0.1608,1.2978],[104.4999,0.1652,4.5781],[104.4958,0.166,0.709]]],
[[[104.3715,0.164,0.0],[104.3741,0.1586,5.1087],[104.3731,0.158,14.4827],[104.3685,0.1628,3.6661],[104.3647,0.1612,0.9021],[104.3638,0.1636,0.5135],[104.365,0.1663,0.8615],[104.3623,0.1717,7.3967],[104.3553,0.1779,1.5978],[104.3506,0.1894,1.334],[104.3492,0.1891,1.334],[104.349,0.1863,0.0917],[104.346,0.1861,0.0],[104.3459,0.1803,0.0],[104.3528,0.1719,0.0],[104.3534,0.1687,0.0],[104.3603,0.1577,6.9401],[104.3694,0.1471,8.9659],[104.3767,0.134,0.0],[104.3797,0.1322,4.3822],[104.3811,0.1356,3.9911],[104.3917,0.1164,3.5938],[104.3947,0.114,14.9572],[104.3962,0.1152,14.9572],[104.395,0.1187,6.713],[104.3976,0.121,4.9627],[104.3943,0.1301,5.6003],[104.3919,0.1313,1.8333],[104.3893,0.1289,0.2703],[104.3879,0.1301,0.6378],[104.3919,0.1331,0.0],[104.3922,0.1354,0.0],[104.3903,0.1377,5.7451],[104.3874,0.137,2.238],[104.3877,0.1407,2.8082],[104.3835,0.1426,0.8626],[104.3844,0.1442,1.6334],[104.3877,0.144,2.3857],[104.3807,0.1568,11.5593],[104.3745,0.1647,0.4777],[104.3715,0.164,0.0]]],
[[[104.4241,0.1571,1.1291],[104.4366,0.1455,6.6714],[104.4426,0.1468,2.7463],[104.4421,0.1498,3.1694],[104.4302,0.1595,3.8056],[104.4258,0.1595,9.3761],[104.4241,0.1571,1.1291]]],
[[[104.2923,0.1492,11.9219],[104.2935,0.1503,11.9219],[104.2923,0.1586,7.3258],[104.2817,0.1637,14.0253],[104.2777,0.1697,11.1596],[104.273,0.1688,0.0],[104.2756,0.166,0.8484],[104.2765,0.1606,0.0],[104.2795,0.1604,0.0],[104.281,0.1586,0.0],[104.2818,0.1543,7.9922],[104.2846,0.1542,13.3555],[104.2884,0.1514,4.3087],[104.2896,0.147,0.0],[104.2923,0.1492,11.9219]]],
[[[104.4605,0.1513,0.0],[104.4601,0.1548,10.335],[104.4565,0.1591,1.5154],[104.4516,0.1617,0.0],[104.4502,0.1594,3.8393],[104.451,0.1573,0.0],[104.4541,0.1576,2.5353],[104.4605,0.1513,0.0]]],
[[[104.4726,0.158,5.0275],[104.4736,0.1587,0.0],[104.4725,0.1604,8.1779],[104.4701,0.1608,2.6025],[104.4686,0.1558,0.0],[104.4719,0.1548,0.9524],[104.4726,0.158,5.0275]]],
[[[104.489,0.1649,1.0268],[104.4908,0.164,2.6134],[104.4927,0.166,2.5795],[104.4895,0.1664,3.0595],[104.489,0.1649,1.0268]]],
[[[104.371,0.1656,0.0],[104.3705,0.1656,0.0],[104.3704,0.165,0.0],[104.3711,0.1649,0.0],[104.371,0.1656,0.0]]],
[[[104.4652,0.1603,0.0],[104.4718,0.1611,2.4863],[104.476,0.1584,0.0],[104.4789,0.162,0.0],[104.4718,0.1673,0.0],[104.4696,0.1673,0.0],[104.4636,0.1648,0.7093],[104.463,0.1629,0.9057],[104.4652,0.1603,0.0]]],
[[[104.3845,0.1644,0.0],[104.3839,0.1641,1.5416],[104.384,0.1634,0.0],[104.3845,0.1634,0.0],[104.3845,0.1644,0.0]]],
[[[104.2559,0.169,0.0],[104.2554,0.168,0.2299],[104.2556,0.1671,0.2299],[104.2569,0.1683,0.0],[104.2559,0.169,0.0]]],
[[[104.4924,0.1671,0.1008],[104.4919,0.1675,0.1008],[104.4915,0.1674,0.1008],[104.4916,0.1668,2.5795],[104.4924,0.1671,0.1008]]],
[[[104.487,0.1678,0.0],[104.486,0.1678,0.0],[104.4868,0.1654,0.0],[104.4879,0.1656,2.1506],[104.487,0.1678,0.0]]],
[[[104.4832,0.161,1.2067],[104.4852,0.1727,1.3189],[104.4773,0.1728,8.1048],[104.4737,0.1674,0.0],[104.4764,0.1643,3.2019],[104.48,0.1653,0.8185],[104.4832,0.161,1.2067]]],
[[[104.4893,0.1667,3.0595],[104.4908,0.1669,3.0595],[104.4908,0.1677,0.8669],[104.489,0.1679,1.0938],[104.4893,0.1667,3.0595]]],
[[[104.3862,0.1673,4.6681],[104.3864,0.1711,0.0],[104.3807,0.1693,0.0],[104.3823,0.1641,1.5416],[104.3862,0.1673,4.6681]]],
[[[104.4607,0.1681,0.9594],[104.4614,0.1678,0.9594],[104.4617,0.1685,0.9594],[104.4609,0.1688,0.0],[104.4607,0.1681,0.9594]]],
[[[104.488,0.1712,2.855],[104.4949,0.1673,0.5881],[104.4961,0.1688,0.0],[104.4889,0.1766,4.4624],[104.485,0.178,1.4539],[104.488,0.1712,2.855]]],
[[[104.2682,0.1728,0.0],[104.2691,0.1728,0.0],[104.2699,0.174,0.0],[104.269,0.1741,0.0],[104.2682,0.1728,0.0]]],
[[[104.3634,0.1735,3.7729],[104.3637,0.1731,0.0],[104.3651,0.173,0.0],[104.3638,0.1743,0.0],[104.3634,0.1735,3.7729]]],
[[[104.4523,0.1725,0.0],[104.4498,0.1744,2.7137],[104.4474,0.1723,1.7872],[104.4477,0.1657,0.5772],[104.4523,0.1643,0.0],[104.4533,0.1682,0.0],[104.4523,0.1725,0.0]]],
[[[104.3668,0.1704,1.3201],[104.3664,0.1697,1.3201],[104.3676,0.1695,1.3201],[104.3675,0.1703,1.3201],[104.3668,0.1704,1.3201]]],
[[[104.4577,0.17,0.0],[104.458,0.1713,3.2412],[104.4572,0.1715,3.2412],[104.457,0.17,0.0],[104.4577,0.17,0.0]]],
[[[104.4631,0.1729,0.1978],[104.4622,0.1727,0.3935],[104.4624,0.1705,0.8831],[104.4638,0.1707,0.8831],[104.4631,0.1729,0.1978]]],
[[[104.3818,0.1731,0.0],[104.3805,0.1724,0.0],[104.3809,0.1716,0.0],[104.3825,0.1721,0.0],[104.3818,0.1731,0.0]]],
[[[104.4226,0.0766,0.0],[104.4276,0.0696,7.1223],[104.436,0.0652,21.5153],[104.4437,0.0497,0.0],[104.4607,0.0344,35.618],[104.4668,0.0261,0.0],[104.4692,0.0271,3.8922],[104.4718,0.0252,0.1692],[104.4808,0.0154,0.0],[104.4872,0.0163,4.0768],[104.4949,0.0144,2.9716],[104.4943,0.0203,9.5842],[104.4914,0.0227,0.0],[104.4912,0.0259,0.0],[104.486,0.0303,5.1551],[104.4844,0.0391,0.0],[104.4809,0.0357,2.5568],[104.4756,0.0342,0.838],[104.4773,0.043,0.9278],[104.4713,0.042,1.121],[104.472,0.0458,0.621],[104.4692,0.0504,4.1637],[104.4654,0.0512,1.0235],[104.4612,0.0619,0.7798],[104.4688,0.0555,4.9191],[104.4724,0.056,1.0353],[104.472,0.0599,0.8881],[104.4747,0.0549,0.0],[104.4767,0.0543,0.0],[104.4742,0.0529,0.0],[104.4751,0.0493,1.477],[104.4788,0.0478,1.3014],[104.4791,0.0461,0.6628],[104.4811,0.0471,2.0777],[104.483,0.0448,1.9919],[104.4865,0.0448,2.3299],[104.4879,0.0453,0.0],[104.4882,0.0502,0.8482],[104.4922,0.0585,5.5422],[104.4895,0.0627,0.6649],[104.4934,0.0658,1.0251],[104.4928,0.0714,1.1942],[104.4844,0.0781,5.4021],[104.4805,0.079,0.0],[104.4785,0.0757,0.7263],[104.4758,0.0762,1.7676],[104.4785,0.0856,5.4742],[104.4753,0.0898,0.2508],[104.474,0.0963,0.0],[104.4659,0.1025,0.0],[104.4614,0.1074,3.9229],[104.4614,0.1094,0.0],[104.4568,0.1128,1.8793],[104.4558,0.1091,0.0],[104.4418,0.1282,0.0],[104.4392,0.1306,0.6818],[104.4376,0.1293,2.3292],[104.4368,0.1327,1.6554],[104.4344,0.1354,3.0859],[104.4317,0.1355,0.0],[104.4297,0.1391,0.0],[104.4262,0.1405,0.0],[104.4245,0.1393,0.0],[104.4258,0.1423,0.0],[104.4235,0.1461,0.0],[104.4181,0.1462,23.671],[104.4171,0.151,0.0],[104.4065,0.1557,4.6151],[104.4068,0.1591,3.7406],[104.4026,0.162,3.8809],[104.3987,0.1576,1.0444],[104.4012,0.1501,7.9051],[104.3977,0.1522,0.0],[104.397,0.1505,3.6008],[104.3982,0.1479,0.0],[104.4022,0.1469,1.3467],[104.4041,0.1433,3.4072],[104.3987,0.1464,4.33],[104.3969,0.1444,0.0],[104.3975,0.1425,0.0],[104.4022,0.1349,0.0],[104.4034,0.1293,3.5496],[104.4048,0.1286,0.0],[104.4085,0.1328,5.1802],[104.4055,0.1271,0.0],[104.4082,0.1224,0.0],[104.4101,0.1224,0.7169],[104.4106,0.1248,1.7704],[104.4129,0.1244,1.9094],[104.4158,0.1231,0.0],[104.4145,0.1215,0.8514],[104.4155,0.1207,1.8777],[104.4192,0.1207,1.7285],[104.4244,0.1166,0.0],[104.4232,0.1156,1.9668],[104.4151,0.1185,1.8808],[104.4126,0.1161,0.0],[104.4226,0.1071,17.2761],[104.4271,0.1005,1.9152],[104.4273,0.0951,0.618],[104.432,0.0891,2.2391],[104.4268,0.0924,0.5607],[104.4236,0.0918,3.022],[104.4237,0.0968,1.1426],[104.421,0.1007,1.3587],[104.4113,0.1015,3.704],[104.414,0.1042,0.7428],[104.4055,0.1136,4.7779],[104.4013,0.1149,11.3937],[104.3995,0.1139,6.9839],[104.3998,0.1115,0.7672],[104.3929,0.1122,1.3797],[104.3818,0.1237,33.1401],[104.3794,0.1249,4.1527],[104.378,0.1238,4.1527],[104.4005,0.0917,5.8304],[104.4037,0.0893,10.0615],[104.4044,0.0922,5.0851],[104.4079,0.0937,3.0887],[104.4226,0.0766,0.0]]],
[[[104.5784,0.1778,0.0],[104.5565,0.2035,5.7982],[104.5481,0.2108,5.5173],[104.5463,0.2106,56.7533],[104.5451,0.2074,48.1468],[104.5436,0.2084,36.8042],[104.5431,0.2118,75.6677],[104.5449,0.2125,7.7944],[104.5444,0.214,19.5174],[104.5417,0.2145,56.9056],[104.5425,0.2162,23.7659],[104.5405,0.2194,34.5648],[104.5282,0.2337,46.3479],[104.5264,0.2334,46.3479],[104.5252,0.239,0.0],[104.5206,0.2416,9.6474],[104.5178,0.2461,9.1945],[104.5128,0.247,0.0],[104.5135,0.2407,0.0],[104.53,0.2135,5.4157],[104.5249,0.2183,1.1361],[104.5211,0.2172,0.0],[104.5161,0.2193,0.5142],[104.5168,0.2232,0.0],[104.5156,0.2252,0.9985],[104.5129,0.2249,1.609],[104.5117,0.2274,0.5821],[104.5095,0.2284,0.0],[104.5067,0.2265,1.448],[104.5071,0.2287,0.4377],[104.5029,0.2343,3.7417],[104.5017,0.2353,3.7417],[104.4995,0.2343,2.4497],[104.4985,0.2389,0.0],[104.4944,0.2372,1.2647],[104.4946,0.2418,7.5422],[104.4904,0.2452,3.2865],[104.4887,0.2457,2.2874],[104.4852,0.2433,17.8872],[104.4855,0.2411,17.8713],[104.4825,0.2372,47.743],[104.4786,0.2423,1.6667],[104.4766,0.2401,0.0],[104.4772,0.236,1.8789],[104.4791,0.2358,33.5762],[104.4796,0.2334,0.6426],[104.4882,0.2263,6.0411],[104.4934,0.2168,0.7182],[104.5027,0.211,1.9825],[104.5085,0.2035,0.0],[104.5161,0.1993,1.3906],[104.5215,0.1928,0.0],[104.5292,0.1886,1.1502],[104.5287,0.1852,2.9003],[104.5254,0.185,3.8856],[104.5196,0.1908,0.6029],[104.5112,0.1948,3.8158],[104.5065,0.1926,4.2028],[104.5061,0.1908,14.455],[104.5134,0.1833,0.0],[104.5174,0.1815,4.8356],[104.5179,0.1781,0.0],[104.5202,0.1766,27.1925],[104.5266,0.1644,5.1868],[104.5363,0.1516,0.0],[104.5427,0.1461,1.0371],[104.5436,0.1492,0.3874],[104.5382,0.157,22.9761],[104.5463,0.1494,1.0099],[104.5459,0.1553,26.0206],[104.5495,0.1543,0.0],[104.5501,0.1602,0.5504],[104.5463,0.1601,5.6707],[104.5436,0.1651,2.083],[104.5432,0.167,1.8179],[104.5453,0.1682,0.4422],[104.5532,0.1629,26.4641],[104.5538,0.1543,0.5282],[104.5569,0.146,0.0],[104.5648,0.1428,2.0452],[104.57,0.1424,6.7743],[104.568,0.1405,6.3698],[104.5692,0.1356,0.5665],[104.5646,0.1402,1.1989],[104.5602,0.1394,1.1263],[104.5549,0.1414,14.0458],[104.5493,0.1495,0.725],[104.5463,0.1465,0.0],[104.5459,0.1412,0.0],[104.555,0.1302,1.5527],[104.5543,0.126,1.8971],[104.5752,0.107,0.0],[104.5871,0.0976,1.9477],[104.5919,0.0961,0.0],[104.6034,0.082,0.0],[104.6079,0.0829,0.0],[104.6154,0.079,2.8822],[104.6184,0.081,10.4704],[104.6125,0.091,1.5786],[104.6078,0.0927,4.4441],[104.6049,0.0964,1.012],[104.6031,0.1014,1.3926],[104.6108,0.0934,0.4987],[104.6145,0.092,0.0],[104.6155,0.0939,1.2416],[104.6169,0.0888,3.3257],[104.6211,0.0876,0.0],[104.627,0.0944,5.244],[104.6262,0.0983,0.3341],[104.6283,0.0939,5.244],[104.627,0.0922,3.3709],[104.6297,0.0886,2.2202],[104.6253,0.0881,0.0],[104.6263,0.0852,0.0],[104.6294,0.0844,1.8352],[104.6272,0.0844,2.9077],[104.6272,0.0832,1.7323],[104.6294,0.0795,4.5155],[104.6346,0.0783,0.6181],[104.6334,0.0767,6.4568],[104.6248,0.0769,8.4449],[104.6214,0.0752,3.7403],[104.6376,0.0615,34.0767],[104.6448,0.0524,0.0],[104.6498,0.0507,10.1823],[104.6576,0.0405,0.9314],[104.6716,0.0286,0.0],[104.683,0.021,18.9936],[104.6922,0.0172,35.4595],[104.6963,0.0158,0.0],[104.7015,0.0182,0.0],[104.7017,0.0221,2.0642],[104.7097,0.0379,0.0],[104.7035,0.0479,1.2063],[104.6873,0.052,21.9557],[104.676,0.0653,3.7665],[104.6712,0.0665,4.6812],[104.6637,0.0738,0.0],[104.6503,0.0931,18.6939],[104.6309,0.1115,13.868],[104.6155,0.1327,5.6132],[104.6086,0.138,33.6047],[104.6096,0.1399,48.8789],[104.6083,0.1456,8.611],[104.6049,0.1509,0.0],[104.5917,0.1613,7.7637],[104.5854,0.1715,3.0818],[104.5784,0.1778,0.0]]],
[[[104.47,0.1746,2.7521],[104.4685,0.1761,0.6674],[104.4648,0.1746,2.7967],[104.4675,0.1725,3.4883],[104.47,0.1746,2.7521]]],
[[[104.2402,0.1834,9.6005],[104.2363,0.1872,3.7837],[104.2375,0.1947,26.6525],[104.2363,0.198,0.0],[104.2347,0.2001,9.4091],[104.2322,0.1987,37.7355],[104.2315,0.2006,0.0],[104.2293,0.2007,0.0],[104.2272,0.1973,0.0],[104.2233,0.1971,0.0],[104.2141,0.1921,0.0],[104.2133,0.1903,0.0],[104.2177,0.1848,14.9122],[104.2133,0.1843,0.0],[104.2123,0.1795,0.0],[104.207,0.1777,0.0],[104.2068,0.1739,0.1691],[104.2,0.1719,2.9029],[104.2007,0.1667,0.0],[104.2056,0.1666,0.0],[104.2101,0.1632,0.0],[104.2156,0.1656,14.5893],[104.2194,0.1642,2.9531],[104.22,0.1605,0.0],[104.224,0.1582,29.3925],[104.2255,0.1552,0.0],[104.2297,0.1554,0.0],[104.2299,0.1612,5.4877],[104.2395,0.1677,17.5363],[104.241,0.1716,18.0187],[104.2414,0.1808,18.7698],[104.2402,0.1834,9.6005]]],
[[[104.2643,0.1741,0.0],[104.2641,0.1751,0.0],[104.2634,0.175,0.0],[104.2634,0.1747,0.0],[104.2643,0.1741,0.0]]],
[[[104.483,0.1812,1.3307],[104.4803,0.1842,0.5706],[104.4756,0.1841,0.0],[104.4766,0.18,0.0],[104.483,0.1793,1.1597],[104.483,0.1812,1.3307]]],
[[[104.4749,0.1735,8.3102],[104.4754,0.1751,8.6082],[104.4725,0.1763,9.9266],[104.4732,0.178,0.0],[104.4705,0.178,0.277],[104.4698,0.1764,0.7717],[104.4718,0.1722,4.9779],[104.4749,0.1735,8.3102]]],
[[[104.2508,0.175,20.422],[104.2486,0.1729,0.0],[104.2539,0.1696,12.2208],[104.2566,0.1726,4.3691],[104.2567,0.182,3.8191],[104.254,0.1821,0.0],[104.2508,0.175,20.422]]],
[[[104.2667,0.1824,0.0],[104.2655,0.1775,0.0],[104.2683,0.1769,0.0],[104.2678,0.1822,2.5072],[104.2667,0.1824,0.0]]],
[[[104.4055,0.1818,3.3531],[104.4165,0.1653,0.0],[104.4194,0.1635,1.4485],[104.4195,0.1661,0.0],[104.4159,0.172,18.5591],[104.4059,0.1839,0.0],[104.4055,0.1818,3.3531]]],
[[[104.3853,0.1772,0.0],[104.3855,0.1786,0.0],[104.3838,0.1776,0.0],[104.3846,0.1754,0.0],[104.3853,0.1764,0.5187],[104.3853,0.1772,0.0]]],
[[[104.2841,0.1819,0.0],[104.2857,0.1803,0.0],[104.2837,0.185,0.0],[104.2832,0.1844,0.0],[104.2841,0.1819,0.0]]],
[[[104.3568,0.1815,0.0],[104.3563,0.1811,0.0],[104.3571,0.1807,0.0],[104.3572,0.1811,0.0],[104.3568,0.1815,0.0]]],
[[[104.453,0.1803,0.0],[104.4567,0.1795,0.251],[104.4587,0.1825,2.4935],[104.4558,0.182,1.1892],[104.4531,0.1839,0.0],[104.453,0.1803,0.0]]],
[[[104.4043,0.1811,1.4487],[104.4034,0.1828,1.8615],[104.4026,0.1787,0.0],[104.4043,0.1781,1.9185],[104.405,0.18,0.0],[104.4043,0.1811,1.4487]]],
[[[104.3766,0.1801,0.0],[104.378,0.18,0.0],[104.3783,0.1806,0.0],[104.3773,0.1809,0.0],[104.3766,0.1801,0.0]]],
[[[104.3652,0.1862,5.1863],[104.3627,0.1895,2.9207],[104.3624,0.1848,1.4893],[104.3668,0.1773,1.476],[104.367,0.1794,4.8307],[104.37,0.1806,0.0],[104.37,0.1845,0.0],[104.368,0.1865,1.7743],[104.3652,0.1862,5.1863]]],
[[[104.4473,0.188,1.4162],[104.4444,0.1886,1.5787],[104.4425,0.1868,2.0766],[104.449,0.1783,1.1254],[104.4509,0.1801,4.4522],[104.4502,0.1819,0.7354],[104.4513,0.1832,7.1626],[104.4473,0.188,1.4162]]],
[[[104.2577,0.1866,0.0],[104.2575,0.1853,0.0],[104.258,0.185,0.0],[104.2588,0.1865,0.0],[104.2577,0.1866,0.0]]],
[[[104.2562,0.1909,0.0],[104.2567,0.1892,0.8256],[104.2576,0.1893,0.8256],[104.2577,0.1915,4.3899],[104.2562,0.1909,0.0]]],
[[[104.4679,0.1914,1.0742],[104.4681,0.193,1.0788],[104.4659,0.1935,2.1018],[104.4616,0.1923,2.0327],[104.4626,0.1907,1.9883],[104.4679,0.1914,1.0742]]],
[[[104.394,0.1939,0.0],[104.3935,0.1926,2.3107],[104.3938,0.1923,2.3107],[104.3948,0.1931,0.0],[104.394,0.1939,0.0]]],
[[[104.3775,0.1897,0.0],[104.3771,0.1884,0.0],[104.3777,0.188,0.0],[104.378,0.1892,0.0],[104.3775,0.1897,0.0]]],
[[[104.3688,0.1879,1.3334],[104.3695,0.1879,1.3334],[104.3699,0.1883,0.0],[104.3688,0.1885,1.3334],[104.3688,0.1879,1.3334]]],
[[[104.3687,0.1916,0.8369],[104.3685,0.1907,0.8369],[104.3696,0.1908,0.8369],[104.3696,0.1914,0.8369],[104.3687,0.1916,0.8369]]],
[[[104.3664,0.1905,0.0],[104.3661,0.1895,0.0],[104.3666,0.1894,0.0],[104.3669,0.1898,0.0],[104.3664,0.1905,0.0]]],
[[[104.3725,0.1913,1.5601],[104.3721,0.1908,1.5601],[104.373,0.1904,0.0],[104.3731,0.191,1.5601],[104.3725,0.1913,1.5601]]],
[[[104.3713,0.19,0.0],[104.3708,0.1905,0.0],[104.3698,0.1904,0.0],[104.3704,0.1897,0.0],[104.3713,0.19,0.0]]],
[[[104.4854,0.2091,4.786],[104.4886,0.2058,5.4481],[104.4916,0.2051,0.0],[104.4911,0.207,3.1617],[104.4851,0.2103,4.786],[104.4854,0.2091,4.786]]],
[[[104.3187,0.2148,0.2792],[104.3193,0.2151,0.2792],[104.3156,0.2198,3.0218],[104.3169,0.215,3.9412],[104.3187,0.2148,0.2792]]],
[[[104.3195,0.2134,0.0],[104.32,0.2117,0.0],[104.3218,0.2128,0.0],[104.3203,0.2143,0.2792],[104.3195,0.2134,0.0]]],
[[[104.513,0.2378,0.0],[104.5126,0.2309,0.0],[104.5169,0.2299,0.0],[104.5166,0.2349,0.6529],[104.513,0.2378,0.0]]],
[[[104.4768,0.2257,0.5548],[104.4763,0.2252,0.0],[104.4777,0.2259,0.5548],[104.4772,0.2264,0.5548],[104.4768,0.2257,0.5548]]],
[[[104.353,0.2385,0.0],[104.3533,0.2371,0.0],[104.3544,0.2366,0.0],[104.354,0.2393,1.7807],[104.353,0.2385,0.0]]],
[[[104.3296,0.2137,6.2696],[104.3321,0.2121,1.7246],[104.3244,0.2227,0.0],[104.3279,0.2154,0.0],[104.3296,0.2137,6.2696]]],
[[[104.3735,0.2142,10.1246],[104.3596,0.2244,1.682],[104.3662,0.2166,0.324],[104.3719,0.2131,1.2441],[104.3735,0.2142,10.1246]]],
[[[104.3888,0.2188,0.0],[104.3847,0.2232,0.4978],[104.3863,0.2183,9.9917],[104.3889,0.2163,6.0321],[104.3888,0.2188,0.0]]],
[[[104.4679,0.2249,0.0],[104.4713,0.2238,0.0],[104.4702,0.2265,5.0983],[104.4611,0.232,0.7095],[104.4595,0.2312,0.0],[104.4603,0.2298,0.0],[104.4679,0.2249,0.0]]],
[[[104.3286,0.2473,0.0],[104.3279,0.2476,0.0],[104.3271,0.2474,0.0],[104.3278,0.2467,0.0],[104.3286,0.2473,0.0]]],
[[[104.4489,0.2495,1.8064],[104.4459,0.2495,0.9376],[104.4459,0.2483,0.8442],[104.4527,0.2464,1.1177],[104.4528,0.2473,0.0],[104.4489,0.2495,1.8064]]],
[[[104.4477,0.2463,8.4269],[104.444,0.2483,0.8442],[104.4402,0.2466,7.8438],[104.4505,0.2388,2.8894],[104.4457,0.2369,0.0],[104.4473,0.2348,1.308],[104.4543,0.233,0.0],[104.4588,0.235,0.1892],[104.4645,0.2308,9.3706],[104.4742,0.2278,1.6328],[104.4654,0.2371,0.0],[104.464,0.2365,15.8633],[104.4597,0.2397,11.023],[104.459,0.2429,0.3098],[104.4566,0.2425,0.7987],[104.4547,0.2464,0.0],[104.453,0.2452,3.3623],[104.4477,0.2463,8.4269]]],
[[[104.4394,0.2487,9.6068],[104.4346,0.2505,1.4124],[104.439,0.246,4.6308],[104.4406,0.2481,2.673],[104.4396,0.2497,0.0],[104.4394,0.2487,9.6068]]],
[[[104.4803,0.2503,6.9346],[104.4777,0.2533,0.0],[104.4754,0.2506,4.2001],[104.4792,0.245,0.0],[104.4824,0.2475,4.3648],[104.4803,0.2503,6.9346]]],
[[[104.3744,0.2078,0.0],[104.3743,0.2073,0.0],[104.3755,0.2074,0.0],[104.3752,0.2079,0.0],[104.3744,0.2078,0.0]]],
[[[104.3797,0.2032,0.0],[104.3794,0.2031,0.0],[104.3793,0.2027,0.0],[104.3798,0.2026,0.0],[104.3797,0.2032,0.0]]],
[[[104.3816,0.2083,20.5379],[104.3776,0.2112,1.9788],[104.3744,0.2106,0.0],[104.3874,0.2008,3.3691],[104.3858,0.2036,14.4099],[104.3816,0.2083,20.5379]]],
[[[104.3892,0.1991,0.0],[104.3892,0.1985,0.0],[104.3904,0.1978,0.0],[104.3903,0.1986,0.0],[104.3892,0.1991,0.0]]],
[[[104.3336,0.2059,1.236],[104.3312,0.2075,3.5028],[104.3315,0.2031,38.1743],[104.3372,0.1898,7.8183],[104.3377,0.1831,0.0],[104.3424,0.1763,0.0],[104.3434,0.1788,0.0],[104.3422,0.1848,2.7614],[104.3336,0.2059,1.236]]],
[[[104.3445,0.1969,12.6982],[104.3423,0.2032,2.7958],[104.344,0.1883,4.6204],[104.3456,0.1878,13.0633],[104.3462,0.1895,19.965699999999998],[104.3445,0.1969,12.6982]]],
[[[104.3931,0.2102,1.4935],[104.3944,0.2093,1.4935],[104.3919,0.2146,0.0],[104.3918,0.2138,0.0],[104.3931,0.2102,1.4935]]],
[[[104.4839,0.2219,2.7544],[104.4836,0.2234,1.7595],[104.4764,0.2236,0.0],[104.4823,0.2116,0.3355],[104.4839,0.2105,3.1043],[104.4835,0.2133,2.098],[104.486,0.2134,3.1521],[104.4913,0.2073,14.7832],[104.4925,0.2051,0.0],[104.5047,0.1969,0.0],[104.5036,0.2022,0.2624],[104.4967,0.2117,4.0839],[104.4911,0.214,8.0266],[104.4864,0.22,8.6149],[104.4837,0.2177,2.659],[104.4821,0.2205,15.7888],[104.4839,0.2219,2.7544]]],
[[[104.4137,0.2174,0.0],[104.4105,0.2183,0.9108],[104.4069,0.2133,1.468],[104.4104,0.211,3.3243],[104.4145,0.2113,2.1672],[104.4158,0.2146,0.3173],[104.4137,0.2174,0.0]]]]}}