{"type":"Feature","properties":{"GID_3":"IDN.9.12.21_1","GID_0":"IDN","country":"Indonesia","GID_1":"IDN.9_1","province":"JawaBarat","NL_NAME_1":"NA","GID_2":"IDN.9.12_1","county":"Indramayu","NL_NAME_2":"NA","city":"Lohbener","VARNAME_3":"NA","NL_NAME_3":"NA","TYPE_3":"Kecamatan","ENGTYPE_3":"Sub-district","CC_3":"3212170","HASC_3":"NA","name":"Lohbener.city"},
"geometry":{"type": "MultiPolygon","coordinates": [[[[108.2905,-6.4267,10.8907],[108.2881,-6.4248,11.4107],[108.2858,-6.4189,11.8521],[108.2877,-6.4171,9.5788],[108.2939,-6.4175,9.8677],[108.2937,-6.4156,8.8822],[108.2992,-6.4119,10.2847],[108.2998,-6.41,10.9794],[108.2924,-6.4131,9.4002],[108.2855,-6.4096,9.3145],[108.2868,-6.4071,7.7454],[108.2934,-6.4085,9.4503],[108.292,-6.4019,5.3456],[108.2882,-6.3959,6.9282],[108.2931,-6.3849,3.5615],[108.2978,-6.3823,8.2418],[108.2978,-6.3791,8.3389],[108.2916,-6.3758,6.5176],[108.2964,-6.371,7.2009],[108.2959,-6.3684,8.4603],[108.293,-6.3674,4.1595],[108.2923,-6.3614,4.0203],[108.2883,-6.3621,3.4747],[108.2888,-6.3686,6.1038],[108.2838,-6.3733,3.3018],[108.2841,-6.3776,3.6142],[108.2822,-6.3817,2.9885],[108.2756,-6.3805,2.7424],[108.2756,-6.3847,3.3389],[108.2703,-6.3859,3.6606],[108.2656,-6.3827,5.1452],[108.2609,-6.3889,2.5522],[108.2601,-6.3929,2.4583],[108.259,-6.3899,2.4496],[108.2516,-6.3917,2.3005],[108.2422,-6.3842,1.7928],[108.2421,-6.3822,1.7421],[108.2339,-6.3796,1.1562],[108.2334,-6.3745,1.3502],[108.2197,-6.3743,0.64],[108.2182,-6.3705,0.599],[108.2134,-6.37,0.5],[108.2129,-6.3661,0.5],[108.2087,-6.3675,0.5],[108.2156,-6.375,0.5],[108.2174,-6.3803,0.5],[108.2201,-6.3818,0.6242],[108.2199,-6.3861,1.1686],[108.2215,-6.3883,1.3698],[108.2181,-6.3937,1.414],[108.2159,-6.3921,3.6942],[108.2144,-6.3929,3.4057],[108.213,-6.3966,1.7378],[108.2106,-6.3949,2.4679],[108.2028,-6.3978,4.2005],[108.2049,-6.3982,3.4012],[108.2057,-6.4001,2.1546],[108.204,-6.4017,2.1358],[108.2086,-6.4063,2.5363],[108.2117,-6.404,2.9027],[108.2098,-6.4082,4.0878],[108.2118,-6.4118,2.5167],[108.2168,-6.4079,5.0801],[108.2194,-6.4108,3.9006],[108.2208,-6.4085,5.2146],[108.228,-6.4098,5.5183],[108.2267,-6.4146,6.3787],[108.2279,-6.4171,6.251],[108.2243,-6.4171,6.111],[108.2256,-6.422,6.4675],[108.2421,-6.4123,6.7072],[108.2468,-6.4129,6.0934],[108.2508,-6.4097,3.7878],[108.2551,-6.4117,4.092],[108.2559,-6.4137,5.3285],[108.254,-6.4186,8.3451],[108.2577,-6.4213,7.221],[108.259,-6.4259,6.1721],[108.263,-6.4262,5.0853],[108.2639,-6.4226,6.1844],[108.2703,-6.4198,9.0525],[108.2734,-6.4231,8.5491],[108.274,-6.4269,9.3319],[108.276,-6.4262,5.9628],[108.2779,-6.428,10.2504],[108.2859,-6.4269,9.0877],[108.2866,-6.4292,11.5226],[108.29,-6.4307,10.7702],[108.2914,-6.4387,14.19],[108.2942,-6.4398,14.3272],[108.2967,-6.4322,6.3053],[108.2934,-6.4202,12.3079],[108.2917,-6.4212,12.1146],[108.2905,-6.4267,10.8907]]]]}}