{"type":"Feature","properties":{"GID_3":"IDN.17.4.28_1","GID_0":"IDN","country":"Indonesia","GID_1":"IDN.17_1","province":"Lampung","NL_NAME_1":"NA","GID_2":"IDN.17.4_1","county":"LampungTengah","NL_NAME_2":"NA","city":"WaySeputih","VARNAME_3":"NA","NL_NAME_3":"NA","TYPE_3":"Kecamatan","ENGTYPE_3":"Sub-district","CC_3":"1805111","HASC_3":"NA","name":"Way_Seputih.city"},
"geometry":{"type": "MultiPolygon","coordinates": [[[[105.4955,-4.8233,30.5588],[105.5001,-4.8173,29.6377],[105.4999,-4.8138,31.0747],[105.4987,-4.8142,29.2293],[105.4939,-4.8072,21.2317],[105.4976,-4.8005,23.9822],[105.4952,-4.7993,23.4294],[105.4962,-4.7959,23.3619],[105.4946,-4.7958,14.9782],[105.4939,-4.792,15.6784],[105.5012,-4.785,14.595],[105.5022,-4.7822,14.3095],[105.5106,-4.7805,31.826],[105.5164,-4.7764,33.491],[105.5158,-4.7552,14.7518],[105.5055,-4.7426,13.1089],[105.5033,-4.7324,7.2066],[105.4976,-4.7322,7.7617],[105.4968,-4.7338,7.1068],[105.4987,-4.736,6.8917],[105.4946,-4.7363,8.325],[105.4983,-4.7402,10.1092],[105.4968,-4.7406,5.089],[105.4957,-4.7442,8.1204],[105.4968,-4.7469,9.664],[105.4957,-4.7537,16.5813],[105.4991,-4.7687,20.6132],[105.4954,-4.7802,21.4479],[105.4881,-4.7862,21.955],[105.482,-4.7887,25.3795],[105.48,-4.7877,32.594],[105.4735,-4.7805,19.7447],[105.4683,-4.7786,10.2317],[105.4681,-4.774,8.2423],[105.4574,-4.776,11.1939],[105.4567,-4.7788,8.2223],[105.452,-4.7816,10.0179],[105.4517,-4.779,9.3438],[105.4497,-4.7798,11.0359],[105.4461,-4.7769,9.9394],[105.4451,-4.7788,7.2466],[105.4429,-4.7777,11.7831],[105.4417,-4.7792,8.0896],[105.4387,-4.7792,13.3929],[105.4352,-4.7855,8.452],[105.4325,-4.7843,11.6232],[105.4315,-4.7855,9.3765],[105.4232,-4.7856,10.7703],[105.4243,-4.7876,8.7518],[105.4207,-4.7898,8.9403],[105.4202,-4.7921,9.5215],[105.418,-4.7875,11.9406],[105.4166,-4.7911,10.1486],[105.415,-4.7899,9.8629],[105.409,-4.7908,10.3279],[105.408,-4.7917,11.5201],[105.4092,-4.7933,12.2677],[105.4073,-4.7946,11.3167],[105.3988,-4.796,13.0888],[105.4007,-4.8006,12.601],[105.3967,-4.8009,11.4271],[105.399,-4.8032,13.5483],[105.3951,-4.8026,15.2636],[105.3945,-4.8058,12.5431],[105.3903,-4.8054,13.5636],[105.3988,-4.8206,25.3861],[105.4113,-4.8317,25.4312],[105.4198,-4.831,23.3277],[105.4222,-4.8289,22.1615],[105.437,-4.8248,24.6671],[105.4383,-4.8202,21.9476],[105.4374,-4.8141,23.9886],[105.4307,-4.8083,21.7709],[105.4347,-4.8014,16.5501],[105.4377,-4.8003,14.6337],[105.4433,-4.7941,9.86],[105.4458,-4.7966,10.9691],[105.4464,-4.8033,20.9137],[105.4448,-4.8114,19.9058],[105.4464,-4.8136,20.9986],[105.4531,-4.8169,17.2674],[105.4578,-4.8145,19.6357],[105.4614,-4.8154,22.6741],[105.4597,-4.8183,22.7728],[105.4563,-4.8387,28.9889],[105.4533,-4.8411,28.2537],[105.4651,-4.8455,21.8307],[105.4811,-4.8415,28.0702],[105.4955,-4.8233,30.5588]]]]}}