{"type":"Feature","properties":{"GID_3":"IDN.12.10.1_1","GID_0":"IDN","country":"Indonesia","GID_1":"IDN.12_1","province":"KalimantanBarat","NL_NAME_1":"NA","GID_2":"IDN.12.10_1","county":"Sambas","NL_NAME_2":"NA","city":"Galing","VARNAME_3":"NA","NL_NAME_3":"NA","TYPE_3":"Kecamatan","ENGTYPE_3":"Sub-district","CC_3":"6101061","HASC_3":"NA","name":"Galing.city"},
"geometry":{"type": "MultiPolygon","coordinates": [[[[109.3645,1.4738,11.6501],[109.3729,1.4801,9.7302],[109.3865,1.4955,4.5948],[109.4022,1.5004,13.0244],[109.4109,1.5077,9.6361],[109.423,1.5081,14.1774],[109.442,1.5129,7.8737],[109.4551,1.5182,7.4201],[109.4612,1.5232,6.5571],[109.4661,1.5231,5.9574],[109.4646,1.5284,4.9994],[109.4568,1.5343,3.9272],[109.4536,1.5398,4.2823],[109.4509,1.5583,12.3732],[109.4509,1.58,15.7678],[109.4489,1.5947,15.2711],[109.4457,1.6059,10.1748],[109.4366,1.6226,15.9575],[109.4346,1.6388,26.81],[109.4368,1.6675,27.726],[109.4404,1.6786,53.1542],[109.4403,1.6866,56.654],[109.4437,1.6922,59.427],[109.4545,1.7031,186.3695],[109.4509,1.7193,224.0216],[109.4566,1.7304,260.1829],[109.4612,1.7343,325.3233],[109.458,1.7359,261.0358],[109.4519,1.7359,254.5986],[109.437,1.7395,221.763],[109.4272,1.7387,121.549],[109.4218,1.7366,82.2097],[109.4125,1.7384,114.7594],[109.4049,1.7419,218.2554],[109.4007,1.7352,141.464],[109.3923,1.7311,88.3197],[109.3848,1.7227,35.6708],[109.369,1.7155,109.2476],[109.3602,1.7039,68.5285],[109.3532,1.6982,29.5967],[109.3521,1.6938,20.9019],[109.3532,1.6814,15.4191],[109.3437,1.6729,4.0996],[109.3421,1.6672,4.964],[109.3344,1.6584,5.038],[109.3328,1.6539,9.5054],[109.3124,1.6469,2.9958],[109.2936,1.632,5.8746],[109.2862,1.628,5.9433],[109.2505,1.6116,7.4609],[109.2353,1.6063,5.5539],[109.2449,1.5926,16.4074],[109.2612,1.5768,4.8454],[109.2699,1.5535,6.7915],[109.2813,1.5465,3.6068],[109.2863,1.5394,15.8361],[109.2944,1.5108,3.2005],[109.2975,1.5047,16.6947],[109.3044,1.4972,5.0587],[109.3042,1.4922,7.7698],[109.3005,1.4899,6.6359],[109.2982,1.4795,1.0],[109.299,1.4651,5.3681],[109.3061,1.4654,3.4863],[109.3147,1.4625,27.8461],[109.3229,1.4624,14.5418],[109.3341,1.4656,9.3077],[109.3495,1.4729,10.701599999999999],[109.3645,1.4738,11.6501]]]]}}