{"type":"Feature","properties":{"GID_3":"IDN.21.17.5_1","GID_0":"IDN","country":"Indonesia","GID_1":"IDN.21_1","province":"NusaTenggaraTimur","NL_NAME_1":"NA","GID_2":"IDN.21.17_1","county":"SumbaBarat","NL_NAME_2":"NA","city":"TanaRighu","VARNAME_3":"NA","NL_NAME_3":"NA","TYPE_3":"Kecamatan","ENGTYPE_3":"Sub-district","CC_3":"5301072","HASC_3":"NA","name":"Tana_Righu.city"},
"geometry":{"type": "MultiPolygon","coordinates": [[[[119.4466,-9.5475,576.0406],[119.4529,-9.5353,567.0689],[119.4755,-9.5278,431.6208],[119.4729,-9.5204,397.4095],[119.4659,-9.5148,383.4711],[119.4579,-9.5029,294.3602],[119.4594,-9.5005,300.3724],[119.4643,-9.4993,303.7841],[119.4652,-9.4946,285.3009],[119.4557,-9.4841,213.1786],[119.4556,-9.4785,176.1709],[119.4506,-9.4773,157.6356],[119.4534,-9.4742,182.3617],[119.4563,-9.4741,165.1902],[119.4551,-9.4692,190.6097],[119.4501,-9.4684,148.5887],[119.4497,-9.464,163.822],[119.4434,-9.4654,112.3402],[119.4454,-9.4589,91.6308],[119.4437,-9.4564,114.9127],[119.4451,-9.4548,116.2131],[119.4417,-9.4543,81.8298],[119.443,-9.4524,120.6563],[119.4408,-9.45,84.6213],[119.4417,-9.4467,80.6177],[119.4394,-9.4475,57.9771],[119.4387,-9.4432,79.4506],[119.4366,-9.4444,53.8763],[119.4364,-9.442,51.9496],[119.4348,-9.4424,51.9496],[119.4363,-9.44,47.961],[119.4325,-9.4383,43.9077],[119.4332,-9.4355,57.0545],[119.4308,-9.4322,27.386],[119.4342,-9.4308,31.6782],[119.4327,-9.4293,53.1469],[119.4308,-9.4302,27.143],[119.4317,-9.4262,71.857],[119.4295,-9.4265,75.1322],[119.4265,-9.4236,20.8828],[119.4297,-9.4217,15.0686],[119.4278,-9.4206,26.7388],[119.4287,-9.4167,21.1147],[119.4267,-9.417,15.2704],[119.4212,-9.4124,63.5895],[119.4156,-9.3762,14.4618],[119.4164,-9.3743,2.2079],[119.4086,-9.3737,2.1168],[119.4022,-9.3767,5.0948],[119.3964,-9.3819,9.9931],[119.3908,-9.3831,9.7822],[119.3915,-9.3858,12.5336],[119.3948,-9.388,28.053],[119.3956,-9.3921,38.1735],[119.3805,-9.4138,65.1926],[119.3776,-9.4212,55.55],[119.3755,-9.4793,214.1458],[119.3772,-9.5032,352.8013],[119.3778,-9.5041,352.8013],[119.3832,-9.5014,325.6816],[119.3842,-9.5051,330.5271],[119.3871,-9.5046,339.3447],[119.3846,-9.5126,369.1722],[119.3919,-9.5204,486.2509],[119.3917,-9.5222,498.8763],[119.3953,-9.5247,501.6038],[119.3954,-9.5333,516.1532],[119.3929,-9.5406,504.1935],[119.3971,-9.546,605.5872],[119.4052,-9.5478,640.052],[119.408,-9.55,623.4481],[119.4136,-9.5624,701.8556],[119.4466,-9.5475,576.0406]]]]}}