{"type":"Feature","properties":{"GID_3":"IDN.10.33.14_1","GID_0":"IDN","country":"Indonesia","GID_1":"IDN.10_1","province":"JawaTengah","NL_NAME_1":"NA","GID_2":"IDN.10.33_1","county":"Temanggung","NL_NAME_2":"NA","city":"Pringsurat","VARNAME_3":"NA","NL_NAME_3":"NA","TYPE_3":"Kecamatan","ENGTYPE_3":"Sub-district","CC_3":"3323060","HASC_3":"NA","name":"Pringsurat.city"},
"geometry":{"type": "MultiPolygon","coordinates": [[[[110.2771,-7.3709,539.4671],[110.2914,-7.3616,554.4184],[110.2981,-7.3588,569.6255],[110.30029999999999,-7.3598,580.1042],[110.3001,-7.3587,568.5449],[110.3053,-7.3559,575.8245],[110.3167,-7.3526,593.3881],[110.316,-7.3515,600.6451],[110.3176,-7.3512,602.0353],[110.3248,-7.3415,613.4089],[110.3246,-7.3397,625.8469],[110.3192,-7.337,626.718],[110.3195,-7.3311,629.963],[110.3264,-7.3273,635.4326],[110.3281,-7.314,640.6782],[110.33,-7.3123,653.0328],[110.3255,-7.309,670.0188],[110.3181,-7.3123,660.1544],[110.314,-7.3098,679.3726],[110.3138,-7.3083,680.3511],[110.3175,-7.3048,712.5266],[110.3277,-7.3025,759.2491],[110.3271,-7.296,807.5648],[110.3214,-7.2871,887.2306],[110.3104,-7.2808,935.5073],[110.3117,-7.2799,937.1533],[110.3092,-7.2756,962.856],[110.3037,-7.2744,951.9539],[110.2954,-7.2681,950.2402],[110.2914,-7.273,914.7838],[110.2917,-7.2775,909.5121],[110.2901,-7.281,901.7931],[110.2959,-7.2879,869.4705],[110.2959,-7.2905,841.7802],[110.2898,-7.2977,783.4357],[110.2843,-7.2999,762.7438],[110.2823,-7.3031,715.3932],[110.2713,-7.3043,711.8379],[110.2668,-7.3085,700.7015],[110.2666,-7.312,649.6885],[110.2749,-7.3151,748.5499],[110.2763,-7.3193,727.0339],[110.2728,-7.326,660.2517],[110.2716,-7.3254,660.2517],[110.2689,-7.3277,633.0308],[110.2698,-7.3318,694.9917],[110.2606,-7.3367,579.4116],[110.2562,-7.3359,543.4561],[110.255,-7.339,565.8394],[110.2577,-7.3457,518.1897],[110.257,-7.3506,561.1141],[110.2545,-7.353,550.9487],[110.2532,-7.3516,526.8123],[110.2453,-7.3524,502.6893],[110.2445,-7.3512,506.0996],[110.2359,-7.3552,483.0807],[110.237,-7.3588,510.475],[110.2353,-7.3639,527.9832],[110.2385,-7.372,519.0251],[110.2491,-7.3692,643.6444],[110.2539,-7.3699,641.0922],[110.2565,-7.3732,612.9744],[110.2571,-7.3772,564.5059],[110.2629,-7.3809,542.5205],[110.2673,-7.3812,540.6223],[110.2704,-7.3794,538.1005],[110.2715,-7.375,534.712],[110.2771,-7.3709,539.4671]]]]}}