{"type":"Feature","properties":{"GID_3":"IDN.22.11.9_1","GID_0":"IDN","country":"Indonesia","GID_1":"IDN.22_1","province":"PapuaBarat","NL_NAME_1":"NA","GID_2":"IDN.22.11_1","county":"TelukWondama","NL_NAME_2":"NA","city":"SougJaya","VARNAME_3":"NA","NL_NAME_3":"NA","TYPE_3":"Distrik","ENGTYPE_3":"District","CC_3":"9103071","HASC_3":"NA","name":"Soug_Jaya.city"},
"geometry":{"type": "MultiPolygon","coordinates": [[[[134.1409,-1.9571,0.0],[134.1429,-1.9584,0.0],[134.1456,-1.958,0.0],[134.1447,-1.9551,12.2631],[134.1409,-1.9571,0.0]]],
[[[134.0053,-1.91,207.4873],[134.0188,-2.0049,146.9372],[134.0397,-2.0033,315.7632],[134.116,-1.9918,105.6835],[134.1416,-1.9909,0.0],[134.1401,-1.983,5.264],[134.1363,-1.9764,79.0842],[134.1384,-1.9664,5.3799],[134.1451,-1.9673,0.0],[134.1446,-1.9698,0.0],[134.1463,-1.972,13.4364],[134.1518,-1.9705,4.1633],[134.1537,-1.966,25.6441],[134.1528,-1.9634,25.0734],[134.1473,-1.9629,19.5699],[134.146,-1.9608,2.8328],[134.1416,-1.9606,5.3448],[134.1384,-1.9638,11.4069],[134.1345,-1.9568,96.1314],[134.1362,-1.9462,67.0749],[134.133,-1.9276,2.1441],[134.1278,-1.9135,23.4905],[134.121,-1.8853,3.0367],[134.1224,-1.8767,29.3179],[134.1206,-1.8752,16.9876],[134.1226,-1.8715,8.5918],[134.1216,-1.8643,0.0],[134.1198,-1.8628,0.8947],[134.118,-1.8637,0.0],[134.114,-1.8684,21.761],[134.1074,-1.8678,7.6024],[134.1064,-1.8632,6.32],[134.1017,-1.8621,47.5915],[134.1036,-1.8559,17.4998],[134.1024,-1.8538,4.1123],[134.1039,-1.852,20.4861],[134.1069,-1.852,4.411],[134.0996,-1.8339,10.8393],[134.1027,-1.8156,0.0],[134.0991,-1.8046,75.4832],[134.1008,-1.7969,56.8565],[134.0968,-1.7914,0.0],[134.099,-1.7832,22.4935],[134.0985,-1.7732,12.2856],[134.1001,-1.7669,81.7531],[134.0845,-1.7697,143.2106],[134.0448,-1.7685,496.6519],[134.0033,-1.7715,141.7486],[134.0058,-1.825,262.7732],[134.0058,-1.862,246.4369],[134.0031,-1.8621,198.0787],[134.0031,-1.8861,222.0788],[134.0053,-1.91,207.4873]]]]}}