{"type":"Feature","properties":{"GID_3":"IDN.28.2.2_1","GID_0":"IDN","country":"Indonesia","GID_1":"IDN.28_1","province":"SulawesiTenggara","NL_NAME_1":"NA","GID_2":"IDN.28.2_1","county":"Bombana","NL_NAME_2":"NA","city":"KabaenaSelatan","VARNAME_3":"NA","NL_NAME_3":"NA","TYPE_3":"Kecamatan","ENGTYPE_3":"Sub-district","CC_3":"7406012","HASC_3":"NA","name":"Kabaena_Selatan.city"},
"geometry":{"type": "MultiPolygon","coordinates": [[[[121.9574,-5.3674,468.5085],[121.9539,-5.3377,1001.8255],[121.927,-5.3273,1171.7098],[121.913,-5.3277,1022.5208],[121.9069,-5.326,1064.7185],[121.8881,-5.3174,965.1314],[121.8794,-5.3151,780.4185],[121.8659,-5.3049,332.2655],[121.864,-5.3019,388.1029],[121.8626,-5.2914,175.8019],[121.8566,-5.279,87.5506],[121.831,-5.2799,66.8784],[121.8072,-5.2863,3.4984],[121.8147,-5.2923,0.0],[121.8222,-5.2933,2.491],[121.8235,-5.2985,0.0],[121.8222,-5.2992,0.0],[121.8232,-5.3002,0.0],[121.8215,-5.3048,3.7982],[121.8251,-5.3169,0.0],[121.828,-5.3169,8.4291],[121.8271,-5.3185,0.0],[121.8293,-5.3172,8.4291],[121.831,-5.3185,0.0],[121.8287,-5.3227,0.0],[121.8303,-5.3254,0.0],[121.8342,-5.3283,20.0287],[121.8378,-5.3349,0.0],[121.8411,-5.3349,0.0],[121.8427,-5.3411,23.9162],[121.8453,-5.3444,1.2845],[121.8518,-5.3473,7.4484],[121.8547,-5.3506,2.495],[121.8541,-5.3519,0.0],[121.8596,-5.3607,0.0],[121.8576,-5.3653,0.0],[121.8635,-5.3692,11.1017],[121.8729,-5.3853,0.0],[121.8908,-5.3951,1.3244],[121.8908,-5.399,0.0],[121.8944,-5.3987,18.4026],[121.8996,-5.401,13.575],[121.9032,-5.4056,0.0],[121.9075,-5.4036,35.5398],[121.9107,-5.4046,0.0],[121.9127,-5.4027,3.292],[121.9127,-5.4001,6.2244],[121.916,-5.3991,8.2791],[121.916,-5.401,3.589],[121.9212,-5.4014,4.531],[121.9212,-5.4092,2.6823],[121.9228,-5.4102,11.6827],[121.9208,-5.4128,0.0],[121.9221,-5.4148,1.3148],[121.9218,-5.42,2.2203],[121.927,-5.4256,0.0],[121.9338,-5.4285,2.8968],[121.9332,-5.4308,0.9075],[121.9364,-5.4348,0.0],[121.9364,-5.437,0.0],[121.9384,-5.4374,0.0],[121.9394,-5.4357,14.9048],[121.9429,-5.4491,0.0],[121.9462,-5.4547,0.0],[121.9446,-5.456,0.0],[121.9446,-5.4596,0.0],[121.9426,-5.4599,0.0],[121.9426,-5.4668,0.0],[121.9452,-5.4679,21.6088],[121.9462,-5.4737,0.0],[121.9501,-5.4675,63.2569],[121.9527,-5.4564,52.0477],[121.9528,-5.4175,49.9977],[121.9584,-5.3841,392.5478],[121.9574,-5.3674,468.5085]]],
[[[121.8402,-5.3558,0.0],[121.8438,-5.3557,0.0],[121.8419,-5.3481,0.0],[121.8355,-5.3452,0.0],[121.8343,-5.3469,0.0],[121.835,-5.3495,0.0],[121.8402,-5.3558,0.0]]],
[[[121.8375,-5.3429,0.0],[121.838,-5.3409,0.0],[121.8365,-5.34,0.0],[121.8361,-5.3409,0.0],[121.8375,-5.3429,0.0]]],
[[[121.8327,-5.3332,0.0],[121.8311,-5.3319,0.0],[121.8311,-5.3348,0.0],[121.8323,-5.3352,0.0],[121.8327,-5.3332,0.0]]]]}}