{"type":"Feature","properties":{"GID_3":"IDN.9.2.5_1","GID_0":"IDN","country":"Indonesia","GID_1":"IDN.9_1","province":"JawaBarat","NL_NAME_1":"NA","GID_2":"IDN.9.2_1","county":"Bandung","NL_NAME_2":"NA","city":"Cangkuang","VARNAME_3":"NA","NL_NAME_3":"NA","TYPE_3":"Kecamatan","ENGTYPE_3":"Sub-district","CC_3":"3204161","HASC_3":"NA","name":"Cangkuang.city"},
"geometry":{"type": "MultiPolygon","coordinates": [[[[107.5578,-7.0602,699.8579],[107.5589,-7.0564,695.0324],[107.5566,-7.0535,690.8612],[107.5604,-7.0493,683.0071],[107.5606,-7.0439,679.8433],[107.5714,-7.0449,673.3806],[107.5769,-7.0435,668.9362],[107.5765,-7.0397,669.5273],[107.579,-7.0397,671.4367],[107.5769,-7.0381,668.5002],[107.5774,-7.0349,669.2264],[107.5788,-7.0345,672.7777],[107.5767,-7.0333,668.0416],[107.5772,-7.0301,668.2099],[107.5751,-7.027,668.1074],[107.5709,-7.0336,670.255],[107.5681,-7.0326,672.0316],[107.5652,-7.0338,669.3777],[107.5668,-7.0314,671.1984],[107.5645,-7.0291,667.9964],[107.5521,-7.0294,673.7219],[107.5494,-7.0338,676.8545],[107.5426,-7.0352,677.1848],[107.5338,-7.043,685.179],[107.5304,-7.0428,699.9626],[107.5265,-7.0468,723.4786],[107.5251,-7.0508,783.2891],[107.523,-7.0508,791.9913],[107.5211,-7.0536,844.1122],[107.5196,-7.0666,964.5805],[107.5141,-7.0731,1119.1814],[107.5197,-7.076,1155.7095],[107.5129,-7.0812,1250.4905],[107.5124,-7.0839,1248.0046],[107.5215,-7.0905,1094.981],[107.523,-7.0943,1254.1199],[107.5268,-7.089,1249.2369],[107.5311,-7.0879,1114.3759],[107.5312,-7.0852,1030.4377],[107.534,-7.0815,895.0872],[107.5388,-7.0807,859.9652],[107.5427,-7.0769,784.6814],[107.5429,-7.0734,746.1241],[107.5483,-7.074,736.1681],[107.5495,-7.0718,721.8076],[107.5512,-7.0731,736.0544],[107.554,-7.0687,715.7598],[107.5585,-7.0681,716.7931],[107.5567,-7.0631,714.0863],[107.5578,-7.0602,699.8579]]]]}}