{"type":"Feature","properties":{"GID_3":"IDN.1.2.11_1","GID_0":"IDN","country":"Indonesia","GID_1":"IDN.1_1","province":"Aceh","NL_NAME_1":"NA","GID_2":"IDN.1.2_1","county":"AcehBarat","NL_NAME_2":"NA","city":"WoylaTimur","VARNAME_3":"NA","NL_NAME_3":"NA","TYPE_3":"Kecamatan","ENGTYPE_3":"Sub-district","CC_3":"1107072","HASC_3":"NA","name":"Woyla_Timur.city"},
"geometry":{"type": "MultiPolygon","coordinates": [[[[96.0751,4.4058,12.7566],[96.0879,4.411,20.5714],[96.091,4.4163,32.7021],[96.0942,4.4182,51.2406],[96.1083,4.4154,33.5927],[96.1233,4.415,45.555],[96.1574,4.4071,47.8989],[96.165,4.4415,60.5483],[96.1584,4.4493,57.3614],[96.1577,4.4629,52.9635],[96.1549,4.4752,73.3636],[96.1397,4.4764,66.5378],[96.1292,4.4948,89.3365],[96.1171,4.5009,87.7478],[96.0964,4.4989,50.6425],[96.0837,4.5088,26.3192],[96.0783,4.5075,26.111],[96.0741,4.5098,36.9831],[96.0744,4.5203,29.4203],[96.0726,4.5215,23.6495],[96.0706,4.5216,26.4989],[96.0686,4.5192,24.5437],[96.0608,4.5181,23.1393],[96.0563,4.512,21.7214],[96.0486,4.5113,22.2253],[96.0462,4.5031,29.2943],[96.0441,4.5035,46.0585],[96.0427,4.5069,20.3255],[96.0399,4.5052,19.8204],[96.0368,4.5055,20.851],[96.0346,4.5107,19.374],[96.031,4.5114,19.9091],[96.0258,4.5033,19.8859],[96.0276,4.4997,17.3818],[96.0261,4.494,16.7166],[96.0231,4.497,43.4679],[96.0193,4.5067,17.5814],[96.016,4.5062,16.8006],[96.0142,4.5014,43.7839],[96.0168,4.4931,16.4227],[96.0192,4.488,29.6524],[96.0262,4.4814,15.9544],[96.0309,4.4705,18.6928],[96.0236,4.4644,15.1821],[96.0215,4.4591,14.0495],[96.0265,4.4581,15.546],[96.0339,4.4603,15.6912],[96.0453,4.4486,16.2807],[96.0486,4.4401,13.5146],[96.0483,4.4328,10.0627],[96.0509,4.4306,13.3674],[96.0588,4.4284,10.0499],[96.0582,4.4263,10.9785],[96.05,4.421,18.3266],[96.051,4.4177,8.0913],[96.0584,4.4141,6.8662],[96.0554,4.4087,6.5],[96.0751,4.4058,12.7566]]]]}}