{"type":"Feature","properties":{"GID_3":"IDN.14.6.10_1","GID_0":"IDN","country":"Indonesia","GID_1":"IDN.14_1","province":"KalimantanTengah","NL_NAME_1":"NA","GID_2":"IDN.14.6_1","county":"Katingan","NL_NAME_2":"NA","city":"PulauMalan","VARNAME_3":"NA","NL_NAME_3":"NA","TYPE_3":"Kecamatan","ENGTYPE_3":"Sub-district","CC_3":"6209070","HASC_3":"NA","name":"Pulau_Malan.city"},
"geometry":{"type": "MultiPolygon","coordinates": [[[[113.2689,-1.7226,36.7205],[113.3238,-1.6911,30.3328],[113.3389,-1.6779,39.6054],[113.4192,-1.6161,67.4006],[113.4312,-1.61,76.9113],[113.447,-1.5955,64.7873],[113.4588,-1.5895,53.3539],[113.4354,-1.5781,75.5495],[113.4305,-1.561,63.5723],[113.3612,-1.5259,52.8495],[113.3394,-1.4847,80.2286],[113.309,-1.4403,60.809],[113.2748,-1.4588,67.7246],[113.2016,-1.4911,48.2315],[113.1544,-1.5164,32.1932],[113.1242,-1.5422,40.7412],[113.1,-1.5633,44.6891],[113.0682,-1.6025,49.5493],[113.014,-1.6893,69.6818],[113.0023,-1.7054,63.1738],[112.9902,-1.7176,35.9242],[113.0267,-1.7684,36.6219],[113.0972,-1.7947,50.9249],[113.1268,-1.8154,51.4708],[113.1642,-1.7817,29.8396],[113.1972,-1.7597,39.825],[113.2064,-1.7577,37.695],[113.2689,-1.7226,36.7205]]]]}}