{"type":"Feature","properties":{"GID_3":"IDN.11.20.1_1","GID_0":"IDN","country":"Indonesia","GID_1":"IDN.11_1","province":"JawaTimur","NL_NAME_1":"NA","GID_2":"IDN.11.20_1","county":"Madiun","NL_NAME_2":"NA","city":"Balerejo","VARNAME_3":"NA","NL_NAME_3":"NA","TYPE_3":"Kecamatan","ENGTYPE_3":"Sub-district","CC_3":"3519120","HASC_3":"NA","name":"Balerejo.city"},
"geometry":{"type": "MultiPolygon","coordinates": [[[[111.6181,-7.5062,64.6796],[111.6141,-7.5034,65.2422],[111.6098,-7.4947,67.0344],[111.6081,-7.494,67.2553],[111.6028,-7.4967,65.2581],[111.6027,-7.4918,68.3834],[111.598,-7.4884,70.315],[111.5957,-7.4941,69.564],[111.5979,-7.4953,68.1542],[111.5937,-7.4978,66.7126],[111.5943,-7.4991,67.5988],[111.5905,-7.5045,65.1764],[111.5908,-7.5069,64.8075],[111.5887,-7.5055,64.8195],[111.5856,-7.5104,65.0798],[111.5837,-7.5096,62.6398],[111.5841,-7.5117,64.5698],[111.5819,-7.511,63.2928],[111.5819,-7.5127,63.14],[111.5803,-7.5127,63.14],[111.5801,-7.5154,62.4278],[111.5849,-7.5183,57.859],[111.5865,-7.5219,60.0876],[111.5851,-7.5212,58.0027],[111.5823,-7.5234,58.0567],[111.5755,-7.5204,59.2786],[111.5721,-7.521,59.531],[111.5696,-7.5243,59.2102],[111.564,-7.5232,58.5176],[111.5609,-7.5274,57.9437],[111.5571,-7.5277,56.6202],[111.5564,-7.5295,57.1779],[111.5505,-7.5271,56.3469],[111.5522,-7.5306,56.1848],[111.5471,-7.5359,55.4933],[111.5472,-7.5377,56.3773],[111.5539,-7.5377,54.0719],[111.5604,-7.5399,54.592],[111.561,-7.5415,54.6541],[111.5557,-7.5447,55.6445],[111.5583,-7.547,55.0103],[111.555,-7.5564,57.277],[111.5512,-7.5577,55.3169],[111.5533,-7.559,55.9773],[111.5508,-7.563,55.1992],[111.5509,-7.5681,55.5762],[111.559,-7.569,55.0956],[111.5585,-7.5672,54.3999],[111.5606,-7.567,54.461],[111.5629,-7.5676,54.3483],[111.5629,-7.5692,54.7565],[111.568,-7.569,57.3074],[111.5697,-7.5641,58.427],[111.5796,-7.567,57.3156],[111.5834,-7.5682,56.5058],[111.5819,-7.5738,56.9823],[111.5842,-7.5704,56.4999],[111.5865,-7.571,56.8186],[111.5831,-7.5769,59.622],[111.5869,-7.5765,58.2756],[111.5861,-7.5746,57.4205],[111.5893,-7.5715,57.6029],[111.5919,-7.5776,60.2564],[111.5995,-7.5842,63.3896],[111.5999,-7.5808,64.4807],[111.6093,-7.5745,64.9867],[111.6113,-7.5674,63.2195],[111.6096,-7.5594,63.6619],[111.6108,-7.5559,61.516],[111.6144,-7.5549,61.9382],[111.622,-7.5579,63.341],[111.6261,-7.5548,65.9665],[111.6265,-7.5511,67.336],[111.6328,-7.5507,70.1336],[111.6335,-7.5448,66.8927],[111.6394,-7.5395,66.7961],[111.6367,-7.5284,66.5907],[111.6343,-7.5257,69.8246],[111.6299,-7.5243,68.0489],[111.6303,-7.514,66.7034],[111.6273,-7.5104,67.4189],[111.6228,-7.5098,65.2664],[111.6181,-7.5062,64.6796]]]]}}