{"type":"Feature","properties":{"GID_3":"IDN.30.1.1_1","GID_0":"IDN","country":"Indonesia","GID_1":"IDN.30_1","province":"SumateraBarat","NL_NAME_1":"NA","GID_2":"IDN.30.1_1","county":"Agam","NL_NAME_2":"NA","city":"Banuhampu","VARNAME_3":"NA","NL_NAME_3":"NA","TYPE_3":"Kecamatan","ENGTYPE_3":"Sub-district","CC_3":"1307061","HASC_3":"NA","name":"Banuhampu.city"},
"geometry":{"type": "MultiPolygon","coordinates": [[[[100.3947,-0.3555,1055.3179],[100.3993,-0.352,1054.0969],[100.404,-0.3453,1041.3826],[100.4065,-0.3357,1021.6985],[100.4138,-0.3315,1036.6843],[100.405,-0.3183,963.3889],[100.4013,-0.3227,958.3351],[100.3952,-0.3258,954.9973],[100.377,-0.322,946.5246],[100.3714,-0.3225,916.824],[100.3683,-0.3317,958.5644],[100.356,-0.342,1052.8501],[100.347,-0.3537,1302.0276],[100.3419,-0.3703,1783.172],[100.3326,-0.3826,2352.2173],[100.3326,-0.3891,2747.9045],[100.3352,-0.3855,2480.0413],[100.3541,-0.3769,1735.3638],[100.3605,-0.371,1560.2528],[100.3693,-0.369,1315.6699],[100.3749,-0.3625,1153.8547],[100.3873,-0.3601,1044.9541],[100.3947,-0.3555,1055.3179]]]]}}