{"type":"Feature","properties":{"GID_3":"IDN.18.2.20_1","GID_0":"IDN","country":"Indonesia","GID_1":"IDN.18_1","province":"MalukuUtara","NL_NAME_1":"NA","GID_2":"IDN.18.2_1","county":"HalmaheraSelatan","NL_NAME_2":"NA","city":"Kayoa","VARNAME_3":"NA","NL_NAME_3":"NA","TYPE_3":"Kecamatan","ENGTYPE_3":"Sub-district","CC_3":"8204060","HASC_3":"NA","name":"Kayoa.city"},
"geometry":{"type": "MultiPolygon","coordinates": [[[[127.2241,-0.1357,8.1657],[127.2253,-0.1388,2.5176],[127.228,-0.1395,2.2387],[127.2345,-0.134,5.8684],[127.2314,-0.1368,15.3853],[127.2312,-0.1388,0.0],[127.2328,-0.1398,0.0],[127.235,-0.138,4.0644],[127.2354,-0.1349,12.9983],[127.2405,-0.1343,4.7729],[127.2439,-0.1316,0.0],[127.2452,-0.1276,8.2749],[127.2562,-0.1243,14.3911],[127.2576,-0.1264,0.0],[127.2614,-0.126,7.1725],[127.2666,-0.1144,0.0],[127.268,-0.0935,14.162],[127.2742,-0.0853,2.3534],[127.2724,-0.0791,1.6501],[127.2702,-0.0774,5.0099],[127.2718,-0.0746,0.0],[127.2711,-0.0726,0.0],[127.2672,-0.0719,1.7561],[127.26,-0.076,0.0],[127.2581,-0.0808,6.7911],[127.2552,-0.081,1.063],[127.2566,-0.0784,0.0],[127.2553,-0.0771,2.4033],[127.2499,-0.0777,0.0],[127.2483,-0.0852,13.063],[127.2464,-0.0817,0.0],[127.2429,-0.081,8.4868],[127.2403,-0.0781,9.7167],[127.2355,-0.0846,13.3778],[127.2345,-0.0891,0.0],[127.2387,-0.0869,0.0],[127.2388,-0.0825,13.6116],[127.2402,-0.0891,9.2469],[127.2318,-0.0907,2.5656],[127.2292,-0.0929,1.4906],[127.2288,-0.0982,1.7353],[127.2328,-0.1018,5.0374],[127.2293,-0.1009,1.6509],[127.2321,-0.1069,15.0112],[127.2305,-0.11,18.1527],[127.2272,-0.1105,7.7665],[127.2276,-0.1049,0.0],[127.2246,-0.103,10.322],[127.2207,-0.1055,4.4118],[127.218,-0.1096,4.318],[127.2181,-0.1123,4.3019],[127.215,-0.1081,4.5376],[127.214,-0.1128,2.8398],[127.2113,-0.1141,5.9938],[127.2117,-0.1153,11.4971],[127.2049,-0.1165,9.6626],[127.2011,-0.1138,0.0],[127.1982,-0.1168,0.0],[127.1983,-0.1203,0.0],[127.2046,-0.1229,9.6643],[127.2106,-0.129,1.9438],[127.2137,-0.1294,8.9805],[127.2144,-0.1324,0.0],[127.2193,-0.1372,4.1988],[127.2213,-0.1377,1.0249],[127.2241,-0.1357,8.1657]]],
[[[127.2196,-0.0358,1.2204],[127.2197,-0.0362,1.2204],[127.22,-0.0357,1.2204],[127.2199,-0.0355,1.2204],[127.2196,-0.0358,1.2204]]],
[[[127.2199,-0.0351,1.2204],[127.2229,-0.0362,2.8702],[127.223,-0.0322,4.6863],[127.2199,-0.0328,1.2496],[127.2199,-0.0351,1.2204]]],
[[[127.2293,-0.0308,7.8744],[127.2299,-0.0325,2.8413],[127.2322,-0.0319,0.8668],[127.2312,-0.029,1.9129],[127.2293,-0.0308,7.8744]]],
[[[127.2373,-0.0305,0.0],[127.2371,-0.0309,0.0],[127.2374,-0.031,0.0],[127.2376,-0.0306,0.0],[127.2373,-0.0305,0.0]]],
[[[127.2514,-0.0255,2.415],[127.2501,-0.0244,0.0],[127.243,-0.0276,0.0],[127.243,-0.0317,0.0],[127.2449,-0.0331,0.0],[127.249,-0.0329,4.1141],[127.2513,-0.0294,5.9812],[127.2514,-0.0255,2.415]]],
[[[127.2258,-0.0306,0.9813],[127.2266,-0.0321,0.0],[127.228,-0.0314,0.0],[127.2279,-0.0276,0.0],[127.2256,-0.0278,0.5995],[127.2258,-0.0306,0.9813]]],
[[[127.238,-0.0283,0.0],[127.2373,-0.0279,0.0],[127.2363,-0.0283,0.0],[127.2371,-0.029,0.0],[127.238,-0.0283,0.0]]],
[[[127.2332,-0.0265,0.0],[127.2343,-0.028,0.0],[127.2347,-0.0241,0.0],[127.2332,-0.0244,0.0],[127.2332,-0.0265,0.0]]],
[[[127.2256,-0.0225,1.964],[127.2244,-0.0214,4.3889],[127.2227,-0.0231,0.0],[127.2248,-0.0232,0.0],[127.2256,-0.0225,1.964]]],
[[[127.2361,-0.0208,0.0],[127.234,-0.0204,0.0],[127.2352,-0.023,0.0],[127.2371,-0.0221,0.0],[127.2361,-0.0208,0.0]]],
[[[127.2178,-0.0208,0.0],[127.218,-0.0212,0.0],[127.2182,-0.0207,0.0],[127.2179,-0.0207,0.0],[127.2178,-0.0208,0.0]]],
[[[127.2271,-0.0197,0.0],[127.2269,-0.0197,0.0],[127.2269,-0.0199,0.0],[127.2271,-0.0199,0.0],[127.2271,-0.0197,0.0]]],
[[[127.2269,-0.0194,0.0],[127.2269,-0.019,0.0],[127.2263,-0.019,0.0],[127.2264,-0.0194,0.0],[127.2269,-0.0194,0.0]]],
[[[127.2055,-0.1145,0.0],[127.2058,-0.1152,0.0],[127.2065,-0.1149,0.0],[127.2062,-0.1137,0.0],[127.2055,-0.1145,0.0]]],
[[[127.2102,-0.1142,0.0],[127.2101,-0.1146,5.7516],[127.2105,-0.1146,5.7516],[127.2105,-0.1141,0.0],[127.2102,-0.1142,0.0]]],
[[[127.2083,-0.114,3.833],[127.2082,-0.1144,3.833],[127.2086,-0.1145,3.833],[127.2086,-0.114,3.833],[127.2083,-0.114,3.833]]],
[[[127.2092,-0.1139,0.0],[127.209,-0.1144,0.0],[127.2098,-0.1136,0.0],[127.2093,-0.1136,0.0],[127.2092,-0.1139,0.0]]],
[[[127.2081,-0.113,3.833],[127.2079,-0.1139,3.833],[127.209,-0.1137,0.0],[127.209,-0.1131,0.0],[127.2081,-0.113,3.833]]],
[[[127.2118,-0.1131,5.9938],[127.2115,-0.1131,5.9938],[127.2118,-0.1136,5.9938],[127.2118,-0.1133,5.9938],[127.2118,-0.1131,5.9938]]],
[[[127.2059,-0.113,0.0],[127.2069,-0.1125,2.5158],[127.2047,-0.1132,0.0],[127.2049,-0.1133,0.0],[127.2059,-0.113,0.0]]],
[[[127.2038,-0.0452,0.0],[127.2035,-0.0449,0.0],[127.2028,-0.0447,0.0],[127.203,-0.0452,0.0],[127.2038,-0.0452,0.0]]],
[[[127.1736,-0.037,0.0],[127.1721,-0.0384,1.4817],[127.1721,-0.0359,0.0],[127.1717,-0.0387,1.4817],[127.1742,-0.0413,0.0],[127.1916,-0.0456,1.262],[127.1894,-0.0435,2.7494],[127.1886,-0.0446,0.0],[127.1865,-0.043,1.3239],[127.1814,-0.0426,6.6883],[127.1811,-0.0403,6.644],[127.1766,-0.0407,3.7975],[127.1757,-0.0378,0.8136],[127.1736,-0.037,0.0]]],
[[[127.202,-0.0399,0.0],[127.1992,-0.0392,1.3447],[127.1998,-0.0423,0.0],[127.2019,-0.0415,0.0],[127.202,-0.0399,0.0]]],
[[[127.1986,-0.0314,0.0],[127.1944,-0.0264,1.2457],[127.1911,-0.0286,0.0],[127.1967,-0.0377,5.5636],[127.201,-0.0389,0.0],[127.1983,-0.0365,5.5636],[127.2002,-0.0367,5.3661],[127.1996,-0.0349,3.1034],[127.1971,-0.0342,5.8436],[127.1986,-0.0314,0.0]]],
[[[127.1991,-0.0283,0.0],[127.2,-0.028,0.0],[127.1989,-0.0262,0.0],[127.1985,-0.0274,0.7546],[127.1991,-0.0283,0.0]]],
[[[127.2043,-0.0443,3.2517],[127.2068,-0.0432,0.0],[127.2063,-0.0398,4.4898],[127.2039,-0.0422,3.0869],[127.2043,-0.0443,3.2517]]],
[[[127.2076,-0.0304,0.0],[127.2082,-0.0282,0.0],[127.2038,-0.0316,4.0796],[127.2038,-0.0379,2.6832],[127.2062,-0.0357,2.6781],[127.2047,-0.0328,0.0],[127.2076,-0.0304,0.0]]],
[[[127.2157,-0.0287,7.043],[127.216,-0.0273,2.0786],[127.2139,-0.0267,5.4699],[127.2107,-0.0312,0.0],[127.2152,-0.0309,1.2715],[127.2161,-0.0296,1.2715],[127.2167,-0.0306,1.2715],[127.2171,-0.0292,0.8852],[127.2157,-0.0287,7.043]]],
[[[127.2117,-0.0234,0.0],[127.2119,-0.0237,0.0],[127.2123,-0.0225,0.0],[127.2118,-0.0225,0.0],[127.2117,-0.0234,0.0]]],
[[[127.4292,-0.0188,0.0],[127.431,-0.016,0.0],[127.4275,-0.0142,1.5092],[127.427,-0.0123,0.2115],[127.4231,-0.0134,0.1566],[127.4254,-0.019,0.0],[127.4292,-0.0188,0.0]]],
[[[127.4116,-0.013,0.0],[127.4124,-0.0132,0.0],[127.4128,-0.0128,0.0],[127.4115,-0.0125,0.0],[127.4116,-0.013,0.0]]],
[[[127.4129,-0.0123,0.0],[127.4137,-0.0127,0.0],[127.4113,-0.0092,0.0],[127.4114,-0.0098,0.0],[127.4129,-0.0123,0.0]]],
[[[127.4292,0.0081,0.0],[127.4241,0.0118,0.0],[127.4248,0.0087,3.0348],[127.4213,0.0061,2.4336],[127.4187,0.0017,1.9128],[127.4188,-0.001,2.4825],[127.4174,-0.0009,0.0],[127.4171,-0.0038,0.0],[127.4197,-0.0043,0.0],[127.4197,-0.0068,0.0],[127.4163,-0.006,0.0],[127.4188,-0.0082,0.0],[127.4203,-0.0073,0.0],[127.4198,-0.0103,0.0],[127.4215,-0.0115,0.0],[127.4238,-0.0098,0.0],[127.4229,-0.007,3.689],[127.4283,-0.0076,1.7725],[127.4284,-0.0051,4.0524],[127.425,-0.0017,10.8735],[127.4263,0.001,9.0904],[127.4248,0.0052,0.7523],[127.4305,0.0045,0.0],[127.4292,0.0081,0.0]]],
[[[127.4295,0.0112,0.0],[127.4309,0.0115,0.0],[127.4305,0.0144,0.0],[127.4282,0.0154,0.0],[127.4278,0.0135,0.0],[127.4295,0.0112,0.0]]],
[[[127.4407,-0.0152,1.7562],[127.445,-0.0206,0.6376],[127.4529,-0.0114,146.307],[127.4471,-0.0073,32.6177],[127.445,0.0062,5.2718],[127.4513,0.0171,142.7061],[127.4603,0.0223,0.0],[127.4605,0.0259,2.9433],[127.4677,0.0313,1.7107],[127.4504,0.034,73.2759],[127.4382,0.0546,27.6879],[127.4339,0.0793,70.1157],[127.4303,0.0836,77.9649],[127.4276,0.0842,86.9801],[127.4221,0.0789,273.5773],[127.4131,0.078,15.4396],[127.4115,0.068,0.0],[127.4136,0.056,10.4645],[127.409,0.04,0.0],[127.408,0.026,0.0],[127.4041,0.0195,0.0],[127.4041,0.0167,0.0],[127.4062,0.0124,14.5885],[127.405,0.0099,0.0],[127.4104,0.0089,0.4088],[127.414,0.0109,2.6045],[127.4153,0.0148,1.5424],[127.4184,0.0166,1.0658],[127.4231,0.023,0.0],[127.4309,0.0217,10.8122],[127.4349,0.0147,0.0],[127.4346,0.0121,0.0],[127.4422,0.0099,3.5101],[127.4412,0.0096,3.5101],[127.4427,0.0053,14.2702],[127.4322,-0.0052,0.0],[127.4407,-0.0152,1.7562]]],
[[[127.2182,-0.0197,0.0],[127.2186,-0.0199,0.0],[127.2195,-0.0185,0.0],[127.2189,-0.0188,0.0],[127.2182,-0.0197,0.0]]],
[[[127.2267,0.0358,57.0971],[127.2235,0.0376,15.7237],[127.2215,0.0366,60.1551],[127.2167,0.0303,0.0],[127.2197,0.025,0.0],[127.2231,0.0249,7.1145],[127.2263,0.0211,0.0],[127.2303,0.0248,0.5917],[127.2267,0.0358,57.0971]]],
[[[127.2157,0.1431,48.4779],[127.2107,0.1431,13.5523],[127.208,0.1383,0.0],[127.2128,0.1335,0.0],[127.22,0.1326,0.0],[127.2228,0.1367,6.7535],[127.2216,0.1407,0.0],[127.2199,0.1436,5.1685],[127.2157,0.1431,48.4779]]],
[[[127.2099,-0.0223,0.0],[127.2086,-0.0221,0.0],[127.2084,-0.0223,0.0],[127.2105,-0.0227,0.0],[127.2099,-0.0223,0.0]]],
[[[127.2075,-0.0219,0.0],[127.2078,-0.022,0.0],[127.2081,-0.0218,0.0],[127.2072,-0.0217,0.0],[127.2075,-0.0219,0.0]]],
[[[127.2066,-0.0215,0.0],[127.2066,-0.0218,0.0],[127.2068,-0.0219,0.0],[127.2069,-0.0215,0.0],[127.2066,-0.0215,0.0]]],
[[[127.195,-0.0254,0.0],[127.1949,-0.0258,0.0],[127.1953,-0.0259,0.0],[127.1954,-0.0251,0.0],[127.195,-0.0254,0.0]]],
[[[127.2019,-0.0206,0.0],[127.2017,-0.021,0.0],[127.2018,-0.0211,0.0],[127.2022,-0.0208,0.0],[127.2019,-0.0206,0.0]]],
[[[127.2025,-0.0204,0.0],[127.2027,-0.0208,0.0],[127.2028,-0.0207,0.0],[127.2028,-0.0203,0.0],[127.2025,-0.0204,0.0]]],
[[[127.1842,-0.0133,18.0836],[127.1738,-0.0123,10.0325],[127.1676,-0.0136,6.7378],[127.1643,-0.0163,0.0],[127.1738,-0.0226,0.0],[127.1739,-0.0195,11.1778],[127.183,-0.0192,0.0],[127.1845,-0.0172,9.7236],[127.1906,-0.0183,0.0],[127.1913,-0.02,0.0],[127.1938,-0.019,8.199],[127.1934,-0.0228,3.4934],[127.197,-0.0204,5.4197],[127.1981,-0.0226,0.0],[127.1993,-0.0218,3.0022],[127.1998,-0.0238,0.0],[127.2027,-0.0246,0.0],[127.2026,-0.023,0.0],[127.192,-0.013,11.7931],[127.1842,-0.0133,18.0836]]],
[[[127.1662,-0.0123,0.0],[127.166,-0.0124,0.0],[127.1661,-0.0126,0.0],[127.1664,-0.0126,0.0],[127.1662,-0.0123,0.0]]],
[[[127.1261,0.1426,17.4409],[127.1185,0.1495,0.0],[127.1167,0.1461,54.3472],[127.1111,0.1428,2.2434],[127.1135,0.132,0.0],[127.1153,0.1307,1.6331],[127.1174,0.1321,8.0626],[127.1196,0.129,0.0],[127.1227,0.1298,4.8482],[127.1265,0.1267,0.0],[127.1266,0.128,0.0],[127.1242,0.1295,4.8482],[127.1269,0.1308,1.4728],[127.135,0.1277,0.0],[127.135,0.1365,0.0],[127.1307,0.1414,0.0],[127.1261,0.1426,17.4409]]],
[[[127.1726,0.1553,0.0],[127.1725,0.1549,0.0],[127.1731,0.155,0.0],[127.173,0.1554,0.0],[127.1726,0.1553,0.0]]],
[[[127.1556,0.1618,78.8505],[127.153,0.162,51.4018],[127.1461,0.1585,76.841],[127.1447,0.1564,0.0],[127.1451,0.1509,1.3102],[127.147,0.1502,0.0],[127.1538,0.157,0.0],[127.1583,0.1572,0.0],[127.1556,0.1618,78.8505]]],
[[[127.1719,0.157,0.2991],[127.1728,0.1575,0.9468],[127.1725,0.1597,4.8353],[127.1715,0.159,0.0],[127.1719,0.157,0.2991]]],
[[[127.173,0.1599,4.8353],[127.1733,0.1594,4.8353],[127.1737,0.1606,0.0],[127.1732,0.1603,4.8353],[127.173,0.1599,4.8353]]]]}}