{"type":"Feature","properties":{"GID_3":"IDN.1.3.3_1","GID_0":"IDN","country":"Indonesia","GID_1":"IDN.1_1","province":"Aceh","NL_NAME_1":"NA","GID_2":"IDN.1.3_1","county":"AcehBesar","NL_NAME_2":"NA","city":"DarulImarah","VARNAME_3":"NA","NL_NAME_3":"NA","TYPE_3":"Kecamatan","ENGTYPE_3":"Sub-district","CC_3":"1108110","HASC_3":"NA","name":"Darul_Imarah.city"},
"geometry":{"type": "MultiPolygon","coordinates": [[[[95.3122,5.4892,11.7486],[95.3224,5.4893,9.3431],[95.326,5.4922,13.1645],[95.3334,5.4929,7.677],[95.3328,5.4966,7.1336],[95.337,5.4985,11.6574],[95.3503,5.4971,5.1859],[95.3514,5.4993,5.168],[95.3443,5.5006,5.5714],[95.3427,5.5202,6.5916],[95.3458,5.5237,5.743],[95.3435,5.5252,4.6837],[95.3433,5.5282,5.5747],[95.3365,5.5288,6.5286],[95.3302,5.526,5.5488],[95.3302,5.529,6.2406],[95.3266,5.527,4.937],[95.3234,5.5196,5.3739],[95.3175,5.5173,8.5288],[95.3148,5.518,7.347],[95.3146,5.5154,5.6111],[95.3097,5.5159,6.0345],[95.309,5.5193,8.8117],[95.3009,5.5215,7.0969],[95.2961,5.5277,7.2137],[95.2868,5.5238,8.012],[95.2787,5.5223,7.3618],[95.2786,5.5177,110.3824],[95.2912,5.5013,133.529],[95.2892,5.5006,199.6636],[95.2916,5.4977,202.0416],[95.2954,5.4861,164.1559],[95.2994,5.4816,337.4333],[95.3122,5.4892,11.7486]]]]}}