{"type":"Feature","properties":{"GID_3":"IDN.26.20.8_1","GID_0":"IDN","country":"Indonesia","GID_1":"IDN.26_1","province":"SulawesiSelatan","NL_NAME_1":"NA","GID_2":"IDN.26.20_1","county":"Soppeng","NL_NAME_2":"NA","city":"MarioRiwawo","VARNAME_3":"NA","NL_NAME_3":"NA","TYPE_3":"Kecamatan","ENGTYPE_3":"Sub-district","CC_3":"7312010","HASC_3":"NA","name":"Mario_Riwawo.city"},
"geometry":{"type": "MultiPolygon","coordinates": [[[[119.8067,-4.5323,688.6088],[119.8063,-4.5366,881.6935],[119.8083,-4.5367,887.3868],[119.8114,-4.5343,641.4722],[119.8127,-4.5304,584.9038],[119.8214,-4.5273,459.8128],[119.8513,-4.5323,426.3866],[119.855,-4.5377,482.417],[119.8592,-4.5292,241.3352],[119.8684,-4.5285,233.2871],[119.8746,-4.5329,174.1994],[119.8872,-4.5245,162.2764],[119.8918,-4.5235,269.3274],[119.8983,-4.5168,497.7698],[119.9015,-4.5158,451.3096],[119.9105,-4.5196,209.6505],[119.9184,-4.5259,164.5922],[119.9214,-4.5255,186.0852],[119.9284,-4.5305,140.689],[119.931,-4.53,132.2015],[119.9388,-4.5338,153.9629],[119.9412,-4.5335,150.6841],[119.9424,-4.5312,135.1979],[119.9441,-4.533,158.4707],[119.9517,-4.5337,118.1983],[119.9534,-4.5326,112.7922],[119.9603,-4.5354,104.269],[119.9624,-4.5326,102.1685],[119.9679,-4.5333,92.7195],[119.9708,-4.5318,89.9074],[119.9763,-4.5388,84.0208],[119.9807,-4.5343,146.0967],[119.985,-4.5331,256.0049],[119.9868,-4.5254,160.5842],[119.991,-4.5243,222.8289],[119.9939,-4.5208,153.349],[120.0136,-4.5264,121.3229],[120.0194,-4.5239,87.2908],[120.0321,-4.5233,110.5447],[120.0394,-4.5195,141.4549],[120.0482,-4.5042,160.6832],[120.0582,-4.5,163.2409],[120.0591,-4.4983,171.2874],[120.0583,-4.4935,164.0652],[120.0606,-4.4864,150.7962],[120.0585,-4.4801,173.0445],[120.0598,-4.4718,200.412],[120.057,-4.4645,233.8526],[120.0599,-4.4535,252.2137],[120.0248,-4.4454,84.8209],[120.0108,-4.4376,31.6629],[120.009,-4.4288,33.6411],[120.0132,-4.4176,27.6408],[120.0045,-4.4196,27.2818],[120.0032,-4.4164,25.2711],[119.9925,-4.4186,104.4899],[119.9595,-4.4153,87.2206],[119.9522,-4.4165,121.5313],[119.941,-4.4212,93.5291],[119.9396,-4.4302,109.4562],[119.942,-4.4467,129.2639],[119.9359,-4.4471,157.304],[119.9294,-4.4527,190.7049],[119.904,-4.4553,245.2141],[119.8675,-4.4617,494.2781],[119.8635,-4.4842,631.4432],[119.8481,-4.4892,554.2044],[119.8142,-4.4948,862.0491],[119.8087,-4.4997,1048.4165],[119.8038,-4.501,1195.011],[119.7916,-4.503,1144.5642],[119.7877,-4.5021,1104.4092],[119.7886,-4.5107,720.165],[119.7956,-4.5176,868.7686],[119.7986,-4.5227,806.4669],[119.8063,-4.5284,603.6364],[119.8067,-4.5323,688.6088]]]]}}