{"type":"Feature","properties":{"GID_3":"IDN.11.1.6_1","GID_0":"IDN","country":"Indonesia","GID_1":"IDN.11_1","province":"JawaTimur","NL_NAME_1":"NA","GID_2":"IDN.11.1_1","county":"Bangkalan","NL_NAME_2":"NA","city":"Geger","VARNAME_3":"NA","NL_NAME_3":"NA","TYPE_3":"Kecamatan","ENGTYPE_3":"Sub-district","CC_3":"3526140","HASC_3":"NA","name":"Geger.city"},
"geometry":{"type": "MultiPolygon","coordinates": [[[[112.867,-7.0231,60.4851],[112.8823,-7.0344,92.6667],[112.8931,-7.0316,112.98779999999999],[112.9042,-7.0389,144.1431],[112.9231,-7.043,145.6344],[112.9311,-7.0422,165.1451],[112.9358,-7.0461,175.231],[112.9485,-7.0522,163.3408],[112.9488,-7.0442,73.3309],[112.959,-7.0499,76.8626],[112.9673,-7.0509,72.1932],[112.9733,-7.0463,57.9103],[112.9835,-7.0427,45.2921],[112.9825,-7.0415,43.4938],[112.9853,-7.0403,46.8922],[112.9856,-7.0352,61.5542],[112.9915,-7.0341,72.7872],[112.989,-7.0293,78.4618],[112.9922,-7.0275,69.3792],[112.9962,-7.0187,63.2359],[112.9866,-7.007,72.0231],[112.9926,-7.0027,80.3448],[112.9924,-7.0076,72.0156],[112.9947,-7.0107,65.7479],[112.9953,-7.0038,76.8202],[112.9979,-7.0021,86.8713],[112.9979,-6.9983,90.9128],[113.0019,-6.9902,108.3423],[112.9988,-6.9889,114.0414],[112.9954,-6.9841,119.5199],[112.9941,-6.9774,151.4292],[112.9856,-6.9765,171.5874],[112.9886,-6.9688,144.2891],[112.9871,-6.9607,87.1937],[112.9846,-6.96,78.7722],[112.9727,-6.9637,64.8042],[112.967,-6.9551,79.2114],[112.9632,-6.9557,85.9096],[112.9566,-6.953,79.4739],[112.951,-6.9619,62.8628],[112.9461,-6.9625,54.8523],[112.9436,-6.9651,52.7578],[112.943,-6.9695,55.0147],[112.941,-6.97,53.2921],[112.9414,-6.9735,48.6754],[112.9402,-6.9749,52.3502],[112.9394,-6.9736,56.4589],[112.9396,-6.9763,48.17],[112.9361,-6.9763,44.958],[112.9373,-6.9791,46.9652],[112.9309,-6.9768,45.8009],[112.9324,-6.982,43.496],[112.9278,-6.986,42.7783],[112.925,-6.9839,44.521],[112.9249,-6.9806,47.3983],[112.9212,-6.9789,44.4414],[112.9178,-6.9726,134.5158],[112.9106,-6.9697,99.529],[112.9026,-6.963,111.2396],[112.8857,-6.957,42.587],[112.8779,-6.9566,11.4081],[112.873,-6.9497,11.0993],[112.8684,-6.9503,9.2961],[112.8681,-6.9516,17.67],[112.8669,-6.9503,11.1185],[112.8654,-6.9535,28.0882],[112.8676,-6.9622,41.5868],[112.8769,-6.9655,13.4719],[112.8751,-6.9684,20.376],[112.8735,-6.9679,26.0322],[112.8703,-6.9707,33.2374],[112.8678,-6.9768,53.7374],[112.8677,-6.9834,56.2559],[112.8646,-6.9893,49.8934],[112.8646,-6.9964,46.1726],[112.8696,-7.0056,65.2194],[112.8678,-7.008,47.4579],[112.8718,-7.0073,56.4954],[112.8689,-7.0116,48.9677],[112.87,-7.0162,56.6606],[112.867,-7.0231,60.4851]]]]}}