{"type":"Feature","properties":{"GID_3":"IDN.28.5.3_1","GID_0":"IDN","country":"Indonesia","GID_1":"IDN.28_1","province":"SulawesiTenggara","NL_NAME_1":"NA","GID_2":"IDN.28.5_1","county":"Kendari","NL_NAME_2":"NA","city":"Kadia","VARNAME_3":"NA","NL_NAME_3":"NA","TYPE_3":"Kecamatan","ENGTYPE_3":"Sub-district","CC_3":"7471013","HASC_3":"NA","name":"Kadia.city"},
"geometry":{"type": "MultiPolygon","coordinates": [[[[122.517,-3.9765,5.3301],[122.5063,-3.9718,20.9587],[122.5028,-3.975,8.4287],[122.4966,-3.9706,13.9954],[122.4947,-3.9742,23.1997],[122.4931,-3.9735,24.1332],[122.4908,-3.9764,31.4748],[122.4926,-3.9851,32.6908],[122.5,-3.9858,28.62],[122.5062,-3.9887,22.2406],[122.4999,-3.9963,12.2803],[122.5137,-4.0005,2.6018],[122.512,-3.9976,8.8262],[122.5168,-3.9949,3.371],[122.517,-3.9915,5.59],[122.5257,-3.9804,1.5],[122.517,-3.9765,5.3301]]]]}}