{"type":"Feature","properties":{"GID_3":"IDN.13.13.10_1","GID_0":"IDN","country":"Indonesia","GID_1":"IDN.13_1","province":"KalimantanSelatan","NL_NAME_1":"NA","GID_2":"IDN.13.13_1","county":"Tapin","NL_NAME_2":"NA","city":"TapinSelatan","VARNAME_3":"NA","NL_NAME_3":"NA","TYPE_3":"Kecamatan","ENGTYPE_3":"Sub-district","CC_3":"6305020","HASC_3":"NA","name":"Tapin_Selatan.city"},
"geometry":{"type": "MultiPolygon","coordinates": [[[[115.115,-3.0877,32.2642],[115.1223,-3.0923,42.8927],[115.1346,-3.0743,24.8199],[115.1383,-3.0717,21.0119],[115.1405,-3.0643,22.6539],[115.1495,-3.0741,31.8159],[115.1526,-3.0634,29.6636],[115.1516,-3.0622,18.0956],[115.1526,-3.0537,39.5257],[115.158,-3.052,35.6097],[115.1748,-3.0273,44.3125],[115.1785,-3.0187,20.0072],[115.183,-3.0172,10.3202],[115.19,-3.019,33.8705],[115.1947,-3.0159,42.0135],[115.1773,-3.0061,21.7652],[115.1766,-3.0031,20.5108],[115.1725,-2.9998,19.5046],[115.1701,-3.0018,19.9059],[115.1656,-3.0007,19.7626],[115.1644,-2.9965,19.5177],[115.1598,-2.9944,18.9761],[115.1597,-2.9915,17.3255],[115.1518,-2.9888,19.7745],[115.136,-2.979,11.9859],[115.134,-2.9711,10.4178],[115.1215,-2.9686,7.8302],[115.1073,-2.969,6.5526],[115.1035,-2.9769,4.6212],[115.0971,-2.9775,5.0641],[115.0938,-2.9815,5.217],[115.0948,-2.9906,3.2034],[115.0838,-2.9966,3.0511],[115.0476,-3.0078,5.2666],[115.022,-3.0198,3.7942],[114.9956,-3.0363,3.7949],[114.9889,-3.0446,3.5495],[114.9793,-3.0755,4.7021],[115.1006,-3.0758,12.0245],[115.115,-3.0877,32.2642]]]]}}