{"type":"Feature","properties":{"GID_3":"IDN.11.2.5_1","GID_0":"IDN","country":"Indonesia","GID_1":"IDN.11_1","province":"JawaTimur","NL_NAME_1":"NA","GID_2":"IDN.11.2_1","county":"Banyuwangi","NL_NAME_2":"NA","city":"Genteng","VARNAME_3":"NA","NL_NAME_3":"NA","TYPE_3":"Kecamatan","ENGTYPE_3":"Sub-district","CC_3":"3510100","HASC_3":"NA","name":"Genteng.city"},
"geometry":{"type": "MultiPolygon","coordinates": [[[[114.2056,-8.3854,121.4332],[114.2057,-8.3829,121.1825],[114.2024,-8.3792,128.2908],[114.205,-8.375,125.9933],[114.2039,-8.3681,130.5894],[114.2024,-8.3645,138.687],[114.1973,-8.3631,143.5915],[114.1957,-8.3566,145.7387],[114.191,-8.3485,167.1484],[114.1893,-8.3501,163.31],[114.1863,-8.3491,175.2218],[114.1835,-8.3514,169.3214],[114.178,-8.3508,172.8089],[114.1712,-8.3441,184.6268],[114.1704,-8.3345,210.1147],[114.1663,-8.3359,208.5703],[114.1602,-8.3287,240.1261],[114.1541,-8.3314,217.4241],[114.1574,-8.3355,212.4693],[114.1566,-8.3379,205.0636],[114.1522,-8.336,210.6122],[114.1444,-8.3366,209.1214],[114.1449,-8.3427,199.8893],[114.1439,-8.3427,200.1353],[114.1361,-8.3195,242.7623],[114.1258,-8.3097,279.4638],[114.1192,-8.2962,323.5798],[114.1163,-8.2945,335.6733],[114.1058,-8.2698,425.6235],[114.1029,-8.2713,424.2113],[114.1049,-8.2786,395.4288],[114.1039,-8.2848,372.6647],[114.108,-8.3011,314.4044],[114.1075,-8.309,289.9005],[114.11,-8.3161,270.9486],[114.1082,-8.3218,255.3242],[114.1084,-8.3337,231.7155],[114.1101,-8.339,222.5394],[114.1091,-8.3435,213.5009],[114.1063,-8.3449,206.9452],[114.1044,-8.351,202.8032],[114.105,-8.3572,182.8846],[114.1185,-8.3581,183.5584],[114.133,-8.3703,165.2991],[114.1444,-8.3688,167.2708],[114.1493,-8.3708,162.1331],[114.1533,-8.3742,158.7632],[114.1539,-8.3768,155.3163],[114.1691,-8.3791,147.5208],[114.1709,-8.3826,148.2115],[114.1715,-8.3806,145.9696],[114.1724,-8.3813,148.2115],[114.179,-8.3767,141.9436],[114.1809,-8.3786,141.1132],[114.1799,-8.3805,142.7531],[114.1825,-8.3829,139.6436],[114.1839,-8.3824,134.3778],[114.186,-8.3851,130.1378],[114.1908,-8.3869,124.0186],[114.2004,-8.3887,118.1612],[114.2043,-8.3951,116.6641],[114.2066,-8.3946,113.4573],[114.207,-8.387,113.0884],[114.2056,-8.3854,121.4332]]]]}}