{"type":"Feature","properties":{"GID_3":"IDN.1.10.8_1","GID_0":"IDN","country":"Indonesia","GID_1":"IDN.1_1","province":"Aceh","NL_NAME_1":"NA","GID_2":"IDN.1.10_1","county":"AcehTimur","NL_NAME_2":"NA","city":"IdiTunong","VARNAME_3":"NA","NL_NAME_3":"NA","TYPE_3":"Kecamatan","ENGTYPE_3":"Sub-district","CC_3":"1105133","HASC_3":"NA","name":"Idi_Tunong.city"},
"geometry":{"type": "MultiPolygon","coordinates": [[[[97.7265,4.8784,36.9593],[97.7384,4.8658,51.3618],[97.7372,4.874,37.3627],[97.7394,4.8831,43.2697],[97.7424,4.8855,35.8276],[97.7424,4.8874,40.674],[97.7398,4.8889,45.8466],[97.739,4.9035,34.783],[97.7448,4.9145,14.1379],[97.7413,4.9213,9.1376],[97.748,4.9319,11.9719],[97.7449,4.934,9.5113],[97.7502,4.9365,10.282],[97.7536,4.9339,8.8792],[97.7541,4.9349,8.8792],[97.7531,4.94,8.2645],[97.7488,4.9395,9.7177],[97.746,4.9426,8.6464],[97.745,4.9446,19.973],[97.7467,4.9478,13.4548],[97.7298,4.9458,37.21],[97.7247,4.9485,31.4885],[97.7246,4.9521,22.9187],[97.7174,4.9456,29.4],[97.7174,4.9438,28.4884],[97.7091,4.9391,36.656],[97.7052,4.9313,36.3951],[97.6915,4.9337,33.8005],[97.6856,4.9263,40.6734],[97.6969,4.9258,46.7772],[97.7073,4.9212,24.8093],[97.7125,4.9112,28.0465],[97.7199,4.9032,29.034],[97.7185,4.8937,23.0418],[97.7133,4.8908,21.7155],[97.7128,4.882,33.4157],[97.7189,4.8787,25.3173],[97.7265,4.8784,36.9593]]]]}}