{"type":"Feature","properties":{"GID_3":"IDN.27.11.1_1","GID_0":"IDN","country":"Indonesia","GID_1":"IDN.27_1","province":"SulawesiTengah","NL_NAME_1":"NA","GID_2":"IDN.27.11_1","county":"Toli-Toli","NL_NAME_2":"NA","city":"Baolan","VARNAME_3":"NA","NL_NAME_3":"NA","TYPE_3":"Kecamatan","ENGTYPE_3":"Sub-district","CC_3":"7206040","HASC_3":"NA","name":"Baolan.city"},
"geometry":{"type": "MultiPolygon","coordinates": [[[[120.7751,0.9484,374.4258],[120.7858,0.9599,395.7805],[120.7961,0.9603,205.1306],[120.8167,0.9536,296.2203],[120.8705,0.9479,348.9037],[120.8785,0.9425,170.4995],[120.901,0.9605,762.0826],[120.9211,0.9726,635.3881],[120.9922,1.0087,1000.9804],[121.0186,1.0147,1079.3871],[121.0132,1.0178,951.6246],[121.012,1.0242,993.7271],[121.0068,1.0322,953.6746],[121.0111,1.0349,988.1904],[121.0264,1.0393,912.5892],[121.0339,1.0468,778.1455],[121.0402,1.0488,795.8135],[121.0414,1.0614,701.2899],[121.0481,1.0698,853.5037],[121.05,1.0697,883.4688],[121.0305,1.08,892.7903],[121.0284,1.0827,1067.8003],[121.0141,1.0767,1176.1754],[121.0078,1.0779,1293.7443],[121.0003,1.0762,1479.517],[120.9916,1.077,1731.1055],[120.9862,1.0729,1745.0007],[120.9806,1.0734,1748.364],[120.9736,1.0693,1846.4514],[120.9695,1.069,2004.0162],[120.9549,1.0575,2094.7466],[120.9523,1.0582,2153.3926],[120.947,1.0549,2093.1519],[120.9422,1.0554,2091.4246],[120.9329,1.0611,2202.145],[120.9157,1.049,1734.6976],[120.9032,1.0567,1212.1448],[120.8913,1.0703,665.1936],[120.873,1.081,498.3543],[120.8634,1.0794,368.7852],[120.8618,1.0768,300.5109],[120.8508,1.0708,200.2715],[120.8477,1.0708,252.3365],[120.8468,1.069,225.031],[120.8452,1.0694,232.5985],[120.841,1.0661,274.9193],[120.8314,1.0699,230.7454],[120.8268,1.0687,171.9168],[120.8196,1.0629,166.8514],[120.8148,1.0636,315.7382],[120.8073,1.062,234.8484],[120.8041,1.0626,252.7379],[120.801,1.0666,213.2546],[120.7978,1.066,0.0],[120.7984,1.0618,0.0],[120.7958,1.0535,0.0],[120.7968,1.0518,0.8368],[120.7995,1.0502,0.0],[120.8034,1.0531,0.5648],[120.8065,1.0521,1.5717],[120.8108,1.045,2.3011],[120.8085,1.0427,0.0],[120.8086,1.0351,0.0],[120.8101,1.0343,1.7606],[120.8087,1.0289,1.4554],[120.8032,1.0282,0.5743],[120.7936,1.0304,2.2602],[120.7851,1.0303,6.8649],[120.781,1.0255,3.4677],[120.7766,1.0237,4.6156],[120.7771,1.0217,2.7477],[120.7753,1.0216,1.2361],[120.7652,1.0129,0.7464],[120.7585,1.0106,0.0],[120.7609,1.0058,4.694],[120.7596,1.004,0.5652],[120.7549,1.0056,0.0],[120.7522,1.0012,0.5892],[120.7495,1.0014,4.2015],[120.7485,0.9718,90.6662],[120.7519,0.9466,516.4363],[120.7751,0.9484,374.4258]]],
[[[120.7714,1.0407,0.0],[120.7729,1.0403,0.0],[120.777,1.0436,0.0],[120.774,1.0501,0.0],[120.7715,1.0481,0.0],[120.7714,1.0407,0.0]]]]}}