{"type":"Feature","properties":{"GID_3":"IDN.23.2.7_1","GID_0":"IDN","country":"Indonesia","GID_1":"IDN.23_1","province":"Papua","NL_NAME_1":"NA","GID_2":"IDN.23.2_1","county":"BiakNumfor","NL_NAME_2":"NA","city":"Bondifuar","VARNAME_3":"NA","NL_NAME_3":"NA","TYPE_3":"Distrik","ENGTYPE_3":"District","CC_3":"9409092","HASC_3":"NA","name":"Bondifuar.city"},
"geometry":{"type": "MultiPolygon","coordinates": [[[[135.8036,-0.6868,0.0],[135.8035,-0.7408,305.9366],[135.7844,-0.7567,152.5297],[135.8253,-0.7822,294.4398],[135.8476,-0.7622,279.2497],[135.8514,-0.7493,295.7153],[135.8608,-0.7349,577.4966],[135.863,-0.7266,404.5604],[135.8719,-0.7152,35.1455],[135.8656,-0.7067,0.0],[135.854,-0.7002,17.5232],[135.8468,-0.6989,15.4585],[135.8117,-0.6854,7.3647],[135.8036,-0.6868,0.0]]]]}}