{"type":"Feature","properties":{"GID_3":"IDN.4.4.22_1","GID_0":"IDN","country":"Indonesia","GID_1":"IDN.4_1","province":"Banten","NL_NAME_1":"NA","GID_2":"IDN.4.4_1","county":"Lebak","NL_NAME_2":"NA","city":"Muncang","VARNAME_3":"NA","NL_NAME_3":"NA","TYPE_3":"Kecamatan","ENGTYPE_3":"Sub-district","CC_3":"3602110","HASC_3":"NA","name":"Muncang.city"},
"geometry":{"type": "MultiPolygon","coordinates": [[[[106.325,-6.6026,451.6153],[106.3177,-6.6002,385.7102],[106.3191,-6.594,322.1241],[106.3179,-6.5899,315.2604],[106.3213,-6.5842,281.4127],[106.3166,-6.5782,264.0767],[106.3161,-6.5723,229.1579],[106.313,-6.5681,237.5057],[106.3126,-6.566,234.14],[106.314,-6.5651,234.14],[106.3122,-6.5638,295.3957],[106.3135,-6.5623,219.6534],[106.3115,-6.5621,266.545],[106.314,-6.5601,189.3304],[106.3073,-6.5501,164.5352],[106.3099,-6.5478,152.965],[106.3101,-6.5455,150.2429],[106.3142,-6.543,145.8675],[106.3101,-6.54,151.0443],[106.3114,-6.5387,136.171],[106.3105,-6.5366,136.0279],[106.3131,-6.5351,141.0758],[106.312,-6.5305,144.8095],[106.3165,-6.5315,138.719],[106.3153,-6.5296,122.3399],[106.3172,-6.5242,131.0387],[106.3205,-6.5245,120.4312],[106.319,-6.5219,123.5637],[106.3204,-6.5212,130.7044],[106.3202,-6.5188,126.8384],[106.3236,-6.518,126.795],[106.3236,-6.5157,127.7228],[106.3272,-6.5158,107.7765],[106.3289,-6.5136,127.8231],[106.3253,-6.5123,110.5576],[106.3273,-6.5049,100.2246],[106.3255,-6.503,117.7465],[106.3096,-6.516,176.9763],[106.3056,-6.5164,201.494],[106.2978,-6.5088,236.2099],[106.2922,-6.5007,145.5577],[106.2892,-6.5005,145.9747],[106.2857,-6.4905,88.2705],[106.2821,-6.4873,90.6638],[106.2745,-6.4855,132.2709],[106.2658,-6.4875,127.0069],[106.2604,-6.4862,89.2376],[106.2564,-6.4874,111.6497],[106.2482,-6.494,98.8116],[106.2508,-6.5008,116.0651],[106.2492,-6.5043,113.6251],[106.2517,-6.5089,82.525],[106.2527,-6.5079,104.2449],[106.2534,-6.5091,75.842],[106.2522,-6.5105,79.4974],[106.2537,-6.512,79.711],[106.2521,-6.5127,76.7932],[106.2536,-6.5142,76.6098],[106.253,-6.5175,77.9992],[106.256,-6.5202,81.3134],[106.2612,-6.533,152.6861],[106.2617,-6.5465,181.0556],[106.2644,-6.5515,171.0016],[106.2639,-6.5617,157.958],[106.2656,-6.5651,188.276],[106.2622,-6.5776,487.4037],[106.2545,-6.5816,191.7244],[106.251,-6.5856,170.4675],[106.2495,-6.5837,144.2093],[106.2448,-6.587,122.9242],[106.2472,-6.5933,165.6782],[106.2468,-6.5976,175.2782],[106.2486,-6.5993,200.2577],[106.2486,-6.6038,170.5398],[106.2555,-6.6088,190.5852],[106.2576,-6.6143,204.3785],[106.2602,-6.612,203.573],[106.263,-6.6134,224.126],[106.2631,-6.6106,227.2118],[106.2685,-6.6094,207.654],[106.269,-6.6063,209.0668],[106.2741,-6.6093,215.133],[106.2734,-6.5981,521.972],[106.2698,-6.595,549.2929],[106.273,-6.5948,580.4476],[106.2763,-6.5919,399.4176],[106.2841,-6.5918,297.9345],[106.2894,-6.5888,227.3539],[106.2889,-6.5926,246.9012],[106.2953,-6.6003,292.2315],[106.2937,-6.6036,357.751],[106.2948,-6.605,299.891],[106.3022,-6.602,355.9826],[106.3203,-6.6125,549.6001],[106.3251,-6.6128,610.918],[106.3257,-6.6155,624.5033],[106.332,-6.6166,703.6424],[106.3357,-6.6139,734.411],[106.3384,-6.6161,786.3368],[106.3392,-6.615,803.5645],[106.3432,-6.6162,877.0232],[106.3449,-6.6185,880.3494],[106.3623,-6.6203,1259.4558],[106.3563,-6.6147,1015.4968],[106.3434,-6.6092,739.3671],[106.3354,-6.6037,585.094],[106.325,-6.6026,451.6153]]]]}}