{"type":"Feature","properties":{"GID_3":"IDN.11.6.16_1","GID_0":"IDN","country":"Indonesia","GID_1":"IDN.11_1","province":"JawaTimur","NL_NAME_1":"NA","GID_2":"IDN.11.6_1","county":"Bondowoso","NL_NAME_2":"NA","city":"TamanKrocok","VARNAME_3":"NA","NL_NAME_3":"NA","TYPE_3":"Kecamatan","ENGTYPE_3":"Sub-district","CC_3":"3511141","HASC_3":"NA","name":"Taman_Krocok.city"},
"geometry":{"type": "MultiPolygon","coordinates": [[[[113.864,-7.8977,229.4337],[113.8673,-7.8975,222.1122],[113.8688,-7.8949,217.0344],[113.8711,-7.8949,225.5914],[113.872,-7.8922,219.6625],[113.8771,-7.8906,214.8929],[113.878,-7.8877,216.6944],[113.8827,-7.8866,208.8317],[113.8827,-7.8808,211.7117],[113.8849,-7.8765,196.2591],[113.888,-7.8752,194.3806],[113.8887,-7.8725,212.5457],[113.8973,-7.8705,201.979],[113.8984,-7.8676,188.8106],[113.8969,-7.8636,199.0381],[113.9025,-7.8638,169.8554],[113.9054,-7.8609,193.0623],[113.9088,-7.862,185.5164],[113.911,-7.8601,170.1455],[113.9105,-7.8569,156.7481],[113.9189,-7.854,145.3184],[113.9207,-7.85,143.8671],[113.925,-7.8466,146.7311],[113.924,-7.845,142.5847],[113.9265,-7.843,141.948],[113.9285,-7.8362,125.2262],[113.9258,-7.8379,138.4296],[113.9215,-7.8363,152.9579],[113.9181,-7.8381,157.6498],[113.9138,-7.8367,159.5292],[113.9087,-7.8394,191.2967],[113.9012,-7.8368,233.5914],[113.8941,-7.8372,271.0034],[113.8826,-7.8253,693.6292],[113.8813,-7.8229,752.4254],[113.8821,-7.8201,771.7651],[113.8804,-7.8183,764.2521],[113.8778,-7.8186,833.9575],[113.8745,-7.8243,676.0078],[113.8706,-7.8222,723.643],[113.8576,-7.8253,1027.7047],[113.8541,-7.8278,978.2362],[113.8546,-7.8255,965.7139],[113.8506,-7.8234,998.9942],[113.8431,-7.8258,868.3031],[113.8425,-7.8217,962.5178],[113.839,-7.8184,1106.9281],[113.8369,-7.8123,1220.5137],[113.8294,-7.8132,1257.9246],[113.8248,-7.8111,1103.7722],[113.8198,-7.8171,981.9999],[113.8155,-7.8184,877.1984],[113.8154,-7.8275,672.3151],[113.8229,-7.8286,930.2665],[113.8319,-7.8366,834.4042],[113.8359,-7.8575,367.0691],[113.8426,-7.8744,282.042],[113.8417,-7.8773,271.9743],[113.8433,-7.8764,271.9743],[113.8464,-7.8795,260.8586],[113.8478,-7.8759,281.9807],[113.8525,-7.8774,280.4631],[113.8517,-7.8932,233.8364],[113.864,-7.8977,229.4337]]]]}}