{"type":"Feature","properties":{"GID_3":"IDN.27.7.9_1","GID_0":"IDN","country":"Indonesia","GID_1":"IDN.27_1","province":"SulawesiTengah","NL_NAME_1":"NA","GID_2":"IDN.27.7_1","county":"ParigiMoutong","NL_NAME_2":"NA","city":"ParigiSelatan","VARNAME_3":"NA","NL_NAME_3":"NA","TYPE_3":"Kecamatan","ENGTYPE_3":"Sub-district","CC_3":"7208021","HASC_3":"NA","name":"Parigi_Selatan.city"},
"geometry":{"type": "MultiPolygon","coordinates": [[[[120.2824,-0.9212,0.0],[120.2765,-0.911,0.0],[120.2649,-0.9018,0.0],[120.2477,-0.8919,0.7309],[120.2434,-0.8857,0.0],[120.2437,-0.8824,0.0],[120.2422,-0.8804,2.6216],[120.2431,-0.8768,0.0],[120.2375,-0.8724,2.0522],[120.2317,-0.86,0.0],[120.2218,-0.8467,1.5208],[120.215,-0.8459,0.8647],[120.2145,-0.8473,2.4834],[120.2095,-0.8479,0.3806],[120.2045,-0.8522,7.4861],[120.1984,-0.8487,2.5452],[120.1931,-0.8576,15.7804],[120.1827,-0.858,32.0183],[120.182,-0.8542,33.4889],[120.1773,-0.8504,22.4861],[120.1778,-0.8469,13.974],[120.1742,-0.8452,19.548],[120.1762,-0.8432,13.0923],[120.1717,-0.8387,13.8004],[120.1698,-0.839,22.9768],[120.1678,-0.8414,15.7329],[120.1679,-0.8536,24.0893],[120.1591,-0.8592,46.4052],[120.1187,-0.8736,498.5533],[120.0938,-0.8802,656.6362],[120.0746,-0.8813,862.1025],[120.0663,-0.8875,1137.5726],[120.0632,-0.8871,1158.9075],[120.0615,-0.89,1246.3591],[120.0634,-0.8977,1439.6284],[120.0597,-0.9013,1602.6106],[120.0586,-0.9051,1460.2947],[120.0653,-0.9097,1716.8629],[120.0665,-0.9121,1650.1781],[120.0697,-0.9105,1667.5366],[120.0721,-0.9148,1396.833],[120.0681,-0.9199,1473.7742],[120.0697,-0.923,1369.6888],[120.068,-0.9322,1364.4001],[120.0691,-0.9387,1337.6458],[120.0666,-0.943,1454.5918],[120.066,-0.9517,1547.2931],[120.0573,-0.9675,1432.2499],[120.0662,-0.9699,1228.744],[120.0691,-0.9747,1414.3396],[120.0733,-0.9773,1412.7811],[120.0744,-0.9851,1601.3643],[120.0784,-0.9877,1542.8672],[120.0788,-0.9903,1330.3184],[120.0761,-0.9975,1508.5278],[120.0777,-0.9996,1378.1188],[120.0736,-1.0083,1575.9375],[120.0803,-1.011,1345.6165],[120.0762,-1.0173,1373.2335],[120.0808,-1.0158,1585.4354],[120.0941,-1.0196,1574.5984],[120.0988,-1.0271,1702.1124],[120.1057,-1.0176,1716.783],[120.11279999999999,-1.0161,1788.3352],[120.1153,-1.0228,1661.3201],[120.1182,-1.0231,1725.2523],[120.1194,-1.0322,1557.3317],[120.1252,-1.0379,1445.7175],[120.1256,-1.0411,1546.8595],[120.1289,-1.0444,1435.804],[120.1473,-1.0428,1784.7084],[120.1514,-1.045,1734.3831],[120.1513,-1.0493,1820.8784],[120.1588,-1.0538,1808.1782],[120.1603,-1.0499,1848.2064],[120.1649,-1.0476,1843.5271],[120.1711,-1.0518,1718.0568],[120.1972,-1.0241,996.2631],[120.2069,-1.0086,501.5659],[120.2142,-1.0011,561.8458],[120.2146,-0.9981,433.885],[120.2244,-0.9956,353.1794],[120.2274,-0.9889,602.3607],[120.2409,-0.9891,285.7186],[120.2499,-0.9805,205.9898],[120.2518,-0.9809,160.2291],[120.2639,-0.9758,38.5908],[120.2614,-0.9714,51.326],[120.263,-0.9573,15.4655],[120.2698,-0.9561,10.5138],[120.2755,-0.9456,14.5118],[120.2783,-0.9432,8.0894],[120.2804,-0.9433,8.7441],[120.2822,-0.9398,8.7018],[120.2852,-0.9383,0.5064],[120.2878,-0.9394,0.0],[120.2883,-0.9306,0.0],[120.2824,-0.9212,0.0]]]]}}