{"type":"Feature","properties":{"GID_3":"IDN.11.2.18_1","GID_0":"IDN","country":"Indonesia","GID_1":"IDN.11_1","province":"JawaTimur","NL_NAME_1":"NA","GID_2":"IDN.11.2_1","county":"Banyuwangi","NL_NAME_2":"NA","city":"Siliragung","VARNAME_3":"NA","NL_NAME_3":"NA","TYPE_3":"Kecamatan","ENGTYPE_3":"Sub-district","CC_3":"3510011","HASC_3":"NA","name":"Siliragung.city"},
"geometry":{"type": "MultiPolygon","coordinates": [[[[114.1827,-8.6065,58.3174],[114.1741,-8.5597,57.8878],[114.1789,-8.5349,55.6464],[114.1575,-8.5279,60.9188],[114.1411,-8.5286,51.2117],[114.1382,-8.5257,61.1008],[114.137,-8.5275,51.1609],[114.1333,-8.5275,55.6072],[114.1315,-8.5272,55.7393],[114.1314,-8.5255,57.905],[114.1044,-8.5249,41.4825],[114.1041,-8.5206,36.3373],[114.1093,-8.5135,50.9694],[114.1069,-8.5088,56.3937],[114.1097,-8.5055,55.1014],[114.1097,-8.5005,50.9881],[114.113,-8.4984,42.3633],[114.1171,-8.4815,59.5601],[114.1231,-8.473,68.0507],[114.1132,-8.4638,62.6442],[114.1059,-8.4632,84.9174],[114.0991,-8.4574,78.4827],[114.096,-8.4516,84.7595],[114.1003,-8.4408,84.79],[114.0987,-8.4352,100.7412],[114.0998,-8.4275,98.0623],[114.0974,-8.4177,105.5083],[114.0941,-8.4137,105.0295],[114.09,-8.412,114.4679],[114.083,-8.4144,116.7292],[114.0559,-8.4171,369.2775],[114.0537,-8.4168,404.1545],[114.0519,-8.4134,378.0169],[114.042,-8.4174,631.2205],[114.0364,-8.4229,582.9],[114.0302,-8.4259,782.0092],[114.0286,-8.426,809.603],[114.0255,-8.4201,897.5002],[114.0066,-8.4249,895.1257],[113.9987,-8.4296,991.7512],[113.9984,-8.4414,610.304],[114.0,-8.445,503.7194],[113.9976,-8.4505,445.3472],[114.0072,-8.4579,237.5195],[114.0065,-8.46,206.1281],[114.0095,-8.4689,152.5377],[114.0075,-8.4723,136.9768],[114.0075,-8.4768,132.5008],[114.0106,-8.4791,130.1335],[114.0112,-8.4897,58.2319],[114.0136,-8.4938,56.5858],[114.0323,-8.4936,226.7582],[114.0509,-8.4955,557.3032],[114.0619,-8.508,115.5308],[114.0693,-8.5101,78.0176],[114.0744,-8.5102,68.635],[114.0752,-8.5089,65.8328],[114.0811,-8.5097,54.0757],[114.0814,-8.5115,55.8463],[114.0833,-8.5111,56.4998],[114.0861,-8.5153,46.3826],[114.0853,-8.5169,46.188],[114.0891,-8.5205,45.9808],[114.094,-8.5242,43.3967],[114.0971,-8.5235,38.9482],[114.1023,-8.5284,39.9563],[114.1049,-8.536,33.834],[114.1085,-8.5389,27.3982],[114.1059,-8.5413,25.613],[114.1053,-8.5499,25.7093],[114.1073,-8.5523,31.6433],[114.1061,-8.557,26.7789],[114.1077,-8.562,24.9844],[114.1057,-8.5674,21.6299],[114.1071,-8.5716,24.0241],[114.1057,-8.5742,18.0679],[114.1078,-8.5783,15.0615],[114.1145,-8.5832,16.5288],[114.1161,-8.5871,19.4797],[114.1159,-8.5935,13.7961],[114.1197,-8.5949,15.32],[114.1144,-8.6022,14.5014],[114.1167,-8.6066,14.4005],[114.119,-8.6071,6.2322],[114.1181,-8.6103,8.0272],[114.1094,-8.6117,8.3739],[114.1124,-8.6163,0.0],[114.1121,-8.6184,0.0],[114.1346,-8.621,3.5632],[114.1538,-8.6259,6.4612],[114.1731,-8.6328,5.5533],[114.1825,-8.6384,0.0],[114.1827,-8.6065,58.3174]]],
[[[114.112,-8.62,0.0],[114.1124,-8.6198,0.0],[114.1119,-8.6192,0.0],[114.1117,-8.6195,0.0],[114.112,-8.62,0.0]]]]}}