{"type":"Feature","properties":{"GID_3":"IDN.5.2.3_1","GID_0":"IDN","country":"Indonesia","GID_1":"IDN.5_1","province":"Bengkulu","NL_NAME_1":"NA","GID_2":"IDN.5.2_1","county":"BengkuluTengah","NL_NAME_2":"NA","city":"Lahan","VARNAME_3":"NA","NL_NAME_3":"NA","TYPE_3":"Kecamatan","ENGTYPE_3":"Sub-district","CC_3":"1709555","HASC_3":"NA","name":"Lahan.city"},
"geometry":{"type": "MultiPolygon","coordinates": [[[[102.5564,-3.8208,569.7964],[102.5592,-3.8176,692.4172],[102.5613,-3.8091,931.677],[102.5635,-3.8068,879.1606],[102.5735,-3.8029,924.7524],[102.5767,-3.8059,900.6581],[102.5856,-3.8049,1017.3292],[102.6068,-3.8102,1368.5074],[102.6094,-3.8034,1322.7505],[102.6113,-3.801,1355.6653],[102.6143,-3.8005,1434.2252],[102.6106,-3.7976,1345.4216],[102.6065,-3.7812,1126.1135],[102.5827,-3.7402,925.8862],[102.5783,-3.7139,871.1486],[102.5787,-3.7048,843.8854],[102.5754,-3.6945,833.7307],[102.5439,-3.704,271.1043],[102.52,-3.7051,233.755],[102.5098,-3.7114,136.6492],[102.5041,-3.7213,192.8446],[102.5038,-3.7251,220.8996],[102.5143,-3.7482,316.4018],[102.5227,-3.7765,334.641],[102.5415,-3.7877,432.6157],[102.5462,-3.7948,451.6487],[102.5532,-3.8187,524.99],[102.5564,-3.8208,569.7964]]]]}}