{"type":"Feature","properties":{"GID_3":"IDN.8.7.7_1","GID_0":"IDN","country":"Indonesia","GID_1":"IDN.8_1","province":"Jambi","NL_NAME_1":"NA","GID_2":"IDN.8.7_1","county":"Sarolangun","NL_NAME_2":"NA","city":"Pauh","VARNAME_3":"NA","NL_NAME_3":"NA","TYPE_3":"Kecamatan","ENGTYPE_3":"Sub-district","CC_3":"1503050","HASC_3":"NA","name":"Pauh.city"},
"geometry":{"type": "MultiPolygon","coordinates": [[[[103.0335,-2.32,99.2455],[103.0426,-2.3122,117.1132],[103.0502,-2.3139,105.5589],[103.0548,-2.3122,81.4963],[103.0583,-2.3183,95.2241],[103.0643,-2.3238,94.3483],[103.0681,-2.3308,94.2954],[103.0767,-2.3315,82.0151],[103.0739,-2.2889,77.4151],[103.06,-2.2054,95.3863],[103.0399,-2.1825,63.2685],[102.9945,-2.179,58.3001],[102.9911,-2.1746,60.8154],[102.9884,-2.1552,52.3949],[102.9797,-2.1508,64.0501],[102.9754,-2.1464,53.8531],[102.9701,-2.1473,68.9251],[102.9605,-2.1534,78.0912],[102.9544,-2.1605,61.4765],[102.9465,-2.1596,57.6337],[102.9212,-2.149,61.9778],[102.909,-2.1411,62.2997],[102.8968,-2.1358,41.8422],[102.8828,-2.1226,31.934],[102.8767,-2.1191,32.7977],[102.8601,-2.1182,43.1601],[102.8401,-2.1067,36.0037],[102.827,-2.1067,57.1224],[102.8217,-2.1093,46.246],[102.8209,-2.0794,67.9728],[102.8139,-2.0759,64.5368],[102.8008,-2.0724,60.8476],[102.7929,-2.0733,51.9811],[102.7921,-2.0812,49.6451],[102.7973,-2.0856,65.8324],[102.7938,-2.0952,62.3772],[102.7746,-2.1172,43.3303],[102.7606,-2.1206,30.4455],[102.744,-2.1153,33.2024],[102.7195,-2.1136,35.5199],[102.6726,-2.1033,37.2233],[102.6589,-2.1036,37.9135],[102.6471,-2.0985,39.5844],[102.6323,-2.0967,49.5331],[102.615,-2.1031,48.7653],[102.6243,-2.1163,38.8652],[102.6308,-2.1478,42.6018],[102.6178,-2.1578,46.394],[102.6485,-2.1652,44.9198],[102.6642,-2.1654,40.0215],[102.684,-2.1766,33.8921],[102.6872,-2.1833,35.9216],[102.6943,-2.1846,29.5983],[102.7433,-2.2153,34.9119],[102.7571,-2.2142,39.3009],[102.7597,-2.2153,43.5918],[102.7589,-2.2204,29.2207],[102.7604,-2.2247,34.3955],[102.7625,-2.2252,27.2923],[102.7668,-2.2213,33.9707],[102.7728,-2.2239,28.472],[102.7742,-2.2334,40.872],[102.7788,-2.2386,38.2848],[102.7802,-2.2427,42.9691],[102.7839,-2.2442,41.0129],[102.7885,-2.2437,43.6763],[102.7974,-2.2542,52.2403],[102.7974,-2.2607,45.6223],[102.7935,-2.2621,48.8717],[102.7935,-2.2638,48.2622],[102.8084,-2.2801,52.7499],[102.8122,-2.2926,56.7592],[102.8111,-2.3082,53.8262],[102.8152,-2.3148,50.6893],[102.8284,-2.3248,69.9885],[102.8339,-2.3271,77.0639],[102.8431,-2.3355,69.247],[102.8519,-2.3355,91.2417],[102.8593,-2.3312,87.9994],[102.8605,-2.3279,88.8893],[102.8643,-2.3248,96.1351],[102.8667,-2.318,97.6854],[102.8743,-2.3134,95.0038],[102.8769,-2.3045,77.9384],[102.8854,-2.308,81.3368],[102.892,-2.3142,84.0939],[102.8974,-2.3151,91.0516],[102.9089,-2.3117,86.5141],[102.9124,-2.3156,87.4543],[102.917,-2.3166,85.8243],[102.923,-2.3235,80.5919],[102.9348,-2.322,88.6133],[102.944,-2.3266,87.872],[102.9515,-2.3264,84.0333],[102.9604,-2.3297,76.8186],[102.9681,-2.3295,80.6902],[102.9846,-2.3388,78.0507],[102.9909,-2.3404,79.315],[103.0001,-2.3404,86.6611],[103.0045,-2.3352,80.0019],[103.0185,-2.3363,97.8958],[103.0256,-2.3403,88.206],[103.0342,-2.3393,83.3853],[103.0364,-2.3372,84.3155],[103.0368,-2.3342,97.7614],[103.0323,-2.3239,100.3355],[103.0335,-2.32,99.2455]]]]}}