{"type":"Feature","properties":{"GID_3":"IDN.22.10.23_1","GID_0":"IDN","country":"Indonesia","GID_1":"IDN.22_1","province":"PapuaBarat","NL_NAME_1":"NA","GID_2":"IDN.22.10_1","county":"TelukBintuni","NL_NAME_2":"NA","city":"Wamesa","VARNAME_3":"NA","NL_NAME_3":"NA","TYPE_3":"Distrik","ENGTYPE_3":"District","CC_3":"9104040","HASC_3":"NA","name":"Wamesa.city"},
"geometry":{"type": "MultiPolygon","coordinates": [[[[133.917,-2.2486,7.8263],[133.9487,-2.2478,0.0],[133.947,-2.2365,0.0],[133.945,-2.2355,0.0],[133.9404,-2.2387,0.0],[133.9371,-2.2385,0.0],[133.9455,-2.2322,10.5702],[133.9444,-2.2271,19.2774],[133.9413,-2.2224,0.0],[133.9439,-2.2208,6.1512],[133.9433,-2.2161,21.724],[133.9454,-2.2149,16.9566],[133.9472,-2.2099,20.1017],[133.9448,-2.2059,19.6122],[133.9468,-2.2046,22.4301],[133.9474,-2.1878,20.2546],[133.9514,-2.1793,24.1789],[133.9492,-2.171,20.7293],[133.9514,-2.1699,19.2811],[133.9554,-2.1709,14.701],[133.956,-2.1804,22.1758],[133.9523,-2.1969,27.9277],[133.9536,-2.1993,27.5497],[133.9524,-2.2068,25.2636],[133.9535,-2.2177,17.8952],[133.9616,-2.2296,4.1916],[133.9646,-2.2379,16.2006],[133.9605,-2.2443,0.5937],[133.96,-2.2489,39.3946],[133.9696,-2.2497,4.5891],[133.9799,-2.2473,115.4675],[134.0404,-2.2528,24.2059],[134.0514,-2.2524,23.1178],[134.052,-2.2392,229.3714],[134.0475,-2.1969,59.9153],[134.0451,-2.1901,23.0855],[134.0358,-2.1046,52.1115],[134.029,-2.0731,89.3278],[134.0238,-2.0393,144.0936],[134.0242,-2.0216,202.9988],[134.0202,-2.0046,153.7293],[133.9697,-2.0134,97.6797],[133.8822,-2.0226,49.8133],[133.8692,-2.0305,31.7735],[133.861,-2.0458,12.8245],[133.851,-2.0745,19.8045],[133.8439,-2.1036,27.1735],[133.8451,-2.1114,24.9549],[133.8512,-2.1037,26.3857],[133.8514,-2.1014,24.8452],[133.8614,-2.0958,21.3397],[133.8739,-2.0989,23.5428],[133.8883,-2.1092,2.2258],[133.9002,-2.1055,0.0],[133.9069,-2.1013,8.6002],[133.9198,-2.1035,18.9614],[133.9333,-2.09,16.6098],[133.9353,-2.0898,8.0687],[133.9395,-2.0924,4.3085],[133.9422,-2.1071,5.6171],[133.9365,-2.1158,1.6875],[133.9156,-2.136,0.0],[133.9145,-2.1434,18.5274],[133.8964,-2.1438,21.1285],[133.8889,-2.1484,22.0354],[133.8841,-2.1695,23.2082],[133.8802,-2.1719,0.0],[133.8764,-2.1846,20.5274],[133.8645,-2.2023,0.0],[133.8596,-2.2028,0.0],[133.8173,-2.2185,24.1237],[133.8135,-2.2233,24.7979],[133.8042,-2.2255,0.0],[133.785,-2.2336,21.0972],[133.7834,-2.2366,26.3564],[133.7804,-2.2369,24.5031],[133.7795,-2.2398,24.7707],[133.7818,-2.2485,24.7769],[133.8572,-2.2508,24.0723],[133.917,-2.2486,7.8263]]],
[[[133.8005,-2.1991,0.0],[133.8112,-2.1993,0.0],[133.8331,-2.1964,0.0],[133.853,-2.1913,0.0],[133.8557,-2.1887,0.0],[133.8567,-2.1823,0.0],[133.8501,-2.1686,16.2219],[133.8501,-2.1607,0.0],[133.8524,-2.1586,0.0],[133.8698,-2.1551,0.0],[133.8732,-2.153,0.0],[133.8725,-2.151,0.0],[133.8473,-2.1457,0.0],[133.8389,-2.1469,2.8484],[133.8273,-2.1538,24.0258],[133.7946,-2.1802,22.9058],[133.7915,-2.1845,24.2717],[133.7895,-2.19,26.6132],[133.7901,-2.1958,23.5947],[133.8005,-2.1991,0.0]]],
[[[133.8721,-2.1681,0.0],[133.8756,-2.1628,16.2926],[133.8746,-2.1607,20.9202],[133.8559,-2.1614,10.3858],[133.8522,-2.1641,9.3403],[133.8528,-2.167,14.693],[133.8604,-2.174,0.0],[133.8616,-2.1792,0.0],[133.8721,-2.1681,0.0]]],
[[[133.8919,-2.1296,5.5214],[133.8929,-2.1337,0.0],[133.8969,-2.1349,0.0],[133.9121,-2.1329,5.7164],[133.9267,-2.1204,8.6346],[133.928,-2.1187,5.1719],[133.9273,-2.1147,12.2905],[133.9243,-2.1118,0.0],[133.9145,-2.1078,0.562],[133.8926,-2.1125,11.5967],[133.8897,-2.1195,25.4471],[133.8919,-2.1296,5.5214]]],
[[[133.8759,-2.1399,0.0],[133.88,-2.1417,0.0],[133.8826,-2.1406,0.0],[133.8858,-2.136,0.0],[133.8863,-2.1133,22.4278],[133.8764,-2.1099,0.0],[133.8668,-2.1021,21.4273],[133.8601,-2.1009,0.0],[133.8573,-2.1027,0.0],[133.8549,-2.1089,24.5189],[133.8515,-2.125,25.847],[133.8524,-2.1305,25.0451],[133.8672,-2.1351,23.8973],[133.8759,-2.1399,0.0]]],
[[[133.931,-2.1088,8.9619],[133.9295,-2.114,6.6914],[133.9322,-2.1146,7.701],[133.9363,-2.1082,12.0727],[133.936,-2.0965,9.208],[133.9344,-2.0949,12.0624],[133.9257,-2.1026,0.0],[133.931,-2.1088,8.9619]]]]}}