{"type":"Feature","properties":{"GID_3":"IDN.10.9.14_1","GID_0":"IDN","country":"Indonesia","GID_1":"IDN.10_1","province":"JawaTengah","NL_NAME_1":"NA","GID_2":"IDN.10.9_1","county":"Grobogan","NL_NAME_2":"NA","city":"Purwodadi","VARNAME_3":"NA","NL_NAME_3":"NA","TYPE_3":"Kecamatan","ENGTYPE_3":"Sub-district","CC_3":"3315130","HASC_3":"NA","name":"Purwodadi.city"},
"geometry":{"type": "MultiPolygon","coordinates": [[[[110.9859,-7.1236,34.6773],[110.9878,-7.1189,33.0996],[110.9922,-7.1155,28.0455],[110.9957,-7.1154,31.9433],[110.9938,-7.1137,34.4392],[110.9957,-7.1107,31.6679],[110.9937,-7.1097,27.6982],[110.9932,-7.1031,33.142],[110.9852,-7.1033,33.1816],[110.9835,-7.1006,26.2216],[110.9801,-7.1018,24.3457],[110.9799,-7.0978,29.4884],[110.9843,-7.0985,25.2073],[110.9815,-7.0926,31.3934],[110.9774,-7.0969,30.6017],[110.9732,-7.0944,31.0999],[110.9704,-7.0979,24.9779],[110.9676,-7.0959,26.5342],[110.968,-7.0994,25.3376],[110.9614,-7.0999,25.1476],[110.9643,-7.1023,26.6176],[110.9642,-7.1038,23.427],[110.9598,-7.1043,28.2737],[110.9566,-7.1,27.0906],[110.9524,-7.1008,25.9687],[110.9534,-7.0955,26.2625],[110.9488,-7.0972,27.8211],[110.9489,-7.0927,23.9003],[110.9446,-7.0938,23.8882],[110.9447,-7.0915,25.0714],[110.9469,-7.0904,23.4512],[110.9447,-7.0884,22.6047],[110.947,-7.0827,24.2052],[110.9429,-7.082,23.7387],[110.9436,-7.0752,26.6614],[110.9417,-7.0726,27.6652],[110.9395,-7.0721,29.1122],[110.9383,-7.0751,28.6831],[110.936,-7.0739,27.0887],[110.9376,-7.0789,20.7061],[110.9343,-7.0798,26.9662],[110.9345,-7.0845,23.6321],[110.9314,-7.081,26.4113],[110.9334,-7.0751,24.9688],[110.9306,-7.0743,24.4346],[110.9274,-7.0751,21.4556],[110.9264,-7.081,21.8932],[110.9217,-7.0796,22.8919],[110.9163,-7.0738,24.3575],[110.9129,-7.0754,22.5776],[110.9116,-7.0794,21.4197],[110.9067,-7.0782,24.6555],[110.9048,-7.0746,23.4197],[110.9011,-7.0724,25.0228],[110.899,-7.0734,24.6032],[110.8976,-7.0771,24.3307],[110.8941,-7.077,22.0863],[110.8902,-7.0738,24.2767],[110.8912,-7.067,22.423],[110.8888,-7.0677,22.5597],[110.8857,-7.0647,20.805],[110.887,-7.0606,21.7977],[110.8843,-7.0607,22.9193],[110.8822,-7.0655,20.7971],[110.8801,-7.063,20.8644],[110.8806,-7.0609,20.8035],[110.8849,-7.0577,21.8041],[110.8845,-7.0542,20.4052],[110.8811,-7.0519,20.3835],[110.8741,-7.0522,21.151],[110.8774,-7.0497,21.1966],[110.8804,-7.0499,23.4584],[110.8794,-7.0468,20.1253],[110.8729,-7.047,19.5485],[110.8736,-7.0439,19.5592],[110.8724,-7.0433,19.5592],[110.8697,-7.0448,19.5804],[110.8685,-7.049,20.5087],[110.8651,-7.0459,19.702],[110.8595,-7.0497,19.679],[110.8574,-7.0478,19.1325],[110.8531,-7.063,20.233],[110.8545,-7.0679,22.6471],[110.8509,-7.071,21.3835],[110.8532,-7.0719,25.2146],[110.8545,-7.075,21.8035],[110.8596,-7.0704,22.1823],[110.8624,-7.0703,20.3902],[110.864,-7.0719,20.5502],[110.8612,-7.0729,23.8178],[110.8598,-7.078,24.8251],[110.8565,-7.0807,23.8798],[110.8582,-7.0815,26.1286],[110.862,-7.0799,25.7191],[110.86279999999999,-7.0815,25.5706],[110.8596,-7.0822,26.1286],[110.8581,-7.088,25.3386],[110.8546,-7.0902,21.7678],[110.8571,-7.0915,24.252],[110.8599,-7.0888,23.0633],[110.8612,-7.0897,26.2585],[110.8596,-7.0927,28.7485],[110.8548,-7.0954,24.9436],[110.8584,-7.0955,25.9825],[110.8598,-7.103,25.2301],[110.858,-7.1037,25.2301],[110.8552,-7.1006,23.0585],[110.8548,-7.1044,24.5646],[110.8519,-7.1076,23.6793],[110.8549,-7.1075,26.6718],[110.8562,-7.111,26.1737],[110.8514,-7.111,24.9708],[110.8516,-7.1145,27.4215],[110.8573,-7.1138,23.997],[110.8593,-7.115,23.7682],[110.8546,-7.1172,25.0923],[110.855,-7.119,27.5581],[110.8582,-7.1203,25.2817],[110.8609,-7.117,23.2246],[110.8653,-7.122,23.8316],[110.8754,-7.1201,25.9876],[110.8758,-7.118,25.6542],[110.8848,-7.1194,26.7621],[110.8856,-7.116,26.2355],[110.9019,-7.1179,27.4652],[110.9036,-7.115,27.9784],[110.9341,-7.1248,27.8514],[110.934,-7.1289,28.3375],[110.9359,-7.1295,28.3375],[110.9384,-7.13,28.5157],[110.9405,-7.1262,28.5096],[110.961,-7.1334,34.5878],[110.9629,-7.1288,33.4628],[110.9627,-7.1244,34.5929],[110.9674,-7.1228,30.6135],[110.9687,-7.1277,32.1884],[110.9756,-7.13,35.1285],[110.9792,-7.1437,40.2101],[110.9867,-7.1467,40.5859],[110.9918,-7.1398,39.1274],[110.9967,-7.1391,37.706],[110.9984,-7.137,40.3703],[110.997,-7.1363,38.2677],[110.9977,-7.1344,39.1167],[110.9957,-7.1352,35.1798],[110.9965,-7.1319,38.4663],[110.9945,-7.1338,34.8468],[110.9935,-7.1315,36.4284],[110.991,-7.1314,39.0634],[110.9918,-7.1301,32.8909],[110.9862,-7.1261,35.0436],[110.9859,-7.1236,34.6773]]]]}}