{"type":"Feature","properties":{"GID_3":"IDN.10.23.8_1","GID_0":"IDN","country":"Indonesia","GID_1":"IDN.10_1","province":"JawaTengah","NL_NAME_1":"NA","GID_2":"IDN.10.23_1","county":"Pemalang","NL_NAME_2":"NA","city":"Petarukan","VARNAME_3":"NA","NL_NAME_3":"NA","TYPE_3":"Kecamatan","ENGTYPE_3":"Sub-district","CC_3":"3327100","HASC_3":"NA","name":"Petarukan.city"},
"geometry":{"type": "MultiPolygon","coordinates": [[[[109.4826,-6.9358,13.6168],[109.4839,-6.9317,11.9291],[109.488,-6.9299,11.6128],[109.4893,-6.9263,11.2579],[109.4916,-6.9263,10.3608],[109.4919,-6.9235,10.0465],[109.4955,-6.9191,9.7055],[109.4945,-6.9139,8.3128],[109.4967,-6.9094,11.2811],[109.4948,-6.905,8.2063],[109.4951,-6.9008,8.8138],[109.4977,-6.8969,7.1517],[109.5014,-6.897,5.9591],[109.5021,-6.8929,4.5425],[109.4979,-6.8922,8.6723],[109.5056,-6.8817,6.7634],[109.5034,-6.8805,4.4229],[109.5051,-6.875,4.5959],[109.5043,-6.8698,9.9057],[109.5098,-6.8613,12.6379],[109.5088,-6.8596,11.9681],[109.5061,-6.8597,10.9691],[109.5043,-6.8654,6.0219],[109.4986,-6.8652,5.0441],[109.4973,-6.8685,11.4673],[109.4973,-6.8614,4.5118],[109.4997,-6.857,6.2512],[109.4948,-6.8562,6.8818],[109.4914,-6.8533,3.4939],[109.4931,-6.8489,8.8475],[109.4979,-6.8492,8.1983],[109.5014,-6.8527,8.3056],[109.5039,-6.8527,4.7137],[109.5049,-6.844,8.3041],[109.4968,-6.8442,7.4951],[109.4997,-6.8383,10.5211],[109.5035,-6.836,9.9012],[109.5032,-6.8342,5.0203],[109.5004,-6.8345,3.7304],[109.4954,-6.8384,6.5627],[109.4932,-6.8355,5.9149],[109.4991,-6.8312,11.0527],[109.4993,-6.8279,7.3667],[109.4943,-6.8271,7.0409],[109.4973,-6.8174,9.4551],[109.4945,-6.8147,1.4604],[109.4941,-6.8082,1.6814],[109.4925,-6.8067,0.74],[109.4681,-6.8242,0.0],[109.4395,-6.8407,0.0],[109.4454,-6.8416,2.5801],[109.4468,-6.847,1.1335],[109.4464,-6.8528,1.3685],[109.4426,-6.858,2.2915],[109.4406,-6.8662,3.3215],[109.4406,-6.8718,3.6828],[109.4441,-6.8728,4.4851],[109.4427,-6.8913,8.1151],[109.4361,-6.8926,9.1905],[109.4352,-6.9074,9.0659],[109.4366,-6.9115,10.0467],[109.4394,-6.9132,10.4651],[109.4542,-6.9143,9.3426],[109.4532,-6.9217,10.4754],[109.4583,-6.9261,11.3129],[109.4556,-6.93,13.4854],[109.4585,-6.9325,12.7234],[109.4607,-6.9398,15.6637],[109.4583,-6.9457,15.69],[109.4524,-6.945,15.0412],[109.45,-6.9472,15.5954],[109.4463,-6.9471,16.1292],[109.4457,-6.9528,16.2082],[109.4481,-6.954,18.0049],[109.4459,-6.9567,17.2108],[109.4754,-6.9505,15.6145],[109.4761,-6.9478,14.3637],[109.4787,-6.9464,16.9657],[109.4809,-6.9411,13.1694],[109.4836,-6.939,14.8742],[109.4837,-6.9373,14.8533],[109.4815,-6.9361,13.6168],[109.4826,-6.9358,13.6168]]]]}}