{"type":"Feature","properties":{"GID_3":"IDN.1.20.10_1","GID_0":"IDN","country":"Indonesia","GID_1":"IDN.1_1","province":"Aceh","NL_NAME_1":"NA","GID_2":"IDN.1.20_1","county":"Pidie","NL_NAME_2":"NA","city":"KotaSigli","VARNAME_3":"NA","NL_NAME_3":"NA","TYPE_3":"Kecamatan","ENGTYPE_3":"Sub-district","CC_3":"1109200","HASC_3":"NA","name":"Kota_Sigli.city"},
"geometry":{"type": "MultiPolygon","coordinates": [[[[95.9609,5.3579,8.612],[95.9622,5.3567,8.5129],[95.9642,5.3599,4.1069],[95.9609,5.3613,7.3444],[95.9609,5.3579,8.612]]],
[[[95.9718,5.3821,3.8396],[95.9668,5.3869,2.7274],[95.9642,5.3864,2.4298],[95.9639,5.3892,0.0],[95.9589,5.3906,1.6949],[95.9499,5.3971,0.0],[95.9382,5.4076,0.0],[95.935,5.4059,1.5038],[95.9354,5.4043,1.8005],[95.9491,5.3961,2.9856],[95.95,5.3931,1.979],[95.9541,5.3907,1.89],[95.9515,5.3871,2.6873],[95.9533,5.3828,3.8404],[95.9513,5.38,6.304],[95.9464,5.3803,6.5424],[95.9455,5.382,12.6746],[95.9405,5.3834,10.2399],[95.9386,5.3818,8.1689],[95.9397,5.3787,8.0869],[95.9513,5.3794,6.304],[95.9506,5.376,3.7704],[95.9545,5.3735,2.2724],[95.9599,5.3735,3.3422],[95.9638,5.3758,2.2004],[95.9731,5.3707,1.6587],[95.9754,5.3782,2.2632],[95.9718,5.3821,3.8396]]]]}}