{"type":"Feature","properties":{"GID_3":"IDN.4.5.27_1","GID_0":"IDN","country":"Indonesia","GID_1":"IDN.4_1","province":"Banten","NL_NAME_1":"NA","GID_2":"IDN.4.5_1","county":"Pandeglang","NL_NAME_2":"NA","city":"Panimbang","VARNAME_3":"NA","NL_NAME_3":"NA","TYPE_3":"Kecamatan","ENGTYPE_3":"Sub-district","CC_3":"3601060","HASC_3":"NA","name":"Panimbang.city"},
"geometry":{"type": "MultiPolygon","coordinates": [[[[105.6537,-6.5731,166.4157],[105.6536,-6.5746,182.0234],[105.6569,-6.5728,171.8986],[105.6619,-6.5675,181.8223],[105.6656,-6.5673,130.0779],[105.665,-6.5662,126.3605],[105.6686,-6.5607,113.8876],[105.6658,-6.5565,121.5644],[105.6681,-6.5537,112.5024],[105.6671,-6.552,71.8947],[105.6704,-6.55,97.1007],[105.6709,-6.5467,57.1834],[105.6748,-6.5451,44.0946],[105.6736,-6.543,34.4496],[105.6752,-6.5425,34.9674],[105.6741,-6.541,36.7794],[105.6759,-6.5394,34.6213],[105.6822,-6.5454,22.6932],[105.6811,-6.5471,34.7162],[105.6831,-6.5494,38.4934],[105.6911,-6.5479,50.9279],[105.6997,-6.5484,21.748],[105.7024,-6.5531,17.399],[105.7084,-6.5532,51.9316],[105.7084,-6.5557,52.6292],[105.7146,-6.5547,14.0443],[105.7133,-6.5569,16.7355],[105.7149,-6.5606,19.573],[105.7122,-6.562,20.3917],[105.7152,-6.5643,21.2144],[105.7182,-6.562,32.2912],[105.7313,-6.5614,38.1588],[105.7361,-6.5594,29.1237],[105.7405,-6.5605,20.3705],[105.7412,-6.5572,13.9325],[105.7502,-6.5564,13.5129],[105.749,-6.5542,9.8121],[105.7501,-6.551,11.6021],[105.7627,-6.5501,5.0774],[105.7725,-6.5455,6.1991],[105.7749,-6.5481,7.4485],[105.7799,-6.5481,8.6718],[105.7797,-6.5384,4.6954],[105.7864,-6.5376,3.7083],[105.7863,-6.5394,3.8869],[105.791,-6.5382,4.1363],[105.7921,-6.541,5.8862],[105.8012,-6.5407,7.5474],[105.8027,-6.5377,6.0373],[105.8025,-6.5328,3.9388],[105.8073,-6.522,3.7113],[105.8128,-6.5227,4.0582],[105.818,-6.5187,4.1458],[105.8193,-6.5192,6.1549],[105.8224,-6.5144,7.3951],[105.8265,-6.5135,4.4102],[105.8261,-6.5051,4.7345],[105.8286,-6.505,4.3942],[105.8293,-6.4992,4.7538],[105.8263,-6.4979,3.1355],[105.8264,-6.4958,4.3936],[105.8237,-6.4964,4.2013],[105.8233,-6.4945,7.2332],[105.8219,-6.4981,4.7164],[105.8195,-6.4966,7.1017],[105.8194,-6.4939,3.39],[105.8177,-6.4958,5.4939],[105.8175,-6.4901,2.4731],[105.8109,-6.4883,1.3451],[105.8123,-6.4846,1.9003],[105.8098,-6.4852,1.857],[105.8089,-6.4885,1.5201],[105.8057,-6.4853,1.505],[105.8045,-6.4887,3.6],[105.7961,-6.4912,0.53],[105.783,-6.5067,2.8512],[105.7695,-6.5173,1.9957],[105.7518,-6.5216,1.4281],[105.7451,-6.5193,0.0],[105.7347,-6.5209,0.0],[105.7329,-6.5169,0.0],[105.7324,-6.5202,6.9391],[105.7348,-6.524,2.8069],[105.7282,-6.5302,4.3356],[105.7124,-6.5323,1.7143],[105.7093,-6.5311,5.0759],[105.7085,-6.5276,0.8716],[105.687,-6.522,5.1407],[105.6832,-6.514,0.0],[105.6789,-6.5132,9.2993],[105.6738,-6.5089,1.624],[105.6731,-6.5031,0.0],[105.6779,-6.4927,4.7011],[105.6756,-6.4854,3.9612],[105.679,-6.4776,2.8387],[105.6715,-6.4725,0.572],[105.6656,-6.4714,1.3188],[105.6678,-6.4782,0.0],[105.6669,-6.4802,2.7909],[105.6631,-6.4814,0.9727],[105.6562,-6.4783,4.8211],[105.6497,-6.4816,2.5667],[105.6477,-6.4866,8.4064],[105.6495,-6.4923,0.6587],[105.6462,-6.497,8.2405],[105.64,-6.5008,5.0948],[105.6401,-6.5045,7.4313],[105.6351,-6.5108,0.0],[105.6339,-6.516,5.4649],[105.6286,-6.5199,4.6212],[105.6275,-6.5273,32.5364],[105.6246,-6.53,1.0004],[105.6245,-6.534,0.6329],[105.622,-6.538,2.632],[105.622,-6.546,1.8134],[105.6242,-6.5508,9.4737],[105.6261,-6.5496,17.154],[105.6272,-6.5511,31.1859],[105.6317,-6.5515,69.9858],[105.6327,-6.5498,67.1993],[105.6368,-6.5489,148.8771],[105.6387,-6.5437,218.9138],[105.6401,-6.5436,260.9777],[105.6413,-6.5484,207.0964],[105.644,-6.5514,240.8615],[105.6448,-6.559,226.2723],[105.649,-6.5613,241.1491],[105.6537,-6.5731,166.4157]]],
[[[105.7214,-6.4924,0.0],[105.7261,-6.493,0.0],[105.7253,-6.4909,0.0],[105.7188,-6.488,3.9369],[105.7192,-6.4903,0.0],[105.7214,-6.4924,0.0]]]]}}