{"type":"Feature","properties":{"GID_3":"IDN.30.14.1_1","GID_0":"IDN","country":"Indonesia","GID_1":"IDN.30_1","province":"SumateraBarat","NL_NAME_1":"NA","GID_2":"IDN.30.14_1","county":"Payakumbuh","NL_NAME_2":"NA","city":"PayakumbuhBarat","VARNAME_3":"NA","NL_NAME_3":"NA","TYPE_3":"Kecamatan","ENGTYPE_3":"Sub-district","CC_3":"1376010","HASC_3":"NA","name":"Payakumbuh_Barat.city"},
"geometry":{"type": "MultiPolygon","coordinates": [[[[100.6281,-0.2221,508.1784],[100.6244,-0.2147,507.8704],[100.6194,-0.2162,511.3552],[100.6151,-0.2107,504.7855],[100.6118,-0.2134,507.3291],[100.6093,-0.2114,507.361],[100.602,-0.2196,512.6757],[100.5974,-0.2206,510.8029],[100.5861,-0.2374,649.3867],[100.5796,-0.243,559.8937],[100.5907,-0.2473,668.9518],[100.5972,-0.2605,619.6506],[100.6044,-0.2561,602.8371],[100.6151,-0.2594,517.6423],[100.6171,-0.2487,513.6709],[100.6199,-0.2502,518.6659],[100.6278,-0.2477,524.6423],[100.6319,-0.2411,520.6359],[100.6335,-0.2416,522.6375],[100.639,-0.2343,517.553],[100.6412,-0.2336,514.757],[100.6366,-0.2288,510.1391],[100.6382,-0.2271,508.6361],[100.6352,-0.2242,514.1034],[100.6329,-0.2257,517.3047],[100.6281,-0.2221,508.1784]]]]}}