{"type":"Feature","properties":{"GID_3":"IDN.28.11.19_1","GID_0":"IDN","country":"Indonesia","GID_1":"IDN.28_1","province":"SulawesiTenggara","NL_NAME_1":"NA","GID_2":"IDN.28.11_1","county":"Muna","NL_NAME_2":"NA","city":"NapanoKusambi","VARNAME_3":"NA","NL_NAME_3":"NA","TYPE_3":"Kecamatan","ENGTYPE_3":"Sub-district","CC_3":"7402082","HASC_3":"NA","name":"Napano_Kusambi.city"},
"geometry":{"type": "MultiPolygon","coordinates": [[[[122.578,-4.7262,37.3246],[122.578,-4.734,40.3722],[122.6019,-4.7613,68.5462],[122.6562,-4.7234,66.2457],[122.6415,-4.6995,33.2107],[122.6321,-4.695,36.7373],[122.6312,-4.6257,0.0],[122.6282,-4.6294,0.0],[122.6299,-4.6323,0.0],[122.6288,-4.633,1.189],[122.6187,-4.6303,0.0],[122.6195,-4.6369,0.0],[122.6174,-4.6341,0.0],[122.6031,-4.6318,0.0],[122.5996,-4.6269,0.0],[122.5932,-4.6436,2.1938],[122.5962,-4.6505,0.0],[122.5952,-4.6571,3.1932],[122.5899,-4.6618,2.4849],[122.5846,-4.6697,1.8403],[122.5737,-4.6763,6.2817],[122.5651,-4.6791,1.6319],[122.5592,-4.69,2.5719],[122.5541,-4.6938,3.9244],[122.578,-4.7262,37.3246]]]]}}