{"type":"Feature","properties":{"GID_2":"IDN.23.1_1","GID_0":"IDN","country":"Indonesia","GID_1":"IDN.23_1","province":"Papua","NL_NAME_1":"NA","county":"Asmat","VARNAME_2":"NA","NL_NAME_2":"NA","TYPE_2":"Kabupaten","ENGTYPE_2":"Regency","CC_2":"9415","HASC_2":"ID.PA.AS","name":"Asmat.county"},
"geometry":{"type": "MultiPolygon","coordinates": [[[[138.7196,-6.5111,14.8702],[138.7455,-6.5149,8.481],[138.7525,-6.5124,12.5167],[138.7607,-6.5048,12.2347],[138.7683,-6.494,10.7962],[138.781,-6.4807,9.1777],[138.7918,-6.4782,10.8921],[138.8086,-6.4802,14.2005],[138.8112,-6.4829,14.8957],[138.8114,-6.4859,21.1565],[138.8132,-6.4863,20.1883],[138.819,-6.4815,6.7332],[138.8277,-6.4801,9.8473],[138.8357,-6.4803,9.3062],[138.8406,-6.4822,4.6203],[138.8508,-6.4811,8.8646],[138.8622,-6.4706,13.8961],[138.8706,-6.4656,6.7784],[138.8761,-6.4568,8.2078],[138.882,-6.4534,8.042],[138.887,-6.4464,7.3064],[138.9033,-6.433,17.0627],[138.9109,-6.4296,5.0952],[138.9163,-6.4187,8.9678],[138.9241,-6.4202,10.7541],[138.9431,-5.7228,16.9654],[139.259,-5.5474,18.3092],[139.6444,-5.0411,55.5764],[139.5114,-5.0063,44.2481],[139.3042,-4.9383,40.9622],[139.1343,-4.8261,53.4112],[139.0296,-4.7374,23.2035],[138.9498,-4.7265,112.4121],[138.825,-4.7283,53.9828],[138.718,-4.7409,42.9853],[138.643,-4.7397,47.1798],[138.5832,-4.7262,62.6868],[138.3412,-4.6781,106.346],[138.1372,-4.6307,46.2202],[138.1116,-4.6282,119.9073],[137.9662,-4.5984,133.4263],[137.9126,-4.6063,77.1193],[137.8699,-4.6063,107.7424],[137.7509,-4.6276,47.5498],[137.5775,-4.6521,36.7044],[137.6144,-4.7303,31.7617],[137.6513,-4.7908,30.3913],[137.6882,-4.8189,23.1341],[137.7369,-4.8336,33.5073],[137.8136,-4.8941,22.9034],[137.8151,-4.9443,24.7176],[137.7915,-4.9709,20.4555],[137.7634,-4.9901,13.9954],[137.7059,-5.0225,13.2108],[137.6793,-5.0329,6.2667],[137.6601,-5.0373,4.9404],[137.6534,-5.0408,4.4547],[137.6503,-5.0488,0.0],[137.6426,-5.0543,4.5966],[137.6412,-5.062,0.0],[137.6332,-5.0745,0.0],[137.628,-5.0784,0.0],[137.6185,-5.078,0.0],[137.6119,-5.0801,0.0],[137.6022,-5.0871,0.0],[137.6018,-5.1014,0.0],[137.6064,-5.1069,0.0],[137.6266,-5.1164,0.0],[137.6311,-5.1223,0.0],[137.6297,-5.1299,0.0],[137.6203,-5.1362,0.0],[137.614,-5.1383,0.0],[137.606,-5.139,0.0],[137.5869,-5.1355,0.0],[137.5768,-5.1359,0.0],[137.5597,-5.1439,0.0],[137.5549,-5.1469,0.0],[137.5561,-5.1569,0.0],[137.5504,-5.169,0.0],[137.5577,-5.1763,0.0],[137.5674,-5.1827,8.6982],[137.5773,-5.1869,0.0],[137.5808,-5.1852,4.8261],[137.5846,-5.1893,1.1251],[137.6024,-5.1968,0.0],[137.6146,-5.1981,2.6783],[137.6196,-5.2029,7.3854],[137.6391,-5.2144,2.767],[137.6439,-5.2147,0.0],[137.653,-5.2078,16.4041],[137.6671,-5.2149,0.0],[137.683,-5.2199,0.0],[137.684,-5.2254,3.8271],[137.6814,-5.2383,1.6921],[137.6892,-5.2438,9.5616],[137.7164,-5.2747,0.0],[137.7227,-5.2786,4.0323],[137.7323,-5.2806,20.8146],[137.741,-5.2906,0.0],[137.7434,-5.2974,0.0],[137.7437,-5.3048,0.0],[137.7419,-5.3087,0.0],[137.7274,-5.3261,0.0],[137.7211,-5.3471,0.0],[137.7223,-5.3563,0.0],[137.7285,-5.3668,0.0],[137.7325,-5.3706,6.9936],[137.7413,-5.3745,2.8014],[137.7444,-5.3744,1.3655],[137.762,-5.361,0.0],[137.7684,-5.3594,0.0],[137.7749,-5.3645,0.0],[137.7811,-5.3668,0.0],[137.7876,-5.3683,3.0023],[137.7914,-5.3675,14.9995],[137.7913,-5.3687,0.0],[137.7961,-5.37,6.3922],[137.7985,-5.3743,3.2215],[137.8007,-5.3735,8.5912],[137.8027,-5.3783,12.5622],[137.8098,-5.3796,4.9848],[137.817,-5.3763,9.6482],[137.8257,-5.3757,8.9217],[137.8325,-5.3728,5.9607],[137.8392,-5.3746,1.6986],[137.8503,-5.3684,0.5526],[137.8549,-5.3606,5.2685],[137.8621,-5.3582,0.0],[137.8739,-5.3571,0.0],[137.8785,-5.3662,1.0224],[137.8916,-5.3699,0.0],[137.8921,-5.3755,0.0],[137.894,-5.3769,0.6343],[137.8947,-5.381,0.0],[137.9012,-5.3894,11.2148],[137.9193,-5.4079,14.8002],[137.9258,-5.4111,23.8414],[137.9348,-5.4247,2.1658],[137.9507,-5.4438,4.7456],[137.9612,-5.4524,12.2489],[137.9715,-5.4642,5.0066],[137.9738,-5.4647,6.1209],[137.9818,-5.4757999999999996,9.0301],[138.0069,-5.4981,14.89],[138.0122,-5.5017,13.9271],[138.0184,-5.5035,15.7204],[138.0269,-5.5044,22.4829],[138.039,-5.5019,0.0],[138.0472,-5.503,0.0],[138.0545,-5.5081,0.0],[138.0612,-5.5165,5.7684],[138.0759,-5.5205,8.8892],[138.0842,-5.5253,0.0],[138.0841,-5.531,14.533],[138.0737,-5.5529,0.0],[138.0634,-5.5576,2.1915],[138.0587,-5.5642,5.3235],[138.0535,-5.578,9.7079],[138.0514,-5.5767,7.8654],[138.0482,-5.5922,11.6944],[138.0502,-5.5941,9.1814],[138.0466,-5.5962,0.0],[138.0435,-5.6116,1.6522],[138.0432,-5.62,0.0],[138.0466,-5.6345,0.0],[138.0452,-5.6365,0.0],[138.0481,-5.6445,3.8097],[138.0468,-5.6486,1.389],[138.0491,-5.6498,5.2252],[138.0487,-5.6518,0.0],[138.0499,-5.6515,3.9068],[138.0508,-5.6594,3.3949],[138.0497,-5.6593,3.3949],[138.0494,-5.6621,2.4636],[138.0507,-5.6634,1.4696],[138.0493,-5.6673,0.5978],[138.0498,-5.6739,3.8731],[138.053,-5.6816,1.8387],[138.055,-5.6824,1.8387],[138.0537,-5.6868,0.0],[138.0576,-5.6962,10.3399],[138.0665,-5.7034,8.3787],[138.0641,-5.709,0.0],[138.0652,-5.7226,0.0],[138.0682,-5.728,0.0],[138.0727,-5.7313,0.0],[138.073,-5.7348,0.0],[138.091,-5.7462,3.4341],[138.0898,-5.7414,16.0745],[138.0926,-5.7367,8.8669],[138.0967,-5.7342,11.1396],[138.0958,-5.7331,14.0003],[138.1247,-5.7227,12.8696],[138.1263,-5.7237,12.3295],[138.1303,-5.7197,11.6156],[138.1408,-5.7187,10.2879],[138.1669,-5.7214,11.4979],[138.174,-5.7286,10.5019],[138.1755,-5.7426,0.0],[138.1594,-5.7536,1.0455],[138.1564,-5.7641,17.4151],[138.1564,-5.7756,18.0611],[138.1599,-5.7926,12.5134],[138.1619,-5.797,6.8906],[138.1637,-5.7974,16.3484],[138.1624,-5.798,16.8343],[138.1629,-5.8036,17.483],[138.1659,-5.8098,11.7225],[138.1746,-5.8193,13.5984],[138.1913,-5.8246,0.0],[138.2308,-5.8241,2.877],[138.2332,-5.826,9.9416],[138.2435,-5.8275,8.4646],[138.269,-5.8356,12.1847],[138.2781,-5.8414,10.3512],[138.2804,-5.8483,0.0],[138.2791,-5.859,0.0],[138.2766,-5.8619,0.0],[138.2585,-5.8651,0.0],[138.2521,-5.8756,4.08],[138.2503,-5.8928,0.0],[138.2506,-5.9079,14.456],[138.2515,-5.9137,10.1583],[138.2531,-5.9146,7.9465],[138.2529,-5.919,14.2674],[138.2556,-5.9242,8.3301],[138.266,-5.934,5.5521],[138.2671,-5.9333,10.701599999999999],[138.2676,-5.9356,12.1338],[138.2795,-5.9427,10.7332],[138.2812,-5.9496,2.3933],[138.2854,-5.954,4.6426],[138.292,-5.9674,9.2486],[138.2948,-5.9696,14.42],[138.3076,-5.9905,6.9524],[138.3106,-5.9931,5.9428],[138.3107,-5.9975,9.9644],[138.327,-6.0319,12.401],[138.3264,-6.0337,1.449],[138.3303,-6.0413,7.0541],[138.333,-6.0434,12.7123],[138.3331,-6.0459,12.8038],[138.3426,-6.0646,0.0],[138.3489,-6.0708,0.7231],[138.3482,-6.082,5.7566],[138.3521,-6.0955,9.3108],[138.366,-6.1205,8.7305],[138.3724,-6.1281,12.7013],[138.3828,-6.1468,6.3765],[138.3842,-6.1468,6.3765],[138.3836,-6.149,2.8354],[138.3881,-6.1576,2.5271],[138.3931,-6.163,9.4269],[138.3951,-6.1706,1.704],[138.3876,-6.176,0.0],[138.3842,-6.1822,0.0],[138.3833,-6.1989,3.5189],[138.3923,-6.2365,0.0],[138.3971,-6.2495,0.4964],[138.4017,-6.2558,0.1375],[138.4024,-6.2662,0.0],[138.4107,-6.2937,0.0],[138.4314,-6.3226,0.1283],[138.4205,-6.3398,1.9169],[138.4217,-6.3462,10.7535],[138.4282,-6.3572,11.281],[138.4319,-6.3623,8.1507],[138.4689,-6.3986,14.3775],[138.4753,-6.4042,3.2341],[138.4823,-6.4076,11.8343],[138.4833,-6.4098,0.6686],[138.486,-6.4096,6.5328],[138.4925,-6.4196,0.929],[138.4983,-6.4221,12.7825],[138.5061,-6.4305,8.7709],[138.5311,-6.4494,19.2162],[138.5681,-6.484,18.7637],[138.5759,-6.4884,8.5222],[138.5797,-6.4943,14.9253],[138.6063,-6.5219,11.3683],[138.6059,-6.5238,6.9377],[138.612,-6.5298,14.1997],[138.6113,-6.5308,14.1997],[138.6292,-6.555,6.1133],[138.6414,-6.5668,0.0],[138.6511,-6.553,6.5068],[138.6644,-6.546,13.2164],[138.672,-6.5207,21.0154],[138.6822,-6.5143,13.0329],[138.6999,-6.508,4.5245],[138.7196,-6.5111,14.8702]]],
[[[138.0088,-5.5039,11.6544],[138.0052,-5.5025,0.0],[138.0061,-5.505,1.601],[138.0102,-5.5071,3.9832],[138.0085,-5.506,10.9618],[138.0097,-5.5051,10.9618],[138.0088,-5.5039,11.6544]]],
[[[137.7215,-5.2927,3.1809],[137.7209,-5.2922,3.1809],[137.7204,-5.2933,0.0],[137.7215,-5.2933,0.0],[137.7215,-5.2927,3.1809]]],
[[[137.7367,-5.2886,3.8756],[137.7349,-5.2851,11.2613],[137.7294,-5.2815,9.6052],[137.7242,-5.2868,14.5458],[137.7202,-5.2865,6.3278],[137.7193,-5.288,0.0],[137.725,-5.2934,0.6847],[137.7367,-5.2886,3.8756]]]]}}