{"type":"Feature","properties":{"GID_3":"IDN.27.1.15_1","GID_0":"IDN","country":"Indonesia","GID_1":"IDN.27_1","province":"SulawesiTengah","NL_NAME_1":"NA","GID_2":"IDN.27.1_1","county":"BanggaiKepulauan","NL_NAME_2":"NA","city":"TinangkungSelatan","VARNAME_3":"NA","NL_NAME_3":"NA","TYPE_3":"Kecamatan","ENGTYPE_3":"Sub-district","CC_3":"7201041","HASC_3":"NA","name":"Tinangkung_Selatan.city"},
"geometry":{"type": "MultiPolygon","coordinates": [[[[123.4309,-1.5029,137.5001],[123.4231,-1.4577,350.1132],[123.4137,-1.3817,430.4472],[123.3132,-1.4176,0.0],[123.315,-1.4207,0.0],[123.3182,-1.4222,2.6182],[123.3215,-1.4215,0.0],[123.3208,-1.4199,1.7498],[123.3227,-1.4205,0.0],[123.3228,-1.4183,17.549],[123.3257,-1.4153,48.378],[123.3246,-1.4175,15.8906],[123.3261,-1.4186,54.8607],[123.3241,-1.4196,21.9496],[123.3255,-1.4245,3.8158],[123.3233,-1.4232,1.3958],[123.3205,-1.4259,0.0],[123.3225,-1.426,1.737],[123.3212,-1.4341,0.0],[123.3224,-1.4353,2.8459],[123.3212,-1.4357,0.0],[123.3236,-1.4419,0.0],[123.3254,-1.443,4.1359],[123.3251,-1.4457,1.2564],[123.3268,-1.447,2.4705],[123.3289,-1.4545,0.0],[123.3319,-1.4561,5.0948],[123.3343,-1.4609,1.6333],[123.3367,-1.4612,0.5981],[123.3382,-1.4641,2.4528],[123.3409,-1.4652,0.0],[123.341,-1.4695,0.0],[123.3435,-1.4717,0.0],[123.348,-1.4734,0.0],[123.354,-1.4702,3.9653],[123.3554,-1.4732,10.8523],[123.3526,-1.4833,81.3916],[123.3556,-1.5133,21.3672],[123.354,-1.5187,3.5624],[123.3543,-1.5256,0.0],[123.3577,-1.5259,0.0],[123.359,-1.5242,0.0],[123.3652,-1.5005,0.0],[123.3679,-1.5006,0.6575],[123.3711,-1.498,0.0],[123.3752,-1.4989,1.2726],[123.3805,-1.5029,5.4529],[123.3843,-1.5014,3.4421],[123.384,-1.4994,20.8319],[123.3887,-1.5023,15.1287],[123.3913,-1.5061,4.8106],[123.3892,-1.506,0.0],[123.3928,-1.5089,9.1832],[123.3932,-1.5115,0.0],[123.397,-1.5116,19.9562],[123.3963,-1.5137,5.4594],[123.3987,-1.5135,18.9047],[123.3975,-1.5151,0.0],[123.3992,-1.5149,0.0],[123.4045,-1.5217,38.691],[123.4055,-1.5241,24.7538],[123.4041,-1.5238,24.7538],[123.4041,-1.5251999999999999,27.7849],[123.4057,-1.5272,3.2388],[123.408,-1.5273,6.1406],[123.4125,-1.5307,3.6445],[123.4151,-1.5298,0.0],[123.4116,-1.5228,13.319],[123.4125,-1.521,2.3545],[123.4259,-1.5152,9.4316],[123.4307,-1.5181,3.1058],[123.4338,-1.5182,1.3207],[123.4309,-1.5029,137.5001]]]]}}