{"type":"Feature","properties":{"GID_3":"IDN.10.8.5_1","GID_0":"IDN","country":"Indonesia","GID_1":"IDN.10_1","province":"JawaTengah","NL_NAME_1":"NA","GID_2":"IDN.10.8_1","county":"Demak","NL_NAME_2":"NA","city":"Guntur","VARNAME_3":"NA","NL_NAME_3":"NA","TYPE_3":"Kecamatan","ENGTYPE_3":"Sub-district","CC_3":"3321030","HASC_3":"NA","name":"Guntur.city"},
"geometry":{"type": "MultiPolygon","coordinates": [[[[110.622,-7.0022,7.3844],[110.6243,-6.9941,4.7645],[110.622,-6.9924,5.7879],[110.6227,-6.9898,5.6517],[110.6203,-6.9865,5.7402],[110.6216,-6.9857,4.5632],[110.6191,-6.9846,6.7584],[110.62,-6.9821,4.4189],[110.6226,-6.9813,4.577],[110.6309,-6.9842,5.0613],[110.631,-6.9791,4.2897],[110.6339,-6.9794,4.0477],[110.6383,-6.9764,4.1928],[110.6446,-6.979,4.4433],[110.6496,-6.9747,4.5467],[110.6548,-6.9737,4.6677],[110.6584,-6.9734,4.7401],[110.6687,-6.9766,8.8662],[110.6708,-6.9738,8.8942],[110.6712,-6.9685,9.7658],[110.675,-6.9671,9.8477],[110.6747,-6.9634,10.4965],[110.672,-6.9613,10.1206],[110.6633,-6.9604,13.178],[110.6622,-6.956,12.6507],[110.66,-6.9547,11.7099],[110.6556,-6.9552,11.085],[110.6546,-6.952,9.9918],[110.6477,-6.948,8.3032],[110.6458,-6.9447,12.2187],[110.6468,-6.9434,11.1478],[110.6418,-6.9392,10.5338],[110.6432,-6.9371,9.8991],[110.6398,-6.9337,9.3251],[110.6392,-6.9364,4.347],[110.6353,-6.9365,5.389],[110.6339,-6.9389,4.0457],[110.6412,-6.9427,4.6478],[110.6414,-6.9447,3.6382],[110.6385,-6.9471,3.9457],[110.631,-6.9498,5.6544],[110.6296,-6.9491,6.9896],[110.63,-6.9468,5.6722],[110.6268,-6.9494,3.7346],[110.6235,-6.9464,3.8229],[110.6223,-6.9544,3.2991],[110.605,-6.9505,2.9206],[110.6067,-6.9637,3.1507],[110.6035,-6.9673,3.1618],[110.5848,-6.9616,2.4039],[110.5817,-6.9654,2.8255],[110.5763,-6.9656,3.7033],[110.5617,-6.9572,2.0582],[110.5597,-6.9624,2.5402],[110.5519,-6.9603,4.0652],[110.549,-6.9688,3.5406],[110.5479,-6.9855,6.813],[110.5548,-7.0001,6.5428],[110.5634,-7.0026,5.7009],[110.5615,-7.0105,7.9733],[110.5599,-7.0115,8.0511],[110.5635,-7.0171,8.2615],[110.5663,-7.0153,7.8638],[110.5633,-7.0131,7.7238],[110.5637,-7.0076,6.6575],[110.5686,-7.0101,7.4851],[110.5732,-7.016,9.9367],[110.5751,-7.0122,9.0154],[110.5785,-7.0137,7.569],[110.5755,-7.0193,10.2855],[110.5796,-7.0205,8.2706],[110.5819,-7.0182,8.0669],[110.5863,-7.0197,8.5505],[110.5879,-7.0157,10.9279],[110.5902,-7.0168,8.0911],[110.595,-7.0127,8.336],[110.5972,-7.0072,9.6884],[110.5991,-7.0073,13.6627],[110.6051,-7.0083,7.7615],[110.6073,-7.0103,7.4107],[110.6083,-7.0145,7.4441],[110.6076,-7.0198,8.4834],[110.6063,-7.0199,8.5144],[110.6122,-7.0225,9.1693],[110.6224,-7.011,7.3029],[110.6239,-7.0044,7.042],[110.622,-7.0022,7.3844]]]]}}