{"type":"Feature","properties":{"GID_3":"IDN.31.8.10_1","GID_0":"IDN","country":"Indonesia","GID_1":"IDN.31_1","province":"SumateraSelatan","NL_NAME_1":"NA","GID_2":"IDN.31.8_1","county":"OganIlir","NL_NAME_2":"NA","city":"Pemulutan","VARNAME_3":"NA","NL_NAME_3":"NA","TYPE_3":"Kecamatan","ENGTYPE_3":"Sub-district","CC_3":"1610050","HASC_3":"NA","name":"Pemulutan.city"},
"geometry":{"type": "MultiPolygon","coordinates": [[[[104.764,-3.1652,2.5619],[104.7622,-3.1795,3.3548],[104.7701,-3.183,4.9787],[104.7697,-3.1778,2.545],[104.7831,-3.1761,2.418],[104.7961,-3.1807,2.1601],[104.8024,-3.176,3.8092],[104.7993,-3.1735,3.6047],[104.8016,-3.1691,2.6753],[104.81,-3.1675,2.6947],[104.8157,-3.1637,2.5512],[104.8143,-3.1587,2.7459],[104.8183,-3.1547,2.78],[104.8171,-3.1522,2.7069],[104.8075,-3.1534,2.6241],[104.8108,-3.1491,2.8279],[104.8183,-3.1441,2.6542],[104.8142,-3.133,2.4381],[104.8047,-3.1329,3.1585],[104.7987,-3.1354,2.4001],[104.7931,-3.1311,2.7716],[104.7936,-3.1256,2.0142],[104.7971,-3.1208,2.3456],[104.7999,-3.1205,2.842],[104.7995,-3.119,2.1002],[104.8031,-3.1131,2.4469],[104.8097,-3.0817,2.3589],[104.7923,-3.0772,2.08],[104.7942,-3.0612,3.257],[104.7994,-3.0548,3.0818],[104.7807,-3.0526,3.5758],[104.7816,-3.0407,3.1471],[104.7794,-3.0344,3.7484],[104.7751,-3.0342,1.4996],[104.7743,-3.0324,0.4766],[104.7705,-3.038,3.681],[104.7507,-3.0394,3.1642],[104.748,-3.0451,4.9226],[104.7439,-3.0474,4.3688],[104.743,-3.0523,2.3057],[104.7447,-3.0571,2.8061],[104.7444,-3.0623,2.0055],[104.741,-3.067,4.6092],[104.7336,-3.0686,2.9277],[104.7317,-3.0725,4.043],[104.7285,-3.0741,4.2669],[104.7267,-3.0884,4.2348],[104.7215,-3.0933,2.8939],[104.7131,-3.0972,3.4349],[104.7013,-3.106,3.0771],[104.7022,-3.1111,3.0725],[104.6988,-3.1335,3.645],[104.6998,-3.1363,3.6879],[104.7238,-3.1363,2.9467],[104.7475,-3.1391,2.8042],[104.768,-3.1448,2.4825],[104.7648,-3.1529,2.6535],[104.7658,-3.1572,2.5506],[104.764,-3.1652,2.5619]]]]}}