{"type":"Feature","properties":{"GID_3":"IDN.9.22.12_1","GID_0":"IDN","country":"Indonesia","GID_1":"IDN.9_1","province":"JawaBarat","NL_NAME_1":"NA","GID_2":"IDN.9.22_1","county":"Purwakarta","NL_NAME_2":"NA","city":"PondokSalam","VARNAME_3":"NA","NL_NAME_3":"NA","TYPE_3":"Kecamatan","ENGTYPE_3":"Sub-district","CC_3":"3214091","HASC_3":"NA","name":"Pondok_Salam.city"},
"geometry":{"type": "MultiPolygon","coordinates": [[[[107.5255,-6.659,492.791],[107.5245,-6.6538,484.5419],[107.521,-6.6541,430.9438],[107.5152,-6.6521,418.7161],[107.5147,-6.6506,428.1312],[107.5119,-6.6512,402.6317],[107.5103,-6.649,398.4815],[107.515,-6.6417,423.8046],[107.5158,-6.6345,490.3365],[107.5114,-6.6311,419.7911],[107.51,-6.6279,460.7182],[107.5089,-6.6172,383.8918],[107.5151,-6.6149,289.5038],[107.5168,-6.6124,254.6245],[107.5171,-6.611,247.1325],[107.5118,-6.6114,333.3967],[107.5151,-6.6058,246.3021],[107.5137,-6.6043,242.2769],[107.5142,-6.6006,203.9839],[107.5207,-6.599,180.487],[107.5204,-6.5888,146.9064],[107.5259,-6.5806,126.3118],[107.529,-6.581,116.1935],[107.5291,-6.5732,111.061],[107.5246,-6.5716,107.0321],[107.521,-6.5735,111.9407],[107.5197,-6.5679,116.9874],[107.5161,-6.5703,99.4403],[107.5156,-6.5741,104.5234],[107.5124,-6.5794,128.3389],[107.5056,-6.584,114.0583],[107.5099,-6.59,133.8762],[107.5105,-6.5935,143.114],[107.501,-6.597,195.5162],[107.4964,-6.5945,172.2771],[107.4936,-6.5972,212.1575],[107.4862,-6.5933,138.6405],[107.4836,-6.5947,195.9923],[107.4802,-6.5923,190.4956],[107.4777,-6.5946,213.7641],[107.4698,-6.5929,190.8946],[107.4635,-6.5988,142.7276],[107.4647,-6.6065,118.5822],[107.4617,-6.6064,113.5406],[107.4595,-6.6108,137.7031],[107.461,-6.6167,137.0115],[107.4579,-6.6182,151.4617],[107.4621,-6.6193,133.7777],[107.4632,-6.6216,140.7267],[107.4602,-6.6223,151.4267],[107.4598,-6.6245,143.8283],[107.4576,-6.6255,148.667],[107.4567,-6.6307,166.0438],[107.4528,-6.6329,163.5821],[107.4561,-6.6394,184.0601],[107.4566,-6.6478,223.2966],[107.4517,-6.6518,315.7192],[107.4644,-6.6583,422.3789],[107.4702,-6.6594,553.3223],[107.4703,-6.648,302.5956],[107.4682,-6.6444,276.4244],[107.4686,-6.6372,208.0794],[107.4672,-6.6345,198.6947],[107.4848,-6.6291,230.7422],[107.4899,-6.6339,217.3713],[107.4925,-6.6335,222.5858],[107.4942,-6.6398,259.1816],[107.4999,-6.6432,277.3348],[107.5018,-6.6515,322.4216],[107.5037,-6.6534,341.549],[107.5026,-6.6579,361.2742],[107.5048,-6.6678,434.2884],[107.5101,-6.666,500.8486],[107.5126,-6.6632,553.0293],[107.5208,-6.6617,580.5973],[107.5255,-6.659,492.791]]]]}}