{"type":"Feature","properties":{"GID_3":"IDN.29.13.13_1","GID_0":"IDN","country":"Indonesia","GID_1":"IDN.29_1","province":"SulawesiUtara","NL_NAME_1":"NA","GID_2":"IDN.29.13_1","county":"Minahasa","NL_NAME_2":"NA","city":"Remboken","VARNAME_3":"NA","NL_NAME_3":"NA","TYPE_3":"Kecamatan","ENGTYPE_3":"Sub-district","CC_3":"7102200","HASC_3":"NA","name":"Remboken.city"},
"geometry":{"type": "MultiPolygon","coordinates": [[[[124.835,1.2099,721.0736],[124.8477,1.2139,867.6827],[124.8584,1.2152,725.1345],[124.8681,1.2332,682.1349],[124.8703,1.2335,681.698],[124.8736,1.2372,709.1838],[124.8786,1.2348,683.1042],[124.8815,1.2371,690.4817],[124.8777,1.2463,807.9009],[124.8594,1.2618,973.1906],[124.853,1.2627,1093.7723],[124.8481,1.2588,937.4055],[124.8314,1.2567,887.1016],[124.8269,1.2531,847.5856],[124.8261,1.2493,854.9886],[124.8165,1.2371,1125.499],[124.8306,1.2303,873.5507],[124.833,1.2207,784.2379],[124.83,1.2148,767.3687],[124.8322,1.2091,721.3459],[124.835,1.2099,721.0736]]]]}}