{"type":"Feature","properties":{"GID_3":"IDN.21.2.21_1","GID_0":"IDN","country":"Indonesia","GID_1":"IDN.21_1","province":"NusaTenggaraTimur","NL_NAME_1":"NA","GID_2":"IDN.21.2_1","county":"Belu","NL_NAME_2":"NA","city":"TasifetoBarat","VARNAME_3":"NA","NL_NAME_3":"NA","TYPE_3":"Kecamatan","ENGTYPE_3":"Sub-district","CC_3":"5306050","HASC_3":"NA","name":"Tasifeto_Barat.city"},
"geometry":{"type": "MultiPolygon","coordinates": [[[[124.9359,-9.2787,733.1711],[124.9373,-9.2784,784.474],[124.929,-9.2663,767.8071],[124.927,-9.2606,702.2614],[124.9333,-9.2585,817.7963],[124.9366,-9.2556,819.3499],[124.9549,-9.2529,613.3522],[124.9578,-9.2441,730.0978],[124.9638,-9.239,813.5291],[124.9653,-9.2347,839.63],[124.969,-9.2323,757.6783],[124.9708,-9.2271,633.4725],[124.9732,-9.2312,651.7313],[124.9772,-9.2303,664.1104],[124.978,-9.2326,683.1326],[124.9822,-9.2353,694.509],[124.9838,-9.2308,782.2041],[124.9817,-9.2098,819.8848],[124.9795,-9.2088,809.8575],[124.98,-9.2037,702.6069],[124.9779,-9.2015,677.1237],[124.9647,-9.1999,646.9978],[124.9613,-9.1948,569.3855],[124.9505,-9.1925,516.4841],[124.9485,-9.1911,503.8522],[124.9462,-9.1846,473.3322],[124.9396,-9.1813,500.8555],[124.9342,-9.1826,517.4499],[124.9282,-9.188,532.2046],[124.9165,-9.1852,512.3563],[124.9084,-9.1874,423.6603],[124.9042,-9.1847,417.8939],[124.9018,-9.1791,412.9387],[124.9029,-9.1735,401.1666],[124.9012,-9.1668,397.7456],[124.9019,-9.1633,405.4905],[124.9053,-9.16,385.4892],[124.9053,-9.1526,373.8864],[124.901,-9.1415,371.0554],[124.8965,-9.1417,380.2396],[124.8896,-9.1462,372.326],[124.8849,-9.141,378.835],[124.8848,-9.1283,353.4728],[124.8731,-9.1283,404.8001],[124.8702,-9.1186,420.5602],[124.8624,-9.1099,588.9415],[124.8308,-9.108,386.0044],[124.8172,-9.1125,288.4859],[124.8214,-9.1426,142.0642],[124.8205,-9.1442,142.1796],[124.826,-9.1437,186.9624],[124.8269,-9.1455,169.8456],[124.8248,-9.1522,206.2394],[124.8173,-9.1595,309.4853],[124.8156,-9.1658,225.6177],[124.8121,-9.1651,214.1946],[124.8125,-9.1665,208.9116],[124.8092,-9.1683,200.3448],[124.8127,-9.1726,221.1287],[124.8209,-9.1739,264.0123],[124.8203,-9.1807,280.2308],[124.8167,-9.1854,297.223],[124.8187,-9.1892,334.0812],[124.82,-9.1996,383.8842],[124.8349,-9.2139,629.6332],[124.8376,-9.234,599.053],[124.8489,-9.25,576.4003],[124.8505,-9.2544,549.073],[124.8505,-9.2651,412.2302],[124.8527,-9.2712,379.598],[124.8522,-9.2781,371.2639],[124.8533,-9.284,362.2728],[124.8548,-9.2849,360.3029],[124.8488,-9.2937,353.9222],[124.8469,-9.2937,353.3486],[124.8456,-9.2965,350.8279],[124.8467,-9.2981,348.9496],[124.8446,-9.298,349.1786],[124.8451,-9.2992,349.1786],[124.8437,-9.2994,348.8618],[124.8458,-9.3007,348.1267],[124.8443,-9.3016,346.3889],[124.8467,-9.3028,350.0388],[124.8484,-9.2995,348.9496],[124.8523,-9.299,354.7183],[124.8613,-9.2932,370.1031],[124.8632,-9.2947,370.2885],[124.8743,-9.2947,385.9977],[124.8778,-9.2911,395.5184],[124.884,-9.2982,401.8799],[124.9179,-9.3081,563.2189],[124.9256,-9.2987,728.8268],[124.923,-9.2942,650.657],[124.923,-9.2862,558.4427],[124.927,-9.2856,632.1816],[124.9327,-9.2808,689.3592],[124.9328,-9.2791,714.4318],[124.9359,-9.2787,733.1711]]]]}}