{"type":"Feature","properties":{"GID_3":"IDN.30.16.3_1","GID_0":"IDN","country":"Indonesia","GID_1":"IDN.30_1","province":"SumateraBarat","NL_NAME_1":"NA","GID_2":"IDN.30.16_1","county":"Sawahlunto","NL_NAME_2":"NA","city":"Silungkang","VARNAME_3":"NA","NL_NAME_3":"NA","TYPE_3":"Kecamatan","ENGTYPE_3":"Sub-district","CC_3":"1373010","HASC_3":"NA","name":"Silungkang.city"},
"geometry":{"type": "MultiPolygon","coordinates": [[[[100.8036,-0.7199,284.7311],[100.8003,-0.7168,463.0071],[100.8043,-0.7078,359.1413],[100.8018,-0.7019,353.4733],[100.8017,-0.6962,402.426],[100.7995,-0.695,418.4889],[100.7966,-0.6964,452.5927],[100.7928,-0.6957,458.7774],[100.7895,-0.6978,488.2814],[100.7854,-0.6936,524.3923],[100.7777,-0.6939,366.1743],[100.7738,-0.6973,470.0769],[100.7701,-0.7062,542.4441],[100.7579,-0.715,425.96],[100.7541,-0.7219,411.2317],[100.7467,-0.7239,736.1666],[100.7491,-0.7328,478.6785],[100.7543,-0.7356,293.274],[100.7535,-0.7407,387.3417],[100.7599,-0.7406,628.6353],[100.7668,-0.7449,628.8613],[100.7713,-0.7503,656.2098],[100.7765,-0.7515,672.2791],[100.7822,-0.7621,485.5927],[100.7891,-0.7701,440.5607],[100.7981,-0.7688,424.2985],[100.8013,-0.7709,387.6357],[100.802,-0.7733,308.6389],[100.8042,-0.7735,326.4072],[100.8111,-0.7706,315.7062],[100.8112,-0.7663,345.2325],[100.8168,-0.7675,330.0284],[100.8215,-0.7664,260.3542],[100.8226,-0.763,370.1984],[100.8199,-0.7537,386.4101],[100.8146,-0.7455,358.8907],[100.8108,-0.7431,416.2213],[100.8114,-0.7363,495.8974],[100.8036,-0.7199,284.7311]]]]}}