{"type":"Feature","properties":{"GID_3":"IDN.32.4.11_1","GID_0":"IDN","country":"Indonesia","GID_1":"IDN.32_1","province":"SumateraUtara","NL_NAME_1":"NA","GID_2":"IDN.32.4_1","county":"DeliSerdang","NL_NAME_2":"NA","city":"LubukPakam","VARNAME_3":"NA","NL_NAME_3":"NA","TYPE_3":"Kecamatan","ENGTYPE_3":"Sub-district","CC_3":"1212300","HASC_3":"NA","name":"Lubuk_Pakam.city"},
"geometry":{"type": "MultiPolygon","coordinates": [[[[98.8892,3.5398,18.7124],[98.8982,3.549,17.4064],[98.9082,3.5647,17.4901],[98.9095,3.5881,13.6983],[98.9044,3.5933,13.3313],[98.9004,3.5947,12.0474],[98.8658,3.5991,11.4493],[98.867,3.5836,12.1173],[98.8617,3.5602,14.9146],[98.8621,3.5553,14.1914],[98.8774,3.5379,17.2418],[98.8852,3.5369,18.8424],[98.8892,3.5398,18.7124]]]]}}