{"type":"Feature","properties":{"GID_3":"IDN.26.18.10_1","GID_0":"IDN","country":"Indonesia","GID_1":"IDN.26_1","province":"SulawesiSelatan","NL_NAME_1":"NA","GID_2":"IDN.26.18_1","county":"SidenrengRappang","NL_NAME_2":"NA","city":"WatangPulu","VARNAME_3":"NA","NL_NAME_3":"NA","TYPE_3":"Kecamatan","ENGTYPE_3":"Sub-district","CC_3":"7314030","HASC_3":"NA","name":"Watang_Pulu.city"},
"geometry":{"type": "MultiPolygon","coordinates": [[[[119.6861,-4.0104,60.6613],[119.6856,-4.0115,54.8775],[119.6886,-4.0139,58.6703],[119.6924,-4.0144,80.4101],[119.6935,-4.0161,64.4387],[119.6985,-4.0138,92.703],[119.6956,-4.0179,89.6933],[119.6981,-4.0182,93.0511],[119.7001,-4.015,81.6525],[119.7023,-4.0183,91.9868],[119.7107,-4.0205,158.2957],[119.7142,-4.0238,137.0155],[119.7179,-4.0221,125.378],[119.7201,-4.0243,167.1049],[119.7229,-4.0222,196.5399],[119.7237,-4.0239,156.3631],[119.7273,-4.0239,172.981],[119.7274,-4.0271,204.8019],[119.7329,-4.0244,216.4245],[119.7385,-4.0252,178.2543],[119.7385,-4.0269,187.9845],[119.7413,-4.0272,197.8911],[119.7451,-4.0315,252.9582],[119.7434,-4.0377,198.0459],[119.7414,-4.0386,205.8915],[119.7404,-4.0414,228.595],[119.7408,-4.0443,226.0816],[119.739,-4.0459,239.2627],[119.7444,-4.0481,274.9404],[119.7467,-4.0458,317.774],[119.7517,-4.047,247.7038],[119.7532,-4.0455,260.508],[119.756,-4.0378,286.3135],[119.758,-4.0227,190.5046],[119.7663,-4.0161,52.1752],[119.7769,-4.0142,40.9066],[119.7793,-4.0096,47.2786],[119.7832,-4.0083,38.5385],[119.7847,-4.0059,38.4711],[119.7848,-4.0039,41.1961],[119.7774,-3.9982,48.8937],[119.7722,-3.988,46.0167],[119.7784,-3.9807,42.8883],[119.785,-3.9791,30.6583],[119.7831,-3.9758,31.7842],[119.7755,-3.9731,37.4609],[119.7736,-3.9645,51.4905],[119.7705,-3.9618,42.5182],[119.7684,-3.9452,35.7812],[119.7649,-3.9392,27.2611],[119.777,-3.9381,21.2824],[119.7798,-3.9319,19.1397],[119.7802,-3.9304,18.9773],[119.7688,-3.9267,22.4648],[119.7684,-3.9228,23.0391],[119.7691,-3.9171,27.3987],[119.7789,-3.8916,13.7222],[119.783,-3.8878,15.5867],[119.7896,-3.8848,16.0357],[119.8008,-3.8749,21.4685],[119.801,-3.8728,25.7608],[119.7932,-3.8706,26.7425],[119.7885,-3.8661,23.1357],[119.7834,-3.8687,23.3149],[119.7791,-3.8678,16.142],[119.7693,-3.8579,15.2565],[119.76,-3.8513,17.2248],[119.7572,-3.8553,14.5356],[119.7436,-3.8601,11.7339],[119.7323,-3.8579,8.4463],[119.7285,-3.8605,7.5818],[119.7261,-3.8725,8.9965],[119.7233,-3.8771,10.3646],[119.7271,-3.8835,13.1261],[119.7238,-3.8865,12.8045],[119.7246,-3.895,16.9079],[119.7193,-3.9053,23.8704],[119.7165,-3.9086,27.7677],[119.7112,-3.911,40.4846],[119.7036,-3.9063,137.858],[119.6931,-3.9207,160.6907],[119.6929,-3.927,207.5154],[119.6821,-3.9367,220.662],[119.6641,-3.9613,138.2034],[119.6707,-3.973,143.0833],[119.6833,-3.9863,116.6038],[119.6856,-3.9931,92.2742],[119.6921,-3.9946,169.1442],[119.6932,-3.9998,162.0352],[119.691,-4.0017,133.1259],[119.6895,-4.0082,92.3838],[119.6861,-4.0104,60.6613]]],
[[[119.801,-3.875,21.4685],[119.8011,-3.875,21.4685],[119.80095,-3.87495,21.4685],[119.801,-3.875,21.4685]]],
[[[119.8008,-3.8749,21.4685],[119.80095,-3.87495,21.4685],[119.8009,-3.8749,21.4685],[119.8008,-3.8749,21.4685]]]]}}