{"type":"Feature","properties":{"GID_3":"IDN.24.1.2_1","GID_0":"IDN","country":"Indonesia","GID_1":"IDN.24_1","province":"Riau","NL_NAME_1":"NA","GID_2":"IDN.24.1_1","county":"Bengkalis","NL_NAME_2":"NA","city":"Bengkalis","VARNAME_3":"NA","NL_NAME_3":"NA","TYPE_3":"Kecamatan","ENGTYPE_3":"Sub-district","CC_3":"1408040","HASC_3":"NA","name":"Bengkalis.city"},
"geometry":{"type": "MultiPolygon","coordinates": [[[[102.5043,1.3075,0.9699],[102.4904,1.308,9.1395],[102.4566,1.3298,19.2576],[102.394,1.4394,8.9973],[102.3277,1.4756,20.6517],[102.2395,1.4758,11.5372],[102.2121,1.4874,10.5569],[102.1589,1.4962,10.7711],[102.1429,1.4948,9.5796],[102.1366,1.4991,9.2032],[102.1323,1.5223,10.9103],[102.1324,1.5525,11.0589],[102.1102,1.5525,11.5137],[102.1093,1.5913,1.5121],[102.0726,1.603,0.0],[102.0452,1.6075,0.0],[102.0289,1.6078,0.0],[102.0111,1.6055,0.0],[102.0015,1.5979,0.0],[101.9982,1.5838,1.2456],[102.0012,1.5791,0.0],[102.0068,1.5777,0.3594],[102.0105,1.5733,0.6519],[102.0182,1.5521,5.3115],[102.03,1.5346,0.0],[102.0684,1.4953,0.0],[102.088,1.4797,0.8283],[102.1046,1.469,4.5551],[102.1071,1.4658,1.2409],[102.1271,1.4551,0.0],[102.1454,1.4479,1.8793],[102.1941,1.4354,0.0],[102.2316,1.4318,0.0],[102.2729,1.4354,0.0],[102.2857,1.4329,6.9174],[102.2931,1.4295,1.2721],[102.2982,1.4261,4.0216],[102.3201,1.4029,0.0],[102.3382,1.3892,0.0],[102.3528,1.3706,0.8084],[102.3667,1.3584,0.9744],[102.3824,1.3385,3.1607],[102.3975,1.3236,0.0],[102.4228,1.3076,0.9143],[102.4511,1.2857,1.0653],[102.4787,1.2672,6.9797],[102.4949,1.2534,0.0],[102.5011,1.2505,0.0],[102.5047,1.2511,1.3887],[102.5085,1.2569,0.0],[102.507,1.2886,0.2106],[102.5043,1.3075,0.9699]]]]}}