{"type":"Feature","properties":{"GID_3":"IDN.9.7.17_1","GID_0":"IDN","country":"Indonesia","GID_1":"IDN.9_1","province":"JawaBarat","NL_NAME_1":"NA","GID_2":"IDN.9.7_1","county":"Cianjur","NL_NAME_2":"NA","city":"Haurwangi","VARNAME_3":"NA","NL_NAME_3":"NA","TYPE_3":"Kecamatan","ENGTYPE_3":"Sub-district","CC_3":"3203161","HASC_3":"NA","name":"Haurwangi.city"},
"geometry":{"type": "MultiPolygon","coordinates": [[[[107.3249,-6.8416,223.9631],[107.3224,-6.8389,215.9059],[107.3229,-6.8254,240.3964],[107.3158,-6.8229,241.6896],[107.3149,-6.8196,231.2922],[107.3191,-6.8154,225.7111],[107.3186,-6.8121,219.0742],[107.316,-6.8095,214.5],[107.3117,-6.8096,247.1194],[107.3142,-6.8074,232.2364],[107.3134,-6.8008,214.5],[107.3043,-6.7969,222.4126],[107.3005,-6.7926,214.5],[107.2949,-6.8022,255.5927],[107.2873,-6.8084,267.5611],[107.2857,-6.8144,267.5762],[107.2831,-6.8146,269.1564],[107.2822,-6.8264,280.9108],[107.2901,-6.8307,291.3708],[107.2873,-6.8362,289.8597],[107.2834,-6.837,285.5481],[107.285,-6.8401,287.0251],[107.2882,-6.8411,289.1447],[107.2918,-6.8546,330.0667],[107.2963,-6.8587,445.1201],[107.294,-6.8611,450.828],[107.2953,-6.8714,492.0649],[107.2841,-6.8769,521.7032],[107.2941,-6.8799,298.5899],[107.2978,-6.8916,451.9104],[107.3021,-6.8942,568.7928],[107.3087,-6.8949,708.7864],[107.3141,-6.8974,924.1837],[107.3232,-6.8879,851.4291],[107.3277,-6.887,864.5881],[107.331,-6.8886,838.734],[107.334,-6.8865,850.3816],[107.3417,-6.8862,409.6028],[107.3415,-6.8814,375.6835],[107.3431,-6.8793,374.8497],[107.3412,-6.8754,367.7334],[107.3438,-6.8736,330.244],[107.3438,-6.8716,308.5161],[107.3469,-6.8706,290.4051],[107.3494,-6.8658,271.7336],[107.3468,-6.8608,265.5758],[107.3502,-6.856,238.7295],[107.3495,-6.8535,246.1887],[107.348,-6.8523,247.6136],[107.3429,-6.8534,253.3441],[107.344,-6.8496,230.2178],[107.3429,-6.849,245.6416],[107.338,-6.8576,227.8824],[107.3341,-6.8531,228.4297],[107.3298,-6.8561,224.7408],[107.3291,-6.8519,257.7375],[107.3254,-6.8529,229.1717],[107.3238,-6.8509,219.062],[107.3275,-6.8477,225.8135],[107.3249,-6.8416,223.9631]]]]}}