{"type":"Feature","properties":{"GID_3":"IDN.1.18.1_1","GID_0":"IDN","country":"Indonesia","GID_1":"IDN.1_1","province":"Aceh","NL_NAME_1":"NA","GID_2":"IDN.1.18_1","county":"NaganRaya","NL_NAME_2":"NA","city":"Beutong","VARNAME_3":"NA","NL_NAME_3":"NA","TYPE_3":"Kecamatan","ENGTYPE_3":"Sub-district","CC_3":"1115030","HASC_3":"NA","name":"Beutong.city"},
"geometry":{"type": "MultiPolygon","coordinates": [[[[96.4683,4.1592,107.8201],[96.4833,4.1594,130.8989],[96.495,4.1683,90.5623],[96.5007,4.1709,84.6277],[96.5061,4.1704,103.9538],[96.5151,4.1577,129.6975],[96.5149,4.1495,89.1175],[96.5099,4.1317,118.8688],[96.5295,4.1371,175.9257],[96.5405,4.1467,171.827],[96.5404,4.1564,198.1189],[96.5428,4.1573,276.5423],[96.5489,4.1556,208.4658],[96.5569,4.1596,316.7937],[96.5601,4.1636,355.7698],[96.593,4.1634,843.2916],[96.6072,4.1658,683.4283],[96.6191,4.1639,595.0049],[96.6352,4.1649,1445.3324],[96.6523,4.1691,1183.9276],[96.6622,4.1765,1106.6941],[96.669,4.1789,1438.1918],[96.6827,4.175,943.522],[96.7029,4.1644,764.6834],[96.7261,4.1593,587.6796],[96.7426,4.1519,792.7021],[96.7539,4.1744,831.7452],[96.786,4.2009,1532.0778],[96.8021,4.2234,2599.1963],[96.8022,4.2315,2634.542],[96.7952,4.2413,2916.8945],[96.7975,4.2675,2603.1372],[96.7933,4.2855,2407.196],[96.8046,4.2841,2373.2085],[96.8218,4.2854,2228.6968],[96.7917,4.3047,1743.2865],[96.7854,4.313,2001.7823],[96.784,4.3179,2043.1318],[96.7781,4.327,2140.771],[96.749,4.342,2404.2957],[96.7171,4.353,2296.5378],[96.6782,4.3639,1732.6171],[96.6475,4.3774,1343.9677],[96.6348,4.3908,1048.189],[96.6353,4.3946,1027.7682],[96.6319,4.3987,970.445],[96.6289,4.3995,962.1194],[96.6286,4.4012,978.6747],[96.6185,4.4046,926.8653],[96.6177,4.4003,900.0637],[96.6138,4.4018,910.5321],[96.6098,4.4046,942.5302],[96.6087,4.4094,900.8987],[96.604,4.4089,850.2079],[96.6013,4.4131,850.005],[96.5992,4.4121,835.651],[96.5975,4.4132,850.8288],[96.5966,4.4162,867.5226],[96.5912,4.4162,821.84],[96.5903,4.4148,798.3479],[96.5883,4.4158,794.9037],[96.5879,4.418,822.2291],[96.5839,4.4198,786.0712],[96.5853,4.424,856.8227],[96.5898,4.4267,864.8145],[96.592,4.4307,782.0289],[96.591,4.4345,820.4235],[96.5972,4.4372,808.9043],[96.5947,4.4401,875.7085],[96.5989,4.4475,848.7895],[96.5981,4.4518,891.1174],[96.6044,4.4773,1318.7014],[96.5999,4.4942,1451.8981],[96.593,4.502,1160.3328],[96.5906,4.5154,1510.4945],[96.5883,4.5191,1601.354],[96.5897,4.5517,1567.2456],[96.5816,4.573,1698.4167],[96.5723,4.5795,1822.7609],[96.5593,4.5922,1685.4785],[96.5438,4.6008,1507.7987],[96.5269,4.6036,1392.1017],[96.4911,4.6228,1006.5369],[96.4945,4.6033,1031.8704],[96.4942,4.5987,1078.0095],[96.4916,4.5949,1093.5061],[96.4937,4.5731,1544.9006],[96.492,4.5552,1254.8719],[96.4875,4.5512,1255.8406],[96.4631,4.5454,971.0501],[96.4587,4.5328,823.7481],[96.4509,4.5224,800.1276],[96.4444,4.517,806.3369],[96.4404,4.51,631.6534],[96.4521,4.4905,536.9648],[96.4744,4.4687,1093.4464],[96.4796,4.461,1175.9963],[96.479,4.4572,1187.2026],[96.4727,4.4526,939.11],[96.464156022991659,4.44397905022581,704.3301],[96.4879,4.4351,1236.087],[96.5009,4.4155,1282.2454],[96.5005,4.4095,1441.1929],[96.4957,4.4067,1527.6494],[96.4901,4.3957,1787.3887],[96.483,4.3893,1378.1155],[96.4703,4.3919,800.6333],[96.4651,4.3915,720.8648],[96.4587,4.3881,589.9555],[96.4561,4.3807,506.7314],[96.4507,4.377,394.3127],[96.435,4.3736,323.5092],[96.4323,4.3803,226.5532],[96.431,4.3797,226.5532],[96.4272,4.3836,179.1656],[96.4254,4.3788,168.6588],[96.4222,4.3755,162.7143],[96.4209,4.3776,191.3947],[96.4184,4.3777,162.8911],[96.4167,4.3763,168.4771],[96.4103,4.3761,166.3932],[96.4095,4.3739,141.1668],[96.4084,4.3752,141.1668],[96.4078,4.3725,136.1923],[96.405,4.3728,141.5344],[96.4049,4.3701,148.1265],[96.4082,4.3663,129.8895],[96.4069,4.3632,162.2482],[96.4051,4.3643,128.0385],[96.4035,4.3622,113.529],[96.4017,4.3651,111.0425],[96.3969,4.3639,105.791],[96.3938,4.3577,104.3118],[96.3947,4.3549,109.5833],[96.3973,4.3548,102.4744],[96.3951,4.3517,99.1822],[96.3968,4.3491,97.21],[96.393,4.3484,96.2449],[96.3917,4.3452,103.631],[96.3881,4.3463,83.0994],[96.3863,4.3451,81.5279],[96.3907,4.3422,93.7693],[96.3908,4.3405,79.3747],[96.3869,4.3417,83.939],[96.3858,4.3398,119.4738],[96.3836,4.3459,112.4091],[96.3821,4.3436,93.4003],[96.3794,4.343,91.0237],[96.3827,4.3391,76.6248],[96.3821,4.3367,79.2007],[96.3879,4.3345,110.5692],[96.3847,4.3242,66.5701],[96.3849,4.3195,71.3102],[96.3831,4.3205,74.7074],[96.3808,4.3182,73.5425],[96.3764,4.3021,89.0135],[96.3786,4.2845,64.7455],[96.3777,4.277,47.6515],[96.3816,4.2689,49.2162],[96.3794,4.2659,58.9583],[96.3833,4.2551,59.6773],[96.3941,4.249,87.1985],[96.3968,4.2451,87.1761],[96.3933,4.2424,85.7028],[96.3839,4.24,73.3011],[96.3843,4.2365,70.0707],[96.3627,4.2269,60.8572],[96.3554,4.2219,53.3947],[96.3731,4.207,65.2966],[96.3705,4.2015,54.6029],[96.3713,4.2003,55.3344],[96.3685,4.1969,52.6643],[96.3797,4.1947,50.0542],[96.3915,4.189,79.0933],[96.3924,4.1897,87.09],[96.4044,4.1743,69.8119],[96.4505,4.1649,75.6498],[96.4597,4.1605,132.5332],[96.4683,4.1592,107.8201]]],
[[[96.464156022991659,4.44397905022581,704.3301],[96.4641,4.444,704.3301],[96.4616,4.4414,817.2317],[96.464156022991659,4.44397905022581,704.3301]]]]}}