{"type":"Feature","properties":{"GID_3":"IDN.13.5.15_1","GID_0":"IDN","country":"Indonesia","GID_1":"IDN.13_1","province":"KalimantanSelatan","NL_NAME_1":"NA","GID_2":"IDN.13.5_1","county":"BaritoKuala","NL_NAME_2":"NA","city":"Tabunganen","VARNAME_3":"NA","NL_NAME_3":"NA","TYPE_3":"Kecamatan","ENGTYPE_3":"Sub-district","CC_3":"6304010","HASC_3":"NA","name":"Tabunganen.city"},
"geometry":{"type": "MultiPolygon","coordinates": [[[[114.4981,-3.4236,0.0],[114.4969,-3.4142,0.0],[114.5007,-3.3953,0.0],[114.5023,-3.3893,0.0],[114.5064,-3.3901,0.0],[114.507,-3.3864,0.0],[114.4769,-3.3643,2.0022],[114.4673,-3.3596,2.1207],[114.4457,-3.3784,1.1853],[114.4322,-3.3835,1.0813],[114.4164,-3.387,1.8661],[114.3589,-3.3864,5.1227],[114.3555,-3.4108,4.8432],[114.3529,-3.4152,3.3621],[114.3483,-3.4166,3.4926],[114.3463,-3.4194,3.756],[114.3476,-3.426,1.5345],[114.3469,-3.4363,2.6617],[114.3492,-3.4408,2.8507],[114.3536,-3.4426,4.5599],[114.3489,-3.4618,2.3053],[114.3596,-3.4655,0.6132],[114.3649,-3.4648,14.2899],[114.3634,-3.4685,0.5035],[114.3789,-3.4755,2.2788],[114.3825,-3.4736,11.6198],[114.3821,-3.4757,8.8905],[114.3879,-3.4781,3.4336],[114.3898,-3.4806,5.7598],[114.3933,-3.4804,5.5594],[114.3942,-3.4823,1.2492],[114.3973,-3.4815,4.4391],[114.4014,-3.4854,0.0],[114.4062,-3.4859,7.7426],[114.4078,-3.4889,0.0],[114.4159,-3.4934,0.0],[114.4175,-3.4918,1.6314],[114.4179,-3.4942,1.8785],[114.4203,-3.4959,0.0],[114.4266,-3.4981,0.0],[114.4279,-3.4966,0.3711],[114.4306,-3.5015,0.0],[114.4439,-3.5042,0.0],[114.4451,-3.5029,0.4831],[114.4811,-3.5029,1.0212],[114.4852,-3.5002,0.0],[114.509,-3.5447,0.0],[114.5117,-3.5362,1.7423],[114.5153,-3.4965,0.0],[114.5119,-3.4693,0.0],[114.5126,-3.4607,0.0],[114.4981,-3.4236,0.0]]]]}}