{"type":"Feature","properties":{"GID_3":"IDN.10.24.12_1","GID_0":"IDN","country":"Indonesia","GID_1":"IDN.10_1","province":"JawaTengah","NL_NAME_1":"NA","GID_2":"IDN.10.24_1","county":"Purbalingga","NL_NAME_2":"NA","city":"Kertanegara","VARNAME_3":"NA","NL_NAME_3":"NA","TYPE_3":"Kecamatan","ENGTYPE_3":"Sub-district","CC_3":"3303141","HASC_3":"NA","name":"Kertanegara.city"},
"geometry":{"type": "MultiPolygon","coordinates": [[[[109.4317,-7.3413,115.025],[109.4333,-7.3358,88.0641],[109.4363,-7.332,97.6095],[109.4366,-7.3256,95.3138],[109.4392,-7.3198,103.4929],[109.4479,-7.3154,118.9777],[109.448,-7.3126,117.2884],[109.4511,-7.3082,140.6458],[109.4492,-7.3014,134.9818],[109.4497,-7.296,145.9958],[109.4474,-7.2903,171.1434],[109.4486,-7.2879,165.9901],[109.448,-7.2735,190.617],[109.4432,-7.2681,203.6329],[109.4399,-7.2603,255.201],[109.4438,-7.2512,307.9399],[109.4378,-7.2544,511.7721],[109.4328,-7.2526,545.0688],[109.4276,-7.2539,538.095],[109.4252,-7.2519,469.4523],[109.4217,-7.2529,580.4602],[109.4174,-7.2516,560.3786],[109.4133,-7.2545,419.4427],[109.4082,-7.2517,634.5942],[109.4078,-7.2589,362.349],[109.404,-7.2671,244.5012],[109.4107,-7.2696,304.1623],[109.4138,-7.2688,270.5471],[109.4191,-7.2737,236.9917],[109.4208,-7.281,211.866],[109.4194,-7.2844,201.4448],[109.4214,-7.2892,183.094],[109.4194,-7.3008,160.9204],[109.4215,-7.3012,155.0352],[109.4225,-7.3034,154.322],[109.4219,-7.3113,134.4664],[109.4211,-7.3126,128.2781],[109.4186,-7.3118,127.2757],[109.418,-7.3156,118.5249],[109.429,-7.3179,140.8899],[109.4256,-7.3287,91.872],[109.4317,-7.3413,115.025]]]]}}