{"type":"Feature","properties":{"GID_3":"IDN.24.12.13_1","GID_0":"IDN","country":"Indonesia","GID_1":"IDN.24_1","province":"Riau","NL_NAME_1":"NA","GID_2":"IDN.24.12_1","county":"Siak","NL_NAME_2":"NA","city":"SungaiMandau","VARNAME_3":"NA","NL_NAME_3":"NA","TYPE_3":"Kecamatan","ENGTYPE_3":"Sub-district","CC_3":"1405011","HASC_3":"NA","name":"Sungai_Mandau.city"},
"geometry":{"type": "MultiPolygon","coordinates": [[[[101.6946,0.7792,10.2248],[101.7194,0.7944,14.5718],[101.7525,0.7944,7.012],[101.7525,0.7906,4.5778],[101.757,0.783,1.0],[101.7763,0.7868,19.8767],[101.7858,0.7919,10.0943],[101.7904,0.7964,15.0458],[101.8044,0.8259,20.585],[101.8006,0.8238,17.7627],[101.7914,0.8275,20.1402],[101.806,0.8864,18.3858],[101.8031,0.8902,25.9603],[101.8004,0.8912,22.6302],[101.7878,0.8864,19.2106],[101.7819,0.8862,18.6066],[101.7815,0.9468,17.912],[101.8406,0.9469,20.9774],[101.8784,1.0143,22.4847],[101.8842,1.0431,23.15],[101.8835,1.0683,17.9207],[101.8739,1.0999,18.5457],[101.8636,1.1197,29.3817],[101.8503,1.1382,39.8995],[101.8138,1.1689,34.4424],[101.7405,1.1928,40.3078],[101.712,1.1971,39.7781],[101.612,1.0306,42.5247],[101.5394,0.9254,4.5579],[101.525,0.9307,6.622],[101.5224,0.9354,4.0856],[101.5203,0.9487,5.5829],[101.5183,0.9514,5.7461],[101.4978,0.9597,5.1562],[101.4832,0.9696,7.0998],[101.4783,0.9529,18.0628],[101.4672,0.9365,18.0834],[101.4647,0.926,10.4241],[101.4746,0.9258,11.0639],[101.4949,0.9101,7.8298],[101.4988,0.8937,8.0681],[101.5037,0.8928,6.961],[101.5613,0.8551,11.6489],[101.5619,0.8518,10.7406],[101.5835,0.8551,17.2803],[101.5993,0.8532,20.3608],[101.612,0.8434,24.6693],[101.6163,0.8363,23.568],[101.6171,0.8263,21.1206],[101.6394,0.8084,13.7901],[101.6853,0.786,8.6232],[101.6946,0.7792,10.2248]]]]}}