{"type":"Feature","properties":{"GID_2":"IDN.29.6_1","GID_0":"IDN","country":"Indonesia","GID_1":"IDN.29_1","province":"SulawesiUtara","NL_NAME_1":"NA","county":"KepulauanSangihe","VARNAME_2":"NA","NL_NAME_2":"NA","TYPE_2":"Kabupaten","ENGTYPE_2":"Regency","CC_2":"7103","HASC_2":"ID.SW.SG","name":"Kepulauan_Sangihe.county"},
"geometry":{"type": "MultiPolygon","coordinates": [[[[125.4872,3.0625,2.4279],[125.4831,3.0625,8.9287],[125.4902,3.0593,2.4794],[125.4892,3.0613,10.0465],[125.4872,3.0625,2.4279]]],
[[[125.5101,3.0793,5.5101],[125.5074,3.0833,0.0],[125.5094,3.087,0.0],[125.5064,3.0842,5.3825],[125.5029,3.0866,3.4441],[125.5031,3.0937,2.461],[125.4974,3.0863,0.0],[125.495,3.0803,0.0],[125.4957,3.0774,0.0],[125.4992,3.0785,7.5434],[125.5012,3.077,28.5822],[125.5016,3.074,9.4996],[125.5044,3.0748,6.4057],[125.5054,3.0731,18.2672],[125.5044,3.07,35.764],[125.5027,3.0728,0.0],[125.5014,3.0695,33.0046],[125.4999,3.0693,8.1147],[125.4995,3.0646,25.5783],[125.5049,3.0581,0.0],[125.5078,3.0588,0.0],[125.5046,3.0625,72.9379],[125.5058,3.0662,19.4646],[125.5104,3.0712,0.0],[125.5095,3.074,3.4581],[125.5123,3.0797,0.0],[125.5101,3.0793,5.5101]]],
[[[125.4978,3.0965,17.5129],[125.4928,3.1013,0.0],[125.4927,3.0984,35.5374],[125.4872,3.095,0.0],[125.4906,3.0953,5.7956],[125.4969,3.0916,0.0],[125.4978,3.0965,17.5129]]],
[[[125.5059,3.1688,9.8527],[125.5016,3.1656,7.9129],[125.5015,3.1639,7.4001],[125.5035,3.1644,10.9969],[125.5047,3.1616,0.0],[125.5106,3.1644,3.9407],[125.5086,3.1596,5.9155],[125.5098,3.1583,0.0],[125.5128,3.1588,38.0229],[125.5127,3.1563,0.0],[125.5145,3.157,0.0],[125.516,3.1554,0.0],[125.5167,3.1585,39.9095],[125.5196,3.1576,0.0],[125.5209,3.1593,26.7619],[125.5235,3.1565,0.0],[125.5255,3.1592,0.0],[125.523,3.1623,38.5348],[125.5238,3.1634,0.0],[125.5309,3.1581,0.0],[125.532,3.1603,0.0],[125.5336,3.1596,0.0],[125.5347,3.166,13.4806],[125.5362,3.1657,0.0],[125.5369,3.1685,0.0],[125.5394,3.1689,9.2148],[125.5385,3.171,6.8439],[125.5402,3.1732,0.0],[125.5348,3.1781,0.0],[125.5386,3.1791,9.0693],[125.5395,3.1809,0.0],[125.5371,3.1803,19.2293],[125.5335,3.182,25.4894],[125.5348,3.1856,0.0],[125.5323,3.1876,0.0],[125.5312,3.1857,4.5677],[125.5295,3.1867,52.7637],[125.5297,3.1902,0.0],[125.5281,3.1895,10.8141],[125.5272,3.1922,0.0],[125.5214,3.1915,16.0008],[125.5242,3.1866,2.7948],[125.5248,3.1837,9.926],[125.5234,3.1822,9.926],[125.5273,3.1794,5.8836],[125.5276,3.1762,71.5405],[125.5264,3.1736,59.5342],[125.5242,3.1742,0.0],[125.5236,3.1721,1.3604],[125.5188,3.1723,4.8117],[125.5137,3.1876,5.9918],[125.5113,3.1886,39.3634],[125.5086,3.1845,22.05],[125.5037,3.1855,0.0],[125.5032,3.1812,0.0],[125.5071,3.182,4.1046],[125.5092,3.1807,46.0051],[125.5029,3.177,3.1197],[125.5051,3.1759,12.4115],[125.5081,3.1773,25.7041],[125.5111,3.1748,0.0],[125.513,3.1756,18.3543],[125.5156,3.1741,11.811],[125.5143,3.1729,0.0],[125.5162,3.1718,3.7389],[125.5148,3.1699,32.8474],[125.5091,3.1718,33.0208],[125.5069,3.1741,0.0],[125.4989,3.1721,19.0921],[125.5002,3.1687,0.0],[125.5059,3.1688,9.8527]]],
[[[125.5063,3.4365,21.8359],[125.5127,3.4402,0.0],[125.5192,3.4402,0.0],[125.5211,3.4375,2.1482],[125.5259,3.4377,22.7306],[125.5242,3.4346,7.5583],[125.5207,3.4334,0.0],[125.5254,3.4326,0.0],[125.5236,3.4276,19.9808],[125.5194,3.4265,54.5795],[125.5214,3.4207,17.7283],[125.5237,3.4191,39.8391],[125.5227,3.413,0.0],[125.5253,3.4121,22.5666],[125.527,3.4146,9.3552],[125.53,3.4112,0.0],[125.5313,3.4134,15.8872],[125.5338,3.4098,0.0],[125.5337,3.4163,0.0],[125.5377,3.4172,22.9181],[125.542,3.4125,20.1696],[125.5412,3.4114,0.0],[125.5447,3.41,0.0],[125.5467,3.4164,2.57],[125.5495,3.4164,0.0],[125.5515,3.4192,24.2162],[125.5475,3.4252,50.7254],[125.5495,3.4352,2.9336],[125.5521,3.4322,0.0],[125.5546,3.4329,0.0],[125.5552,3.4354,0.0],[125.5588,3.4368,0.0],[125.5595,3.4354,0.0],[125.5649,3.438,0.5193],[125.5658,3.4399,4.4579],[125.5671,3.4399,12.0719],[125.5684,3.437,0.0],[125.5709,3.4392,13.0931],[125.5702,3.4363,2.0348],[125.572,3.4334,18.6938],[125.5677,3.4348,0.0],[125.5641,3.4286,26.6915],[125.5611,3.4285,42.0738],[125.5632,3.4254,99.1713],[125.5581,3.4223,0.0],[125.5638,3.4201,0.0],[125.5671,3.4167,0.0],[125.5695,3.4174,34.0419],[125.5729,3.4151,0.0],[125.5747,3.4166,9.7129],[125.5757,3.4116,0.0],[125.5861,3.4045,0.7481],[125.5871,3.3966,0.0],[125.5887,3.3963,5.1489],[125.5926,3.3897,11.5626],[125.591,3.3875,0.0],[125.592,3.3839,28.5585],[125.5901,3.3824,6.9586],[125.5904,3.3804,56.6862],[125.5845,3.3794,0.0],[125.5814,3.3753,0.0],[125.5842,3.3749,0.0],[125.588,3.3764,0.0],[125.5877,3.3779,6.9152],[125.591,3.3774,13.8262],[125.5946,3.38,6.3901],[125.5972,3.3774,7.7437],[125.5983,3.3781,6.3854],[125.6045,3.3751,24.0351],[125.6053,3.3681,0.0],[125.6067,3.3707,11.5552],[125.612,3.371,7.7919],[125.61279999999999,3.3741,38.9301],[125.6154,3.3703,0.0],[125.6169,3.3721,34.1865],[125.6193,3.371,8.3012],[125.622,3.3725,45.9762],[125.6222,3.3761,0.0],[125.6211,3.3791,12.7625],[125.618,3.3811,29.2377],[125.6217,3.3884,1.142],[125.6233,3.3833,0.0],[125.6305,3.3803,0.0],[125.6314,3.389,13.7421],[125.6349,3.3906,49.7274],[125.6352,3.3802,0.0],[125.6381,3.3793,0.0],[125.65089999999999,3.3875,0.0],[125.6507,3.3921,25.1222],[125.6541,3.3885,0.0],[125.6576,3.3885,0.0],[125.6582,3.3922,0.0],[125.6557,3.3932,11.6145],[125.6542,3.3989,1.4535],[125.6551,3.402,0.0],[125.6569,3.4027,2.4632],[125.6575,3.399,2.7819],[125.6625,3.401,0.0],[125.662,3.4033,0.0],[125.6651,3.4063,10.5812],[125.6634,3.4141,16.1761],[125.667,3.4152,0.0],[125.6676,3.4178,13.6394],[125.6712,3.4165,0.0],[125.6713,3.4207,89.4965],[125.676,3.4263,0.0],[125.6749,3.4326,10.0743],[125.6763,3.4377,0.0],[125.6744,3.4394,8.4752],[125.6755,3.4434,21.6315],[125.6724,3.4444,22.6153],[125.6744,3.4462,0.0],[125.671,3.4471,43.1473],[125.6719,3.4497,14.6876],[125.6736,3.4502,0.0],[125.6728,3.4529,5.0296],[125.6702,3.4506,17.1851],[125.6672,3.4516,37.2301],[125.6686,3.459,0.0],[125.6662,3.4604,23.6966],[125.667,3.4621,5.8135],[125.6644,3.4722,4.8613],[125.6656,3.4761,3.1502],[125.6687,3.4771,14.3256],[125.6713,3.4806,8.269],[125.6691,3.4819,28.7271],[125.6711,3.4937,36.5156],[125.6685,3.4959,18.5709],[125.6687,3.5008,7.3281],[125.6668,3.5034,29.6196],[125.6637,3.504,3.8518],[125.6634,3.5017,32.3692],[125.6611,3.5012,45.053],[125.6561,3.5027,60.0162],[125.6546,3.5048,48.7762],[125.6552,3.5147,3.7908],[125.6627,3.5165,3.0994],[125.661,3.518,42.5099],[125.6623,3.5232,16.6178],[125.6602,3.5243,0.0],[125.6582,3.5205,10.6086],[125.6558,3.5216,10.0454],[125.6541,3.5205,0.0],[125.6556,3.5164,13.0513],[125.6496,3.512,30.4205],[125.6471,3.5143,16.9577],[125.6479,3.5168,27.6817],[125.6445,3.5191,0.0],[125.6443,3.5143,5.5601],[125.6401,3.5125,4.5212],[125.6421,3.5119,0.0],[125.6442,3.5072,0.0],[125.643,3.505,0.0],[125.6433,3.4976,7.0158],[125.6472,3.4973,28.5441],[125.649,3.4956,21.1477],[125.6574,3.4953,22.8721],[125.6622,3.4887,8.2255],[125.6608,3.4878,0.0],[125.6602,3.4833,7.3505],[125.6597,3.4839,8.202],[125.6594,3.4867,3.4664],[125.6577,3.486,8.3465],[125.6579,3.4892,0.0],[125.6554,3.4936,20.024],[125.6471,3.4938,0.0],[125.6427,3.4904,11.9809],[125.6417,3.491,1.6523],[125.6385,3.4982,58.0759],[125.6393,3.5001,0.0],[125.6372,3.4992,21.275],[125.6359,3.5069,17.5382],[125.6323,3.5088,26.7335],[125.633,3.5121,0.0],[125.6317,3.5147,8.9731],[125.6221,3.5186,12.4149],[125.6236,3.5194,0.0],[125.6217,3.5242,32.4819],[125.6266,3.5275,0.0],[125.6237,3.5286,35.2192],[125.6188,3.5264,23.0083],[125.6169,3.5295,7.7693],[125.6176,3.5316,7.9185],[125.6224,3.5347,0.0],[125.6217,3.5359,0.0],[125.6181,3.5341,6.2382],[125.6159,3.5357,2.9946],[125.6152,3.538,2.4869],[125.618,3.5423,6.1718],[125.6151,3.5422,0.0],[125.613,3.54,48.795],[125.6115,3.5415,17.8451],[125.6107,3.5406,17.8451],[125.6098,3.5426,14.5042],[125.6113,3.5454,23.1584],[125.6084,3.5457,7.2734],[125.6075,3.5483,4.9917],[125.6059,3.5469,64.978],[125.6069,3.5495,0.0],[125.6048,3.5494,24.6355],[125.6032,3.5524,0.0],[125.6018,3.5501,79.1002],[125.6014,3.5511,7.0421],[125.5997,3.5502,55.2462],[125.6015,3.5548,53.7896],[125.6004,3.5586,11.4103],[125.5977,3.5552,64.6133],[125.5956,3.5552,41.1646],[125.5946,3.5521,0.0],[125.5899,3.5526,0.8836],[125.5897,3.5566,0.0],[125.5913,3.5595,14.0761],[125.5935,3.5601,0.0],[125.5879,3.5593,26.9025],[125.587,3.5606,59.3136],[125.5886,3.5621,11.8006],[125.5892,3.5676,10.8268],[125.5858,3.5689,32.3166],[125.5895,3.5732,0.0],[125.583,3.5746,3.4052],[125.5809,3.5795,31.8069],[125.5845,3.5812,5.456],[125.5849,3.5829,0.0],[125.5816,3.5804,0.0],[125.5787,3.582,0.0],[125.5772,3.5792,14.7816],[125.5727,3.5777,29.6743],[125.5718,3.5808,0.0],[125.5698,3.5817,3.4721],[125.5692,3.5783,43.4749],[125.5596,3.5777,11.3431],[125.5593,3.5812,30.2106],[125.5624,3.5898,6.4496],[125.5679,3.5902,0.0],[125.573,3.5862,0.0],[125.5725,3.5905,51.5551],[125.5762,3.5917,0.0],[125.576,3.5937,27.2072],[125.5793,3.598,17.9195],[125.5824,3.5972,13.3092],[125.5786,3.6021,0.0],[125.5761,3.6024,8.9424],[125.5751,3.6056,0.7306],[125.581,3.6082,7.9724],[125.5847,3.6061,0.0],[125.5867,3.6082,12.8377],[125.5845,3.6098,39.5925],[125.5863,3.6109,18.3357],[125.5946,3.6113,4.8053],[125.5882,3.6125,2.3305],[125.5872,3.6159,0.0],[125.5839,3.6194,4.068],[125.584,3.6216,7.0723],[125.5869,3.6227,19.45],[125.5845,3.6248,29.6339],[125.5759,3.6267,6.1769],[125.5736,3.6257,0.0],[125.573,3.6228,23.7947],[125.5726,3.625,27.6954],[125.5695,3.6268,17.337],[125.5684,3.6253,71.8763],[125.5631,3.6255,4.7534],[125.5636,3.6282,16.7297],[125.5664,3.6292,0.0],[125.5639,3.6289,5.6855],[125.5634,3.6316,2.0442],[125.5656,3.6331,6.6369],[125.5696,3.6328,0.0],[125.5766,3.6366,28.5208],[125.573,3.6459,0.0],[125.5693,3.65,0.0],[125.5668,3.6477,15.4095],[125.5606,3.6487,1.7031],[125.5625,3.6562,0.0],[125.5576,3.6607,3.1004],[125.5572,3.6657,2.6145],[125.5533,3.6684,1.6069],[125.5531,3.6709,0.0],[125.5478,3.6731,7.6165],[125.5434,3.6773,6.0],[125.5424,3.6847,6.5151],[125.536,3.6897,3.2539],[125.5182,3.7123,0.5317],[125.508,3.7228,0.0],[125.49,3.7294,14.428],[125.4669,3.7312,17.0187],[125.4588,3.735,16.6884],[125.4466,3.737,12.4853],[125.4405,3.7339,2.6029],[125.427,3.7344,7.2985],[125.4207,3.7307,16.8834],[125.4128,3.7216,21.2078],[125.4049,3.7197,46.2589],[125.4021,3.715,80.7527],[125.398,3.7039,18.4265],[125.3985,3.6695,8.4457],[125.4024,3.6674,74.2444],[125.405,3.6614,13.5835],[125.4079,3.6599,0.0],[125.4054,3.6565,3.0804],[125.4124,3.6498,45.3149],[125.4139,3.6437,0.0],[125.4177,3.6399,0.0],[125.4258,3.6377,9.5987],[125.4326,3.6279,0.0],[125.4423,3.6205,10.7993],[125.4653,3.6128999999999998,2.0868],[125.4804,3.605,0.0],[125.4855,3.6056,2.0743],[125.4887,3.6081,2.0593],[125.5003,3.6099,0.0],[125.5037,3.6064,2.307],[125.5034,3.6006,2.0459],[125.5011,3.6016,7.5323],[125.4951,3.5988,10.4613],[125.4896,3.5987,13.4794],[125.4852,3.5968,52.1267],[125.4824,3.5935,91.1107],[125.4872,3.5833,18.3657],[125.4864,3.5778,15.5417],[125.4945,3.5829,131.8275],[125.4911,3.5727,0.0],[125.4943,3.5791,22.938],[125.4966,3.5787,0.0],[125.4973,3.5763,0.0],[125.5007,3.5781,6.8523],[125.5025,3.5762,4.1621],[125.4993,3.5709,2.7104],[125.508,3.5732,2.0537],[125.5131,3.5672,4.4353],[125.5088,3.5613,3.897],[125.5085,3.5583,39.4834],[125.5046,3.5578,0.0],[125.5006,3.5482,22.0981],[125.4964,3.5459,0.0],[125.4947,3.5366,60.8683],[125.4921,3.5356,0.0],[125.4918,3.5285,26.7826],[125.4868,3.5253,0.0],[125.4902,3.5195,0.0],[125.4864,3.5122,5.8196],[125.4884,3.5087,3.0549],[125.48779999999999,3.4972,0.0],[125.4855,3.4856,0.0],[125.481,3.4816,0.0],[125.4862,3.4822,47.1838],[125.4876,3.4785,0.0],[125.4899,3.477,0.0],[125.4888,3.475,0.0],[125.4906,3.4729,77.8372],[125.4871,3.4687,12.1122],[125.4843,3.4677,0.0],[125.4962,3.4695,15.5302],[125.4959,3.4678,0.0],[125.4993,3.4667,42.1431],[125.4946,3.4597,11.3505],[125.4976,3.4591,6.72],[125.502,3.4543,3.0594],[125.4998,3.452,0.0],[125.5016,3.4514,23.6588],[125.5007,3.4498,0.0],[125.5042,3.4493,6.8113],[125.5026,3.4468,46.8056],[125.4985,3.4452,0.0],[125.5023,3.443,2.5403],[125.5012,3.4391,40.5892],[125.5032,3.4368,37.6902],[125.5028,3.4349,0.0],[125.5063,3.4365,21.8359]]],
[[[125.4915,3.4607,3.4709],[125.4903,3.4593,0.0],[125.4923,3.458,0.0],[125.4935,3.4603,3.2121],[125.4915,3.4607,3.4709]]],
[[[125.4828,3.0955,3.9771],[125.4847,3.0967,0.0],[125.4828,3.1006,0.0],[125.4829,3.0978,3.5582],[125.4776,3.0949,5.9328],[125.477,3.0929,7.39],[125.4811,3.0918,0.0],[125.4828,3.0955,3.9771]]],
[[[125.4571,3.1405,0.0],[125.4557,3.1471,0.0],[125.4529,3.1495,5.1365],[125.4494,3.1489,2.6615],[125.4473,3.1464,18.5398],[125.448,3.1419,0.0],[125.4527,3.1396,0.0],[125.4571,3.1405,0.0]]],
[[[125.4607,3.2535,46.5651],[125.4601,3.2555,0.0],[125.4567,3.2534,27.2014],[125.4529,3.2539,0.0],[125.4526,3.2518,46.1237],[125.4495,3.253,16.1248],[125.4475,3.2497,35.9599],[125.4486,3.2425,13.4273],[125.4463,3.2391,0.0],[125.4482,3.2388,24.8837],[125.4546,3.2315,0.0],[125.4646,3.2338,0.0],[125.4686,3.2367,0.0],[125.4726,3.2438,0.0],[125.4711,3.2448,85.2045],[125.4724,3.2469,0.0],[125.4695,3.2483,87.5929],[125.4656,3.2545,7.5636],[125.4624,3.2553,36.9347],[125.4607,3.2535,46.5651]]],
[[[125.5134,3.1909,0.0],[125.5133,3.1906,0.0],[125.5136,3.1903,0.0],[125.514,3.1909,0.0],[125.5134,3.1909,0.0]]],
[[[125.6429,3.3783,0.0],[125.6446,3.3814,4.3516],[125.6411,3.38,22.0586],[125.6402,3.378,9.0374],[125.6385,3.3787,0.0],[125.6356,3.3733,3.143],[125.6409,3.3707,0.0],[125.644,3.3733,8.2274],[125.6417,3.3765,6.0202],[125.6429,3.3783,0.0]]],
[[[125.68,3.4276,0.0],[125.6804,3.427,0.0],[125.6809,3.4277,0.0],[125.6808,3.4278,0.0],[125.68,3.4276,0.0]]],
[[[125.7108,3.4689,0.0],[125.7107,3.4767,0.0],[125.7051,3.4742,6.9615],[125.7037,3.4713,29.8833],[125.6966,3.4697,12.469],[125.6971,3.4675,2.3094],[125.6907,3.4633,2.1216],[125.6931,3.4626,17.7974],[125.6976,3.4564,1.4602],[125.7014,3.4544,7.6489],[125.704,3.4552,14.4781],[125.7038,3.4545,14.4781],[125.7018,3.4523,9.732],[125.7035,3.4517,0.0],[125.7095,3.4628,0.0],[125.7108,3.4689,0.0]]],
[[[125.576,3.3395,11.725],[125.5803,3.3426,0.0],[125.5725,3.3398,42.0962],[125.5699,3.3403,50.1145],[125.5679,3.3373,4.0436],[125.5655,3.3373,0.0],[125.5677,3.3328,0.0],[125.5707,3.3317,0.0],[125.5734,3.3382,2.5771],[125.576,3.3395,11.725]]],
[[[125.579,3.3609,0.0],[125.579,3.3624,0.0],[125.5775,3.3629,0.0],[125.5777,3.3592,0.0],[125.579,3.3609,0.0]]],
[[[125.5722,3.3654,0.0],[125.5733,3.3653,0.0],[125.573,3.3673,0.0],[125.5724,3.367,8.5238],[125.5722,3.3654,0.0]]],
[[[125.5742,3.4057,6.3032],[125.5736,3.4071,0.0],[125.571,3.407,18.9078],[125.5688,3.4134,0.0],[125.5638,3.4169,9.6985],[125.5602,3.4133,0.0],[125.561,3.4109,57.5652],[125.5589,3.4092,0.0],[125.561,3.4078,49.4109],[125.5616,3.402,43.8442],[125.5585,3.4001,23.9052],[125.5557,3.4019,0.0],[125.555,3.3955,28.5759],[125.5568,3.3938,18.7747],[125.5589,3.3951,0.0],[125.5609,3.3927,4.2399],[125.5723,3.3979,16.3972],[125.5763,3.3934,0.0],[125.5743,3.3898,0.0],[125.5784,3.3895,7.1149],[125.5779,3.3911,44.487],[125.5799,3.393,0.0],[125.5796,3.3983,0.0],[125.5742,3.4057,6.3032]]],
[[[125.6181,3.3656,1.761],[125.6145,3.3672,0.0],[125.6126,3.3712,7.7919],[125.6119,3.3673,23.0246],[125.608,3.3652,51.2845],[125.6079,3.361,43.4613],[125.6055,3.3597,2.4931],[125.6071,3.3574,18.0146],[125.6056,3.3524,2.2299],[125.6077,3.3494,0.0],[125.6062,3.3412,0.0],[125.6096,3.3425,29.0774],[125.6117,3.3414,0.0],[125.6114,3.3387,0.0],[125.6145,3.3422,27.9175],[125.621,3.3413,9.9314],[125.6196,3.3429,21.3752],[125.6172,3.3428,19.7836],[125.6156,3.3461,16.6708],[125.6178,3.3517,12.7039],[125.6203,3.3518,0.0],[125.6184,3.355,10.4672],[125.6215,3.3595,45.6525],[125.6217,3.3634,43.6786],[125.6181,3.3656,1.761]]],
[[[125.7314,3.4775,0.0],[125.7363,3.4811,0.0],[125.7359,3.483,0.0],[125.7341,3.4826,18.2233],[125.733,3.4847,0.2662],[125.727,3.4803,0.0],[125.7289,3.4783,1.4382],[125.729,3.4751,0.0],[125.7314,3.4775,0.0]]],
[[[125.5915,3.6085,0.0],[125.5923,3.6086,0.0],[125.5925,3.609,0.0],[125.5917,3.6092,0.0],[125.5915,3.6085,0.0]]],
[[[125.5844,3.7591,4.5196],[125.5815,3.7616,13.4477],[125.5776,3.7691,6.2176],[125.5708,3.7703,36.908],[125.567,3.7693,10.3064],[125.555,3.7536,0.0],[125.5567,3.746,2.1169],[125.5595,3.7453,0.0],[125.5597,3.7505,69.4007],[125.5625,3.7539,52.7108],[125.5671,3.7481,0.0],[125.5682,3.7495,10.6488],[125.5702,3.7485,0.0],[125.5706,3.7544,22.3173],[125.5746,3.7558,4.4481],[125.5794,3.754,66.6378],[125.5802,3.7519,0.0],[125.583,3.7526,7.7809],[125.586,3.7503,0.0],[125.583,3.7555,42.3668],[125.5831,3.7582,0.0],[125.5864,3.7573,2.566],[125.5844,3.7591,4.5196]]],
[[[125.5654,3.794,14.0076],[125.5669,3.7951,0.0],[125.5664,3.7983,9.5864],[125.5654,3.7981,9.5864],[125.5654,3.794,14.0076]]],
[[[125.5765,3.8068,47.9309],[125.5754,3.8083,22.6948],[125.5729,3.8078,10.3703],[125.574,3.805,0.0],[125.5765,3.8068,47.9309]]],
[[[125.6594,3.5352,21.5948],[125.6562,3.5362,0.0],[125.6547,3.5335,0.0],[125.654,3.5308,0.0],[125.6563,3.5274,0.0],[125.6626,3.5298,0.0],[125.6632,3.5326,36.7995],[125.6594,3.5352,21.5948]]],
[[[125.6572,3.5389,0.0],[125.6571,3.5385,0.0],[125.6575,3.5379,0.0],[125.6577,3.5388,0.0],[125.6572,3.5389,0.0]]],
[[[125.6432,3.55,0.0],[125.6419,3.5533,16.2708],[125.6392,3.5511,58.829],[125.6356,3.5533,0.0],[125.6355,3.5517,16.1007],[125.6337,3.5518,12.2258],[125.6324,3.5475,5.1764],[125.6368,3.5448,10.353],[125.6342,3.5403,0.0],[125.6353,3.5379,3.1235],[125.6377,3.5374,15.3899],[125.6453,3.5429,6.964],[125.6432,3.55,0.0]]],
[[[125.6351,3.7838,0.6032],[125.6353,3.7842,0.6032],[125.6348,3.7843,0.6032],[125.6348,3.7839,0.6032],[125.6351,3.7838,0.6032]]],
[[[125.633,3.7901,2.0682],[125.6332,3.7895,2.0682],[125.6334,3.7895,2.0682],[125.6335,3.7899,2.0682],[125.633,3.7901,2.0682]]],
[[[125.7244,3.8702,12.0943],[125.7208,3.8727,1.1396],[125.7222,3.8664,0.0],[125.723,3.8666,0.0],[125.7244,3.8702,12.0943]]],
[[[125.6943,4.4364,0.0],[125.6927,4.4382,1.3165],[125.6883,4.4374,5.3402],[125.6881,4.4339,25.8029],[125.69,4.4316,0.0],[125.6964,4.4317,0.0],[125.6972,4.4327,7.8538],[125.6955,4.4327,25.3911],[125.6943,4.4364,0.0]]],
[[[125.6151,3.7801,0.0],[125.6159,3.7796,0.0],[125.6158,3.7811,0.0],[125.6149,3.781,0.0],[125.6151,3.7801,0.0]]],
[[[125.6049,3.7836,0.0],[125.606,3.7878,5.3174],[125.6106,3.7883,0.0],[125.6127,3.7902,1.308],[125.6148,3.7875,33.6766],[125.6143,3.7849,11.0271],[125.6167,3.7843,8.8306],[125.618,3.7818,0.0],[125.6232,3.7839,22.0409],[125.6343,3.7843,18.6894],[125.6327,3.7902,2.0682],[125.6311,3.789,14.3096],[125.6265,3.7901,7.2726],[125.6245,3.7936,0.0],[125.6207,3.7935,7.5627],[125.62,3.7919,47.1988],[125.6081,3.791,3.8179],[125.6036,3.7939,0.0],[125.597,3.7897,29.688],[125.5921,3.791,8.7577],[125.5893,3.7874,35.5791],[125.5861,3.7875,0.0],[125.5881,3.785,66.3332],[125.5869,3.7794,0.0],[125.5891,3.77,0.0],[125.5949,3.7695,22.1851],[125.5955,3.7752,0.0],[125.5972,3.7766,0.0],[125.6011,3.7763,7.8985],[125.6003,3.781,10.2472],[125.6047,3.7817,0.0],[125.6049,3.7836,0.0]]],
[[[125.6323,4.5912,6.1402],[125.6297,4.5915,3.7512],[125.6261,4.5887,0.0],[125.6298,4.5883,0.0],[125.6323,4.5912,6.1402]]],
[[[125.3913,3.9118,37.7506],[125.389,3.916,6.1726],[125.3876,3.9134,53.9915],[125.3843,3.9124,0.0],[125.3842,3.9108,0.0],[125.3877,3.9069,0.0],[125.3916,3.9081,11.8875],[125.3913,3.9118,37.7506]]],
[[[125.3212,4.2369,59.5661],[125.3174,4.2351,3.0144],[125.3186,4.2313,9.4324],[125.3244,4.2272,51.3916],[125.3301,4.2275,7.8395],[125.3321,4.2315,0.0],[125.331,4.2344,32.0485],[125.327,4.2366,54.1188],[125.3238,4.2357,46.8244],[125.3212,4.2369,59.5661]]],
[[[125.4866,4.7317,0.0],[125.4863,4.7314,2.8969],[125.4865,4.7311,0.0],[125.487,4.7316,0.0],[125.4866,4.7317,0.0]]],
[[[125.4918,4.7439,4.0684],[125.4899,4.7449,12.5625],[125.487,4.7411,28.5614],[125.4825,4.7402,60.1666],[125.4819,4.7379,6.9244],[125.4777,4.7363,6.8569],[125.4767,4.7319,1.3641],[125.4781,4.7283,0.8398],[125.4798,4.7276,0.8398],[125.4867,4.7325,1.0758],[125.4892,4.7355,30.6976],[125.4901,4.7401,22.4782],[125.4919,4.7397,0.0406],[125.4918,4.7439,4.0684]]],
[[[125.4369,4.651,52.8054],[125.4383,4.6518,0.0],[125.438,4.6588,0.0],[125.4353,4.6627,13.34],[125.4335,4.659,47.0605],[125.435,4.6567,40.6688],[125.4335,4.648,0.0],[125.4369,4.651,52.8054]]],
[[[125.4316,4.6692,20.4851],[125.4319,4.669,20.4851],[125.4323,4.669,20.4851],[125.4321,4.6693,20.4851],[125.4316,4.6692,20.4851]]],
[[[125.4371,4.6698,0.0],[125.4371,4.6695,0.0],[125.4375,4.6695,0.0],[125.4375,4.67,0.0],[125.4371,4.6698,0.0]]],
[[[125.4305,4.6692,19.4728],[125.4311,4.6693,20.4851],[125.43,4.6714,16.4209],[125.4289,4.6695,19.4728],[125.4305,4.6692,19.4728]]]]}}