{"type":"Feature","properties":{"GID_3":"IDN.11.37.20_1","GID_0":"IDN","country":"Indonesia","GID_1":"IDN.11_1","province":"JawaTimur","NL_NAME_1":"NA","GID_2":"IDN.11.37_1","county":"Tuban","NL_NAME_2":"NA","city":"Widang","VARNAME_3":"NA","NL_NAME_3":"NA","TYPE_3":"Kecamatan","ENGTYPE_3":"Sub-district","CC_3":"3523100","HASC_3":"NA","name":"Widang.city"},
"geometry":{"type": "MultiPolygon","coordinates": [[[[112.1491,-7.1084,8.6992],[112.1572,-7.1105,8.0],[112.1662,-7.0978,10.219],[112.1703,-7.0975,8.7885],[112.1752,-7.0995,9.2734],[112.1783,-7.0978,10.1976],[112.1836,-7.0892,7.5],[112.1759,-7.0875,8.4299],[112.1748,-7.0857,8.7623],[112.1798,-7.0748,8.011],[112.1834,-7.0746,7.9933],[112.1849,-7.0763,9.3377],[112.1839,-7.0835,8.4071],[112.1898,-7.0844,8.0969],[112.2037,-7.0745,7.5],[112.2172,-7.0748,11.8057],[112.219,-7.0666,7.0],[112.2153,-7.0547,7.0],[112.2158,-7.043,7.6871],[112.2172,-7.0406,9.3922],[112.222,-7.0385,8.3804],[112.2219,-7.0371,9.7058],[112.2074,-7.0341,5.9562],[112.2033,-7.0294,5.0],[112.2041,-7.0259,5.0],[112.2108,-7.0206,5.0],[112.2146,-7.0095,5.0],[112.2116,-7.0018,5.0],[112.214,-6.9992,5.0],[112.2098,-6.9969,5.1478],[112.2109,-6.9856,5.577],[112.2091,-6.9792,17.2778],[112.2096,-6.9739,32.6448],[112.2059,-6.969,41.0518],[112.1971,-6.9707,34.6448],[112.1924,-6.9736,18.6048],[112.1763,-6.9713,50.6261],[112.1757,-6.9735,51.8322],[112.1776,-6.9745,45.385],[112.1746,-6.9768,38.3988],[112.1754,-6.9793,39.9278],[112.1656,-6.9831,44.3817],[112.1458,-6.9799,49.219],[112.1432,-6.9826,45.1398],[112.115,-6.9835,53.3657],[112.1208,-6.9924,33.4191],[112.1439,-7.0167,19.2672],[112.1463,-7.0415,5.6402],[112.1522,-7.0486,5.0],[112.1588,-7.0611,6.7912],[112.1591,-7.0675,7.0385],[112.1419,-7.0783,6.4985],[112.1395,-7.0819,7.0189],[112.1405,-7.0857,6.7886],[112.1379,-7.0873,7.1256],[112.1374,-7.0909,7.544],[112.1326,-7.0896,10.6164],[112.1321,-7.0919,10.7163],[112.1297,-7.0931,9.9365],[112.1302,-7.0968,8.0],[112.1419,-7.1047,9.4126],[112.1475,-7.1012,11.6376],[112.1516,-7.101,8.0],[112.1518,-7.1032,8.3414],[112.1464,-7.1058,10.501],[112.1461,-7.107,8.0],[112.1491,-7.1084,8.6992]]]]}}