{"type":"Feature","properties":{"GID_3":"IDN.20.2.7_1","GID_0":"IDN","country":"Indonesia","GID_1":"IDN.20_1","province":"NusaTenggaraBarat","NL_NAME_1":"NA","GID_2":"IDN.20.2_1","county":"Dompu","NL_NAME_2":"NA","city":"Pekat","VARNAME_3":"NA","NL_NAME_3":"NA","TYPE_3":"Kecamatan","ENGTYPE_3":"Sub-district","CC_3":"5205060","HASC_3":"NA","name":"Pekat.city"},
"geometry":{"type": "MultiPolygon","coordinates": [[[[118.0769,-8.3551,813.4442],[118.0638,-8.3499,807.1105],[118.0465,-8.3371,942.6578],[118.0303,-8.3065,1442.1965],[118.0245,-8.2992,1681.9224],[118.013,-8.2926,1709.9868],[117.9973,-8.2868,1958.9805],[117.9733,-8.273,2168.7185],[117.9613,-8.2613,2500.3291],[117.9538,-8.25,2225.4822],[117.9389,-8.2358,2013.6238],[117.9362,-8.2292,1882.0966],[117.931,-8.2223,1690.5292],[117.9288,-8.22,1595.0654],[117.922,-8.2178,1562.3698],[117.9198,-8.2133,1506.2445],[117.9164,-8.2175,1569.7489],[117.9082,-8.2162,1433.8248],[117.9026,-8.2195,1319.8081],[117.8882,-8.2162,1180.8074],[117.8819,-8.221,1114.5598],[117.8726,-8.2209,1019.8833],[117.8709,-8.2189,1019.3655],[117.8604,-8.2173,925.8506],[117.8502,-8.2128,873.3904],[117.83,-8.1971,547.1835],[117.8152,-8.1881,495.4026],[117.8023,-8.1729,336.5653],[117.79,-8.1704,264.6107],[117.787,-8.1668,249.9916],[117.7794,-8.1625,221.1413],[117.7655,-8.1435,7.5828],[117.7501,-8.1478,0.0],[117.74,-8.1557,2.1312],[117.7341,-8.1529,4.0566],[117.7325,-8.1468,7.4507],[117.7283,-8.1499,18.1577],[117.724,-8.1501,0.0],[117.7271,-8.1583,3.6071],[117.7205,-8.1617,37.7673],[117.719,-8.164,4.0992],[117.721,-8.1725,29.8569],[117.7126,-8.1824,7.021],[117.713,-8.1909,9.3729],[117.7104,-8.1952,4.8421],[117.7102,-8.203,4.5166],[117.7065,-8.2108,2.0506],[117.7102,-8.2153,3.8683],[117.7101,-8.2197,1.3706],[117.6992,-8.2266,4.1027],[117.6987,-8.2303,9.6676],[117.696,-8.2337,30.5653],[117.6909,-8.2348,0.0],[117.6917,-8.2383,3.4316],[117.6942,-8.2414,0.0],[117.699,-8.243,0.0],[117.7114,-8.2427,4.5393],[117.7137,-8.2451,5.0265],[117.713,-8.2465,4.5179],[117.712,-8.2439,0.0],[117.713,-8.248,0.0],[117.7173,-8.2477,4.022],[117.7251,-8.2522,0.4468],[117.7286,-8.2572,0.0],[117.7337,-8.2608,3.4998],[117.7362,-8.2712,0.0],[117.7423,-8.2795,20.4073],[117.7644,-8.2894,29.9449],[117.7682,-8.2964,0.9482],[117.774,-8.3008,16.6119],[117.7732,-8.3065,0.0],[117.7747,-8.3112,1.8555],[117.7837,-8.3176,3.3781],[117.7883,-8.325,0.0],[117.7967,-8.3304,5.9454],[117.7976,-8.3331,0.0],[117.817,-8.3514,0.0],[117.8183,-8.3579,13.7152],[117.8167,-8.3659,0.0],[117.8179,-8.3687,5.3423],[117.8192,-8.3689,0.0],[117.82,-8.3634,0.0],[117.8261,-8.3625,3.9388],[117.8299,-8.3653,16.6552],[117.8277,-8.3726,9.5642],[117.842,-8.3709,3.5794],[117.8466,-8.372,2.7918],[117.8556,-8.3781,1.0266],[117.8579,-8.3835,0.0],[117.8666,-8.3911,7.8496],[117.8766,-8.3976,0.0],[117.892,-8.403,1.0907],[117.8974,-8.4116,5.6107],[117.9041,-8.4173,1.0638],[117.9131,-8.4198,0.0],[117.9173,-8.4251,1.9695],[117.932,-8.4327,5.0984],[117.9458,-8.4355,1.9953],[117.9683,-8.4471,4.8123],[117.9687,-8.4533,6.121],[117.9727,-8.4542,8.5042],[117.9804,-8.4648,0.0],[117.9863,-8.4657,3.6216],[118.012,-8.4589,2.2352],[118.019,-8.455,1.5948],[118.0264,-8.4541,8.0236],[118.0307,-8.4558,4.7745],[118.0395,-8.4519,5.8814],[118.0441,-8.4535,0.0],[118.0496,-8.4515,2.1188],[118.0709,-8.4494,11.9184],[118.0772,-8.4512,8.4457],[118.0819,-8.4506,5.5016],[118.0947,-8.4648,0.0],[118.0959,-8.4736,0.0],[118.1018,-8.4826,13.3549],[118.1002,-8.4847,1.8172],[118.1017,-8.4861,14.6771],[118.1025,-8.4915,0.0],[118.1056,-8.4954,2.9701],[118.1101,-8.497,1.4685],[118.1132,-8.4962,13.0448],[118.1172,-8.4938,3.5348],[118.1201,-8.4877,0.0],[118.1195,-8.4841,19.4816],[118.1226,-8.4824,7.7312],[118.1242,-8.4831,4.3526],[118.1241,-8.4852,0.3761],[118.1256,-8.4838,4.3526],[118.1278,-8.4752,32.3993],[118.1245,-8.4746,33.3775],[118.1272,-8.4713,45.2277],[118.1235,-8.4643,50.726],[118.1223,-8.4513,65.8856],[118.1242,-8.4478,75.0979],[118.1276,-8.4471,82.3424],[118.1335,-8.4324,121.5181],[118.1392,-8.427,144.1477],[118.154,-8.4189,436.493],[118.1583,-8.4173,518.0948],[118.169,-8.4171,590.2261],[118.172,-8.4148,586.7003],[118.1673,-8.4144,532.244],[118.1625,-8.409,359.0095],[118.1564,-8.4064,340.7152],[118.1455,-8.4057,256.9675],[118.1396,-8.3962,259.3686],[118.1385,-8.3898,277.9634],[118.116,-8.3841,406.6103],[118.1033,-8.3777,610.6611],[118.091,-8.364,640.1085],[118.0769,-8.3551,813.4442]]],
[[[117.7497,-8.0986,6.3741],[117.742,-8.0982,35.8973],[117.7373,-8.0998,18.0],[117.735,-8.1077,11.3897],[117.7391,-8.1156,37.7596],[117.7518,-8.1213,0.0],[117.7581,-8.1167,0.0],[117.7602,-8.1098,4.6948],[117.7497,-8.0986,6.3741]]]]}}