{"type":"Feature","properties":{"GID_3":"IDN.2.5.1_1","GID_0":"IDN","country":"Indonesia","GID_1":"IDN.2_1","province":"Bali","NL_NAME_1":"NA","GID_2":"IDN.2.5_1","county":"Gianyar","NL_NAME_2":"NA","city":"Blahbatuh","VARNAME_3":"NA","NL_NAME_3":"NA","TYPE_3":"Kecamatan","ENGTYPE_3":"Sub-district","CC_3":"5104020","HASC_3":"NA","name":"Blahbatuh.city"},
"geometry":{"type": "MultiPolygon","coordinates": [[[[115.3252,-8.5686,70.4168],[115.3258,-8.5596,89.4946],[115.3224,-8.5548,98.2489],[115.3179,-8.552,102.8205],[115.3184,-8.5508,111.0914],[115.3135,-8.5481,106.9848],[115.3119,-8.5371,137.0886],[115.3068,-8.5271,155.9897],[115.3071,-8.5234,162.961],[115.301,-8.5233,177.2022],[115.2982,-8.5183,184.2116],[115.2871,-8.5182,175.6607],[115.2864,-8.5217,168.082],[115.2843,-8.5229,156.8425],[115.2881,-8.5263,154.751],[115.287,-8.5292,149.8932],[115.2925,-8.534,149.3357],[115.2893,-8.5427,125.4835],[115.2912,-8.5442,113.0899],[115.2899,-8.5471,126.4715],[115.292,-8.5502,118.8754],[115.2927,-8.5647,101.0429],[115.29,-8.5691,95.896],[115.2911,-8.5743,79.9476],[115.2893,-8.5815,65.8603],[115.2905,-8.5842,53.1411],[115.2883,-8.5862,49.4527],[115.2894,-8.5919,49.3816],[115.2979,-8.5979,37.3631],[115.298,-8.6,42.3399],[115.3084,-8.6092,22.3752],[115.3113,-8.6085,18.1927],[115.3132,-8.6131,7.5718],[115.3164,-8.6156,3.0538],[115.3224,-8.6135,0.4352],[115.3232,-8.6101,0.0],[115.3296,-8.6037,0.0],[115.3466,-8.5947,0.0],[115.3499,-8.5909,0.0],[115.3518,-8.5854,5.6303],[115.3492,-8.5819,15.0944],[115.346,-8.5848,12.8863],[115.3437,-8.5813,32.8555],[115.3415,-8.5811,37.9324],[115.3373,-8.5723,54.4909],[115.3378,-8.5695,62.7366],[115.3299,-8.5712,67.4006],[115.3252,-8.5686,70.4168]]]]}}