{"type":"Feature","properties":{"GID_3":"IDN.11.23.4_1","GID_0":"IDN","country":"Indonesia","GID_1":"IDN.11_1","province":"JawaTimur","NL_NAME_1":"NA","GID_2":"IDN.11.23_1","county":"Mojokerto","NL_NAME_2":"NA","city":"Gedek","VARNAME_3":"NA","NL_NAME_3":"NA","TYPE_3":"Kecamatan","ENGTYPE_3":"Sub-district","CC_3":"3516140","HASC_3":"NA","name":"Gedek.city"},
"geometry":{"type": "MultiPolygon","coordinates": [[[[112.3978,-7.4576,22.2405],[112.4034,-7.46,24.9412],[112.4078,-7.458,22.5422],[112.421,-7.4569,21.4211],[112.4317,-7.4602,20.7148],[112.4375,-7.4576,21.0575],[112.4332,-7.452,20.0726],[112.4362,-7.4434,18.6846],[112.436,-7.4289,19.1707],[112.432,-7.4299,18.9679],[112.4297,-7.419,23.539],[112.4285,-7.4195,23.539],[112.4291,-7.4224,22.4554],[112.4226,-7.4223,23.9602],[112.4168,-7.4287,21.7364],[112.4085,-7.4287,22.0967],[112.4037,-7.426,21.4885],[112.3966,-7.4251,23.5006],[112.3883,-7.4277,23.414],[112.3851,-7.4303,24.0648],[112.3806,-7.4285,24.3268],[112.3766,-7.4294,24.4614],[112.3729,-7.4317,25.7538],[112.3702,-7.4379,25.2877],[112.3704,-7.4471,24.1218],[112.3632,-7.448,24.8987],[112.3622,-7.4461,27.187],[112.359,-7.4459,25.595],[112.3555,-7.4477,26.3023],[112.3551,-7.4564,22.7433],[112.3582,-7.4576,21.7619],[112.3688,-7.4565,23.0378],[112.3812,-7.4589,20.5],[112.3978,-7.4576,22.2405]]]]}}