{"type":"Feature","properties":{"GID_3":"IDN.9.6.36_1","GID_0":"IDN","country":"Indonesia","GID_1":"IDN.9_1","province":"JawaBarat","NL_NAME_1":"NA","GID_2":"IDN.9.6_1","county":"Ciamis","NL_NAME_2":"NA","city":"Tambaksari","VARNAME_3":"NA","NL_NAME_3":"NA","TYPE_3":"Kecamatan","ENGTYPE_3":"Sub-district","CC_3":"3207170","HASC_3":"NA","name":"Tambaksari.city"},
"geometry":{"type": "MultiPolygon","coordinates": [[[[108.5555,-7.2882,42.2122],[108.567,-7.2787,73.4016],[108.5699,-7.2713,115.1982],[108.5692,-7.2677,141.5375],[108.5711,-7.2666,125.244],[108.5688,-7.2618,125.7782],[108.5732,-7.2544,135.1949],[108.5761,-7.2532,132.4891],[108.5785,-7.2559,122.1095],[108.5816,-7.2537,122.805],[108.5801,-7.2508,119.7156],[108.5836,-7.2432,121.9151],[108.5856,-7.2422,127.4847],[108.5841,-7.2401,153.0745],[108.5808,-7.2395,124.6967],[108.5801,-7.237,126.2341],[108.5842,-7.2308,140.4055],[108.5841,-7.2255,167.7864],[108.5824,-7.2238,161.9449],[108.5852,-7.2186,146.2836],[108.5817,-7.2172,167.0526],[108.5805,-7.2139,150.4418],[108.5821,-7.2109,178.5199],[108.5812,-7.2065,149.6426],[108.5789,-7.2083,156.7893],[108.5775,-7.2053,152.3841],[108.5732,-7.2031,154.6714],[108.5741,-7.2061,156.9816],[108.5728,-7.2061,154.031],[108.5661,-7.2008,188.1813],[108.563,-7.1943,180.4726],[108.5555,-7.1932,177.0737],[108.5551,-7.1904,183.3865],[108.5406,-7.1897,332.1786],[108.5359,-7.1976,458.6012],[108.5262,-7.2023,403.2399],[108.5247,-7.2129,367.7842],[108.527,-7.2177,353.0415],[108.5302,-7.2174,378.2108],[108.5275,-7.219,356.2974],[108.5286,-7.2239,398.9472],[108.5227,-7.2286,373.0795],[108.5223,-7.2311,372.8536],[108.5106,-7.2375,341.6378],[108.5124,-7.2379,356.4729],[108.5112,-7.2422,340.6171],[108.5132,-7.2479,362.5077],[108.5112,-7.2541,341.1363],[108.5145,-7.2639,368.9814],[108.5172,-7.2634,369.6489],[108.5206,-7.2672,400.563],[108.5232,-7.2766,331.0094],[108.5244,-7.2766,273.7609],[108.5231,-7.2782,339.684],[108.5321,-7.2783,197.2185],[108.5362,-7.2796,169.1117],[108.5369,-7.2829,159.0389],[108.5399,-7.2856,114.8145],[108.5495,-7.2855,163.6346],[108.5555,-7.2882,42.2122]]]]}}