{"type":"Feature","properties":{"GID_3":"IDN.9.9.9_1","GID_0":"IDN","country":"Indonesia","GID_1":"IDN.9_1","province":"JawaBarat","NL_NAME_1":"NA","GID_2":"IDN.9.9_1","county":"Cirebon","NL_NAME_2":"NA","city":"Gebang","VARNAME_3":"NA","NL_NAME_3":"NA","TYPE_3":"Kecamatan","ENGTYPE_3":"Sub-district","CC_3":"3209041","HASC_3":"NA","name":"Gebang.city"},
"geometry":{"type": "MultiPolygon","coordinates": [[[[108.7173,-6.8488,11.3927],[108.7173,-6.8474,9.5457],[108.723,-6.8483,8.328],[108.7242,-6.8404,5.7654],[108.7334,-6.8425,6.0949],[108.732,-6.8503,7.638],[108.7431,-6.8523,6.1699],[108.7472,-6.8486,7.8882],[108.7459,-6.846,5.2367],[108.7482,-6.8448,7.7839],[108.7507,-6.8342,3.0888],[108.7489,-6.8337,3.0353],[108.7495,-6.831,2.5549],[108.7763,-6.8368,1.5727],[108.7792,-6.8301,1.6644],[108.7844,-6.8319,1.3407],[108.7862,-6.8282,0.6605],[108.7856,-6.8253,1.2704],[108.7834,-6.8248,0.5],[108.7846,-6.8186,0.5],[108.7797,-6.8159,0.7005],[108.7788,-6.8128,0.7015],[108.7726,-6.8075,0.7104],[108.759,-6.8131,0.5],[108.7534,-6.8136,0.5558],[108.753,-6.8116,0.0],[108.7523,-6.8147,0.9531],[108.7499,-6.8158,0.8368],[108.7407,-6.8135,0.8127],[108.7304,-6.8072,1.4368],[108.7154,-6.8109,0.5993],[108.6995,-6.8082,0.7706],[108.6998,-6.8117,0.6209],[108.7029,-6.8133,0.9772],[108.6977,-6.8161,2.4449],[108.6962,-6.8204,4.2393],[108.6976,-6.8208,3.7885],[108.6983,-6.819,2.4407],[108.698,-6.8226,6.145],[108.7016,-6.8243,6.7005],[108.7015,-6.8265,4.606],[108.6998,-6.8264,5.6939],[108.7014,-6.8286,4.9533],[108.6997,-6.8284,5.0168],[108.6994,-6.8306,5.9382],[108.6959,-6.8335,7.9152],[108.6966,-6.8368,6.2751],[108.6947,-6.8373,8.9612],[108.694,-6.8431,7.6047],[108.6929,-6.8421,8.8315],[108.6915,-6.8441,9.7251],[108.6884,-6.8528,12.4159],[108.7051,-6.8555,10.4177],[108.7061,-6.8539,9.5926],[108.7143,-6.859,10.0178],[108.7151,-6.8563,10.4476],[108.7168,-6.8565,9.6278],[108.7173,-6.8488,11.3927]]]]}}