{"type":"Feature","properties":{"GID_3":"IDN.12.11.8_1","GID_0":"IDN","country":"Indonesia","GID_1":"IDN.12_1","province":"KalimantanBarat","NL_NAME_1":"NA","GID_2":"IDN.12.11_1","county":"Sanggau","NL_NAME_2":"NA","city":"Meliau","VARNAME_3":"NA","NL_NAME_3":"NA","TYPE_3":"Kecamatan","ENGTYPE_3":"Sub-district","CC_3":"6105020","HASC_3":"NA","name":"Meliau.city"},
"geometry":{"type": "MultiPolygon","coordinates": [[[[110.3149,-0.4124,64.9401],[110.3216,-0.4069,51.9022],[110.3308,-0.4028,43.8891],[110.334,-0.3987,37.6132],[110.3452,-0.3928,33.0896],[110.3577,-0.3961,51.0131],[110.3668,-0.3955,43.2292],[110.3688,-0.3966,38.8758],[110.3721,-0.4038,57.2676],[110.3713,-0.4124,55.0856],[110.3572,-0.4207,65.9274],[110.3505,-0.4336,93.71],[110.3506,-0.4379,100.1551],[110.3521,-0.4421,68.4282],[110.3561,-0.4453,97.3078],[110.3697,-0.4457,100.9708],[110.3713,-0.4495,94.4597],[110.3685,-0.4616,89.8731],[110.3697,-0.466,94.5132],[110.3762,-0.4674,51.9377],[110.3818,-0.471,45.8216],[110.3845,-0.4699,46.5112],[110.3906,-0.4741,36.8116],[110.3921,-0.4725,41.43],[110.3917,-0.4667,49.0043],[110.3962,-0.4687,38.5248],[110.3951,-0.4632,64.7265],[110.3985,-0.4598,52.2537],[110.3981,-0.4557,79.4208],[110.4002,-0.4499,85.9273],[110.4044,-0.448,46.3354],[110.4059,-0.443,45.3775],[110.4118,-0.4431,38.2749],[110.412,-0.4377,44.6293],[110.4144,-0.4341,44.2126],[110.411,-0.4253,56.5667],[110.413,-0.4204,56.2806],[110.4109,-0.4123,61.6658],[110.4129,-0.4022,71.1557],[110.4065,-0.3831,99.7805],[110.4024,-0.3771,84.4311],[110.4165,-0.3674,108.9383],[110.4269,-0.363,79.7374],[110.4338,-0.3548,127.3696],[110.4384,-0.3462,168.1413],[110.4584,-0.3308,347.263],[110.4716,-0.3256,813.7323],[110.5282,-0.3383,646.2965],[110.5618,-0.3657,489.7404],[110.5608,-0.3507,500.7757],[110.5562,-0.3427,389.047],[110.5555,-0.3244,345.1212],[110.5606,-0.3115,267.3447],[110.5616,-0.3038,215.7818],[110.5697,-0.2859,214.1397],[110.5697,-0.2823,298.8722],[110.5611,-0.2731,214.3494],[110.5601,-0.2587,402.23],[110.5651,-0.2531,265.6559],[110.5707,-0.2505,320.6112],[110.584,-0.2485,378.3349],[110.6053,-0.2377,103.1256],[110.6099,-0.2244,102.0725],[110.6301,-0.2041,254.0037],[110.6374,-0.1649,111.2117],[110.6126,-0.1641,86.995],[110.5709,-0.168,112.5595],[110.5554,-0.1706,111.1323],[110.5324,-0.1772,150.1352],[110.5272,-0.1807,65.8137],[110.521,-0.1937,101.9603],[110.5092,-0.2015,103.1776],[110.5097,-0.2111,95.1296],[110.507,-0.2157,98.4726],[110.5019,-0.2212,143.5555],[110.4907,-0.225,55.7081],[110.4617,-0.2249,38.4143],[110.4575,-0.2232,42.8281],[110.4423,-0.2221,43.8449],[110.4368,-0.22,53.8136],[110.421,-0.2227,55.2345],[110.4162,-0.2213,55.0495],[110.4104,-0.223,35.1335],[110.4043,-0.2201,27.2533],[110.4012,-0.2216,36.1874],[110.3996,-0.2195,32.8308],[110.4004,-0.2153,40.5858],[110.3949,-0.2089,82.4703],[110.3885,-0.1961,47.0193],[110.3893,-0.1913,31.6561],[110.3953,-0.1847,25.258],[110.3952,-0.1781,22.8771],[110.3849,-0.1668,26.9932],[110.3832,-0.1613,35.4454],[110.3786,-0.1593,52.4457],[110.3762,-0.1552,24.5958],[110.371,-0.1514,61.512],[110.3675,-0.1396,19.2646],[110.3623,-0.1346,31.6711],[110.3633,-0.1317,18.9444],[110.3665,-0.1338,18.0806],[110.3686,-0.1332,19.3968],[110.3657,-0.1256,31.1288],[110.3712,-0.1133,29.3934],[110.3704,-0.1093,15.7619],[110.3635,-0.1003,14.097],[110.3637,-0.0939,6.0],[110.351,-0.0876,30.4718],[110.3229,-0.0874,27.7103],[110.3146,-0.0821,14.105],[110.3114,-0.0703,21.5437],[110.3015,-0.0657,31.3352],[110.2924,-0.0573,44.2478],[110.2826,-0.0511,32.2963],[110.2515,-0.0495,20.5578],[110.2396,-0.0514,3.0],[110.2337,-0.0541,30.1411],[110.2315,-0.0566,14.3329],[110.228,-0.0704,19.4909],[110.2253,-0.0753,49.8811],[110.1914,-0.0981,14.3381],[110.1847,-0.11,37.4145],[110.1771,-0.1397,24.2477],[110.1687,-0.1631,37.845],[110.18,-0.1971,131.5201],[110.1873,-0.2359,26.6017],[110.1765,-0.2779,44.6413],[110.1765,-0.2893,45.836],[110.182,-0.3075,32.0172],[110.1729,-0.3249,30.5272],[110.1699,-0.3257,32.5187],[110.1625,-0.3329,31.2453],[110.1584,-0.3437,30.8423],[110.1501,-0.3497,10.3333],[110.1456,-0.3555,18.8531],[110.1374,-0.3785,24.8045],[110.1157,-0.3912,16.4552],[110.1066,-0.399,6.3877],[110.0998,-0.4008,11.7948],[110.1032,-0.4049,6.5502],[110.1006,-0.4053,7.4034],[110.1,-0.4073,12.162],[110.1042,-0.4144,4.7723],[110.1032,-0.4188,11.2713],[110.108,-0.4185,10.6013],[110.1062,-0.4208,10.757],[110.1081,-0.4239,11.4918],[110.1063,-0.4261,13.8199],[110.1107,-0.4279,9.1787],[110.1122,-0.4225,14.6404],[110.1131,-0.4242,9.5022],[110.1138,-0.4219,10.8513],[110.1201,-0.4223,5.7633],[110.12,-0.4248,7.7781],[110.1305,-0.4248,10.6276],[110.1353,-0.4281,12.8332],[110.1414,-0.4289,9.8507],[110.1468,-0.4344,6.2792],[110.1505,-0.4354,10.8526],[110.1564,-0.4284,12.6699],[110.1672,-0.423,46.5214],[110.1841,-0.4185,10.1922],[110.1914,-0.4185,16.8247],[110.1943,-0.4213,18.6045],[110.213,-0.4193,13.0974],[110.2155,-0.4208,9.2335],[110.2153,-0.4237,8.1682],[110.2262,-0.4271,13.1804],[110.2314,-0.4326,16.4737],[110.2456,-0.4377,21.022],[110.2511,-0.444,28.479],[110.2638,-0.4385,19.2278],[110.2747,-0.4372,50.1341],[110.2953,-0.448,27.3151],[110.2999,-0.449,29.0571],[110.3024,-0.4464,44.1922],[110.3027,-0.4418,55.9737],[110.3066,-0.4378,42.5607],[110.3072,-0.432,63.4422],[110.3115,-0.426,28.0794],[110.3118,-0.4175,39.9699],[110.3149,-0.4124,64.9401]]]]}}