{"type":"Feature","properties":{"GID_3":"IDN.23.22.8_1","GID_0":"IDN","country":"Indonesia","GID_1":"IDN.23_1","province":"Papua","NL_NAME_1":"NA","GID_2":"IDN.23.22_1","county":"PuncakJaya","NL_NAME_2":"NA","city":"Yamo","VARNAME_3":"NA","NL_NAME_3":"NA","TYPE_3":"Distrik","ENGTYPE_3":"District","CC_3":"9411052","HASC_3":"NA","name":"Yamo.city"},
"geometry":{"type": "MultiPolygon","coordinates": [[[[137.9621,-3.659,1402.601],[137.9669,-3.6647,1300.7532],[137.985,-3.663,1269.1233],[138.0115,-3.6714,1288.1821],[138.0133,-3.6599,1903.1758],[138.0142,-3.6215,2437.998],[138.0199,-3.6034,2688.1204],[138.0389,-3.5826,3506.5737],[138.0601,-3.5637,2560.7847],[138.0663,-3.55,2080.9236],[138.0667,-3.5372,2644.2046],[138.0711,-3.5229,1886.8914],[138.073,-3.5041,1554.3124],[138.0681,-3.4972,1412.9799],[138.0543,-3.4913,643.2489],[138.045,-3.4901,906.22],[138.0366,-3.4859,720.8447],[138.0391,-3.4697,842.4452],[138.0285,-3.4495,1081.0216],[138.0302,-3.4363,1457.2411],[138.0296,-3.4274,1450.1201],[138.0131,-3.427,1184.521],[138.0031,-3.4377,1130.3149],[137.9848,-3.4507,1719.4011],[137.9733,-3.4652,2134.814],[137.9549,-3.4744,1892.3469],[137.9358,-3.4752,1817.9587],[137.9132,-3.4796,1801.6687],[137.9328,-3.5502,2261.1375],[137.9379,-3.5609,2678.1743],[137.9419,-3.5852,2930.2495],[137.9413,-3.6208,2174.2571],[137.943,-3.6282,2093.4619],[137.9498,-3.6457,1572.8663],[137.9508,-3.6527,1260.3281],[137.955,-3.6528,1399.1487],[137.9621,-3.659,1402.601]]]]}}