{"type":"Feature","properties":{"GID_3":"IDN.26.18.2_1","GID_0":"IDN","country":"Indonesia","GID_1":"IDN.26_1","province":"SulawesiSelatan","NL_NAME_1":"NA","GID_2":"IDN.26.18_1","county":"SidenrengRappang","NL_NAME_2":"NA","city":"Duapitue","VARNAME_3":"NA","NL_NAME_3":"NA","TYPE_3":"Kecamatan","ENGTYPE_3":"Sub-district","CC_3":"7314080","HASC_3":"NA","name":"Duapitue.city"},
"geometry":{"type": "MultiPolygon","coordinates": [[[[120.0035,-3.9304,14.8043],[120.0025,-3.9267,14.8794],[120.0057,-3.9255,14.6842],[120.0086,-3.9283,14.438],[120.0066,-3.9363,15.314],[120.0161,-3.938,15.2263],[120.0229,-3.9361,15.0673],[120.0268,-3.926,15.5914],[120.0388,-3.9171,18.1796],[120.042,-3.913,19.5983],[120.0523,-3.8841,38.0761],[120.0488,-3.8806,41.9735],[120.0496,-3.8621,43.2605],[120.0474,-3.858,37.4477],[120.053,-3.8429,52.5082],[120.0529,-3.8375,44.6141],[120.0262,-3.8368,19.9599],[120.025,-3.8375,20.9226],[120.0262,-3.841,23.8943],[120.018,-3.8446,25.0406],[120.017,-3.8499,19.0262],[120.0181,-3.8536,20.7414],[120.0148,-3.8566,17.6723],[120.0174,-3.8606,17.0044],[120.0149,-3.8617,17.6666],[120.0131,-3.8703,20.6379],[120.0099,-3.8739,20.3263],[120.0105,-3.8806,18.6331],[120.0087,-3.8807,18.6331],[120.0079,-3.8778,21.6791],[120.0044,-3.8789,20.3903],[120.0045,-3.876,21.4521],[119.999,-3.8715,17.4833],[119.9958,-3.8743,20.8998],[119.9927,-3.8724,23.7856],[119.9891,-3.8742,20.5507],[119.9827,-3.8776,18.5682],[119.9814,-3.8805,20.1007],[119.977,-3.88,21.8953],[119.9739,-3.8855,17.2234],[119.9755,-3.8881,19.3686],[119.9647,-3.886,20.6563],[119.9514,-3.879,19.117],[119.9454,-3.88,20.4605],[119.9416,-3.9059,16.8174],[119.946,-3.9121,19.1631],[119.9446,-3.9174,19.0614],[119.9501,-3.9246,13.6194],[119.9561,-3.9274,14.2691],[119.957,-3.9339,14.7658],[119.9601,-3.9388,16.9349],[119.9606,-3.9371,14.4504],[119.9702,-3.9367,13.2659],[119.9733,-3.9311,18.0901],[119.9755,-3.9316,14.008],[119.9752,-3.9352,14.1601],[119.9783,-3.9357,15.3478],[119.9875,-3.9336,13.3885],[119.9921,-3.9295,20.3564],[119.9961,-3.931,17.3057],[119.9976,-3.9277,20.1116],[120.0002,-3.9284,14.9053],[120.0005,-3.9307,15.7536],[120.0035,-3.9304,14.8043]]]]}}