{"type":"Feature","properties":{"GID_3":"IDN.2.7.4_1","GID_0":"IDN","country":"Indonesia","GID_1":"IDN.2_1","province":"Bali","NL_NAME_1":"NA","GID_2":"IDN.2.7_1","county":"Karangasem","NL_NAME_2":"NA","city":"Kubu","VARNAME_3":"NA","NL_NAME_3":"NA","TYPE_3":"Kecamatan","ENGTYPE_3":"Sub-district","CC_3":"5107080","HASC_3":"NA","name":"Kubu.city"},
"geometry":{"type": "MultiPolygon","coordinates": [[[[115.5618,-8.3321,618.796],[115.5637,-8.3303,574.1554],[115.5688,-8.3301,463.664],[115.5729,-8.3271,398.2932],[115.5787,-8.3282,371.0723],[115.5799,-8.3308,385.1408],[115.5888,-8.3291,289.5904],[115.5957,-8.3242,217.9881],[115.5989,-8.3242,166.0667],[115.6031,-8.3191,117.811],[115.6027,-8.3136,122.449],[115.6042,-8.3106,115.527],[115.6188,-8.3001,4.541],[115.6092,-8.2922,0.0],[115.6046,-8.2841,0.0],[115.5941,-8.277,5.4249],[115.59,-8.268,1.8188],[115.5809,-8.2549,0.0],[115.5582,-8.2313,1.3718],[115.5094,-8.2052,4.3544],[115.5006,-8.1923,0.0],[115.4904,-8.1875,0.0],[115.4837,-8.1795,0.0],[115.4708,-8.1781,1.5536],[115.4597,-8.1704,1.6853],[115.4573,-8.1662,1.882],[115.443,-8.1729,68.2076],[115.4419,-8.1777,102.2088],[115.4363,-8.1814,174.2266],[115.4399,-8.1852,175.0712],[115.4419,-8.1852,159.6235],[115.4416,-8.1871,178.478],[115.4444,-8.1894,169.9138],[115.448,-8.1893,161.555],[115.4539,-8.1985,192.0395],[115.4465,-8.2043,356.1506],[115.4432,-8.212,568.4033],[115.4384,-8.2182,799.2408],[115.445,-8.2255,643.9209],[115.445,-8.2338,695.0964],[115.4487,-8.2397,771.2972],[115.4475,-8.2425,854.6853],[115.4483,-8.2459,881.3542],[115.4575,-8.2421,601.3051],[115.4574,-8.2451,679.2725],[115.4536,-8.252,724.9034],[115.4494,-8.2526,875.765],[115.4398,-8.2625,1443.3473],[115.4302,-8.2672,1784.7262],[115.4286,-8.2728,1739.5527],[115.4318,-8.2757,1917.9871],[115.4296,-8.2802,2056.936],[115.4325,-8.2813,1902.6886],[115.4405,-8.2896,1361.0347],[115.4448,-8.3018,1162.8728],[115.4482,-8.3049,1186.741],[115.4507,-8.305,1098.255],[115.451,-8.3079,1126.9757],[115.4553,-8.3076,1138.8334],[115.459,-8.3112,1090.2402],[115.4613,-8.3095,1026.0237],[115.4622,-8.3127,1131.2644],[115.4652,-8.3127,1120.9761],[115.4683,-8.3094,1070.9835],[115.471,-8.3102,1130.3317],[115.4691,-8.3146,1198.8716],[115.472,-8.3164,1229.7416],[115.472,-8.3198,1373.3524],[115.4751,-8.3223,1454.3662],[115.4796,-8.3312,1980.8436],[115.4892,-8.3393,2471.707],[115.4971,-8.3436,2793.1826],[115.5005,-8.3436,2760.6738],[115.5015,-8.3418,2861.4773],[115.5155,-8.3422,2708.3352],[115.5238,-8.3456,2286.9351],[115.5387,-8.3458,1446.8162],[115.5562,-8.3384,749.5319],[115.5566,-8.3359,689.826],[115.5618,-8.3321,618.796]]]]}}