{"type":"Feature","properties":{"GID_3":"IDN.10.29.13_1","GID_0":"IDN","country":"Indonesia","GID_1":"IDN.10_1","province":"JawaTengah","NL_NAME_1":"NA","GID_2":"IDN.10.29_1","county":"Sragen","NL_NAME_2":"NA","city":"Sambirejo","VARNAME_3":"NA","NL_NAME_3":"NA","TYPE_3":"Kecamatan","ENGTYPE_3":"Sub-district","CC_3":"3314050","HASC_3":"NA","name":"Sambirejo.city"},
"geometry":{"type": "MultiPolygon","coordinates": [[[[111.1202,-7.521,424.4852],[111.1239,-7.5191,338.3648],[111.125,-7.5129,304.7031],[111.1297,-7.511,328.5367],[111.1308,-7.5153,357.2364],[111.1396,-7.5239,430.9893],[111.1481,-7.5253,436.3516],[111.152,-7.5219,413.7642],[111.1502,-7.5204,405.7079],[111.1507,-7.5181,389.3622],[111.1481,-7.5165,376.5562],[111.1503,-7.5113,344.6296],[111.1536,-7.5099,354.9681],[111.1521,-7.5077,354.6643],[111.1534,-7.5055,338.6528],[111.1518,-7.4979,295.765],[111.1481,-7.4941,296.099],[111.1448,-7.4934,258.4555],[111.1414,-7.4862,220.2592],[111.1394,-7.4868,219.7328],[111.1352,-7.4837,199.0895],[111.1368,-7.4802,195.7685],[111.1332,-7.4751,180.8798],[111.1332,-7.4787,183.684],[111.1319,-7.4794,183.684],[111.1245,-7.4791,198.9911],[111.1231,-7.4714,176.2393],[111.1093,-7.4721,162.4058],[111.1005,-7.4673,142.9391],[111.0979,-7.463,126.6514],[111.0769,-7.4622,123.3285],[111.0735,-7.4593,122.1072],[111.0726,-7.4663,119.3776],[111.0707,-7.4674,122.1008],[111.0721,-7.4703,123.6382],[111.0703,-7.4723,126.525],[111.0726,-7.4741,132.7059],[111.0714,-7.4781,140.4327],[111.0729,-7.4782,135.1091],[111.0723,-7.4822,141.5277],[111.0741,-7.483,164.1077],[111.074,-7.4864,158.5662],[111.076,-7.486,176.6915],[111.0752,-7.4882,167.6235],[111.078,-7.4887,165.6571],[111.0751,-7.4902,167.8605],[111.0769,-7.4913,177.5075],[111.0796,-7.4997,203.4551],[111.0793,-7.508,226.5039],[111.0813,-7.5086,230.6397],[111.0802,-7.5114,246.8242],[111.0829,-7.5131,264.4262],[111.0794,-7.5166,272.7294],[111.0808,-7.5219,260.5433],[111.0789,-7.5249,284.4941],[111.0814,-7.5276,269.732],[111.0884,-7.5283,324.7179],[111.0912,-7.5304,379.4248],[111.0963,-7.5292,348.1757],[111.1113,-7.5313,444.7621],[111.1154,-7.5292,425.0737],[111.116,-7.5262,435.9215],[111.1177,-7.5259,488.949],[111.1167,-7.5214,373.9231],[111.1194,-7.5222,412.0515],[111.1202,-7.521,424.4852]]]]}}