{"type":"Feature","properties":{"GID_3":"IDN.31.14.6_1","GID_0":"IDN","country":"Indonesia","GID_1":"IDN.31_1","province":"SumateraSelatan","NL_NAME_1":"NA","GID_2":"IDN.31.14_1","county":"Palembang","NL_NAME_2":"NA","city":"IlirTimurI","VARNAME_3":"NA","NL_NAME_3":"NA","TYPE_3":"Kecamatan","ENGTYPE_3":"Sub-district","CC_3":"1671050","HASC_3":"NA","name":"Ilir_Timur_I.city"},
"geometry":{"type": "MultiPolygon","coordinates": [[[[104.7611,-2.9883,10.3088],[104.7633,-2.9916,0.0],[104.7705,-2.986,0.0],[104.7646,-2.9808,10.5249],[104.7637,-2.9762,5.7723],[104.7596,-2.9754,10.5807],[104.7593,-2.9719,6.5752],[104.7567,-2.9677,8.4154],[104.7514,-2.9718,13.0289],[104.7489,-2.967,11.5972],[104.7382,-2.9608,9.0197],[104.7346,-2.9535,11.7913],[104.7309,-2.9541,19.011],[104.7233,-2.9594,12.2812],[104.7338,-2.9596,8.9641],[104.7353,-2.9632,14.7574],[104.7366,-2.9631,12.091],[104.7343,-2.9675,13.7953],[104.742,-2.9682,8.4107],[104.7462,-2.9749,6.6856],[104.7452,-2.977,8.7396],[104.7469,-2.9798,6.3245],[104.749,-2.9796,6.6302],[104.7515,-2.9821,6.5945],[104.7552,-2.9795,11.6068],[104.7578,-2.9835,10.6504],[104.758,-2.9869,7.1165],[104.7603,-2.9866,9.8735],[104.7611,-2.9883,10.3088]]]]}}