{"type":"Feature","properties":{"GID_3":"IDN.22.4.9_1","GID_0":"IDN","country":"Indonesia","GID_1":"IDN.22_1","province":"PapuaBarat","NL_NAME_1":"NA","GID_2":"IDN.22.4_1","county":"Manokwari","NL_NAME_2":"NA","city":"ManokwariBarat","VARNAME_3":"NA","NL_NAME_3":"NA","TYPE_3":"Distrik","ENGTYPE_3":"District","CC_3":"9105141","HASC_3":"NA","name":"Manokwari_Barat.city"},
"geometry":{"type": "MultiPolygon","coordinates": [[[[134.067,-0.8656,6.12],[134.069,-0.8586,0.9068],[134.0713,-0.8611,5.4631],[134.071,-0.8659,0.0],[134.0765,-0.8691,5.3722],[134.0782,-0.8734,0.0],[134.0825,-0.8748,0.0],[134.0836,-0.8639,175.9417],[134.0928,-0.8504,74.66],[134.0956,-0.8333,6.2089],[134.0851,-0.8222,0.0],[134.0826,-0.8135,6.0113],[134.076,-0.8135,0.0],[134.0451,-0.8043,0.0],[134.0357,-0.8124,120.8495],[134.0282,-0.8224,164.5316],[134.0027,-0.8391,80.4502],[133.9913,-0.8441,122.567],[133.9876,-0.8478,107.9058],[133.9786,-0.8678,174.4207],[134.015,-0.8776,229.2038],[134.05,-0.8808,0.8201],[134.0509,-0.8774,0.0],[134.0493,-0.8709,0.0],[134.0536,-0.8676,1.8971],[134.0642,-0.8762,3.0054],[134.0697,-0.8755,0.0],[134.0684,-0.8714,0.0],[134.0662,-0.8707,8.0556],[134.0693,-0.8706,0.0],[134.0688,-0.8669,0.8253],[134.067,-0.8656,6.12]],
[[134.0251,-0.8621,214.9351],[134.0267,-0.8611,224.3623],[134.0339,-0.8658,195.0535],[134.032,-0.8703,207.7753],[134.0253,-0.8685,220.3307],[134.0251,-0.8621,214.9351]]]]}}