{"type":"Feature","properties":{"GID_3":"IDN.26.1.8_1","GID_0":"IDN","country":"Indonesia","GID_1":"IDN.26_1","province":"SulawesiSelatan","NL_NAME_1":"NA","GID_2":"IDN.26.1_1","county":"Bantaeng","NL_NAME_2":"NA","city":"Uluere","VARNAME_3":"NA","NL_NAME_3":"NA","TYPE_3":"Kecamatan","ENGTYPE_3":"Sub-district","CC_3":"7303011","HASC_3":"NA","name":"Uluere.city"},
"geometry":{"type": "MultiPolygon","coordinates": [[[[119.8916,-5.5268,181.2475],[119.8884,-5.5078,493.6205],[119.8949,-5.5037,433.2893],[119.9036,-5.5032,474.0591],[119.904,-5.4993,501.2697],[119.9029,-5.4988,524.097],[119.9046,-5.4949,533.9962],[119.9032,-5.4853,691.1346],[119.9073,-5.4786,876.1028],[119.9185,-5.4723,842.9694],[119.9211,-5.4682,882.645],[119.9252,-5.4661,864.4528],[119.9285,-5.4604,912.1489],[119.9322,-5.459,954.2615],[119.9383,-5.4523,1104.0182],[119.9442,-5.4501,1147.8203],[119.9457,-5.4604,895.0353],[119.9561,-5.4692,539.061],[119.9569,-5.4646,596.196],[119.9611,-5.4602,808.6992],[119.9589,-5.4504,953.0297],[119.9619,-5.4482,1064.5609],[119.9696,-5.4468,1069.9785],[119.9689,-5.434,1241.4536],[119.9619,-5.4213,1422.6116],[119.9616,-5.414,1602.6096],[119.9633,-5.4116,1620.35],[119.9663,-5.3841,1470.0574],[119.9744,-5.377,1321.7456],[119.9696,-5.367,1541.876],[119.9634,-5.3621,1703.1151],[119.9636,-5.3592,1846.3752],[119.9585,-5.355,2208.7241],[119.9388,-5.355,2650.8518],[119.9329,-5.3619,2589.741],[119.9302,-5.3709,2441.436],[119.932,-5.3771,2287.6821],[119.938,-5.3846,2193.6411],[119.9366,-5.4088,1716.5898],[119.9263,-5.4203,1431.9973],[119.9264,-5.4248,1405.0908],[119.9241,-5.4284,1360.7039],[119.9233,-5.4353,1267.9691],[119.9123,-5.4428,1147.1594],[119.9064,-5.4558,1021.6199],[119.8992,-5.4616,911.7642],[119.8968,-5.476,786.364],[119.8812,-5.4885,611.463],[119.8794,-5.4914,575.2357],[119.8786,-5.4994,514.0924],[119.8741,-5.5042,450.0775],[119.876,-5.507,388.8643],[119.8734,-5.5185,245.2635],[119.875,-5.5239,209.2631],[119.8858,-5.5269,246.078],[119.8916,-5.5268,181.2475]]]]}}