{"type":"Feature","properties":{"GID_3":"IDN.26.10.2_1","GID_0":"IDN","country":"Indonesia","GID_1":"IDN.26_1","province":"SulawesiSelatan","NL_NAME_1":"NA","GID_2":"IDN.26.10_1","county":"LuwuUtara","NL_NAME_2":"NA","city":"Bone-Bone","VARNAME_3":"NA","NL_NAME_3":"NA","TYPE_3":"Kecamatan","ENGTYPE_3":"Sub-district","CC_3":"7322050","HASC_3":"NA","name":"Bone-Bone.city"},
"geometry":{"type": "MultiPolygon","coordinates": [[[[120.5654,-2.7237,0.0],[120.5641,-2.721,0.0],[120.571,-2.7148,0.0],[120.5695,-2.7083,1.3799],[120.5732,-2.7052,0.0],[120.5746,-2.7003,0.0],[120.5733,-2.6959,0.0],[120.5703,-2.6951,0.7673],[120.5698,-2.6895,0.5],[120.5715,-2.6861,1.5356],[120.573,-2.6856,0.7026],[120.5765,-2.6882,0.0],[120.5831,-2.6845,2.4671],[120.5873,-2.6856,4.1631],[120.5938,-2.6837,1.0402],[120.6012,-2.6791,2.4384],[120.6082,-2.6785,3.8198],[120.6112,-2.6814,0.0],[120.6155,-2.6811,2.5921],[120.6223,-2.6835,2.3341],[120.6331,-2.6822,1.7245],[120.649,-2.6687,2.9807],[120.6517,-2.669,3.7908],[120.656,-2.6666,0.0],[120.6536,-2.6646,2.5],[120.6543,-2.6614,6.9907],[120.6527,-2.662,6.9907],[120.6536,-2.6606,5.9234],[120.6487,-2.6561,6.426],[120.648,-2.6536,5.4603],[120.6505,-2.6546,6.426],[120.6507,-2.6535,6.5786],[120.6458,-2.6501,7.914],[120.645,-2.6435,9.404],[120.6464,-2.6421,11.9038],[120.6417,-2.638,13.1189],[120.638,-2.627,20.1751],[120.635,-2.6241,18.8361],[120.6353,-2.6219,20.423],[120.6312,-2.6202,30.9426],[120.6369,-2.6147,37.9202],[120.6372,-2.6101,35.3393],[120.635,-2.6093,38.9958],[120.6328,-2.6048,46.2339],[120.6397,-2.6009,48.0608],[120.6356,-2.5935,89.5336],[120.6359,-2.59,63.5372],[120.6324,-2.5913,93.4924],[120.6283,-2.586,67.9208],[120.6207,-2.585,87.7233],[120.6173,-2.5768,112.7198],[120.6205,-2.5772,96.84],[120.6204,-2.5701,118.4013],[120.615,-2.5721,116.8431],[120.6156,-2.5704,122.1944],[120.6118,-2.5655,135.2973],[120.6125,-2.5617,162.5251],[120.6148,-2.5602,151.2073],[120.6115,-2.5576,177.0287],[120.61,-2.5598,182.7966],[120.6077,-2.551,194.5685],[120.6082,-2.5473,256.6212],[120.6054,-2.5439,241.2485],[120.6044,-2.5394,237.7814],[120.5986,-2.5359,244.53],[120.599,-2.5334,258.7858],[120.597,-2.5299,350.2001],[120.5982,-2.5282,282.632],[120.5978,-2.5232,316.2868],[120.5903,-2.5152,404.5169],[120.5918,-2.5104,480.6805],[120.5881,-2.4982,672.417],[120.5856,-2.4929,703.7969],[120.5809,-2.4883,835.2091],[120.581,-2.4839,935.4459],[120.5743,-2.468,1442.0322],[120.5748,-2.4582,1690.2075],[120.5728,-2.456,1754.2162],[120.5667,-2.4552,2024.464],[120.562,-2.4459,2538.2935],[120.5552,-2.4429,2829.9111],[120.5462,-2.4733,1530.958],[120.531,-2.487,668.6102],[120.5303,-2.4896,739.647],[120.5227,-2.4916,548.0841],[120.5065,-2.5027,470.4223],[120.5066,-2.5046,428.6857],[120.5145,-2.5068,653.5785],[120.5168,-2.5088,725.7053],[120.4984,-2.5341,406.2644],[120.4954,-2.5401,460.0575],[120.4947,-2.5464,348.4279],[120.4962,-2.5573,552.5289],[120.5022,-2.572,240.6172],[120.4979,-2.5852,35.0651],[120.5047,-2.5921,24.6034],[120.5017,-2.5954,20.2454],[120.5035,-2.6007,20.6698],[120.5006,-2.6008,22.5753],[120.5002,-2.6041,19.8088],[120.5044,-2.604,21.1395],[120.5054,-2.6108,17.4542],[120.5067,-2.6109,18.1737],[120.5047,-2.6114,12.492],[120.5064,-2.613,12.5934],[120.504,-2.6182,14.3879],[120.5061,-2.6211,18.3042],[120.5044,-2.6214,13.8388],[120.5046,-2.6246,13.7725],[120.5029,-2.626,15.4011],[120.5049,-2.6419,11.2266],[120.5061,-2.6411,12.2469],[120.5065,-2.6428,11.2266],[120.5043,-2.6533,10.2263],[120.5082,-2.6741,8.1502],[120.5099,-2.6742,7.3431],[120.5106,-2.6713,6.6694],[120.5118,-2.6713,7.6904],[120.5116,-2.6783,6.3316],[120.5132,-2.6823,6.7421],[120.5188,-2.6849,6.5564],[120.5188,-2.6881,5.0975],[120.5221,-2.6898,5.7551],[120.5216,-2.6919,6.0397],[120.5245,-2.6949,5.4092],[120.5242,-2.6972,4.9297],[120.5315,-2.7013,5.4728],[120.5314,-2.7118,3.6266],[120.5334,-2.7134,0.5],[120.5328,-2.7167,3.3192],[120.5302,-2.7181,3.6421],[120.5311,-2.7204,4.0973],[120.5439,-2.7172,0.5],[120.5513,-2.7245,0.875],[120.5654,-2.7237,0.0]]]]}}