{"type":"Feature","properties":{"GID_3":"IDN.22.8.1_1","GID_0":"IDN","country":"Indonesia","GID_1":"IDN.22_1","province":"PapuaBarat","NL_NAME_1":"NA","GID_2":"IDN.22.8_1","county":"Sorong","NL_NAME_2":"NA","city":"Aimas","VARNAME_3":"NA","NL_NAME_3":"NA","TYPE_3":"Distrik","ENGTYPE_3":"District","CC_3":"9107170","HASC_3":"NA","name":"Aimas.city"},
"geometry":{"type": "MultiPolygon","coordinates": [[[[131.4987,-1.0246,32.6781],[131.4823,-1.0052,65.3986],[131.4793,-0.9775,130.9461],[131.4691,-0.9624,146.6055],[131.4516,-0.9449,188.9947],[131.4294,-0.9295,192.9108],[131.4337,-0.9374,164.5615],[131.4331,-0.9441,220.1561],[131.4268,-0.9475,180.7877],[131.4239,-0.9463,170.3916],[131.4168,-0.9516,181.8477],[131.4068,-0.9556,204.5813],[131.3938,-0.9529,91.5629],[131.3664,-0.9523,155.6564],[131.3616,-0.9507,129.4764],[131.3573,-0.9524,96.2031],[131.349,-0.95009999999999994,85.3291],[131.3463,-0.9507,63.975],[131.3407,-0.9467,26.9091],[131.3317,-0.9476,14.0789],[131.3237,-0.9445,2.9389],[131.3177,-0.9443,4.3586],[131.3155,-0.9458,4.7138],[131.3112,-0.942,3.0998],[131.3022,-0.9389,4.9557],[131.2955,-0.9316,5.1109],[131.29,-0.9337,3.0236],[131.2846,-0.934,15.2909],[131.28,-0.9316,9.4271],[131.27,-0.9338,3.8813],[131.2741,-0.9428,3.1669],[131.2747,-0.948,1.8775],[131.2707,-0.9515,6.8676],[131.267,-0.9686,0.0],[131.2767,-0.9776,8.6225],[131.2732,-0.9811,16.2823],[131.2649,-0.9804,0.0],[131.2663,-0.9874,0.0],[131.2727,-0.9873,13.7069],[131.2767,-0.9935,2.385],[131.2749,-0.9987,4.8038],[131.2582,-1.0029,0.0],[131.2536,-1.0142,4.5875],[131.256,-1.0159,6.6149],[131.2601,-1.0173,10.5245],[131.2856,-1.0183,12.9274],[131.295,-1.0159,10.4963],[131.3016,-1.0215,9.8553],[131.3046,-1.0151,17.3378],[131.3042,-0.9994,7.3604],[131.3058,-0.9964,7.5911],[131.312,-0.9912,5.7282],[131.3238,-0.9942,8.1498],[131.3303,-0.9893,28.0276],[131.3348,-0.9879,18.1401],[131.3443,-0.9726,29.8317],[131.3464,-0.9746,18.0199],[131.3535,-0.974,36.8097],[131.3563,-0.9776,17.0911],[131.3555,-0.9802,17.4675],[131.3571,-0.9821,18.2531],[131.3645,-0.9868,46.7403],[131.3708,-0.9886,62.9054],[131.3758,-1.0016,90.7157],[131.3801,-1.0056,99.9569],[131.3871,-1.005,70.284],[131.3926,-1.0081,37.5847],[131.4047,-1.0103,80.9319],[131.4073,-1.0255,106.4673],[131.4141,-1.0347,148.1698],[131.4141,-1.0372,126.05],[131.4208,-1.0401,75.8416],[131.4228,-1.0473,79.9529],[131.4287,-1.0517,67.9787],[131.4337,-1.052,76.1039],[131.4379,-1.0586,67.6105],[131.4463,-1.0611,41.9327],[131.4477,-1.0643,37.5059],[131.4498,-1.0645,37.4667],[131.4539,-1.0571,63.2345],[131.4638,-1.0493,63.2497],[131.4663,-1.0426,48.3136],[131.4751,-1.036,46.5876],[131.4845,-1.0372,45.1694],[131.4935,-1.0348,65.8727],[131.4987,-1.0246,32.6781]]]]}}