{"type":"Feature","properties":{"GID_3":"IDN.21.17.4_1","GID_0":"IDN","country":"Indonesia","GID_1":"IDN.21_1","province":"NusaTenggaraTimur","NL_NAME_1":"NA","GID_2":"IDN.21.17_1","county":"SumbaBarat","NL_NAME_2":"NA","city":"Loli","VARNAME_3":"NA","NL_NAME_3":"NA","TYPE_3":"Kecamatan","ENGTYPE_3":"Sub-district","CC_3":"5301050","HASC_3":"NA","name":"Loli.city"},
"geometry":{"type": "MultiPolygon","coordinates": [[[[119.4136,-9.6357,410.1819],[119.413,-9.6382,416.0844],[119.4107,-9.6385,412.7672],[119.4079,-9.6455,447.9662],[119.4085,-9.6415,424.7788],[119.4061,-9.6405,418.0185],[119.406,-9.6382,417.6535],[119.4012,-9.638,422.2197],[119.3987,-9.6348,395.5668],[119.3887,-9.6337,392.0395],[119.3859,-9.6304,390.3796],[119.385,-9.6313,389.1917],[119.3784,-9.629,400.9355],[119.3754,-9.6254,415.9577],[119.3781,-9.6223,416.4069],[119.3838,-9.6205,429.4554],[119.3872,-9.6243,418.4113],[119.4045,-9.6213,410.2636],[119.408,-9.6181,419.7321],[119.4238,-9.6199,423.2732],[119.4249,-9.6131,507.1906],[119.4286,-9.6093,536.7999],[119.4313,-9.5997,549.5365],[119.4351,-9.5964,542.5754],[119.4401,-9.5857,519.3575],[119.4444,-9.5884,538.0526],[119.4542,-9.588,500.7043],[119.4546,-9.5862,503.7293],[119.4599,-9.5852,500.1884],[119.467,-9.5798,502.4026],[119.4792,-9.5747,489.1306],[119.4894,-9.5725,454.117],[119.501,-9.5731,490.4142],[119.5064,-9.5781,535.9066],[119.5156,-9.5628,473.7659],[119.5147,-9.5441,441.798],[119.5186,-9.5361,490.2287],[119.5077,-9.5338,484.6035],[119.4967,-9.5268,468.5272],[119.489,-9.5282,373.0204],[119.4804,-9.5252,373.3909],[119.463,-9.5328,532.8699],[119.4621,-9.5316,532.8699],[119.4584,-9.5341,529.7309],[119.4547,-9.5341,567.9509],[119.4505,-9.5386,548.462],[119.4473,-9.5472,554.311],[119.4279,-9.5552,742.1668],[119.4244,-9.5585,751.0289],[119.417,-9.5604,745.7484],[119.4064,-9.568,603.2626],[119.3879,-9.5897,493.0472],[119.374,-9.5983,552.0909],[119.3723,-9.6068,423.2364],[119.369,-9.609,403.3485],[119.3665,-9.6156,359.3672],[119.3606,-9.6157,357.1251],[119.355,-9.613,351.955],[119.3531,-9.6156,343.1644],[119.3546,-9.618,334.7011],[119.3503,-9.6206,335.7405],[119.3487,-9.6197,336.8554],[119.3427,-9.6237,335.1153],[119.3378,-9.6227,334.6819],[119.3386,-9.6217,334.6819],[119.3368,-9.6195,329.7117],[119.3349,-9.6205,330.1669],[119.3335,-9.6184,321.2247],[119.3295,-9.623,335.7452],[119.3237,-9.6357,366.858],[119.334,-9.6431,369.4669],[119.336,-9.647,388.6692],[119.3457,-9.6536,409.6198],[119.3538,-9.6553,422.6781],[119.3679,-9.653,425.9412],[119.3731,-9.6549,429.5587],[119.3758,-9.6573,418.5814],[119.3768,-9.6636,308.6359],[119.3812,-9.6665,262.8731],[119.3849,-9.6649,238.0886],[119.3896,-9.673,147.7194],[119.3945,-9.6762,145.2387],[119.3967,-9.6806,130.1925],[119.3996,-9.6816,159.2805],[119.3972,-9.6836,118.6452],[119.3991,-9.6869,106.9278],[119.4084,-9.6834,168.0637],[119.4162,-9.6779,252.3068],[119.4152,-9.6728,289.4427],[119.4107,-9.6665,345.267],[119.4106,-9.6618,395.7176],[119.4127,-9.6555,479.1432],[119.4225,-9.6485,466.5214],[119.4239,-9.6382,420.224],[119.4195,-9.6383,418.7504],[119.4158,-9.6352,418.948],[119.4136,-9.6357,410.1819]]],
[[[119.4834,-9.6508,366.9857],[119.4852,-9.6513,304.7676],[119.4852,-9.6445,326.4908],[119.4888,-9.6375,352.2881],[119.4872,-9.6328,359.156],[119.4826,-9.6301,398.6609],[119.4819,-9.6264,388.402],[119.4839,-9.621,435.5767],[119.4794,-9.6242,401.0138],[119.4752,-9.6246,399.6271],[119.4738,-9.6229,428.5381],[119.4637,-9.621,437.955],[119.4527,-9.6223,470.1892],[119.4544,-9.6239,438.8561],[119.4517,-9.6253,432.9599],[119.457,-9.634,450.6505],[119.4721,-9.6422,429.0348],[119.4834,-9.6508,366.9857]]]]}}