{"type":"Feature","properties":{"GID_3":"IDN.10.20.3_1","GID_0":"IDN","country":"Indonesia","GID_1":"IDN.10_1","province":"JawaTengah","NL_NAME_1":"NA","GID_2":"IDN.10.20_1","county":"Magelang","NL_NAME_2":"NA","city":"Candimulyo","VARNAME_3":"NA","NL_NAME_3":"NA","TYPE_3":"Kecamatan","ENGTYPE_3":"Sub-district","CC_3":"3308100","HASC_3":"NA","name":"Candimulyo.city"},
"geometry":{"type": "MultiPolygon","coordinates": [[[[110.2574,-7.5305,332.1209],[110.2596,-7.5315,341.8424],[110.2617,-7.5293,341.4029],[110.2652,-7.5296,350.9146],[110.2707,-7.5257,370.9874],[110.2805,-7.5249,403.9885],[110.2884,-7.5186,430.9481],[110.2912,-7.5198,452.0681],[110.2941,-7.5165,487.2282],[110.3074,-7.5115,550.7095],[110.32,-7.5046,659.8988],[110.3266,-7.4984,669.7532],[110.334,-7.4951,721.1561],[110.3331,-7.491,750.4003],[110.328,-7.4934,718.0057],[110.3271,-7.4858,714.0123],[110.3213,-7.4892,669.4357],[110.3152,-7.4851,634.3878],[110.3152,-7.4819,650.2268],[110.3167,-7.481,636.8117],[110.3261,-7.4798,713.521],[110.3258,-7.4755,691.8721],[110.323,-7.4756,681.3622],[110.3214,-7.4782,669.6146],[110.3176,-7.4779,649.1188],[110.3175,-7.4791,626.7977],[110.3164,-7.4778,637.4203],[110.3125,-7.4791,604.4222],[110.3096,-7.4778,577.3174],[110.3126,-7.4746,624.5125],[110.318,-7.4728,647.4874],[110.3235,-7.4641,714.8188],[110.3282,-7.4604,756.4],[110.3268,-7.4581,755.4778],[110.3202,-7.4616,715.1196],[110.3038,-7.4638,608.4328],[110.2879,-7.4722,511.4408],[110.2812,-7.4699,501.9214],[110.2781,-7.4723,485.2138],[110.2782,-7.4755,470.358],[110.2704,-7.4782,439.3951],[110.2618,-7.4843,408.8466],[110.2573,-7.4842,401.4216],[110.2481,-7.4876,364.8275],[110.2451,-7.4849,366.6901],[110.2376,-7.4871,322.7975],[110.2356,-7.4893,329.9516],[110.2369,-7.4958,329.9559],[110.2336,-7.4995,324.1739],[110.238,-7.5049,309.1174],[110.2371,-7.5092,309.9599],[110.24,-7.5103,311.7436],[110.2421,-7.5154,311.0464],[110.2403,-7.5215,309.5183],[110.2409,-7.526,298.7511],[110.2438,-7.5285,293.8282],[110.2409,-7.5313,298.7264],[110.2397,-7.5378,286.554],[110.2417,-7.539,289.7733],[110.241,-7.5417,284.3843],[110.2457,-7.5387,299.5203],[110.2489,-7.5387,323.054],[110.2517,-7.5325,317.1839],[110.2574,-7.5305,332.1209]]]]}}