{"type":"Feature","properties":{"GID_3":"IDN.9.23.17_1","GID_0":"IDN","country":"Indonesia","GID_1":"IDN.9_1","province":"JawaBarat","NL_NAME_1":"NA","GID_2":"IDN.9.23_1","county":"Subang","NL_NAME_2":"NA","city":"Pabuaran","VARNAME_3":"NA","NL_NAME_3":"NA","TYPE_3":"Kecamatan","ENGTYPE_3":"Sub-district","CC_3":"3213100","HASC_3":"NA","name":"Pabuaran.city"},
"geometry":{"type": "MultiPolygon","coordinates": [[[[107.5986,-6.4566,50.0486],[107.6058,-6.4555,44.2759],[107.6027,-6.4515,41.9798],[107.6035,-6.4486,38.6771],[107.6062,-6.449,36.1796],[107.6067,-6.4435,34.8948],[107.6094,-6.4431,33.1088],[107.6123,-6.4399,28.5367],[107.6196,-6.4407,30.6682],[107.6244,-6.4343,28.6191],[107.6268,-6.4345,26.1998],[107.6275,-6.4379,34.4704],[107.6283,-6.4345,34.6752],[107.6328,-6.4353,39.3138],[107.6391,-6.4305,32.4076],[107.6593,-6.4305,28.9537],[107.6617,-6.4254,23.6406],[107.6602,-6.4211,29.3051],[107.6633,-6.4175,23.3184],[107.6564,-6.4039,18.7875],[107.6528,-6.3889,19.1739],[107.6552,-6.3858,18.8183],[107.6461,-6.3886,18.7],[107.6462,-6.3898,17.6121],[107.6451,-6.389,17.0299],[107.6454,-6.3907,16.6151],[107.6434,-6.3924,18.0261],[107.6443,-6.3945,18.7567],[107.643,-6.3956,18.4477],[107.6411,-6.3931,18.316],[107.6385,-6.4023,21.2937],[107.6074,-6.3886,21.1214],[107.6056,-6.39,21.6185],[107.6022,-6.3877,21.9139],[107.5994,-6.3895,22.8417],[107.591,-6.3852,24.8318],[107.5761,-6.3914,27.7928],[107.5772,-6.392,27.7928],[107.5749,-6.3984,28.3778],[107.5772,-6.3997,28.4381],[107.5772,-6.4031,28.5583],[107.5726,-6.4081,29.2791],[107.5708,-6.4036,29.433],[107.5663,-6.401,29.5144],[107.5565,-6.4013,31.5545],[107.5546,-6.3996,31.713],[107.553,-6.402,32.3042],[107.556,-6.405,32.0624],[107.5558,-6.4081,32.6014],[107.5517,-6.4061,32.605],[107.5504,-6.4107,33.3636],[107.5478,-6.4106,33.5205],[107.5472,-6.4124,33.9458],[107.5455,-6.4122,34.3224],[107.5405,-6.4166,35.8736],[107.5326,-6.4148,36.673],[107.5288,-6.4194,36.7201],[107.5297,-6.4242,38.3246],[107.5265,-6.4258,37.8957],[107.5264,-6.436,39.8848],[107.5307,-6.4417,40.5526],[107.5338,-6.4419,41.5844],[107.5331,-6.4436,39.9019],[107.5359,-6.4455,42.6428],[107.5393,-6.4442,46.822],[107.5456,-6.4473,46.0374],[107.569,-6.447,38.8518],[107.5696,-6.4573,50.8285],[107.5986,-6.4566,50.0486]]]]}}