{"type":"Feature","properties":{"GID_2":"IDN.6.2_1","GID_0":"IDN","country":"Indonesia","GID_1":"IDN.6_1","province":"Gorontalo","NL_NAME_1":"NA","county":"BoneBolango","VARNAME_2":"NA","NL_NAME_2":"NA","TYPE_2":"Kabupaten","ENGTYPE_2":"Regency","CC_2":"7504","HASC_2":"ID.GO.BB","name":"Bone_Bolango.county"},
"geometry":{"type": "MultiPolygon","coordinates": [[[[123.4632,0.3317,0.0],[123.4661,0.3256,11.9096],[123.469,0.3229,4.3569],[123.4712,0.3232,7.7121],[123.4708,0.3217,0.0],[123.4764,0.3166,2.2955],[123.4823,0.3219,137.9208],[123.4808,0.3363,410.5386],[123.4837,0.3397,352.8948],[123.48,0.3469,386.2781],[123.4803,0.3537,397.5531],[123.4847,0.3561,487.9549],[123.4937,0.3568,508.9357],[123.4916,0.3657,352.0357],[123.4967,0.371,410.5333],[123.4979,0.3821,543.7153],[123.511,0.3963,656.5338],[123.53,0.4085,602.5868],[123.5399,0.426,691.2262],[123.5501,0.4335,788.2454],[123.5474,0.4429,707.4274],[123.5376,0.4452,648.4018],[123.5259,0.4536,530.7482],[123.5236,0.463,407.0806],[123.5245,0.4672,392.9128],[123.523,0.4904,398.8418],[123.5452,0.4968,629.0798],[123.5523,0.5107,1143.1389],[123.5497,0.5142,1105.905],[123.5473,0.523,934.8346],[123.5309,0.5342,763.442],[123.5279,0.5409,581.8103],[123.5288,0.5503,496.1425],[123.5335,0.5653,964.3727],[123.5329,0.5779,1200.9666],[123.5207,0.5843,1131.486],[123.5091,0.5844,1261.3033],[123.5034,0.5914,1278.5485],[123.4878,0.6014,1331.3888],[123.4892,0.6119,1252.407],[123.4922,0.6191,1304.625],[123.491,0.623,1328.4648],[123.4862,0.6265,1228.5448],[123.4625,0.6322,1186.524],[123.4591,0.6361,1202.292],[123.455,0.6355,1141.7246],[123.429,0.6414,1196.6951],[123.4233,0.6391,1295.2402],[123.3991,0.6409,1440.5743],[123.3842,0.6397,1395.9946],[123.3648,0.6515,1483.4783],[123.3595,0.6514,1576.2828],[123.3545,0.6573,1594.4253],[123.3543,0.6631,1834.3071],[123.3428,0.6751,1767.6523],[123.3422,0.6796,1767.9019],[123.339,0.6835,1653.1334],[123.3285,0.6887,1693.913],[123.3224,0.6985,1487.9843],[123.3024,0.698,1626.6664],[123.2976,0.6959,1667.5087],[123.2894,0.6956,1660.7605],[123.2822,0.6991,1643.4723],[123.2737,0.6982,1783.4062],[123.2521,0.7176,1487.3252],[123.2471,0.717,1692.8503],[123.2471,0.7219,1526.2625],[123.2493,0.7268,1386.726],[123.2462,0.7345,1645.1875],[123.2477,0.7444,1760.6404],[123.2514,0.7536,1704.6642],[123.2408,0.7547,1534.1024],[123.2287,0.7641,753.9874],[123.2225,0.7611,1111.4579],[123.2148,0.7622,1484.8342],[123.2081,0.7567,1333.1207],[123.2024,0.7572,1300.4409],[123.1909,0.753,1546.0424],[123.1879,0.755,1513.397],[123.17529999999999,0.7564,1154.7682],[123.1666,0.754,1117.5957],[123.1634,0.7582,1067.5381],[123.1599,0.776,1125.4097],[123.1492,0.77,1059.6562],[123.1438,0.7713,1012.7126],[123.1346,0.7672,1017.6702],[123.1307,0.7724,1121.4823],[123.1258,0.7739,1294.3519],[123.1285,0.7844,1010.6249],[123.1232,0.7888,1055.0397],[123.1176,0.7891,897.2696],[123.1107,0.7928,815.4675],[123.0992,0.7957,894.1862],[123.0943,0.7984,881.9694],[123.0898,0.8036,794.6183],[123.0847,0.8058,872.7117],[123.0742,0.8058,1002.9251],[123.0711,0.8043,1018.3681],[123.0691,0.8011,1004.2849],[123.0701,0.7981,979.415],[123.0678,0.7932,927.3798],[123.0678,0.7875,862.3365],[123.0651,0.7853,718.2226],[123.0642,0.7821,619.1443],[123.0663,0.7769,515.701],[123.078,0.7735,324.5418],[123.0754,0.7715,344.0049],[123.0766,0.7702,348.94],[123.0731,0.7636,278.0005],[123.0744,0.7623,278.0005],[123.0741,0.7586,283.1458],[123.077,0.755,229.999],[123.0758,0.7506,211.4764],[123.0766,0.7457,196.9807],[123.0737,0.7413,194.7004],[123.0766,0.7353,202.2056],[123.0791,0.7332,263.6202],[123.0772,0.7304,156.0689],[123.0793,0.7285,239.7846],[123.0769,0.7258,161.1878],[123.0785,0.724,160.032],[123.0763,0.7218,163.7908],[123.079,0.7178,162.4467],[123.0762,0.718,168.9092],[123.0757,0.7168,140.8149],[123.0757,0.7123,133.6638],[123.0782,0.7074,134.8607],[123.0755,0.7041,130.9957],[123.0778,0.7023,104.8291],[123.0807,0.6955,101.0783],[123.0757,0.693,133.9618],[123.071,0.675,133.6919],[123.064,0.6713,162.7476],[123.0597,0.664,274.4755],[123.0561,0.6531,237.3486],[123.043,0.6343,104.5912],[123.0366,0.6282,100.7054],[123.0457,0.6203,73.8784],[123.0653,0.6113,26.7366],[123.0619,0.6093,130.6134],[123.0606,0.6056,30.1362],[123.0551,0.6058,16.3587],[123.0515,0.6031,14.5534],[123.0526,0.6012,16.8154],[123.0543,0.6024,17.7341],[123.0583,0.6016,18.8431],[123.0661,0.5967,12.9253],[123.0619,0.5898,14.926],[123.0728,0.5849,18.9918],[123.091,0.5803,14.7148],[123.0876,0.5548,8.422],[123.089,0.5516,8.213],[123.0854,0.546,7.7461],[123.0802,0.5322,2.6548],[123.0792,0.523,81.7059],[123.0814,0.517,254.2004],[123.0847,0.5142,332.7794],[123.087,0.5089,446.3891],[123.0957,0.5074,532.4557],[123.099,0.5045,601.4547],[123.0935,0.4836,220.4913],[123.0864,0.4796,0.0],[123.0863,0.4783,0.0],[123.0988,0.4761,3.3213],[123.1008,0.4725,0.0],[123.1043,0.4716,0.5564],[123.1064,0.4668,1.2623],[123.11279999999999,0.4638,6.6174],[123.1138,0.4618,0.0],[123.1161,0.4619,5.163],[123.1167,0.4586,1.4501],[123.1215,0.4565,1.5222],[123.1214,0.4513,0.0],[123.1248,0.4496,8.5945],[123.1262,0.4471,12.9574],[123.1253,0.4432,2.171],[123.1315,0.4414,0.0],[123.1322,0.4346,0.0],[123.1371,0.4292,10.6105],[123.138,0.4247,0.0],[123.1409,0.4229,9.4125],[123.1423,0.4239,74.2004],[123.1463,0.4226,17.5681],[123.1443,0.4155,0.0],[123.1516,0.4139,42.8881],[123.1531,0.4118,44.1972],[123.1522,0.408,4.7433],[123.1558,0.4062,16.9432],[123.1563,0.4033,0.0],[123.1622,0.3998,10.2299],[123.1746,0.3983,0.0],[123.1767,0.3994,8.9506],[123.1887,0.3958,26.9752],[123.1916,0.3935,0.0],[123.1946,0.394,17.6444],[123.2029,0.3832,7.7658],[123.2051,0.3825,15.1705],[123.2076,0.3777,2.0839],[123.2165,0.3729,1.7164],[123.217,0.3666,20.2971],[123.2158,0.3657,0.0],[123.2222,0.3627,0.6842],[123.2278,0.3489,24.7228],[123.2325,0.3471,48.2005],[123.2351,0.3487,13.7818],[123.2366,0.3457,0.0],[123.2464,0.3416,17.7337],[123.2536,0.3335,0.0],[123.2613,0.331,7.2139],[123.2658,0.327,0.0],[123.2676,0.3224,0.0],[123.2773,0.3239,16.1192],[123.2797,0.3218,0.0],[123.2788,0.319,2.7852],[123.2918,0.3158,8.3558],[123.294,0.3202,5.9887],[123.296,0.3205,9.0369],[123.3008,0.3158,2.5791],[123.3139,0.3133,0.0],[123.3276,0.3128,0.7946],[123.3447,0.306,0.8452],[123.3543,0.3094,3.6795],[123.3584,0.3144,15.193],[123.361,0.3127,4.1295],[123.3663,0.312,0.0],[123.369,0.3134,23.0932],[123.3699,0.3119,0.0],[123.3772,0.3125,8.3101],[123.3805,0.3113,1.0072],[123.401,0.3152,0.0],[123.4154,0.3113,0.0],[123.4373,0.3181,3.1901],[123.4438,0.3275,10.6609],[123.4561,0.334,0.0],[123.4581,0.3375,16.5683],[123.4608,0.3369,0.0],[123.4637,0.3331,56.8169],[123.4632,0.3317,0.0]]]]}}