{"type":"Feature","properties":{"GID_3":"IDN.9.5.21_1","GID_0":"IDN","country":"Indonesia","GID_1":"IDN.9_1","province":"JawaBarat","NL_NAME_1":"NA","GID_2":"IDN.9.5_1","county":"Bogor","NL_NAME_2":"NA","city":"Jonggol","VARNAME_3":"NA","NL_NAME_3":"NA","TYPE_3":"Kecamatan","ENGTYPE_3":"Sub-district","CC_3":"3201170","HASC_3":"NA","name":"Jonggol.city"},
"geometry":{"type": "MultiPolygon","coordinates": [[[[107.0621,-6.5098,143.0363],[107.0642,-6.5072,137.7323],[107.0699,-6.5082,210.0381],[107.0678,-6.5212,310.0044],[107.0705,-6.5244,277.3457],[107.0797,-6.5217,298.1089],[107.0806,-6.5198,286.0186],[107.0835,-6.5215,287.4632],[107.0879,-6.5194,259.6112],[107.0889,-6.524,216.5513],[107.0934,-6.5242,160.7615],[107.096,-6.5303,147.3288],[107.0977,-6.5282,137.0263],[107.0973,-6.5254,130.4151],[107.1005,-6.523,127.707],[107.109,-6.5089,82.854],[107.1116,-6.5081,91.1149],[107.1068,-6.5035,82.5958],[107.109,-6.5005,81.6488],[107.1053,-6.4979,66.7283],[107.1055,-6.4914,56.7741],[107.1087,-6.4897,68.291],[107.1045,-6.4868,56.5976],[107.1054,-6.4847,53.2575],[107.1031,-6.4846,54.2071],[107.1052,-6.4841,51.5562],[107.1055,-6.482,50.3457],[107.1068,-6.4831,50.389],[107.1072,-6.4811,47.5087],[107.1139,-6.4839,48.5096],[107.1159,-6.4837,49.3866],[107.1161,-6.4817,46.758],[107.1168,-6.4832,49.3866],[107.1211,-6.4812,43.9907],[107.1238,-6.4826,48.3743],[107.1244,-6.4808,44.3317],[107.1247,-6.4822,48.3743],[107.1265,-6.4822,48.7],[107.1263,-6.4802,45.1542],[107.1312,-6.4782,43.422],[107.1293,-6.4757,44.1343],[107.1312,-6.4754,44.1343],[107.1293,-6.47,42.92],[107.1333,-6.4668,39.919],[107.1286,-6.4657,43.466],[107.1227,-6.4674,61.7462],[107.126,-6.4592,56.7544],[107.1204,-6.459,54.1463],[107.117,-6.4621,62.6282],[107.1092,-6.4628,65.9768],[107.0997,-6.4537,71.6202],[107.08,-6.4489,54.2235],[107.0808,-6.4441,63.7901],[107.0681,-6.4378,63.1716],[107.0667,-6.4357,64.7088],[107.0627,-6.4338,56.2616],[107.0592,-6.4363,50.8393],[107.0554,-6.4357,50.4112],[107.0594,-6.4336,56.4721],[107.0576,-6.4295,49.0047],[107.0564,-6.4319,48.3848],[107.053,-6.432,60.1693],[107.0518,-6.4349,52.549],[107.0529,-6.4367,54.8515],[107.0493,-6.4369,59.0992],[107.0482,-6.4387,60.0235],[107.0479,-6.4367,59.5188],[107.0457,-6.4391,60.0894],[107.0431,-6.4387,57.1848],[107.0396,-6.4407,55.7133],[107.0386,-6.4393,62.8293],[107.0379,-6.4412,59.2761],[107.0276,-6.4453,60.7545],[107.0274,-6.4472,68.0722],[107.0257,-6.4449,63.916],[107.0209,-6.4435,65.4305],[107.0203,-6.4447,66.5753],[107.0136,-6.4449,70.0519],[107.0107,-6.4498,75.8289],[107.008,-6.4478,70.8586],[107.0062,-6.4482,70.6519],[107.0046,-6.4527,72.3808],[107.0059,-6.4551,74.5601],[107.0044,-6.4558,73.3314],[107.005,-6.4567,74.9916],[107.0036,-6.4563,75.6553],[107.0036,-6.4584,75.8071],[107.0018,-6.4592,75.8071],[107.0,-6.4587,77.4925],[106.9934,-6.4656,80.7328],[107.0029,-6.4753,82.6258],[107.0023,-6.4806,85.3251],[107.0,-6.4829,87.4775],[107.0017,-6.4846,93.4603],[107.0005,-6.4864,91.5751],[107.0014,-6.4915,117.0372],[107.0056,-6.4962,112.8055],[107.0044,-6.5004,148.607],[106.9952,-6.5049,289.5176],[106.9914,-6.511,347.981],[106.9825,-6.5141,598.1411],[106.9777,-6.5246,513.184],[106.9849,-6.5255,467.0661],[106.9888,-6.5224,408.4377],[106.9951,-6.5223,334.4262],[106.992,-6.5349,514.9169],[106.9873,-6.5367,554.7118],[106.9854,-6.5441,572.4514],[106.9861,-6.5506,530.1713],[107.0006,-6.5577,312.7122],[107.0034,-6.5577,295.6357],[107.0071,-6.5521,264.6658],[107.006,-6.5595,287.9305],[107.0123,-6.5724,312.5408],[107.0175,-6.5756,321.6647],[107.0182,-6.5791,331.7526],[107.0209,-6.5816,344.727],[107.0377,-6.5831,602.8323],[107.0407,-6.573,572.2886],[107.0433,-6.5696,542.0614],[107.039,-6.5663,526.3648],[107.0355,-6.5667,412.8282],[107.031,-6.5613,320.1154],[107.0268,-6.561,280.881],[107.0255,-6.5582,258.9429],[107.0272,-6.5544,245.3435],[107.0263,-6.5518,249.2062],[107.0321,-6.5476,232.937],[107.0304,-6.5464,226.6588],[107.0333,-6.5447,232.0942],[107.0353,-6.5326,191.8204],[107.0412,-6.5247,181.2296],[107.0457,-6.5254,176.132],[107.0513,-6.5221,174.2602],[107.0556,-6.5185,157.5945],[107.057,-6.5135,155.9603],[107.0621,-6.5098,143.0363]]]]}}