{"type":"Feature","properties":{"GID_3":"IDN.32.34.6_1","GID_0":"IDN","country":"Indonesia","GID_1":"IDN.32_1","province":"SumateraUtara","NL_NAME_1":"NA","GID_2":"IDN.32.34_1","county":"TobaSamosir","NL_NAME_2":"NA","city":"Laguboti","VARNAME_3":"NA","NL_NAME_3":"NA","TYPE_3":"Kecamatan","ENGTYPE_3":"Sub-district","CC_3":"1206040","HASC_3":"NA","name":"Laguboti.city"},
"geometry":{"type": "MultiPolygon","coordinates": [[[[99.1392,2.3053,1068.7869],[99.1404,2.3033,1082.9041],[99.1396,2.3009,1020.7942],[99.1473,2.2889,1189.0575],[99.147,2.2706,1367.4583],[99.1607,2.2682,1389.1777],[99.1724,2.2694,1363.5779],[99.182,2.2754,1335.317],[99.187,2.2806,1330.5386],[99.1907,2.2942,1316.8344],[99.1949,2.2983,1338.6788],[99.2102,2.3031,1352.1538],[99.2134,2.3072,1375.3649],[99.2115,2.316,1407.8724],[99.2131,2.3228,1247.481],[99.2193,2.3254,1161.7537],[99.2174,2.3295,1103.2615],[99.2007,2.3445,955.9523],[99.1979,2.3567,963.7455],[99.1944,2.3618,961.3903],[99.1769,2.3715,945.0877],[99.1724,2.3723,945.9802],[99.15,2.3896,915.0681],[99.1475,2.3846,921.3318],[99.1322,2.3728,906.6797],[99.1267,2.3722,906.6564],[99.1222,2.3746,907.8653],[99.1223,2.3791,904.4021],[99.114,2.3759,906.3046],[99.1156,2.3737,906.8942],[99.1154,2.3699,907.2113],[99.1099,2.3593,906.1631],[99.1074,2.3577,905.2672],[99.1226,2.3202,969.3125],[99.1392,2.3053,1068.7869]]]]}}