{"type":"Feature","properties":{"GID_3":"IDN.16.1.7_1","GID_0":"IDN","country":"Indonesia","GID_1":"IDN.16_1","province":"KepulauanRiau","NL_NAME_1":"NA","GID_2":"IDN.16.1_1","county":"Batam","NL_NAME_2":"NA","city":"Galang","VARNAME_3":"NA","NL_NAME_3":"NA","TYPE_3":"Kecamatan","ENGTYPE_3":"Sub-district","CC_3":"2171030","HASC_3":"NA","name":"Galang.city"},
"geometry":{"type": "MultiPolygon","coordinates": [[[[104.2778,0.4764,0.0],[104.2777,0.4765,0.0],[104.2776,0.4764,0.0],[104.2777,0.4763,0.0],[104.2778,0.4764,0.0]]],
[[[104.2767,0.4783,0.0],[104.2767,0.4787,0.0],[104.2763,0.4783,0.0],[104.2764,0.4781,0.0],[104.2767,0.4783,0.0]]],
[[[104.2762,0.4804,0.0],[104.2751,0.4799,0.0],[104.2752,0.4793,0.0],[104.2757,0.4795,0.0],[104.2762,0.4804,0.0]]],
[[[104.2751,0.4825,0.0],[104.2748,0.4824,0.0],[104.2743,0.4818,0.0],[104.2751,0.4818,0.0],[104.2751,0.4825,0.0]]],
[[[104.303,0.4634,5.2361],[104.3016,0.4647,1.4657],[104.3008,0.4631,2.7846],[104.3014,0.4629,2.7846],[104.303,0.4634,5.2361]]],
[[[104.3004,0.4654,1.4657],[104.2996,0.465,0.0],[104.2997,0.4646,0.0],[104.3004,0.4645,1.4657],[104.3004,0.4654,1.4657]]],
[[[104.3056,0.4656,0.0],[104.3058,0.4659,0.0],[104.3054,0.4661,0.0],[104.3053,0.4656,0.0],[104.3056,0.4656,0.0]]],
[[[104.3039,0.5305,0.0],[104.3058,0.5306,10.409],[104.3066,0.532,0.0],[104.3041,0.532,10.409],[104.3039,0.5305,0.0]]],
[[[104.2657,0.4992,3.0924],[104.2626,0.5039,0.0],[104.2621,0.5022,1.0194],[104.2568,0.5011,2.3009],[104.2584,0.4985,0.0],[104.2608,0.4991,11.4687],[104.2637,0.4949,0.0],[104.2661,0.4958,7.7347],[104.2709,0.4886,5.6547],[104.2708,0.4859,11.4717],[104.2745,0.4842,7.4265],[104.2752,0.487,0.0],[104.2731,0.492,0.0],[104.2657,0.4992,3.0924]]],
[[[104.2851,0.5253,3.7634],[104.2849,0.5267,5.5187],[104.2822,0.5269,3.8368],[104.2841,0.5256,5.5187],[104.2838,0.5231,3.8681],[104.2816,0.5226,1.0794],[104.2833,0.5204,0.0],[104.2819,0.5181,2.8558],[104.2842,0.5177,3.2957],[104.2831,0.5165,0.0],[104.2851,0.514,0.0],[104.2848,0.5062,0.0],[104.2872,0.5019,3.1726],[104.2861,0.4963,15.3996],[104.2872,0.4877,5.187],[104.2903,0.4807,4.2068],[104.292,0.4804,3.1094],[104.2919,0.4783,5.2797],[104.2957,0.475,0.0],[104.2957,0.4834,0.0],[104.2943,0.4844,0.0],[104.2961,0.4867,0.0],[104.2922,0.4899,7.3511],[104.2936,0.4912,17.4855],[104.2932,0.4985,8.0966],[104.2907,0.4992,26.2723],[104.2921,0.5,2.9631],[104.291,0.5028,18.1158],[104.2921,0.5038,2.6905],[104.2893,0.5108,16.9812],[104.2915,0.5192,23.5423],[104.2851,0.5253,3.7634]]],
[[[104.2902,0.5122,0.0],[104.29,0.5117,0.32],[104.2911,0.5118,0.32],[104.2907,0.5122,0.0],[104.2902,0.5122,0.0]]],
[[[104.2948,0.6231,1.2765],[104.2926,0.6234,0.0],[104.2965,0.6184,0.0],[104.2966,0.6214,0.0],[104.2948,0.6231,1.2765]]],
[[[104.3073,0.5965,2.8839],[104.3081,0.5955,0.0],[104.3079,0.5981,5.4681],[104.3072,0.5972,5.4681],[104.3073,0.5965,2.8839]]],
[[[104.2981,0.6157,0.0],[104.2979,0.6162,0.0],[104.2975,0.6161,0.2914],[104.2981,0.6151,0.0],[104.2981,0.6157,0.0]]],
[[[104.3059,0.6715,1.1932],[104.3065,0.6698,0.0],[104.3074,0.6737,2.7592],[104.3061,0.6728,2.7592],[104.3059,0.6715,1.1932]]],
[[[104.3199,0.6836,7.7651],[104.3182,0.6863,1.6431],[104.3145,0.6848,3.6734],[104.3155,0.6822,2.4134],[104.3177,0.6832,2.7917],[104.318,0.6791,1.0176],[104.3126,0.6773,2.9435],[104.3114,0.6734,9.1677],[104.3091,0.675,2.9361],[104.3085,0.6687,1.3009],[104.3125,0.6618,0.0],[104.3166,0.6617,0.0],[104.3182,0.6656,7.4752],[104.3217,0.6639,2.3651],[104.3255,0.6644,5.1496],[104.3291,0.6595,0.0],[104.3301,0.6641,0.0],[104.3261,0.6676,7.4839],[104.3254,0.6704,2.1649],[104.327,0.6731,0.6019],[104.3251,0.6774,2.3813],[104.3268,0.6787,0.0],[104.3199,0.6836,7.7651]]],
[[[104.2404,0.5564,2.2638],[104.2353,0.5625,0.0],[104.2331,0.5581,3.204],[104.2314,0.5579,0.0],[104.2315,0.5566,0.0],[104.2369,0.5547,0.0],[104.2409,0.5549,0.0],[104.2404,0.5564,2.2638]]],
[[[104.243,0.6358,4.2188],[104.2441,0.635,0.0],[104.2445,0.6364,0.4834],[104.2438,0.6363,4.2188],[104.243,0.6358,4.2188]]],
[[[104.2438,0.6448,7.5825],[104.2406,0.647,3.6401],[104.2396,0.6462,0.0],[104.2433,0.6405,3.6834],[104.242,0.6388,0.0],[104.2444,0.6379,4.9383],[104.2434,0.6367,4.2188],[104.2498,0.6365,0.5036],[104.2454,0.645,4.4105],[104.2438,0.6448,7.5825]]],
[[[104.2565,0.6416,1.4014],[104.2566,0.6423,0.7225],[104.2557,0.6421,0.0],[104.256,0.6411,1.4014],[104.2565,0.6416,1.4014]]],
[[[104.2365,0.6556,0.0],[104.2361,0.6571,0.0],[104.2325,0.6568,1.7938],[104.2348,0.6543,9.9389],[104.2344,0.6516,0.0],[104.2365,0.6513,8.5749],[104.2367,0.6491,3.6837],[104.2399,0.6472,7.1292],[104.2411,0.649,5.0768],[104.2365,0.6556,0.0]]],
[[[104.2446,0.6531,0.0],[104.2429,0.6532,5.3472],[104.2426,0.6525,5.3472],[104.244,0.652,0.0],[104.2446,0.6531,0.0]]],
[[[104.2415,0.6555,0.0],[104.2419,0.655,0.0],[104.2426,0.6556,0.0],[104.2421,0.6558,0.0],[104.2415,0.6555,0.0]]],
[[[104.2399,0.6594,0.0],[104.2401,0.6587,0.0],[104.2406,0.6587,0.0],[104.2406,0.66,1.3417],[104.2399,0.6594,0.0]]],
[[[104.2429,0.6631,0.0],[104.2439,0.6653,0.5995],[104.2437,0.6656,0.0],[104.2416,0.6637,0.0],[104.2429,0.6631,0.0]]],
[[[104.2151,0.718,12.5566],[104.211,0.7182,3.1021],[104.2105,0.715,6.1324],[104.2121,0.7112,3.7186],[104.2098,0.7102,3.4547],[104.2131,0.7049,0.0],[104.2124,0.6985,0.0],[104.214,0.7001,1.2225],[104.2168,0.699,28.1686],[104.2191,0.6956,1.7964],[104.2215,0.6831,0.0],[104.2273,0.6877,2.4163],[104.2344,0.6759,9.8215],[104.2348,0.6698,0.0],[104.2377,0.6723,16.8118],[104.2473,0.6686,2.6589],[104.2509,0.6508,9.908],[104.2534,0.6492,3.2988],[104.2557,0.6444,0.8571],[104.2574,0.6454,2.3101],[104.2586,0.6391,0.0],[104.2625,0.6381,0.9679],[104.2634,0.6364,3.3933],[104.2643,0.6282,0.0],[104.2657,0.6274,3.2585],[104.2643,0.6258,0.0],[104.2645,0.6218,0.0],[104.2683,0.6251,1.9147],[104.2733,0.6246,2.5116],[104.2885,0.6109,0.7991],[104.2879,0.6158,0.0],[104.2854,0.6171,0.0],[104.288,0.6217,0.0],[104.2844,0.6314,4.0446],[104.289,0.6318,1.653],[104.2887,0.639,0.0],[104.2852,0.6497,11.1517],[104.2865,0.6561,0.0],[104.2842,0.6588,2.8959],[104.2861,0.6603,0.0],[104.2821,0.6615,2.3853],[104.2817,0.6678,0.0],[104.279,0.6719,2.1737],[104.2724,0.6767,1.7619],[104.2689,0.6772,11.2349],[104.267,0.6813,0.6754],[104.2601,0.6883,1.7867],[104.258,0.6849,0.0],[104.2617,0.6778,1.764],[104.2577,0.6775,1.7362],[104.2569,0.6803,0.4413],[104.2513,0.6828,0.0],[104.2491,0.6866,0.7547],[104.242,0.689,7.381],[104.2309,0.7038,0.482],[104.2284,0.7047,2.7468],[104.229,0.7064,1.178],[104.2213,0.7154,7.839],[104.2151,0.718,12.5566]]],
[[[104.2781,0.709,2.1217],[104.2847,0.7076,1.3827],[104.2873,0.7097,1.4097],[104.2985,0.7066,0.0],[104.3045,0.7085,0.0],[104.3095,0.7074,3.0198],[104.3084,0.7118,6.7706],[104.2998,0.7117,22.787],[104.297,0.7139,0.8167],[104.2971,0.7165,0.6517],[104.2955,0.718,0.4997],[104.2928,0.7175,3.3876],[104.2868,0.7206,0.0],[104.2851,0.7235,20.5819],[104.286,0.7266,0.0],[104.2839,0.729,0.0],[104.2813,0.7289,0.0],[104.2789,0.7312,0.0],[104.273,0.7303,13.3617],[104.27,0.7342,2.3779],[104.2711,0.7361,0.0],[104.2674,0.7372,2.4964],[104.2679,0.7416,6.6405],[104.2646,0.7426,2.668],[104.2632,0.745,0.8945],[104.2578,0.7654,2.3294],[104.2579,0.7695,2.1056],[104.2611,0.7738,2.5933],[104.264,0.7729,0.0],[104.2677,0.7745,1.2367],[104.2651,0.7812,0.4104],[104.2697,0.7838,0.0],[104.27,0.7885,0.3582],[104.2755,0.7895,0.0],[104.2781,0.7945,0.0],[104.2776,0.7964,0.0],[104.2639,0.7958,0.0],[104.2616,0.7933,3.5553],[104.2617,0.8009,0.0],[104.2561,0.8015,3.056],[104.2509,0.8006,0.0],[104.2463,0.7954,3.3075],[104.2457,0.7924,0.9938],[104.2399,0.79,3.2703],[104.2289,0.7896,0.9205],[104.2167,0.7846,2.1349],[104.2126,0.7891,0.7114],[104.2133,0.7829,1.0997],[104.212,0.7816,2.3404],[104.205,0.7825,9.7722],[104.2038,0.7804,1.8176],[104.2019,0.7803,4.2178],[104.199,0.7863,3.6295],[104.1981,0.7843,1.9191],[104.1971,0.7841,1.9191],[104.1972,0.7861,0.5448],[104.1933,0.7872,0.2831],[104.1906,0.786,0.8092],[104.1907,0.7828,5.0337],[104.1862,0.7793,0.0],[104.1874,0.7779,0.9914],[104.1859,0.776,1.0431],[104.1834,0.778,2.357],[104.1791,0.7766,3.4475],[104.1762,0.782,19.2565],[104.1716,0.7818,0.0],[104.1722,0.7727,0.0],[104.1818,0.7645,10.61],[104.1856,0.7572,2.8473],[104.1855,0.7542,3.0881],[104.1896,0.7517,2.0645],[104.1901,0.7375,2.5391],[104.189,0.7363,2.6513],[104.1901,0.735,2.7783],[104.189,0.7337,1.4127],[104.1934,0.7317,19.3409],[104.1972,0.7241,1.6244],[104.1965,0.721,0.0],[104.2007,0.7285,1.0044],[104.2073,0.7221,11.1645],[104.2074,0.7204,4.9022],[104.2092,0.7209,3.8949],[104.2113,0.7192,5.6184],[104.2128,0.7211,5.5621],[104.216,0.7199,0.0],[104.2187,0.7247,1.6892],[104.2406,0.6974,1.3795],[104.2528,0.6923,9.1342],[104.2552,0.6922,2.0297],[104.2566,0.694,2.633],[104.2572,0.6923,0.8589],[104.2596,0.692,0.0],[104.2591,0.6953,0.0],[104.263,0.6995,0.0],[104.2582,0.7012,3.231],[104.26,0.7028,0.7184],[104.2678,0.7059,2.0231],[104.2727,0.7013,0.0],[104.2745,0.7015,0.5406],[104.2758,0.7071,2.4947],[104.2781,0.709,2.1217]]],
[[[104.2448,0.8325,1.3553],[104.2442,0.8318,1.7984],[104.2455,0.8312,0.0],[104.246,0.8325,1.3553],[104.2448,0.8325,1.3553]]],
[[[104.2233,0.6679,2.7707],[104.2214,0.6682,0.0],[104.226,0.665,1.8485],[104.2284,0.6654,0.0],[104.2249,0.6668,9.6769],[104.2233,0.6679,2.7707]]],
[[[104.2081,0.7154,0.0],[104.208,0.7144,0.0],[104.2083,0.7142,0.0],[104.2083,0.7157,0.0],[104.2081,0.7154,0.0]]],
[[[104.2085,0.7183,6.7534],[104.2089,0.7171,6.7534],[104.2105,0.7191,5.6184],[104.2091,0.7196,4.9022],[104.2085,0.7183,6.7534]]],
[[[104.2911,0.6302,5.3065],[104.2909,0.6315,3.8628999999999998],[104.2888,0.6305,1.653],[104.291,0.6287,0.0],[104.2911,0.6302,5.3065]]],
[[[104.2623,0.636,0.9549],[104.2602,0.6368,4.9111],[104.2586,0.6321,0.0],[104.2624,0.6313,0.766],[104.2623,0.636,0.9549]]],
[[[104.2745,0.6766,1.053],[104.2766,0.6741,1.0812],[104.2773,0.674,1.1321],[104.2764,0.6765,6.1397],[104.2745,0.6766,1.053]]],
[[[104.2967,0.6901,2.969],[104.294,0.6891,1.722],[104.2909,0.6911,0.656],[104.2883,0.6877,4.5514],[104.2887,0.6897,0.6264],[104.2864,0.6905,0.0],[104.2835,0.6847,2.5668],[104.2797,0.6863,0.8716],[104.2787,0.6885,0.4593],[104.2753,0.6891,0.0],[104.275,0.6862,0.4089],[104.271,0.6829,1.5476],[104.2741,0.6796,0.3098],[104.2746,0.6806,2.5364],[104.2803,0.673,0.6026],[104.285,0.6711,0.4298],[104.2945,0.6721,0.0],[104.2966,0.6772,5.4997],[104.2964,0.6803,1.1924],[104.2942,0.6827,4.3348],[104.2953,0.6823,4.3348],[104.2963,0.6808,0.0],[104.3008,0.6862,0.0],[104.2967,0.6901,2.969]]],
[[[104.3028,0.6721,0.5963],[104.3043,0.6724,0.0],[104.3049,0.6738,0.0],[104.3038,0.674,1.0288],[104.3028,0.6721,0.5963]]],
[[[104.3359,0.6781,2.2767],[104.3312,0.6774,1.4892],[104.3304,0.6729,0.3805],[104.3327,0.6733,0.0],[104.3354,0.6706,2.104],[104.3423,0.6706,4.2518],[104.3414,0.6747,0.0],[104.3372,0.6758,1.1366],[104.3359,0.6781,2.2767]]],
[[[104.302,0.6751,1.0288],[104.2987,0.6796,1.5746],[104.2968,0.6789,1.1924],[104.2965,0.674,3.2292],[104.2982,0.6725,7.7723],[104.3017,0.6723,6.4868],[104.302,0.6751,1.0288]]],
[[[104.3067,0.6771,0.0],[104.3057,0.6796,0.599],[104.301,0.6775,0.0],[104.3042,0.6748,0.0],[104.3067,0.6771,0.0]]],
[[[104.3432,0.6787,6.3239],[104.3395,0.6793,1.5743],[104.3386,0.6774,0.0],[104.346,0.6756,8.2949],[104.3483,0.6768,0.0],[104.3448,0.6775,6.3239],[104.3432,0.6787,6.3239]]],
[[[104.3157,0.7002,36.917],[104.31,0.6995,0.0],[104.3092,0.6979,2.5615],[104.3121,0.6937,0.0],[104.3167,0.6913,4.8664],[104.3172,0.6888,7.807],[104.3191,0.6889,6.2272],[104.3209,0.6849,0.0],[104.3284,0.681,0.9839],[104.3307,0.683,6.1975],[104.3334,0.6816,0.0],[104.3363,0.6823,9.4615],[104.3371,0.6847,1.926],[104.3358,0.687,24.056],[104.3269,0.6875,2.1316],[104.3227,0.691,0.0],[104.3237,0.6962,5.2986],[104.3213,0.6987,1.8727],[104.3157,0.7002,36.917]]],
[[[104.3706,0.7385,6.0151],[104.3694,0.7394,4.5891],[104.3649,0.7389,0.0],[104.3703,0.7374,6.0151],[104.3706,0.7385,6.0151]]],
[[[104.3102,0.7628,2.4743],[104.3076,0.7632,5.1027],[104.2988,0.756,0.6335],[104.314,0.7527,3.3179],[104.3165,0.7489,3.3756],[104.3278,0.7534,0.0],[104.3322,0.7517,0.0],[104.3332,0.7493,4.5184],[104.3384,0.7497,0.0],[104.3439,0.7479,1.4791],[104.3532,0.7392,2.3696],[104.3566,0.7403,0.0],[104.3581,0.7451,0.0],[104.3555,0.7494,0.0],[104.3356,0.7554,4.9139],[104.3319,0.7584,2.3811],[104.3323,0.7602,0.4352],[104.3276,0.7584,4.497],[104.3102,0.7628,2.4743]]],
[[[104.2619,0.6963,0.8631],[104.2641,0.6951,0.0],[104.2657,0.697,0.0],[104.2639,0.6975,1.0361],[104.2619,0.6963,0.8631]]],
[[[104.285,0.7714,0.0],[104.285,0.771,0.0],[104.2855,0.7711,0.0],[104.2854,0.7715,0.0],[104.285,0.7714,0.0]]],
[[[104.2845,0.7719,0.0],[104.2845,0.7729,0.0],[104.2822,0.7721,0.0],[104.2825,0.7717,0.0],[104.2845,0.7719,0.0]]],
[[[104.2731,0.8041,0.0],[104.2731,0.8037,0.0],[104.2738,0.8039,0.0],[104.2737,0.8044,0.0],[104.2731,0.8041,0.0]]],
[[[104.2908,0.8053,0.0],[104.2908,0.8049,0.0],[104.291,0.8048,0.0],[104.2911,0.8054,0.0],[104.2908,0.8053,0.0]]],
[[[104.2829,0.8217,1.967],[104.2799,0.8218,2.8108],[104.2776,0.815,0.0],[104.2811,0.8153,0.0],[104.2829,0.8217,1.967]]],
[[[104.3012,0.8213,5.0435],[104.2908,0.8192,0.0],[104.3004,0.8183,0.0],[104.3018,0.8197,21.9133],[104.3012,0.8213,5.0435]]],
[[[104.2942,0.8275,0.0],[104.2944,0.8272,0.0],[104.2948,0.8274,0.0],[104.2946,0.8276,0.0],[104.2942,0.8275,0.0]]],
[[[104.2565,0.5021,0.0],[104.2564,0.5024,0.0],[104.2557,0.5021,0.0],[104.256,0.5018,0.0],[104.2565,0.5021,0.0]]],
[[[104.2499,0.5059,0.0],[104.2496,0.5061,0.0],[104.2491,0.506,0.0],[104.2498,0.5055,0.0],[104.2499,0.5059,0.0]]],
[[[104.2486,0.5075,0.0],[104.2482,0.5076,0.0],[104.2481,0.5073,0.0],[104.2485,0.5071,0.0],[104.2486,0.5075,0.0]]],
[[[104.237,0.5225,0.0],[104.2375,0.5218,0.0],[104.2377,0.5218,0.0],[104.2369,0.523,0.0],[104.237,0.5225,0.0]]],
[[[104.2515,0.5375,0.0],[104.2512,0.5372,0.0],[104.2515,0.537,0.0],[104.2516,0.5374,0.0],[104.2515,0.5375,0.0]]],
[[[104.251,0.5391,0.0],[104.2504,0.5382,0.0],[104.2523,0.5396,0.0],[104.2516,0.5398,0.0],[104.251,0.5391,0.0]]],
[[[104.2482,0.5405,0.0],[104.2491,0.5396,2.1433],[104.2497,0.5396,2.1433],[104.2496,0.5413,3.3652],[104.2482,0.5405,0.0]]],
[[[104.2475,0.5429,0.5302],[104.2477,0.542,0.0],[104.2486,0.5423,0.0],[104.2483,0.5431,0.5302],[104.2475,0.5429,0.5302]]],
[[[104.236,0.5249,0.0],[104.2361,0.5244,0.0],[104.2364,0.5243,0.0],[104.2363,0.5248,0.0],[104.236,0.5249,0.0]]],
[[[104.225,0.556,2.0551],[104.2215,0.5565,0.0],[104.2219,0.5527,2.1856],[104.2201,0.5489,3.9631],[104.2198,0.5416,24.296],[104.2235,0.5381,0.0],[104.2226,0.5352,0.0],[104.2265,0.5321,0.0],[104.2285,0.5352,0.376],[104.2321,0.5357,7.8144],[104.2389,0.5308,4.942],[104.2407,0.5326,0.0],[104.2369,0.5375,3.1328],[104.2347,0.5464,0.0],[104.233,0.5479,1.8678],[104.2364,0.5492,0.0],[104.2358,0.5509,1.6252],[104.2375,0.5533,2.4661],[104.2347,0.5525,1.7885],[104.2333,0.5548,1.5034],[104.2305,0.5552,2.2332],[104.2305,0.554,2.2332],[104.2285,0.5545,3.3706],[104.229,0.5558,0.2044],[104.2273,0.555,4.5399],[104.2278,0.5564,0.2044],[104.225,0.556,2.0551]]],
[[[104.2126,0.5653,1.2365],[104.2112,0.562,2.8217],[104.2098,0.562,2.8217],[104.2093,0.5673,0.359],[104.2065,0.5669,0.0],[104.2114,0.5564,0.6765],[104.2141,0.5593,3.529],[104.2173,0.5586,0.0],[104.2205,0.56,0.0],[104.2176,0.5675,0.0],[104.2137,0.5674,0.0],[104.2126,0.5653,1.2365]]],
[[[104.2102,0.5625,1.4568],[104.2122,0.5672,0.0],[104.2096,0.5671,0.359],[104.2102,0.5647,2.2917],[104.2112,0.5655,3.5656],[104.2102,0.5625,1.4568]]],
[[[104.2294,0.5688,2.0724],[104.2296,0.5679,0.0],[104.2299,0.5679,0.0],[104.2301,0.5693,0.0],[104.2294,0.5688,2.0724]]],
[[[104.2048,0.5707,0.1419],[104.206,0.5706,0.3114],[104.2061,0.5709,0.3114],[104.2047,0.5711,0.1419],[104.2048,0.5707,0.1419]]],
[[[104.2115,0.5698,2.3336],[104.2142,0.5712,2.1195],[104.2074,0.5748,2.1046],[104.2063,0.573,0.3826],[104.2077,0.5699,1.1586],[104.2115,0.5698,2.3336]]],
[[[104.2006,0.6082,0.0],[104.1944,0.609,0.0],[104.1939,0.5998,10.293],[104.1884,0.5932,6.9134],[104.1862,0.5932,2.1398],[104.1852,0.5882,10.2484],[104.187,0.574,13.5507],[104.1917,0.5603,5.3769],[104.1904,0.5532,8.8408],[104.1929,0.5475,2.8019],[104.1947,0.5474,2.8019],[104.1948,0.545,0.0],[104.1968,0.5462,3.8853],[104.193,0.563,0.3078],[104.1928,0.5704,2.0455],[104.1943,0.5708,4.1157],[104.1946,0.5627,0.3078],[104.1983,0.561,4.3414],[104.202,0.5644,0.0],[104.2039,0.5729,1.9053],[104.2071,0.5756,10.7789],[104.2124,0.574,10.3809],[104.2144,0.5718,2.1195],[104.2228,0.5746,2.9719],[104.2283,0.5692,2.0724],[104.2299,0.5701,0.0],[104.2253,0.5793,5.4407],[104.2167,0.5908,18.3907],[104.2084,0.5953,4.7639],[104.2052,0.595,7.0417],[104.2055,0.5962,0.0],[104.2023,0.5948,2.729],[104.2006,0.6082,0.0]]],
[[[104.1014,0.5969,0.0],[104.1012,0.5972,0.0],[104.101,0.5971,0.0],[104.101,0.5966,0.0],[104.1014,0.5969,0.0]]],
[[[104.099,0.5994,0.0],[104.0989,0.5988,0.0],[104.0991,0.5986,0.0],[104.0994,0.5991,0.0],[104.099,0.5994,0.0]]],
[[[104.099,0.6021,0.0],[104.0989,0.6024,0.0],[104.0985,0.6025,0.0],[104.0984,0.6021,0.0],[104.099,0.6021,0.0]]],
[[[104.0786,0.6034,0.0],[104.0786,0.6038,0.0],[104.0779,0.6036,0.0],[104.0783,0.6031,0.0],[104.0786,0.6034,0.0]]],
[[[104.0975,0.6034,0.0],[104.0988,0.6033,0.0],[104.0991,0.6039,0.0],[104.098,0.6043,0.0],[104.0975,0.6034,0.0]]],
[[[104.1029,0.6085,0.0],[104.1013,0.609,0.0],[104.1008,0.6075,3.4949],[104.1033,0.607,0.0],[104.1029,0.6085,0.0]]],
[[[104.0874,0.6417,21.5706],[104.0838,0.6451,0.0],[104.0817,0.6416,5.6203],[104.0803,0.644,0.0],[104.0779,0.6439,0.0],[104.0795,0.6386,4.2717],[104.0826,0.6388,14.4586],[104.0821,0.6324,9.6681],[104.0851,0.6283,14.2417],[104.0854,0.6209,15.7516],[104.0815,0.6159,0.0],[104.0844,0.6097,41.2537],[104.0838,0.6028,12.0318],[104.0872,0.6039,7.1583],[104.0862,0.6084,0.0],[104.0898,0.6171,9.7338],[104.0939,0.6186,0.0],[104.0968,0.6178,4.5977],[104.0985,0.621,0.4235],[104.1042,0.6245,1.787],[104.0936,0.6304,5.5162],[104.0874,0.6417,21.5706]]],
[[[104.1058,0.6264,0.0],[104.1059,0.6254,0.0],[104.1064,0.6251,0.0],[104.1066,0.6265,0.0],[104.1058,0.6264,0.0]]],
[[[104.1062,0.6286,0.0],[104.1058,0.6286,0.0],[104.1058,0.6282,0.0],[104.1063,0.6282,0.0],[104.1062,0.6286,0.0]]],
[[[104.0746,0.6317,0.0],[104.0751,0.6309,0.0],[104.0756,0.6309,0.0],[104.0756,0.6317,0.0],[104.0746,0.6317,0.0]]],
[[[104.036,0.6328,2.2657],[104.0327,0.6333,4.2298],[104.0324,0.631,6.6757],[104.0348,0.6304,0.0],[104.036,0.6328,2.2657]]],
[[[104.0743,0.6333,0.0],[104.074,0.6336,0.0],[104.0736,0.6331,0.0],[104.0741,0.6328,0.0],[104.0743,0.6333,0.0]]],
[[[104.1966,0.543,0.0],[104.1971,0.5421,0.0],[104.1988,0.5425,0.0],[104.1974,0.5448,0.0],[104.1966,0.543,0.0]]],
[[[104.18,0.5837,7.0115],[104.1781,0.584,0.0],[104.1768,0.5827,7.4898],[104.178,0.5817,0.0],[104.18,0.5837,7.0115]]],
[[[104.1924,0.7238,0.0],[104.1921,0.7242,0.0],[104.1918,0.7241,0.0],[104.1921,0.7236,0.0],[104.1924,0.7238,0.0]]],
[[[104.1879,0.7354,0.0],[104.188,0.7358,0.0],[104.1869,0.7357,0.0],[104.1875,0.7353,0.0],[104.1879,0.7354,0.0]]],
[[[104.04,0.6331,0.6618],[104.0416,0.6329,0.0],[104.0415,0.6358,0.0],[104.0395,0.6376,0.0],[104.0366,0.633,0.0],[104.04,0.6331,0.6618]]],
[[[104.077,0.6382,3.8457],[104.0772,0.637,0.0],[104.079,0.6375,4.2717],[104.0789,0.6382,4.2717],[104.077,0.6382,3.8457]]],
[[[104.1505,0.7889,1.5435],[104.1501,0.7886,0.0],[104.1503,0.7882,0.0],[104.1509,0.7886,0.0],[104.1505,0.7889,1.5435]]],
[[[104.1498,0.7898,1.5435],[104.1511,0.7918,13.839],[104.1477,0.8014,0.0],[104.1479,0.8129,0.0],[104.1419,0.8199,1.3496],[104.1433,0.8063,0.0],[104.1498,0.7898,1.5435]]],
[[[104.1813,0.7373,7.0907],[104.1838,0.738,0.0],[104.184,0.7384,0.0],[104.1822,0.7391,0.5002],[104.1813,0.7373,7.0907]]],
[[[104.181,0.7403,0.5002],[104.1803,0.74,0.0],[104.1805,0.7391,0.5002],[104.1814,0.7397,0.5002],[104.181,0.7403,0.5002]]],
[[[104.1801,0.7416,0.0],[104.181,0.7423,0.0],[104.1799,0.743,2.7208],[104.1788,0.7421,2.7208],[104.1801,0.7416,0.0]]],
[[[104.1848,0.777,1.0431],[104.1862,0.7782,1.7746],[104.1843,0.7789,0.0],[104.1839,0.778,2.357],[104.1848,0.777,1.0431]]],
[[[104.1794,0.7802,0.0],[104.1804,0.7794,0.0],[104.1812,0.7798,0.0],[104.1789,0.7819,4.2766],[104.1794,0.7802,0.0]]],
[[[104.187,0.7855,0.0],[104.1871,0.7843,4.5746],[104.1889,0.7833,5.0337],[104.189,0.7846,0.7278],[104.187,0.7855,0.0]]],
[[[104.1981,0.7851,1.9191],[104.1983,0.7906,0.7951],[104.1943,0.7875,0.2831],[104.1973,0.7866,0.5448],[104.1975,0.7842,1.9191],[104.1981,0.7851,1.9191]]],
[[[104.238,0.867,9.3471],[104.2395,0.8676,0.8142],[104.2391,0.8692,0.4599],[104.2349,0.8752,0.0],[104.2288,0.8755,0.0],[104.2242,0.88,0.0],[104.2199,0.8787,14.3597],[104.2092,0.8818,0.0],[104.2011,0.8805,0.0],[104.1961,0.8772,0.0],[104.1957,0.8748,2.2843],[104.1922,0.8753,2.7622],[104.1885,0.873,0.0],[104.1813,0.8781,1.9522],[104.1734,0.8749,2.6786],[104.167,0.8671,0.0],[104.1655,0.87,2.6313],[104.1672,0.876,0.7681],[104.1652,0.8792,0.0],[104.1689,0.8851,0.0],[104.17,0.8911,3.2874],[104.1683,0.8929,0.2998],[104.1657,0.8926,1.5967],[104.1706,0.8989,0.0],[104.1673,0.8998,1.8427],[104.1653,0.905,0.5534],[104.1621,0.9021,2.5698],[104.1629,0.8993,6.8717],[104.1572,0.902,3.0499],[104.1552,0.8982,1.52],[104.1532,0.8984,2.0804],[104.1509,0.9073,0.2498],[104.1514,0.9086,0.2498],[104.1559,0.9069,0.0],[104.1572,0.908,0.0],[104.1557,0.9124,1.0734],[104.1563,0.9222,0.0],[104.1545,0.9272,0.0],[104.1481,0.9279,0.9179],[104.1463,0.9319,0.0],[104.1434,0.9337,3.2067],[104.1436,0.9379,0.0],[104.141,0.9401,2.8218],[104.1405,0.9429,1.8039],[104.1387,0.9414,1.9031],[104.1324,0.9417,2.6958],[104.1316,0.9374,1.8946],[104.1256,0.9357,1.4293],[104.1245,0.9375,1.6058],[104.1251,0.94,0.403],[104.1266,0.9402,0.403],[104.1263,0.9523,0.6383],[104.121,0.951,1.9575],[104.119,0.955,0.0],[104.1175,0.955,3.522],[104.1199,0.959,0.0],[104.1196,0.9622,0.0],[104.1156,0.958,4.2966],[104.1115,0.9572,4.1326],[104.1111,0.9535,3.0467],[104.1054,0.9609,2.5036],[104.099,0.96,5.5179],[104.0942,0.9544,32.6335],[104.0896,0.9528,8.821],[104.0848,0.957,3.2782],[104.0778,0.9598,4.056],[104.0841,0.9516,3.1256],[104.0838,0.948,1.7843],[104.0782,0.9447,9.6221],[104.0786,0.9426,4.3288],[104.083,0.9372,0.7661],[104.0876,0.9359,0.7509],[104.0949,0.9266,1.1036],[104.0913,0.9115,0.0],[104.0908,0.8983,0.0],[104.0928,0.8951,7.6426],[104.0941,0.8797,10.7282],[104.0923,0.8702,0.0],[104.0976,0.8713,5.5604],[104.1004,0.8798,1.304],[104.1162,0.8772,1.9512],[104.1187,0.8756,0.0],[104.1184,0.866,0.0],[104.1212,0.8645,6.1077],[104.1211,0.8618,0.0],[104.1253,0.8655,1.429],[104.1317,0.8659,1.8257],[104.1396,0.8628,3.1061],[104.1391,0.8605,0.7795],[104.1463,0.8557,5.0184],[104.1481,0.8528,15.1609],[104.1495,0.8397,0.0],[104.1576,0.8243,1.625],[104.1571,0.8192,1.6183],[104.1544,0.8162,0.6685],[104.1608,0.8136,1.283],[104.1648,0.7915,14.9623],[104.1687,0.7865,2.9649],[104.1742,0.7857,3.84],[104.1777,0.7825,0.7981],[104.181,0.783,0.0],[104.1847,0.7888,8.8048],[104.1896,0.7897,0.0],[104.2002,0.7976,0.0],[104.1997,0.8028,0.0],[104.2023,0.8079,1.9455],[104.2032,0.8056,1.1392],[104.2114,0.8058,2.1781],[104.213,0.8034,0.0],[104.2155,0.8036,0.0],[104.2312,0.8128,1.9035],[104.2314,0.8179,3.3458],[104.2341,0.8163,0.0],[104.2362,0.8182,0.0],[104.2453,0.8204,0.0],[104.2452,0.8297,0.0],[104.2431,0.832,1.7984],[104.2604,0.8403,0.0],[104.2596,0.8436,0.0],[104.2661,0.859,0.6835],[104.2561,0.8664,1.8184],[104.2365,0.86,2.6846],[104.2358,0.8611,2.383],[104.2389,0.8648,0.0],[104.238,0.867,9.3471]]],
[[[104.1422,0.8357,0.0],[104.142,0.835,0.0],[104.143,0.8354,0.0],[104.143,0.836,0.0],[104.1422,0.8357,0.0]]],
[[[104.1574,0.9301,0.5121],[104.1564,0.9302,0.5121],[104.1561,0.9297,0.5121],[104.1572,0.9296,0.5121],[104.1574,0.9301,0.5121]]],
[[[104.1481,0.934,1.5833],[104.1493,0.9311,0.4386],[104.1534,0.9312,0.6967],[104.1502,0.9344,0.5325],[104.1481,0.934,1.5833]]],
[[[104.1482,0.9348,1.5833],[104.1476,0.9376,0.0],[104.1464,0.9376,1.2607],[104.1468,0.9356,1.2108],[104.1482,0.9348,1.5833]]],
[[[104.206,0.7945,4.5848],[104.2013,0.7959,3.0413],[104.1991,0.7913,16.0262],[104.199,0.7867,3.6295],[104.2022,0.7807,1.3949],[104.2051,0.783,9.7722],[104.2096,0.7821,2.5614],[104.2126,0.7832,1.0997],[104.2096,0.7893,0.0],[104.2103,0.7932,0.0],[104.206,0.7945,4.5848]]],
[[[104.2181,0.79,0.6349],[104.2143,0.7912,1.4887],[104.212,0.7901,0.7114],[104.2167,0.7865,0.0],[104.2198,0.7907,0.0],[104.2181,0.79,0.6349]]],
[[[104.2192,0.7982,2.0112],[104.2126,0.7973,0.0],[104.2148,0.7947,0.0],[104.2224,0.7935,0.0],[104.2229,0.7975,0.8973],[104.2192,0.7982,2.0112]]],
[[[104.212,0.7967,0.528],[104.2099,0.7979,1.7944],[104.2089,0.7965,3.0265],[104.2117,0.7955,0.528],[104.212,0.7967,0.528]]],
[[[104.204,0.7981,1.4564],[104.2055,0.7986,0.0],[104.2052,0.8015,0.0],[104.203,0.8025,0.0],[104.2018,0.7987,0.0],[104.204,0.7981,1.4564]]],
[[[104.2277,0.8065,0.0],[104.2331,0.8067,0.0],[104.2352,0.8086,0.5756],[104.2313,0.8103,3.0681],[104.2273,0.8084,1.4758],[104.2277,0.8065,0.0]]],
[[[104.21,0.9363,0.0],[104.21,0.9357,0.0],[104.2103,0.9356,0.0],[104.2105,0.9362,0.0],[104.21,0.9363,0.0]]],
[[[104.2416,0.8706,0.0],[104.2413,0.8701,0.0],[104.2414,0.8697,0.0],[104.2423,0.871,0.0],[104.2416,0.8706,0.0]]],
[[[104.2025,0.9414,0.0],[104.2056,0.9427,3.2736],[104.2053,0.9475,0.9173],[104.2029,0.946,0.0],[104.2025,0.9414,0.0]]],
[[[104.1834,0.8775,2.3697],[104.1853,0.8771,0.6489],[104.1874,0.8814,0.3711],[104.1851,0.885,0.3283],[104.1805,0.8808,2.9556],[104.1834,0.8775,2.3697]]],
[[[104.1882,0.894,0.0],[104.1882,0.8976,0.0],[104.1855,0.8991,0.0],[104.1841,0.8954,0.0],[104.1868,0.8929,0.0],[104.1882,0.894,0.0]]],
[[[104.2129,0.9209,14.7111],[104.2096,0.9241,0.0],[104.2043,0.9225,0.3265],[104.2022,0.9163,6.4972],[104.199,0.917,12.631],[104.1975,0.912,10.9819],[104.1949,0.912,4.3675],[104.1952,0.9066,3.0172],[104.1929,0.9047,4.7379],[104.1933,0.9022,3.2998],[104.1987,0.9017,0.0],[104.207,0.9047,1.2733],[104.2097,0.9081,0.0],[104.2077,0.9108,0.0],[104.2098,0.9134,1.3657],[104.2116,0.9125,2.9958],[104.2139,0.9159,5.2986],[104.2129,0.9209,14.7111]]],
[[[104.1858,0.9319,1.8309],[104.1835,0.9315,1.3128],[104.1827,0.937,0.3829],[104.1724,0.9384,1.7994],[104.1704,0.9373,1.0171],[104.1581,0.9254,1.9618],[104.1586,0.9149,0.6706],[104.1614,0.9106,0.0],[104.1662,0.9144,1.2078],[104.1756,0.9131,0.0],[104.1791,0.9168,0.5254],[104.1884,0.9192,4.5167],[104.1882,0.9224,2.4974],[104.1915,0.9292,0.0],[104.1899,0.9316,0.8539],[104.1858,0.9319,1.8309]]],
[[[104.1861,0.937,1.5903],[104.1856,0.9349,0.3957],[104.189,0.9373,0.0],[104.1884,0.9381,0.9398],[104.1861,0.937,1.5903]]],
[[[104.1725,0.9585,0.0],[104.1715,0.9602,2.9735],[104.1679,0.9609,1.3058],[104.1569,0.9572,3.272],[104.1492,0.9579,0.9016],[104.1458,0.9552,3.4982],[104.1421,0.9546,2.104],[104.1442,0.9496,0.4949],[104.1465,0.949,3.3398],[104.1481,0.9419,0.6809],[104.1499,0.9399,8.3892],[104.1492,0.9378,0.0],[104.1518,0.9343,0.8311],[104.1581,0.9336,0.0],[104.1605,0.935,0.5367],[104.1597,0.9398,3.5462],[104.1602,0.9441,3.3764],[104.1588,0.9453,2.5965],[104.1605,0.9446,3.3764],[104.16,0.9397,1.8026],[104.1618,0.938,0.4228],[104.1648,0.9387,0.0],[104.1674,0.9428,1.5739],[104.1745,0.9437,0.5898],[104.1789,0.9422,2.8121],[104.1813,0.9438,3.1214],[104.1831,0.9417,0.0],[104.1869,0.9454,0.0],[104.1935,0.9433,0.0],[104.1979,0.9472,0.0],[104.1882,0.9523,0.0],[104.1739,0.9563,1.6128],[104.1725,0.9585,0.0]]],
[[[104.159,0.9712,9.282],[104.1551,0.9701,21.8362],[104.1457,0.9747,1.9296],[104.1428,0.974,0.0],[104.1461,0.9702,3.9167],[104.1453,0.9636,0.0],[104.1479,0.9629,3.0371],[104.1491,0.9595,0.7016],[104.1537,0.9576,2.8178],[104.1656,0.9605,2.6092],[104.1695,0.965,2.293],[104.1739,0.9673,1.4863],[104.1746,0.9696,0.0],[104.1715,0.9732,11.1609],[104.159,0.9712,9.282]]],
[[[104.1423,0.9566,0.0],[104.1412,0.9566,0.0],[104.1412,0.9559,0.0],[104.1422,0.9554,2.104],[104.1423,0.9566,0.0]]],
[[[104.1756,0.9727,2.7911],[104.1772,0.9722,0.4553],[104.1787,0.9758,0.0],[104.1744,0.9757,0.9329],[104.1756,0.9727,2.7911]]]]}}