{"type":"Feature","properties":{"GID_3":"IDN.35.8.5","GID_0":"IDN","country":"Indonesia","GID_1":"IDN.35_1","province":"KalimantanUtara","NL_NAME_1":"NA","GID_2":"IDN.35.8","county":"Malinau","NL_NAME_2":"NA","city":"MalinauBarat","VARNAME_3":"NA","NL_NAME_3":"NA","TYPE_3":"NA","ENGTYPE_3":"NA","CC_3":"NA","HASC_3":"NA","name":"Malinau_Barat.city"},
"geometry":{"type": "MultiPolygon","coordinates": [[[[116.7635,3.3685,150.1889],[116.7586,3.3737,126.1976],[116.7518,3.3775,121.2314],[116.739,3.3904,85.7934],[116.7359,3.3949,166.2753],[116.7375,3.4064,188.82],[116.7354,3.4089,120.055],[116.7272,3.4107,107.932],[116.7172,3.4166,150.0574],[116.7033,3.43,136.2433],[116.7078,3.4413,60.5619],[116.7071,3.4516,39.3814],[116.6936,3.4698,77.7977],[116.6864,3.4919,51.9718],[116.6727,3.5196,82.8265],[116.6705,3.5212,85.1611],[116.6422,3.5217,27.9641],[116.6256,3.526,39.3013],[116.6233,3.5289,29.5652],[116.6226,3.54,24.5756],[116.6204,3.5478,11.0695],[116.6186,3.5482,13.8367],[116.6165,3.5448,17.1519],[116.6,3.5461,19.914],[116.5956,3.5504,11.6876],[116.5915,3.5576,13.4269],[116.5847,3.5571,25.5057],[116.5814,3.5543,36.7668],[116.5754,3.5537,34.9416],[116.5708,3.5495,25.5696],[116.5686,3.556,25.9366],[116.5627,3.5567,13.6886],[116.564,3.56,20.7266],[116.5424,3.5773,20.4053],[116.5391,3.5289,30.5157],[116.5414,3.5235,5.0],[116.5486,3.5185,39.5167],[116.5549,3.5113,52.3187],[116.5545,3.5068,97.049],[116.5501,3.5,28.9747],[116.5514,3.4948,44.0947],[116.5534,3.4932,41.0909],[116.5598,3.4932,23.7542],[116.5629,3.4899,51.5235],[116.5565,3.4844,37.3545],[116.5549,3.478,32.2406],[116.5528,3.4756,23.5378],[116.5495,3.4745,39.2178],[116.5324,3.48,47.7976],[116.5241,3.4885,107.2273],[116.5116,3.509,37.3335],[116.4945,3.5209,21.4289],[116.4906,3.5211,50.3426],[116.4753,3.5168,116.5977],[116.4512,3.5069,242.0247],[116.4317,3.5037,237.6382],[116.4202,3.4981,260.9289],[116.4159,3.4921,305.8447],[116.4067,3.4644,222.4104],[116.4094,3.456,212.552],[116.4214,3.4443,212.037],[116.4273,3.4407,166.4992],[116.4422,3.4376,116.2088],[116.4519,3.4337,110.5466],[116.4593,3.4337,158.0041],[116.469,3.4449,122.0844],[116.4767,3.4451,25.0011],[116.48,3.4469,23.1863],[116.4853,3.457,58.0733],[116.4861,3.468,55.1813],[116.4997,3.4718,23.3474],[116.5121,3.4707,32.9233],[116.5223,3.4651,92.082],[116.5243,3.4609,58.1861],[116.5301,3.4553,241.1934],[116.531,3.4483,44.2141],[116.5369,3.4438,36.9269],[116.5425,3.4427,32.0279],[116.55,3.444,34.2671],[116.5543,3.4355,59.7773],[116.5541,3.4299,42.0417],[116.5522,3.4272,42.3624],[116.5549,3.4161,53.0072],[116.5523,3.4032,63.3091],[116.553,3.3864,39.2102],[116.5603,3.3821,57.0982],[116.5671,3.3803,53.9528],[116.5718,3.3817,51.4461],[116.5765,3.378,47.8784],[116.5791,3.3703,62.8754],[116.5871,3.3698,87.4621],[116.5863,3.3557,67.8733],[116.5802,3.3467,76.0304],[116.581,3.3188,268.788],[116.5785,3.3026,322.7942],[116.5788,3.2988,285.3927],[116.5812,3.2956,284.6851],[116.5891,3.2927,96.7912],[116.5925,3.2879,130.7035],[116.5962,3.2685,234.9702],[116.5962,3.2524,198.5112],[116.6136,3.2446,144.6975],[116.6276,3.2426,261.9917],[116.6424,3.2358,147.8656],[116.6444,3.2312,152.927],[116.6758,3.2161,346.1659],[116.6799,3.2116,360.5662],[116.6796,3.207,224.2075],[116.7012,3.1881,228.1938],[116.7063,3.1802,323.0133],[116.7127,3.1561,226.5422],[116.7178,3.1479,291.7063],[116.7255,3.1445,329.6965],[116.7374,3.1346,671.2729],[116.7417,3.1507,650.5449],[116.7442,3.153,753.7213],[116.742,3.1702,580.1635],[116.7449,3.1709,533.6617],[116.7576,3.1681,475.7515],[116.7687,3.1691,414.1696],[116.7761,3.1765,429.0752],[116.7861,3.1797,313.1203],[116.795,3.1918,216.9252],[116.8054,3.2004,164.9915],[116.8053,3.2148,141.1721],[116.8078,3.2236,133.3866],[116.808,3.2314,137.7991],[116.8036,3.2363,115.5866],[116.8015,3.2571,277.2803],[116.8053,3.2733,145.4539],[116.806,3.2847,140.9723],[116.8015,3.2949,286.1101],[116.7915,3.305,278.4832],[116.791,3.3105,188.5267],[116.7865,3.3222,209.618],[116.7758,3.3409,208.0166],[116.7733,3.3478,211.7216],[116.7733,3.352,191.2652],[116.7752,3.3556,179.6256],[116.7743,3.3586,252.8167],[116.7704,3.359,144.2579],[116.7635,3.3685,150.1889]]]]}}