{"type":"Feature","properties":{"GID_3":"IDN.19.11.1_1","GID_0":"IDN","country":"Indonesia","GID_1":"IDN.19_1","province":"Maluku","NL_NAME_1":"NA","GID_2":"IDN.19.11_1","county":"Tual","NL_NAME_2":"NA","city":"Pp.Kur","VARNAME_3":"NA","NL_NAME_3":"NA","TYPE_3":"Kecamatan","ENGTYPE_3":"Sub-district","CC_3":"8172010","HASC_3":"NA","name":"Pp.Kur.city"},
"geometry":{"type": "MultiPolygon","coordinates": [[[[131.9182,-5.6541,0.0],[131.9212,-5.6545,0.0],[131.9262,-5.6448,0.0],[131.9232,-5.6371,0.0],[131.9229,-5.6311,0.0],[131.9189,-5.6273,0.0],[131.9138,-5.6319,0.0],[131.9117,-5.6388,0.0],[131.9182,-5.6541,0.0]]],
[[[131.9197,-5.5702,0.0],[131.9176,-5.5772,0.0],[131.9231,-5.5825,0.0],[131.9282,-5.5796,7.522],[131.9297,-5.5749,8.0938],[131.9277,-5.569,0.0],[131.9237,-5.5682,0.0],[131.9197,-5.5702,0.0]]],
[[[131.9879,-5.3783,0.0],[131.9915,-5.379,0.0],[132.0101,-5.3708,0.0],[132.0101,-5.365,9.0081],[132.0126,-5.357,0.0],[132.0208,-5.3418,11.0143],[132.0234,-5.3239,34.6747],[132.0218,-5.3131,0.0],[132.0184,-5.3107,0.0],[132.0154,-5.3054,6.0059],[132.0126,-5.305,43.4449],[131.9976,-5.3133,18.7139],[131.991,-5.3123,9.0866],[131.9904,-5.3107,0.0],[131.981,-5.3246,18.7872],[131.978,-5.3259,0.0],[131.9695,-5.3374,0.0],[131.9604,-5.3729,0.0],[131.9726,-5.3893,0.0],[131.9769,-5.3885,0.0],[131.9835,-5.3806,0.0],[131.9879,-5.3783,0.0]]],
[[[132.0132,-5.5978,0.0],[132.0122,-5.6003,0.0],[132.0107,-5.5993,0.0],[132.0127,-5.5853,0.0],[132.0091,-5.5702,0.0],[132.0073,-5.5656,0.0],[132.0038,-5.5636,0.0],[131.9936,-5.5821,0.0],[131.9923,-5.5894,0.0],[131.9903,-5.5897,0.0],[131.9966,-5.6001,0.0],[132.0,-5.6014,0.0],[132.0089,-5.6023,0.0],[132.014,-5.6001,0.0],[132.0139,-5.5981,0.0],[132.0114,-5.5951,0.0],[132.0132,-5.5978,0.0]]],
[[[132.0253,-5.1792,0.0],[132.0267,-5.1771,0.0],[132.0266,-5.1663,0.0],[132.0239,-5.1583,0.0],[132.016,-5.172,80.4313],[132.0129,-5.1731,37.4986],[132.012,-5.1763,35.6063],[132.0142,-5.1836,0.0],[132.0224,-5.1879,0.0],[132.0249,-5.1867,0.0],[132.0253,-5.1792,0.0]]],
[[[132.0232,-5.1561,0.0],[132.0248,-5.1467,0.0],[132.0237,-5.1463,0.0],[132.022,-5.1496,0.0],[132.0232,-5.1561,0.0]]],
[[[132.0245,-5.134,0.0],[132.0244,-5.1316,0.0],[132.0129,-5.1302,0.0],[132.0113,-5.1319,0.0],[132.0112,-5.1337,0.0],[132.0156,-5.1364,1.0773],[132.0245,-5.134,0.0]]]]}}