{"type":"Feature","properties":{"GID_3":"IDN.32.9.8_1","GID_0":"IDN","country":"Indonesia","GID_1":"IDN.32_1","province":"SumateraUtara","NL_NAME_1":"NA","GID_2":"IDN.32.9_1","county":"KotaMedan","NL_NAME_2":"NA","city":"MedanJohor","VARNAME_3":"NA","NL_NAME_3":"NA","TYPE_3":"Kecamatan","ENGTYPE_3":"Sub-district","CC_3":"1275020","HASC_3":"NA","name":"Medan_Johor.city"},
"geometry":{"type": "MultiPolygon","coordinates": [[[[98.6783,3.5189,39.1981],[98.6924,3.5185,42.0265],[98.6932,3.5227,40.2481],[98.692,3.5245,40.8273],[98.6942,3.5289,37.583],[98.6932,3.5322,38.2367],[98.6946,3.5349,36.3449],[98.6933,3.5369,36.6403],[98.6945,3.5384,37.3874],[98.6932,3.5396,34.3196],[98.6935,3.5468,35.7177],[98.6886,3.5472,35.9891],[98.6676,3.5424,37.1145],[98.6518,3.5416,39.4984],[98.6426,3.5346,42.0456],[98.6461,3.5293,41.6563],[98.6478,3.5297,39.2409],[98.6481,3.5319,38.5047],[98.6493,3.5301,39.8122],[98.6492,3.5179,45.8981],[98.6477,3.5155,46.5804],[98.6443,3.5148,45.5996],[98.6426,3.5108,51.7889],[98.6435,3.5088,48.7457],[98.6594,3.508,42.8984],[98.6587,3.5098,41.4896],[98.6578,3.5083,42.8984],[98.6555,3.5109,44.9485],[98.6543,3.5173,46.4069],[98.6567,3.5191,41.9255],[98.6556,3.5196,41.9255],[98.6576,3.5225,40.1293],[98.6623,3.5224,46.114],[98.6617,3.5196,47.9242],[98.6557,3.5196,41.9255],[98.6617,3.5191,47.9242],[98.6617,3.5149,49.6981],[98.6771,3.5146,38.9805],[98.6749,3.5158,42.4289],[98.6783,3.5189,39.1981]]]]}}