{"type":"Feature","properties":{"GID_3":"IDN.5.5.15_1","GID_0":"IDN","country":"Indonesia","GID_1":"IDN.5_1","province":"Bengkulu","NL_NAME_1":"NA","GID_2":"IDN.5.5_1","county":"Kaur","NL_NAME_2":"NA","city":"Tetap","VARNAME_3":"NA","NL_NAME_3":"NA","TYPE_3":"Kecamatan","ENGTYPE_3":"Sub-district","CC_3":"1704031","HASC_3":"NA","name":"Tetap.city"},
"geometry":{"type": "MultiPolygon","coordinates": [[[[103.3299,-4.7745,16.6977],[103.3484,-4.7735,34.7193],[103.3599,-4.7683,60.4134],[103.3638,-4.7644,129.914],[103.3645,-4.756,141.1223],[103.3757,-4.7539,165.457],[103.3813,-4.7511,171.6872],[103.3841,-4.7455,178.8601],[103.3807,-4.7248,77.8261],[103.3908,-4.715,137.1211],[103.3933,-4.7052,159.5689],[103.3986,-4.7028,213.1423],[103.4035,-4.6937,293.0548],[103.4094,-4.6891,389.6931],[103.4178,-4.6776,355.7491],[103.4294,-4.6667,460.0619],[103.4368,-4.6643,475.1448],[103.4469,-4.645,500.9132],[103.4522,-4.6397,595.1622],[103.4589,-4.6268,753.9995],[103.4645,-4.6222,861.3773],[103.469,-4.6117,927.3319],[103.456,-4.6184,707.8929],[103.4414,-4.6225,713.2932],[103.4301,-4.6294,652.4366],[103.4178,-4.6428,565.8181],[103.4151,-4.6549,437.7812],[103.4083,-4.658,415.0754],[103.3939,-4.669,377.812],[103.3741,-4.6794,324.6733],[103.3658,-4.6806,229.1927],[103.3595,-4.6883,136.3353],[103.3566,-4.6972,91.2186],[103.3463,-4.7069,187.6097],[103.331,-4.717,94.8422],[103.3152,-4.7368,49.3512],[103.3113,-4.739,31.2702],[103.3013,-4.7385,14.5948],[103.2992,-4.7398,10.5881],[103.2982,-4.7433,4.6731],[103.3112,-4.7504,0.0],[103.3179,-4.7585,0.0],[103.321,-4.7688,10.3776],[103.318,-4.7731,0.0],[103.3299,-4.7745,16.6977]]]]}}