{"type":"Feature","properties":{"GID_3":"IDN.30.11.4_1","GID_0":"IDN","country":"Indonesia","GID_1":"IDN.30_1","province":"SumateraBarat","NL_NAME_1":"NA","GID_2":"IDN.30.11_1","county":"Pariaman","NL_NAME_2":"NA","city":"PariamanUtara","VARNAME_3":"NA","NL_NAME_3":"NA","TYPE_3":"Kecamatan","ENGTYPE_3":"Sub-district","CC_3":"1377030","HASC_3":"NA","name":"Pariaman_Utara.city"},
"geometry":{"type": "MultiPolygon","coordinates": [[[[100.1138,-0.6103,3.0807],[100.1192,-0.6084,7.592],[100.1171,-0.5993,5.3286],[100.1184,-0.6003,6.1458],[100.1239,-0.5959,10.0892],[100.1232,-0.593,7.8584],[100.1256,-0.5917,25.1707],[100.1331,-0.5808,47.7788],[100.1476,-0.5845,54.7794],[100.15,-0.5817,57.2449],[100.1491,-0.5793,38.0352],[100.1511,-0.5733,31.8814],[100.1496,-0.5707,58.877],[100.1445,-0.5727,49.862],[100.14,-0.5722,60.2959],[100.1382,-0.5701,44.4533],[100.1353,-0.5724,31.3887],[100.1312,-0.5713,16.8502],[100.1321,-0.5628,30.4981],[100.1359,-0.5604,30.9053],[100.134,-0.5518,55.8129],[100.1299,-0.5484,49.646],[100.1244,-0.5538,66.3165],[100.1222,-0.5533,56.6039],[100.1204,-0.5554,42.1174],[100.1099,-0.5578,19.1699],[100.1064,-0.5615,43.2341],[100.1034,-0.562,23.4827],[100.1012,-0.5596,3.9217],[100.0978,-0.5625,1.8501],[100.0945,-0.5608,6.2871],[100.0904,-0.5638,0.7101],[100.0904,-0.567,0.0],[100.0969,-0.5813,0.865],[100.1028,-0.5892,6.3345],[100.1138,-0.6103,3.0807]]],
[[[100.0748,-0.5964,0.0],[100.0759,-0.5966,0.0],[100.0758,-0.5956,0.0],[100.0749,-0.5954,0.0],[100.0748,-0.5964,0.0]]]]}}