{"type":"Feature","properties":{"GID_3":"IDN.29.7.19_1","GID_0":"IDN","country":"Indonesia","GID_1":"IDN.29_1","province":"SulawesiUtara","NL_NAME_1":"NA","GID_2":"IDN.29.7_1","county":"KepulauanTalaud","NL_NAME_2":"NA","city":"TampaNa'Mma","VARNAME_3":"NA","NL_NAME_3":"NA","TYPE_3":"Kecamatan","ENGTYPE_3":"Sub-district","CC_3":"7104051","HASC_3":"NA","name":"Tampa_Na'Mma.city"},
"geometry":{"type": "MultiPolygon","coordinates": [[[[126.806,4.3166,361.7137],[126.8174,4.2948,243.3351],[126.8195,4.2935,255.1395],[126.8979,4.3037,23.3811],[126.8965,4.3063,0.0],[126.8941,4.3048,29.9951],[126.8922,4.3068,4.6987],[126.8931,4.3084,8.6436],[126.8915,4.3126,12.5119],[126.8876,4.313,9.7978],[126.8846,4.3178,5.5618],[126.8861,4.3218,0.0],[126.8768,4.3299,0.5068],[126.8669,4.3422,9.0931],[126.866,4.344,15.4261],[126.8671,4.346,0.0],[126.8647,4.346,3.9047],[126.8608,4.3521,3.8709],[126.8613,4.3536,0.0],[126.8557,4.3607,2.4916],[126.8504,4.3754,23.9996],[126.8494,4.3901,2.8407],[126.8522,4.3908,0.0],[126.8525,4.3947,5.7929],[126.8538,4.3953,0.0],[126.8518,4.3989,0.0],[126.8515,4.4113,0.0],[126.8569,4.4191,1.0491],[126.8663,4.4234,0.0],[126.8695,4.4275,0.0],[126.867,4.4436,14.18],[126.826,4.4211,80.537],[126.7657,4.3958,416.8557],[126.7768,4.3751,209.1845],[126.7825,4.3589,273.5396],[126.7916,4.3463,383.0823],[126.806,4.3166,361.7137]]]]}}