{"type":"Feature","properties":{"GID_3":"IDN.11.21.16_1","GID_0":"IDN","country":"Indonesia","GID_1":"IDN.11_1","province":"JawaTimur","NL_NAME_1":"NA","GID_2":"IDN.11.21_1","county":"Magetan","NL_NAME_2":"NA","city":"Sidorejo","VARNAME_3":"NA","NL_NAME_3":"NA","TYPE_3":"Kecamatan","ENGTYPE_3":"Sub-district","CC_3":"3520071","HASC_3":"NA","name":"Sidorejo.city"},
"geometry":{"type": "MultiPolygon","coordinates": [[[[111.3039,-7.6635,446.9173],[111.3033,-7.6609,455.0708],[111.306,-7.6604,450.8926],[111.3086,-7.6526,447.9664],[111.3038,-7.6533,476.6795],[111.3057,-7.6462,474.2781],[111.3044,-7.6447,474.2781],[111.3005,-7.6433,491.671],[111.2965,-7.6443,507.5989],[111.2959,-7.6396,495.3651],[111.2933,-7.6392,488.7408],[111.294,-7.6377,492.3291],[111.2976,-7.6371,468.5546],[111.2977,-7.635,477.3477],[111.2946,-7.6334,480.7733],[111.2894,-7.6327,501.4183],[111.2839,-7.6349,526.3789],[111.2783,-7.6352,544.5338],[111.2776,-7.6361,562.7014],[111.2811,-7.6378,531.0981],[111.28,-7.639,524.0058],[111.2745,-7.6371,619.6001],[111.2678,-7.6371,682.6564],[111.2663,-7.6354,707.7165],[111.2641,-7.6377,726.9729],[111.2555,-7.6358,855.0864],[111.2483,-7.6384,1070.5146],[111.2417,-7.6372,1195.8384],[111.2333,-7.6383,1484.7268],[111.2207,-7.6372,1952.4209],[111.2066,-7.6299,2665.3599],[111.1951,-7.628,3204.9619],[111.1995,-7.6324,2968.9155],[111.2026,-7.6398,2560.9043],[111.2056,-7.6422,2339.9788],[111.2057,-7.6446,2267.3628],[111.2132,-7.6519,1964.0516],[111.2222,-7.6533,1593.1677],[111.2283,-7.6567,1458.3329],[111.2464,-7.6564,1014.7794],[111.2528,-7.6587,887.3109],[111.2497,-7.661,929.8569],[111.2419,-7.6601,1069.6187],[111.2452,-7.6615,1014.269],[111.2449,-7.6647,972.5343],[111.2411,-7.662,1041.4893],[111.2401,-7.6648,1133.9487],[111.2435,-7.6647,997.3829],[111.2448,-7.6662,972.5343],[111.2503,-7.6646,882.2256],[111.2585,-7.6673,765.6053],[111.2599,-7.6719,791.6918],[111.2616,-7.6701,748.1425],[111.2627,-7.6629,738.2838],[111.2617,-7.6609,745.8293],[111.2648,-7.6619,723.2892],[111.2651,-7.664,707.8962],[111.2677,-7.6657,675.2061],[111.2757,-7.66,625.7203],[111.2714,-7.6654,670.3264],[111.2729,-7.6644,652.2134],[111.2729,-7.6684,683.0839],[111.2747,-7.6675,662.9545],[111.2779,-7.6713,615.9606],[111.2773,-7.674,605.2296],[111.2805,-7.6741,586.3326],[111.2768,-7.6766,644.8005],[111.2937,-7.6727,514.416],[111.2979,-7.6679,488.715],[111.3017,-7.6688,479.4888],[111.3029,-7.6668,468.0367],[111.3049,-7.6667,459.5213],[111.3039,-7.6635,446.9173]],
[[111.255,-7.6647,802.2327],[111.2529,-7.6641,856.7861],[111.2534,-7.663,826.7692],[111.2553,-7.6636,796.3118],[111.255,-7.6647,802.2327]]]]}}