{"type":"Feature","properties":{"GID_3":"IDN.26.22.18_1","GID_0":"IDN","country":"Indonesia","GID_1":"IDN.26_1","province":"SulawesiSelatan","NL_NAME_1":"NA","GID_2":"IDN.26.22_1","county":"TanaToraja","NL_NAME_2":"NA","city":"Sangalla","VARNAME_3":"NA","NL_NAME_3":"NA","TYPE_3":"Kecamatan","ENGTYPE_3":"Sub-district","CC_3":"7318030","HASC_3":"NA","name":"Sangalla.city"},
"geometry":{"type": "MultiPolygon","coordinates": [[[[119.9071,-3.1122,1084.9098],[119.9108,-3.1132,944.6071],[119.9162,-3.1061,941.2704],[119.9171,-3.0994,996.9008],[119.9229,-3.0942,930.3429],[119.9282,-3.0932,797.6622],[119.924,-3.0875,775.3813],[119.9222,-3.0796,768.3217],[119.9149,-3.0764,766.0396],[119.9077,-3.0774,766.8302],[119.8892,-3.0722,826.5938],[119.8873,-3.0753,775.2662],[119.8815,-3.0753,963.6035],[119.8839,-3.0828,822.2133],[119.8869,-3.0858,954.2746],[119.8846,-3.0917,854.0911],[119.8863,-3.0934,871.2836],[119.887,-3.0987,877.183],[119.89,-3.1022,821.1814],[119.8868,-3.1102,879.6092],[119.8956,-3.1095,856.1459],[119.9071,-3.1122,1084.9098]]]]}}