{"type":"Feature","properties":{"GID_3":"IDN.34.6.12_1","GID_0":"IDN","country":"Indonesia","GID_1":"IDN.34_1","province":"KalimantanTimur","NL_NAME_1":"NA","GID_2":"IDN.34.6_1","county":"KutaiKartanegara","NL_NAME_2":"NA","city":"MuaraWis","VARNAME_3":"NA","NL_NAME_3":"NA","TYPE_3":"Kecamatan","ENGTYPE_3":"Sub-district","CC_3":"6403070","HASC_3":"NA","name":"Muara_Wis.city"},
"geometry":{"type": "MultiPolygon","coordinates": [[[[116.6184,-0.4934,157.5228],[116.6086,-0.4876,173.956],[116.5839,-0.4925,164.3154],[116.5807,-0.4918,145.4424],[116.579,-0.4895,142.5585],[116.5767,-0.4834,137.5668],[116.5785,-0.4768,170.4949],[116.5764,-0.4682,121.4292],[116.5808,-0.4613,178.7442],[116.5825,-0.4426,134.9456],[116.5809,-0.4358,105.7689],[116.5777,-0.4306,93.7321],[116.5719,-0.4324,85.1425],[116.5626,-0.4281,57.6168],[116.5531,-0.4181,57.3695],[116.5424,-0.4226,33.4756],[116.5345,-0.4233,31.4555],[116.5318,-0.4201,21.1268],[116.5333,-0.4158,32.3811],[116.5319,-0.4147,31.5527],[116.5255,-0.4203,36.8037],[116.5232,-0.4252,19.2098],[116.5164,-0.417,17.2887],[116.5157,-0.4117,9.6572],[116.519,-0.3922,10.4467],[116.5203,-0.3905,9.1],[116.5289,-0.3904,6.7708],[116.5329,-0.3883,12.783],[116.5321,-0.3785,15.9626],[116.5394,-0.3633,10.1337],[116.5457,-0.3649,18.6637],[116.5491,-0.3641,-5.1081],[116.5631,-0.3545,19.4961],[116.5632,-0.3527,15.6992],[116.5505,-0.3345,15.1985],[116.5375,-0.3118,11.6029],[116.5347,-0.2738,4.5381],[116.473,-0.2712,4.1342],[116.469,-0.2451,1.0],[116.461,-0.2102,1.0],[116.4482,-0.2131,1.0],[116.4308,-0.2135,1.0],[116.423,-0.2132,1.0],[116.4085,-0.2096,1.0],[116.3885,-0.2014,6.1444],[116.3699,-0.1883,9.0733],[116.3589,-0.1784,13.2414],[116.3469,-0.1639,11.7065],[116.3358,-0.1361,9.411],[116.3253,-0.0951,19.1927],[116.3223,-0.0662,17.9786],[116.316,-0.0581,14.2752],[116.3041,-0.048,16.7622],[116.2832,-0.0376,23.085],[116.2457,-0.0262,28.8838],[116.2103,-0.0061,46.0428],[116.1906,0.0,55.6958],[116.1875,0.0049,57.6869],[116.1741,0.0093,58.2856],[116.1642,0.0149,57.6692],[116.1545,0.0173,59.4877],[116.1034,0.019,67.6932],[116.0845,0.0141,73.7119],[116.0733,0.0046,65.9602],[116.065,0.0022,70.6283],[116.0389,0.0016,69.5727],[116.031,0.0,70.1279],[116.0,0.0,91.5101],[115.9891,-0.003,102.7303],[115.9843,-0.0083,106.4995],[115.973,-0.0283,112.103],[115.9825,-0.0654,74.7533],[115.9908,-0.0709,78.0061],[116.0312,-0.1114,87.2375],[116.0717,-0.1654,57.0552],[116.1049,-0.1891,37.2566],[116.142,-0.21,19.1832],[116.1654,-0.2296,25.8627],[116.1861,-0.25,20.9608],[116.2368,-0.2815,11.0559],[116.2548,-0.2899,15.9238],[116.3182,-0.2996,1.0],[116.3852,-0.3065,1.0],[116.3966,-0.3106,1.0],[116.4067,-0.3183,3.9846],[116.4193,-0.3349,4.9899],[116.4482,-0.3842,16.6825],[116.4471,-0.4168,16.1972],[116.4625,-0.5034,37.4715],[116.4723,-0.5266,104.1449],[116.494,-0.5484,91.7641],[116.5087,-0.5518,169.3022],[116.5282,-0.5535,81.4614],[116.5414,-0.558,226.8492],[116.5496,-0.5635,357.3489],[116.5802,-0.5611,257.1839],[116.6087,-0.5635,186.6277],[116.6564,-0.5708,257.6093],[116.6478,-0.5562,248.5689],[116.6484,-0.5477,245.7487],[116.6468,-0.5447,231.1755],[116.6284,-0.5313,291.0145],[116.6302,-0.5246,301.2852],[116.6232,-0.5203,200.3012],[116.6225,-0.5107,177.2016],[116.6184,-0.4934,157.5228]]]]}}