{"type":"Feature","properties":{"GID_3":"IDN.10.17.2_1","GID_0":"IDN","country":"Indonesia","GID_1":"IDN.10_1","province":"JawaTengah","NL_NAME_1":"NA","GID_2":"IDN.10.17_1","county":"KotaSemarang","NL_NAME_2":"NA","city":"Candisari","VARNAME_3":"NA","NL_NAME_3":"NA","TYPE_3":"Kecamatan","ENGTYPE_3":"Sub-district","CC_3":"3374060","HASC_3":"NA","name":"Candisari.city"},
"geometry":{"type": "MultiPolygon","coordinates": [[[[110.4285,-7.0311,113.3318],[110.4313,-7.03,108.6268],[110.4357,-7.0221,80.1731],[110.442,-7.0182,49.9859],[110.4447,-7.0114,31.9499],[110.4325,-7.0085,31.1835],[110.432,-7.0048,16.5],[110.4277,-7.0053,26.9363],[110.4194,-6.9974,17.8557],[110.4201,-7.0007,43.4057],[110.4163,-7.0018,65.0852],[110.4176,-7.0075,86.3442],[110.4161,-7.008,94.0621],[110.4158,-7.0108,78.7396],[110.4178,-7.0134,95.349],[110.4204,-7.0239,111.0033],[110.4182,-7.0313,132.6263],[110.4285,-7.0311,113.3318]]]]}}