{"type":"Feature","properties":{"GID_3":"IDN.9.16.2_1","GID_0":"IDN","country":"Indonesia","GID_1":"IDN.9_1","province":"JawaBarat","NL_NAME_1":"NA","GID_2":"IDN.9.16_1","county":"KotaBogor","NL_NAME_2":"NA","city":"BogorSelatan","VARNAME_3":"NA","NL_NAME_3":"NA","TYPE_3":"Kecamatan","ENGTYPE_3":"Sub-district","CC_3":"3271010","HASC_3":"NA","name":"Bogor_Selatan.city"},
"geometry":{"type": "MultiPolygon","coordinates": [[[[106.8296,-6.6787,424.1106],[106.8342,-6.6777,464.8513],[106.8401,-6.6796,518.5594],[106.8481,-6.6762,507.8741],[106.8452,-6.6616,453.9527],[106.8477,-6.6545,452.573],[106.8386,-6.6465,403.8199],[106.8399,-6.6444,396.4303],[106.8378,-6.6415,391.1739],[106.8267,-6.6346,351.9169],[106.8223,-6.6269,333.1681],[106.8053,-6.6108,284.4316],[106.8028,-6.6115,271.0222],[106.8007,-6.6087,262.4008],[106.7942,-6.6057,257.559],[106.7931,-6.6088,258.9902],[106.7964,-6.617,263.1668],[106.794,-6.6191,267.0818],[106.7886,-6.6196,284.3563],[106.7885,-6.6185,279.0398],[106.7879,-6.6196,284.3563],[106.7871,-6.6184,282.2149],[106.7895,-6.6157,266.9035],[106.7902,-6.6113,260.9261],[106.7894,-6.6095,251.8326],[106.7866,-6.6087,254.7771],[106.7816,-6.6134,275.7287],[106.7863,-6.6247,300.9066],[106.7888,-6.6252,299.7133],[106.7903,-6.6278,299.6545],[106.7862,-6.634,332.5612],[106.783,-6.645,399.3936],[106.7716,-6.6537,485.0255],[106.783,-6.6589,469.8841],[106.787,-6.6592,447.1812],[106.7906,-6.6531,406.9914],[106.7925,-6.6536,396.9354],[106.7994,-6.6457,386.5151],[106.8013,-6.6483,393.5298],[106.8052,-6.649,360.7088],[106.8042,-6.6518,371.4272],[106.8061,-6.6519,371.4272],[106.8103,-6.6465,346.6028],[106.8105,-6.6493,356.3137],[106.8084,-6.6524,337.3615],[106.8088,-6.6563,348.2736],[106.8156,-6.6613,354.3658],[106.8163,-6.6656,384.3521],[106.8185,-6.6664,356.4565],[106.8191,-6.6719,372.9776],[106.8296,-6.6787,424.1106]]]]}}