{"type":"Feature","properties":{"GID_2":"IDN.26.5_1","GID_0":"IDN","country":"Indonesia","GID_1":"IDN.26_1","province":"SulawesiSelatan","NL_NAME_1":"NA","county":"Enrekang","VARNAME_2":"NA","NL_NAME_2":"NA","TYPE_2":"Kabupaten","ENGTYPE_2":"Regency","CC_2":"7316","HASC_2":"ID.SE.EN","name":"Enrekang.county"},
"geometry":{"type": "MultiPolygon","coordinates": [[[[119.816,-3.7454,128.1234],[119.82,-3.7519,125.8775],[119.8226,-3.768,109.2688],[119.8374,-3.7733,74.2896],[119.8438,-3.7789,65.7526],[119.8445,-3.7859,60.9242],[119.8459,-3.7873,60.6883],[119.8451,-3.7893,62.1109],[119.8498,-3.7947,64.3013],[119.8498,-3.7978,73.9556],[119.8528,-3.8009,65.9579],[119.8525,-3.8031,70.1364],[119.8547,-3.8029,59.4908],[119.8557,-3.8059,71.4585],[119.8608,-3.8056,61.4525],[119.8607,-3.8108,51.6056],[119.8728,-3.818,73.8822],[119.8775,-3.8193,67.5256],[119.8862,-3.817,50.4086],[119.8927,-3.8171,44.0436],[119.9011,-3.8241,35.4452],[119.9078,-3.8165,34.4233],[119.9172,-3.8106,40.4084],[119.9195,-3.8103,47.487],[119.9251,-3.8157,41.2721],[119.9276,-3.8156,49.0487],[119.9363,-3.8024,97.3372],[119.9449,-3.8098,65.6828],[119.9466,-3.8056,50.3375],[119.9503,-3.8024,43.2247],[119.9602,-3.802,27.7188],[119.9593,-3.8,30.5524],[119.9633,-3.7948,35.755],[119.9676,-3.7963,37.5755],[119.967,-3.7908,33.1928],[119.9693,-3.7887,31.9728],[119.9664,-3.7867,32.338],[119.9655,-3.7834,36.1435],[119.9591,-3.7789,47.8265],[119.9539,-3.7811,36.6327],[119.9502,-3.7793,40.0373],[119.9455,-3.7712,43.7333],[119.9478,-3.767,41.1711],[119.9439,-3.7657,43.619],[119.9406,-3.7619,51.9673],[119.9402,-3.7586,45.0598],[119.9441,-3.7566,41.3673],[119.9405,-3.7524,45.8267],[119.9407,-3.7385,57.5891],[119.9381,-3.7357,98.3332],[119.9394,-3.7319,116.42],[119.9384,-3.7265,77.6603],[119.9365,-3.7246,81.8706],[119.9387,-3.7234,79.2022],[119.9386,-3.7197,59.5215],[119.9315,-3.7195,55.8046],[119.9349,-3.7173,73.096],[119.9372,-3.7089,68.155],[119.9327,-3.7092,77.7692],[119.9313,-3.7029,82.6092],[119.9249,-3.7007,66.799],[119.9217,-3.6941,85.5904],[119.9237,-3.6905,72.1714],[119.9227,-3.6858,69.8937],[119.9271,-3.6792,109.2199],[119.937,-3.676,293.0717],[119.9406,-3.6717,182.6797],[119.948,-3.6683,192.503],[119.951,-3.6601,312.2639],[119.9674,-3.6646,321.4768],[119.9699,-3.6672,227.9607],[119.9725,-3.6656,260.8204],[119.9827,-3.6699,217.8638],[119.9802,-3.6673,273.4062],[119.9808,-3.6608,220.2105],[119.9888,-3.6619,213.6433],[119.9952,-3.66,207.288],[119.9927,-3.6578,198.9162],[119.9916,-3.6539,267.8975],[119.9935,-3.6491,247.1115],[119.9954,-3.6487,258.7363],[119.996,-3.6428,268.0085],[119.9953,-3.6401,273.0349],[119.9925,-3.6402,289.7377],[119.9937,-3.6328,307.2459],[119.9915,-3.6293,373.8036],[119.9962,-3.627,373.9953],[119.9993,-3.6274,477.2632],[120.0055,-3.6234,731.4951],[120.0153,-3.6092,967.8617],[120.0272,-3.5783,1862.4517],[120.0388,-3.5588,2370.3816],[120.0413,-3.5415,2499.71],[120.0448,-3.5382,2333.6821],[120.0626,-3.5357,2651.501],[120.068,-3.5303,2879.3953],[120.0767,-3.5088,2856.4548],[120.0889,-3.5076,2618.3723],[120.0949,-3.5027,2861.8125],[120.0973,-3.4979,3006.2737],[120.0961,-3.4831,3240.9087],[120.099,-3.4777,3126.4331],[120.0983,-3.4753,3077.7097],[120.0915,-3.4708,2931.7139],[120.0781,-3.4506,2826.2446],[120.0724,-3.4473,2985.1711],[120.066,-3.438,2538.394],[120.0597,-3.4144,2733.6089],[120.053,-3.4045,3089.5808],[120.0509,-3.4037,3146.5386],[120.0431,-3.4053,3108.0945],[120.0318,-3.4034,3093.0776],[120.026,-3.3907,3313.9114],[120.0181,-3.3869,3024.585],[120.0213,-3.3785,2956.4521],[120.0277,-3.3794,3122.1843],[120.0281,-3.3775,3059.4336],[120.0339,-3.3737,2803.5964],[120.0276,-3.3711,2677.5515],[120.0327,-3.3635,2657.5396],[120.0252,-3.3625,2386.0156],[120.0199,-3.3585,1964.3396],[120.0134,-3.341,1563.5085],[120.0021,-3.3339,1359.2942],[120.0058,-3.3182,1211.1228],[119.9991,-3.3048,1141.0219],[119.9964,-3.3026,1081.2556],[119.9937,-3.303,1079.6018],[119.9923,-3.3066,1173.8525],[119.9891,-3.3092,1027.9379],[119.981,-3.3024,921.6913],[119.9797,-3.2985,882.4388],[119.9715,-3.2981,876.9544],[119.9662,-3.2917,794.0831],[119.9642,-3.2939,788.0636],[119.9553,-3.2924,761.4558],[119.9529,-3.2964,757.5745],[119.9493,-3.2967,733.4073],[119.9449,-3.2943,862.0572],[119.9369,-3.2848,1010.2137],[119.932,-3.2843,1059.6135],[119.9286,-3.2809,1056.457],[119.9261,-3.2775,1041.2739],[119.9255,-3.2719,956.062],[119.922,-3.2644,882.6559],[119.9139,-3.2623,874.4821],[119.9112,-3.2631,898.2428],[119.9109,-3.2616,871.5692],[119.9092,-3.2621,871.606],[119.9066,-3.2597,860.9147],[119.9047,-3.2613,884.8018],[119.9031,-3.2599,853.1966],[119.8958,-3.2621,840.5731],[119.8945,-3.2598,856.1161],[119.8921,-3.2604,846.5729],[119.8913,-3.2586,838.8251],[119.8903,-3.2603,845.1078],[119.8865,-3.2594,832.1325],[119.8858,-3.2578,833.2902],[119.8827,-3.2584,829.8821],[119.8819,-3.257,826.8065],[119.8764,-3.2669,829.4794],[119.879,-3.2696,858.6833],[119.871,-3.2695,823.2371],[119.8724,-3.272,819.7899],[119.8706,-3.2745,820.4244],[119.8682,-3.2712,837.6153],[119.8666,-3.2731,861.0944],[119.8614,-3.2696,817.1108],[119.863,-3.2725,823.9018],[119.8616,-3.2734,823.3052],[119.8601,-3.2722,823.2521],[119.8592,-3.2746,841.7749],[119.8579,-3.2726,851.0848],[119.8571,-3.2773,825.2026],[119.8549,-3.2777,817.9156],[119.8534,-3.2809,816.6659],[119.8506,-3.2807,816.2243],[119.8506,-3.2789,818.6516],[119.8423,-3.2709,833.4153],[119.8426,-3.2615,913.376],[119.8407,-3.2595,858.8287],[119.8405,-3.256,854.8339],[119.833,-3.2535,945.1371],[119.831,-3.2487,897.1027],[119.8139,-3.2452,1031.2217],[119.7959,-3.2472,1263.4441],[119.7873,-3.2437,1507.4053],[119.7838,-3.2403,1777.9896],[119.7808,-3.2401,1867.6685],[119.7748,-3.2467,1772.9756],[119.7739,-3.2552,1567.6663],[119.7753,-3.2673,1615.4053],[119.77,-3.2743,1650.4817],[119.7629,-3.2766,1566.3945],[119.7568,-3.2765,1571.55],[119.7527,-3.279,1378.4478],[119.7371,-3.2824,960.3929],[119.7228,-3.2913,563.8532],[119.7166,-3.2985,823.0956],[119.7134,-3.3135,1172.9508],[119.7223,-3.3247,1206.1722],[119.7236,-3.3301,1276.0656],[119.7172,-3.3405,1119.1677],[119.7213,-3.3525,770.5974],[119.7169,-3.3532,628.892],[119.7127,-3.3505,503.385],[119.7037,-3.3492,278.5347],[119.6969,-3.3498,186.5226],[119.695,-3.3504,168.1658],[119.6902,-3.3601,157.5124],[119.6932,-3.3655,134.5324],[119.694,-3.3799,128.33],[119.6986,-3.3846,171.68],[119.6949,-3.3947,121.6025],[119.6973,-3.4036,126.6926],[119.6981,-3.4222,128.5349],[119.6989,-3.424,114.2968],[119.702,-3.424,109.8864],[119.6988,-3.427,150.0847],[119.6946,-3.4273,159.9135],[119.6935,-3.4293,218.4793],[119.6952,-3.442,722.6101],[119.6939,-3.4478,897.8292],[119.6856,-3.446,804.2189],[119.69,-3.4614,360.0179],[119.7059,-3.4735,92.7016],[119.7022,-3.4761,98.4491],[119.7001,-3.4806,101.7703],[119.7017,-3.4831,117.5612],[119.6997,-3.4856,115.3951],[119.7019,-3.5035,344.6408],[119.6996,-3.5119,637.7761],[119.7068,-3.5321,672.9312],[119.706,-3.5357,851.1598],[119.716,-3.5461,437.9245],[119.7188,-3.556,376.8079],[119.7207,-3.5886,206.5588],[119.7225,-3.593,168.9106],[119.7231,-3.6268,108.5014],[119.7207,-3.6325,108.5838],[119.7227,-3.6361,85.8819],[119.7226,-3.6463,53.9125],[119.7477,-3.6677,43.552],[119.7559,-3.6682,25.25],[119.7608,-3.6715,26.0363],[119.7628,-3.6749,28.1055],[119.7595,-3.6762,33.0949],[119.7593,-3.699,104.5872],[119.7736,-3.7109,64.8244],[119.7789,-3.7178,80.8215],[119.7965,-3.7233,102.6119],[119.7973,-3.7263,128.9581],[119.8031,-3.7314,157.2694],[119.8022,-3.735,127.8338],[119.8056,-3.7403,125.1153],[119.816,-3.7454,128.1234]]]]}}