{"type":"Feature","properties":{"GID_3":"IDN.27.6.3_1","GID_0":"IDN","country":"Indonesia","GID_1":"IDN.27_1","province":"SulawesiTengah","NL_NAME_1":"NA","GID_2":"IDN.27.6_1","county":"Palu","NL_NAME_2":"NA","city":"PaluTimur","VARNAME_3":"NA","NL_NAME_3":"NA","TYPE_3":"Kecamatan","ENGTYPE_3":"Sub-district","CC_3":"7271030","HASC_3":"NA","name":"Palu_Timur.city"},
"geometry":{"type": "MultiPolygon","coordinates": [[[[119.8883,-0.8973,56.9241],[119.8873,-0.8898,61.2646],[119.8894,-0.8902,71.9395],[119.8898,-0.8871,82.1071],[119.8922,-0.8847,89.5817],[119.8992,-0.8835,121.7869],[119.9008,-0.8812,140.8311],[119.9098,-0.8858,161.6718],[119.9094,-0.8906,119.711],[119.905,-0.8925,106.6279],[119.906,-0.8931,120.5901],[119.8989,-0.8949,83.2968],[119.9004,-0.912,71.0393],[119.9015,-0.912,71.0393],[119.9154,-0.9075,115.6469],[119.9154,-0.9049,117.5641],[119.9174,-0.9029,133.5306],[119.9148,-0.901,135.8901],[119.9159,-0.8981,141.4127],[119.9195,-0.8999,150.4777],[119.9391,-0.8907,240.3696],[119.9422,-0.8907,242.3406],[119.9454,-0.8879,326.7346],[119.9478,-0.889,274.2959],[119.9552,-0.8881,344.6628],[119.9553,-0.8856,416.666],[119.9595,-0.8835,360.0219],[119.9802,-0.8831,643.4415],[120.0069,-0.8749,1048.7896],[120.0225,-0.8787,1357.5438],[120.0225,-0.88,1419.0867],[120.0313,-0.8806,1379.6519],[120.0324,-0.874,1318.1272],[120.0389,-0.8684,1335.8724],[120.0342,-0.858,1341.9038],[120.0368,-0.848,1408.5305],[120.034,-0.8413,1245.5361],[120.0341,-0.8333,1145.8179],[120.0275,-0.8178,1423.2268],[120.0257,-0.8086,1181.2324],[120.0167,-0.796,1191.6376],[120.0131,-0.7939,1133.6205],[119.9925,-0.7952,1022.1875],[119.9871,-0.8015,1116.2784],[119.98,-0.8033,1050.6705],[119.9743,-0.8083,925.2984],[119.9545,-0.7975,568.4794],[119.9398,-0.7986,461.4951],[119.9341,-0.7968,446.8115],[119.9273,-0.7921,282.0967],[119.9211,-0.7929,272.1906],[119.9054,-0.8034,127.976],[119.9004,-0.8051,104.1794],[119.9001,-0.807,104.4324],[119.8902,-0.8101,57.1776],[119.8803,-0.8173,9.7564],[119.8844,-0.8227,6.7989],[119.881,-0.8292,6.315],[119.8822,-0.8337,14.6516],[119.8793,-0.8569,12.7453],[119.8811,-0.8598,15.3139],[119.8804,-0.8626,15.7258],[119.8744,-0.8688,2.1017],[119.8737,-0.8766,6.871],[119.8712,-0.8831,10.2403],[119.8656,-0.885,3.7357],[119.8623,-0.8838,0.0],[119.8614,-0.8862,2.5802],[119.8631,-0.8913,7.113],[119.8671,-0.8953,10.9226],[119.8883,-0.8973,56.9241]]]]}}