{"type":"Feature","properties":{"GID_3":"IDN.2.2.3_1","GID_0":"IDN","country":"Indonesia","GID_1":"IDN.2_1","province":"Bali","NL_NAME_1":"NA","GID_2":"IDN.2.2_1","county":"Bangli","NL_NAME_2":"NA","city":"Susut","VARNAME_3":"NA","NL_NAME_3":"NA","TYPE_3":"Kecamatan","ENGTYPE_3":"Sub-district","CC_3":"5106010","HASC_3":"NA","name":"Susut.city"},
"geometry":{"type": "MultiPolygon","coordinates": [[[[115.3478,-8.4526,397.7769],[115.3525,-8.446,444.7045],[115.352,-8.4419,457.6122],[115.3536,-8.4399,444.4243],[115.3522,-8.433,499.902],[115.3547,-8.4295,529.7553],[115.3574,-8.4182,555.7007],[115.3623,-8.3898,721.6474],[115.3605,-8.3865,711.3689],[115.3598,-8.3733,771.9681],[115.355,-8.3653,804.0643],[115.3554,-8.3626,824.2467],[115.3578,-8.3605,815.2079],[115.3578,-8.3535,846.9052],[115.353,-8.3413,920.8578],[115.3549,-8.337,959.0594],[115.3476,-8.3375,960.4629],[115.3476,-8.3414,938.088],[115.3411,-8.3393,933.7292],[115.3374,-8.3446,921.0867],[115.331,-8.3456,894.7169],[115.3303,-8.3579,845.9298],[115.3256,-8.3624,808.2548],[115.3257,-8.3644,797.9906],[115.3285,-8.3649,794.6513],[115.3291,-8.3736,737.7512],[115.3321,-8.3705,775.1804],[115.3334,-8.3659,806.5939],[115.3366,-8.3663,813.1946],[115.3362,-8.3738,756.4653],[115.3333,-8.3775,745.2892],[115.3347,-8.38,712.1842],[115.3371,-8.38,741.5929],[115.3367,-8.3849,715.1053],[115.3306,-8.4034,589.3057],[115.3308,-8.4142,517.7167],[115.3228,-8.4287,464.5166],[115.3175,-8.4342,468.2047],[115.3182,-8.4394,436.3918],[115.3208,-8.4404,465.0343],[115.3206,-8.4447,452.5227],[115.3239,-8.4497,426.849],[115.3233,-8.456,394.9236],[115.325,-8.4573,389.006],[115.3252,-8.4619,375.711],[115.3272,-8.4652,377.9044],[115.3249,-8.469,366.7767],[115.3277,-8.4773,340.3886],[115.3278,-8.4846,307.7599],[115.3242,-8.4907,274.3029],[115.3273,-8.4942,269.2899],[115.3297,-8.508,213.6019],[115.3324,-8.5095,210.3649],[115.3298,-8.5104,205.9393],[115.3291,-8.5131,208.1649],[115.3347,-8.5184,203.8253],[115.3364,-8.5123,218.5775],[115.341,-8.5081,226.2772],[115.3407,-8.5019,252.7337],[115.346,-8.4885,312.3755],[115.3424,-8.4638,371.599],[115.3462,-8.4565,405.8254],[115.3457,-8.4537,378.1495],[115.3478,-8.4526,397.7769]]]]}}