{"type":"Feature","properties":{"GID_3":"IDN.32.7.10_1","GID_0":"IDN","country":"Indonesia","GID_1":"IDN.32_1","province":"SumateraUtara","NL_NAME_1":"NA","GID_2":"IDN.32.7_1","county":"Karo","NL_NAME_2":"NA","city":"Merek","VARNAME_3":"NA","NL_NAME_3":"NA","TYPE_3":"Kecamatan","ENGTYPE_3":"Sub-district","CC_3":"1211120","HASC_3":"NA","name":"Merek.city"},
"geometry":{"type": "MultiPolygon","coordinates": [[[[98.5412,2.9362,1473.8015],[98.5475,2.9495,1402.532],[98.547,2.9548,1406.3577],[98.5486,2.9605,1389.1093],[98.5536,2.9689,1376.246],[98.55,2.9731,1361.4071],[98.5492,2.9781,1339.0586],[98.5515,2.9875,1327.5994],[98.5545,2.9914,1346.8672],[98.5511,3.0001,1302.7802],[98.5543,3.0168,1272.7197],[98.5575,3.0216,1274.2024],[98.5562,3.0266,1266.4803],[98.5528,3.03,1249.8928],[98.5501,3.0368,1260.1406],[98.5478,3.047,1243.7223],[98.5414,3.0463,1225.9668],[98.5384,3.0475,1221.0239],[98.5387,3.0377,1250.7721],[98.5279,3.036,1245.8286],[98.5267,3.0392,1238.4802],[98.5226,3.0421,1220.5901],[98.5097,3.0436,1242.113],[98.5086,3.0209,1287.804],[98.5023,3.0219,1276.9956],[98.4951,3.0166,1267.0499],[98.487,3.0154,1282.8475],[98.4728,2.9945,1371.293],[98.4618,3.0006,1441.2495],[98.4597,3.0032,1461.4314],[98.4587,3.0103,1419.0709],[98.4532,3.0144,1339.5269],[98.4513,3.0291,1242.8818],[98.4607,3.0363,1212.2391],[98.4622,3.0395,1207.293],[98.4526,3.0479,1172.1489],[98.4217,3.0143,1260.3696],[98.407,3.0009,1354.0679],[98.4091,2.989,1376.426],[98.3988,2.9807,1365.7695],[98.3977,2.9766,1391.8225],[98.3998,2.965,1590.9697],[98.393,2.9582,1877.1403],[98.3908,2.9531,1918.4749],[98.3915,2.9494,1852.201],[98.3982,2.9388,1922.7496],[98.3971,2.933,1896.9659],[98.3992,2.9243,2113.2095],[98.412,2.9225,2187.3052],[98.4294,2.9174,2427.7537],[98.4322,2.9017,2018.7241],[98.4369,2.8923,2047.8542],[98.44,2.8903,2090.5601],[98.4486,2.8907,2000.9109],[98.4543,2.8842,2050.9275],[98.4728,2.8742,1982.887],[98.4923,2.8686,1735.2896],[98.5116,2.8693,1314.7532],[98.5215,2.8748,962.4661],[98.5169,2.8793,925.8799],[98.5233,2.8852,1034.8662],[98.5202,2.8958,974.3452],[98.5284,2.8977,910.3024],[98.5349,2.8947,913.4517],[98.5363,2.8909,913.3463],[98.5387,2.8893,912.7782],[98.5384,2.8871,901.0],[98.5417,2.8831,901.0],[98.5401,2.8792,901.0],[98.5412,2.8743,901.0],[98.5443,2.8744,920.7143],[98.5456,2.8729,901.0],[98.5493,2.8745,935.9853],[98.5528,2.8739,921.2526],[98.5548,2.8758,942.5438],[98.5545,2.8813,905.0618],[98.5489,2.8814,929.2723],[98.5511,2.8872,906.252],[98.5486,2.8953,961.1748],[98.5449,2.8981,1297.0897],[98.5404,2.8972,1142.2527],[98.5327,2.9043,1139.6216],[98.5341,2.9257,1933.4255],[98.5412,2.9362,1473.8015]]]]}}