{"type":"Feature","properties":{"GID_3":"IDN.1.10.2_1","GID_0":"IDN","country":"Indonesia","GID_1":"IDN.1_1","province":"Aceh","NL_NAME_1":"NA","GID_2":"IDN.1.10_1","county":"AcehTimur","NL_NAME_2":"NA","city":"BiremBayeun","VARNAME_3":"NA","NL_NAME_3":"NA","TYPE_3":"Kecamatan","ENGTYPE_3":"Sub-district","CC_3":"1105090","HASC_3":"NA","name":"Birem_Bayeun.city"},
"geometry":{"type": "MultiPolygon","coordinates": [[[[97.8614,4.3885,94.1767],[97.8755,4.3789,92.6418],[97.8871,4.3757,133.3995],[97.8981,4.3748,75.4606],[97.9069,4.3773,90.4407],[97.9209,4.3764,64.8917],[97.9723,4.3786,66.7951],[97.9763,4.393,16.9775],[97.9795,4.3891,20.1286],[97.9863,4.388,16.854],[97.9911,4.3919,14.6622],[97.9915,4.3942,18.8249],[98.0037,4.4005,16.4809],[98.0039,4.4031,16.7934],[98.0144,4.4092,15.2364],[98.0186,4.4143,12.9873],[98.0242,4.4158,12.757],[98.0238,4.4181,11.4052],[98.0195,4.4176,24.7791],[98.015,4.4144,16.8641],[98.0126,4.415,25.5182],[98.0094,4.4127,15.8049],[98.0037,4.4118,21.8151],[98.0005,4.4077,16.0106],[97.9999,4.4095,18.9818],[97.9945,4.409,19.9554],[97.9916,4.4121,34.1558],[97.9818,4.4144,36.5839],[97.9817,4.4213,15.1534],[97.9792,4.4213,17.6522],[97.9785,4.423,18.9592],[97.9734,4.4227,23.7006],[97.9683,4.4261,34.0425],[97.9711,4.4382,14.9115],[97.9665,4.442,23.4144],[97.9668,4.4451,23.2399],[97.9663,4.4452,23.2399],[97.9617,4.4422,27.5496],[97.9423,4.438,56.3976],[97.9357,4.4325,68.2645],[97.9254,4.435,70.7945],[97.9226,4.438,43.2457],[97.9182,4.4466,56.5528],[97.9186,4.4513,22.9262],[97.9174,4.4525,23.8786],[97.9124,4.4519,33.9277],[97.9145,4.4488,27.1731],[97.9098,4.4509,42.7317],[97.909,4.448,26.0139],[97.9067,4.4512,24.9444],[97.9073,4.4524,45.474],[97.9094,4.4515,42.7317],[97.9078,4.4531,45.474],[97.9041,4.4503,41.9557],[97.905,4.449,36.0475],[97.904,4.4483,35.754],[97.8868,4.4483,37.1429],[97.8817,4.4534,58.012],[97.8808,4.4567,67.7814],[97.8774,4.4582,78.6127],[97.8887,4.4772,98.1899],[97.8909,4.4932,77.805],[97.8968,4.5025,76.2803],[97.8976,4.5063,96.5643],[97.9046,4.512,68.1328],[97.9086,4.5175,36.4888],[97.908,4.519,22.8809],[97.913,4.5213,36.4292],[97.9167,4.5295,32.6732],[97.9215,4.5323,27.5256],[97.9319,4.534,17.5437],[97.9368,4.5329,6.6688],[97.9355,4.5284,9.4576],[97.9449,4.5274,1.1133],[97.9451,4.5292,1.8774],[97.9509,4.5295,1.9201],[97.9523,4.5305,0.6553],[97.9506,4.5318,0.9915],[97.9508,4.5339,1.0153],[97.955,4.5351,2.8976],[97.9625,4.5283,0.0],[97.9622,4.5267,1.4693],[97.9788,4.54,0.6712],[97.9809,4.5455,1.8132],[97.9757,4.5563,0.0],[97.9726,4.5553,0.0],[97.9706,4.5592,2.6168],[97.9801,4.5647,1.0051],[97.9813,4.5711,0.0],[97.9835,4.5651,0.0],[97.9858,4.5763,3.2048],[97.9948,4.587,1.9493],[97.9971,4.5868,0.0],[97.9964,4.5894,2.7666],[97.9978,4.5921,2.7955],[98.0072,4.6028,3.23],[98.012,4.6052,1.0985],[98.0177,4.6018,0.0],[98.0177,4.6092,0.0],[98.0129,4.6167,3.3564],[98.0066,4.6217,2.928],[97.9985,4.6251,0.0],[97.9983,4.6212,0.0],[98.0039,4.605,0.0],[98.0025,4.6007,0.5461],[97.9994,4.5981,3.1427],[97.9939,4.5973,1.5543],[97.9811,4.5885,2.9677],[97.9779,4.5898,2.8868],[97.9744,4.599,0.0],[97.9716,4.5995,0.0],[97.9672,4.5923,0.0],[97.9636,4.5912,2.6572],[97.9609,4.593,1.8156],[97.9594,4.5966,0.6649],[97.9572,4.5884,1.7885],[97.9515,4.5851,2.5878],[97.9509,4.5835,2.2409],[97.9531,4.5812,0.7129],[97.9506,4.5785,2.085],[97.949,4.5807,2.3704],[97.9456,4.5761,1.0953],[97.9463,4.5723,2.9675],[97.944,4.5734,2.4183],[97.9418,4.5713,6.2896],[97.9403,4.5744,3.333],[97.9387,4.5732,2.3143],[97.9352,4.5769,2.1152],[97.9344,4.5738,4.7439],[97.933,4.5762,4.0109],[97.9317,4.5734,5.1689],[97.9307,4.5756,4.3937],[97.9267,4.5746,4.1296],[97.9282,4.5768,4.109],[97.925299999999993,4.5751,4.1296],[97.9241,4.5777,4.105],[97.9197,4.5762,6.1282],[97.9216,4.5772,2.5073],[97.9198,4.5793,4.6844],[97.9112,4.5804,9.4056],[97.913,4.5815,4.1345],[97.9114,4.584,3.7258],[97.9114,4.5825,7.0089],[97.9046,4.5783,7.6665],[97.9051,4.5806,6.8546],[97.9022,4.582,7.0787],[97.9043,4.5854,3.5868],[97.901,4.586,5.8229],[97.904,4.5879,7.0051],[97.9015,4.588,6.8186],[97.9036,4.5919,7.0499],[97.9017,4.5925,6.4337],[97.9023,4.5956,6.4259],[97.8998,4.5933,8.4125],[97.8979,4.5972,10.5036],[97.897,4.5934,8.3655],[97.8956,4.5926,8.1322],[97.8969,4.5947,5.7748],[97.8936,4.5963,8.9568],[97.8913,4.5929,9.1777],[97.892,4.5905,9.2302],[97.8904,4.5915,8.9609],[97.8884,4.5899,9.7767],[97.8889,4.596,5.4253],[97.8907,4.5976,6.3377],[97.8868,4.6004,9.0555],[97.8912,4.6011,7.2551],[97.8903,4.6051,5.8151],[97.8918,4.6076,8.3584],[97.8892,4.6075,7.081],[97.8893,4.6049,5.8022],[97.8877,4.6046,6.3241],[97.8864,4.6072,7.7862],[97.8874,4.6116,8.5226],[97.8858,4.6083,8.1603],[97.8834,4.6109,17.2136],[97.8844,4.6094,8.5362],[97.8822,4.6079,11.7406],[97.883,4.6056,10.0606],[97.8777,4.6053,10.2454],[97.8753,4.6089,17.9799],[97.874,4.6074,13.1948],[97.8749,4.6058,11.2639],[97.8733,4.6067,20.4904],[97.8719,4.6055,20.4904],[97.8714,4.6043,37.1238],[97.8728,4.6049,24.8708],[97.8734,4.6036,12.7403],[97.8701,4.6003,70.3198],[97.8658,4.6028,45.1628],[97.8638,4.6061,23.0362],[97.8609,4.6068,29.9172],[97.8603,4.6046,18.8855],[97.8636,4.6008,16.6046],[97.8624,4.5982,128.6517],[97.8554,4.6049,86.1367],[97.8534,4.6091,36.7718],[97.8474,4.6059,26.4169],[97.8482,4.6026,19.4442],[97.845,4.6037,44.6423],[97.8461,4.5978,27.098],[97.8413,4.5961,18.8996],[97.8399,4.5922,29.7134],[97.8347,4.5884,76.4902],[97.8381,4.586,101.8919],[97.8393,4.5791,18.9132],[97.8344,4.5787,28.4528],[97.8302,4.5763,52.5755],[97.8249,4.5778,19.629],[97.8235,4.575,22.7516],[97.8186,4.5731,33.1991],[97.8196,4.5719,33.815],[97.8173,4.5642,49.3693],[97.8132,4.5648,39.5253],[97.8136,4.5666,27.9377],[97.8121,4.5671,20.7918],[97.8111,4.5648,39.4478],[97.8081,4.5656,51.5438],[97.8096,4.5693,22.695],[97.8083,4.57,22.695],[97.807,4.5696,29.5956],[97.8074,4.5672,28.6218],[97.8033,4.5676,52.7173],[97.8039,4.5693,21.3068],[97.8024,4.5686,52.7173],[97.8032,4.57,24.6649],[97.8014,4.5737,58.4201],[97.8026,4.5743,43.0783],[97.8015,4.5751,43.0783],[97.8022,4.5779,19.2865],[97.8009,4.578,23.9438],[97.7991,4.5733,38.5125],[97.7963,4.5727,58.5478],[97.7933,4.5766,38.6376],[97.7937,4.5797,25.0086],[97.7917,4.5838,23.254],[97.7861,4.585,28.657],[97.7867,4.5832,30.7284],[97.7833,4.581,34.594],[97.7862,4.5798,50.0379],[97.7794,4.5771,33.8946],[97.7821,4.5758,50.9275],[97.7814,4.5717,53.7814],[97.7802,4.5706,97.3915],[97.7765,4.5727,104.6857],[97.7737,4.5687,58.1626],[97.7726,4.5641,29.7364],[97.776,4.5627,32.9759],[97.7747,4.563,32.9759],[97.7734,4.5592,29.8924],[97.7739,4.5569,33.1143],[97.7679,4.556,44.4069],[97.7684,4.5533,29.1787],[97.766,4.5532,23.46],[97.7668,4.5519,25.6571],[97.7644,4.5478,35.4393],[97.7622,4.5492,25.6909],[97.7617,4.5467,34.5199],[97.7601,4.5465,34.065],[97.7575,4.5481,27.0115],[97.759,4.5457,34.065],[97.7571,4.5459,27.7539],[97.7577,4.5433,26.7566],[97.754,4.5427,30.6224],[97.7545,4.5411,26.7979],[97.7486,4.5282,30.9102],[97.7502,4.5248,35.6562],[97.7485,4.5214,29.4235],[97.7513,4.5176,33.2546],[97.7487,4.5102,39.8613],[97.7522,4.5021,61.5494],[97.7576,4.4963,61.2511],[97.7583,4.4929,36.76],[97.7588,4.4592,55.8721],[97.7646,4.4098,77.5958],[97.7658,4.3826,68.5247],[97.7601,4.3651,50.6366],[97.7669,4.3583,32.3228],[97.7722,4.3472,33.011],[97.7826,4.3434,27.3147],[97.7934,4.3459,80.5071],[97.7967,4.3446,62.8192],[97.8,4.3482,90.6837],[97.8042,4.3477,68.7234],[97.8056,4.3456,101.6446],[97.814,4.3464,99.7934],[97.816,4.352,116.3588],[97.8149,4.3554,128.4886],[97.8184,4.3624,172.0405],[97.8236,4.3639,78.3249],[97.8238,4.3657,72.4298],[97.8295,4.3685,67.704],[97.8323,4.3731,89.1867],[97.8364,4.3729,66.6],[97.8474,4.3793,49.029],[97.8493,4.3826,49.563],[97.8509,4.3814,86.2148],[97.8531,4.3868,57.5583],[97.8554,4.3866,81.8649],[97.8544,4.3915,58.2729],[97.8581,4.3907,92.1177],[97.8594,4.3879,70.2749],[97.8614,4.3885,94.1767]]]]}}