{"type":"Feature","properties":{"GID_3":"IDN.13.7.7_1","GID_0":"IDN","country":"Indonesia","GID_1":"IDN.13_1","province":"KalimantanSelatan","NL_NAME_1":"NA","GID_2":"IDN.13.7_1","county":"HuluSungaiTengah","NL_NAME_2":"NA","city":"Haruyan","VARNAME_3":"NA","NL_NAME_3":"NA","TYPE_3":"Kecamatan","ENGTYPE_3":"Sub-district","CC_3":"6307010","HASC_3":"NA","name":"Haruyan.city"},
"geometry":{"type": "MultiPolygon","coordinates": [[[[115.4145,-2.7664,199.2336],[115.419,-2.7672,233.4511],[115.424,-2.744,147.1924],[115.4287,-2.7319,149.87],[115.4288,-2.7277,157.277],[115.4254,-2.7238,139.0981],[115.4248,-2.7205,134.2082],[115.43,-2.7123,148.49],[115.4267,-2.7032,242.3943],[115.4278,-2.6984,281.798],[115.4186,-2.6811,114.3037],[115.4165,-2.674,103.5923],[115.4157,-2.666,96.0856],[115.4185,-2.6526,78.7649],[115.4178,-2.6455,69.6473],[115.4077,-2.6418,52.166],[115.3989,-2.6483,176.2703],[115.3934,-2.649,27.8146],[115.384,-2.6466,15.8435],[115.3783,-2.6476,14.6326],[115.3743,-2.6503,13.3204],[115.3661,-2.6647,13.6564],[115.3665,-2.6691,13.0976],[115.3703,-2.6747,28.4441],[115.3711,-2.6791,26.6865],[115.365,-2.6835,31.724],[115.3589,-2.6831,26.738],[115.3399,-2.6574,17.922],[115.3341,-2.6565,13.8295],[115.3321,-2.6577,17.7528],[115.3304,-2.6635,9.7724],[115.3216,-2.668,8.3001],[115.3183,-2.6753999999999998,14.4977],[115.3091,-2.6813,6.5619],[115.2954,-2.6819,6.883],[115.2904,-2.6869,4.9054],[115.2922,-2.6939,5.3982],[115.3033,-2.6991,9.2308],[115.3161,-2.7019,11.9479],[115.3209,-2.7001,10.0421],[115.3248,-2.7007,10.4362],[115.3289,-2.7021,19.0234],[115.3473,-2.7156,30.5338],[115.3586,-2.7168,20.9396],[115.3696,-2.7304,150.5355],[115.3777,-2.744,109.6571],[115.3999,-2.7478,125.0694],[115.4032,-2.7537,157.0581],[115.4026,-2.7575,156.8164],[115.4058,-2.76,164.3168],[115.4097,-2.7666,212.5832],[115.4145,-2.7664,199.2336]]]]}}