{"type":"Feature","properties":{"GID_3":"IDN.8.4.8_1","GID_0":"IDN","country":"Indonesia","GID_1":"IDN.8_1","province":"Jambi","NL_NAME_1":"NA","GID_2":"IDN.8.4_1","county":"Kerinci","NL_NAME_2":"NA","city":"GunungRaya","VARNAME_3":"NA","NL_NAME_3":"NA","TYPE_3":"Kecamatan","ENGTYPE_3":"Sub-district","CC_3":"1501010","HASC_3":"NA","name":"Gunung_Raya.city"},
"geometry":{"type": "MultiPolygon","coordinates": [[[[101.5453,-2.4413,1066.5139],[101.5577,-2.4501,1525.0312],[101.5598,-2.4431,1477.8425],[101.5607,-2.4222,1638.72],[101.5594,-2.4167,1750.8252],[101.5536,-2.4115,1899.6843],[101.5502,-2.4059,1793.5132],[101.5559,-2.3679,1596.696],[101.5552,-2.3639,1500.0737],[101.5506,-2.3588,1647.7864],[101.5499,-2.3518,1521.1002],[101.5705,-2.3555,1514.8129],[101.5824,-2.3612,1487.0013],[101.587,-2.3603,1594.6029],[101.595,-2.3614,1565.1149],[101.5987,-2.345,1627.9822],[101.5984,-2.3368,1879.0603],[101.6023,-2.3341,1986.8605],[101.609,-2.3343,1920.2917],[101.6171,-2.3321,1741.9578],[101.6208,-2.3335,1733.3268],[101.6271,-2.3468,1562.0488],[101.6395,-2.3509,1647.4908],[101.6444,-2.3496,1674.5938],[101.6471,-2.3437,1691.4946],[101.6512,-2.3422,1713.2268],[101.666,-2.3458,1463.7214],[101.6778,-2.3406,1347.5619],[101.6912,-2.3459,1248.9453],[101.6962,-2.3457,1209.1903],[101.7101,-2.3358,962.9269],[101.7186,-2.3276,887.8453],[101.7205,-2.3241,835.3026],[101.7222,-2.3102,769.3875],[101.7268,-2.3046,728.8984],[101.7349,-2.2996,708.0584],[101.7428,-2.2903,692.7539],[101.7466,-2.2818,722.2065],[101.7443,-2.265,707.6478],[101.7482,-2.261,677.636],[101.7481,-2.2499,743.5964],[101.754,-2.2467,723.54],[101.7583,-2.2467,706.1939],[101.7663,-2.2377,652.8637],[101.7741,-2.2227,605.4608],[101.7708,-2.2201,595.9392],[101.7732,-2.2168,578.3955],[101.7752,-2.2052,561.3423],[101.7833,-2.1971,526.722],[101.7961,-2.1965,398.7656],[101.8092,-2.1821,349.1848],[101.8049,-2.1799,324.8206],[101.787,-2.1845,314.7427],[101.7763,-2.1914,347.3925],[101.7715,-2.1974,330.15],[101.7624,-2.2,378.092],[101.7609,-2.2168,380.5791],[101.7539,-2.2331,461.3694],[101.7501,-2.2391,447.8862],[101.7372,-2.2427,494.8192],[101.7369,-2.2513,576.7955],[101.731,-2.2547,627.7598],[101.7211,-2.254,658.9613],[101.7164,-2.2518,725.5247],[101.7133,-2.2487,695.5164],[101.7011,-2.2428,722.4833],[101.6957,-2.2339,723.9472],[101.6814,-2.2363,754.6872],[101.6784,-2.2334,760.019],[101.6784,-2.2268,706.6412],[101.6724,-2.2204,763.3227],[101.6699,-2.2147,744.0511],[101.6623,-2.2099,775.9429],[101.6462,-2.2046,789.7242],[101.6312,-2.2072,743.5933],[101.6225,-2.2027,813.9106],[101.6071,-2.2071,878.7957],[101.5942,-2.2086,855.9001],[101.5417,-2.2007,1058.5692],[101.5195,-2.1944,868.3815],[101.5126,-2.2012,981.6155],[101.4712,-2.2438,1315.4775],[101.448,-2.288,1005.5522],[101.4165,-2.3226,713.5955],[101.392,-2.3432,552.7852],[101.3886,-2.3488,511.6915],[101.4153,-2.366,491.8677],[101.419,-2.3699,748.9803],[101.4365,-2.3744,830.2414],[101.4486,-2.3867,455.5295],[101.4851,-2.4098,767.3011],[101.5453,-2.4413,1066.5139]]]]}}