{"type":"Feature","properties":{"GID_3":"IDN.32.22.2_1","GID_0":"IDN","country":"Indonesia","GID_1":"IDN.32_1","province":"SumateraUtara","NL_NAME_1":"NA","GID_2":"IDN.32.22_1","county":"PadangLawas","NL_NAME_2":"NA","city":"Barumun","VARNAME_3":"NA","NL_NAME_3":"NA","TYPE_3":"Kecamatan","ENGTYPE_3":"Sub-district","CC_3":"1221030","HASC_3":"NA","name":"Barumun.city"},
"geometry":{"type": "MultiPolygon","coordinates": [[[[99.7306,0.8935,1944.0272],[99.7327,0.8934,1912.1255],[99.7344,0.8974,1839.4218],[99.7422,0.8992,1765.7427],[99.7481,0.9031,1674.6536],[99.7408,0.9184,1283.9366],[99.7403,0.924,1001.4169],[99.7464,0.9289,896.2961],[99.7497,0.9453,507.257],[99.7663,0.9679,315.0197],[99.7719,0.9812,264.5464],[99.7693,0.9884,260.9059],[99.7634,0.9945,254.1676],[99.7642,1.0005,225.5929],[99.7719,1.0201,200.4024],[99.7846,1.0364,180.5316],[99.7876,1.0438,178.334],[99.7956,1.0541,160.8649],[99.7857,1.0586,164.4058],[99.753,1.0553,178.5369],[99.7444,1.0642,159.5734],[99.7299,1.0663,143.7201],[99.7268,1.0704,142.9451],[99.7297,1.0782,140.01],[99.727,1.0887,137.8487],[99.724,1.0902,138.1823],[99.71,1.0797,152.5446],[99.7045,1.0729,159.6213],[99.6996,1.0717,159.8349],[99.6967,1.0659,166.5801],[99.6946,1.0656,165.1609],[99.6941,1.0514,170.0721],[99.6895,1.0511,177.5774],[99.6877,1.0466,192.0458],[99.6735,1.0348,296.9261],[99.6634,1.0352,387.8645],[99.6598,1.0324,384.6279],[99.6558,1.0241,519.9521],[99.6495,1.018,600.0283],[99.6424,1.0029,1100.6628],[99.6271,0.9919,897.8394],[99.6261,0.9877,915.4236],[99.622,0.9884,984.0056],[99.6199,0.986,974.2632],[99.62,0.9805,1010.2659],[99.618,0.9792,994.4014],[99.6171,0.9757,985.1705],[99.6136,0.9733,1039.9113],[99.6124,0.9703,1080.332],[99.6072,0.9686,1058.5366],[99.6074,0.9658,1084.718],[99.5996,0.9589,1342.937],[99.5984,0.9561,1430.541],[99.6015,0.9509,1458.257],[99.6145,0.9495,1648.3265],[99.6243,0.9441,1882.183],[99.6257,0.942,1872.3425],[99.6254,0.9363,1689.0603],[99.6299,0.9311,1506.288],[99.6357,0.9273,1599.2635],[99.6402,0.9202,1676.1851],[99.6432,0.9191,1668.1576],[99.6505,0.9194,1636.7654],[99.6606,0.9282,1738.8755],[99.6692,0.9274,1683.4963],[99.676,0.9318,1654.6284],[99.6897,0.9331,1861.9926],[99.7006,0.9268,1839.4026],[99.7128,0.9147,1851.9901],[99.7132,0.9063,1674.0654],[99.7186,0.9023,1905.2839],[99.7214,0.8954,1820.1947],[99.7306,0.8935,1944.0272]]]]}}