{"type":"Feature","properties":{"GID_3":"IDN.19.5.8_1","GID_0":"IDN","country":"Indonesia","GID_1":"IDN.19_1","province":"Maluku","NL_NAME_1":"NA","GID_2":"IDN.19.5_1","county":"MalukuBaratDaya","NL_NAME_2":"NA","city":"Pp.Wetar","VARNAME_3":"NA","NL_NAME_3":"NA","TYPE_3":"Kecamatan","ENGTYPE_3":"Sub-district","CC_3":"8108010","HASC_3":"NA","name":"Pp.Wetar.city"},
"geometry":{"type": "MultiPolygon","coordinates": [[[[125.7424,-7.9822,10.9188],[125.7405,-7.9798,34.4041],[125.7418,-7.9782,1.3049],[125.7304,-7.9629,0.0],[125.7258,-7.9652,0.0],[125.7245,-7.9679,0.0],[125.7238,-7.9715,0.0],[125.7255,-7.9731,0.0],[125.7244,-7.975,0.0],[125.7185,-7.9781,0.0],[125.7247,-7.983,0.0],[125.7258,-7.9946,0.0],[125.7226,-8.0057,0.0],[125.7264,-8.0186,0.0],[125.7274,-8.0275,0.0],[125.7257,-8.0452,0.0],[125.7286,-8.0553,0.0],[125.731,-8.0549,0.0],[125.7399,-8.0394,129.2089],[125.7427,-8.0382,129.5715],[125.7426,-8.0348,143.6467],[125.7475,-8.0261,89.497],[125.7495,-8.0231,79.0118],[125.7536,-8.021,54.7487],[125.7547,-8.015,81.2507],[125.7579,-8.0126,79.462],[125.755,-8.0036,104.0797],[125.7571,-7.9945,76.3911],[125.7532,-7.9891,0.0],[125.7458,-7.9863,4.8864],[125.7424,-7.9822,10.9188]]],
[[[125.7453,-7.9677,0.0],[125.7485,-7.9676,5.2282],[125.7486,-7.9658,0.0],[125.7427,-7.9639,0.0],[125.7412,-7.9757999999999996,3.0763],[125.7473,-7.9828,5.0356],[125.7499,-7.9835,0.0],[125.7467,-7.978,35.5087],[125.744,-7.9776,0.0],[125.7496,-7.9751,8.5676],[125.7475,-7.9744,25.5058],[125.7467,-7.9707,21.6321],[125.7444,-7.9709,0.0],[125.7453,-7.9677,0.0]]],
[[[125.7333,-7.943,0.0],[125.736,-7.949,0.0],[125.7407,-7.9491,0.0],[125.7432,-7.9467,0.0],[125.7441,-7.9239,0.0],[125.7396,-7.9243,0.0],[125.7373,-7.9282,0.0],[125.7333,-7.943,0.0]]],
[[[125.8029,-8.0001,214.7833],[125.8123,-7.9916,227.4223],[125.8216,-7.9893,263.8498],[125.828,-7.9908,117.2715],[125.83,-7.9857,77.6432],[125.8363,-7.9831,88.5008],[125.8453,-7.9822,27.5443],[125.852,-7.9761,87.2915],[125.8573,-7.9769,18.0523],[125.8645,-7.9745,84.1197],[125.8696,-7.9624,27.6493],[125.879,-7.9549,101.253],[125.882,-7.9504,55.8411],[125.8916,-7.947,159.345],[125.9021,-7.9457,84.3739],[125.9068,-7.941,94.6039],[125.917,-7.9396,29.9872],[125.9214,-7.941,30.7697],[125.9242,-7.9342,161.2987],[125.9309,-7.9291,104.9439],[125.9328,-7.9243,104.0812],[125.939,-7.9215,56.2851],[125.9415,-7.9162,129.3486],[125.945,-7.9141,145.5804],[125.9506,-7.9133,6.8789],[125.9527,-7.9167,0.0],[125.9586,-7.9153,63.6258],[125.967,-7.9184,0.0],[125.9775,-7.9193,30.3949],[125.9804,-7.9186,46.1348],[125.9853,-7.9106,29.5664],[125.9881,-7.9087,18.6595],[125.9952,-7.9064,45.6243],[125.9993,-7.9067,0.0],[126.0129,-7.9016,2.2231],[126.0205,-7.9018,0.0],[126.0254,-7.9001,1.9523],[126.0283,-7.8963,4.2271],[126.0464,-7.8938,5.6904],[126.0589,-7.8908,28.4002],[126.0624,-7.8885,21.7872],[126.0659,-7.8895,10.4264],[126.0704,-7.8879,35.751],[126.0735,-7.8897,0.0],[126.0865,-7.8889,16.4632],[126.0999,-7.8921,4.4283],[126.1041,-7.8948,0.0],[126.1242,-7.8936,0.0],[126.1285,-7.8915,0.0],[126.1329,-7.8925,3.963],[126.142,-7.8999,0.0],[126.1498,-7.9001,0.0],[126.1641,-7.9105,0.0],[126.1684,-7.9196,0.0],[126.1738,-7.926,0.5623],[126.19,-7.927,0.0],[126.1984,-7.9257,0.0],[126.2253,-7.9292,1.2404],[126.252,-7.9211,4.7792],[126.2632,-7.9215,0.0],[126.2875,-7.9179,12.2064],[126.2945,-7.9231,0.0],[126.2979,-7.9229,0.0],[126.3121,-7.9167,0.0],[126.3337,-7.915,2.0898],[126.3474,-7.9237,1.9323],[126.3575,-7.9255,10.716],[126.3711,-7.935,0.0],[126.3833,-7.9327,10.5916],[126.3896,-7.9363,0.0],[126.3943,-7.9359,0.0],[126.4077,-7.9287,19.2318],[126.4147,-7.9309,7.4721],[126.4254,-7.9308,17.504],[126.4317,-7.9379,33.1045],[126.4471,-7.9495,52.0181],[126.4633,-7.9703,15.2138],[126.4694,-7.9743,4.0218],[126.4778,-7.9701,0.0],[126.494,-7.946,0.0],[126.5028,-7.9268,0.0],[126.503,-7.9229,0.0],[126.5014,-7.9211,0.0],[126.5067,-7.9178,0.0],[126.5071,-7.9161,0.0],[126.5016,-7.9092,0.0],[126.5018,-7.9057,0.0],[126.5111,-7.89,0.0],[126.5167,-7.8855,0.0],[126.5249,-7.8581,0.0],[126.5276,-7.8557,0.0],[126.5406,-7.8516,0.0],[126.5503,-7.8338,0.0],[126.5526,-7.824,0.0],[126.5543,-7.8224,0.0],[126.5593,-7.8207,0.0],[126.5662,-7.8152,0.0],[126.5825,-7.8135,0.0],[126.5851,-7.8081,0.0],[126.5882,-7.806,8.8927],[126.597,-7.8074,0.0],[126.6079,-7.793,0.0],[126.6192,-7.7916,0.0],[126.6233,-7.7884,0.0],[126.6262,-7.7831,0.0],[126.6313,-7.7832,0.0],[126.6547,-7.7755,43.2523],[126.6647,-7.778,0.0],[126.6694,-7.772,0.0],[126.6768,-7.7673,0.0],[126.6792,-7.7636,0.0],[126.6878,-7.7618,0.0],[126.6964,-7.7564,0.0],[126.7,-7.7514,2.9704],[126.706,-7.7527,0.6022],[126.7116,-7.7517,0.0],[126.7154,-7.7469,2.3109],[126.7241,-7.7419,110.756],[126.7352,-7.7457,59.3037],[126.7492,-7.7437,144.5618],[126.7558,-7.7456,132.4932],[126.7584,-7.749,0.0],[126.7674,-7.7495,0.0],[126.804,-7.7452,0.0],[126.8188,-7.7555,0.0],[126.8282,-7.7527,0.0],[126.8331,-7.7458,0.0],[126.8435,-7.737,0.0],[126.8438,-7.7347,0.0],[126.8237,-7.6883,26.4538],[126.8115,-7.6823,6.1057],[126.8102,-7.6798,0.0],[126.8189,-7.662,0.0],[126.8162,-7.6574,0.0],[126.8116,-7.6563,1.1184],[126.8025,-7.661,41.1079],[126.7916,-7.6604,100.4349],[126.7854,-7.6626,8.6306],[126.7793,-7.6593,1.6272],[126.7535,-7.657,0.0],[126.749,-7.6601,80.3442],[126.7407,-7.6598,0.0],[126.7372,-7.6637,111.885],[126.7309,-7.6665,20.3906],[126.7266,-7.6663,0.0],[126.7181,-7.654,0.0],[126.716,-7.6438,0.0],[126.7103,-7.6405,0.0],[126.7033,-7.6421,29.9002],[126.7003,-7.6407,0.0],[126.695,-7.6339,0.0],[126.693,-7.6243,0.0],[126.6895,-7.6214,0.0],[126.6847,-7.6201,0.0],[126.673,-7.6217,29.7984],[126.6694,-7.6197,0.0],[126.6664,-7.6136,0.0],[126.6562,-7.6115,3.322],[126.651,-7.6061,0.0],[126.6478,-7.607,1.8936],[126.6439,-7.6057,0.0],[126.6387,-7.5977,0.0],[126.6367,-7.5859,0.0],[126.643,-7.5706,0.0],[126.6423,-7.565,0.0],[126.638,-7.5595,0.0],[126.6276,-7.5573,12.963],[126.617,-7.5593,83.8685],[126.6116,-7.5642,143.3936],[126.6051,-7.567,67.0047],[126.5999,-7.5734,178.0234],[126.5943,-7.5715,0.0],[126.5906,-7.5736,96.928],[126.5876,-7.5726,49.8647],[126.5834,-7.5756,24.0289],[126.5763,-7.5748,8.254],[126.5738,-7.5722,0.0],[126.567,-7.5726,7.9289],[126.5584,-7.5762,21.7044],[126.5526,-7.5754,15.6734],[126.5505,-7.5734,0.0],[126.5431,-7.5729,2.3603],[126.5379,-7.5771,153.3181],[126.5329,-7.5778,36.3486],[126.5271,-7.5841,170.0537],[126.5206,-7.5856,35.7976],[126.5168,-7.5847,20.0964],[126.5121,-7.5886,101.8801],[126.5066,-7.5905,116.9428],[126.5,-7.5862,0.0],[126.4962,-7.5901,61.2461],[126.4799,-7.5885,0.0],[126.473,-7.5936,107.558],[126.4709,-7.5985,167.3191],[126.4712,-7.6027,116.6463],[126.465,-7.6145,160.085],[126.4541,-7.6244,112.6706],[126.4405,-7.6306,9.6673],[126.4361,-7.6317,0.0],[126.432,-7.6304,0.0],[126.4256,-7.6315,6.879],[126.4227,-7.6335,10.7877],[126.4193,-7.6319,0.0],[126.4177,-7.6253,0.0],[126.4144,-7.6235,0.0],[126.4063,-7.6279,98.0635],[126.3997,-7.6364,12.1501],[126.3816,-7.6367,7.3019],[126.3805,-7.6389,31.3098],[126.3812,-7.655,88.3454],[126.3717,-7.6678,75.583],[126.3623,-7.6748,68.23],[126.3551,-7.6742,0.0],[126.3492,-7.676,9.0162],[126.3438,-7.6809,4.7338],[126.3403,-7.6816,7.7055],[126.3285,-7.6954,100.2234],[126.299,-7.6928,0.0],[126.2921,-7.6953,105.7068],[126.2864,-7.6953,16.7555],[126.2787,-7.6895,0.0],[126.2682,-7.6894,8.6474],[126.2602,-7.6922,111.0334],[126.2566,-7.6882,0.0],[126.2516,-7.6864,6.7167],[126.2464,-7.6888,78.1795],[126.2402,-7.6875,0.0],[126.2359,-7.6931,167.2843],[126.2324,-7.6937,9.5603],[126.2269,-7.6976,18.6107],[126.2182,-7.7066,16.8782],[126.201,-7.7142,29.5011],[126.2014,-7.7172,100.1332],[126.1995,-7.7199,20.4089],[126.1944,-7.7248,8.7597],[126.1881,-7.7275,7.7501],[126.177,-7.727,4.1922],[126.1701,-7.7229,0.0],[126.1604,-7.7211,0.0],[126.1473,-7.7251,23.2369],[126.1452,-7.7225,0.0],[126.1338,-7.7174,0.0],[126.1238,-7.7168,4.5618],[126.1179,-7.7111,0.0],[126.1091,-7.711,0.0],[126.1067,-7.7071,0.0],[126.0983,-7.7079,7.5792],[126.0972,-7.7052,0.0],[126.0926,-7.7028,0.0],[126.0832,-7.7078,24.8279],[126.0685,-7.7058,0.0],[126.0634,-7.6983,0.0],[126.0512,-7.6935,8.5748],[126.0469,-7.6932,39.7777],[126.0352,-7.698,82.6429],[126.0311,-7.6934,0.0],[126.0261,-7.6927,0.0],[126.0236,-7.6818,0.0],[126.0182,-7.6755,0.0],[126.0146,-7.6745,4.3465],[126.0087,-7.6806,44.813],[126.0024,-7.6811,1.7699],[125.9968,-7.6764,0.0],[125.9936,-7.669,0.0],[125.9919,-7.6681,8.629],[125.9926,-7.6658,0.0],[125.9888,-7.6612,0.0],[125.9896,-7.6593,0.0],[125.9865,-7.6574,0.0],[125.9864,-7.6556,0.0],[125.9847,-7.6567,0.0],[125.974,-7.6536,16.4336],[125.9734,-7.6556,45.5905],[125.9609,-7.663,14.243],[125.9559,-7.6641,16.9564],[125.95,-7.6619,9.3975],[125.9478,-7.6631,70.2511],[125.9365,-7.6777,1.5908],[125.9346,-7.6827,6.3532],[125.9356,-7.6898,6.0973],[125.9321,-7.6949,14.5395],[125.9315,-7.6997,5.4063],[125.9259,-7.7089,7.3446],[125.9241,-7.7094,0.0],[125.9244,-7.713,7.0219],[125.9115,-7.7339,0.0],[125.9111,-7.7353,0.0],[125.9153,-7.74,1.572],[125.9174,-7.7401,7.869],[125.9154,-7.7407,1.572],[125.9146,-7.7442,2.0368],[125.897,-7.7492,0.0],[125.8936,-7.7531,0.0],[125.8932,-7.7563,0.0],[125.8793,-7.7602,0.0],[125.8739,-7.7643,0.0],[125.8669,-7.7635,0.0],[125.8624,-7.7658,0.0],[125.862,-7.7713,4.2754],[125.8577,-7.7785,0.0],[125.8707,-7.7889,46.3785],[125.8742,-7.7952,0.0],[125.8728,-7.8034,0.0],[125.87,-7.8083,0.0],[125.87,-7.8127,1.9003],[125.86279999999999,-7.8141,0.0],[125.8591,-7.819,0.0],[125.8557,-7.8194,0.0],[125.8482,-7.8254,0.0],[125.8418,-7.8332,0.0],[125.8358,-7.8341,0.0],[125.8323,-7.8393,0.0],[125.8265,-7.8424,0.0],[125.826,-7.8445,0.0],[125.8282,-7.8483,2.1195],[125.8265,-7.8509,0.0],[125.8244,-7.8521,0.0],[125.818,-7.8513,1.9784],[125.8171,-7.8502,0.0],[125.8194,-7.8505,0.0],[125.8151,-7.8488,0.0],[125.8041,-7.8598,0.0],[125.8098,-7.8696,4.6229],[125.8107,-7.8754,0.0],[125.8141,-7.8793,5.9364],[125.813,-7.8834,0.0],[125.8161,-7.89,0.0],[125.8155,-7.8953,0.0],[125.8229,-7.9026,1.0722],[125.8239,-7.9118,0.0],[125.8207,-7.9197,0.0],[125.8191,-7.9395,0.0],[125.8148,-7.9552,0.0],[125.80029999999999,-7.9766,0.0],[125.7882,-7.9868,0.0],[125.7834,-8.0041,0.0],[125.7923,-8.0138,0.0],[125.795,-8.014,3.0778],[125.8008,-8.0116,122.8985],[125.8029,-8.0001,214.7833]]],
[[[125.9297,-7.6598,0.0],[125.9275,-7.6586,0.0],[125.9108,-7.6677,0.0],[125.9091,-7.674,39.0025],[125.9114,-7.6776,11.8462],[125.9202,-7.6779,21.903],[125.9322,-7.6723,0.0],[125.9331,-7.6664,0.0],[125.9297,-7.6598,0.0]]]]}}