{"type":"Feature","properties":{"GID_3":"IDN.19.5.2_1","GID_0":"IDN","country":"Indonesia","GID_1":"IDN.19_1","province":"Maluku","NL_NAME_1":"NA","GID_2":"IDN.19.5_1","county":"MalukuBaratDaya","NL_NAME_2":"NA","city":"Damer","VARNAME_3":"NA","NL_NAME_3":"NA","TYPE_3":"Kecamatan","ENGTYPE_3":"Sub-district","CC_3":"8108050","HASC_3":"NA","name":"Damer.city"},
"geometry":{"type": "MultiPolygon","coordinates": [[[[128.5601,-7.3693,99.9764],[128.557,-7.3688,102.278],[128.5525,-7.3792,13.5858],[128.5564,-7.3892,0.0],[128.5594,-7.3905,0.0],[128.5634,-7.3886,0.0],[128.5673,-7.3762,0.0],[128.5654,-7.3716,34.4861],[128.5617,-7.3722,97.9431],[128.5618,-7.3758,93.91],[128.559,-7.3754,73.6226],[128.5567,-7.3731,79.9229],[128.559,-7.3727,94.8803],[128.5601,-7.3693,99.9764]]],
[[[128.5622,-7.3161,6.2892],[128.5691,-7.3052,0.0],[128.5679,-7.3004,12.2672],[128.5619,-7.2961,65.6071],[128.554,-7.3101,0.0],[128.5585,-7.3249,0.0],[128.5624,-7.3228,0.0],[128.5622,-7.3161,6.2892]]],
[[[128.3976,-7.2352,0.0],[128.3989,-7.2333,0.0],[128.3981,-7.2317,0.0],[128.3964,-7.2328,0.0],[128.3976,-7.2352,0.0]]],
[[[128.3947,-7.2328,0.0],[128.3943,-7.2316,0.0],[128.3904,-7.231,0.0],[128.393,-7.2334,0.0],[128.3947,-7.2328,0.0]]],
[[[128.6523,-7.0992,70.4119],[128.6471,-7.0943,113.0644],[128.6407,-7.0836,203.7295],[128.6366,-7.0804,58.7524],[128.6319,-7.0795,52.1585],[128.6255,-7.0732,128.2779],[128.6183,-7.0726,83.1694],[128.6143,-7.0683,97.0193],[128.6046,-7.0655,0.4033],[128.5999,-7.0691,41.1487],[128.5919,-7.0712,39.0388],[128.5913,-7.0691,0.0],[128.5892,-7.0696,1.0693],[128.5806,-7.0769,0.0],[128.5784,-7.0813,34.5255],[128.5428,-7.1114,96.8054],[128.5231,-7.1304,0.0],[128.518,-7.1376,0.0],[128.5179,-7.1481,0.0],[128.5326,-7.1664,0.0],[128.5374,-7.1693,0.0],[128.5406,-7.1694,0.0],[128.549,-7.1639,1.0629],[128.5534,-7.1637,1.8548],[128.5578,-7.1683,0.0],[128.558,-7.1716,0.0],[128.5625,-7.1742,0.0],[128.5657,-7.1795,0.0],[128.5681,-7.1796,0.0],[128.5683,-7.1773,0.0],[128.5779,-7.1826,0.0],[128.5922,-7.1975,0.0],[128.6117,-7.2116,0.0],[128.6323,-7.2207,0.0],[128.6447,-7.2224,0.0],[128.6485,-7.2216,0.0],[128.6505,-7.2206,0.0],[128.6558,-7.2113,0.0],[128.6557,-7.2054,0.0],[128.6611,-7.1959,0.0],[128.6652,-7.193,0.0],[128.6665,-7.1889,0.0],[128.688,-7.1655,80.9336],[128.6853,-7.1635,125.4021],[128.6744,-7.1686,111.7332],[128.6664,-7.1641,73.3937],[128.6541,-7.1501,175.3706],[128.6526,-7.1475,137.7644],[128.6536,-7.1409,10.1103],[128.6599,-7.1421,0.0],[128.6613,-7.1459,0.0],[128.6643,-7.1466,0.0],[128.6817,-7.141,0.0],[128.6957,-7.1281,0.0],[128.6985,-7.1169,77.6761],[128.696,-7.1136,205.2571],[128.6962,-7.1084,131.9474],[128.6938,-7.106,70.6994],[128.6765,-7.0997,117.4905],[128.6755,-7.0974,66.3601],[128.6614,-7.0959,0.0],[128.6582,-7.1003,98.2887],[128.6523,-7.0992,70.4119]]]]}}