{"type":"Feature","properties":{"GID_3":"IDN.23.26.4_1","GID_0":"IDN","country":"Indonesia","GID_1":"IDN.23_1","province":"Papua","NL_NAME_1":"NA","GID_2":"IDN.23.26_1","county":"Tolikara","NL_NAME_2":"NA","city":"Bokoneri","VARNAME_3":"NA","NL_NAME_3":"NA","TYPE_3":"Distrik","ENGTYPE_3":"District","CC_3":"9418031","HASC_3":"NA","name":"Bokoneri.city"},
"geometry":{"type": "MultiPolygon","coordinates": [[[[138.6125,-3.7099,1872.8728],[138.6008,-3.7231,2001.3467],[138.6522,-3.7225,1733.3335],[138.6594,-3.708,1996.2048],[138.6611,-3.7078,1916.9592],[138.6596,-3.6942,1835.0989],[138.6606,-3.6785,1266.0754],[138.6669,-3.6756,1248.9254],[138.6699,-3.6638,1782.7697],[138.6689,-3.6462,1917.1952],[138.6732,-3.6357,1479.7401],[138.6914,-3.631,1203.6755],[138.6909,-3.6099,1715.1672],[138.6875,-3.5913,1388.8806],[138.6772,-3.5874,1484.9476],[138.6694,-3.5938,1456.7454],[138.6689,-3.5849,1523.5173],[138.662,-3.5864,1627.0591],[138.664,-3.6197,1933.5284],[138.6576,-3.6251,1958.1794],[138.6513,-3.6227,2075.4248],[138.6424,-3.6237,2253.8323],[138.6366,-3.6403,2089.3196],[138.637,-3.6678,1531.2455],[138.6414,-3.6781,1454.6239],[138.6317,-3.6741,1511.2684],[138.6184,-3.6766,1737.5184],[138.6086,-3.6751,1884.0446],[138.5945,-3.7047,2264.7732],[138.5988,-3.7084,2144.1428],[138.6125,-3.7099,1872.8728]]]]}}