{"type":"Feature","properties":{"GID_3":"IDN.21.4.8_1","GID_0":"IDN","country":"Indonesia","GID_1":"IDN.21_1","province":"NusaTenggaraTimur","NL_NAME_1":"NA","GID_2":"IDN.21.4_1","county":"FloresTimur","NL_NAME_2":"NA","city":"Ilebura","VARNAME_3":"NA","NL_NAME_3":"NA","TYPE_3":"Kecamatan","ENGTYPE_3":"Sub-district","CC_3":"5309012","HASC_3":"NA","name":"Ilebura.city"},
"geometry":{"type": "MultiPolygon","coordinates": [[[[122.846,-8.6046,0.0],[122.8462,-8.6028,3.2115],[122.8448,-8.6023,3.2115],[122.844,-8.6033,0.0],[122.846,-8.6046,0.0]]],
[[[122.8149,-8.5972,0.8807],[122.8194,-8.5965,0.0],[122.8221,-8.5936,11.3648],[122.8318,-8.5891,29.0032],[122.8315,-8.5839,29.3502],[122.8419,-8.5715,10.9373],[122.8412,-8.5695,34.8852],[122.8446,-8.5622,0.0],[122.8422,-8.56,4.3219],[122.8431,-8.5557,0.0],[122.8417,-8.552,31.5541],[122.8435,-8.5474,0.0],[122.8422,-8.5425,0.0],[122.8381,-8.5296,1.4911],[122.8325,-8.5213,10.2242],[122.8321,-8.5178,0.0],[122.8266,-8.5158,0.0],[122.8217,-8.5091,0.0],[122.8126,-8.5012,0.0],[122.7986,-8.4942,11.1676],[122.7965,-8.4869,9.5248],[122.7902,-8.4843,4.8745],[122.7909,-8.4812,0.0],[122.7883,-8.4788,51.8322],[122.7846,-8.4619,0.0],[122.7797,-8.4585,12.3228],[122.7769,-8.4599,68.776],[122.7727,-8.459,151.6239],[122.7698,-8.4616,282.2313],[122.769,-8.4684,494.5582],[122.7627,-8.4747,848.3223],[122.7518,-8.5,307.4004],[122.7486,-8.5039,291.18],[122.741,-8.5075,287.7611],[122.7374,-8.5117,303.513],[122.7392,-8.5149,326.8749],[122.7328,-8.5196,307.3258],[122.7511,-8.5231,727.3339],[122.7553,-8.5389,925.422],[122.7667,-8.5387,1550.2924],[122.7802,-8.5519,1609.6401],[122.7744,-8.5646,1208.561],[122.7679,-8.5682,763.7842],[122.7645,-8.5745,608.6632],[122.7651,-8.5828,404.8028],[122.7589,-8.5899,200.4108],[122.7569,-8.6061,17.7263],[122.7715,-8.6087,0.0],[122.7727,-8.6124,0.0],[122.7784,-8.6105,29.6062],[122.78,-8.6127,0.0],[122.7833,-8.6071,11.8046],[122.7938,-8.6018,8.9896],[122.7966,-8.6011,48.9661],[122.8017,-8.6027,7.6945],[122.8051,-8.5987,4.8808],[122.8102,-8.5963,0.0],[122.8149,-8.5972,0.8807]]]]}}