{"type":"Feature","properties":{"GID_3":"IDN.17.9.6_1","GID_0":"IDN","country":"Indonesia","GID_1":"IDN.17_1","province":"Lampung","NL_NAME_1":"NA","GID_2":"IDN.17.9_1","county":"Pesawaran","NL_NAME_2":"NA","city":"PunduhPidada","VARNAME_3":"NA","NL_NAME_3":"NA","TYPE_3":"Kecamatan","ENGTYPE_3":"Sub-district","CC_3":"1809010","HASC_3":"NA","name":"Punduh_Pidada.city"},
"geometry":{"type": "MultiPolygon","coordinates": [[[[105.3316,-5.8344,0.0],[105.333,-5.8345,0.0],[105.3335,-5.8326,0.0],[105.3322,-5.8334,0.0],[105.3316,-5.8344,0.0]]],
[[[105.3219,-5.8282,0.0],[105.321,-5.8249,0.0],[105.3182,-5.8232,9.416],[105.3111,-5.8266,0.0],[105.3108,-5.8285,0.0],[105.3137,-5.8302,54.1456],[105.3219,-5.8282,0.0]]],
[[[105.3522,-5.8257,0.0],[105.3516,-5.8255,0.0],[105.3512,-5.8263,0.0],[105.3515,-5.8264,0.0],[105.3522,-5.8257,0.0]]],
[[[105.3207,-5.8213,0.0],[105.3216,-5.8212,0.0],[105.3215,-5.8204,0.0],[105.321,-5.8205,0.0],[105.3207,-5.8213,0.0]]],
[[[105.3175,-5.8201,0.0],[105.3176,-5.8195,0.0],[105.3162,-5.8195,0.0],[105.3167,-5.8202,0.0],[105.3175,-5.8201,0.0]]],
[[[105.3453,-5.8259,1.3785],[105.3476,-5.8254,0.0],[105.3487,-5.8226,0.0],[105.3411,-5.8111,0.0],[105.34,-5.8157,9.8488],[105.3411,-5.8223,37.9114],[105.3419,-5.8234,5.9144],[105.3428,-5.822,37.9114],[105.3451,-5.8225,70.6175],[105.3453,-5.8259,1.3785]]],
[[[105.313,-5.8137,0.0],[105.3138,-5.8144,0.0],[105.3142,-5.813,0.0],[105.3131,-5.8127,0.0],[105.313,-5.8137,0.0]]],
[[[105.3322,-5.8059,0.0],[105.3315,-5.8064,0.0],[105.332,-5.8078,0.0],[105.3328,-5.8063,0.0],[105.3322,-5.8059,0.0]]],
[[[105.2909,-5.8422,0.0],[105.2905,-5.8434,0.0],[105.2913,-5.8435,0.0],[105.292,-5.842,0.0],[105.2909,-5.8422,0.0]]],
[[[105.2961,-5.7977,0.0],[105.2927,-5.8039,10.164],[105.2907,-5.7965,3.8626],[105.2927,-5.7925,13.7038],[105.2914,-5.7874,0.0],[105.2883,-5.7906,0.0],[105.2886,-5.7947,29.2903],[105.287,-5.7982,23.0203],[105.2821,-5.7989,0.0],[105.2838,-5.805,7.8875],[105.2791,-5.8128,0.0],[105.2724,-5.8152,5.3758],[105.2714,-5.8098,4.8414],[105.2735,-5.8059,5.4938],[105.271,-5.8051,0.0],[105.2641,-5.8151,13.4072],[105.2592,-5.8187,15.9501],[105.2506,-5.8205,0.0],[105.2485,-5.8185,4.8577],[105.2502,-5.8141,0.0],[105.2457,-5.8165,2.7793],[105.2364,-5.8268,66.088],[105.2329,-5.8268,10.7144],[105.2283,-5.8299,37.7862],[105.2324,-5.8307,159.5063],[105.2335,-5.8362,2.0015],[105.2366,-5.8341,48.9961],[105.2487,-5.8328,160.4833],[105.2556,-5.8335,115.6352],[105.2575,-5.836,74.0027],[105.2608,-5.8357,218.1063],[105.2622,-5.8372,73.3761],[105.265,-5.8356,168.584],[105.268,-5.8376,61.8428],[105.2698,-5.8339,225.1649],[105.2723,-5.8351,155.9246],[105.2737,-5.8339,261.9813],[105.2744,-5.8389,0.0],[105.2769,-5.838,18.224],[105.2805,-5.8398,4.8651],[105.2817,-5.8382,48.321],[105.2853,-5.8381,19.5499],[105.2877,-5.8335,47.0995],[105.2888,-5.8344,47.0995],[105.2902,-5.8324,0.0],[105.2882,-5.8285,1.5295],[105.295,-5.8181,4.434],[105.3,-5.8179,65.6698],[105.3031,-5.8205,11.2596],[105.3056,-5.82,2.9404],[105.3057,-5.8183,27.2144],[105.3071,-5.819,7.8627],[105.3063,-5.8161,18.3061],[105.3082,-5.8144,0.0],[105.307,-5.8103,5.9162],[105.2961,-5.7977,0.0]]],
[[[105.2769,-5.8069,0.0],[105.2769,-5.8068,0.0],[105.2768,-5.8068,0.0],[105.2767,-5.807,0.0],[105.2769,-5.8069,0.0]]],
[[[105.2781,-5.806,0.0],[105.278,-5.8061,0.0],[105.278,-5.8063,0.0],[105.2782,-5.8063,0.0],[105.2781,-5.806,0.0]]],
[[[105.3075,-5.8063,0.0],[105.3074,-5.8069,0.0],[105.3084,-5.807,0.0],[105.3081,-5.8065,0.0],[105.3075,-5.8063,0.0]]],
[[[105.3172,-5.7952,6.1308],[105.3178,-5.7908,9.0879],[105.3136,-5.7901,6.4874],[105.312,-5.7831,0.0],[105.3112,-5.7903,2.6396],[105.3058,-5.7912,0.0],[105.3063,-5.7936,24.406],[105.3142,-5.7982,30.059],[105.3171,-5.8059,17.9698],[105.3223,-5.8057,72.7122],[105.322,-5.8115,10.4978],[105.3266,-5.8165,3.29],[105.3248,-5.821,8.7021],[105.3284,-5.8225,92.0996],[105.3319,-5.8212,34.4873],[105.3318,-5.8147,25.9524],[105.3294,-5.8091,0.0],[105.3305,-5.8062,0.0],[105.327,-5.8064,8.4688],[105.3254,-5.8028,0.0],[105.32,-5.801,25.1831],[105.3172,-5.7952,6.1308]]],
[[[105.321,-5.7847,0.0],[105.3211,-5.7861,0.0],[105.3215,-5.7864,0.0],[105.3214,-5.7842,0.0],[105.321,-5.7847,0.0]]],
[[[105.3115,-5.7811,0.0],[105.3114,-5.7815,0.0],[105.3118,-5.7817,0.0],[105.312,-5.7812,0.0],[105.3115,-5.7811,0.0]]],
[[[105.1764,-5.7781,10.4911],[105.1734,-5.778,17.4704],[105.1728,-5.7755,1.9281],[105.1629,-5.7704,1.4202],[105.1626,-5.7657,2.9778],[105.1641,-5.7665,0.0],[105.1665,-5.7619,0.0],[105.163,-5.7595,4.3267],[105.1633,-5.7576,0.0],[105.1575,-5.7546,4.6079],[105.1565,-5.7554,4.6079],[105.1538,-5.7478,3.4871],[105.1542,-5.7467,3.4871],[105.1574,-5.7472,11.0714],[105.1581,-5.744,35.3936],[105.161,-5.7415,9.6396],[105.1699,-5.7385,3.0808],[105.1721,-5.7342,2.0942],[105.1724,-5.7278,4.391],[105.1749,-5.7277,1.614],[105.1804,-5.7212,23.72],[105.1845,-5.723,0.0],[105.1861,-5.7198,19.1917],[105.195,-5.7194,29.5822],[105.2008,-5.7141,32.9482],[105.2042,-5.7185,2.9876],[105.2028,-5.7199,0.0],[105.2034,-5.722,6.3934],[105.2101,-5.7249,3.6699],[105.2082,-5.7289,1.5729],[105.21,-5.7288,1.6309],[105.2172,-5.7193,5.9808],[105.2188,-5.7195,4.0988],[105.2134,-5.7073,4.6886],[105.2065,-5.7076,3.854],[105.2054,-5.7063,3.854],[105.2036,-5.7078,10.011],[105.2058,-5.7043,2.0894],[105.2028,-5.7024,0.0],[105.2001,-5.7031,4.0298],[105.1985,-5.7057,8.2818],[105.193,-5.703,1.7082],[105.1935,-5.6943,0.0],[105.1895,-5.6906,0.0],[105.1865,-5.6916,8.0029],[105.1854,-5.6901,4.2701],[105.1888,-5.6899,0.0],[105.1837,-5.6842,3.4615],[105.1808,-5.6846,2.5117],[105.1803,-5.6826,22.127],[105.1895,-5.6836,0.9131],[105.1909,-5.68,2.2324],[105.1873,-5.6747,14.4015],[105.1851,-5.6768,6.9694],[105.1834,-5.6761,5.3837],[105.1826,-5.6713,0.0],[105.1779,-5.6703,3.0582],[105.1826,-5.6639,3.8245],[105.1846,-5.6646,0.0],[105.1871,-5.6625,37.4688],[105.1898,-5.6631,0.0],[105.1926,-5.6613,0.8465],[105.1927,-5.6574,6.0597],[105.1947,-5.658,0.9128],[105.2064,-5.6535,5.0349],[105.2087,-5.6462,0.5664],[105.2029,-5.6424,0.0],[105.1725,-5.655,15.1247],[105.1484,-5.6329,351.1546],[105.1393,-5.6626,160.1103],[105.139,-5.6771,130.8004],[105.1366,-5.6772,116.9167],[105.1388,-5.705,281.7747],[105.1319,-5.7242,240.1652],[105.132,-5.7334,205.591],[105.134,-5.7393,94.5305],[105.1324,-5.7433,37.7815],[105.1369,-5.7469,20.1807],[105.1373,-5.7585,149.903],[105.139,-5.7629,104.5369],[105.1367,-5.776,234.4778],[105.1721,-5.781,16.9589],[105.1723,-5.8008,45.2274],[105.1783,-5.8017,0.0],[105.1798,-5.8006,65.3861],[105.178,-5.7978,245.3929],[105.1819,-5.8021,21.1229],[105.1863,-5.8039,13.1192],[105.1881,-5.8034,25.7885],[105.1883,-5.8005,121.4091],[105.1916,-5.8031,0.0],[105.1935,-5.8013,11.4564],[105.1949,-5.8025,11.4564],[105.1956,-5.798,13.7302],[105.1933,-5.7979,3.0683],[105.1932,-5.7962,45.2411],[105.1964,-5.7886,51.925],[105.2022,-5.7858,49.0618],[105.2101,-5.7842,99.5485],[105.2131,-5.7878,18.1304],[105.2197,-5.7897,0.0],[105.219,-5.7852,21.4408],[105.2222,-5.7787,6.6704],[105.2172,-5.7782,7.5395],[105.2144,-5.7746,9.1545],[105.2147,-5.7704,7.8344],[105.2111,-5.7702,6.4517],[105.2055,-5.7665,2.5746],[105.2038,-5.773,9.1935],[105.2025,-5.7733,15.5632],[105.2002,-5.7724,5.6799],[105.1993,-5.7696,0.0],[105.1975,-5.7695,0.0],[105.1977,-5.7716,19.3601],[105.1914,-5.7697,11.6348],[105.1853,-5.7719,6.8269],[105.178,-5.7708,0.0],[105.1764,-5.7781,10.4911]]],
[[[105.1833,-5.7545,0.0],[105.1812,-5.7519,0.0],[105.1764,-5.7528,0.0],[105.1783,-5.7558,0.0],[105.1824,-5.7559,23.2572],[105.1833,-5.7545,0.0]]],
[[[105.1766,-5.7469,0.0],[105.175,-5.7447,7.4721],[105.1721,-5.744,0.0],[105.1733,-5.7475,9.7232],[105.1766,-5.7469,0.0]]],
[[[105.174,-5.7401,0.0],[105.174,-5.7396,0.0],[105.1727,-5.7396,0.0],[105.1731,-5.7404,0.0],[105.174,-5.7401,0.0]]],
[[[105.1982,-5.7341,0.0],[105.198,-5.7339,0.0],[105.1985,-5.7345,0.0],[105.1986,-5.7343,0.0],[105.1982,-5.7341,0.0]]],
[[[105.1975,-5.7326,0.0],[105.1971,-5.7323,0.0],[105.1969,-5.7325,0.0],[105.1978,-5.7329,0.0],[105.1975,-5.7326,0.0]]],
[[[105.1958,-5.7303,0.0],[105.197,-5.7304,0.0],[105.1979,-5.7299,0.0],[105.1968,-5.7292,0.0],[105.1958,-5.7303,0.0]]],
[[[105.2006,-5.7281,0.0],[105.2004,-5.7282,0.0],[105.2008,-5.7284,0.0],[105.2008,-5.7282,0.0],[105.2006,-5.7281,0.0]]],
[[[105.2477,-5.7962,74.9975],[105.2491,-5.7918,2.5923],[105.2435,-5.7946,22.1963],[105.2441,-5.7967,8.7008],[105.246,-5.7954,81.4648],[105.2477,-5.7962,74.9975]]],
[[[105.2795,-5.791,0.0],[105.2772,-5.7897,0.0],[105.2767,-5.7933,0.0],[105.2788,-5.7935,5.6777],[105.2795,-5.791,0.0]]],
[[[105.2153,-5.731,10.9158],[105.2163,-5.7286,4.4104],[105.2073,-5.7298,3.1996],[105.2042,-5.7342,0.0],[105.2104,-5.7356,5.756],[105.2145,-5.7334,29.1828],[105.2153,-5.731,10.9158]]],
[[[105.2305,-5.7318,15.7745],[105.2325,-5.7318,0.0],[105.2326,-5.7303,0.0],[105.2297,-5.7287,0.0],[105.2271,-5.7323,3.1039],[105.2279,-5.732,18.9587],[105.2305,-5.7318,15.7745]]],
[[[105.2204,-5.7295,25.2237],[105.222,-5.728,3.4472],[105.2167,-5.7277,0.0],[105.2205,-5.7319,0.0],[105.2204,-5.7295,25.2237]]],
[[[105.202,-5.7295,0.0],[105.2021,-5.7294,0.0],[105.2024,-5.7296,0.0],[105.2021,-5.7293,0.0],[105.202,-5.7295,0.0]]],
[[[105.2249,-5.662,0.0],[105.2203,-5.6632,3.6913],[105.2169,-5.661,0.0],[105.2124,-5.6628,0.0],[105.2092,-5.6651,0.0],[105.2081,-5.6693,14.6569],[105.2048,-5.6728,0.0],[105.2066,-5.6726,2.0218],[105.2115,-5.677,6.3013],[105.2079,-5.6787,2.7689],[105.2076,-5.6851,7.3113],[105.2106,-5.6861,5.8807],[105.2117,-5.6838,5.9146],[105.217,-5.6847,6.1943],[105.2145,-5.6887,0.4172],[105.2156,-5.6899,0.0],[105.2269,-5.6865,4.3872],[105.2302,-5.6803,6.8797],[105.2341,-5.6768,0.0],[105.2332,-5.6746,2.9916],[105.2292,-5.6759,8.4815],[105.2279,-5.6733,1.723],[105.2402,-5.6678,0.0],[105.235,-5.6679,0.0],[105.2321,-5.6635,0.0],[105.2249,-5.662,0.0]]],
[[[105.2433,-5.6747,0.0],[105.2435,-5.6726,0.0],[105.24,-5.6726,0.0],[105.2403,-5.6751,2.4805],[105.2433,-5.6747,0.0]]]]}}