{"type":"Feature","properties":{"GID_2":"IDN.21.10_1","GID_0":"IDN","country":"Indonesia","GID_1":"IDN.21_1","province":"NusaTenggaraTimur","NL_NAME_1":"NA","county":"Manggarai","VARNAME_2":"NA","NL_NAME_2":"NA","TYPE_2":"Kabupaten","ENGTYPE_2":"Regency","CC_2":"5313","HASC_2":"ID.NT.MG","name":"Manggarai.county"},
"geometry":{"type": "MultiPolygon","coordinates": [[[[120.2998,-8.8739,0.0],[120.2871,-8.8683,3.2463],[120.2813,-8.8705,8.6827],[120.274,-8.8762,0.0],[120.2616,-8.8956,0.0],[120.2562,-8.901,0.9667],[120.2596,-8.9069,0.1749],[120.2625,-8.9072,5.0247],[120.2744,-8.9157,0.961],[120.2803,-8.9126,6.1546],[120.2877,-8.9119,6.3096],[120.3058,-8.9006,4.0008],[120.305,-8.8806,0.0],[120.2998,-8.8739,0.0]]],
[[[120.231,-8.8381,138.4605],[120.2281,-8.8415,0.0],[120.233,-8.8443,16.033],[120.2447,-8.845,0.0],[120.2505,-8.8488,0.0],[120.2661,-8.8465,4.5069],[120.2772,-8.8538,5.1167],[120.2818,-8.8506,4.6248],[120.2978,-8.8443,16.5858],[120.3035,-8.8489,2.6238],[120.3066,-8.8494,5.284],[120.3133,-8.8556,3.0163],[120.3311,-8.8417,8.8357],[120.3374,-8.8341,23.5254],[120.3509,-8.8324,11.7491],[120.3633,-8.8245,12.5027],[120.3668,-8.8245,0.0],[120.3686,-8.822,0.5252],[120.3687,-8.8163,1.241],[120.3718,-8.8192,0.0],[120.3842,-8.8177,20.6092],[120.3914,-8.8262,0.0],[120.3937,-8.8267,0.0],[120.3973,-8.8239,2.5778],[120.3981,-8.8254,0.2813],[120.4041,-8.8241,1.6765],[120.4207,-8.8169,2.9854],[120.4267,-8.8196,0.0],[120.4299,-8.8195,1.9156],[120.4379,-8.8136,3.4419],[120.454,-8.8177,16.0754],[120.4703,-8.8171,6.6258],[120.4785,-8.8205,2.3576],[120.4864,-8.8196,0.0],[120.4899,-8.8214,0.0],[120.5076,-8.8187,10.5225],[120.5137,-8.821,16.0518],[120.5184,-8.8184,15.1437],[120.5138,-8.8156,32.1502],[120.5133,-8.8084,106.5032],[120.512,-8.8081,114.0777],[120.5103,-8.8035,127.6039],[120.5084,-8.7857,251.5982],[120.5038,-8.7817,293.2068],[120.5085,-8.7737,423.1749],[120.5055,-8.7635,483.9759],[120.5079,-8.7622,509.7092],[120.5073,-8.7526,631.3337],[120.5031,-8.7473,807.4053],[120.5018,-8.7428,1015.8051],[120.5015,-8.7186,1239.6936],[120.4916,-8.7024,1410.5758],[120.4791,-8.6927,1468.1576],[120.4685,-8.6732,1911.3462],[120.4777,-8.6628,1756.6333],[120.4814,-8.6524,2155.7764],[120.4879,-8.6502,2158.3101],[120.492,-8.645,2122.0386],[120.4957,-8.646,2210.5317],[120.4989,-8.6434,2067.5911],[120.505,-8.643,1876.9561],[120.5166,-8.6382,2090.6426],[120.5239,-8.638,2076.8977],[120.5224,-8.631,1978.1702],[120.5243,-8.6176,1259.9651],[120.5234,-8.6096,1111.4495],[120.5269,-8.6059,1025.8602],[120.5268,-8.6026,979.2308],[120.5234,-8.6007,949.239],[120.5237,-8.599,929.9457],[120.5176,-8.5928,828.7036],[120.5159,-8.5872,798.4507],[120.5176,-8.5843,750.3626],[120.5159,-8.58,700.7833],[120.5139,-8.58,704.8162],[120.5133,-8.5776,695.5441],[120.5109,-8.5778,670.8784],[120.5122,-8.5709,617.4411],[120.5105,-8.5651,598.516],[120.5159,-8.5584,529.2545],[120.5152,-8.554,488.6866],[120.5177,-8.5472,463.8985],[120.5212,-8.5446,443.692],[120.5228,-8.5455,443.692],[120.53,-8.5381,421.5999],[120.5301,-8.5335,384.5492],[120.5341,-8.5268,354.9692],[120.5321,-8.5233,349.7508],[120.5405,-8.5186,334.2159],[120.5432,-8.5149,326.0388],[120.5409,-8.512,319.7019],[120.5452,-8.5059,291.0214],[120.5463,-8.4931,264.3609],[120.5425,-8.4912,276.4117],[120.5381,-8.4724,233.4019],[120.5357,-8.4693,192.3449],[120.5369,-8.4677,198.5822],[120.5322,-8.4603,188.0157],[120.535,-8.4509,158.5373],[120.5306,-8.4481,157.2962],[120.5305,-8.4449,149.8206],[120.5243,-8.4379,142.9781],[120.5221,-8.4321,102.337],[120.5201,-8.4312,93.8562],[120.521,-8.4268,110.7536],[120.5203,-8.4247,90.8037],[120.5169,-8.4233,102.1408],[120.5168,-8.4169,77.7816],[120.5121,-8.4152,64.2442],[120.5135,-8.4089,82.3385],[120.5066,-8.4073,55.6715],[120.5059,-8.4031,48.7122],[120.4992,-8.403,52.9278],[120.5002,-8.3989,57.4736],[120.4985,-8.3966,44.1404],[120.4988,-8.3936,47.4455],[120.4888,-8.3884,33.2542],[120.4845,-8.3832,35.343],[120.4781,-8.3821,13.4662],[120.478,-8.3675,12.4673],[120.4795,-8.3627,13.7357],[120.4773,-8.3578,12.9521],[120.4787,-8.3536,9.4768],[120.4826,-8.3515,52.6276],[120.4836,-8.3491,10.9169],[120.4819,-8.3417,31.2733],[120.483,-8.3332,26.3906],[120.4797,-8.3288,11.8867],[120.481,-8.318,3.0626],[120.4835,-8.3133,4.9897],[120.4919,-8.3157,0.5],[120.496,-8.3051,0.5],[120.4936,-8.2935,0.0],[120.4661,-8.2953,2.7206],[120.4613,-8.2915,11.447],[120.4593,-8.2867,0.0],[120.4514,-8.2852,2.3897],[120.4501,-8.2814,0.0],[120.4531,-8.2747,0.0],[120.4497,-8.2605,0.0],[120.4449,-8.2555,3.0802],[120.4432,-8.2492,0.0],[120.4321,-8.2445,2.6667],[120.4286,-8.2409,0.0],[120.4194,-8.2441,0.0],[120.4137,-8.2514,13.4512],[120.4144,-8.2625,26.0831],[120.4126,-8.2677,32.3226],[120.4129,-8.2728,33.5766],[120.4082,-8.2804,7.4582],[120.3953,-8.2831,5.1754],[120.388,-8.2881,19.316],[120.3808,-8.2887,6.2371],[120.3781,-8.2868,12.9198],[120.3708,-8.2935,11.0925],[120.3697,-8.2922,3.2276],[120.3674,-8.2942,1.889],[120.3633,-8.2936,3.4237],[120.3611,-8.2955,11.6485],[120.352,-8.289,2.5363],[120.3408,-8.2873,1.6939],[120.3376,-8.2824,3.4433],[120.3349,-8.2814,6.9748],[120.3305,-8.2809,0.0],[120.3235,-8.2835,9.7625],[120.3065,-8.2823,0.0],[120.2983,-8.2849,9.2728],[120.2916,-8.2807,0.0],[120.2897,-8.2862,70.6494],[120.2888,-8.2988,238.6234],[120.2926,-8.3131,341.9325],[120.2908,-8.3177,374.2243],[120.291,-8.3275,206.686],[120.288,-8.3315,244.9127],[120.2861,-8.3398,139.9277],[120.2889,-8.3448,246.4709],[120.289,-8.3571,419.0324],[120.2858,-8.3862,588.1567],[120.283,-8.3917,504.932],[120.2848,-8.4055,525.4242],[120.283,-8.4177,620.438],[120.284,-8.4226,634.1857],[120.2931,-8.4313,392.7383],[120.2958,-8.4397,473.1026],[120.3063,-8.4514,174.8413],[120.3088,-8.4494,189.7263],[120.3126,-8.45,157.1985],[120.3164,-8.4476,154.0931],[120.3174,-8.4447,149.0188],[120.3218,-8.4445,134.7368],[120.3269,-8.4369,161.0509],[120.3313,-8.4358,137.3215],[120.3313,-8.4411,134.4209],[120.3334,-8.4405,129.2132],[120.3382,-8.4365,147.2546],[120.337,-8.4335,126.3963],[120.3459,-8.4261,141.1877],[120.3498,-8.4276,120.2456],[120.3525,-8.4258,116.8076],[120.3571,-8.4296,125.8742],[120.3644,-8.4289,122.213],[120.3693,-8.4311,102.5177],[120.377,-8.4289,92.8171],[120.3869,-8.4292,84.9687],[120.3861,-8.4261,120.7211],[120.3895,-8.4253,99.779],[120.3906,-8.4304,72.6213],[120.3918,-8.4279,79.4177],[120.3932,-8.4297,86.8607],[120.3957,-8.4294,118.1156],[120.3957,-8.4333,91.0004],[120.3981,-8.4371,110.0361],[120.3959,-8.4386,82.7094],[120.3977,-8.4395,110.9718],[120.3974,-8.4427,97.3196],[120.3993,-8.4439,85.8037],[120.3988,-8.4508,105.645],[120.3928,-8.4543,143.3701],[120.3946,-8.4546,111.4368],[120.3946,-8.4574,141.9318],[120.3971,-8.4574,128.02],[120.3991,-8.461,113.319],[120.3972,-8.4615,147.121],[120.3901,-8.4583,128.491],[120.3895,-8.4656,138.7847],[120.3918,-8.467,145.0119],[120.387,-8.475,183.8991],[120.3882,-8.4784,175.8],[120.3876,-8.4833,166.4102],[120.3893,-8.4852,202.8877],[120.3883,-8.4861,168.6264],[120.3865,-8.4849,174.7331],[120.3841,-8.4879,179.4221],[120.3806,-8.4882,169.1051],[120.381,-8.4943,201.3749],[120.3757,-8.4999,228.3761],[120.3739,-8.506,238.0036],[120.3753,-8.5076,251.0536],[120.3728,-8.5102,260.3058],[120.3737,-8.512,246.2137],[120.3712,-8.5124,240.5399],[120.3725,-8.5147,263.4646],[120.36279999999999,-8.5181,248.3101],[120.361,-8.5211,263.2578],[120.355,-8.5237,281.693],[120.3538,-8.5227,291.8401],[120.3524,-8.5244,284.6611],[120.3605,-8.5471,872.4257],[120.3584,-8.5591,831.072],[120.3612,-8.5685,1265.5363],[120.3517,-8.5719,1218.1879],[120.3436,-8.5714,1191.2148],[120.3357,-8.5638,814.5697],[120.3325,-8.5583,695.7347],[120.3304,-8.5587,724.2117],[120.3264,-8.5634,862.8331],[120.3191,-8.5679,1102.8993],[120.3175,-8.5785,1310.1302],[120.3151,-8.5829,1308.5913],[120.2989,-8.5858,1390.7948],[120.2909,-8.5906,1461.9136],[120.2852,-8.5975,1385.9097],[120.2851,-8.605,1309.8766],[120.2822,-8.6094,1207.5482],[120.2805,-8.6252,835.4086],[120.2889,-8.6331,606.7174],[120.2902,-8.6372,613.2237],[120.2895,-8.6421,559.22],[120.2877,-8.6426,615.1248],[120.2874,-8.6446,580.7589],[120.2818,-8.645,555.5121],[120.2797,-8.6473,577.9587],[120.282,-8.6491,592.2372],[120.2816,-8.6514,559.2196],[120.2861,-8.6546,598.7203],[120.2861,-8.6565,665.663],[120.2881,-8.6557,597.3934],[120.2903,-8.661,694.3385],[120.2959,-8.6632,706.8641],[120.2939,-8.6654,732.8273],[120.2953,-8.6646,712.928],[120.2952,-8.6663,735.7673],[120.2965,-8.6664,735.7673],[120.2951,-8.67,743.9113],[120.2971,-8.6722,776.8775],[120.2994,-8.6706,822.9349],[120.2991,-8.6725,792.6738],[120.3061,-8.6752,881.0898],[120.3114,-8.6676,845.3935],[120.3128,-8.6677,845.3935],[120.3122,-8.6695,861.1443],[120.3152,-8.6707,893.6567],[120.3207,-8.681,997.8704],[120.3313,-8.6878,1310.2183],[120.3328,-8.6939,1453.6289],[120.3274,-8.709,1572.5944],[120.3264,-8.7184,1900.7056],[120.323,-8.7219,1672.9348],[120.3144,-8.7238,1889.9045],[120.3131,-8.7343,1497.1229],[120.3033,-8.7417,1580.0542],[120.2936,-8.7564,1174.9396],[120.2882,-8.7573,1059.2098],[120.2878,-8.7585,1036.1984],[120.2855,-8.7578,1068.8235],[120.2841,-8.7594,1106.3882],[120.2738,-8.7594,1546.8137],[120.2719,-8.7621,1618.479],[120.2733,-8.7676,1597.0305],[120.2815,-8.7788,1370.9646],[120.2837,-8.7872,990.8195],[120.2811,-8.789,1158.5775],[120.2649,-8.7898,1099.1113],[120.2616,-8.7951,905.1647],[120.2562,-8.7962,821.8238],[120.251,-8.7952,710.5671],[120.2474,-8.7991,695.2853],[120.2402,-8.8029,580.366],[120.2389,-8.809,498.1653],[120.2329,-8.8125,614.7212],[120.2355,-8.8161,533.2142],[120.2351,-8.819,587.9173],[120.24,-8.83,419.6343],[120.234,-8.8373,181.579],[120.231,-8.8381,138.4605]]]]}}