{"type":"Feature","properties":{"GID_3":"IDN.23.19.8_1","GID_0":"IDN","country":"Indonesia","GID_1":"IDN.23_1","province":"Papua","NL_NAME_1":"NA","GID_2":"IDN.23.19_1","county":"Nduga","NL_NAME_2":"NA","city":"Yigi","VARNAME_3":"NA","NL_NAME_3":"NA","TYPE_3":"Distrik","ENGTYPE_3":"District","CC_3":"9429060","HASC_3":"NA","name":"Yigi.city"},
"geometry":{"type": "MultiPolygon","coordinates": [[[[138.4158,-4.284,2933.9912],[138.4283,-4.2829,2591.3306],[138.4361,-4.1856,3359.9683],[138.4146,-4.1814,2830.77],[138.3774,-4.1831,2693.6147],[138.3295,-4.192,2630.6755],[138.319,-4.2366,1998.3757],[138.333,-4.2409,1830.76],[138.3432,-4.2545,1508.1337],[138.358,-4.2659,1470.3534],[138.3772,-4.2749,1603.0338],[138.4022,-4.2829,2412.4094],[138.4158,-4.284,2933.9912]]]]}}