{"type":"Feature","properties":{"GID_3":"IDN.18.2.14_1","GID_0":"IDN","country":"Indonesia","GID_1":"IDN.18_1","province":"MalukuUtara","NL_NAME_1":"NA","GID_2":"IDN.18.2_1","county":"HalmaheraSelatan","NL_NAME_2":"NA","city":"GaneTimur","VARNAME_3":"NA","NL_NAME_3":"NA","TYPE_3":"Kecamatan","ENGTYPE_3":"Sub-district","CC_3":"8204090","HASC_3":"NA","name":"Gane_Timur.city"},
"geometry":{"type": "MultiPolygon","coordinates": [[[[127.879,-0.2603,126.2249],[127.8875,-0.2761,169.3033],[127.9805,-0.2514,0.0],[127.9788,-0.2477,0.0],[127.9775,-0.2315,2.6921],[127.9719,-0.2119,9.9898],[127.9716,-0.2003,10.6686],[127.97,-0.1972,10.6444],[127.9655,-0.1636,0.0],[127.9526,-0.1375,6.1759],[127.9488,-0.1263,14.3399],[127.9462,-0.111,0.0],[127.9333,-0.0864,0.0],[127.9269,-0.0799,6.1526],[127.9111,-0.0569,0.0],[127.9029,-0.0257,0.0],[127.8942,-0.0181,0.0],[127.8899,-0.0011,0.0],[127.8876,0.0313,1.8053],[127.8898,0.0424,0.0],[127.8942,0.0493,0.0],[127.8929,0.0561,0.7334],[127.8901,0.0583,0.6256],[127.8942,0.0629,0.0],[127.8951,0.0665,0.0],[127.8911,0.0685,2.7633],[127.8881,0.0743,0.0],[127.888,0.0832,0.0],[127.8936,0.0928,5.0419],[127.9038,0.1049,0.0],[127.9087,0.106,87.5391],[127.91,0.1042,21.6097],[127.9299,0.1081,0.0],[127.9288,0.1098,1.711],[127.92529999999999,0.1081,6.7499],[127.9239,0.1106,4.5153],[127.9263,0.1177,7.3373],[127.9238,0.1344,8.5842],[127.9251,0.1411,0.0],[127.9228,0.1496,0.0],[127.9244,0.1537,8.1128],[127.9218,0.16,13.7985],[127.9216,0.1768,1.5778],[127.8967,0.1758,134.492],[127.8946,0.1667,148.3745],[127.8944,0.1473,172.2223],[127.8875,0.1442,22.8307],[127.877,0.1314,18.4399],[127.8724,0.1305,11.8998],[127.8696,0.1324,8.5549],[127.8633,0.1322,11.8715],[127.8583,0.1342,95.0391],[127.854,0.1334,51.2354],[127.852,0.1361,217.2826],[127.8497,0.136,163.3016],[127.8478,0.1341,135.3616],[127.8442,0.1344,145.9927],[127.8396,0.1283,183.0051],[127.8355,0.1289,162.1354],[127.8345,0.1209,196.8333],[127.8268,0.1266,190.5914],[127.824,0.1254,178.8963],[127.8174,0.1359,288.3116],[127.8179,0.1376,272.8281],[127.8148,0.1448,267.989],[127.8087,0.15,446.9195],[127.8005,0.1508,439.4661],[127.7986,0.1475,535.4049],[127.7887,0.1522,539.4227],[127.7891,0.1407,552.2615],[127.791,0.1351,675.2876],[127.7888,0.1256,505.2],[127.7924,0.1167,610.4425],[127.7905,0.1087,543.8556],[127.7921,0.0993,568.1373],[127.7898,0.0932,408.6904],[127.79,0.0875,417.3733],[127.7926,0.0839,424.8338],[127.7969,0.0817,570.9989],[127.7942,0.0745,283.6726],[127.7953,0.0706,299.1108],[127.7986,0.07,290.7034],[127.7951,0.0613,189.0696],[127.7975,0.0562,213.2012],[127.7966,0.0537,230.6792],[127.8019,0.0491,317.1918],[127.806,0.048,426.4577],[127.8074,0.0424,449.5929],[127.8145,0.0382,330.1037],[127.8173,0.0314,261.5727],[127.8102,0.0181,351.7959],[127.8024,0.0215,292.4785],[127.7967,0.0148,158.3824],[127.8001,-0.0522,69.2506],[127.8028,-0.0631,55.4855],[127.7704,-0.0658,348.2772],[127.7693,-0.0978,71.2572],[127.7752,-0.1348,140.8212],[127.8212,-0.1302,21.7603],[127.8395,-0.1859,104.4389],[127.879,-0.2603,126.2249]]]]}}