{"type":"Feature","properties":{"GID_3":"IDN.11.33.11_1","GID_0":"IDN","country":"Indonesia","GID_1":"IDN.11_1","province":"JawaTimur","NL_NAME_1":"NA","GID_2":"IDN.11.33_1","county":"Situbondo","NL_NAME_2":"NA","city":"Mangaran","VARNAME_3":"NA","NL_NAME_3":"NA","TYPE_3":"Kecamatan","ENGTYPE_3":"Sub-district","CC_3":"3512110","HASC_3":"NA","name":"Mangaran.city"},
"geometry":{"type": "MultiPolygon","coordinates": [[[[114.0441,-7.6731,13.7202],[114.0453,-7.6725,14.0603],[114.0468,-7.6617,12.3195],[114.069,-7.6654,7.5867],[114.068,-7.6726,7.076],[114.0713,-7.6731,6.8519],[114.0733,-7.6712,6.0524],[114.0845,-7.6719,0.08],[114.0694,-7.6373,0.6234],[114.0599,-7.6229,0.0],[114.0458,-7.6086,0.0],[114.0394,-7.6048,1.1393],[114.0356,-7.6043,0.0],[114.0351,-7.6057,0.5103],[114.0369,-7.6049,0.5103],[114.0349,-7.6068,0.5],[114.0411,-7.6069,0.5],[114.0452,-7.6122,1.2842],[114.0434,-7.6136,1.0571],[114.0402,-7.6131,0.7057],[114.0394,-7.6108,0.5],[114.0382,-7.6141,0.5803],[114.0386,-7.6108,0.5978],[114.0367,-7.6098,1.1672],[114.0305,-7.6101,1.3685],[114.0323,-7.6061,0.0],[114.011,-7.6275,2.8789],[114.0094,-7.6384,5.4959],[114.0119,-7.6389,6.2839],[114.0061,-7.6623,15.2968],[114.0144,-7.6664,16.0234],[114.0165,-7.6643,14.6696],[114.0207,-7.6651,21.0163],[114.022,-7.6539,16.0773],[114.0344,-7.6544,11.0438],[114.0294,-7.6711,16.2575],[114.0386,-7.6717,17.5885],[114.038,-7.6757,17.1459],[114.0438,-7.6754,14.344],[114.0441,-7.6731,13.7202]]]]}}