{"type":"Feature","properties":{"GID_3":"IDN.24.12.3_1","GID_0":"IDN","country":"Indonesia","GID_1":"IDN.24_1","province":"Riau","NL_NAME_1":"NA","GID_2":"IDN.24.12_1","county":"Siak","NL_NAME_2":"NA","city":"Kandis","VARNAME_3":"NA","NL_NAME_3":"NA","TYPE_3":"Kecamatan","ENGTYPE_3":"Sub-district","CC_3":"1405012","HASC_3":"NA","name":"Kandis.city"},
"geometry":{"type": "MultiPolygon","coordinates": [[[[101.3719,0.8784,27.3113],[101.3683,0.8786,33.6403],[101.3689,0.8814,28.1413],[101.3657,0.8865,26.8491],[101.3682,0.8965,30.6348],[101.3736,0.8993,32.9323],[101.3764,0.9104,21.3762],[101.3798,0.9104,22.3267],[101.3979,0.9263,19.861],[101.412,0.9333,10.4416],[101.4138,0.9415,16.0579],[101.4171,0.9438,9.3947],[101.4208,0.9504,8.954],[101.4361,0.9523,5.6133],[101.441,0.9562,4.9714],[101.4647,0.926,10.4241],[101.4672,0.9365,18.0834],[101.4783,0.9529,18.0628],[101.4832,0.9696,7.0998],[101.4789,0.9705,11.0578],[101.4743,0.9759,7.0683],[101.456,0.9849,5.4203],[101.4552,0.9865,7.0812],[101.458,0.9981,9.8666],[101.456,1.0033,4.1811],[101.45,1.0064,3.7544],[101.4399,1.0074,3.9783],[101.4335,1.0161,2.7584],[101.4225,1.014,4.1972],[101.4164,1.0228,4.5521],[101.4088,1.0219,3.3495],[101.4012,1.0234,3.5186],[101.3916,1.0208,4.6607],[101.3683,1.027,3.4233],[101.3644,1.0323,3.9127],[101.3588,1.029,3.8542],[101.3536,1.0327,5.0801],[101.3512,1.0328,3.2743],[101.3398,1.0282,4.2623],[101.3319,1.035,4.3393],[101.3265,1.0356,3.891],[101.3216,1.0416,4.1784],[101.3163,1.042,4.043],[101.3101,1.0466,4.8273],[101.3054,1.045,4.1109],[101.2978,1.0475,4.8165],[101.2962,1.0511,5.2799],[101.2909,1.0499,4.5227],[101.2884,1.0529,5.1185],[101.2883,1.057,6.4887],[101.2824,1.0604,6.6621],[101.278,1.0539,5.5955],[101.2745,1.0442,5.1188],[101.2665,1.0368,5.6937],[101.2608,1.0342,5.5585],[101.2509,1.0213,6.3853],[101.2367,1.0136,9.141],[101.2305,1.0069,7.3104],[100.9326,1.2485,13.9963],[100.9069,1.0299,27.4778],[101.2734,0.8283,75.3119],[101.2987,0.8105,63.1657],[101.3009,0.8081,47.4729],[101.30029999999999,0.8046,33.2926],[101.3057,0.8008,67.6926],[101.3096,0.8027,74.217],[101.3111,0.8058,72.8199],[101.3148,0.8065,73.3862],[101.3181,0.8003,72.6585],[101.3201,0.8003,81.804],[101.3205,0.8024,72.2969],[101.3226,0.8032,81.6922],[101.3348,0.7974,78.9853],[101.3458,0.8218,87.2477],[101.3499,0.8195,83.6505],[101.3527,0.8294,66.1113],[101.3698,0.8301,73.8074],[101.371,0.8364,75.1821],[101.3689,0.8419,64.1466],[101.3842,0.8557,64.8243],[101.3807,0.8575,58.5738],[101.3767,0.8661,61.6386],[101.3784,0.8759,56.1432],[101.3719,0.8784,27.3113]]]]}}