{"type":"Feature","properties":{"GID_3":"IDN.26.14.3_1","GID_0":"IDN","country":"Indonesia","GID_1":"IDN.26_1","province":"SulawesiSelatan","NL_NAME_1":"NA","GID_2":"IDN.26.14_1","county":"Palopo","NL_NAME_2":"NA","city":"Sendana","VARNAME_3":"NA","NL_NAME_3":"NA","TYPE_3":"Kecamatan","ENGTYPE_3":"Sub-district","CC_3":"7373011","HASC_3":"NA","name":"Sendana.city"},
"geometry":{"type": "MultiPolygon","coordinates": [[[[120.1359,-3.085,335.1271],[120.1403,-3.0867,226.9164],[120.1415,-3.0844,194.3369],[120.1485,-3.081,190.3629],[120.15,-3.0732,195.9347],[120.1534,-3.0733,159.146],[120.1538,-3.0709,136.4956],[120.1602,-3.0718,105.4747],[120.1637,-3.0688,110.1783],[120.1656,-3.0573,174.5275],[120.1722,-3.0548,306.0529],[120.1779,-3.0537,403.701],[120.1847,-3.0555,205.8068],[120.1893,-3.0545,59.4005],[120.1944,-3.0577,44.9343],[120.1985,-3.0567,71.9239],[120.2062,-3.0597,69.8993],[120.2131,-3.0577,42.2114],[120.2099,-3.0479,10.7282],[120.2075,-3.0459,9.4092],[120.2008,-3.0447,10.6645],[120.2024,-3.0398,17.5654],[120.2001,-3.0336,16.2477],[120.1966,-3.0302,19.612],[120.2013,-3.0233,10.6497],[120.19,-3.0272,21.1878],[120.19,-3.0252,21.5019],[120.184,-3.019,25.1115],[120.1828,-3.0246,37.1832],[120.1785,-3.0257,43.2051],[120.1717,-3.0251,62.9074],[120.1693,-3.0264,89.0834],[120.1679,-3.024,89.8714],[120.1614,-3.0229,102.3699],[120.1556,-3.0254,126.9087],[120.1528,-3.0236,124.9811],[120.147,-3.0257,151.7244],[120.1443,-3.0286,169.5376],[120.1324,-3.0265,237.8214],[120.1221,-3.0359,377.6683],[120.1179,-3.0361,347.3641],[120.1182,-3.0375,465.4202],[120.1092,-3.0398,555.7688],[120.1075,-3.046,670.1851],[120.109,-3.0509,722.7977],[120.1125,-3.054,766.6584],[120.1177,-3.0654,963.7235],[120.1235,-3.0691,836.0377],[120.1267,-3.0756,493.2545],[120.1343,-3.0803,361.5845],[120.1359,-3.085,335.1271]]]]}}