{"type":"Feature","properties":{"GID_3":"IDN.11.22.30_1","GID_0":"IDN","country":"Indonesia","GID_1":"IDN.11_1","province":"JawaTimur","NL_NAME_1":"NA","GID_2":"IDN.11.22_1","county":"Malang","NL_NAME_2":"NA","city":"Turen","VARNAME_3":"NA","NL_NAME_3":"NA","TYPE_3":"Kecamatan","ENGTYPE_3":"Sub-district","CC_3":"3507120","HASC_3":"NA","name":"Turen.city"},
"geometry":{"type": "MultiPolygon","coordinates": [[[[112.6402,-8.2347,330.3815],[112.64,-8.2378,317.5515],[112.6443,-8.235,333.511],[112.6438,-8.2323,327.1954],[112.6455,-8.2317,321.2736],[112.6505,-8.2332,322.0181],[112.6509,-8.2362,326.7741],[112.6554,-8.2344,326.7108],[112.6573,-8.2361,318.6762],[112.6605,-8.2357,333.4991],[112.6647,-8.2333,326.6447],[112.6662,-8.2338,326.6447],[112.6666,-8.2369,329.9069],[112.6721,-8.2336,331.517],[112.6765,-8.2358,327.9996],[112.6751,-8.2323,339.5248],[112.6773,-8.2319,336.097],[112.681,-8.2342,338.2576],[112.6847,-8.2312,344.7321],[112.6857,-8.2281,331.9962],[112.6881,-8.2303,340.0483],[112.6916,-8.2269,337.3708],[112.697,-8.2249,336.1337],[112.6955,-8.2239,352.6957],[112.6988,-8.224,341.1797],[112.6964,-8.2209,343.4588],[112.6969,-8.2196,343.4588],[112.6997,-8.2195,341.9297],[112.7,-8.2152,342.7849],[112.6983,-8.2112,359.7047],[112.7012,-8.2071,365.7141],[112.703,-8.2081,362.2573],[112.7035,-8.2061,367.0304],[112.7021,-8.2056,367.0304],[112.7051,-8.2007,367.1633],[112.7074,-8.2007,356.648],[112.7062,-8.1998,356.648],[112.7072,-8.1984,361.0449],[112.7052,-8.1984,369.2241],[112.7038,-8.1964,359.463],[112.7039,-8.1921,361.5219],[112.707,-8.1907,364.7665],[112.7063,-8.1881,366.5571],[112.71,-8.1846,371.7664],[112.7096,-8.1812,396.5863],[112.7126,-8.1801,383.3118],[112.7131,-8.1772,399.8051],[112.7151,-8.1776,386.1522],[112.7155,-8.174,402.3722],[112.7248,-8.1683,402.2609],[112.729,-8.1609,424.2547],[112.7292,-8.1572,424.2375],[112.7459,-8.1576,436.8276],[112.7575,-8.1534,477.9484],[112.7609,-8.1614,509.4623],[112.7712,-8.1627,552.4761],[112.7733,-8.1579,547.6655],[112.773,-8.1552,555.9744],[112.7711,-8.1547,538.7963],[112.7726,-8.1525,530.9226],[112.7706,-8.1514,522.1349],[112.761,-8.1527,487.4502],[112.7608,-8.1486,507.1498],[112.7511,-8.1491,474.959],[112.7428,-8.1445,456.9299],[112.733,-8.1452,432.0333],[112.7325,-8.1474,433.9265],[112.7297,-8.1478,437.4564],[112.7289,-8.1458,436.1243],[112.723,-8.1456,439.5175],[112.7214,-8.1403,441.7623],[112.7133,-8.1408,433.0073],[112.7129,-8.1425,433.4254],[112.7043,-8.1409,428.2584],[112.7091,-8.1324,437.5392],[112.7064,-8.1298,445.081],[112.7096,-8.1239,440.2184],[112.707,-8.126,445.6427],[112.7012,-8.1246,440.8421],[112.7016,-8.1224,452.4631],[112.6996,-8.1219,451.5171],[112.6999,-8.1199,450.5613],[112.6976,-8.1196,450.0304],[112.6981,-8.1171,453.3683],[112.6965,-8.1166,450.1679],[112.6953,-8.1197,448.2111],[112.6876,-8.1184,439.9605],[112.6772,-8.1318,418.7068],[112.6739,-8.1335,415.6258],[112.6753,-8.1406,408.9288],[112.6705,-8.1503,394.2167],[112.6708,-8.1541,397.3168],[112.6647,-8.1589,382.373],[112.6734,-8.1686,376.7622],[112.6681,-8.1789,366.8368],[112.6705,-8.1894,367.8485],[112.6738,-8.1912,368.9055],[112.6732,-8.1928,367.831],[112.6748,-8.1939,366.3896],[112.6688,-8.2046,378.5495],[112.6501,-8.2063,343.4575],[112.6449,-8.2143,335.8711],[112.6477,-8.2168,337.0743],[112.6402,-8.2347,330.3815]]]]}}