{"type":"Feature","properties":{"GID_3":"IDN.32.12.2_1","GID_0":"IDN","country":"Indonesia","GID_1":"IDN.32_1","province":"SumateraUtara","NL_NAME_1":"NA","GID_2":"IDN.32.12_1","county":"LabuhanbatuUtara","NL_NAME_2":"NA","city":"Aeknatas","VARNAME_3":"NA","NL_NAME_3":"NA","TYPE_3":"Kecamatan","ENGTYPE_3":"Sub-district","CC_3":"1223040","HASC_3":"NA","name":"Aeknatas.city"},
"geometry":{"type": "MultiPolygon","coordinates": [[[[99.5349,2.1612,691.361],[99.5315,2.1718,755.0598],[99.5315,2.1814,759.5847],[99.539,2.1839,890.5295],[99.554,2.1951,689.6165],[99.5558,2.2014,601.1965],[99.5602,2.2063,669.9865],[99.569,2.2074,598.1086],[99.5744,2.201,425.4673],[99.5812,2.2003,399.1423],[99.5916,2.2141,452.5108],[99.5939,2.2234,553.9236],[99.606,2.228,251.2832],[99.6164,2.2388,210.627],[99.6203,2.25,231.6108],[99.622,2.2609,185.4718],[99.6305,2.2756,169.7231],[99.6385,2.2826,253.7099],[99.6682,2.2879,116.2842],[99.6858,2.296,182.8664],[99.6899,2.3048,140.5913],[99.6955,2.3105,223.3297],[99.7044,2.3134,155.4063],[99.7223,2.3277,46.9875],[99.7327,2.3271,47.8525],[99.7405,2.3108,44.1127],[99.7544,2.322,40.7156],[99.7791,2.3286,41.0888],[99.7872,2.3322,27.8167],[99.786,2.3339,36.6039],[99.7721,2.3341,41.9001],[99.7709,2.3481,40.0782],[99.7601,2.3543,34.135],[99.7582,2.3645,24.7617],[99.7596,2.3671,22.9758],[99.7528,2.3773,37.5785],[99.7561,2.3993,31.7456],[99.7625,2.4057,17.0962],[99.7698,2.4169,14.0267],[99.7879,2.4285,17.5899],[99.7995,2.4484,7.1662],[99.8275,2.4642,6.4154],[99.8357,2.4724,6.2154],[99.8346,2.4833,4.9591],[99.8225,2.4808,6.847],[99.8151,2.4825,5.9337],[99.802,2.4739,7.8894],[99.7995,2.4791,8.4151],[99.7936,2.4819,10.0337],[99.7847,2.4828,8.9681],[99.7754,2.4863,8.5804],[99.7624,2.4867,9.2488],[99.761,2.4707,13.5312],[99.7367,2.4448,11.0989],[99.7314,2.437,15.7516],[99.7239,2.4387,11.3979],[99.717,2.4486,10.5909],[99.7134,2.4503,10.7333],[99.7118,2.4411,10.6909],[99.7083,2.4356,11.7633],[99.7026,2.4302,13.867],[99.6979,2.4282,18.5196],[99.6363,2.4112,138.3916],[99.6181,2.4044,152.2046],[99.5968,2.401,254.4006],[99.5732,2.3887,233.8576],[99.5705,2.3804,310.698],[99.5744,2.3712,265.2872],[99.5714,2.359,466.175],[99.5704,2.3422,194.8301],[99.5671,2.3318,218.7161],[99.5828,2.3281,181.6897],[99.5834,2.318,217.7066],[99.5851,2.3139,220.7866],[99.5779,2.3075,226.8984],[99.5695,2.3059,254.7139],[99.5644,2.3066,271.5255],[99.5611,2.3023,281.6545],[99.5557,2.3096,305.1042],[99.5489,2.3069,332.2277],[99.5448,2.293,370.6394],[99.5466,2.2838,386.0157],[99.5456,2.2718,406.9535],[99.5469,2.2684,418.8179],[99.5425,2.2658,431.4088],[99.5402,2.2594,449.4946],[99.5346,2.2563,472.6744],[99.5363,2.2555,477.7142],[99.5381,2.25,515.8023],[99.537,2.2481,575.2172],[99.53,2.2467,605.2818],[99.5224,2.2417,661.369],[99.501,2.247,628.608],[99.4969,2.2433,642.4199],[99.482,2.2427,709.2625],[99.4762,2.2393,795.691],[99.4741,2.2337,870.9115],[99.4649,2.2291,1000.687],[99.4358,2.2174,782.5172],[99.4229,2.2157,1025.2244],[99.4171,2.2134,1073.4854],[99.4156,2.2109,1093.5681],[99.4173,2.1994,1048.8152],[99.415,2.1933,1245.3607],[99.4043,2.176,1802.9297],[99.3939,2.1661,1825.8008],[99.3983,2.1563,1571.2397],[99.4071,2.1501,1239.6578],[99.4192,2.1364,966.2034],[99.4357,2.1238,986.5867],[99.4605,2.1264,886.4406],[99.472,2.1195,1143.9607],[99.482,2.119,1021.9818],[99.5116,2.1233,596.4856],[99.5133,2.1212,683.1567],[99.5169,2.1022,1272.5546],[99.5226,2.0913,1738.7825],[99.5365,2.092,1735.5072],[99.5419,2.0871,1539.6318],[99.5431,2.0973,1598.1147],[99.5471,2.1002,1578.2985],[99.551,2.108,1556.5212],[99.5521,2.1271,1259.6022],[99.5497,2.1379,1194.4099],[99.538,2.1483,1016.9951],[99.5348,2.1533,1014.0018],[99.5349,2.1612,691.361]]]]}}