{"type":"Feature","properties":{"GID_3":"IDN.14.3.4_1","GID_0":"IDN","country":"Indonesia","GID_1":"IDN.14_1","province":"KalimantanTengah","NL_NAME_1":"NA","GID_2":"IDN.14.3_1","county":"BaritoUtara","NL_NAME_2":"NA","city":"Montallat","VARNAME_3":"NA","NL_NAME_3":"NA","TYPE_3":"Kecamatan","ENGTYPE_3":"Sub-district","CC_3":"6205010","HASC_3":"NA","name":"Montallat.city"},
"geometry":{"type": "MultiPolygon","coordinates": [[[[114.843,-1.3507,31.246],[114.8522,-1.3599,8.0],[114.8761,-1.3582,23.0305],[114.948,-1.3378,70.978],[114.9476,-1.3174,62.9468],[114.9309,-1.2946,28.9795],[114.9264,-1.2837,50.0631],[114.9675,-1.2309,85.5946],[114.9776,-1.199,48.6553],[115.0001,-1.1722,61.0324],[115.0043,-1.155,58.451],[115.0036,-1.1433,77.6913],[114.9961,-1.1334,75.8551],[114.9934,-1.1323,65.8585],[114.9791,-1.1474,58.252],[114.9554,-1.1637,74.238],[114.9245,-1.169,65.2421],[114.8861,-1.1655,53.8079],[114.8068,-1.136,77.5453],[114.7882,-1.1272,61.1386],[114.7318,-1.1387,82.7515],[114.7063,-1.1475,114.9992],[114.7002,-1.1563,129.013],[114.7107,-1.1653,119.458],[114.7119,-1.1814,115.3622],[114.7012,-1.2101,88.0342],[114.7006,-1.2525,96.2785],[114.6839,-1.2763,95.0262],[114.6851,-1.2966,84.1611],[114.6678,-1.3169,98.0727],[114.7388,-1.3401,82.9431],[114.794,-1.3483,31.6345],[114.8343,-1.3419,25.7942],[114.843,-1.3507,31.246]]]]}}