{"type":"Feature","properties":{"GID_3":"IDN.17.12.4_1","GID_0":"IDN","country":"Indonesia","GID_1":"IDN.17_1","province":"Lampung","NL_NAME_1":"NA","GID_2":"IDN.17.12_1","county":"TulangBawangBarat","NL_NAME_2":"NA","city":"PagarDewa","VARNAME_3":"NA","NL_NAME_3":"NA","TYPE_3":"Kecamatan","ENGTYPE_3":"Sub-district","CC_3":"1812040","HASC_3":"NA","name":"Pagar_Dewa.city"},
"geometry":{"type": "MultiPolygon","coordinates": [[[[105.2341,-4.4233,14.2027],[105.205,-4.4227,28.132],[105.199,-4.4066,44.195],[105.1913,-4.4068,33.9676],[105.1884,-4.4043,43.5925],[105.1884,-4.3952,29.8086],[105.1929,-4.3908,41.851],[105.1911,-4.3875,45.1951],[105.1918,-4.3853,48.1216],[105.1877,-4.3808,43.0392],[105.1865,-4.3817,45.7491],[105.1653,-4.3681,37.421],[105.162,-4.3831,32.7216],[105.1339,-4.3758,34.1728],[105.1075,-4.3789,36.2217],[105.1088,-4.403,7.5913],[105.1015,-4.4048,9.1002],[105.0933,-4.3912,7.5455],[105.0894,-4.3932,6.6702],[105.092,-4.3964,6.8188],[105.0873,-4.3989,7.0191],[105.0905,-4.4036,7.0786],[105.0862,-4.4079,8.0675],[105.0826,-4.4076,6.1336],[105.0792,-4.4107,7.8222],[105.0806,-4.4073,7.3971],[105.0746,-4.4031,7.443],[105.0677,-4.412,9.0325],[105.0613,-4.4145,8.3029],[105.0625,-4.4353,15.9141],[105.0673,-4.435,12.1556],[105.0676,-4.4466,9.0209],[105.0641,-4.4648,22.2833],[105.0691,-4.4552,5.9949],[105.0718,-4.4541,7.165],[105.0805,-4.455,6.3942],[105.0982,-4.4458,7.152],[105.113,-4.4569,7.2568],[105.1159,-4.4515,5.7841],[105.1194,-4.4496,6.007],[105.114,-4.4461,6.2763],[105.1151,-4.4409,5.7205],[105.1122,-4.4358,10.4819],[105.1188,-4.4354,6.6041],[105.1222,-4.4369,6.9523],[105.1204,-4.4414,5.8508],[105.1237,-4.4443,5.9042],[105.1252,-4.4504,6.369],[105.1279,-4.4516,4.7795],[105.1333,-4.4442,6.8039],[105.1324,-4.436,4.9356],[105.1343,-4.4347,5.4494],[105.1394,-4.4384,5.5889],[105.1436,-4.4473,4.5664],[105.1468,-4.4468,5.5654],[105.1458,-4.4527,7.9078],[105.1577,-4.4577,3.8132],[105.1671,-4.4555,4.2442],[105.1712,-4.4522,5.8172],[105.1709,-4.4576,6.7938],[105.1727,-4.4587,6.411],[105.1809,-4.4563,4.2628],[105.1862,-4.4581,5.0556],[105.1903,-4.4547,4.0503],[105.1943,-4.4547,4.6565],[105.2117,-4.464,4.998],[105.2144,-4.4623,4.01],[105.2174,-4.4501,2.6016],[105.222,-4.4478,6.2897],[105.229,-4.4545,3.698],[105.2315,-4.4622,4.326],[105.2388,-4.4603,5.0569],[105.2424,-4.4715,4.023],[105.2487,-4.4726,20.646],[105.2555,-4.4679,20.363],[105.2547,-4.4664,20.363],[105.2603,-4.4535,6.4434],[105.2673,-4.445,5.4269],[105.2566,-4.4397,2.4867],[105.258,-4.4349,3.5404],[105.2556,-4.4253,25.0069],[105.2567,-4.4225,35.6811],[105.2526,-4.4185,38.46],[105.2354,-4.4204,15.5661],[105.2341,-4.4233,14.2027]]],
[[[105.2049,-4.3469,43.7847],[105.2033,-4.3415,25.1437],[105.2069,-4.335,28.0425],[105.2056,-4.3289,19.8486],[105.1929,-4.3289,28.1966],[105.1843,-4.3356,40.9538],[105.1817,-4.3397,47.9889],[105.1822,-4.3443,39.8465],[105.1869,-4.3498,42.0674],[105.1843,-4.3535,40.0849],[105.1838,-4.3597,54.8946],[105.2036,-4.3599,51.6455],[105.2082,-4.3551,46.0935],[105.2206,-4.3532,47.919],[105.2261,-4.3603,51.9773],[105.2306,-4.3603,44.7631],[105.2299,-4.3523,42.4175],[105.2322,-4.3516,45.0524],[105.2331,-4.3491,38.9887],[105.2311,-4.3435,36.3828],[105.2288,-4.3438,46.2931],[105.2296,-4.3464,42.4437],[105.2219,-4.348,50.586],[105.2042,-4.349,43.2826],[105.2049,-4.3469,43.7847]]]]}}