{"type":"Feature","properties":{"GID_3":"IDN.9.13.3_1","GID_0":"IDN","country":"Indonesia","GID_1":"IDN.9_1","province":"JawaBarat","NL_NAME_1":"NA","GID_2":"IDN.9.13_1","county":"Karawang","NL_NAME_2":"NA","city":"Ciampel","VARNAME_3":"NA","NL_NAME_3":"NA","TYPE_3":"Kecamatan","ENGTYPE_3":"Sub-district","CC_3":"3215020","HASC_3":"NA","name":"Ciampel.city"},
"geometry":{"type": "MultiPolygon","coordinates": [[[[107.372,-6.4716,31.1802],[107.3732,-6.4683,25.5],[107.378,-6.468,25.5],[107.3804,-6.4661,39.1042],[107.3789,-6.4644,27.5389],[107.3744,-6.465,25.5],[107.3697,-6.4595,27.1962],[107.3708,-6.4553,25.8624],[107.3728,-6.454,31.0002],[107.3763,-6.4546,27.6791],[107.3788,-6.4509,27.5922],[107.3782,-6.4378,24.7772],[107.3756,-6.4312,20.2083],[107.3736,-6.4168,20.0958],[107.3665,-6.4112,19.7529],[107.3616,-6.4117,23.2401],[107.3594,-6.4066,23.9137],[107.3619,-6.4021,19.125],[107.3667,-6.3999,19.375],[107.3714,-6.4009,20.0],[107.3762,-6.4,21.9001],[107.3757,-6.3957,40.2462],[107.3673,-6.3934,21.0585],[107.3681,-6.3853,19.6661],[107.3659,-6.3825,28.4475],[107.3584,-6.3837,9.9259],[107.354,-6.387,14.333],[107.3498,-6.3859,18.6212],[107.3465,-6.3795,16.584],[107.3457,-6.3736,21.3804],[107.3393,-6.3712,15.9398],[107.3462,-6.3684,18.6877],[107.3435,-6.3645,19.5051],[107.3381,-6.3626,16.9683],[107.3338,-6.3588,15.592],[107.3302,-6.3584,15.4252],[107.3261,-6.3629,17.3939],[107.3216,-6.3568,15.5405],[107.3191,-6.3573,15.7185],[107.3186,-6.3592,16.6347],[107.3159,-6.3574,20.6178],[107.3123,-6.3582,21.6923],[107.3112,-6.3605,23.7434],[107.3061,-6.3571,27.3499],[107.3021,-6.3698,31.608],[107.2988,-6.3717,28.4082],[107.2986,-6.3748,35.1409],[107.2952,-6.3762,31.2422],[107.2953,-6.3815,31.3044],[107.292,-6.3842,32.8968],[107.2887,-6.3842,38.0233],[107.2892,-6.3856,35.9853],[107.2852,-6.3882,48.0768],[107.2877,-6.3899,50.5648],[107.2866,-6.3912,40.8969],[107.2878,-6.3925,58.4233],[107.2851,-6.3958,52.2133],[107.2866,-6.3973,52.0796],[107.2834,-6.3992,64.601],[107.2824,-6.4054,44.0675],[107.2808,-6.4066,47.5071],[107.2786,-6.4055,48.4743],[107.2779,-6.4093,54.5437],[107.2753,-6.4092,47.3435],[107.2772,-6.411,50.0548],[107.2763,-6.4151,50.4884],[107.2788,-6.4186,58.029],[107.2815,-6.4173,57.1482],[107.2833,-6.4202,54.3344],[107.2876,-6.4221,57.3975],[107.2955,-6.42,83.8905],[107.2999,-6.4205,111.0798],[107.2995,-6.4237,110.0214],[107.3048,-6.4281,115.2737],[107.3058,-6.4345,105.0243],[107.3082,-6.4355,100.7531],[107.3096,-6.4407,95.067],[107.3069,-6.445,94.0234],[107.3045,-6.4452,100.2535],[107.3006,-6.4531,130.0476],[107.2961,-6.481,83.2441],[107.2905,-6.4829,71.2207],[107.2943,-6.4865,89.7526],[107.2947,-6.493,74.4469],[107.2987,-6.4965,76.4891],[107.3058,-6.491,102.9184],[107.3275,-6.4845,212.1702],[107.3358,-6.4854,229.8036],[107.3403,-6.4881,281.9665],[107.3504,-6.4856,162.2811],[107.3667,-6.4967,93.1153],[107.375,-6.4952,63.1764],[107.3775,-6.4972,43.0734],[107.3903,-6.4998,30.0593],[107.3892,-6.4912,27.6445],[107.3822,-6.4882,27.9763],[107.3811,-6.4812,29.1464],[107.3729,-6.4748,26.7994],[107.372,-6.4716,31.1802]]]]}}