{"type":"Feature","properties":{"GID_3":"IDN.11.38.10_1","GID_0":"IDN","country":"Indonesia","GID_1":"IDN.11_1","province":"JawaTimur","NL_NAME_1":"NA","GID_2":"IDN.11.38_1","county":"Tulungagung","NL_NAME_2":"NA","city":"Ngantru","VARNAME_3":"NA","NL_NAME_3":"NA","TYPE_3":"Kecamatan","ENGTYPE_3":"Sub-district","CC_3":"3504140","HASC_3":"NA","name":"Ngantru.city"},
"geometry":{"type": "MultiPolygon","coordinates": [[[[111.9944,-8.0603,95.3403],[111.9939,-8.0579,94.866],[111.9891,-8.0546,94.1166],[111.9883,-8.05,93.7549],[111.9797,-8.0477,93.9934],[111.9774,-8.044,94.9694],[111.9749,-8.0443,92.9894],[111.9709,-8.0371,90.5059],[111.9707,-8.0312,92.7504],[111.9693,-8.03,92.7504],[111.9703,-8.0277,92.409],[111.9682,-8.0228,95.213],[111.9651,-8.0199,93.4692],[111.9621,-8.014,89.9998],[111.9626,-8.0121,91.7697],[111.9567,-8.0089,90.5414],[111.9581,-8.0061,88.5805],[111.9556,-7.9981,85.2508],[111.9571,-7.9975,84.6033],[111.9565,-7.9902,83.544],[111.9555,-7.9909,83.544],[111.9558,-7.9891,85.3818],[111.9537,-7.9881,85.6821],[111.9504,-7.9748,84.4004],[111.9471,-7.9711,83.987799999999993],[111.947,-7.9667,82.5796],[111.9439,-7.9645,86.2066],[111.9466,-7.9609,81.3288],[111.9452,-7.9536,78.2192],[111.9438,-7.9534,72.9429],[111.9411,-7.9561,79.3897],[111.9352,-7.9567,76.7276],[111.9312,-7.9623,78.1908],[111.9268,-7.9638,75.0807],[111.9246,-7.9712,76.1109],[111.9184,-7.9794,76.4354],[111.9182,-7.9892,79.4722],[111.9148,-7.9945,85.1689],[111.9186,-7.9951,78.0767],[111.9204,-7.9982,80.4968],[111.9183,-8.013,79.4969],[111.9303,-8.0213,84.2094],[111.9339,-8.0287,82.4057],[111.941,-8.0369,83.986],[111.9519,-8.0442,88.1792],[111.9567,-8.0437,91.7591],[111.9579,-8.0461,90.9425],[111.957,-8.0494,85.278],[111.9789,-8.0618,90.5872],[111.9844,-8.0721,93.8497],[111.9912,-8.0782,90.0721],[111.9934,-8.0735,100.4576],[111.9944,-8.0603,95.3403]]]]}}