{"type":"Feature","properties":{"GID_3":"IDN.32.34.14_1","GID_0":"IDN","country":"Indonesia","GID_1":"IDN.32_1","province":"SumateraUtara","NL_NAME_1":"NA","GID_2":"IDN.32.34_1","county":"TobaSamosir","NL_NAME_2":"NA","city":"Silaen","VARNAME_3":"NA","NL_NAME_3":"NA","TYPE_3":"Kecamatan","ENGTYPE_3":"Sub-district","CC_3":"1206060","HASC_3":"NA","name":"Silaen.city"},
"geometry":{"type": "MultiPolygon","coordinates": [[[[99.2292,2.3296,1238.0583],[99.2364,2.335,1411.5239],[99.2396,2.3447,1402.1993],[99.2418,2.3783,1366.2262],[99.244,2.3856,1606.948],[99.2581,2.3978,1798.1876],[99.258,2.4024,1889.3807],[99.2532,2.4064,1918.7422],[99.2474,2.4151,1795.6055],[99.2715,2.4153,1572.0681],[99.2959,2.4089,1861.1313],[99.3179,2.409,1376.7855],[99.3452,2.416,1309.7211],[99.3488,2.4385,1638.4791],[99.3685,2.4749,1427.4935],[99.372,2.4862,1192.8346],[99.3639,2.4881,1095.4764],[99.3392,2.4895,1166.3057],[99.3292,2.4964,997.8804],[99.311,2.515,837.3181],[99.3072,2.5091,858.9851],[99.3069,2.5002,875.3798],[99.299,2.4895,1025.2104],[99.2814,2.4895,973.2043],[99.2766,2.4871,1122.6699],[99.2728,2.483,1232.2686],[99.2691,2.4828,1375.3621],[99.279,2.4754,1033.1571],[99.2767,2.4728,1128.9568],[99.2617,2.4655,1291.7706],[99.243,2.4532,1351.2122],[99.2331,2.4545,1449.3606],[99.2225,2.4483,1143.2974],[99.2178,2.4427,962.6599],[99.2076,2.4234,925.6801],[99.2024,2.4181,935.27739999999994],[99.1945,2.4158,926.7914],[99.1995,2.4058,925.928],[99.1995,2.3975,940.709],[99.207,2.3971,930.9581],[99.2093,2.3919,956.6528],[99.2093,2.3809,930.4926],[99.193,2.3758,933.373],[99.1928,2.3626,954.4767],[99.1979,2.3567,963.7455],[99.2007,2.3445,955.9523],[99.2174,2.3295,1103.2615],[99.2193,2.3254,1161.7537],[99.2292,2.3296,1238.0583]]]]}}