{"type":"Feature","properties":{"GID_3":"IDN.21.3.2_1","GID_0":"IDN","country":"Indonesia","GID_1":"IDN.21_1","province":"NusaTenggaraTimur","NL_NAME_1":"NA","GID_2":"IDN.21.3_1","county":"Ende","NL_NAME_2":"NA","city":"Detusoko","VARNAME_3":"NA","NL_NAME_3":"NA","TYPE_3":"Kecamatan","ENGTYPE_3":"Sub-district","CC_3":"5311070","HASC_3":"NA","name":"Detusoko.city"},
"geometry":{"type": "MultiPolygon","coordinates": [[[[121.7163,-8.7754,589.8552],[121.7163,-8.774,520.9028],[121.7179,-8.774,529.3475],[121.7176,-8.7791,646.7997],[121.7206,-8.7792,694.5704],[121.7206,-8.7816,735.8558],[121.7295,-8.7846,874.7302],[121.7344,-8.7907,987.3278],[121.7454,-8.7992,1210.9882],[121.7591,-8.7947,1085.2775],[121.7662,-8.7866,1170.4952],[121.768,-8.7812,1341.6038],[121.8025,-8.7622,1647.7167],[121.7934,-8.7502,1614.8738],[121.8016,-8.7343,1598.8057],[121.8023,-8.7283,1415.119],[121.8047,-8.7269,1365.4552],[121.8087,-8.7195,1206.3872],[121.8081,-8.7144,1129.1688],[121.8099,-8.7092,1080.0034],[121.8079,-8.7033,1004.3163],[121.809,-8.7027,997.9889],[121.8178,-8.7083,1093.5459],[121.8216,-8.7085,1104.8759],[121.8324,-8.6988,1403.8401],[121.8395,-8.7033,1285.8403],[121.8483,-8.6947,1247.9871],[121.8509,-8.6916,1236.649],[121.8501,-8.6902,1217.6365],[121.8516,-8.6879,1156.0802],[121.857,-8.6846,1026.1001],[121.8585,-8.6809,991.1205],[121.8579,-8.6743,834.3525],[121.8631,-8.6701,718.7407],[121.8648,-8.6661,662.8887],[121.8706,-8.6632,607.4278],[121.8746,-8.6547,546.8075],[121.8762,-8.6468,459.2028],[121.8796,-8.6427,416.3353],[121.8821,-8.6429,409.1644],[121.8847,-8.6385,385.4426],[121.8786,-8.6295,724.7206],[121.8723,-8.6305,726.6722],[121.8712,-8.6335,770.1038],[121.8637,-8.6373,825.5555],[121.8638,-8.6393,871.4822],[121.8604,-8.6414,919.5555],[121.86,-8.6474,992.4318],[121.8568,-8.6492,977.4879],[121.8484,-8.6624,1144.0536],[121.8241,-8.6734,1535.2338],[121.8106,-8.672,1670.5836],[121.8104,-8.6768,1551.2526],[121.8069,-8.6818,1166.1805],[121.8061,-8.6857,1082.5719],[121.8013,-8.6894,977.2118],[121.7981,-8.679,1101.0681],[121.7991,-8.6749,1120.0422],[121.7972,-8.6724,1160.948],[121.7967,-8.6652,1337.8188],[121.7908,-8.6663,1288.177],[121.7847,-8.6709,1401.3663],[121.7824,-8.6748,1430.0178],[121.7731,-8.6781,1174.2825],[121.7663,-8.6753,959.3298],[121.7624,-8.6753,877.1875],[121.7593,-8.672,771.6926],[121.7527,-8.6695,520.4551],[121.7494,-8.6696,464.9937],[121.7374,-8.662,300.6749],[121.7331,-8.6621,248.6285],[121.7302,-8.6562,279.6478],[121.7148,-8.6518,134.1962],[121.7169,-8.6541,129.6571],[121.7161,-8.6565,156.537],[121.7185,-8.6577,161.1446],[121.7212,-8.6623,271.3758],[121.7212,-8.6668,268.715],[121.7286,-8.6713,373.3766],[121.7245,-8.6783,415.7505],[121.7143,-8.6764,225.7666],[121.7032,-8.6969,717.8751],[121.696,-8.6992,618.4296],[121.6945,-8.7022,505.219],[121.6997,-8.7091,644.0667],[121.701,-8.7139,746.6454],[121.6949,-8.7199,1030.7097],[121.6967,-8.7267,1032.3265],[121.6928,-8.7305,1062.5717],[121.6928,-8.7369,763.6426],[121.6908,-8.7415,955.9772],[121.6978,-8.7457,917.7809],[121.6993,-8.749,885.1134],[121.7048,-8.7537,727.4137],[121.706,-8.7598,427.0574],[121.6992,-8.7636,354.1513],[121.694,-8.7643,355.2851],[121.694,-8.7678,397.4501],[121.691,-8.7681,323.3635],[121.6901,-8.7702,315.7002],[121.6945,-8.7752,580.7684],[121.6947,-8.7891,899.7172],[121.699,-8.7934,1026.3917],[121.7163,-8.7754,589.8552]]],
[[[121.8059,-8.5349,32.4385],[121.805,-8.5339,30.5835],[121.803,-8.5392,83.9827],[121.8076,-8.5386,35.1401],[121.8059,-8.5349,32.4385]]]]}}