{"type":"Feature","properties":{"GID_3":"IDN.7.2.4_1","GID_0":"IDN","country":"Indonesia","GID_1":"IDN.7_1","province":"JakartaRaya","NL_NAME_1":"NA","GID_2":"IDN.7.2_1","county":"JakartaPusat","NL_NAME_2":"NA","city":"Kemayoran","VARNAME_3":"NA","NL_NAME_3":"NA","TYPE_3":"Kecamatan","ENGTYPE_3":"Sub-district","CC_3":"3173060","HASC_3":"NA","name":"Kemayoran.city"},
"geometry":{"type": "MultiPolygon","coordinates": [[[[106.8571,-6.1741,10.2229],[106.8787,-6.1664,6.0927],[106.8814,-6.1625,5.7668],[106.8769,-6.1635,8.7013],[106.8602,-6.1538,4.5134],[106.8612,-6.1509,6.286],[106.8598,-6.1526,6.752],[106.8563,-6.1518,5.311],[106.8396,-6.1545,6.5009],[106.8404,-6.1582,5.823],[106.8371,-6.1592,6.0246],[106.8403,-6.172,7.9192],[106.8429,-6.1716,7.9544],[106.8427,-6.1686,7.1883],[106.8487,-6.1682,7.3901],[106.8522,-6.1691,7.8919],[106.852,-6.1747,7.3542],[106.8571,-6.1741,10.2229]]]]}}