{"type":"Feature","properties":{"GID_3":"IDN.10.5.18_1","GID_0":"IDN","country":"Indonesia","GID_1":"IDN.10_1","province":"JawaTengah","NL_NAME_1":"NA","GID_2":"IDN.10.5_1","county":"Boyolali","NL_NAME_2":"NA","city":"Teras","VARNAME_3":"NA","NL_NAME_3":"NA","TYPE_3":"Kecamatan","ENGTYPE_3":"Sub-district","CC_3":"3309070","HASC_3":"NA","name":"Teras.city"},
"geometry":{"type": "MultiPolygon","coordinates": [[[[110.6619,-7.5779,193.9876],[110.6605,-7.5756,197.7539],[110.6538,-7.5743,210.9048],[110.6545,-7.5704,215.2755],[110.6669,-7.5687,192.9583],[110.6672,-7.5618,194.2291],[110.6658,-7.5616,196.6763],[110.6662,-7.5583,199.5956],[110.6649,-7.5578,201.9374],[110.6658,-7.5554,201.8318],[110.6733,-7.5576,183.5305],[110.6741,-7.5536,185.3124],[110.6713,-7.5533,187.6974],[110.6694,-7.5487,200.0638],[110.6695,-7.5415,203.8058],[110.6729,-7.5378,194.7032],[110.6728,-7.5353,195.3782],[110.6701,-7.5354,202.435],[110.6702,-7.5312,198.9763],[110.6661,-7.5311,207.8773],[110.6664,-7.5264,204.5637],[110.6707,-7.5245,191.6951],[110.6784,-7.5261,181.217],[110.6786,-7.5112,181.3303],[110.6775,-7.5117,177.1874],[110.6763,-7.5065,170.8279],[110.6749,-7.5068,170.8279],[110.6752,-7.5042,177.7701],[110.6712,-7.5043,184.3217],[110.668,-7.4996,213.9536],[110.6466,-7.4913,314.3125],[110.6436,-7.495,298.3661],[110.6454,-7.4976,286.783],[110.654,-7.4996,272.6763],[110.6511,-7.5035,304.2498],[110.6518,-7.5089,288.4251],[110.6504,-7.5133,236.4798],[110.6476,-7.5162,245.0597],[110.6515,-7.5188,237.8823],[110.6539,-7.5262,224.9741],[110.6485,-7.5261,241.3797],[110.6466,-7.5278,243.3411],[110.6468,-7.5314,252.1295],[110.6378,-7.5346,276.1114],[110.6369,-7.5415,283.6122],[110.6385,-7.5437,277.5247],[110.6367,-7.5497,278.8554],[110.6417,-7.5523,268.8499],[110.6356,-7.5623,264.2471],[110.6329,-7.56,277.9107],[110.6296,-7.5664,281.5123],[110.6267,-7.5652,294.3892],[110.6245,-7.5803,289.6384],[110.6413,-7.5863,239.5658],[110.6493,-7.5877,213.3936],[110.65,-7.5829,213.4236],[110.6597,-7.5873,189.7826],[110.6586,-7.585,194.2341],[110.6634,-7.58,192.3783],[110.6619,-7.5779,193.9876]]]]}}