{"type":"Feature","properties":{"GID_3":"IDN.32.3.4_1","GID_0":"IDN","country":"Indonesia","GID_1":"IDN.32_1","province":"SumateraUtara","NL_NAME_1":"NA","GID_2":"IDN.32.3_1","county":"Dairi","NL_NAME_2":"NA","city":"Parbuluan","VARNAME_3":"NA","NL_NAME_3":"NA","TYPE_3":"Kecamatan","ENGTYPE_3":"Sub-district","CC_3":"1210040","HASC_3":"NA","name":"Parbuluan.city"},
"geometry":{"type": "MultiPolygon","coordinates": [[[[98.4865,2.5469,1704.1614],[98.4905,2.5469,1738.5886],[98.4987,2.5511,1801.8613],[98.5237,2.5687,1747.2367],[98.5469,2.5779,1692.9707],[98.5541,2.5837,1728.1688],[98.5657,2.6743,1797.5334],[98.5323,2.6631,1708.5925],[98.5257,2.6623,1682.0679],[98.4895,2.6791,1503.8882],[98.4362,2.6868,1190.311],[98.4269,2.6967,1119.7642],[98.4211,2.6995,1090.7111],[98.4069,2.7131,1024.609],[98.3903,2.7387,956.2755],[98.3871,2.7395,939.8724],[98.3825,2.7325,1080.7833],[98.3753,2.7269,1114.0281],[98.3697,2.6999,1212.663],[98.3809,2.6865,1268.8864],[98.3847,2.6746,1337.2554],[98.3903,2.6675,1373.2852],[98.3914,2.6605,1400.033],[98.3971,2.6537,1431.6882],[98.3985,2.6493,1438.0508],[98.3966,2.6447,1439.2588],[98.4199,2.638,1512.6555],[98.4225,2.6356,1532.2986],[98.4285,2.6236,1561.79],[98.4379,2.5944,1580.1909],[98.4442,2.5817,1610.6647],[98.4536,2.5705,1602.2906],[98.4646,2.5626,1648.162],[98.4669,2.5528,1625.5115],[98.4753,2.5523,1688.8901],[98.4865,2.5469,1704.1614]]]]}}