{"type":"Feature","properties":{"GID_3":"IDN.9.12.12_1","GID_0":"IDN","country":"Indonesia","GID_1":"IDN.9_1","province":"JawaBarat","NL_NAME_1":"NA","GID_2":"IDN.9.12_1","county":"Indramayu","NL_NAME_2":"NA","city":"Jatibarang","VARNAME_3":"NA","NL_NAME_3":"NA","TYPE_3":"Kecamatan","ENGTYPE_3":"Sub-district","CC_3":"3212130","HASC_3":"NA","name":"Jatibarang.city"},
"geometry":{"type": "MultiPolygon","coordinates": [[[[108.34,-6.5088,10.9157],[108.3392,-6.5036,10.4066],[108.329,-6.5021,9.1137],[108.3253,-6.4989,9.0632],[108.3239,-6.4826,9.2365],[108.3199,-6.4773,11.2043],[108.3203,-6.4729,7.8817],[108.3224,-6.4717,7.4015],[108.3232,-6.4684,7.3103],[108.3222,-6.4582,6.6128],[108.3203,-6.4542,5.9649],[108.3235,-6.4527,6.0775],[108.3202,-6.4502,6.6154],[108.3211,-6.4482,5.7259],[108.3241,-6.4477,5.0805],[108.3212,-6.4461,4.8834],[108.3212,-6.438,4.5628],[108.3278,-6.4276,4.2398],[108.3288,-6.419,3.7451],[108.3372,-6.4174,3.639],[108.3393,-6.3977,3.6621],[108.346,-6.3935,2.7646],[108.3487,-6.3876,2.9259],[108.3374,-6.3876,3.1148],[108.3305,-6.3975,3.9605],[108.3305,-6.4036,3.8275],[108.3293,-6.4049,4.6119],[108.3256,-6.4033,5.5292],[108.3196,-6.3939,2.9765],[108.3149,-6.3953,3.5312],[108.3014,-6.3937,4.218],[108.298,-6.3907,4.3397],[108.2967,-6.3877,8.9397],[108.2975,-6.3853,7.7795],[108.2947,-6.383,6.8788],[108.2882,-6.3959,6.9282],[108.292,-6.4019,5.3456],[108.2934,-6.4085,9.4503],[108.2868,-6.4071,7.7454],[108.2856,-6.4103,9.3145],[108.2924,-6.4131,9.4002],[108.2992,-6.4099,10.9794],[108.2996,-6.4114,10.2847],[108.2937,-6.4156,8.8822],[108.2939,-6.4175,9.8677],[108.2877,-6.4171,9.5788],[108.2859,-6.4202,12.0479],[108.289,-6.4263,9.8577],[108.2905,-6.4267,10.8907],[108.2917,-6.4212,12.1146],[108.2939,-6.4205,7.682],[108.2967,-6.4322,6.3053],[108.2942,-6.4398,14.3272],[108.3013,-6.4385,12.7191],[108.299,-6.4429,13.3022],[108.2934,-6.4442,9.7067],[108.2922,-6.45,5.9918],[108.2955,-6.4461,13.4186],[108.3001,-6.4478,9.9287],[108.2999,-6.4509,10.6079],[108.2971,-6.4496,12.0415],[108.2941,-6.4513,11.0689],[108.2988,-6.4553,10.2355],[108.2996,-6.4585,10.8387],[108.2982,-6.4594,10.8387],[108.2914,-6.4573,6.113],[108.2901,-6.4577,6.113],[108.2905,-6.4613,6.7205],[108.2972,-6.4705,6.5033],[108.302,-6.4731,12.8278],[108.2998,-6.4801,11.5436],[108.3033,-6.4824,9.7068],[108.3034,-6.4879,11.4326],[108.3085,-6.49,7.9032],[108.3062,-6.4994,6.9185],[108.3125,-6.4988,12.9346],[108.3155,-6.5035,9.0099],[108.3215,-6.5047,7.6303],[108.3237,-6.5125,8.5655],[108.3275,-6.5164,10.5185],[108.3319,-6.5106,16.8146],[108.3354,-6.5143,17.9497],[108.3375,-6.5145,17.2504],[108.34,-6.5088,10.9157]]]]}}