{"type":"Feature","properties":{"GID_3":"IDN.4.3.13_1","GID_0":"IDN","country":"Indonesia","GID_1":"IDN.4_1","province":"Banten","NL_NAME_1":"NA","GID_2":"IDN.4.3_1","county":"KotaTangerang","NL_NAME_2":"NA","city":"Tangerang","VARNAME_3":"NA","NL_NAME_3":"NA","TYPE_3":"Kecamatan","ENGTYPE_3":"Sub-district","CC_3":"3671030","HASC_3":"NA","name":"Tangerang.city"},
"geometry":{"type": "MultiPolygon","coordinates": [[[[106.6264,-6.215,17.0855],[106.6466,-6.2138,22.8812],[106.6462,-6.207,22.2125],[106.6485,-6.2048,21.3638],[106.6515,-6.2046,20.6759],[106.6503,-6.1979,22.0585],[106.6517,-6.195,21.0596],[106.6487,-6.1935,21.4142],[106.6481,-6.1863,21.0904],[106.657,-6.1864,16.8287],[106.6585,-6.1827,14.8373],[106.6613,-6.1832,14.2095],[106.6621,-6.1809,12.8511],[106.6602,-6.1767,12.5762],[106.6587,-6.178,13.2787],[106.6572,-6.1755,13.367],[106.6603,-6.1753,13.3415],[106.6578,-6.1728,11.9237],[106.6596,-6.1723,12.5344],[106.6581,-6.1674,12.3197],[106.6607,-6.1669,12.0009],[106.6592,-6.164,10.2767],[106.6286,-6.169,12.751],[106.6279,-6.1793,14.3236],[106.6299,-6.1817,13.8369],[106.6303,-6.1867,11.8788],[106.6342,-6.1892,12.2082],[106.632,-6.1911,12.8938],[106.6264,-6.1916,15.6865],[106.6264,-6.1986,13.788],[106.622,-6.2057,13.8484],[106.6236,-6.211,14.0439],[106.6199,-6.2119,12.9196],[106.6264,-6.215,17.0855]]]]}}