{"type":"Feature","properties":{"GID_3":"IDN.32.21.9_1","GID_0":"IDN","country":"Indonesia","GID_1":"IDN.32_1","province":"SumateraUtara","NL_NAME_1":"NA","GID_2":"IDN.32.21_1","county":"PadangLawasUtara","NL_NAME_2":"NA","city":"Simangambat","VARNAME_3":"NA","NL_NAME_3":"NA","TYPE_3":"Kecamatan","ENGTYPE_3":"Sub-district","CC_3":"1220050","HASC_3":"NA","name":"Simangambat.city"},
"geometry":{"type": "MultiPolygon","coordinates": [[[[100.0076,1.3748,124.9506],[100.0152,1.3623,121.4337],[100.0254,1.3569,117.0369],[100.0316,1.3816,98.0838],[100.0416,1.392,95.955],[100.051,1.3948,103.2626],[100.0691,1.3987,146.6574],[100.0869,1.4005,115.0356],[100.0953,1.4004,139.4892],[100.1005,1.3975,118.5255],[100.1145,1.3951,102.6068],[100.1255,1.3982,109.5066],[100.136,1.4039,93.412],[100.1688,1.4027,88.289],[100.2008,1.3988,99.1008],[100.2119,1.406,59.904],[100.2221,1.4098,60.5888],[100.2372,1.4125,74.9295],[100.2517,1.4128,52.065],[100.2657,1.423,59.072],[100.2834,1.4247,42.5775],[100.2887,1.4231,43.8249],[100.2964,1.4182,40.6254],[100.3075,1.417,36.618],[100.3153,1.4254,32.8531],[100.3247,1.4278,31.8019],[100.3285,1.4308,31.3688],[100.3312,1.4306,28.0167],[100.3342,1.4341,31.9424],[100.3427,1.436,25.2854],[100.3396,1.4387,26.9323],[100.3321,1.4398,24.8214],[100.3275,1.4432,25.5134],[100.3227,1.4429,25.5544],[100.3194,1.4468,26.1624],[100.3002,1.4527,29.4757],[100.2852,1.4608,33.1816],[100.2846,1.4627,31.9566],[100.2794,1.4662,33.8116],[100.2813,1.4751,57.9897],[100.2853,1.4786,46.8178],[100.2944,1.4736,55.9582],[100.3035,1.4717,62.4324],[100.309,1.4717,40.2257],[100.3168,1.4761,51.9901],[100.3189,1.4881,48.0752],[100.3184,1.5004,63.3265],[100.3109,1.5109,83.0113],[100.3058,1.5149,78.8507],[100.2877,1.5206,86.1256],[100.2705,1.5324,90.317],[100.2569,1.5366,108.6079],[100.2402,1.5495,101.4956],[100.2326,1.552,100.9295],[100.2186,1.5669,95.2842],[100.2091,1.5696,80.8127],[100.2089,1.5755,86.8133],[100.2016,1.5842,102.734],[100.1886,1.5881,129.9942],[100.173,1.5953,122.9529],[100.1622,1.6099,132.3883],[100.1652,1.6189,145.5379],[100.1645,1.6223,141.3507],[100.1552,1.6297,131.0518],[100.1453,1.6312,126.1429],[100.1401,1.6503,81.3971],[100.1359,1.6544,58.0622],[100.1261,1.6587,66.9252],[100.1218,1.6704,71.4292],[100.1033,1.6967,30.9048],[100.0844,1.7129,31.1973],[100.079,1.7201,21.4343],[100.0683,1.725,23.8653],[100.058,1.7239,28.9189],[100.049,1.7205,43.5316],[100.0403,1.6996,52.6866],[100.019,1.6631,43.4724],[100.0144,1.6582,41.8122],[100.0039,1.6409,55.1168],[99.9994,1.6375,55.6441],[99.993,1.6367,56.7074],[99.9771,1.6309,64.9827],[99.9725,1.6222,68.9883],[99.9625,1.6097,64.488],[99.9574,1.6068,60.2564],[99.9425,1.5852,67.1497],[99.9369,1.5821,70.1576],[99.9264,1.5799,74.7641],[99.9196,1.576,74.812],[99.9129,1.5694,64.8383],[99.8975,1.5487,43.3071],[99.9023,1.5442,41.6464],[99.898,1.543,41.5506],[99.898,1.5414,40.0093],[99.9017,1.5411,40.4815],[99.9033,1.5427,45.1681],[99.9035,1.5384,37.6698],[99.9095,1.5388,49.9352],[99.9081,1.5357,38.274],[99.9116,1.5349,42.2253],[99.9082,1.5336,43.2393],[99.9147,1.5343,44.1187],[99.9129,1.5319,37.6795],[99.9156,1.531,38.105],[99.9135,1.5297,36.3809],[99.9153,1.5291,36.6979],[99.9139,1.5271,38.1005],[99.9174,1.5288,35.9553],[99.9195,1.5255,36.7739],[99.9232,1.48,64.3054],[99.9282,1.4678,81.8589],[99.944,1.4394,68.2248],[99.9471,1.4321,64.267],[99.9469,1.4292,56.7038],[99.9487,1.4278,58.3383],[99.9442,1.4214,61.2896],[99.9472,1.4155,62.9722],[99.9432,1.4051,75.0518],[99.9502,1.3978,73.5614],[99.9526,1.382,89.2595],[99.9545,1.3788,87.6914],[99.9531,1.3756,99.4141],[99.9543,1.3676,124.6117],[99.9651,1.3772,141.2267],[99.9761,1.3811,138.503],[99.9929,1.382,140.7558],[100.0011,1.3803,131.4812],[100.0076,1.3748,124.9506]]]]}}