{"type":"Feature","properties":{"GID_3":"IDN.20.10.7_1","GID_0":"IDN","country":"Indonesia","GID_1":"IDN.20_1","province":"NusaTenggaraBarat","NL_NAME_1":"NA","GID_2":"IDN.20.10_1","county":"Sumbawa","NL_NAME_2":"NA","city":"LabuhanBadas","VARNAME_3":"NA","NL_NAME_3":"NA","TYPE_3":"Kecamatan","ENGTYPE_3":"Sub-district","CC_3":"5204081","HASC_3":"NA","name":"Labuhan_Badas.city"},
"geometry":{"type": "MultiPolygon","coordinates": [[[[117.3681,-8.4679,2.5661],[117.3674,-8.466,22.195],[117.3733,-8.4626,0.0],[117.3686,-8.458,4.7908],[117.3618,-8.4577,0.0],[117.3575,-8.4547,10.5512],[117.3544,-8.4558,1.1607],[117.3445,-8.4517,7.0391],[117.338,-8.4461,0.0],[117.3324,-8.4439,1.6536],[117.3309,-8.4414,7.6982],[117.3159,-8.4396,10.0685],[117.3064,-8.4833,120.6056],[117.3079,-8.4848,94.8607],[117.3045,-8.4883,122.9417],[117.3037,-8.4932,164.1496],[117.2989,-8.499,201.0646],[117.299,-8.5049,277.8862],[117.2967,-8.5058,226.9957],[117.2961,-8.5116,290.4207],[117.2926,-8.5167,383.6856],[117.2918,-8.5318,844.453],[117.3011,-8.534,350.6461],[117.3107,-8.5336,510.4509],[117.3176,-8.5315,441.6388],[117.3249,-8.5243,446.0856],[117.3306,-8.5111,289.6821],[117.3358,-8.5046,266.8514],[117.371,-8.5217,109.2776],[117.3884,-8.5253,146.4926],[117.3948,-8.5295,143.5663],[117.3982,-8.5279,77.2245],[117.3922,-8.5095,98.2916],[117.3916,-8.5005,84.6454],[117.394,-8.4834,10.2048],[117.4045,-8.4772,5.0809],[117.4096,-8.4767,7.0958],[117.409,-8.4732,4.6822],[117.4127,-8.4718,3.528],[117.4104,-8.4683,2.5428],[117.4036,-8.4658,0.4915],[117.3974,-8.4704,3.4052],[117.3907,-8.4726,0.0],[117.3838,-8.4712,0.3405],[117.3817,-8.4685,1.4232],[117.3833,-8.4664,0.0],[117.3772,-8.4635,2.338],[117.3729,-8.4663,21.336],[117.3705,-8.4655,1.4647],[117.3681,-8.4679,2.5661]]],
[[[117.3987,-8.1439,2.5819],[117.4121,-8.1387,2.2222],[117.4158,-8.1384,1.3218],[117.4172,-8.1398,0.0],[117.4238,-8.1379,0.6185],[117.4239,-8.1346,0.637],[117.418,-8.1356,1.6511],[117.414,-8.1308,0.0],[117.4035,-8.1285,5.6573],[117.3862,-8.1313,10.2321],[117.3814,-8.1342,5.9349],[117.381,-8.1392,2.608],[117.3767,-8.1465,1.6735],[117.3592,-8.1459,0.0],[117.3442,-8.1526,3.5728],[117.345,-8.1549,0.5597],[117.3535,-8.1537,3.9713],[117.3514,-8.1561,0.0],[117.3535,-8.1568,1.8161],[117.3613,-8.1527,6.4372],[117.3617,-8.1548,5.7444],[117.3572,-8.1564,1.6514],[117.36,-8.1594,0.9932],[117.3779,-8.1604,1.9234],[117.3828,-8.1578,3.4756],[117.3819,-8.156,0.0],[117.3764,-8.1566,2.7745],[117.3795,-8.1554,0.0],[117.3757,-8.1501,4.7853],[117.3791,-8.1511,1.1809],[117.3987,-8.1439,2.5819]]],
[[[117.6886,-8.1816,1.9056],[117.6899,-8.178,0.0],[117.6847,-8.1673,18.7608],[117.6699,-8.1537,2.3096],[117.6628,-8.1501,4.0058],[117.6565,-8.1486,1.1618],[117.6489,-8.1529,0.0],[117.6373,-8.1521,2.3971],[117.6239,-8.1544,0.0],[117.6064,-8.1548,9.3254],[117.6004,-8.1525,0.0],[117.5935,-8.1534,6.4503],[117.5859,-8.1521,6.823],[117.5591,-8.144,1.837],[117.5535,-8.1452,0.9411],[117.5377,-8.1549,22.2436],[117.5296,-8.155,20.7974],[117.5165,-8.1609,0.0],[117.5006,-8.1739,19.7868],[117.4855,-8.1827,0.0],[117.4805,-8.1904,2.7769],[117.4793,-8.2081,0.0],[117.488,-8.2281,8.2698],[117.4789,-8.2574,3.5572],[117.4849,-8.2613,0.0],[117.4899,-8.2598,0.0],[117.4964,-8.2613,2.9267],[117.4993,-8.2652,0.0],[117.5047,-8.2664,4.9143],[117.5078,-8.2695,2.1923],[117.5079,-8.277,0.0],[117.501,-8.2988,13.6475],[117.4931,-8.3168,15.6937],[117.4864,-8.3248,36.2782],[117.4765,-8.3321,23.8926],[117.4705,-8.3568,3.9708],[117.4821,-8.3619,8.9706],[117.487,-8.3663,0.0],[117.499,-8.3712,17.5457],[117.5161,-8.3845,6.3221],[117.5282,-8.3896,0.0],[117.5291,-8.3856,0.0],[117.5351,-8.3791,19.4058],[117.5472,-8.3706,4.0508],[117.5517,-8.3582,0.0],[117.5578,-8.3525,16.4865],[117.5703,-8.3353,3.0333],[117.5746,-8.3243,0.0],[117.5725,-8.3211,0.0],[117.5736,-8.3155,9.5237],[117.5788,-8.3101,4.4842],[117.5862,-8.2817,16.8144],[117.5892,-8.2779,3.5089],[117.6043,-8.2684,5.5041],[117.6071,-8.2644,24.2531],[117.6083,-8.2567,1.1238],[117.6059,-8.2525,11.8013],[117.6103,-8.2438,0.3505],[117.609,-8.2407,4.9221],[117.6103,-8.2381,1.1397],[117.6151,-8.2325,10.5952],[117.6267,-8.2236,2.2607],[117.6466,-8.2131,0.0],[117.6599,-8.1983,0.4021],[117.68,-8.1908,7.2851],[117.6861,-8.1859,0.0],[117.6886,-8.1816,1.9056]]],
[[[117.4228,-8.1277,0.0],[117.4237,-8.1283,0.0],[117.4243,-8.1273,0.0],[117.4237,-8.127,0.0],[117.4228,-8.1277,0.0]]]]}}