{"type":"Feature","properties":{"GID_3":"IDN.27.5.13_1","GID_0":"IDN","country":"Indonesia","GID_1":"IDN.27_1","province":"SulawesiTengah","NL_NAME_1":"NA","GID_2":"IDN.27.5_1","county":"Morowali","NL_NAME_2":"NA","city":"SoyoJaya","VARNAME_3":"NA","NL_NAME_3":"NA","TYPE_3":"Kecamatan","ENGTYPE_3":"Sub-district","CC_3":"7203071","HASC_3":"NA","name":"Soyo_Jaya.city"},
"geometry":{"type": "MultiPolygon","coordinates": [[[[121.17,-1.8728,603.6331],[121.1723,-1.8841,485.017],[121.1801,-1.8845,498.4103],[121.2103,-1.8831,338.2788],[121.2225,-1.88,174.0677],[121.2408,-1.881,393.075],[121.2557,-1.8763,578.4241],[121.334,-1.8783,0.0],[121.3355,-1.8754,15.4064],[121.3392,-1.8783,1.7857],[121.3434,-1.877,0.0],[121.3401,-1.874,18.8979],[121.3484,-1.8727,32.6674],[121.3499,-1.8706,51.4264],[121.3518,-1.8716,0.0],[121.3543,-1.8706,24.8044],[121.3585,-1.8758,13.7878],[121.3619,-1.8745,3.0445],[121.3592,-1.869,16.5592],[121.355,-1.8665,21.2255],[121.3515,-1.8682,28.1313],[121.347,-1.8673,9.7538],[121.3449,-1.8651,13.67],[121.344,-1.8605,42.4634],[121.3469,-1.8608,15.9325],[121.3472,-1.8589,39.2037],[121.3515,-1.8583,0.0],[121.3495,-1.8559,73.9613],[121.3499,-1.8503,55.2735],[121.3458,-1.8492,41.5282],[121.3443,-1.8417,0.0],[121.344,-1.8497,14.4856],[121.3415,-1.8539,0.0],[121.3362,-1.8532,9.7132],[121.3272,-1.8639,6.6729],[121.3242,-1.862,9.4368],[121.3256,-1.8596,0.0],[121.3236,-1.8573,22.7937],[121.3252,-1.8547,19.839],[121.3178,-1.8561,9.8364],[121.3167,-1.8535,3.0732],[121.3047,-1.8564,26.1487],[121.3021,-1.8525,0.0],[121.2989,-1.8572,39.4947],[121.2967,-1.8561,1.4216],[121.2942,-1.857,7.2534],[121.2926,-1.8453,14.1548],[121.2889,-1.8425,39.6949],[121.2901,-1.8337,86.5685],[121.2952,-1.8289,29.237],[121.2956,-1.8223,67.2587],[121.2977,-1.8205,14.8902],[121.2967,-1.8175,124.3878],[121.298,-1.8138,49.4304],[121.2962,-1.813,130.8592],[121.2966,-1.811,45.5012],[121.2949,-1.8094,29.504],[121.2961,-1.8063,28.4643],[121.2987,-1.8085,0.0],[121.3001,-1.8063,8.8185],[121.3007,-1.7997,77.3792],[121.2994,-1.7967,19.3461],[121.3022,-1.7963,0.0],[121.3027,-1.7929,35.2531],[121.3072,-1.7965,2.8756],[121.3079,-1.7951,8.9512],[121.3087,-1.7969,2.8756],[121.3105,-1.7945,20.4945],[121.3125,-1.7948,0.0],[121.318,-1.7847,0.0],[121.3206,-1.7837,7.1852],[121.3195,-1.7767,0.0],[121.3175,-1.7763,4.5619],[121.3195,-1.7751,0.0],[121.3156,-1.7756,3.5865],[121.3108,-1.7701,6.8241],[121.318,-1.7684,6.3172],[121.3194,-1.7694,5.0199],[121.3222,-1.7668,5.5812],[121.3214,-1.7645,9.4094],[121.3227,-1.7639,5.6716],[121.325,-1.7728,1.6816],[121.3295,-1.7734,0.9853],[121.3354,-1.7775,6.7214],[121.3367,-1.7766,1.6456],[121.3363,-1.7726,35.763],[121.341,-1.7724,24.4882],[121.3475,-1.7782,0.0],[121.3506,-1.7844,71.9536],[121.3499,-1.7865,0.0],[121.3536,-1.7871,32.9182],[121.3579,-1.7908,10.3958],[121.3611,-1.7886,41.9703],[121.367,-1.7917,17.8922],[121.368,-1.7962,0.0],[121.3707,-1.7974,43.0197],[121.3734,-1.8047,32.0064],[121.372,-1.8081,0.0],[121.3766,-1.8075,79.8234],[121.3787,-1.8085,26.8761],[121.379,-1.8104,6.0777],[121.3814,-1.809,48.1197],[121.387,-1.8115,0.0],[121.3928,-1.8055,43.5105],[121.4001,-1.805,18.3738],[121.4044,-1.8079,12.465],[121.4128,-1.8098,50.4911],[121.4144,-1.8124,62.415],[121.4122,-1.8133,0.0],[121.4161,-1.814,19.1264],[121.4147,-1.8181,24.0999],[121.4187,-1.822,16.7769],[121.4205,-1.8217,0.0],[121.4228,-1.8168,0.0],[121.4211,-1.8137,0.0],[121.4222,-1.8123,31.0894],[121.428,-1.8106,48.6391],[121.4308,-1.8129,0.0],[121.4335,-1.8092,46.1294],[121.4373,-1.8095,24.9483],[121.4423,-1.8048,25.2229],[121.446,-1.804,51.3449],[121.443,-1.7761,348.1111],[121.4378,-1.768,787.4984],[121.4254,-1.7588,732.5754],[121.4082,-1.7494,439.739],[121.3938,-1.7371,525.2994],[121.3787,-1.7269,491.3557],[121.3733,-1.7209,455.5164],[121.3617,-1.6965,489.6436],[121.3525,-1.6704,725.3656],[121.3531,-1.6537,981.387],[121.3507,-1.6383,1217.7731],[121.35,-1.6157,847.1475],[121.3525,-1.5129,1401.2678],[121.3509,-1.4732,1523.3011],[121.2978,-1.4729,1582.5776],[121.2751,-1.4713,1272.318],[121.2619,-1.4731,1175.5547],[121.2257,-1.4995,672.4187],[121.2273,-1.5084,869.2962],[121.2209,-1.5161,788.3054],[121.2153,-1.5168,778.8318],[121.2084,-1.5095,635.6228],[121.1966,-1.513,612.0665],[121.1889,-1.5179,599.2647],[121.185,-1.522,621.4167],[121.1708,-1.5505,773.2893],[121.1585,-1.5617,967.9697],[121.1583,-1.5659,861.2686],[121.1614,-1.5695,685.2898],[121.1615,-1.5749,639.0191],[121.1435,-1.572,1071.0045],[121.1189,-1.5737,1204.2842],[121.1112,-1.5818,1228.1796],[121.1092,-1.5876,1259.9087],[121.1143,-1.5945,1273.597],[121.1173,-1.6058,1327.6036],[121.1112,-1.616,1430.4534],[121.1091,-1.628,1481.545],[121.0993,-1.6396,1609.2266],[121.0972,-1.6601,1429.3636],[121.0925,-1.6784,1165.2571],[121.0788,-1.7059,1024.1012],[121.0817,-1.7275,714.7169],[121.0707,-1.7474,666.7398],[121.0722,-1.7566,563.9238],[121.0755,-1.7593,532.2399],[121.0829,-1.7614,583.2389],[121.1067,-1.7633,678.9504],[121.1208,-1.7713,638.34],[121.1563,-1.8316,753.6511],[121.17,-1.8728,603.6331]]]]}}