{"type":"Feature","properties":{"GID_3":"IDN.27.2.6_1","GID_0":"IDN","country":"Indonesia","GID_1":"IDN.27_1","province":"SulawesiTengah","NL_NAME_1":"NA","GID_2":"IDN.27.2_1","county":"Banggai","NL_NAME_2":"NA","city":"Bunta","VARNAME_3":"NA","NL_NAME_3":"NA","TYPE_3":"Kecamatan","ENGTYPE_3":"Sub-district","CC_3":"7202030","HASC_3":"NA","name":"Bunta.city"},
"geometry":{"type": "MultiPolygon","coordinates": [[[[122.3482,-1.0183,1202.7146],[122.3556,-1.0647,1564.9895],[122.3736,-1.0657,1761.7107],[122.3987,-1.0496,1296.229],[122.4042,-1.0115,1516.5312],[122.4042,-0.992,1393.6921],[122.4111,-0.9767,1185.9105],[122.4264,-0.9698,912.0536],[122.4359,-0.9682,924.2773],[122.4459,-0.9642,922.3295],[122.4459,-0.9599,850.994],[122.4508,-0.9532,788.6097],[122.4528,-0.9447,628.4628],[122.4751,-0.9211,756.9952],[122.4806,-0.9211,454.241],[122.4848,-0.9128,670.0128],[122.4843,-0.8921,729.3582],[122.4781,-0.8848,855.297],[122.4591,-0.8714,482.7961],[122.4473,-0.8474,282.9798],[122.4473,-0.8391,278.4276],[122.4584,-0.8252,148.9054],[122.4639,-0.821,88.3317],[122.4663,-0.8129,110.0195],[122.4709,-0.8071,47.0667],[122.4858,-0.7974,36.7771],[122.488,-0.7928,136.7659],[122.494,-0.7896,22.2741],[122.4912,-0.7692,0.0],[122.4853,-0.7667,0.0],[122.4827,-0.7675,0.0],[122.4692,-0.7599,0.0],[122.4658,-0.7617,1.318],[122.4589,-0.7587,0.0],[122.4385,-0.7655,0.0],[122.4287,-0.7762,0.0],[122.4141,-0.7833,10.5943],[122.4063,-0.7817,0.0],[122.4016,-0.7837,6.6068],[122.388,-0.7812,0.0],[122.3832,-0.7845,1.8435],[122.3698,-0.7787,14.1638],[122.364,-0.7786,7.6045],[122.3603,-0.776,0.0],[122.3503,-0.7822,0.0],[122.344,-0.7837,0.0],[122.3388,-0.7813,93.0614],[122.3353,-0.777,0.0],[122.3325,-0.7769,0.0],[122.3163,-0.7862,0.0],[122.3104,-0.7926,0.0],[122.3027,-0.7939,12.6796],[122.2987,-0.7882,0.0],[122.2939,-0.7878,0.0],[122.2906,-0.7905,0.0],[122.2869,-0.79,16.3386],[122.2834,-0.7862,0.0],[122.2729,-0.7882,0.0],[122.264,-0.7857,0.0],[122.2542,-0.7897,14.8073],[122.2415,-0.7865,0.0],[122.235,-0.787,7.1679],[122.2277,-0.7851,0.0],[122.2221,-0.7874,0.0],[122.2202,-0.7898,0.0],[122.2117,-0.7922,0.0],[122.1997,-0.7876,0.0],[122.2,-0.7907,0.0],[122.1949,-0.7948,0.0],[122.1949,-0.7995,0.0],[122.1867,-0.8119,0.0],[122.17529999999999,-0.8078,0.0],[122.1646,-0.8139,0.0],[122.1585,-0.8141,0.0],[122.1549,-0.8299,0.0],[122.1571,-0.8328,0.8829],[122.1631,-0.835,5.1042],[122.1657,-0.838,0.0],[122.1616,-0.8466,0.0],[122.1523,-0.852,0.0],[122.1466,-0.8596,0.0],[122.1476,-0.8704,0.0],[122.1445,-0.8747,0.0],[122.1478,-0.8861,0.0],[122.1468,-0.8978,0.0],[122.1942,-0.9002,41.0715],[122.2047,-0.9065,47.352],[122.2149,-0.8942,45.9245],[122.2195,-0.8957,47.8961],[122.2309,-0.8906,51.04],[122.2186,-0.8828,40.4005],[122.2007,-0.8765,34.9108],[122.2088,-0.8632,49.0076],[122.2129,-0.8607,53.9692],[122.2279,-0.8737,42.7069],[122.2455,-0.855,100.8334],[122.2464,-0.8522,61.3519],[122.2514,-0.8518,103.9895],[122.2652,-0.8664,139.9079],[122.2746,-0.8582,77.2999],[122.2843,-0.8533,84.3922],[122.2881,-0.8572,103.4331],[122.2931,-0.8708,217.4958],[122.2931,-0.8765,322.959],[122.3031,-0.8913,317.7132],[122.3053,-0.897,233.65],[122.3103,-0.902,218.5823],[122.3268,-0.8882,238.555],[122.3318,-0.8814,261.0141],[122.3349,-0.8857,178.0238],[122.3374,-0.8961,547.5465],[122.3385,-0.9137,399.728],[122.3359,-0.9261,716.6291],[122.3379,-0.9629,658.4534],[122.3431,-0.9877,1120.9337],[122.3446,-1.009,1031.8958],[122.3482,-1.0183,1202.7146]]],
[[[122.146,-0.8977,0.0],[122.1463,-0.8984,0.0],[122.1466,-0.899,0.0],[122.1468,-0.8978,0.0],[122.146,-0.8977,0.0]]]]}}