{"type":"Feature","properties":{"GID_3":"IDN.26.3.15_1","GID_0":"IDN","country":"Indonesia","GID_1":"IDN.26_1","province":"SulawesiSelatan","NL_NAME_1":"NA","GID_2":"IDN.26.3_1","county":"Bone","NL_NAME_2":"NA","city":"Mare","VARNAME_3":"NA","NL_NAME_3":"NA","TYPE_3":"Kecamatan","ENGTYPE_3":"Sub-district","CC_3":"7311080","HASC_3":"NA","name":"Mare.city"},
"geometry":{"type": "MultiPolygon","coordinates": [[[[120.3374,-4.8411,1.9593],[120.344,-4.839,3.2964],[120.3555,-4.8401,1.0224],[120.3608,-4.8441,1.5433],[120.3658,-4.8452,0.0],[120.3757,-4.8424,1.779],[120.3833,-4.8379,1.1092],[120.3826,-4.8294,1.3826],[120.3801,-4.8231,1.3714],[120.3821,-4.8214,1.0034],[120.3813,-4.8121,0.4756],[120.3789,-4.8079,1.1143],[120.3832,-4.805,0.0],[120.3862,-4.7964,1.8735],[120.3869,-4.7921,2.0],[120.3863,-4.788,7.1188],[120.3839,-4.7847,2.2437],[120.3839,-4.7777,1.0],[120.3854,-4.7682,2.4833],[120.3892,-4.761,2.9653],[120.3735,-4.7559,23.5699],[120.3436,-4.7505,15.3674],[120.3333,-4.7461,19.934],[120.3219,-4.7441,23.3821],[120.3113,-4.7447,28.1723],[120.2976,-4.7502,41.3634],[120.282,-4.7456,44.0421],[120.2626,-4.7432,93.8313],[120.2534,-4.7444,165.0991],[120.2447,-4.7419,164.8795],[120.2368,-4.7425,175.937],[120.2318,-4.7411,179.9417],[120.2296,-4.7361,195.5547],[120.2258,-4.7341,204.9334],[120.2033,-4.7381,192.4356],[120.1916,-4.7458,236.8669],[120.1699,-4.7448,369.3598],[120.1646,-4.7471,537.1546],[120.1618,-4.7499,567.527],[120.1593,-4.7564,524.9637],[120.1584,-4.7685,384.2141],[120.1549,-4.774,309.9968],[120.1496,-4.778,372.8588],[120.1496,-4.7858,375.6235],[120.1399,-4.798,366.5573],[120.1399,-4.8031,331.17],[120.1428,-4.8117,250.2908],[120.1459,-4.8156,257.1771],[120.1509,-4.8184,252.1452],[120.1687,-4.8182,227.4469],[120.1856,-4.8287,323.2397],[120.2027,-4.8337,198.0407],[120.2114,-4.8311,268.5645],[120.2184,-4.8272,224.3524],[120.2377,-4.8309,152.6425],[120.2513,-4.8377,57.5578],[120.2673,-4.8395,87.1056],[120.2872,-4.8466,51.989],[120.2866,-4.8536,50.6392],[120.3111,-4.8634,0.8031],[120.3146,-4.8569,2.6028],[120.3201,-4.8542,0.0],[120.3203,-4.851,2.0],[120.3374,-4.8411,1.9593]]]]}}