{"type":"Feature","properties":{"GID_3":"IDN.31.8.15_1","GID_0":"IDN","country":"Indonesia","GID_1":"IDN.31_1","province":"SumateraSelatan","NL_NAME_1":"NA","GID_2":"IDN.31.8_1","county":"OganIlir","NL_NAME_2":"NA","city":"TanjungBatu","VARNAME_3":"NA","NL_NAME_3":"NA","TYPE_3":"Kecamatan","ENGTYPE_3":"Sub-district","CC_3":"1610020","HASC_3":"NA","name":"Tanjung_Batu.city"},
"geometry":{"type": "MultiPolygon","coordinates": [[[[104.6119,-3.4249,21.5121],[104.6179,-3.4273,15.388],[104.6212,-3.4267,22.7927],[104.6521,-3.4176,23.9098],[104.6523,-3.4111,16.1692],[104.6501,-3.4059,18.6442],[104.6594,-3.4003,23.6394],[104.6683,-3.422,19.9406],[104.6737,-3.4174,11.7115],[104.6726,-3.4131,12.2133],[104.675,-3.4095,13.7168],[104.6804,-3.4141,10.6409],[104.6857,-3.4314,25.2956],[104.7079,-3.4159,19.5107],[104.7355,-3.404,15.5674],[104.744,-3.3874,16.1632],[104.7231,-3.3776,14.9868],[104.7194,-3.3663,22.1907],[104.703,-3.342,12.2763],[104.688,-3.3328,4.1171],[104.6651,-3.324,2.0863],[104.6588,-3.32,2.87],[104.6537,-3.3118,11.4189],[104.6513,-3.3027,4.2743],[104.6488,-3.3016,6.5427],[104.6462,-3.2949,6.098],[104.6425,-3.2945,8.3494],[104.6424,-3.2925,5.8539],[104.6331,-3.291,9.191],[104.6278,-3.2866,9.9127],[104.6262,-3.2703,9.6767],[104.6316,-3.2574,1.6685],[104.6246,-3.2477,1.0494],[104.625,-3.245,1.874],[104.6291,-3.2399,4.1131],[104.626,-3.2354,3.3335],[104.6202,-3.2342,2.8958],[104.6154,-3.237,1.3796],[104.608,-3.2345,1.9907],[104.6047,-3.2406,2.2732],[104.604,-3.247,1.7435],[104.5946,-3.2427,12.7734],[104.5823,-3.2424,17.239],[104.5793,-3.2406,19.3803],[104.577,-3.233,18.5952],[104.571,-3.2284,20.9261],[104.5688,-3.2301,24.3568],[104.5715,-3.2418,21.5887],[104.5609,-3.2588,22.6555],[104.5563,-3.2636,6.4462],[104.5511,-3.261,11.3627],[104.5399,-3.2684,18.6402],[104.528,-3.3021,22.7201],[104.5294,-3.3231,25.1259],[104.5349,-3.3213,19.2553],[104.5391,-3.3177,22.5197],[104.5349,-3.3332,16.9949],[104.5362,-3.3444,26.7921],[104.5383,-3.3473,26.09],[104.5441,-3.3484,26.5877],[104.5656,-3.3607,27.4454],[104.5681,-3.3645,20.0023],[104.569,-3.3762,14.7485],[104.5738,-3.3768,18.2583],[104.576,-3.3787,27.5261],[104.5741,-3.3854,27.6773],[104.5785,-3.3854,24.2247],[104.5882,-3.3975,15.6765],[104.5954,-3.3975,9.7485],[104.5925,-3.4103,8.2155],[104.5933,-3.4143,10.2612],[104.6119,-3.4249,21.5121]]]]}}