{"type":"Feature","properties":{"GID_3":"IDN.11.10.12_1","GID_0":"IDN","country":"Indonesia","GID_1":"IDN.11_1","province":"JawaTimur","NL_NAME_1":"NA","GID_2":"IDN.11.10_1","county":"Kediri","NL_NAME_2":"NA","city":"Mojo","VARNAME_3":"NA","NL_NAME_3":"NA","TYPE_3":"Kecamatan","ENGTYPE_3":"Sub-district","CC_3":"3506010","HASC_3":"NA","name":"Mojo.city"},
"geometry":{"type": "MultiPolygon","coordinates": [[[[111.9443,-7.9521,86.6598],[111.9474,-7.9459,82.5069],[111.955,-7.9414,73.9893],[111.9545,-7.9327,80.1027],[111.9605,-7.9247,67.1105],[111.9626,-7.9155,78.299],[111.961,-7.9123,71.4699],[111.9615,-7.9088,71.8973],[111.9666,-7.9025,79.4039],[111.9745,-7.8976,78.1774],[111.9727,-7.8904,78.2754],[111.9739,-7.8766,76.2392],[111.9796,-7.8723,64.9764],[111.9816,-7.8675,71.4579],[111.9888,-7.8647,67.6435],[111.9931,-7.8595,71.8639],[111.9944,-7.8538,64.1574],[111.9859,-7.8518,73.6227],[111.9826,-7.8538,74.6954],[111.9787,-7.8531,77.9166],[111.9779,-7.8561,78.4786],[111.9676,-7.854,112.8036],[111.9671,-7.8557,110.6273],[111.9552,-7.8539,181.5854],[111.9546,-7.8567,150.5148],[111.9494,-7.8549,178.1783],[111.9485,-7.8591,173.9581],[111.9444,-7.8606,220.7106],[111.9378,-7.859,270.1467],[111.9306,-7.8629,284.9111],[111.926,-7.8608,282.1918],[111.9068,-7.8607,500.2329],[111.9007,-7.8593,564.9405],[111.8939,-7.8607,506.5811],[111.8875,-7.8593,589.5781],[111.8805,-7.8569,733.1876],[111.8741,-7.8489,659.4516],[111.872,-7.8504,675.606],[111.867,-7.8494,735.2692],[111.8617,-7.8521,748.6277],[111.857,-7.8518,789.5709],[111.8547,-7.8549,854.9332],[111.8507,-7.8513,882.1058],[111.8436,-7.8539,969.0507],[111.838,-7.8521,1025.6633],[111.8236,-7.8555,1213.3721],[111.8196,-7.8515,1256.2451],[111.8122,-7.8522,1375.8934],[111.7972,-7.8479,1967.0195],[111.802,-7.8563,1740.2938],[111.8027,-7.8657,2144.2498],[111.8104,-7.8664,1931.0948],[111.8168,-7.872,1815.4937],[111.8202,-7.8719,1659.6923],[111.8304,-7.8774,1362.9326],[111.8447,-7.8916,1025.3837],[111.8512,-7.9009,743.9016],[111.863,-7.9077,570.8003],[111.8629,-7.9107,520.493],[111.8691,-7.9178,424.4696],[111.8782,-7.9329,318.3402],[111.88,-7.9425,261.4928],[111.8838,-7.948,204.8598],[111.8867,-7.9485,173.8237],[111.8918,-7.9527,149.8234],[111.8947,-7.9536,160.8564],[111.8938,-7.9524,139.22],[111.8961,-7.9522,134.0783],[111.9026,-7.9571,130.4848],[111.907,-7.9561,112.7439],[111.9082,-7.9577,108.7986],[111.91,-7.9561,120.6335],[111.9107,-7.9589,110.5674],[111.9131,-7.9587,103.8342],[111.9171,-7.9612,96.2968],[111.9178,-7.9566,94.9044],[111.9229,-7.9569,89.8094],[111.9253,-7.9604,88.6087],[111.9291,-7.9625,77.7967],[111.9312,-7.9623,78.1908],[111.9352,-7.9567,76.7276],[111.9421,-7.9558,79.3897],[111.9443,-7.9521,86.6598]]]]}}