{"type":"Feature","properties":{"GID_3":"IDN.32.7.3_1","GID_0":"IDN","country":"Indonesia","GID_1":"IDN.32_1","province":"SumateraUtara","NL_NAME_1":"NA","GID_2":"IDN.32.7_1","county":"Karo","NL_NAME_2":"NA","city":"DolatRayat","VARNAME_3":"NA","NL_NAME_3":"NA","TYPE_3":"Kecamatan","ENGTYPE_3":"Sub-district","CC_3":"1211111","HASC_3":"NA","name":"Dolat_Rayat.city"},
"geometry":{"type": "MultiPolygon","coordinates": [[[[98.5575,3.128,1224.967],[98.5572,3.1298,1214.4132],[98.5614,3.1331,1235.3689],[98.5589,3.137,1225.0007],[98.5592,3.1416,1281.6288],[98.5549,3.1524,1257.2324],[98.5554,3.1598,1267.4355],[98.5516,3.1625,1266.208],[98.549,3.1682,1303.6768],[98.5489,3.1733,1318.4487],[98.5451,3.1758,1323.3019],[98.5437,3.1815,1353.0215],[98.5435,3.1886,1381.4164],[98.5473,3.195,1400.5566],[98.5466,3.1985,1421.3271],[98.5491,3.2012,1486.4714],[98.5527,3.1988,1654.3186],[98.556,3.2003,1714.3245],[98.5535,3.2201,1411.6919],[98.55,3.2255,1198.8242],[98.5462,3.2259,1272.4222],[98.5427,3.2251,1327.3804],[98.5436,3.2162,1381.1152],[98.5375,3.206,1443.9409],[98.5337,3.2059,1446.4412],[98.5299,3.2088,1519.5131],[98.5284,3.2076,1513.6536],[98.5293,3.2029,1438.8696],[98.5271,3.2003,1402.7245],[98.527,3.1762,1352.5161],[98.5229,3.1663,1344.7302],[98.5247,3.1684,1348.3535],[98.5257,3.1671,1348.3535],[98.5356,3.1498,1303.0481],[98.5392,3.1532,1280.1346],[98.5441,3.1341,1277.0083],[98.5494,3.1351,1234.6868],[98.5514,3.1211,1249.8744],[98.5507,3.1131,1234.8861],[98.5583,3.1136,1214.92],[98.5582,3.1193,1229.9281],[98.5602,3.1236,1213.678],[98.5575,3.128,1224.967]]]]}}