{"type":"Feature","properties":{"GID_3":"IDN.13.3.17_1","GID_0":"IDN","country":"Indonesia","GID_1":"IDN.13_1","province":"KalimantanSelatan","NL_NAME_1":"NA","GID_2":"IDN.13.3_1","county":"Banjar","NL_NAME_2":"NA","city":"SungaiTabuk","VARNAME_3":"NA","NL_NAME_3":"NA","TYPE_3":"Kecamatan","ENGTYPE_3":"Sub-district","CC_3":"6303040","HASC_3":"NA","name":"Sungai_Tabuk.city"},
"geometry":{"type": "MultiPolygon","coordinates": [[[[114.7043,-3.3485,3.9831],[114.7446,-3.3671,2.5734],[114.7596,-3.3332,1.9843],[114.7674,-3.3194,2.16],[114.7795,-3.3084,1.8118],[114.7839,-3.2991,1.8674],[114.7783,-3.2822,1.9548],[114.7809,-3.261,2.3767],[114.7799,-3.2293,1.5599],[114.7757,-3.2302,1.5316],[114.7675,-3.2271,1.3046],[114.7634,-3.2325,2.009],[114.7534,-3.2347,1.7916],[114.7044,-3.2536,1.6374],[114.6913,-3.2559,1.2753],[114.6395,-3.2748,3.129],[114.6354,-3.2728,2.2201],[114.6326,-3.2778,3.8152],[114.6274,-3.2789,3.1001],[114.6255,-3.281,4.5514],[114.6242,-3.2843,2.6819],[114.6257,-3.2855,4.7676],[114.6366,-3.287,2.1341],[114.6283,-3.3123,3.3441],[114.6343,-3.3205,3.6854],[114.658,-3.3347,1.4547],[114.6585,-3.333,1.278],[114.6629,-3.3349,1.4511],[114.6706,-3.3416,1.4044],[114.6762,-3.3441,1.4428],[114.6823,-3.343,1.4779],[114.6887,-3.3396,1.7057],[114.6953,-3.3415,4.7407],[114.7043,-3.3485,3.9831]]]]}}