{"type":"Feature","properties":{"ISO3166-1-Alpha-3":"IDN","country":"Indonesia","fill":"#F0F","id":"1226","name":"Banten"},
"geometry":{"type": "MultiPolygon","coordinates": [[[[105.26417,-6.52793,23.6295],[105.25318,-6.52728,23.6031],[105.24204,-6.52842,0.0],[105.23357,-6.53183,0.0],[105.22999,-6.53818,36.0789],[105.2256,-6.53639,19.3582],[105.21559,-6.53883,14.3213],[105.20411,-6.54518,12.9173],[105.19581,-6.55511,64.8579],[105.18849,-6.54762,35.8258],[105.13795,-6.58733,48.851],[105.11769,-6.6124,16.1395],[105.12013,-6.63095,0.0],[105.13209,-6.62689,0.0],[105.17547,-6.5831,0.0],[105.18295,-6.60768,23.7122],[105.18995,-6.61785,0.0],[105.20216,-6.62347,20.6228],[105.19353,-6.63665,24.1853],[105.18507,-6.65504,34.7676],[105.18295,-6.67156,22.1577],[105.19215,-6.67881,0.0],[105.20387,-6.67327,0.0],[105.22242,-6.64935,0.0],[105.23992,-6.64398,0.0],[105.25603,-6.62819,0.0],[105.26385,-6.59238,0.0],[105.26564,-6.55332,0.0],[105.26417,-6.52793,23.6295]]],
[[[106.15919,-6.00954,0.0],[106.12867,-5.99033,0.0],[106.11793,-5.98602,0.0],[106.11158,-5.97519,0.0],[106.10711,-5.9109,0.0],[106.08522,-5.88551,0.0],[106.05274,-5.88104,0.0],[106.02003,-5.89324,0.0],[105.99724,-5.91774,0.0],[105.97731,-5.98349,0.0],[105.96681,-5.99285,0.0],[105.95704,-5.99871,0.0],[105.88787,-6.07057,6.883],[105.8672,-6.11012,0.0],[105.83961,-6.19207,0.0],[105.83237,-6.22869,4.8858],[105.8213,-6.40114,0.0],[105.82409,-6.43465,2.6479],[105.80853,-6.47722,1.8555],[105.78223,-6.51211,3.5022],[105.73909,-6.53015,1.8458],[105.71136,-6.53456,6.4627],[105.69911,-6.52077,0.0],[105.68224,-6.51153,0.0],[105.67779,-6.47492,2.6814],[105.65624,-6.47326,0.0],[105.64386,-6.48233,0.0],[105.61897,-6.5325,0.0],[105.62794,-6.61598,33.0503],[105.62224,-6.63161,7.8636],[105.60743,-6.65146,45.1003],[105.52858,-6.72332,11.6429],[105.51726,-6.74424,12.5616],[105.50261,-6.79111,7.3369],[105.49008,-6.80901,1.9073],[105.4712,-6.81585,0.0],[105.45362,-6.80877,0.0],[105.44068,-6.79412,0.0],[105.43539,-6.77825,4.3164],[105.41163,-6.73895,0.0],[105.41041,-6.72877,0.0],[105.41082,-6.71844,0.0],[105.40821,-6.70599,0.0],[105.40138,-6.695,0.0],[105.38982,-6.68141,17.8573],[105.37623,-6.67002,4.2484],[105.36378,-6.66497,24.5222],[105.34636,-6.67067,22.9948],[105.33627,-6.68483,35.1992],[105.32887,-6.70273,33.1662],[105.31935,-6.71966,78.4454],[105.29184,-6.74822,124.4204],[105.27467,-6.76165,27.4863],[105.26075,-6.76735,52.2594],[105.22706,-6.76263,44.1769],[105.21974,-6.76434,51.9953],[105.21681,-6.77207,0.0],[105.22218,-6.7785,0.0],[105.23618,-6.78786,79.7413],[105.24708,-6.82545,149.7513],[105.25611,-6.84238,0.0],[105.27467,-6.84938,0.0],[105.2837,-6.84694,0.0],[105.29119,-6.841,0.0],[105.2964,-6.83327,0.0],[105.30112,-6.81414,0.0],[105.31078,-6.81035,0.0],[105.35613,-6.81287,0.0],[105.39796,-6.82952,0.0],[105.40309,-6.83213,0.0],[105.40895,-6.83815,0.0],[105.41358,-6.8458,27.6141],[105.41554,-6.8528,22.2275],[105.4201,-6.85687,0.0],[105.4297,-6.85272,0.0],[105.43881,-6.84596,0.0],[105.44223,-6.84254,0.0],[105.46046,-6.84531,20.4093],[105.47096,-6.85345,37.4335],[105.48613,-6.86752,0.0],[105.49846,-6.86073,14.2905],[105.53512,-6.87233,0.0],[105.55519,-6.85568,30.4851],[105.59653,-6.84907,22.471],[105.70289,-6.83571,7.0118],[105.72332,-6.83856,0.0],[105.7556,-6.84482,0.0],[105.77474,-6.85023,1.4708],[105.79242,-6.84574,0.0],[105.82313,-6.83904,0.0],[105.8545,-6.83815,0.0],[105.87373,-6.83471,0.8597],[105.88438,-6.84767,0.0],[105.89819,-6.84318,0.0],[105.90162,-6.82952,0.0],[105.91896,-6.82399,0.0],[105.93963,-6.82098,0.0],[105.95957,-6.81763,0.0],[105.97871,-6.81771,0.0],[106.00831,-6.82195,0.0],[106.05298,-6.83681,0.0],[106.12471,-6.89628,0.0],[106.16837,-6.91581,0.0],[106.20116,-6.91368,2.2239],[106.23756,-6.94061,0.0],[106.24415,-6.94557,0.0],[106.24936,-6.95281,98.7774],[106.25034,-6.95957,27.0761],[106.25424,-6.96429,0.0],[106.26783,-6.96608,8.8001],[106.2732,-6.96933,76.6329],[106.28338,-6.98333,0.0],[106.28858,-6.9865,0.0],[106.30242,-6.98797,0.0],[106.31105,-6.99147,23.7969],[106.31967,-6.99619,0.0],[106.33302,-7.00075,0.0],[106.3545,-7.0027,0.0],[106.37892,-6.99977,0.0],[106.40162,-6.9931,0.0],[106.40463,-6.99131,0.0],[106.4,-6.97808,0.0],[106.39731,-6.96691,62.2204],[106.39695,-6.95332,75.5391],[106.40299,-6.93115,202.6749],[106.41266,-6.90459,379.3745],[106.45079,-6.83622,563.7628],[106.50609,-6.78346,1249.9065],[106.50841,-6.76796,1380.23],[106.48919,-6.75091,1451.0498],[106.47586,-6.7447,1470.7976],[106.44392,-6.73494,1644.4071],[106.43524,-6.72047,1657.7885],[106.42656,-6.6968,1413.9918],[106.40527,-6.5241,168.2264],[106.40951,-6.4919,141.4342],[106.42387,-6.46369,88.2121],[106.43369,-6.43899,89.2518],[106.43162,-6.41217,69.0095],[106.42635,-6.38762,61.789],[106.42077,-6.37041,54.5823],[106.43059,-6.35041,33.4448],[106.44423,-6.34158,56.7858],[106.4524,-6.33755,63.6958],[106.46242,-6.33786,59.1884],[106.46862,-6.34592,61.1736],[106.47276,-6.35961,57.8706],[106.4801,-6.37269,56.9556],[106.48945,-6.37661,76.6683],[106.50211,-6.37072,50.2156],[106.51544,-6.36065,59.6688],[106.53156,-6.35351,41.0188],[106.5603,-6.35522,45.6964],[106.58076,-6.36359,53.8355],[106.60112,-6.37615,69.5905],[106.63089,-6.38436,75.7098],[106.73915,-6.38648,82.3657],[106.76618,-6.37026,57.8778],[106.76246,-6.35419,64.4163],[106.76292,-6.30142,38.145],[106.75346,-6.2992,40.6251],[106.74199,-6.28447,40.0169],[106.73062,-6.24308,25.0188],[106.70199,-6.21011,11.2677],[106.68411,-6.1019,4.9677],[106.69455,-6.08629,6.0165],[106.7268,-6.06103,0.0],[106.73105,-6.05885,0.0],[106.72901,-6.04754,0.0],[106.72088,-6.03094,0.0],[106.70582,-6.0202,0.0],[106.68539,-6.01247,0.0],[106.66293,-6.00799,0.0],[106.54933,-6.00652,0.0],[106.52768,-6.01247,0.0],[106.51205,-6.02483,0.0],[106.49537,-6.03484,0.0],[106.47006,-6.03436,0.0],[106.40935,-6.00433,0.0],[106.38494,-6.00026,0.8764],[106.36101,-5.99342,1.0],[106.29884,-5.945,0.0],[106.25652,-5.94158,0.0],[106.23146,-5.96697,0.0],[106.20948,-5.9983,0.0],[106.17604,-6.01393,0.0],[106.15919,-6.00954,0.0]]]]}}