{"type":"Feature","properties":{"GID_3":"IDN.4.4.3_1","GID_0":"IDN","country":"Indonesia","GID_1":"IDN.4_1","province":"Banten","NL_NAME_1":"NA","GID_2":"IDN.4.4_1","county":"Lebak","NL_NAME_2":"NA","city":"Bojongmanik","VARNAME_3":"NA","NL_NAME_3":"NA","TYPE_3":"Kecamatan","ENGTYPE_3":"Sub-district","CC_3":"3602090","HASC_3":"NA","name":"Bojongmanik.city"},
"geometry":{"type": "MultiPolygon","coordinates": [[[[106.2195,-6.6143,276.6442],[106.2202,-6.6107,256.7914],[106.2231,-6.6092,239.4806],[106.2157,-6.6015,221.7188],[106.2166,-6.5965,276.8758],[106.2107,-6.5908,218.2099],[106.2006,-6.5847,204.8552],[106.191,-6.5711,176.8237],[106.177,-6.5625,225.356],[106.1712,-6.5505,201.124],[106.1709,-6.5412,180.9227],[106.1661,-6.5167,184.6056],[106.1669,-6.5114,168.8415],[106.1584,-6.5032,146.285],[106.1575,-6.4985,115.9747],[106.1594,-6.4925,101.6772],[106.1543,-6.4873,81.7825],[106.1496,-6.488,70.9566],[106.1501,-6.4899,88.4591],[106.1469,-6.49,71.8968],[106.1475,-6.4927,75.7779],[106.1446,-6.4946,83.9479],[106.1443,-6.498,105.4732],[106.1478,-6.5021,107.3936],[106.1462,-6.503,89.1448],[106.1461,-6.5051,90.2067],[106.1478,-6.5045,111.056],[106.1472,-6.5066,95.0052],[106.1426,-6.5089,102.4021],[106.1446,-6.5097,97.8409],[106.1443,-6.5111,97.8409],[106.1495,-6.5119,90.4525],[106.1498,-6.5198,118.8728],[106.1478,-6.5239,123.1021],[106.1394,-6.532,60.1593],[106.1396,-6.5368,90.8007],[106.1352,-6.5405,88.4449],[106.1325,-6.5389,86.9851],[106.1321,-6.5434,71.7837],[106.1203,-6.5513,82.4722],[106.1173,-6.561,113.1726],[106.1113,-6.5646,231.7348],[106.1108,-6.5744,195.2293],[106.113,-6.5771,254.0653],[106.1142,-6.5826,180.3448],[106.1194,-6.5816,152.247],[106.1207,-6.583,172.9402],[106.1226,-6.5817,153.8615],[106.1229,-6.5829,153.8615],[106.1236,-6.5812,159.9172],[106.1267,-6.5809,167.5798],[106.1302,-6.5779,205.7868],[106.1321,-6.5808,191.9456],[106.1346,-6.5911,203.0611],[106.1279,-6.6153,243.1161],[106.1472,-6.6086,200.4559],[106.1587,-6.6078,216.7635],[106.1649,-6.6197,256.8554],[106.1723,-6.623,334.8691],[106.1775,-6.6295,456.8069],[106.1776,-6.6343,407.456],[106.1819,-6.6375,467.1431],[106.1841,-6.6419,471.1278],[106.1816,-6.6483,437.5994],[106.1861,-6.6471,438.8802],[106.1895,-6.6437,529.7944],[106.2133,-6.6546,351.7313],[106.2156,-6.6519,329.6386],[106.2179,-6.6521,329.3336],[106.2176,-6.6486,326.233],[106.22,-6.6459,317.6913],[106.2244,-6.6455,324.2623],[106.2243,-6.6435,312.1926],[106.2282,-6.6414,312.9092],[106.2266,-6.6394,320.8518],[106.2282,-6.6349,307.4326],[106.2243,-6.6336,313.3824],[106.2228,-6.6312,327.0079],[106.2244,-6.6269,306.3811],[106.2276,-6.627,300.8408],[106.2251,-6.6235,290.3725],[106.2253,-6.6176,267.7291],[106.2267,-6.6167,282.5164],[106.2223,-6.6139,267.6541],[106.2208,-6.6154,264.2461],[106.2195,-6.6143,276.6442]]]]}}