{"type":"Feature","properties":{"GID_3":"IDN.34.10.7_1","GID_0":"IDN","country":"Indonesia","GID_1":"IDN.34_1","province":"KalimantanTimur","NL_NAME_1":"NA","GID_2":"IDN.34.10_1","county":"Paser","NL_NAME_2":"NA","city":"MuaraSamu","VARNAME_3":"NA","NL_NAME_3":"NA","TYPE_3":"Kecamatan","ENGTYPE_3":"Sub-district","CC_3":"6401011","HASC_3":"NA","name":"Muara_Samu.city"},
"geometry":{"type": "MultiPolygon","coordinates": [[[[115.8529,-2.3815,559.5739],[115.8502,-2.3878,642.0938],[115.8557,-2.3859,640.8528],[115.871,-2.3718,786.2758],[115.877,-2.3704,855.2443],[115.8843,-2.3746,967.4659],[115.8871,-2.3743,984.6479],[115.8869,-2.361,822.5156],[115.8915,-2.3493,897.5964],[115.8895,-2.3379,814.4713],[115.8914,-2.3347,807.4338],[115.898,-2.3328,684.7686],[115.8981,-2.313,634.7666],[115.9035,-2.3102,539.6786],[115.9069,-2.3121,467.6967],[115.9127,-2.3111,474.8552],[115.9147,-2.307,382.7062],[115.9147,-2.3006,477.7463],[115.9119,-2.2967,423.1389],[115.9139,-2.2903,503.0848],[115.9181,-2.2881,368.0297],[115.9207,-2.2845,314.7079],[115.9241,-2.271,230.1307],[115.928,-2.2688,193.9002],[115.9304,-2.2699,192.2429],[115.9376,-2.2645,270.3066],[115.9381,-2.2592,204.6999],[115.9323,-2.2521,219.5226],[115.9367,-2.2418,193.1008],[115.9358,-2.2378,194.524],[115.9324,-2.2358,197.4557],[115.9285,-2.2296,165.4166],[115.9326,-2.2273,194.2112],[115.9339,-2.2236,195.0759],[115.9326,-2.2193,199.7076],[115.941,-2.2183,190.532],[115.9508,-2.2129,230.8512],[115.9491,-2.1949,183.5007],[115.9521,-2.1908,193.0765],[115.9499,-2.1812,187.4006],[115.9513,-2.1647,172.0486],[115.9553,-2.1582,161.6669],[115.9841,-2.1467,131.6843],[115.9869,-2.1325,155.2198],[115.9923,-2.122,133.1648],[115.9996,-2.0976,157.4698],[116.0052,-2.0867,148.4738],[116.0036,-2.0779,167.9987],[116.0074,-2.044,121.143],[116.0132,-2.0281,181.6758],[116.0191,-2.021,192.8145],[116.0182,-2.0128,103.2366],[116.0142,-2.0042,117.9823],[116.012,-2.0072,97.1189],[116.012,-1.9988,123.2296],[116.015,-1.9919,161.1713],[116.0131,-1.9754,120.52],[116.0088,-1.9657,163.007],[116.0034,-1.9616,143.4476],[116.0056,-1.9564,159.5147],[116.0019,-1.9493,136.7196],[116.0077,-1.945,205.3994],[116.0058,-1.939,186.6671],[115.9987,-1.936,183.7956],[116.0069,-1.9237,207.5751],[116.0067,-1.913,271.9489],[116.0017,-1.9121,197.7991],[115.9968,-1.9091,203.5675],[115.9925,-1.9091,202.2249],[115.9884,-1.9171,293.3284],[115.9813,-1.9153,263.0593],[115.977,-1.9123,130.6223],[115.9707,-1.9203,204.9718],[115.963,-1.9134,93.701],[115.9471,-1.9308,83.3447],[115.9382,-1.9368,56.9805],[115.9318,-1.9384,37.6291],[115.8924,-1.9401,62.5761],[115.8721,-1.9291,81.437],[115.8632,-1.9267,121.4689],[115.8145,-1.9276,609.8936],[115.7795,-1.9239,667.5613],[115.772,-1.925,634.5536],[115.7405,-1.9379,502.8027],[115.7078,-1.9473,639.6006],[115.7062,-1.9497,647.8913],[115.7064,-1.9615,700.8021],[115.6962,-1.9744,768.8331],[115.6973,-1.9779,828.3178],[115.7038,-1.9773,731.9559],[115.7106,-1.9799,635.381],[115.7135,-1.9861,714.8628],[115.7123,-1.989,715.7516],[115.7133,-1.9921,707.3151],[115.7177,-1.9955,703.8918],[115.72,-1.9913,608.1388],[115.7194,-1.9813,657.0603],[115.7303,-1.9823,510.847],[115.7355,-1.9849,544.933],[115.7476,-1.9951,344.4851],[115.748,-2.0006,316.6632],[115.7456,-2.0058,322.2527],[115.7434,-2.0092,351.8419],[115.7276,-2.0207,542.8234],[115.7248,-2.0287,537.1636],[115.7282,-2.0344,544.7315],[115.7433,-2.0373,281.526],[115.7512,-2.0491,717.1568],[115.7537,-2.0505,844.1137],[115.7613,-2.0495,650.3633],[115.7731,-2.0518,612.5345],[115.7767,-2.0509,424.8506],[115.7827,-2.0447,585.1572],[115.7888,-2.045,460.0497],[115.7945,-2.0431,408.4668],[115.7967,-2.0442,402.5122],[115.7983,-2.0488,547.0037],[115.8071,-2.044,300.5017],[115.8124,-2.0463,401.0746],[115.8216,-2.0546,621.7151],[115.8264,-2.0564,617.7505],[115.832,-2.0552,479.8805],[115.8352,-2.0563,498.1596],[115.8366,-2.0592,492.3158],[115.8304,-2.0851,403.1034],[115.826,-2.0889,343.5124],[115.8121,-2.0938,400.1913],[115.8101,-2.0973,508.1758],[115.8107,-2.1283,321.3465],[115.8079,-2.1521,352.6948],[115.8087,-2.1686,435.2946],[115.8058,-2.1756,352.3468],[115.8006,-2.182,401.3092],[115.7994,-2.1876,453.1585],[115.801,-2.2009,352.7444],[115.8049,-2.2108,474.9683],[115.8123,-2.2188,327.6265],[115.816,-2.2287,451.4739],[115.8241,-2.2319,456.7629],[115.8273,-2.2379,560.7595],[115.8276,-2.2459,488.1967],[115.822,-2.2578,381.4579],[115.8361,-2.2866,465.3981],[115.8416,-2.2916,481.574],[115.8528,-2.2919,367.5648],[115.8546,-2.2942,375.7918],[115.8539,-2.2989,373.3882],[115.8513,-2.3013,327.1677],[115.8419,-2.3043,336.6376],[115.8389,-2.3068,271.9142],[115.8349,-2.3138,291.231],[115.8345,-2.3174,346.7042],[115.8462,-2.3333,494.5253],[115.8469,-2.3387,562.141],[115.8423,-2.3512,474.7102],[115.8521,-2.3679,374.5139],[115.8539,-2.3796,521.0743],[115.8529,-2.3815,559.5739]]]]}}