{"type":"Feature","properties":{"GID_3":"IDN.27.4.14_1","GID_0":"IDN","country":"Indonesia","GID_1":"IDN.27_1","province":"SulawesiTengah","NL_NAME_1":"NA","GID_2":"IDN.27.4_1","county":"Donggala","NL_NAME_2":"NA","city":"SojolUtara","VARNAME_3":"NA","NL_NAME_3":"NA","TYPE_3":"Kecamatan","ENGTYPE_3":"Sub-district","CC_3":"7205161","HASC_3":"NA","name":"Sojol_Utara.city"},
"geometry":{"type": "MultiPolygon","coordinates": [[[[120.1271,0.742,5.4593],[120.1205,0.741,0.0],[120.1118,0.7429,0.0],[120.1037,0.7411,1.9517],[120.1018,0.7439,3.7504],[120.1034,0.7471,0.0],[120.1011,0.7505,0.0],[120.0973,0.7464,53.3848],[120.0964,0.7427,0.6491],[120.0916,0.7391,0.9648],[120.0817,0.739,0.0],[120.0766,0.7422,0.0],[120.0729,0.7405,7.2301],[120.0647,0.7344,25.9673],[120.0592,0.7272,0.0],[120.0609,0.7176,1.4981],[120.0588,0.7161,6.8089],[120.057,0.7168,6.3115],[120.0546,0.7125,2.2859],[120.0452,0.7117,11.515],[120.043,0.7131,43.4386],[120.0435,0.7148,27.3255],[120.0384,0.7174,0.0],[120.0407,0.7119,25.1067],[120.038,0.702,19.448],[120.0387,0.6943,6.5585],[120.0586,0.6792,587.7944],[120.0662,0.6818,627.4675],[120.0736,0.6803,579.2341],[120.0804,0.6824,540.9023],[120.0923,0.6802,788.6978],[120.0986,0.686,785.4076],[120.1028,0.6814,931.4606],[120.1101,0.6779,1056.5383],[120.122,0.6559,1603.1389],[120.1275,0.6516,1676.5651],[120.149,0.6519,1804.9819],[120.1581,0.6493,2007.6317],[120.1699,0.6505,2416.3916],[120.1758,0.6317,2048.7151],[120.1859,0.6188,2097.7485],[120.1927,0.6152,1561.703],[120.1926,0.6304,1138.6467],[120.1962,0.6466,819.1597],[120.1959,0.6581,678.3985],[120.1989,0.6638,537.482],[120.1999,0.6734,470.7547],[120.1966,0.7006,222.9697],[120.1889,0.7065,168.2007],[120.1839,0.7076,147.4975],[120.1783,0.7133,120.5926],[120.1515,0.7246,32.1085],[120.143,0.7319,15.5512],[120.1437,0.7331,16.3244],[120.1383,0.742,8.8151],[120.1393,0.7433,8.2789],[120.1363,0.7473,0.0],[120.1271,0.742,5.4593]]],
[[[120.036,0.6998,0.0],[120.0362,0.6994,0.0],[120.0365,0.6992,0.0],[120.0366,0.7004,0.0],[120.036,0.6998,0.0]]],
[[[120.0757,0.7462,0.0],[120.0753,0.7462,0.0],[120.0752,0.7456,0.0],[120.0758,0.7457,0.0],[120.0757,0.7462,0.0]]],
[[[120.0787,0.7475,0.0],[120.0799,0.7466,0.0],[120.0794,0.7491,0.0],[120.0788,0.7488,0.0],[120.0787,0.7475,0.0]]]]}}