{"type":"Feature","properties":{"GID_3":"IDN.22.9.2_1","GID_0":"IDN","country":"Indonesia","GID_1":"IDN.22_1","province":"PapuaBarat","NL_NAME_1":"NA","GID_2":"IDN.22.9_1","county":"Tambrauw","NL_NAME_2":"NA","city":"Fef","VARNAME_3":"NA","NL_NAME_3":"NA","TYPE_3":"Distrik","ENGTYPE_3":"District","CC_3":"9109010","HASC_3":"NA","name":"Fef.city"},
"geometry":{"type": "MultiPolygon","coordinates": [[[[132.3975,-0.8782,594.6491],[132.3979,-0.8711,622.8286],[132.418,-0.8469,670.8139],[132.3981,-0.8297,955.4645],[132.379,-0.8077,679.4407],[132.3658,-0.7886,482.0182],[132.3821,-0.7475,893.1094],[132.3571,-0.7468,1005.8191],[132.3462,-0.7426,928.173],[132.3257,-0.7601,1090.6951],[132.3145,-0.7929,717.3577],[132.3206,-0.8133,1003.8121],[132.3175,-0.8328,589.9984],[132.3102,-0.8368,448.7744],[132.341,-0.9049,412.2837],[132.3684,-0.9036,463.4781],[132.3527,-0.9862,393.7724],[132.3861,-1.0018,456.8104],[132.464,-0.9907,523.9481],[132.5404,-0.8955,509.7421],[132.5602,-0.8346,461.6213],[132.5773,-0.8034,1006.3994],[132.586,-0.7655,924.3258],[132.5886,-0.7071,1366.55],[132.5843,-0.6731,1171.1353],[132.5928,-0.6334,791.8615],[132.5943,-0.6112,1041.729],[132.5594,-0.6498,1359.5513],[132.5179,-0.6537,774.0731],[132.4843,-0.6796,1296.7351],[132.4467,-0.7275,780.2234],[132.4143,-0.7353,570.2646],[132.3902,-0.7314,667.4091],[132.4271,-0.7847,484.1939],[132.4351,-0.8287,813.211],[132.4359,-0.8471,539.321],[132.4498,-0.8892,559.603],[132.4347,-0.893,432.5289],[132.4049,-0.893,456.2941],[132.3974,-0.8912,581.3856],[132.3975,-0.8782,594.6491]]]]}}