{"type":"Feature","properties":{"GID_3":"IDN.23.29.4_1","GID_0":"IDN","country":"Indonesia","GID_1":"IDN.23_1","province":"Papua","NL_NAME_1":"NA","GID_2":"IDN.23.29_1","county":"Yalimo","NL_NAME_2":"NA","city":"Elelim","VARNAME_3":"NA","NL_NAME_3":"NA","TYPE_3":"Distrik","ENGTYPE_3":"District","CC_3":"9432040","HASC_3":"NA","name":"Elelim.city"},
"geometry":{"type": "MultiPolygon","coordinates": [[[[139.3573,-3.8579,589.9518],[139.3695,-3.8698,804.0478],[139.3802,-3.8771,1070.6927],[139.3973,-3.8747,1710.4979],[139.4066,-3.8708,1803.1188],[139.4436,-3.8708,942.1917],[139.4588,-3.8766,880.9387],[139.4885,-3.8332,404.6163],[139.5104,-3.8078,420.144],[139.5236,-3.7893,423.4824],[139.5368,-3.7791,446.9651],[139.5387,-3.7687,470.6449],[139.505,-3.7565,283.6378],[139.4527,-3.7303,345.8538],[139.4356,-3.7108,220.7443],[139.3874,-3.7029,530.2144],[139.3771,-3.7041,650.7037],[139.3631,-3.7023,653.8013],[139.3559,-3.7298,481.0602],[139.3407,-3.7742,757.9395],[139.3295,-3.7937,728.2345],[139.3115,-3.8127,1598.337],[139.3286,-3.8327,1422.3752],[139.3573,-3.8579,589.9518]]]]}}