{"type":"Feature","properties":{"GID_3":"IDN.27.8.8_1","GID_0":"IDN","country":"Indonesia","GID_1":"IDN.27_1","province":"SulawesiTengah","NL_NAME_1":"NA","GID_2":"IDN.27.8_1","county":"Poso","NL_NAME_2":"NA","city":"LoreUtara","VARNAME_3":"NA","NL_NAME_3":"NA","TYPE_3":"Kecamatan","ENGTYPE_3":"Sub-district","CC_3":"7204040","HASC_3":"NA","name":"Lore_Utara.city"},
"geometry":{"type": "MultiPolygon","coordinates": [[[[120.3365,-1.454,1088.2855],[120.3556,-1.4387,1090.9954],[120.3667,-1.4385,1107.8939],[120.3719,-1.4339,1161.7623],[120.3744,-1.425,1395.3113],[120.4062,-1.3997,1946.4965],[120.4192,-1.3827,1763.5796],[120.4035,-1.3521,1841.8933],[120.3997,-1.3396,1749.8003],[120.3766,-1.3027,1461.4023],[120.3666,-1.291,1614.9406],[120.3363,-1.212,1301.5193],[120.3264,-1.193,657.1426],[120.3233,-1.1963,746.4916],[120.3202,-1.1924,772.2459],[120.3133,-1.1901,813.6407],[120.2898,-1.2017,1098.658],[120.284,-1.2115,1359.491],[120.2787,-1.2166,1659.2068],[120.2726,-1.2305,2151.0945],[120.2703,-1.2316,2025.0898],[120.26,-1.2302,1818.5669],[120.2483,-1.2308,1569.8975],[120.232,-1.2245,1257.2461],[120.2225,-1.2338,1086.7075],[120.2206,-1.239,1017.3966],[120.2198,-1.2435,956.5302],[120.2249,-1.2511,975.5167],[120.2163,-1.2545,1056.8694],[120.209,-1.2636,1262.8105],[120.1858,-1.2735,1858.4729],[120.1898,-1.2775,1828.6575],[120.1961,-1.2798,1740.6414],[120.2053,-1.2867,1828.0554],[120.2156,-1.2888,1860.3301],[120.2303,-1.2995,1619.9083],[120.2403,-1.311,1874.5205],[120.2574,-1.3219,1957.0171],[120.2607,-1.3356,2108.9646],[120.2652,-1.3392,2224.7061],[120.2715,-1.3414,2170.1987],[120.2764,-1.3461,2047.0924],[120.2825,-1.3585,1671.9027],[120.2875,-1.3636,1567.9357],[120.2881,-1.3665,1535.0624],[120.2864,-1.37,1619.0094],[120.288,-1.3786,1524.5958],[120.282,-1.3844,1533.2209],[120.2652,-1.3858,1666.6418],[120.2711,-1.3876,1620.6897],[120.2748,-1.3908,1576.1223],[120.2755,-1.3955,1578.0135],[120.2794,-1.3993,1522.0968],[120.2777,-1.4069,1565.4617],[120.2671,-1.4159,1485.4741],[120.2604,-1.4158,1492.2551],[120.2538,-1.4118,1501.5013],[120.2501,-1.4129,1485.6761],[120.2441,-1.4239,1566.5723],[120.2419,-1.4355,1583.8507],[120.2267,-1.446,1839.0769],[120.2217,-1.4559,2102.9058],[120.2192,-1.4562,2110.3855],[120.2142,-1.4532,2124.2231],[120.203,-1.4553,1885.6884],[120.1955,-1.4502,1994.8064],[120.1871,-1.4516,1870.1255],[120.1804,-1.4482,1816.853],[120.1793,-1.4516,1751.6663],[120.1748,-1.4565,1590.9136],[120.17,-1.4577,1512.9569],[120.1661,-1.4611,1385.8459],[120.1623,-1.4685,1483.2913],[120.1825,-1.4768,1455.1639],[120.2086,-1.483,1523.2031],[120.2429,-1.486,1809.3992],[120.2745,-1.4867,1610.8574],[120.3237,-1.4824,1091.3806],[120.3355,-1.478,1085.6477],[120.3436,-1.4695,1085.4097],[120.3407,-1.4684,1083.5703],[120.3362,-1.4627,1087.8525],[120.3365,-1.454,1088.2855]]]]}}