{"type":"Feature","properties":{"GID_3":"IDN.32.25.2_1","GID_0":"IDN","country":"Indonesia","GID_1":"IDN.32_1","province":"SumateraUtara","NL_NAME_1":"NA","GID_2":"IDN.32.25_1","county":"Pematangsiantar","NL_NAME_2":"NA","city":"SiantarMarihat","VARNAME_3":"NA","NL_NAME_3":"NA","TYPE_3":"Kecamatan","ENGTYPE_3":"Sub-district","CC_3":"1273010","HASC_3":"NA","name":"Siantar_Marihat.city"},
"geometry":{"type": "MultiPolygon","coordinates": [[[[99.0665,2.9369,415.6762],[99.071,2.9424,393.5132],[99.0776,2.931,392.5718],[99.0812,2.9339,383.1529],[99.0839,2.9324,369.7205],[99.0908,2.9347,353.1822],[99.0952,2.9351,343.8714],[99.0963,2.9338,338.7714],[99.1017,2.9358,327.6935],[99.1032,2.9394,325.8273],[99.106,2.9415,328.6685],[99.0994,2.9415,342.7014],[99.0991,2.9431,345.4529],[99.0966,2.9436,348.4537],[99.0929,2.9546,340.3655],[99.1004,2.9588,320.7044],[99.1009,2.9605,332.5264],[99.0983,2.9629,328.7311],[99.096,2.9628,327.2979],[99.0927,2.9594,338.9791],[99.0851,2.9566,360.3902],[99.0819,2.9498,367.3254],[99.0764,2.9509,379.5476],[99.0714,2.9494,386.1427],[99.0667,2.9439,405.2324],[99.0631,2.9436,407.8004],[99.0593,2.9379,422.1703],[99.0595,2.9364,422.4117],[99.0665,2.9369,415.6762]]]]}}