{"type":"Feature","properties":{"GID_3":"IDN.21.4.10_1","GID_0":"IDN","country":"Indonesia","GID_1":"IDN.21_1","province":"NusaTenggaraTimur","NL_NAME_1":"NA","GID_2":"IDN.21.4_1","county":"FloresTimur","NL_NAME_2":"NA","city":"Larantuka","VARNAME_3":"NA","NL_NAME_3":"NA","TYPE_3":"Kecamatan","ENGTYPE_3":"Sub-district","CC_3":"5309030","HASC_3":"NA","name":"Larantuka.city"},
"geometry":{"type": "MultiPolygon","coordinates": [[[[122.9524,-8.3519,0.0],[122.9529,-8.3516,0.0],[122.9527,-8.3504,1.5123],[122.952,-8.3508,1.5123],[122.9524,-8.3519,0.0]]],
[[[122.8847,-8.3526,445.2324],[122.8955,-8.3518,83.0308],[122.9017,-8.3498,5.0784],[122.9031,-8.3464,15.8194],[122.91,-8.3435,14.221],[122.9081,-8.3394,2.4806],[122.9102,-8.3377,12.0561],[122.9128,-8.3381,0.0],[122.914,-8.3322,1.4629],[122.8946,-8.3274,420.1196],[122.8899,-8.3233,696.4979],[122.8817,-8.3278,696.7209],[122.8775,-8.3283,845.0405],[122.8673,-8.3354,944.8679],[122.8601,-8.337,1007.0563],[122.852,-8.3547,915.6028],[122.8744,-8.352,569.4825],[122.8847,-8.3526,445.2324]]],
[[[122.9732,-8.3472,10.7495],[122.9772,-8.3483,0.0],[122.9829,-8.3472,0.0],[122.9851,-8.3442,5.8213],[122.99,-8.342,5.8608],[122.992,-8.3369,3.2187],[123.0017,-8.3328,4.9854],[123.0096,-8.3245,3.7108],[123.0198,-8.3175,0.0],[123.0211,-8.3071,8.1988],[123.0184,-8.2984,0.6366],[123.0194,-8.2857,0.0],[123.0184,-8.2814,1.2747],[123.0163,-8.2796,50.8169],[123.0118,-8.2881,176.5472],[123.0082,-8.289,118.5985],[123.0045,-8.2936,205.2302],[122.9968,-8.2946,236.8738],[122.9914,-8.3046,267.9673],[122.9884,-8.3018,328.2776],[122.9862,-8.3019,357.1804],[122.9769,-8.3105,925.1105],[122.9584,-8.3176,794.1711],[122.9491,-8.3185,404.1559],[122.9413,-8.3243,189.1618],[122.9371,-8.3244,115.4352],[122.9301,-8.3302,0.0],[122.9327,-8.3349,4.1663],[122.9396,-8.3367,5.9984],[122.9552,-8.3483,0.0],[122.96339999999999,-8.3519,0.0],[122.9681,-8.3509,2.4338],[122.9732,-8.3472,10.7495]]]]}}