{"type":"Feature","properties":{"GID_3":"IDN.9.3.3_1","GID_0":"IDN","country":"Indonesia","GID_1":"IDN.9_1","province":"JawaBarat","NL_NAME_1":"NA","GID_2":"IDN.9.3_1","county":"Banjar","NL_NAME_2":"NA","city":"Pataruman","VARNAME_3":"NA","NL_NAME_3":"NA","TYPE_3":"Kecamatan","ENGTYPE_3":"Sub-district","CC_3":"3279030","HASC_3":"NA","name":"Pataruman.city"},
"geometry":{"type": "MultiPolygon","coordinates": [[[[108.555,-7.4192,22.7797],[108.5552,-7.425,35.6281],[108.559,-7.4255,22.0113],[108.5613,-7.4309,21.3245],[108.5657,-7.4299,21.5295],[108.5652,-7.4376,25.5209],[108.5697,-7.4372,27.6668],[108.5779,-7.4295,49.0679],[108.5757,-7.4267,61.2427],[108.5753,-7.4233,58.0002],[108.5796,-7.4205,37.6872],[108.5797,-7.4175,49.3741],[108.5859,-7.4164,47.6226],[108.5868,-7.4136,21.0799],[108.5904,-7.4135,24.5923],[108.5947,-7.4072,11.7897],[108.5944,-7.4051,13.2574],[108.591,-7.4028,37.7135],[108.5906,-7.395,42.6096],[108.6,-7.3937,36.1927],[108.6041,-7.3904,23.2483],[108.6025,-7.3878,21.6833],[108.6026,-7.3818,17.595],[108.6066,-7.3795,19.3266],[108.598,-7.3697,19.2051],[108.6044,-7.3668,19.1866],[108.6119,-7.3658,20.4034],[108.6057,-7.3598,17.0858],[108.6018,-7.3601,35.0076],[108.6002,-7.3518,49.6266],[108.594,-7.3473,21.0702],[108.592,-7.3481,28.1377],[108.5915,-7.3447,23.7074],[108.5878,-7.3456,15.337],[108.5827,-7.3507,22.6253],[108.5844,-7.3605,24.7919],[108.5782,-7.3581,22.13],[108.5745,-7.3628,20.2228],[108.5707,-7.3612,23.9258],[108.5639,-7.3616,20.186],[108.557,-7.3707,18.5739],[108.5511,-7.3697,27.0882],[108.548,-7.3739,23.1821],[108.5453,-7.3716,21.2871],[108.5446,-7.3676,24.322],[108.5422,-7.3679,27.8624],[108.5406,-7.3766,35.9955],[108.5373,-7.3809,33.1892],[108.5365,-7.388,33.0927],[108.5331,-7.3885,34.0377],[108.5283,-7.3843,39.6925],[108.5249,-7.3837,41.1476],[108.5255,-7.3851,48.5142],[108.5238,-7.3842,40.874],[108.5234,-7.3871,56.7447],[108.5214,-7.3872,38.8784],[108.519,-7.3846,58.2754],[108.5193,-7.381,40.9143],[108.516,-7.3804,42.0419],[108.5105,-7.3917,101.0838],[108.5073,-7.3937,107.9491],[108.5131,-7.3994,133.7785],[108.5121,-7.4054,29.1005],[108.517,-7.4055,26.6574],[108.5192,-7.4078,27.0578],[108.5248,-7.4068,25.84],[108.5267,-7.412,23.031],[108.5351,-7.4163,21.7926],[108.5379,-7.416,21.703],[108.5404,-7.4115,27.581],[108.5442,-7.4121,24.7314],[108.5496,-7.4222,25.4432],[108.555,-7.4192,22.7797]]]]}}