{"type":"Feature","properties":{"GID_3":"IDN.32.31.7_1","GID_0":"IDN","country":"Indonesia","GID_1":"IDN.32_1","province":"SumateraUtara","NL_NAME_1":"NA","GID_2":"IDN.32.31_1","county":"TapanuliTengah","NL_NAME_2":"NA","city":"Manduamas","VARNAME_3":"NA","NL_NAME_3":"NA","TYPE_3":"Kecamatan","ENGTYPE_3":"Sub-district","CC_3":"1204080","HASC_3":"NA","name":"Manduamas.city"},
"geometry":{"type": "MultiPolygon","coordinates": [[[[98.27,2.1343,45.2085],[98.2722,2.1338,33.8638],[98.297,2.1486,42.6277],[98.3118,2.1593,71.4905],[98.3038,2.1613,57.2878],[98.2918,2.1775,240.2526],[98.2754,2.188,123.289],[98.2672,2.2093,516.3961],[98.2647,2.2379,169.4317],[98.2698,2.2418,194.2189],[98.2664,2.2538,211.7238],[98.2676,2.2568,232.8698],[98.2576,2.263,242.7231],[98.2543,2.2676,335.0459],[98.2527,2.2761,388.4607],[98.2309,2.2885,481.7433],[98.197,2.3113,732.7385],[98.188,2.2958,464.6719],[98.1813,2.2591,76.0667],[98.1781,2.253,37.4478],[98.1725,2.2506,53.07],[98.175299999999993,2.2485,97.2076],[98.1788,2.2399,24.5341],[98.1305,2.166,0.7],[98.1621,2.142,0.0],[98.1871,2.1155,0.0],[98.2088,2.106,1.7095],[98.2236,2.0968,1.1193],[98.2348,2.0867,0.0],[98.2431,2.0756,0.0],[98.2555,2.0695,1.6075],[98.2609,2.0642,1.6237],[98.2685,2.0534,0.0],[98.2716,2.0456,2.7137],[98.2722,2.0389,2.1297],[98.265,2.0291,5.7091],[98.2661,2.0267,0.0],[98.2796,2.0285,0.0],[98.2804,2.0305,1.0832],[98.2777,2.0365,3.0839],[98.2781,2.0388,2.3798],[98.2814,2.0421,1.0657],[98.287,2.0435,0.0],[98.3101,2.0332,0.0],[98.3022,2.0492,4.0899],[98.2931,2.0494,2.7757],[98.2703,2.0919,2.4767],[98.2535,2.1105,5.0958],[98.2526,2.1159,6.2412],[98.2578,2.13,2.5157],[98.2621,2.1296,27.1541],[98.2643,2.1334,14.4202],[98.2684,2.1351,32.6247],[98.27,2.1343,45.2085]]],
[[[98.1768,2.0965,16.2833],[98.1748,2.0922,0.0],[98.1826,2.0924,0.0],[98.1831,2.0948,0.0],[98.1813,2.097,0.0],[98.1789,2.0981,0.0],[98.1768,2.0965,16.2833]]]]}}