{"type":"Feature","properties":{"GID_3":"IDN.9.25.14_1","GID_0":"IDN","country":"Indonesia","GID_1":"IDN.9_1","province":"JawaBarat","NL_NAME_1":"NA","GID_2":"IDN.9.25_1","county":"Sumedang","NL_NAME_2":"NA","city":"Paseh","VARNAME_3":"NA","NL_NAME_3":"NA","TYPE_3":"Kecamatan","ENGTYPE_3":"Sub-district","CC_3":"3211150","HASC_3":"NA","name":"Paseh.city"},
"geometry":{"type": "MultiPolygon","coordinates": [[[[107.9883,-6.8151,416.9336],[107.9961,-6.8217,391.8254],[108.0059,-6.8215,367.755],[108.0064,-6.8225,367.755],[108.0038,-6.8225,360.4011],[108.0033,-6.8258,311.7997],[108.0075,-6.8305,296.0606],[108.0102,-6.8311,281.1824],[108.0108,-6.828,291.1833],[108.0164,-6.8271,262.0393],[108.0189,-6.8231,268.1756],[108.0157,-6.8209,266.3665],[108.0173,-6.8201,275.6621],[108.0163,-6.8182,273.8804],[108.0179,-6.8164,268.5023],[108.0253,-6.8161,270.7357],[108.0257,-6.8135,259.6711],[108.0396,-6.8037,157.9253],[108.0438,-6.7968,127.8989],[108.0524,-6.7964,118.2559],[108.0535,-6.7937,102.1658],[108.0501,-6.7845,177.5564],[108.0508,-6.7803,183.0553],[108.047,-6.778,156.5424],[108.0471,-6.7746,150.7064],[108.0452,-6.7748,131.6799],[108.0441,-6.7731,134.0308],[108.0452,-6.7694,122.5497],[108.0475,-6.768,111.0956],[108.0351,-6.7676,188.4663],[108.0311,-6.7745,247.8876],[108.0254,-6.7774,343.1027],[108.0213,-6.7767,393.0036],[108.0176,-6.7783,434.3028],[107.9971,-6.7761,564.8493],[107.9994,-6.7849,569.5121],[107.9973,-6.785,586.9593],[107.9973,-6.7877,583.0735],[107.9726,-6.7804,987.2886],[107.9733,-6.7908,727.2465],[107.9796,-6.7989,684.8015],[107.9792,-6.8075,529.3107],[107.9808,-6.8098,494.7302],[107.9839,-6.8095,500.2626],[107.9883,-6.8151,416.9336]]]]}}