{"type":"Feature","properties":{"GID_2":"IDN.22.5_1","GID_0":"IDN","country":"Indonesia","GID_1":"IDN.22_1","province":"PapuaBarat","NL_NAME_1":"NA","county":"Maybrat","VARNAME_2":"NA","NL_NAME_2":"NA","TYPE_2":"Kabupaten","ENGTYPE_2":"Regency","CC_2":"9110","HASC_2":"ID.IB.MB","name":"Maybrat.county"},
"geometry":{"type": "MultiPolygon","coordinates": [[[[132.5426,-1.6665,91.7782],[132.5499,-1.6508,101.2351],[132.5681,-1.5941,121.851],[132.5999,-1.4146,115.6075],[132.6096,-1.3953,169.937],[132.6328,-1.3619,114.9261],[132.6721,-1.2953,366.4109],[132.7199,-1.219,763.1127],[132.7233,-1.1967,1001.6151],[132.7227,-1.184,606.6515],[132.7088,-1.1605,816.9659],[132.676,-1.1455,900.4484],[132.5812,-1.1344,278.3429],[132.5813,-1.1332,278.3429],[132.5057,-1.1265,510.5555],[132.4927,-1.1165,524.5339],[132.4872,-1.0944,451.0748],[132.4761,-1.0938,425.8869],[132.4528,-1.0884,432.8252],[132.4468,-1.0915,440.9186],[132.4389,-1.0917,462.5989],[132.4296,-1.0888,475.6785],[132.3814,-1.0874,468.3633],[132.3671,-1.0832,477.3066],[132.3442,-1.0795,457.2226],[132.3307,-1.0747,454.4009],[132.3112,-1.0769,417.1175],[132.2797,-1.0739,401.4666],[132.2635,-1.075,334.5434],[132.2276,-1.0695,341.8137],[132.2255,-1.0716,359.8974],[132.1828,-1.067,227.1821],[132.1601,-1.0683,184.8069],[132.1143,-1.067,146.3838],[132.0919,-1.0698,147.2939],[132.0253,-1.0677,122.3202],[132.0701,-1.17,166.6944],[132.0695,-1.1912,315.769],[132.0725,-1.2256,436.513],[132.0382,-1.2389,406.4835],[132.013,-1.2418,276.4702],[132.0176,-1.2483,259.7637],[132.0217,-1.2598,245.1834],[132.0208,-1.2785,215.1531],[132.0127,-1.2867,250.06],[132.0134,-1.3034,283.4564],[132.0172,-1.3048,260.5155],[132.035,-1.3188,256.0823],[132.0783,-1.3458,219.0268],[132.0975,-1.3489,264.8117],[132.1212,-1.3618,233.2071],[132.1057,-1.4094,156.026],[132.1015,-1.4283,191.9168],[132.1688,-1.4324,82.9739],[132.1701,-1.4349,76.7143],[132.1847,-1.4366,74.872],[132.2022,-1.4443,57.6972],[132.2367,-1.4341,276.0973],[132.2446,-1.4377,256.4992],[132.2662,-1.4522,265.5917],[132.2746,-1.463,197.3439],[132.2891,-1.469,179.3095],[132.3043,-1.487,185.6075],[132.3066,-1.4878,181.8725],[132.3061,-1.4925,173.1112],[132.3107,-1.5063,84.2196],[132.3095,-1.5207,56.9563],[132.3067,-1.5289,35.422],[132.3055,-1.5476,36.0833],[132.3218,-1.5427,64.99],[132.3337,-1.5557,61.8517],[132.3725,-1.587,64.156],[132.3701,-1.5958,73.1185],[132.3934,-1.6105,59.42],[132.4136,-1.6276,30.1447],[132.4339,-1.6697,45.8873],[132.4385,-1.7039,47.6916],[132.4635,-1.7382,35.687],[132.4931,-1.7647,76.6518],[132.4967,-1.7814,73.5743],[132.5167,-1.7334,75.9035],[132.5245,-1.7052,83.1644],[132.5426,-1.6665,91.7782]]]]}}