{"type":"Feature","properties":{"GID_3":"IDN.26.24.1_1","GID_0":"IDN","country":"Indonesia","GID_1":"IDN.26_1","province":"SulawesiSelatan","NL_NAME_1":"NA","GID_2":"IDN.26.24_1","county":"Wajo","NL_NAME_2":"NA","city":"Belawa","VARNAME_3":"NA","NL_NAME_3":"NA","TYPE_3":"Kecamatan","ENGTYPE_3":"Sub-district","CC_3":"7313090","HASC_3":"NA","name":"Belawa.city"},
"geometry":{"type": "MultiPolygon","coordinates": [[[[119.9021,-4.0534,6.2177],[119.9019,-4.0594,6.9669],[119.9056,-4.0607,6.9193],[119.9073,-4.0644,5.8745],[119.9126,-4.0622,5.8856],[119.9174,-4.0639,5.9253],[119.9268,-4.0577,6.0904],[119.9299,-4.059,6.403],[119.9282,-4.0628,5.4484],[119.9327,-4.0628,6.0446],[119.935,-4.0652,5.5776],[119.9415,-4.0651,5.8708],[119.9479,-4.0692,6.7933],[119.9452,-4.0663,6.4246],[119.9483,-4.0655,5.7807],[119.9462,-4.0625,5.7767],[119.947,-4.0616,5.8962],[119.9437,-4.0611,5.1683],[119.9446,-4.0581,5.1312],[119.9413,-4.0589,4.8212],[119.9377,-4.0569,6.5482],[119.9382,-4.0534,5.9557],[119.9353,-4.0522,5.9312],[119.9366,-4.0498,5.1278],[119.9392,-4.0511,6.1451],[119.9417,-4.0508,5.5072],[119.9424,-4.0491,5.9944],[119.9447,-4.0501,4.5],[119.9467,-4.0523,5.3293],[119.9462,-4.0537,4.9912],[119.9501,-4.0569,6.5322],[119.9501,-4.059,5.8076],[119.9538,-4.0602,5.5873],[119.9537,-4.0633,5.1193],[119.9611,-4.0619,4.2283],[119.9644,-4.0629,4.4585],[119.9659,-4.0613,5.1032],[119.9698,-4.0609,6.1806],[119.9697,-4.0596,6.1806],[119.9725,-4.0618,5.9654],[119.9743,-4.0608,6.0411],[119.9747,-4.0555,6.5338],[119.9797,-4.0532,5.9686],[119.9839,-4.057,6.4361],[119.988,-4.0568,5.1379],[119.9901,-4.0548,6.756],[119.9902,-4.0562,6.756],[119.9926,-4.0563,6.6891],[119.9909,-4.0566,6.8135],[119.9909,-4.0597,6.3132],[119.9928,-4.0584,6.5401],[119.9941,-4.0595,6.5401],[119.9935,-4.0451,6.5406],[119.9958,-4.0217,8.0983],[119.9914,-4.0012,12.5245],[119.9948,-3.9951,8.2905],[120.0051,-3.9877,7.0],[120.0021,-3.9865,7.7565],[120.0054,-3.9832,7.0],[120.0067,-3.9851,7.0],[120.0072,-3.9829,7.0],[120.0054,-3.9818,7.6299],[120.01,-3.9773,7.7983],[120.0142,-3.9787,7.6377],[120.0237,-3.9405,18.2366],[120.0106,-3.9362,20.6016],[120.0066,-3.9363,15.314],[120.0086,-3.9283,14.438],[120.0057,-3.9255,14.6842],[120.0025,-3.9267,14.8794],[120.0038,-3.9296,14.8043],[120.0026,-3.9312,14.8043],[120.0005,-3.9307,15.7536],[119.9993,-3.9277,14.9671],[119.9976,-3.9277,20.1116],[119.9961,-3.931,17.3057],[119.9921,-3.9295,20.3564],[119.9868,-3.9339,13.3885],[119.977,-3.9357,13.9899],[119.975,-3.9348,14.1601],[119.9755,-3.9316,14.008],[119.9733,-3.9311,18.0901],[119.9702,-3.9367,13.2659],[119.9606,-3.9371,14.4504],[119.9601,-3.9388,16.9349],[119.9589,-3.9368,12.4825],[119.9535,-3.9348,16.0158],[119.9523,-3.9389,14.7079],[119.9408,-3.9349,14.4914],[119.9396,-3.9288,14.022],[119.9297,-3.9318,14.2159],[119.9162,-3.9325,18.3731],[119.9171,-3.934,17.802],[119.9159,-3.9349,22.6869],[119.9183,-3.9362,16.851],[119.9145,-3.9431,29.1165],[119.9149,-3.9506,26.2507],[119.9115,-3.9628,24.6544],[119.9051,-3.9687,10.1361],[119.9047,-3.9854,7.7244],[119.8926,-4.0016,5.9206],[119.8867,-4.019,5.0],[119.8937,-4.028,5.9909],[119.8953,-4.0431,6.9912],[119.9021,-4.0534,6.2177]]]]}}