{"type":"Feature","properties":{"GID_2":"IDN.28.3_1","GID_0":"IDN","country":"Indonesia","GID_1":"IDN.28_1","province":"SulawesiTenggara","NL_NAME_1":"NA","county":"ButonUtara","VARNAME_2":"NA","NL_NAME_2":"NA","TYPE_2":"Kabupaten","ENGTYPE_2":"Regency","CC_2":"7409","HASC_2":"ID.SG.BT","name":"Buton_Utara.county"},
"geometry":{"type": "MultiPolygon","coordinates": [[[[123.0707,-4.7562,0.0],[123.0709,-4.757,0.2781],[123.0719,-4.7571,0.2781],[123.0707,-4.7562,0.0]]],
[[[123.0311,-4.7535,0.0],[123.0306,-4.755,4.9738],[123.0304,-4.759,1.3848],[123.0323,-4.7531,4.5215],[123.0311,-4.7535,0.0]]],
[[[123.1291,-4.7271,1.0827],[123.1278,-4.7281,6.2308],[123.1268,-4.7249,1.8053],[123.1249,-4.7264,4.871],[123.1272,-4.7335,5.0253],[123.1254,-4.7335,2.8482],[123.1249,-4.7354,4.7991],[123.1286,-4.7385,6.4482],[123.1229,-4.7388,1.1304],[123.1219,-4.7409,0.0],[123.1289,-4.7464,0.0],[123.1328,-4.7455,8.508],[123.1337,-4.7475,3.1993],[123.1348,-4.7354,0.0],[123.1322,-4.7342,10.4325],[123.1301,-4.7311,7.2833],[123.1323,-4.7298,0.0],[123.1291,-4.7271,1.0827]]],
[[[123.1253,-4.7237,0.0],[123.1249,-4.7239,0.0],[123.1249,-4.7243,0.0],[123.1256,-4.7241,0.0],[123.1253,-4.7237,0.0]]],
[[[123.1261,-4.7186,1.8727],[123.126,-4.7193,0.0],[123.1269,-4.7193,1.8727],[123.1269,-4.719,1.8727],[123.1261,-4.7186,1.8727]]],
[[[123.1982,-4.682,1.1436],[123.1981,-4.6827,0.0],[123.1994,-4.6827,1.1436],[123.1993,-4.6817,1.1436],[123.1982,-4.682,1.1436]]],
[[[123.1941,-4.6655,3.6944],[123.1915,-4.6645,0.0],[123.1913,-4.6665,0.0],[123.1924,-4.6671,1.935],[123.1941,-4.6655,3.6944]]],
[[[123.1963,-4.6454,2.7339],[123.1979,-4.6485,0.0],[123.2013,-4.6426,10.9871],[123.2004,-4.6374,1.9641],[123.1982,-4.6355,0.9087],[123.1964,-4.6371,3.1324],[123.1963,-4.6454,2.7339]]],
[[[123.1856,-4.632,3.3167],[123.1855,-4.6325,3.3167],[123.1858,-4.6327,0.0],[123.1859,-4.6323,0.0],[123.1856,-4.632,3.3167]]],
[[[123.1861,-4.6318,0.0],[123.1864,-4.6324,0.0],[123.1868,-4.6324,0.0],[123.1865,-4.6319,0.0],[123.1861,-4.6318,0.0]]],
[[[123.1933,-4.6745,4.3642],[123.1945,-4.6758,0.0],[123.1955,-4.6728,0.0],[123.1934,-4.6729,0.0],[123.1933,-4.6745,4.3642]]],
[[[123.187,-4.6694,7.8829],[123.1855,-4.6621,2.7303],[123.1838,-4.6684,6.6337],[123.1791,-4.6687,1.7719],[123.1777,-4.6718,7.0472],[123.179,-4.6742,6.4086],[123.183,-4.6754,6.1671],[123.187,-4.6694,7.8829]]],
[[[123.0488,-4.8085,2.9073],[123.0516,-4.8117,0.0],[123.0561,-4.8067,6.3473],[123.0559,-4.8043,4.9566],[123.0512,-4.8022,1.1273],[123.0489,-4.8041,0.0],[123.0488,-4.8085,2.9073]]],
[[[123.0507,-4.8243,0.0],[123.0509,-4.826,1.3259],[123.0524,-4.8263,0.7878],[123.0524,-4.824,0.0],[123.0507,-4.8243,0.0]]],
[[[123.0545,-4.8237,0.2918],[123.0544,-4.8242,0.2918],[123.0549,-4.8245,0.2918],[123.0551,-4.8234,0.2918],[123.0545,-4.8237,0.2918]]],
[[[123.1675,-4.798,0.0],[123.1677,-4.7967,0.0],[123.1653,-4.7967,0.0],[123.1651,-4.7996,0.0],[123.1675,-4.7994,0.0],[123.1675,-4.798,0.0]]],
[[[123.0837,-4.7988,10.7379],[123.0848,-4.7955,4.7455],[123.0799,-4.794,2.3414],[123.0785,-4.7966,5.5082],[123.0762,-4.7968,0.0],[123.0748,-4.8037,1.6045],[123.0765,-4.8037,1.6045],[123.0735,-4.8086,4.3513],[123.0743,-4.8059,3.7337],[123.0702,-4.8045,9.623],[123.0679,-4.8006,3.0338],[123.0599,-4.8052,0.0],[123.0516,-4.8132,4.9079],[123.0475,-4.8126,0.0],[123.0447,-4.8145,3.6589],[123.0436,-4.8175,0.0],[123.0443,-4.8188,1.0732],[123.0459,-4.8174,5.8],[123.0478,-4.8184,1.9105],[123.0461,-4.8201,7.1495],[123.0472,-4.822,2.5896],[123.0549,-4.8198,0.0],[123.0605,-4.8122,12.1011],[123.0571,-4.8238,3.4421],[123.0578,-4.8266,5.7362],[123.0561,-4.8272,2.3223],[123.0569,-4.8307,11.4082],[123.0545,-4.8272,2.3223],[123.0504,-4.8283,2.5773],[123.0473,-4.8257,3.7272],[123.0388,-4.8233,5.5576],[123.0341,-4.8264,0.0],[123.0344,-4.8334,0.0],[123.0402,-4.8334,3.3331],[123.052,-4.8408,3.6336],[123.054,-4.8472,0.952],[123.0585,-4.8481,0.0],[123.0617,-4.8421,2.6913],[123.0652,-4.8418,1.4855],[123.0745,-4.8457,2.0614],[123.0779,-4.8517,0.0],[123.0793,-4.8511,0.0],[123.0801,-4.847,0.0],[123.078,-4.8456,13.2212],[123.0794,-4.8454,5.7127],[123.0832,-4.8475,8.9713],[123.0845,-4.8535,0.0],[123.0889,-4.8538,0.0],[123.0935,-4.8527,3.3263],[123.0968,-4.8495,1.4692],[123.0908,-4.8387,4.2635],[123.0951,-4.8293,7.4471],[123.0946,-4.8326,5.7999],[123.0937,-4.8346,0.0],[123.0949,-4.8361,0.0],[123.0985,-4.8335,3.5244],[123.0997,-4.839,2.5175],[123.1051,-4.8383,2.0348],[123.0983,-4.844,1.1833],[123.099,-4.8458,1.2505],[123.0975,-4.848,1.1506],[123.0992,-4.8495,1.1506],[123.1051,-4.8497,0.0],[123.1089,-4.8471,2.3924],[123.1127,-4.8474,2.8054],[123.1181,-4.8283,0.0],[123.1174,-4.7976,3.1648],[123.1072,-4.7989,0.0],[123.1042,-4.7958,0.9233],[123.1005,-4.7984,5.3442],[123.0939,-4.7953,1.8857],[123.0921,-4.7979,5.5458],[123.093,-4.7956,4.3695],[123.091,-4.7949,7.1091],[123.0879,-4.7982,20.5046],[123.0851,-4.7956,1.5023],[123.0845,-4.7989,10.7379],[123.0817,-4.7997,5.9547],[123.0837,-4.7988,10.7379]]],
[[[123.118,-4.7925,1.2121],[123.1148,-4.7853,3.0626],[123.1133,-4.7857,0.0],[123.1131,-4.7884,9.3376],[123.111,-4.7867,0.0],[123.1104,-4.7889,5.7082],[123.1086,-4.7877,1.1648],[123.1014,-4.7928,4.0942],[123.1105,-4.7966,0.0],[123.118,-4.7925,1.2121]]],
[[[123.1433,-4.7717,2.9447],[123.1386,-4.7692,2.3629],[123.1399,-4.7621,4.385],[123.1378,-4.7605,0.0],[123.1358,-4.7666,0.0],[123.1361,-4.7733,0.0],[123.1485,-4.7767,0.0],[123.155,-4.7753,0.5273],[123.157,-4.7734,0.0],[123.1553,-4.7721,1.7879],[123.1486,-4.7737,7.1612],[123.1433,-4.7717,2.9447]]],
[[[123.0729,-4.775,1.3248],[123.0747,-4.7753,0.0],[123.0746,-4.7728,2.7202],[123.0713,-4.7706,1.7414],[123.0697,-4.7756,0.0],[123.0729,-4.775,1.3248]]],
[[[123.0362,-4.7688,4.373],[123.0362,-4.7696,1.6686],[123.0371,-4.7703,1.6686],[123.0376,-4.7687,4.373],[123.0362,-4.7688,4.373]]],
[[[123.0426,-4.7726,2.9188],[123.0472,-4.7741,1.8205],[123.0445,-4.7669,0.0],[123.0372,-4.7595,1.5651],[123.0362,-4.7627,9.8137],[123.0378,-4.7634,8.5426],[123.0378,-4.7678,13.7203],[123.0426,-4.7726,2.9188]]],
[[[123.1116,-4.7685,2.8268],[123.1104,-4.7642,0.0],[123.1094,-4.7662,4.5574],[123.1105,-4.7693,2.8268],[123.1116,-4.7685,2.8268]]],
[[[123.0445,-4.7795,0.0],[123.0446,-4.7814,0.0],[123.0459,-4.7817,0.0],[123.0451,-4.7795,0.0],[123.0445,-4.7795,0.0]]],
[[[123.0485,-4.778,8.0271],[123.0507,-4.7835,0.0],[123.052,-4.7796,10.6663],[123.0503,-4.7775,2.1101],[123.0485,-4.778,8.0271]]],
[[[123.1232,-4.774,1.7001],[123.1189,-4.7723,2.6371],[123.1153,-4.7684,4.2356],[123.1136,-4.7687,2.1342],[123.1114,-4.7767,0.0],[123.1126,-4.7806,0.8446],[123.1162,-4.7828,4.3307],[123.1192,-4.7816,1.2268],[123.1249,-4.7755,0.0],[123.1253,-4.7738,0.6318],[123.1232,-4.774,1.7001]]],
[[[123.0408,-4.7731,10.4627],[123.0393,-4.7699,6.3364],[123.0369,-4.7713,3.3177],[123.0397,-4.7777,11.8425],[123.0453,-4.7781,0.0],[123.0451,-4.7739,3.7631],[123.0408,-4.7731,10.4627]]],
[[[123.0366,-4.7679,7.0896],[123.0375,-4.7644,8.6619],[123.0357,-4.7624,9.8137],[123.037,-4.7593,1.5651],[123.0328,-4.7542,4.5215],[123.0296,-4.7658,14.4415],[123.0318,-4.7695,13.5768],[123.034,-4.7698,0.0],[123.0353,-4.7672,13.7787],[123.0366,-4.7679,7.0896]]],
[[[123.1532,-4.7604,0.0],[123.1531,-4.761,0.0],[123.1537,-4.7612,0.0],[123.1537,-4.7599,0.0],[123.1532,-4.7604,0.0]]],
[[[122.9685,-5.0899,6.2526],[122.9727,-5.0844,5.5718],[122.9752,-5.0711,7.0883],[122.9792,-5.0605,8.4225],[122.9783,-5.0544,1.7835],[122.9726,-5.0478,36.3301],[122.9685,-5.0269,2.9044],[122.9633,-5.026,0.0],[122.955,-5.0292,4.0366],[122.9521,-5.0251,7.0264],[122.9514,-5.0193,8.3555],[122.9557,-5.0172,0.0],[122.9549,-5.0018,16.9232],[122.958,-4.9948,0.0],[122.9636,-4.9679,3.0645],[122.969,-4.9518,3.9076],[122.9775,-4.9515,1.0156],[122.9837,-4.9438,2.1966],[122.9892,-4.9439,3.721],[122.9875,-4.9385,1.5731],[122.9937,-4.9407,2.9601],[123.0013,-4.9358,0.0],[123.0005,-4.9329,18.9265],[123.0025,-4.9314,2.3384],[123.002,-4.9256,8.5662],[123.0039,-4.924,2.3348],[123.0093,-4.9041,0.0],[123.0077,-4.8883,13.5444],[123.006,-4.8853,9.5519],[123.007,-4.882,2.0741],[123.0057,-4.8718,6.4559],[123.0022,-4.8627,7.142],[123.0034,-4.862,1.7375],[123.0036,-4.8537,2.1071],[123.0005,-4.8434,2.1169],[122.9948,-4.837,0.7487],[122.9938,-4.827,3.5447],[123.0,-4.8247,4.3907],[123.0026,-4.8269,0.8683],[123.0057,-4.8239,5.0189],[123.0081,-4.8251,1.7658],[123.0091,-4.8237,0.0],[123.0055,-4.8203,2.3439],[123.008,-4.8157,8.8735],[123.0183,-4.8117,0.6911],[123.0204,-4.809,7.9156],[123.0226,-4.8104,2.042],[123.0248,-4.8076,8.8867],[123.0266,-4.8088,1.793],[123.0356,-4.8058,0.0],[123.0368,-4.8042,3.3475],[123.0357,-4.8035,3.3475],[123.0399,-4.8018,0.0],[123.0389,-4.797,5.1201],[123.0366,-4.7955,3.8472],[123.0374,-4.791,5.7995],[123.0324,-4.7739,5.6932],[123.0266,-4.77,13.0334],[123.0236,-4.7653,7.5857],[123.0242,-4.7636,5.4888],[123.0281,-4.7638,0.0],[123.0306,-4.7499,5.341],[123.0327,-4.746,11.2293],[123.0359,-4.7454,18.6075],[123.0365,-4.7505,11.5635],[123.039,-4.7551,0.0],[123.052,-4.7637,1.3176],[123.0561,-4.7702,0.0],[123.0582,-4.7683,0.0],[123.0574,-4.7652,3.6042],[123.0597,-4.7612,6.1376],[123.058,-4.7586,5.0316],[123.0622,-4.7527,7.6238],[123.0651,-4.7529,5.7045],[123.0693,-4.7559,0.7916],[123.071,-4.7549,0.0],[123.0758,-4.7562,10.4229],[123.0771,-4.75,1.8092],[123.0789,-4.7485,4.3486],[123.0787,-4.744,1.9336],[123.0793,-4.7483,4.3486],[123.0787,-4.7497,1.8092],[123.0838,-4.7599,2.4088],[123.0813,-4.7665,2.36],[123.0761,-4.7731,0.0],[123.0784,-4.7748,0.0],[123.0852,-4.7757,4.0909],[123.0794,-4.7758,5.3042],[123.0746,-4.7834,0.0],[123.0745,-4.7867,0.0],[123.0772,-4.7913,0.0],[123.081,-4.7901,2.7746],[123.0827,-4.7921,0.0],[123.0862,-4.7916,0.0],[123.0869,-4.7895,4.1375],[123.0854,-4.7879,9.9624],[123.0929,-4.7943,0.0],[123.1002,-4.7946,0.0],[123.0995,-4.7919,0.9337],[123.1032,-4.7915,4.0942],[123.1055,-4.7888,9.4499],[123.1041,-4.7873,6.9901],[123.106,-4.7855,0.0],[123.1047,-4.7834,7.8146],[123.1078,-4.7821,0.0],[123.1069,-4.7787,6.6328],[123.1096,-4.7708,7.8857],[123.1075,-4.7632,6.9191],[123.102,-4.7616,6.9751],[123.1025,-4.7351,8.2213],[123.1076,-4.7326,0.0],[123.1062,-4.7274,4.0601],[123.1094,-4.7275,3.8538],[123.11279999999999,-4.7319,0.9741],[123.1153,-4.7266,2.8063],[123.1144,-4.7231,0.0],[123.1086,-4.7182,5.9837],[123.106,-4.7135,0.0],[123.1073,-4.7085,6.966],[123.1096,-4.7081,1.2089],[123.1083,-4.706,7.7932],[123.1096,-4.7031,9.8386],[123.1089,-4.6986,7.6212],[123.1051,-4.6942,10.1488],[123.1058,-4.6945,12.8904],[123.1093,-4.6989,7.6212],[123.1108,-4.7058,2.1133],[123.1131,-4.7025,11.1687],[123.1118,-4.6971,0.5],[123.1144,-4.696,16.0384],[123.1192,-4.7015,0.0],[123.1206,-4.7064,11.4353],[123.1183,-4.7055,4.7512],[123.1167,-4.7081,2.3699],[123.1213,-4.7159,0.0],[123.1243,-4.7146,3.6027],[123.1245,-4.7106,10.2804],[123.1262,-4.7098,13.6322],[123.1249,-4.7113,6.1161],[123.1253,-4.7152,3.6027],[123.1293,-4.7217,0.0],[123.1342,-4.7212,5.5276],[123.1315,-4.7193,8.6618],[123.132,-4.7156,10.3609],[123.1325,-4.7194,10.7313],[123.1355,-4.7197,1.0558],[123.1394,-4.723,6.126],[123.1418,-4.721,8.5482],[123.1417,-4.7223,5.2042],[123.1404,-4.7234,6.126],[123.1378,-4.7236,0.0],[123.1379,-4.7254,0.0],[123.1423,-4.7268,1.0854],[123.1429,-4.729,5.3375],[123.1454,-4.7275,10.6895],[123.1487,-4.7288,3.7636],[123.149,-4.7311,9.8713],[123.1482,-4.7292,3.7636],[123.1464,-4.7305,0.0],[123.1491,-4.7325,11.3005],[123.1485,-4.7354,6.7537],[123.1459,-4.7347,5.5769],[123.1449,-4.7366,5.1668],[123.152,-4.7414,1.2781],[123.1526,-4.7451,5.4865],[123.1497,-4.7412,0.9271],[123.147,-4.7409,0.8685],[123.1394,-4.7481,0.0],[123.1403,-4.7514,5.4768],[123.1384,-4.7508,0.0],[123.1325,-4.7548,5.683],[123.1334,-4.7572,2.2177],[123.1372,-4.7558,3.5405],[123.1471,-4.7593,3.5917],[123.1522,-4.7592,1.8886],[123.1525,-4.7577,4.5427],[123.1567,-4.7614,0.0],[123.1602,-4.7614,0.6834],[123.1631,-4.7638,0.4421],[123.1652,-4.7626,4.0587],[123.1646,-4.7651,2.1663],[123.1616,-4.7659,0.0],[123.1605,-4.7698,0.782],[123.1627,-4.7689,4.0618],[123.1631,-4.7724,0.8906],[123.1686,-4.7732,0.4948],[123.1714,-4.7709,0.0],[123.1705,-4.7666,6.5946],[123.1712,-4.7689,4.1618],[123.1762,-4.7706,3.9746],[123.175,-4.7751,0.0],[123.1699,-4.7786,3.7798],[123.1686,-4.7817,4.7916],[123.1703,-4.79,8.4553],[123.1692,-4.7951,0.3232],[123.1714,-4.7989,7.2931],[123.1724,-4.834,0.0],[123.1736,-4.8368,0.551],[123.1836,-4.8509,0.0],[123.1912,-4.857,0.0],[123.2008,-4.8613,0.0],[123.2048,-4.8668,2.3244],[123.2104,-4.8648,10.1795],[123.2132,-4.8584,0.0],[123.214,-4.826,8.6838],[123.2092,-4.8215,19.757],[123.2078,-4.8176,12.2078],[123.2056,-4.7916,10.9555],[123.2022,-4.7766,23.2694],[123.2076,-4.7524,12.0232],[123.207,-4.7353,6.9926],[123.2102,-4.7289,3.8943],[123.2103,-4.7255,6.725],[123.2082,-4.7295,14.8782],[123.2122,-4.7151,7.5384],[123.2068,-4.6752,0.0],[123.2035,-4.6649,4.6159],[123.2043,-4.6627,0.0],[123.2017,-4.6625,13.4172],[123.2008,-4.6607,8.4057],[123.2021,-4.6587,6.0959],[123.1985,-4.6566,3.6572],[123.1981,-4.6594,1.6368],[123.1949,-4.6603,12.0965],[123.1991,-4.6705,13.5634],[123.1989,-4.6738,12.1834],[123.1973,-4.6778,6.8185],[123.1945,-4.6768,8.4949],[123.1938,-4.6789,2.8802],[123.1947,-4.6803,1.683],[123.201,-4.6804,6.7387],[123.202,-4.6929,16.252],[123.2005,-4.6949,14.2539],[123.2006,-4.6913,16.252],[123.1981,-4.6925,3.0079],[123.1948,-4.6911,10.277],[123.1969,-4.6883,4.559],[123.1991,-4.6887,4.3137],[123.1982,-4.6853,2.3181],[123.1947,-4.6875,7.6896],[123.1918,-4.6839,0.0],[123.1915,-4.6866,10.7032],[123.1892,-4.6858,15.5014],[123.1874,-4.6793,13.3241],[123.1895,-4.679,6.2531],[123.1882,-4.6778,5.653],[123.1879,-4.6714,0.0],[123.183,-4.6757,6.1671],[123.181,-4.6754,6.5639],[123.1792,-4.6746,7.6875],[123.1781,-4.6736,6.4086],[123.1773,-4.6715,5.8443],[123.177,-4.668,8.7289],[123.1783,-4.6667,1.1533],[123.1762,-4.6623,6.6969],[123.1768,-4.6609,8.0667],[123.1812,-4.6607,18.9056],[123.1834,-4.6551,29.0267],[123.1845,-4.6599,0.0],[123.1863,-4.6581,0.0],[123.1862,-4.6529,0.0],[123.1834,-4.6496,36.2582],[123.1843,-4.6466,0.0],[123.1826,-4.645,8.422],[123.1807,-4.6465,13.7252],[123.1801,-4.6455,5.9842],[123.1827,-4.6416,10.0879],[123.1879,-4.6457,2.8449],[123.19,-4.6459,1.6733],[123.192,-4.6427,0.0],[123.1909,-4.6402,3.5404],[123.1876,-4.6409,6.8423],[123.1842,-4.6339,0.0],[123.1858,-4.6307,10.1548],[123.1879,-4.6308,0.0],[123.1893,-4.6279,15.0672],[123.1927,-4.6304,0.0],[123.1917,-4.6239,34.0764],[123.1927,-4.6219,0.0],[123.1915,-4.6208,40.948],[123.193,-4.6177,4.1757],[123.1938,-4.6204,1.3376999999999999],[123.1969,-4.6191,1.1912],[123.1984,-4.6164,0.7859],[123.2011,-4.6223,0.7757],[123.2052,-4.623,0.0],[123.2077,-4.6197,4.0448],[123.2087,-4.6129,0.9514],[123.204,-4.6096,6.5507],[123.1978,-4.6099,12.0012],[123.2007,-4.6073,3.3285],[123.1988,-4.5988,0.0],[123.1966,-4.5964,4.5537],[123.1966,-4.5928,0.0],[123.1905,-4.5869,13.9604],[123.1917,-4.581,8.6427],[123.1805,-4.5635,6.8386],[123.1796,-4.5561,0.0],[123.1751,-4.5521,26.7497],[123.1705,-4.5431,18.0821],[123.1622,-4.5404,5.7906],[123.1563,-4.5226,4.0981],[123.1516,-4.52,9.2605],[123.1506,-4.5171,1.554],[123.1499,-4.518,7.3361],[123.1473,-4.5165,24.2777],[123.1473,-4.5132,1.8269],[123.1461,-4.5135,9.563],[123.1457,-4.5114,6.9352],[123.1472,-4.509,1.7437],[123.1463,-4.5059,3.2496],[123.1405,-4.4982,0.0],[123.1416,-4.4867,0.0],[123.1389,-4.4823,3.1957],[123.1364,-4.4818,15.9472],[123.1341,-4.4844,0.0],[123.1308,-4.4842,3.1516],[123.125,-4.4767,9.9279],[123.1215,-4.4771,16.0691],[123.1184,-4.4751,16.6725],[123.1163,-4.4767,52.1409],[123.1145,-4.4747,0.0],[123.1149,-4.4839,29.9367],[123.1069,-4.4724,11.5089],[123.1091,-4.4702,18.4823],[123.1058,-4.4601,0.0],[123.1036,-4.4618,22.7094],[123.1026,-4.459,0.0],[123.1005,-4.4597,8.0484],[123.1002,-4.4543,0.0],[123.0939,-4.4604,2.5532],[123.0862,-4.4583,6.0559],[123.0806,-4.4595,8.3229],[123.0806,-4.4582,8.3229],[123.0767,-4.4568,94.2739],[123.0761,-4.4545,17.1932],[123.0777,-4.4501,5.5634],[123.0765,-4.4472,75.4356],[123.0781,-4.4467,9.9652],[123.0783,-4.4436,57.5062],[123.0762,-4.4411,1.0766],[123.0742,-4.4411,7.8744],[123.0734,-4.4364,15.3133],[123.0699,-4.4324,30.7648],[123.0663,-4.431,0.0],[123.061,-4.4338,35.3124],[123.0586,-4.4309,0.0],[123.052,-4.43,68.4462],[123.0451,-4.4247,37.2661],[123.0445,-4.4199,0.0],[123.0496,-4.4177,59.9424],[123.0505,-4.4157,33.0856],[123.0526,-4.4163,0.0],[123.0515,-4.4131,59.317],[123.0561,-4.4111,57.3482],[123.0587,-4.4122,9.9134],[123.0619,-4.4084,3.6639],[123.0659,-4.4101,2.2738],[123.0668,-4.4127,11.2231],[123.0694,-4.4083,24.1362],[123.073,-4.4075,5.0175],[123.0784,-4.4021,53.4515],[123.0811,-4.3916,0.0],[123.0825,-4.3889,44.168],[123.0843,-4.3888,14.507],[123.0812,-4.3804,0.0],[123.0784,-4.3797,86.6099],[123.0796,-4.3783,0.0],[123.0781,-4.3761,41.0731],[123.0822,-4.3748,3.1192],[123.0805,-4.3735,27.4884],[123.0789,-4.3668,0.0],[123.0733,-4.3666,48.8582],[123.0691,-4.3706,10.7218],[123.0634,-4.371,0.0],[123.0574,-4.3743,15.1973],[123.0573,-4.3666,10.6051],[123.0542,-4.3703,42.4522],[123.0522,-4.3672,0.0],[123.0497,-4.369,9.1874],[123.0423,-4.3694,0.0],[123.0336,-4.3771,8.7638],[123.0251,-4.3795,0.0],[123.0179,-4.3846,35.8968],[123.016,-4.3889,7.5387],[123.0111,-4.3938,11.376],[123.0036,-4.3948,22.5315],[122.9967,-4.3987,5.2903],[122.9933,-4.3944,0.0],[122.9894,-4.3976,0.0],[122.9874,-4.403,36.602],[122.9756,-4.4135,2.8733],[122.9669,-4.4148,2.0958],[122.9605,-4.4203,5.292],[122.9505,-4.4251,6.5681],[122.945,-4.4319,0.0],[122.9464,-4.4356,0.1821],[122.9361,-4.4441,0.6905],[122.9268,-4.4482,7.9032],[122.9226,-4.454,16.2005],[122.9077,-4.4606,0.0],[122.9054,-4.465,8.1966],[122.9069,-4.4714,6.7099],[122.9051,-4.4712,0.8979],[122.9004,-4.477,3.084],[122.8987,-4.482,2.2555],[122.893,-4.4882,8.9895],[122.8909,-4.4885,4.0321],[122.8896,-4.4972,11.3958],[122.8798,-4.5038,3.2696],[122.8805,-4.5163,3.5268],[122.8674,-4.526,0.5112],[122.8686,-4.5322,0.0],[122.8669,-4.5505,9.7759],[122.8577,-4.5693,10.7297],[122.8543,-4.5718,2.3294],[122.8483,-4.5915,6.725],[122.8481,-4.6042,0.0],[122.8501,-4.6073,0.0],[122.8491,-4.6093,0.0],[122.9287,-4.6123,157.9024],[122.928,-4.6279,169.4187],[122.926,-4.6369,216.0089],[122.9266,-4.6458,208.9092],[122.9282,-4.649,217.7425],[122.9185,-4.7343,127.6361],[122.9158,-4.8045,213.1665],[122.9238,-4.8374,370.346],[122.9247,-4.8578,437.1759],[122.922,-4.8729,451.0623],[122.9078,-4.904,261.2912],[122.8918,-4.9475,41.28],[122.89,-4.9724,111.6253],[122.8785,-5.0266,273.7448],[122.8687,-5.0488,284.3065],[122.8607,-5.0497,378.7711],[122.8554,-5.055,494.7624],[122.8483,-5.0772,386.0034],[122.843,-5.0799,474.2833],[122.8276,-5.0958,269.068],[122.839,-5.1088,497.8187],[122.8425,-5.1154,621.6704],[122.8513,-5.1185,573.9465],[122.8609,-5.1176,613.8771],[122.8686,-5.1214,551.411],[122.8884,-5.1228,402.1867],[122.9006,-5.1197,371.4296],[122.9283,-5.1422,285.4187],[122.9489,-5.1483,3.2199],[122.9529,-5.1415,10.3432],[122.9652,-5.1318,15.9605],[122.9661,-5.1242,2.5585],[122.9733,-5.1154,17.8313],[122.972,-5.1136,9.8698],[122.971,-5.0959,11.9351],[122.9685,-5.0899,6.2526]]],
[[[123.1156,-4.7447,2.9344],[123.1135,-4.7417,3.1369],[123.1102,-4.7425,0.0],[123.11,-4.7497,2.5464],[123.1132,-4.7509,3.1833],[123.1144,-4.7561,7.699],[123.1179,-4.7572,6.3565],[123.117,-4.7597,2.5042],[123.1192,-4.7644,0.8672],[123.1223,-4.7653,0.0],[123.1256,-4.7636,1.3631],[123.1267,-4.7608,0.0],[123.125,-4.7587,0.801],[123.1222,-4.7588,2.5368],[123.1224,-4.7561,0.0],[123.1204,-4.7548,2.9126],[123.1212,-4.7493,1.4717],[123.1156,-4.7447,2.9344]]]]}}