{"type":"Feature","properties":{"GID_3":"IDN.6.2.13_1","GID_0":"IDN","country":"Indonesia","GID_1":"IDN.6_1","province":"Gorontalo","NL_NAME_1":"NA","GID_2":"IDN.6.2_1","county":"BoneBolango","NL_NAME_2":"NA","city":"SuwawaTengah","VARNAME_3":"NA","NL_NAME_3":"NA","TYPE_3":"Kecamatan","ENGTYPE_3":"Sub-district","CC_3":"7504033","HASC_3":"NA","name":"Suwawa_Tengah.city"},
"geometry":{"type": "MultiPolygon","coordinates": [[[[123.188,0.5228,32.5558],[123.1939,0.5169,37.6358],[123.2012,0.5151,49.0741],[123.2086,0.5154,46.9963],[123.21,0.5189,81.2168],[123.209,0.5594,689.3904],[123.1609,0.5592,226.8834],[123.16,0.5516,102.5172],[123.1527,0.5449,39.9126],[123.1503,0.532,23.4945],[123.1512,0.5261,18.8051],[123.1705,0.5303,27.5568],[123.174,0.535,26.2495],[123.179,0.5362,29.1421],[123.182,0.5345,28.8421],[123.1808,0.5296,40.0382],[123.1844,0.5294,38.2215],[123.1843,0.5264,31.3017],[123.1889,0.5259,39.6091],[123.188,0.5228,32.5558]]]]}}