{"type":"Feature","properties":{"GID_3":"IDN.31.6.1_1","GID_0":"IDN","country":"Indonesia","GID_1":"IDN.31_1","province":"SumateraSelatan","NL_NAME_1":"NA","GID_2":"IDN.31.6_1","county":"MusiBanyuasin","NL_NAME_2":"NA","city":"BabatToman","VARNAME_3":"NA","NL_NAME_3":"NA","TYPE_3":"Kecamatan","ENGTYPE_3":"Sub-district","CC_3":"1606020","HASC_3":"NA","name":"Babat_Toman.city"},
"geometry":{"type": "MultiPolygon","coordinates": [[[[103.7919,-2.7973,20.177],[103.7926,-2.7924,20.9211],[103.7969,-2.7873,20.6381],[103.7982,-2.7789,23.9062],[103.8035,-2.7683,30.5959],[103.8085,-2.7638,33.6732],[103.8209,-2.7574,30.5389],[103.8233,-2.7535,25.3705],[103.8218,-2.7512,33.1894],[103.8052,-2.7496,35.8923],[103.8005,-2.7444,36.3268],[103.8004,-2.7404,36.7367],[103.8066,-2.7345,19.4407],[103.81,-2.7248,21.68],[103.8024,-2.7141,24.412],[103.7914,-2.7074,15.1239],[103.7789,-2.7028,16.1922],[103.7234,-2.6915,24.0707],[103.6933,-2.6786,35.2552],[103.6756,-2.6755,33.024],[103.6649,-2.6707,33.4379],[103.6384,-2.654,23.641],[103.6116,-2.6212,28.0727],[103.5975,-2.599,29.5086],[103.5911,-2.5931,29.6132],[103.5855,-2.5921,31.4964],[103.579,-2.5942,33.5798],[103.5734,-2.5987,26.8136],[103.5584,-2.6212,37.3157],[103.5308,-2.6352,52.7326],[103.5249,-2.644,55.1606],[103.5176,-2.6611,33.5729],[103.5204,-2.6837,27.0349],[103.5351,-2.7152,28.3073],[103.5408,-2.7336,14.888],[103.5381,-2.7394,21.1316],[103.507,-2.7526,16.2231],[103.4971,-2.7609,16.8384],[103.4924,-2.7685,25.83],[103.4907,-2.7747,26.546],[103.489,-2.7954,17.073],[103.4869,-2.801,16.7478],[103.4738,-2.8144,19.1627],[103.4424,-2.8406,22.1043],[103.5581,-2.8403,19.2544],[103.562,-2.8372,19.7848],[103.5878,-2.8282,39.1825],[103.6186,-2.8251,30.1573],[103.6393,-2.8506,22.01],[103.6396,-2.8875,46.6666],[103.6642,-2.9166,37.7401],[103.6692,-2.9248,40.3552],[103.7219,-2.9319,23.2966],[103.7299,-2.9186,19.5526],[103.7379,-2.909,22.0463],[103.7578,-2.8951,16.2209],[103.7672,-2.8577,18.1006],[103.7725,-2.8476,18.6701],[103.7728,-2.8391,17.4699],[103.7796,-2.8289,18.6627],[103.7791,-2.8187,19.5459],[103.7851,-2.8098,17.9133],[103.7876,-2.8022,15.2546],[103.7919,-2.7973,20.177]]]]}}