{"type":"Feature","properties":{"GID_3":"IDN.32.18.7_1","GID_0":"IDN","country":"Indonesia","GID_1":"IDN.32_1","province":"SumateraUtara","NL_NAME_1":"NA","GID_2":"IDN.32.18_1","county":"NiasSelatan","NL_NAME_2":"NA","city":"Lahusa","VARNAME_3":"NA","NL_NAME_3":"NA","TYPE_3":"Kecamatan","ENGTYPE_3":"Sub-district","CC_3":"1214050","HASC_3":"NA","name":"Lahusa.city"},
"geometry":{"type": "MultiPolygon","coordinates": [[[[97.889,0.7391,0.0],[97.8875,0.7405,4.3293],[97.8872,0.7449,1.7963],[97.8915,0.7505,5.0335],[97.891,0.7532,7.8292],[97.8934,0.7582,1.2328],[97.8904,0.7619,6.9979],[97.8908,0.7668,5.5325],[97.9119,0.7986,0.0],[97.9115,0.8026,0.0],[97.9083,0.8029,12.0344],[97.9076,0.8047,6.6271],[97.9099,0.8151,12.4998],[97.8971,0.8217,6.9665],[97.8949,0.8265,0.0],[97.8981,0.8354,6.2379],[97.8969,0.837,4.335],[97.8979,0.8385,5.6353],[97.8943,0.8423,0.0],[97.8977,0.8502,5.4045],[97.895,0.8572,3.4287],[97.904,0.8787,4.3158],[97.9017,0.8847,7.9476],[97.8973,0.8837,36.0893],[97.8926,0.8851,100.6258],[97.8911,0.8889,112.4972],[97.8889,0.8883,85.6579],[97.8854,0.8905,92.0773],[97.8768,0.8893,142.0914],[97.874,0.8859,159.8345],[97.8663,0.8904,119.4491],[97.8572,0.8846,159.8687],[97.8563,0.8761,134.6892],[97.8181,0.8546,70.5509],[97.8128,0.8461,51.2435],[97.8158,0.8394,52.7296],[97.8148,0.8356,57.07],[97.8107,0.8331,56.354],[97.81,0.8354,52.6066],[97.8052,0.8359,64.1032],[97.8011,0.8316,72.2843],[97.7978,0.8318,71.9161],[97.7958,0.8293,76.6562],[97.7954,0.8256,96.2731],[97.7994,0.8239,138.9366],[97.7985,0.8219,92.563],[97.8058,0.812,245.063],[97.7955,0.7964,337.6243],[97.7951,0.7886,378.2747],[97.7903,0.7854,381.4958],[97.7885,0.7788,405.8148],[97.791,0.7746,404.8907],[97.7898,0.7701,457.8845],[97.7877,0.7686,455.5409],[97.7824,0.7708,292.7362],[97.7783,0.7698,281.5558],[97.7775,0.7658,291.8124],[97.7722,0.7621,390.2062],[97.7697,0.7579,388.7038],[97.7708,0.754,355.5013],[97.7699,0.748,359.1013],[97.7749,0.7428,337.5193],[97.7753,0.7389,340.5331],[97.7819,0.7316,324.6785],[97.7909,0.7288,363.1778],[97.7924,0.7232,371.0032],[97.8001,0.7246,473.3308],[97.8038,0.7235,470.3137],[97.8084,0.7312,448.082],[97.807,0.7342,457.672],[97.8134,0.7379,369.1166],[97.8206,0.7366,335.2668],[97.8234,0.7392,342.1173],[97.8277,0.7375,336.866],[97.8321,0.7407,267.3584],[97.8367,0.7417,302.5682],[97.8389,0.7398,295.8734],[97.844,0.7285,183.1268],[97.8479,0.7252,144.4365],[97.8675,0.7244,276.2075],[97.8916,0.7189,77.8891],[97.8937,0.7197,2.8069],[97.8913,0.7269,18.753],[97.8942,0.7366,0.0],[97.8929,0.7386,1.1065],[97.889,0.7391,0.0]]]]}}