{"type":"Feature","properties":{"GID_3":"IDN.16.3.1_1","GID_0":"IDN","country":"Indonesia","GID_1":"IDN.16_1","province":"KepulauanRiau","NL_NAME_1":"NA","GID_2":"IDN.16.3_1","county":"Karimun","NL_NAME_2":"NA","city":"Buru","VARNAME_3":"NA","NL_NAME_3":"NA","TYPE_3":"Kecamatan","ENGTYPE_3":"Sub-district","CC_3":"2101031","HASC_3":"NA","name":"Buru.city"},
"geometry":{"type": "MultiPolygon","coordinates": [[[[103.4831,0.8812,0.0],[103.4781,0.8953,7.239],[103.479,0.9068,0.0],[103.477,0.9115,0.7359],[103.4754,0.9139,0.5422],[103.4604,0.9219,1.3713],[103.4494,0.9217,8.8373],[103.4364,0.9253,7.4177],[103.4238,0.9122,1.7619],[103.4193,0.9106,3.1622],[103.412,0.9114,3.8956],[103.4077,0.9099,2.6082],[103.4052,0.9069,2.3913],[103.4053,0.9029,0.7893],[103.4102,0.8925,6.7628],[103.4197,0.8823,6.9906],[103.4247,0.8814,2.5849],[103.4257,0.8772,8.1934],[103.4335,0.8725,15.2792],[103.4354,0.8693,0.8556],[103.4395,0.8687,2.8431],[103.4557,0.8583,0.0],[103.4721,0.8583,0.0],[103.48,0.8553,0.0],[103.4868,0.8548,0.0],[103.4874,0.8617,0.0],[103.4835,0.8676,4.8856],[103.4831,0.8812,0.0]]],
[[[103.4218,0.8796,5.9154],[103.4228,0.8775,2.0466],[103.4248,0.8787,4.625],[103.4239,0.8809,2.5849],[103.4217,0.8809,3.9878999999999998],[103.4218,0.8796,5.9154]]],
[[[103.4632,0.9211,2.6788],[103.4647,0.922,0.0],[103.463,0.923,2.9601],[103.4622,0.9223,2.3598],[103.4632,0.9211,2.6788]]],
[[[103.5031,0.9177,6.6098],[103.4922,0.9259,1.6894],[103.4895,0.9259,3.8412],[103.4865,0.916,0.0],[103.4863,0.899,0.5492],[103.4951,0.8742,0.0],[103.5025,0.8622,3.2681],[103.5128,0.8602,0.4028],[103.5181,0.8666,0.0],[103.5277,0.8679,1.7323],[103.528,0.8738,5.1035],[103.5225,0.8885,0.0],[103.5112,0.906,3.7906],[103.5107,0.9101,3.2497],[103.5031,0.9177,6.6098]]],
[[[103.4782,0.9136,2.7245],[103.4769,0.9125,2.7245],[103.4787,0.9115,0.7359],[103.4786,0.9127,2.7245],[103.4782,0.9136,2.7245]]],
[[[103.4723,0.9159,3.2205],[103.4723,0.9171,0.7569],[103.4698,0.918,2.8217],[103.4702,0.9169,8.0774],[103.4723,0.9159,3.2205]]]]}}