{"type":"Feature","properties":{"GID_3":"IDN.31.3.16_1","GID_0":"IDN","country":"Indonesia","GID_1":"IDN.31_1","province":"SumateraSelatan","NL_NAME_1":"NA","GID_2":"IDN.31.3_1","county":"Lahat","NL_NAME_2":"NA","city":"PajarBulan","VARNAME_3":"NA","NL_NAME_3":"NA","TYPE_3":"Kecamatan","ENGTYPE_3":"Sub-district","CC_3":"1604061","HASC_3":"NA","name":"Pajar_Bulan.city"},
"geometry":{"type": "MultiPolygon","coordinates": [[[[103.3682,-3.9689,479.4257],[103.3627,-3.97,492.2946],[103.36,-3.9632,593.0294],[103.3471,-3.9554,678.0576],[103.3433,-3.9338,1113.4105],[103.3301,-3.9314,1087.1417],[103.3259,-3.9269,989.9802],[103.3232,-3.9054,1164.6689],[103.3143,-3.8848,1528.0526],[103.3093,-3.8842,1504.614],[103.299,-3.8889,1519.6644],[103.2738,-3.8864,1693.6818],[103.2592,-3.8929,1585.2958],[103.2469,-3.8937,1724.4293],[103.2427,-3.8911,1607.2705],[103.2316,-3.8888,1577.1829],[103.2211,-3.927,860.9893],[103.2127,-3.937,731.2217],[103.2125,-3.9398,735.4118],[103.2165,-3.9393,733.3672],[103.2178,-3.9458,748.6801],[103.2137,-3.9554,768.9493],[103.2107,-3.9556,764.0514],[103.212,-3.9587,778.3528],[103.2075,-3.9654,786.5072],[103.2047,-3.9651,796.8644],[103.2018,-3.9701,812.5264],[103.1911,-3.9791,891.4805],[103.1978,-3.9883,895.034],[103.1968,-3.9902,915.5206],[103.1992,-3.992,883.1227],[103.2203,-3.9878999999999998,800.5024],[103.2303,-3.9921,767.8412],[103.237,-3.9929,759.9935],[103.2407,-3.9986,740.0498],[103.2442,-4.0,729.4404],[103.2488,-3.9991,732.0535],[103.2527,-4.0031,714.268],[103.255,-4.001,730.8391],[103.2604,-3.9998,724.6775],[103.2711,-4.0041,708.3181],[103.2752,-4.0037,692.9866],[103.2756,-4.0057,672.2362],[103.2771,-4.0048,672.2362],[103.2864,-4.0069,645.1603],[103.2862,-4.0086,664.759],[103.2897,-4.0108,634.0686],[103.2885,-4.0121,627.2188],[103.291,-4.0161,646.5511],[103.2881,-4.0183,643.109],[103.2891,-4.0199,652.61],[103.2857,-4.0197,648.9503],[103.286,-4.0212,648.9503],[103.2834,-4.0225,647.9771],[103.2851,-4.0254,660.4628],[103.2804,-4.0255,669.0121],[103.2809,-4.0272,665.6562],[103.2783,-4.0313,666.4622],[103.2807,-4.031,687.0292],[103.2804,-4.0332,678.5316],[103.2772,-4.0368,689.3408],[103.2829,-4.0428,703.5062],[103.2886,-4.0441,732.5704],[103.3017,-4.0419,779.1213],[103.3284,-4.044,753.1581],[103.3386,-4.039,725.5428],[103.3425,-4.0402,690.053],[103.3428,-4.0309,708.4862],[103.3473,-4.0195,620.6933],[103.3475,-4.0152,582.6125],[103.3515,-4.0115,595.2444],[103.352,-4.0034,575.0431],[103.3589,-3.9969,556.131],[103.3692,-3.9703,570.2752],[103.3689,-3.9679,513.8381],[103.3682,-3.9689,479.4257]]]]}}