{"type":"Feature","properties":{"GID_2":"IDN.24.1_1","GID_0":"IDN","country":"Indonesia","GID_1":"IDN.24_1","province":"Riau","NL_NAME_1":"NA","county":"Bengkalis","VARNAME_2":"NA","NL_NAME_2":"NA","TYPE_2":"Kabupaten","ENGTYPE_2":"Regency","CC_2":"1408","HASC_2":"ID.RI.BK","name":"Bengkalis.county"},
"geometry":{"type": "MultiPolygon","coordinates": [[[[102.1511,1.2964,2.5297],[102.1551,1.3256,1.1063],[102.1572,1.3317,0.0],[102.1592,1.3596,1.5738],[102.1533,1.3728,4.8145],[102.1487,1.379,0.0],[102.1356,1.3821,0.0],[102.1245,1.3894,3.6043],[102.1082,1.3924,0.4741],[102.1004,1.3978,1.9067],[102.0899,1.4017,5.7413],[102.0658,1.4195,4.4533],[102.0492,1.4292,0.0],[102.0429,1.434,0.0],[102.0371,1.4412,1.5041],[102.017,1.4533,1.5395],[102.0053,1.4584,12.2141],[102.0027,1.4612,3.1759],[102.0036,1.4618,0.0],[102.0019,1.4651,3.2943],[101.9976,1.4694,0.0],[101.9716,1.4877,0.0],[101.9692,1.491,0.0],[101.9576,1.4989,2.269],[101.9536,1.5038,0.0],[101.9468,1.5076,1.1657],[101.9248,1.529,3.1177],[101.9113,1.5361,1.5554],[101.898,1.5468,2.1601],[101.8909,1.5496,1.8887],[101.8852,1.5551,1.3002],[101.8733,1.5615,3.043],[101.8503,1.5795,0.8516],[101.8279,1.5996,3.0077],[101.8068,1.6222,0.0],[101.7663,1.656,5.5181],[101.7422,1.6683,0.0],[101.726,1.672,2.082],[101.7282,1.6609,4.6101],[101.69,1.5158,9.348],[101.6262,1.5174,11.621],[101.6001,1.5245,11.0211],[101.5788,1.54,9.5576],[101.5759,1.536,9.4325],[101.5149,1.4817,14.543],[101.4812,1.4821,14.3476],[101.4755,1.4564,13.8415],[101.4223,1.4583,14.1033],[101.4222,1.4311,11.555],[101.3664,1.4516,19.3946],[101.341,1.4672,15.7141],[101.3173,1.4748,14.0118],[101.2956,1.4735,14.5221],[101.2706,1.4684,18.7737],[101.241,1.4656,24.8305],[101.1789,1.4453,12.4549],[101.1685,1.4416,12.5806],[101.1512,1.4321,9.2548],[101.1369,1.4192,18.5682],[101.1237,1.4171,16.1369],[101.1205,1.4135,16.9544],[101.1136,1.4139,10.8931],[101.1023,1.4039,10.7358],[101.0792,1.3905,8.2259],[101.0748,1.3843,6.3553],[101.0569,1.3736,6.8619],[101.028,1.3606,9.4689],[101.0173,1.3527,11.5579],[101.0114,1.3507,10.5155],[100.9951,1.3515,9.2954],[100.9748,1.3499,7.6866],[100.9713,1.3484,9.8775],[100.9542,1.349,13.128],[100.9475,1.3512,16.0032],[100.9352,1.2802,13.256],[100.9326,1.2485,13.9963],[101.2305,1.0069,7.3104],[101.2367,1.0136,9.141],[101.2509,1.0213,6.3853],[101.2608,1.0342,5.5585],[101.2665,1.0368,5.6937],[101.2745,1.0442,5.1188],[101.278,1.0539,5.5955],[101.2824,1.0604,6.6621],[101.2883,1.057,6.4887],[101.2884,1.0529,5.1185],[101.2909,1.0499,4.5227],[101.2962,1.0511,5.2799],[101.2978,1.0475,4.8165],[101.3054,1.045,4.1109],[101.3101,1.0466,4.8273],[101.3163,1.042,4.043],[101.3216,1.0416,4.1784],[101.3265,1.0356,3.891],[101.3319,1.035,4.3393],[101.3398,1.0282,4.2623],[101.3512,1.0328,3.2743],[101.3536,1.0327,5.0801],[101.3588,1.029,3.8542],[101.3655,1.0322,3.6734],[101.3683,1.027,3.4233],[101.3722,1.0267,2.8602],[101.3764,1.0238,5.3774],[101.3943,1.0205,4.4301],[101.4012,1.0234,3.5186],[101.4088,1.0219,3.3495],[101.4164,1.0228,4.5521],[101.4225,1.014,4.1972],[101.4335,1.0161,2.7584],[101.4399,1.0074,3.9783],[101.45,1.0064,3.7544],[101.456,1.0033,4.1811],[101.458,0.9981,9.8666],[101.4552,0.9865,7.0812],[101.456,0.9849,5.4203],[101.4743,0.9759,7.0683],[101.4777,0.9712,4.9404],[101.4891,0.9663,5.2858],[101.4978,0.9597,5.1562],[101.5183,0.9514,5.7461],[101.5203,0.9487,5.5829],[101.5224,0.9354,4.0856],[101.525,0.9307,6.622],[101.5394,0.9254,4.5579],[101.612,1.0306,42.5247],[101.712,1.1971,39.7781],[101.7405,1.1928,40.3078],[101.8138,1.1689,34.4424],[101.8503,1.1382,39.8995],[101.8636,1.1197,29.3817],[101.8726,1.1025,19.5806],[101.8835,1.0683,17.9207],[101.8842,1.0431,23.15],[101.8784,1.0143,22.4847],[101.8406,0.9469,20.9774],[101.9019,0.9471,12.6824],[101.9094,0.9596,11.451],[101.9147,0.9625,22.9047],[101.9377,0.9589,10.2551],[101.969,0.9605,8.7351],[101.9931,0.9952,10.5564],[102.0113,1.0125,19.1093],[102.0332,1.0383,14.6191],[102.0619,1.077,8.8912],[102.0946,1.1253,5.4214],[102.1072,1.1375,3.6175],[102.1098,1.1474,5.0966],[102.1319,1.1769,6.735],[102.1426,1.1806,6.6876],[102.1463,1.1867,4.0595],[102.162,1.1908,0.0],[102.1597,1.1951,1.7586],[102.1643,1.2113,0.0],[102.1641,1.2318,0.0],[102.1532,1.2615,4.048],[102.1518,1.2691,0.0],[102.1497,1.2685,2.6259],[102.1517,1.2765,0.0],[102.1511,1.2964,2.5297]]],
[[[102.5043,1.3061,2.2486],[102.4986,1.3322,0.6722],[102.4962,1.3668,4.732],[102.4941,1.3768,3.5924],[102.4928,1.3965,3.2287],[102.4955,1.4318,0.9664],[102.4866,1.4405,0.0],[102.4793,1.4413,0.0],[102.489,1.4434,0.0],[102.4967,1.468,12.2259],[102.4863,1.4798,6.2285],[102.4676,1.5113,3.2823],[102.4614,1.5181,4.056],[102.4077,1.5357,0.0],[102.3401,1.5491,0.2348],[102.3358,1.5517,1.212],[102.33,1.5512,0.0],[102.3275,1.5488,0.0],[102.3245,1.5485,1.8673],[102.3087,1.551,0.8516],[102.3002,1.5543,0.0],[102.2814,1.5533,2.6718],[102.2678,1.5587,2.4342],[102.2663,1.561,0.909],[102.2642,1.5604,1.3481],[102.2615,1.5637,1.6049],[102.2407,1.5625,2.7078],[102.2341,1.5635,2.9197],[102.2285,1.5676,0.0],[102.2215,1.5665,1.96],[102.1985,1.5676,1.3687],[102.1778,1.5706,0.7238],[102.0648,1.6047,1.1424],[102.0459,1.6074,0.0],[102.0289,1.6078,0.0],[102.0111,1.6055,0.0],[102.0015,1.5979,0.0],[101.9982,1.5838,1.2456],[102.0012,1.5791,0.0],[102.0068,1.5777,0.3594],[102.0105,1.5733,0.6519],[102.0182,1.5521,5.3115],[102.03,1.5346,0.0],[102.0684,1.4953,0.0],[102.088,1.4797,0.8283],[102.1046,1.469,4.5551],[102.1071,1.4658,1.2409],[102.1271,1.4551,0.0],[102.1454,1.4479,1.8793],[102.1941,1.4354,0.0],[102.2316,1.4318,0.0],[102.2729,1.4354,0.0],[102.2857,1.4329,6.9174],[102.2931,1.4295,1.2721],[102.2982,1.4261,4.0216],[102.3201,1.4029,0.0],[102.3382,1.3892,0.0],[102.3528,1.3706,0.8084],[102.3667,1.3584,0.9744],[102.3824,1.3385,3.1607],[102.3975,1.3236,0.0],[102.4228,1.3076,0.9143],[102.4511,1.2857,1.0653],[102.4787,1.2672,6.9797],[102.4949,1.2534,0.0],[102.5011,1.2505,0.0],[102.5047,1.2511,1.3887],[102.5085,1.2569,0.0],[102.507,1.2886,0.2106],[102.5043,1.3061,2.2486]]],
[[[101.6849,1.7334,0.0],[101.6971,1.7398,0.6846],[101.7019,1.7396,0.3542],[101.7064,1.7415,0.1794],[101.7185,1.757,0.0],[101.7317,1.7626,2.0337],[101.7352,1.7707,0.0],[101.7411,1.7974,4.4662],[101.748,1.8661,8.6486],[101.7532,1.8899,0.0],[101.7549,1.8944,1.2147],[101.7743,1.9177,1.3733],[101.7778,1.9265,0.0],[101.7769,1.9306,0.0],[101.7688,1.9303,4.6987],[101.768,1.9315,0.0],[101.7816,1.9347,0.0],[101.785,1.9372,4.0484],[101.7855,1.9395,0.0],[101.7795,1.9803,0.0],[101.7765,1.9886,1.4532],[101.7397,2.0402,2.5745],[101.7325,2.0449,1.2275],[101.7275,2.0424,0.0],[101.7215,2.0445,0.0],[101.7229,2.0458,2.9354],[101.7154,2.067,0.0],[101.7156,2.0791,0.0],[101.7108,2.0898,1.961],[101.704,2.0968,4.2347],[101.689,2.1068,3.9192],[101.6552,2.1249,0.738],[101.6464,2.1178,3.2636],[101.6347,2.1115,5.391],[101.6209,2.1057,0.0],[101.6116,2.1036,3.5637],[101.6043,2.1,3.1174],[101.5888,2.0889,0.2548],[101.5859,2.0853,6.7438],[101.5832,2.0754,0.0],[101.5857,2.0732,2.9063],[101.5807,2.0739,0.0],[101.5734,2.0689,2.7193],[101.5725,2.0625,1.6217],[101.5704,2.0613,1.6972],[101.5664,2.0529,0.0],[101.5672,2.0515,4.95],[101.5641,2.0477,0.0],[101.5685,2.0396,0.7755],[101.5669,2.0388,1.853],[101.5614,2.045,0.6252],[101.5566,2.0435,1.7482],[101.5562,2.047,1.113],[101.5465,2.0399,2.7053],[101.5283,2.0367,1.6942],[101.5183,2.0287,6.0076],[101.5173,2.03,0.4766],[101.5193,2.0331,2.1133],[101.519,2.036,0.653],[101.5081,2.0494,0.0],[101.4775,2.0643,0.8828],[101.4706,2.0645,0.6118],[101.462,2.0624,0.0],[101.4411,2.0536,0.4465],[101.4325,2.0476,0.4182],[101.4095,2.0257,1.0672],[101.4056,2.02,1.1023],[101.4037,2.0132,1.7469],[101.3978,2.0051,0.0],[101.3968,1.9954,0.2156],[101.3999,1.9849,0.0],[101.3982,1.9735,0.0],[101.3978,1.9498,0.0],[101.393,1.9366,3.0212],[101.3939,1.9314,1.5463],[101.3909,1.921,0.4186],[101.3867,1.913,7.6675],[101.3831,1.9107,2.277],[101.3901,1.891,0.0],[101.4069,1.8626,3.3167],[101.415,1.8431,4.82],[101.4285,1.7794,1.3685],[101.4398,1.7606,3.891],[101.4465,1.7397,1.4802],[101.4534,1.7296,0.0],[101.4533,1.7263,0.0],[101.5432,1.6989,2.0175],[101.5598,1.6951,0.0],[101.5752,1.6948,1.4852],[101.5935,1.6925,2.1152],[101.6092,1.6881,0.0],[101.6157,1.6883,0.0],[101.6358,1.7029,0.7283],[101.6411,1.7106,3.6784],[101.6538,1.7147,0.0],[101.6588,1.7189,2.8797],[101.6632,1.7202,0.0],[101.6724,1.7306,1.2088],[101.6768,1.7332,0.0],[101.68,1.7344,5.6734],[101.6849,1.7334,0.0]]],
[[[101.4306,1.7462,0.0],[101.4323,1.7513,2.6166],[101.4321,1.7544,0.0],[101.43,1.7507,2.8116],[101.4306,1.7462,0.0]]],
[[[101.4091,1.7536,3.1186],[101.4112,1.7511,0.0],[101.412,1.7562,1.1972],[101.4104,1.7557,0.6477],[101.4091,1.7536,3.1186]]],
[[[101.4151,1.7648,2.0571],[101.4175,1.7562,2.6695],[101.4163,1.7509,0.0],[101.4173,1.7444,0.0],[101.4199,1.7533,0.0],[101.4184,1.7643,0.0],[101.4162,1.7666,1.562],[101.4151,1.7648,2.0571]]],
[[[101.5802,2.0771,0.0],[101.5735,2.0737,2.9754],[101.5718,2.0696,0.0],[101.5799,2.0759,0.0],[101.5802,2.0771,0.0]]],
[[[101.3716,1.7869,0.0],[101.3736,1.775,0.0],[101.3786,1.7637,0.0],[101.3805,1.7626,0.0],[101.3815,1.7736,4.9225],[101.3801,1.7841,1.3361],[101.3819,1.7978,4.6371],[101.3801,1.8046,1.028],[101.3771,1.8049,2.7402],[101.3727,1.802,0.0],[101.3716,1.7869,0.0]]],
[[[101.3968,1.7769,1.0668],[101.4037,1.7645,1.8146],[101.4041,1.7579,0.0],[101.4057,1.7569,0.0],[101.4112,1.7659,0.0],[101.4121,1.797,0.0],[101.407,1.8206,0.7838],[101.4046,1.827,0.0],[101.4018,1.8282,2.7333],[101.3981,1.8277,0.0],[101.3938,1.8212,1.862],[101.3933,1.7947,2.1775],[101.3968,1.7769,1.0668]]],
[[[101.4054,1.8432,1.9317],[101.4034,1.8441,0.0],[101.4033,1.8416,2.66],[101.4067,1.8353,0.0],[101.4068,1.8391,0.0],[101.4054,1.8432,1.9317]]],
[[[101.369,1.8756,1.2879],[101.3672,1.8817,1.7976],[101.363,1.8879,2.5155],[101.3538,1.8884,1.0287],[101.3534,1.8842,2.7353],[101.361,1.8747,0.7986],[101.3676,1.8708,1.0454],[101.3698,1.8725,0.0],[101.369,1.8756,1.2879]]],
[[[101.576,2.0778,0.3169],[101.5713,2.075,0.9438],[101.5744,2.0749,0.0],[101.5778,2.0778,0.0],[101.576,2.0778,0.3169]]],
[[[101.5477,2.0919,0.0],[101.5509,2.0892,2.6355],[101.5549,2.0911,0.0],[101.5566,2.0973,3.4632],[101.5557,2.0992,0.0],[101.5497,2.0991,1.0419],[101.5434,2.0937,0.0],[101.5477,2.0919,0.0]]],
[[[101.5745,2.1049,0.0],[101.5736,2.102,0.0],[101.5765,2.1008,0.0],[101.5754,2.1041,0.0],[101.5745,2.1049,0.0]]],
[[[101.6324,2.1108,3.7646],[101.6344,2.1116,5.391],[101.6296,2.1118,2.1747],[101.6274,2.1091,0.0],[101.6284,2.1091,0.0],[101.6324,2.1108,3.7646]]],
[[[101.6355,2.1176,5.5289],[101.6349,2.1149,2.5585],[101.6379,2.115,0.9257],[101.6427,2.1202,0.7414],[101.6413,2.1223,0.0],[101.6391,2.1223,4.5927],[101.6366,2.1208,6.0096],[101.6355,2.1176,5.5289]]],
[[[101.6346,2.1149,2.5585],[101.635,2.1154,2.5585],[101.6351,2.117,4.6078],[101.6366,2.1209,6.0096],[101.6392,2.1226,2.523],[101.6411,2.1227,2.523],[101.6397,2.1245,0.0],[101.6366,2.1251,2.3205],[101.6313,2.123,2.4553],[101.6255,2.1172,0.0],[101.6255,2.1151,0.3092],[101.6346,2.1149,2.5585]]]]}}