{"type":"Feature","properties":{"GID_3":"IDN.28.2.22_1","GID_0":"IDN","country":"Indonesia","GID_1":"IDN.28_1","province":"SulawesiTenggara","NL_NAME_1":"NA","GID_2":"IDN.28.2_1","county":"Bombana","NL_NAME_2":"NA","city":"Tontonunu","VARNAME_3":"NA","NL_NAME_3":"NA","TYPE_3":"Kecamatan","ENGTYPE_3":"Sub-district","CC_3":"7406062","HASC_3":"NA","name":"Tontonunu.city"},
"geometry":{"type": "MultiPolygon","coordinates": [[[[121.6473,-4.7265,34.7397],[121.6473,-4.7397,23.3397],[121.6588,-4.7393,16.2908],[121.6627,-4.7367,27.6931],[121.6713,-4.7373,92.5622],[121.6824,-4.7312,36.4519],[121.6865,-4.7405,64.2847],[121.7024,-4.7308,46.9505],[121.7035,-4.722,33.5357],[121.711,-4.7206,36.7962],[121.7108,-4.7183,30.7197],[121.7077,-4.7173,29.6451],[121.7083,-4.7152,31.6815],[121.7179,-4.714,30.5242],[121.7167,-4.713,30.5242],[121.7173,-4.7096,29.9104],[121.7196,-4.7105,28.2482],[121.721,-4.7071,30.0279],[121.7256,-4.7056,30.9607],[121.7291,-4.6968,32.2697],[121.7287,-4.6926,41.4381],[121.7331,-4.6903,32.3378],[121.7338,-4.6867,31.8019],[121.7257,-4.6806,38.6338],[121.727,-4.6785,37.188],[121.7245,-4.6777,36.3275],[121.7272,-4.6769,35.1005],[121.7275,-4.675,35.2948],[121.7241,-4.6753,35.8238],[121.7255,-4.6718,36.1102],[121.7221,-4.6669,92.8132],[121.7228,-4.661,77.7888],[121.7284,-4.656,74.3609],[121.7322,-4.657,41.6858],[121.7328,-4.654,48.8482],[121.7356,-4.654,40.7561],[121.7367,-4.6512,54.3769],[121.7389,-4.651,42.3458],[121.7382,-4.6491,49.41],[121.7413,-4.6474,42.6086],[121.7415,-4.6452,58.0076],[121.7427,-4.648,51.1363],[121.7464,-4.6496,48.7517],[121.7463,-4.6441,48.8121],[121.7484,-4.6417,48.0944],[121.7505,-4.642,48.1488],[121.7498,-4.6434,49.247],[121.7516,-4.6445,45.4482],[121.7526,-4.6431,45.4482],[121.7551,-4.6449,47.9145],[121.7565,-4.642,49.8956],[121.7554,-4.6403,46.5834],[121.7523,-4.6403,50.8276],[121.7502,-4.6382,55.0524],[121.7502,-4.6343,53.3656],[121.7456,-4.6332,50.833],[121.7477,-4.6311,69.8682],[121.7464,-4.6231,56.6627],[121.7486,-4.6229,57.0976],[121.7486,-4.6208,63.1697],[121.7514,-4.6211,56.8373],[121.7514,-4.6174,55.0646],[121.7556,-4.6208,59.6272],[121.7562,-4.617,52.7329],[121.7607,-4.619,54.6152],[121.7613,-4.6164,57.8968],[121.7631,-4.6179,54.3842],[121.7643,-4.6152,53.0607],[121.7703,-4.6156,51.133],[121.7722,-4.6121,51.7235],[121.7757,-4.6108,53.1434],[121.7737,-4.6083,56.6486],[121.7779,-4.6066,55.189],[121.774,-4.6035,57.927],[121.7712,-4.6031,62.4673],[121.7718,-4.5991,63.1619],[121.769,-4.6001,65.7011],[121.7657,-4.5982,64.2949],[121.7663,-4.5938,66.2736],[121.7728,-4.5973,70.8549],[121.7732,-4.5958,78.0831],[121.77,-4.5929,67.6073],[121.7734,-4.5932,77.5147],[121.7735,-4.5909,76.8676],[121.7783,-4.5883,86.4928],[121.7749,-4.5873,76.5273],[121.7786,-4.5836,83.4504],[121.7777,-4.5812,66.3694],[121.7756,-4.5805,85.7267],[121.7765,-4.5787,76.9602],[121.7745,-4.5719,75.3244],[121.7702,-4.5695,79.6959],[121.7676,-4.5707,79.0126],[121.7677,-4.5683,75.9267],[121.7639,-4.5676,83.3585],[121.7641,-4.5656,90.5058],[121.7618,-4.5657,93.1379],[121.7636,-4.5608,77.776],[121.7561,-4.5585,82.0515],[121.756,-4.5611,85.2792],[121.7539,-4.5615,85.7344],[121.754,-4.5629,85.7344],[121.7509,-4.5628,80.8125],[121.7466,-4.5585,81.0571],[121.7393,-4.5572,83.1864],[121.7389,-4.5585,89.0428],[121.7413,-4.5595,80.9827],[121.7394,-4.5596,84.9018],[121.7385,-4.5634,82.8475],[121.7334,-4.5662,85.9058],[121.7319,-4.566,90.2178],[121.7335,-4.5647,85.9058],[121.7321,-4.5631,88.5755],[121.7298,-4.564,88.1267],[121.7246,-4.561,107.2696],[121.7214,-4.5619,98.7818],[121.72,-4.5652,104.4842],[121.7154,-4.5662,144.0972],[121.7076,-4.5716,223.983],[121.7046,-4.5712,235.5387],[121.699,-4.5785,312.5418],[121.6996,-4.5865,282.5905],[121.6983,-4.5935,338.5345],[121.6817,-4.6137,361.5879],[121.6841,-4.651,364.1931],[121.6871,-4.6532,295.0544],[121.6874,-4.655,302.6975],[121.6856,-4.6559,294.8694],[121.6874,-4.6583,288.4622],[121.6868,-4.661,281.2308],[121.6844,-4.6632,283.13],[121.6809,-4.6634,297.3819],[121.6741,-4.669,381.1841],[121.656,-4.6909,380.6646],[121.65,-4.7008,300.4742],[121.6481,-4.7073,292.2846],[121.6466,-4.7078,292.2846],[121.6473,-4.7265,34.7397]]]]}}