{"type":"Feature","properties":{"GID_3":"IDN.20.8.5_1","GID_0":"IDN","country":"Indonesia","GID_1":"IDN.20_1","province":"NusaTenggaraBarat","NL_NAME_1":"NA","GID_2":"IDN.20.8_1","county":"Mataram","NL_NAME_2":"NA","city":"Sekarbela","VARNAME_3":"NA","NL_NAME_3":"NA","TYPE_3":"Kecamatan","ENGTYPE_3":"Sub-district","CC_3":"5271011","HASC_3":"NA","name":"Sekarbela.city"},
"geometry":{"type": "MultiPolygon","coordinates": [[[[116.0955,-8.6258,9.1295],[116.0988,-8.6149,9.3545],[116.103,-8.6162,11.2313],[116.104,-8.6134,12.3462],[116.1035,-8.6078,10.0935],[116.1005,-8.6078,9.9536],[116.1002,-8.609,9.3064],[116.095,-8.6059,8.8115],[116.0966,-8.5999,9.6961],[116.0932,-8.5944,11.4883],[116.095,-8.5918,11.7558],[116.1008,-8.5948,12.0788],[116.1001,-8.5885,15.7536],[116.0915,-8.5892,12.6439],[116.0865,-8.5835,6.8839],[116.0852,-8.5887,8.213],[116.0769,-8.5897,4.5224],[116.0725,-8.5875,5.3762],[116.074,-8.6253,0.0],[116.0747,-8.623,2.7956],[116.0776,-8.6227,5.3437],[116.0851,-8.6264,6.1858],[116.0955,-8.6258,9.1295]]]]}}