{"type":"Feature","properties":{"GID_3":"IDN.11.7.9_1","GID_0":"IDN","country":"Indonesia","GID_1":"IDN.11_1","province":"JawaTimur","NL_NAME_1":"NA","GID_2":"IDN.11.7_1","county":"Gresik","NL_NAME_2":"NA","city":"Kebomas","VARNAME_3":"NA","NL_NAME_3":"NA","TYPE_3":"Kecamatan","ENGTYPE_3":"Sub-district","CC_3":"3525090","HASC_3":"NA","name":"Kebomas.city"},
"geometry":{"type": "MultiPolygon","coordinates": [[[[112.6583,-7.1873,22.8513],[112.645,-7.177,46.7008],[112.6336,-7.174,61.9157],[112.6284,-7.1624,30.7992],[112.6276,-7.1504,12.7162],[112.6248,-7.1482,18.1676],[112.6208,-7.1488,17.9013],[112.6141,-7.1542,35.8311],[112.6094,-7.156,31.6981],[112.6026,-7.1564,10.9622],[112.5924,-7.1519,2.795],[112.5886,-7.1534,1.0],[112.5834,-7.1593,1.0],[112.5786,-7.1575,1.0],[112.575,-7.1579,1.0],[112.5758,-7.1634,1.0671],[112.5912,-7.1699,2.4707],[112.5937,-7.1724,3.1439],[112.6134,-7.209,1.3208],[112.6348,-7.1996,6.9823],[112.6592,-7.1964,3.2254],[112.6634,-7.1915,3.2628],[112.6583,-7.1873,22.8513]]]]}}