{"type":"Feature","properties":{"GID_3":"IDN.10.10.7_1","GID_0":"IDN","country":"Indonesia","GID_1":"IDN.10_1","province":"JawaTengah","NL_NAME_1":"NA","GID_2":"IDN.10.10_1","county":"Jepara","NL_NAME_2":"NA","city":"Kedung","VARNAME_3":"NA","NL_NAME_3":"NA","TYPE_3":"Kecamatan","ENGTYPE_3":"Sub-district","CC_3":"3320010","HASC_3":"NA","name":"Kedung.city"},
"geometry":{"type": "MultiPolygon","coordinates": [[[[110.6097,-6.7198,0.5],[110.6111,-6.7168,0.8367],[110.6153,-6.7162,0.7165],[110.6207,-6.7116,0.6468],[110.6212,-6.7086,2.2315],[110.6181,-6.7061,0.25],[110.624,-6.7089,0.6293],[110.6351,-6.7103,1.0432],[110.6385,-6.7131,0.7843],[110.6452,-6.713,0.5],[110.6496,-6.7164,0.5],[110.6561,-6.7153,1.7794],[110.6677,-6.7186,2.1045],[110.6706,-6.7162,1.416],[110.6733,-6.7173,3.5624],[110.6776,-6.7109,1.5699],[110.6746,-6.7071,1.4029],[110.6777,-6.698,2.1013],[110.67529999999999,-6.6956,2.0052],[110.6794,-6.6876,2.3475],[110.6787,-6.6858,5.3334],[110.6813,-6.6792,7.451],[110.6799,-6.6779,10.332],[110.6804,-6.6734,21.0474],[110.6878,-6.6729,30.5514],[110.6906,-6.6692,39.2132],[110.6897,-6.6664,35.4409],[110.6918,-6.6646,23.816],[110.6905,-6.6618,19.9665],[110.6938,-6.662,22.0892],[110.6888,-6.6539,48.7184],[110.6911,-6.6447,39.7081],[110.6936,-6.6411,60.5093],[110.6793,-6.6408,40.0478],[110.6767,-6.6397,39.9433],[110.6773,-6.6384,34.5069],[110.675,-6.6359,31.5265],[110.6692,-6.6344,20.9705],[110.6641,-6.6363,19.4303],[110.6675,-6.6421,23.6945],[110.6647,-6.6444,17.9588],[110.6571,-6.6441,1.4038],[110.6568,-6.6471,2.0665],[110.6509,-6.6459,1.5011],[110.6494,-6.6433,1.4395],[110.6455,-6.6444,2.3255],[110.6458,-6.6527,0.0],[110.6368,-6.6717,0.3577],[110.6285,-6.6868,0.2637],[110.617,-6.6984,0.0],[110.6146,-6.7029,0.0],[110.6153,-6.7068,0.3023],[110.6102,-6.7065,0.0],[110.5899,-6.7238,0.0],[110.5985,-6.7267,0.8898],[110.6007,-6.7244,0.9197],[110.6047,-6.7246,0.8811],[110.606,-6.7206,1.3771],[110.6097,-6.7198,0.5]]]]}}