{"type":"Feature","properties":{"GID_3":"IDN.34.5.18_1","GID_0":"IDN","country":"Indonesia","GID_1":"IDN.34_1","province":"KalimantanTimur","NL_NAME_1":"NA","GID_2":"IDN.34.5_1","county":"KutaiBarat","NL_NAME_2":"NA","city":"Penyinggahan","VARNAME_3":"NA","NL_NAME_3":"NA","TYPE_3":"Kecamatan","ENGTYPE_3":"Sub-district","CC_3":"6402030","HASC_3":"NA","name":"Penyinggahan.city"},
"geometry":{"type": "MultiPolygon","coordinates": [[[[116.2607,-0.4623,4.651],[116.2818,-0.4128,1.6004],[116.2931,-0.3908,5.794],[116.3038,-0.3743,0.5],[116.32,-0.2998,1.0],[116.2548,-0.2899,15.9238],[116.2424,-0.2845,12.1259],[116.2243,-0.2736,16.2421],[116.2153,-0.2917,15.17],[116.2042,-0.3213,8.7212],[116.1783,-0.3584,10.3869],[116.1635,-0.3868,4.4737],[116.1348,-0.4054,2.8608],[116.14,-0.4164,0.5],[116.1647,-0.4325,0.5],[116.1894,-0.446,0.5],[116.2116,-0.467,3.1279],[116.2227,-0.472,2.9926],[116.2215,-0.4831,3.0064],[116.2301,-0.4819,3.1941],[116.245,-0.4942,6.3917],[116.2532,-0.4963,6.1228],[116.2506,-0.4859,5.6914],[116.2607,-0.4623,4.651]]]]}}