{"type":"Feature","properties":{"GID_3":"IDN.10.3.4_1","GID_0":"IDN","country":"Indonesia","GID_1":"IDN.10_1","province":"JawaTengah","NL_NAME_1":"NA","GID_2":"IDN.10.3_1","county":"Batang","NL_NAME_2":"NA","city":"Bawang","VARNAME_3":"NA","NL_NAME_3":"NA","TYPE_3":"Kecamatan","ENGTYPE_3":"Sub-district","CC_3":"3325050","HASC_3":"NA","name":"Bawang.city"},
"geometry":{"type": "MultiPolygon","coordinates": [[[[109.9161,-7.1946,2253.5947],[109.9153,-7.1956,2160.8945],[109.9183,-7.1947,2259.5518],[109.9181,-7.1905,2389.4448],[109.9227,-7.1872,2526.6841],[109.9244,-7.1883,2511.4209],[109.9227,-7.1868,2526.6841],[109.9302,-7.18,1925.597],[109.9321,-7.1717,1525.2853],[109.9398,-7.1576,1176.7769],[109.9388,-7.1477,1013.6902],[109.9399,-7.1417,1019.2374],[109.9469,-7.132,860.6315],[109.9491,-7.1321,865.6887],[109.9491,-7.1242,791.5896],[109.9537,-7.12,761.3461],[109.9554,-7.1143,730.5438],[109.9593,-7.1105,725.4296],[109.9597,-7.1059,681.3669],[109.962,-7.1034,675.7004],[109.9613,-7.1013,673.5896],[109.9636,-7.0997,663.4464],[109.9633,-7.0948,630.0703],[109.9584,-7.0959,768.681],[109.953,-7.0939,732.3691],[109.9519,-7.0877,671.5215],[109.9488,-7.0879,602.9349],[109.9489,-7.0843,553.5856],[109.9454,-7.0819,559.6306],[109.9466,-7.0806,547.632],[109.9452,-7.0798,544.5864],[109.9472,-7.0783,514.997],[109.9434,-7.0778,533.8134],[109.9371,-7.0731,656.6346],[109.9374,-7.0691,641.4507],[109.9358,-7.0663,614.6744],[109.9328,-7.0682,639.7932],[109.9293,-7.0658,572.8777],[109.9263,-7.069,617.0607],[109.921,-7.0665,555.7314],[109.9204,-7.0682,577.7897],[109.9185,-7.0675,597.5831],[109.9196,-7.0707,611.5685],[109.9178,-7.0698,584.5278],[109.917,-7.0719,609.197],[109.9148,-7.0713,659.598],[109.9149,-7.0729,659.598],[109.9119,-7.0739,653.8089],[109.913,-7.0752,648.2454],[109.9071,-7.08,694.5085],[109.9074,-7.0814,675.7648],[109.9024,-7.0848,711.3024],[109.9017,-7.0909,729.4182],[109.8976,-7.0912,745.9252],[109.8947,-7.0958,750.9796],[109.8867,-7.1011,785.863],[109.8849,-7.1082,843.8463],[109.8868,-7.1126,872.2062],[109.8853,-7.1154,927.2375],[109.8854,-7.1213,1065.8075],[109.8803,-7.1279,1171.3379],[109.8846,-7.1328,1251.9725],[109.8933,-7.1361,1158.9321],[109.8954,-7.1402,1123.3287],[109.889,-7.1503,1255.0698],[109.8888,-7.1543,1316.4133],[109.8916,-7.155,1328.6172],[109.8901,-7.1641,1433.952],[109.8886,-7.1652,1544.9736],[109.8902,-7.1682,1468.4871],[109.8874,-7.1726,1519.6641],[109.8871,-7.1799,1863.7562],[109.8925,-7.1832,1859.9275],[109.899,-7.1901,1976.0237],[109.901,-7.1946,2057.3533],[109.9058,-7.1964,2118.7856],[109.9116,-7.1954,2139.6189],[109.9173,-7.1911,2358.8523],[109.9177,-7.1932,2285.29],[109.9161,-7.1946,2253.5947]]]]}}