{"type":"Feature","properties":{"GID_3":"IDN.26.24.12_1","GID_0":"IDN","country":"Indonesia","GID_1":"IDN.26_1","province":"SulawesiSelatan","NL_NAME_1":"NA","GID_2":"IDN.26.24_1","county":"Wajo","NL_NAME_2":"NA","city":"SabbangParu","VARNAME_3":"NA","NL_NAME_3":"NA","TYPE_3":"Kecamatan","ENGTYPE_3":"Sub-district","CC_3":"7313010","HASC_3":"NA","name":"Sabbang_Paru.city"},
"geometry":{"type": "MultiPolygon","coordinates": [[[[119.9678,-4.2719,14.5266],[119.9733,-4.2706,15.3254],[119.9779,-4.2669,16.9348],[119.9934,-4.2668,13.2424],[120.005,-4.2647,25.6603],[120.0082,-4.2687,28.4416],[120.0107,-4.2687,44.8613],[120.0384,-4.2617,92.6968],[120.0292,-4.2445,71.9795],[120.0355,-4.2377,91.6175],[120.0349,-4.1975,71.2098],[120.0378,-4.1653,6.3849],[120.0353,-4.167,34.7718],[120.0317,-4.1651,21.3312],[120.0229,-4.1526,8.825],[120.0174,-4.1504,9.0714],[120.0182,-4.1483,10.1969],[120.0146,-4.148,9.5554],[120.013,-4.1422,7.3369],[120.0223,-4.1415,10.3496],[120.0232,-4.1393,9.4641],[120.0064,-4.1362,6.0646],[119.998,-4.1379,5.6794],[119.9959,-4.1406,5.9772],[119.9926,-4.1397,5.9009],[119.9952,-4.1417,6.1518],[119.9953,-4.1448,6.0415],[119.9883,-4.1473,5.714],[119.9831,-4.1526,5.6187],[119.989,-4.1587,5.8739],[119.9933,-4.1607,6.5009],[119.9936,-4.1627,6.3171],[119.9902,-4.1608,5.9794],[119.9879,-4.1639,5.7453],[119.9861,-4.1603,5.8454],[119.9832,-4.1607,5.4164],[119.9808,-4.1568,5.2345],[119.9803,-4.1608,5.4174],[119.9828,-4.1629,5.4931],[119.9832,-4.1679,5.4423],[119.9778,-4.1718,5.6027],[119.9784,-4.1773,5.5218],[119.9752,-4.1788,5.5673],[119.9723,-4.1777,5.6633],[119.9731,-4.1823,5.8978],[119.9677,-4.1753,5.8498],[119.968,-4.1726,5.4488],[119.965,-4.1797,5.4573],[119.9598,-4.1818,5.5053],[119.9574,-4.181,5.5684],[119.9526,-4.175,5.4082],[119.9498,-4.1732,5.3091],[119.947,-4.1742,5.8649],[119.9464,-4.172,5.1138],[119.9455,-4.1725,5.1138],[119.9449,-4.1779,6.6426],[119.9485,-4.1816,6.4022],[119.9492,-4.1847,6.8338],[119.946,-4.1889,6.9104],[119.9466,-4.1931,6.8752],[119.9432,-4.2016,7.4332],[119.9391,-4.2029,7.901],[119.9356,-4.2064,8.6496],[119.9384,-4.2203,8.2923],[119.9382,-4.2279,8.8871],[119.9365,-4.232,9.7894],[119.9374,-4.2373,10.4422],[119.9346,-4.2426,12.8766],[119.9345,-4.2505,10.903],[119.9381,-4.2558,10.978],[119.9577,-4.2585,18.4634],[119.9572,-4.2629,21.4186],[119.9607,-4.2722,17.0475],[119.964,-4.2736,17.9388],[119.9678,-4.2719,14.5266]]]]}}