{"type":"Feature","properties":{"GID_3":"IDN.9.4.10_1","GID_0":"IDN","country":"Indonesia","GID_1":"IDN.9_1","province":"JawaBarat","NL_NAME_1":"NA","GID_2":"IDN.9.4_1","county":"Bekasi","NL_NAME_2":"NA","city":"CikarangUtara","VARNAME_3":"NA","NL_NAME_3":"NA","TYPE_3":"Kecamatan","ENGTYPE_3":"Sub-district","CC_3":"3216061","HASC_3":"NA","name":"Cikarang_Utara.city"},
"geometry":{"type": "MultiPolygon","coordinates": [[[[107.1169,-6.3056,30.6185],[107.1204,-6.3071,33.131],[107.125,-6.3062,32.8467],[107.1303,-6.3088,35.0642],[107.1414,-6.3071,30.5889],[107.1428,-6.303,30.0769],[107.1405,-6.2979,24.7983],[107.142,-6.2969,25.4493],[107.1407,-6.2958,25.6784],[107.1429,-6.2916,26.049],[107.1468,-6.297,29.7798],[107.1489,-6.2975,27.0442],[107.149,-6.3001,26.5139],[107.1607,-6.3,23.721],[107.1608,-6.304,22.2534],[107.1654,-6.304,21.4887],[107.1696,-6.3068,24.0477],[107.1706,-6.3046,22.2888],[107.1682,-6.3027,22.2951],[107.1677,-6.2995,21.0253],[107.1711,-6.2954,21.7926],[107.1724,-6.288,20.4173],[107.1776,-6.289,18.6662],[107.1789,-6.2849,17.8266],[107.1823,-6.2821,16.3208],[107.1847,-6.2767,16.9489],[107.1836,-6.2754,16.6388],[107.1853,-6.274,15.9688],[107.1856,-6.2689,14.5733],[107.1963,-6.2654,12.654],[107.1982,-6.2489,10.4418],[107.1773,-6.2434,10.021],[107.1755,-6.2492,10.462],[107.1647,-6.2451,12.8545],[107.1586,-6.2447,17.2646],[107.1568,-6.2467,15.6502],[107.1538,-6.2446,16.8409],[107.149,-6.2485,17.4937],[107.1475,-6.247,17.8569],[107.1433,-6.2519,17.9807],[107.1418,-6.2512,17.7312],[107.1426,-6.2536,17.4305],[107.1409,-6.2566,19.1811],[107.1426,-6.2568,18.4648],[107.1421,-6.2593,18.8282],[107.1371,-6.2653,20.1662],[107.137,-6.268,20.9316],[107.1329,-6.268,19.295],[107.1329,-6.2693,19.295],[107.1299,-6.2697,20.5525],[107.1282,-6.2732,22.6403],[107.1248,-6.2731,21.8942],[107.1229,-6.276,22.4061],[107.1195,-6.2746,25.1202],[107.1164,-6.2777,24.504],[107.119,-6.2776,28.3086],[107.1178,-6.2797,34.0726],[107.1197,-6.2849,40.09],[107.1193,-6.2901,25.1881],[107.1162,-6.2934,28.6717],[107.117,-6.2969,26.2764],[107.1143,-6.2983,25.01],[107.1151,-6.3006,26.079],[107.1112,-6.3036,25.4624],[107.1169,-6.3056,30.6185]]]]}}