{"type":"Feature","properties":{"GID_3":"IDN.9.20.10_1","GID_0":"IDN","country":"Indonesia","GID_1":"IDN.9_1","province":"JawaBarat","NL_NAME_1":"NA","GID_2":"IDN.9.20_1","county":"Kuningan","NL_NAME_2":"NA","city":"Ciniru","VARNAME_3":"NA","NL_NAME_3":"NA","TYPE_3":"Kecamatan","ENGTYPE_3":"Sub-district","CC_3":"3208030","HASC_3":"NA","name":"Ciniru.city"},
"geometry":{"type": "MultiPolygon","coordinates": [[[[108.5376,-7.0797,339.8837],[108.5381,-7.078,336.3591],[108.5396,-7.0789,300.865],[108.5433,-7.0769,267.1689],[108.5467,-7.0771,259.0798],[108.5476,-7.0732,241.0064],[108.5505,-7.0724,230.0532],[108.5508,-7.0699,227.3461],[108.5532,-7.0699,240.1058],[108.5527,-7.0673,210.9559],[108.5568,-7.0667,196.6328],[108.5566,-7.0645,196.5988],[108.5473,-7.0604,367.2957],[108.5408,-7.0532,407.5376],[108.5382,-7.0466,488.4348],[108.5408,-7.0423,389.8454],[108.5398,-7.0413,389.8454],[108.5257,-7.041,203.4255],[108.5204,-7.0447,258.0757],[108.5004,-7.0376,260.8832],[108.5008,-7.0343,267.7628],[108.4987,-7.0304,251.2093],[108.5034,-7.0288,256.3981],[108.4998,-7.0206,282.5809],[108.5042,-7.0075,491.7129],[108.5,-7.0104,486.3269],[108.4822,-7.0152,530.6251],[108.4737,-7.0143,751.9912],[108.4677,-7.0182,723.8374],[108.4682,-7.0215,766.2925],[108.4652,-7.029,626.1944],[108.4659,-7.0444,448.1289],[108.4724,-7.0516,313.8363],[108.4756,-7.0529,297.7951],[108.4816,-7.0505,270.369],[108.4857,-7.052,255.7745],[108.4855,-7.0561,276.0595],[108.4873,-7.0561,276.0595],[108.4889,-7.0603,268.7856],[108.4971,-7.0672,373.6198],[108.5075,-7.0657,318.9731],[108.5083,-7.0683,350.654],[108.5044,-7.0722,398.4101],[108.4982,-7.0695,461.4327],[108.494,-7.0716,532.6484],[108.4864,-7.0777,526.7088],[108.4819,-7.0858,667.3558],[108.4767,-7.0862,670.2332],[108.4762,-7.09,878.3618],[108.4915,-7.0956,947.1008],[108.4979,-7.0947,886.8711],[108.514,-7.0979,764.3058],[108.5201,-7.0961,802.394],[108.5209,-7.0905,637.0862],[108.5263,-7.0906,599.2889],[108.5344,-7.0865,461.6243],[108.5376,-7.0797,339.8837]]]]}}