{"type":"Feature","properties":{"GID_3":"IDN.23.18.8_1","GID_0":"IDN","country":"Indonesia","GID_1":"IDN.23_1","province":"Papua","NL_NAME_1":"NA","GID_2":"IDN.23.18_1","county":"Nabire","NL_NAME_2":"NA","city":"TelukKimi","VARNAME_3":"NA","NL_NAME_3":"NA","TYPE_3":"Distrik","ENGTYPE_3":"District","CC_3":"9404081","HASC_3":"NA","name":"Teluk_Kimi.city"},
"geometry":{"type": "MultiPolygon","coordinates": [[[[135.5981,-3.3609,285.3448],[135.6103,-3.3775,374.3071],[135.6224,-3.3669,231.9861],[135.627,-3.3586,299.3635],[135.6387,-3.3465,246.17],[135.6396,-3.3434,238.288],[135.6554,-3.3237,334.2587],[135.6644,-3.3155,548.2471],[135.6964,-3.2782,279.7753],[135.7012,-3.2784,234.1882],[135.7012,-3.2756,212.5964],[135.7035,-3.2739,193.1611],[135.6965,-3.2688,367.4578],[135.6852,-3.2419,366.128],[135.6757,-3.2268,451.0787],[135.6713,-3.2222,214.8224],[135.6566,-3.2158,53.5118],[135.6459,-3.2042,112.7094],[135.6421,-3.2028,101.3962],[135.6369,-3.1938,150.5029],[135.6194,-3.1789,10.3377],[135.6117,-3.1802,8.9187],[135.6018,-3.193,10.6638],[135.5963,-3.1944,3.7872],[135.5937,-3.1997,6.2183],[135.5898,-3.2032,0.0],[135.5857,-3.2126,0.0],[135.5865,-3.2133,7.1232],[135.584,-3.2143,4.4182],[135.5809,-3.2241,0.0],[135.5806,-3.2281,0.0],[135.5827,-3.2302,0.0],[135.5836,-3.2356,0.0],[135.5819,-3.2378,0.5936],[135.5762,-3.2388,2.116],[135.5744,-3.234,1.1767],[135.5727,-3.2342,0.0],[135.5694,-3.2407,6.7274],[135.5611,-3.2499,6.7248],[135.561,-3.2525,0.0],[135.5573,-3.2558,3.9926],[135.5541,-3.2628,0.0],[135.561,-3.2656,3.0063],[135.5656,-3.2648,3.3354],[135.5661,-3.2695,0.0],[135.5604,-3.2839,0.0],[135.5615,-3.2877,7.2518],[135.5593,-3.298,8.2278],[135.5538,-3.3046,6.4325],[135.5586,-3.3078,13.6046],[135.5658,-3.3086,36.4313],[135.571,-3.3147,268.6936],[135.5837,-3.3332,409.2208],[135.5927,-3.3548,377.4646],[135.5981,-3.3609,285.3448]]]]}}