{"type":"Feature","properties":{"GID_3":"IDN.23.7.14_1","GID_0":"IDN","country":"Indonesia","GID_1":"IDN.23_1","province":"Papua","NL_NAME_1":"NA","GID_2":"IDN.23.7_1","county":"Jayapura","NL_NAME_2":"NA","city":"SentaniTimur","VARNAME_3":"NA","NL_NAME_3":"NA","TYPE_3":"Distrik","ENGTYPE_3":"District","CC_3":"9403240","HASC_3":"NA","name":"Sentani_Timur.city"},
"geometry":{"type": "MultiPolygon","coordinates": [[[[140.5612,-2.6588,113.7734],[140.555,-2.7126,202.0943],[140.5687,-2.7079,179.7118],[140.5764,-2.7084,152.3495],[140.5812,-2.7124,143.262],[140.5843,-2.7122,111.4202],[140.5898,-2.7087,82.8845],[140.5929,-2.7037,79.9265],[140.596,-2.7044,80.5687],[140.5949,-2.7034,80.5687],[140.5971,-2.7011,102.7685],[140.5991,-2.7036,87.7971],[140.6039,-2.7051,86.9469],[140.6012,-2.7106,86.97],[140.6028,-2.7111,83.8755],[140.6049,-2.7087,84.882],[140.6086,-2.7107,82.8886],[140.608,-2.7129,83.5933],[140.61,-2.7147,118.6078],[140.6073,-2.714,91.3154],[140.6081,-2.7167,92.9154],[140.6126,-2.7169,96.6074],[140.6149,-2.7149,83.4861],[140.6198,-2.72,87.0746],[140.6236,-2.7206,83.5499],[140.6241,-2.7169,69.6895],[140.6259,-2.7156,69.2052],[140.6322,-2.7161,70.9819],[140.6313,-2.7114,76.4287],[140.6266,-2.7042,77.5897],[140.6211,-2.6149,270.3819],[140.6141,-2.6125,72.0],[140.6173,-2.5998,72.0],[140.6226,-2.594,150.1121],[140.6236,-2.5853,255.4863],[140.6263,-2.5833,246.9989],[140.6255,-2.5668,340.0128],[140.622,-2.5668,348.2311],[140.6222,-2.5585,583.76],[140.6249,-2.5316,802.7316],[140.6305,-2.5202,1029.594],[140.5737,-2.5119,1100.207],[140.5645,-2.5213,743.1999],[140.5619,-2.5311,554.8408],[140.5585,-2.537,496.0705],[140.5549,-2.5396,456.9909],[140.5531,-2.5469,320.6533],[140.5542,-2.5535,241.1727],[140.5523,-2.5572,233.8563],[140.5495,-2.5572,279.7849],[140.5365,-2.5744,85.6523],[140.5392,-2.5764,80.2117],[140.5393,-2.5909,72.0],[140.5707,-2.6131,72.0],[140.5612,-2.6588,113.7734]]]]}}