{"type":"Feature","properties":{"GID_3":"IDN.1.3.14_1","GID_0":"IDN","country":"Indonesia","GID_1":"IDN.1_1","province":"Aceh","NL_NAME_1":"NA","GID_2":"IDN.1.3_1","county":"AcehBesar","NL_NAME_2":"NA","city":"Leupung","VARNAME_3":"NA","NL_NAME_3":"NA","TYPE_3":"Kecamatan","ENGTYPE_3":"Sub-district","CC_3":"1108021","HASC_3":"NA","name":"Leupung.city"},
"geometry":{"type": "MultiPolygon","coordinates": [[[[95.38,5.3108,931.5859],[95.378,5.3133,860.0838],[95.3781,5.3201,925.126],[95.3654,5.3329,1002.145],[95.3688,5.3377,939.5518],[95.3691,5.3409,968.881],[95.3648,5.3459,942.125],[95.3536,5.3503,961.5026],[95.3442,5.3628,1346.9375],[95.3412,5.3794,1531.5952],[95.3368,5.3866,1474.1007],[95.3303,5.3905,1321.1656],[95.3281,5.404,1116.712],[95.3039,5.4071,790.1143],[95.2915,5.4112,138.8107],[95.2642,5.4263,56.5092],[95.2504,5.4361,146.0414],[95.2359,5.4371,0.0],[95.2353,5.4351,1.5456],[95.2298,5.4328,29.995],[95.2334,5.4297,52.5535],[95.2327,5.4275,0.0],[95.2345,5.4254,0.0],[95.2351,5.4282,45.5283],[95.2392,5.4286,0.0],[95.2469,5.4159,4.886],[95.2508,5.4021,4.2039],[95.2524,5.3841,3.1417],[95.2513,5.3699,0.0],[95.2487,5.3659,0.0],[95.2464,5.368,0.0],[95.2453,5.367,33.2271],[95.2416,5.3556,0.0],[95.2403,5.3478,1.5918],[95.2414,5.339,0.0],[95.2341,5.3448,12.4442],[95.2344,5.3548,0.0],[95.2321,5.3564,1.1263],[95.2306,5.3619,0.1784],[95.2298,5.3488,68.5614],[95.2334,5.3327,101.8023],[95.237,5.3342,86.8173],[95.2485,5.324,220.5435],[95.2568,5.3245,275.4064],[95.2623,5.3191,363.056],[95.2716,5.3147,449.5485],[95.2773,5.3093,552.1702],[95.2802,5.3143,544.5854],[95.2902,5.3179,636.379],[95.3059,5.3124,728.2584],[95.3055,5.3085,805.8351],[95.3005,5.3055,790.9796],[95.2979,5.302,694.405],[95.2988,5.3008,694.405],[95.3147,5.2894,786.6833],[95.3272,5.2846,1157.1948],[95.3353,5.2791,829.764],[95.3428,5.2771,693.8312],[95.3497,5.2709,912.9578],[95.3569,5.2717,1458.3291],[95.3597,5.2705,1473.0459],[95.3688,5.2639,1427.9014],[95.3701,5.2536,1532.3757],[95.3749,5.2504,1526.7214],[95.3831,5.2569,1477.5481],[95.3824,5.266,1439.5763],[95.3933,5.2826,1292.0828],[95.3862,5.2932,1231.0355],[95.3856,5.2956,1268.4343],[95.3879,5.3023,1091.4401],[95.38,5.3108,931.5859]]]]}}