{"type":"Feature","properties":{"GID_3":"IDN.11.35.23_1","GID_0":"IDN","country":"Indonesia","GID_1":"IDN.11_1","province":"JawaTimur","NL_NAME_1":"NA","GID_2":"IDN.11.35_1","county":"Surabaya","NL_NAME_2":"NA","city":"SukoManunggal","VARNAME_3":"NA","NL_NAME_3":"NA","TYPE_3":"Kecamatan","ENGTYPE_3":"Sub-district","CC_3":"3578160","HASC_3":"NA","name":"Suko_Manunggal.city"},
"geometry":{"type": "MultiPolygon","coordinates": [[[[112.7012,-7.2841,22.5854],[112.6995,-7.2821,21.5008],[112.7049,-7.2772,16.8645],[112.708,-7.2791,18.5552],[112.7088,-7.273,14.9214],[112.7107,-7.2731,14.8949],[112.7127,-7.2671,6.1906],[112.7143,-7.2561,4.7719],[112.711,-7.2522,4.8151],[112.7022,-7.255,5.4773],[112.7001,-7.2504,3.5193],[112.7014,-7.2489,4.6811],[112.6983,-7.2495,4.455],[112.6979,-7.2514,2.2431],[112.6952,-7.2479,6.3775],[112.6956,-7.2495,5.2145],[112.6923,-7.2516,3.8786],[112.6879,-7.2622,7.7798],[112.6875,-7.2664,10.9534],[112.686,-7.2667,9.552],[112.6845,-7.275,22.0452],[112.6871,-7.2791,24.3368],[112.6899,-7.2778,19.0423],[112.6954,-7.2785,15.7622],[112.6972,-7.2807,18.7159],[112.6944,-7.2843,24.7929],[112.6967,-7.2855,24.3686],[112.6949,-7.2864,26.3996],[112.6941,-7.2897,27.3364],[112.7034,-7.2931,27.8078],[112.7056,-7.2895,22.8249],[112.7069,-7.2897,23.6286],[112.7081,-7.2838,21.0063],[112.7044,-7.2828,15.0486],[112.7012,-7.2841,22.5854]]]]}}