{"type":"Feature","properties":{"GID_3":"IDN.10.33.19_1","GID_0":"IDN","country":"Indonesia","GID_1":"IDN.10_1","province":"JawaTengah","NL_NAME_1":"NA","GID_2":"IDN.10.33_1","county":"Temanggung","NL_NAME_2":"NA","city":"Tretep","VARNAME_3":"NA","NL_NAME_3":"NA","TYPE_3":"Kecamatan","ENGTYPE_3":"Sub-district","CC_3":"3323130","HASC_3":"NA","name":"Tretep.city"},
"geometry":{"type": "MultiPolygon","coordinates": [[[[110.0026,-7.1976,1212.1301],[110.0078,-7.1967,1173.0431],[110.0117,-7.1919,1145.0035],[110.0159,-7.1915,1026.2595],[110.018,-7.187,1119.6558],[110.0228,-7.1843,1102.7654],[110.0234,-7.1803,1039.8811],[110.0349,-7.1749,936.7532],[110.0335,-7.1711,1003.6932],[110.0287,-7.1707,1074.2103],[110.0323,-7.1628,1013.7346],[110.031,-7.1556,871.81],[110.0346,-7.1524,825.547],[110.0343,-7.1499,802.5469],[110.0371,-7.1492,793.5679],[110.0413,-7.1439,753.3123],[110.0443,-7.1424,740.7219],[110.0441,-7.1411,762.4193],[110.048,-7.142,804.8239],[110.0492,-7.1408,788.4014],[110.0528,-7.1327,734.3336],[110.0511,-7.1277,636.2833],[110.0487,-7.126,657.6726],[110.0488,-7.1282,689.0324],[110.0471,-7.1279,643.914],[110.0459,-7.1303,686.5051],[110.044,-7.1296,680.0593],[110.0431,-7.1306,680.0593],[110.0443,-7.1315,697.9694],[110.041,-7.1328,709.0769],[110.041,-7.1347,760.6385],[110.0381,-7.1348,747.5945],[110.0366,-7.1388,755.4711],[110.0344,-7.1388,784.174],[110.0336,-7.1408,761.4144],[110.0322,-7.1392,801.9792],[110.0295,-7.1442,807.4695],[110.0265,-7.1453,825.0793],[110.0274,-7.1468,845.4349],[110.0232,-7.1492,868.5466],[110.0219,-7.148,875.8633],[110.0196,-7.1502,915.0908],[110.0179,-7.1491,901.3974],[110.0177,-7.152,943.5511],[110.0162,-7.1509,918.8666],[110.0138,-7.1533,940.8115],[110.0123,-7.1528,928.6989],[110.0125,-7.1547,989.0817],[110.01,-7.1548,980.791],[110.01,-7.1577,986.5112],[110.0073,-7.159,1003.7183],[110.0074,-7.1604,988.9293],[109.9989,-7.1632,1030.4301],[109.9973,-7.1666,1067.2593],[109.9928,-7.169,1139.4891],[109.9936,-7.1719,1133.2428],[109.9861,-7.1732,1155.7759],[109.9816,-7.18,1242.0743],[109.9639,-7.1914,1513.8459],[109.9422,-7.1981,2436.8987],[109.9478,-7.2006,2246.3872],[109.9671,-7.2246,1554.0961],[109.9701,-7.2197,1525.6375],[109.9696,-7.2168,1533.9033],[109.9775,-7.2118,1447.1893],[109.9844,-7.21,1368.9608],[109.9874,-7.2103,1346.083],[109.9888,-7.2124,1264.2117],[109.9979,-7.2078,1021.2823],[110.0031,-7.2084,968.5302],[110.0026,-7.1976,1212.1301]]]]}}