{"type":"Feature","properties":{"GID_3":"IDN.1.16.5_1","GID_0":"IDN","country":"Indonesia","GID_1":"IDN.1_1","province":"Aceh","NL_NAME_1":"NA","GID_2":"IDN.1.16_1","county":"Langsa","NL_NAME_2":"NA","city":"LangsaTimur","VARNAME_3":"NA","NL_NAME_3":"NA","TYPE_3":"Kecamatan","ENGTYPE_3":"Sub-district","CC_3":"1173010","HASC_3":"NA","name":"Langsa_Timur.city"},
"geometry":{"type": "MultiPolygon","coordinates": [[[[97.9815,4.4268,16.8957],[97.9785,4.423,18.9592],[97.9792,4.4213,17.6522],[97.9817,4.4213,15.1534],[97.9818,4.4144,36.5839],[97.9916,4.4121,34.1558],[97.9945,4.409,19.9554],[97.9999,4.4095,18.9818],[98.0005,4.4077,16.0106],[98.0037,4.4118,21.8151],[98.0238,4.4181,11.4052],[98.0241,4.4108,6.802],[98.0337,4.4202,6.0133],[98.0399,4.4202,7.2409],[98.0386,4.4288,5.1813],[98.0411,4.449,2.0891],[98.044,4.4564,1.2421],[98.0442,4.4639,1.4049],[98.0469,4.4687,2.3185],[98.0428,4.4701,1.147],[98.038,4.4671,1.0],[98.0351,4.4721,0.5],[98.035,4.4795,2.3827],[98.0393,4.4801,2.1791],[98.0448,4.4851,1.75],[98.0475,4.5053,0.4378],[98.0495,4.5102,2.791],[98.0563,4.5217,2.67],[98.0587,4.5211,2.6691],[98.0604,4.5228,1.0275],[98.0598,4.5238,2.3752],[98.0631,4.5257,1.0475],[98.0607,4.5312,3.0236],[98.062,4.5334,2.5693],[98.0581,4.5365,2.2934],[98.0265,4.5247,0.5506],[98.0156,4.5166,0.4669],[98.0149,4.5114,1.8728],[98.0196,4.5072,0.0],[98.031,4.5055,1.0245],[98.0325,4.5022,0.0],[98.03,4.4988,0.0],[98.0206,4.4969,0.0],[98.0178,4.4937,0.0],[98.0162,4.4853,1.417],[98.0103,4.4912,0.4505],[98.0056,4.4846,1.0292],[98.0018,4.4837,0.5695],[98.0055,4.4793,0.8624],[98.0048,4.4731,1.0567],[98.0019,4.4709,2.0731],[98.0042,4.4698,1.8191],[98.0042,4.4659,1.9151],[98.0058,4.4651,3.4788],[98.0018,4.4635,4.1338],[98.0025,4.4614,4.9886],[98.0007,4.4618,4.4912],[97.9991,4.454,3.3885],[97.9947,4.4535,2.8082],[97.9907,4.4497,3.4931],[97.9918,4.4461,5.5859],[97.9869,4.4313,14.7674],[97.9894,4.4312,10.7736],[97.9904,4.4294,9.451],[97.9854,4.4274,14.9471],[97.9842,4.4284,12.1632],[97.983,4.4259,17.2553],[97.9825,4.4273,16.8801],[97.9815,4.4268,16.8957]]]]}}