{"type":"Feature","properties":{"GID_3":"IDN.1.22.6_1","GID_0":"IDN","country":"Indonesia","GID_1":"IDN.1_1","province":"Aceh","NL_NAME_1":"NA","GID_2":"IDN.1.22_1","county":"Simeulue","NL_NAME_2":"NA","city":"TelukDalam","VARNAME_3":"NA","NL_NAME_3":"NA","TYPE_3":"Kecamatan","ENGTYPE_3":"Sub-district","CC_3":"1101031","HASC_3":"NA","name":"Teluk_Dalam.city"},
"geometry":{"type": "MultiPolygon","coordinates": [[[[96.1776,2.5597,183.4893],[96.178,2.5557,157.2466],[96.1814,2.5498,60.1704],[96.1839,2.5521,92.8882],[96.1894,2.5484,129.2232],[96.1913,2.5436,169.0378],[96.2008,2.5455,103.4685],[96.2037,2.5482,157.4575],[96.2128,2.5654,31.4163],[96.2175,2.5841,36.8485],[96.2231,2.5886,65.4332],[96.2234,2.5923,40.0661],[96.2284,2.594,34.6735],[96.2294,2.6,16.2551],[96.2317,2.5995,20.776],[96.2427,2.6035,3.9676],[96.2399,2.6076,1.4267],[96.2411,2.6154,5.3893],[96.24,2.6189,0.345],[96.2337,2.6221,0.0],[96.2229,2.6202,6.6245],[96.2208,2.6219,4.0394],[96.2218,2.6241,4.9638],[96.226,2.6249,0.8266],[96.2261,2.6269,3.6747],[96.2197,2.6277,1.2339],[96.2169,2.6314,6.6263],[96.2198,2.6302,0.0],[96.2192,2.6335,0.0],[96.2153,2.6358,0.0],[96.2129,2.6347,3.0956],[96.2121,2.6368,0.4537],[96.2101,2.6353,3.7451],[96.2058,2.6372,4.6978],[96.2057,2.6388,5.6324],[96.207,2.6387,0.0],[96.2035,2.6437,0.6211],[96.2041,2.6472,0.0],[96.202,2.6447,2.0279],[96.1996,2.6448,11.9167],[96.1994,2.6482,1.3688],[96.1964,2.6472,7.2842],[96.1929,2.6513,0.5014],[96.1901,2.6503,6.9949],[96.1877,2.6528,0.0],[96.1849,2.6531,1.2127],[96.185,2.6558,4.0576],[96.1876,2.6536,0.0],[96.1882,2.6555,0.0],[96.1838,2.6623,0.0],[96.181,2.6612,4.2061],[96.1831,2.6638,0.0],[96.181,2.6681,0.0],[96.1787,2.6662,4.6327],[96.1757,2.669,0.4604],[96.1742,2.6657,2.2085],[96.1761,2.671,0.0],[96.175299999999993,2.672,0.6274],[96.1726,2.67,0.5396],[96.1751,2.6729,0.0],[96.1723,2.6746,1.288],[96.1688,2.6745,0.0],[96.1727,2.6712,0.4825],[96.1714,2.6681,0.9865],[96.1639,2.6721,0.7119],[96.1656,2.6751,0.0],[96.1631,2.6793,0.0],[96.1588,2.6768,0.6977],[96.1631,2.6728,0.0],[96.164,2.6708,2.0701],[96.1627,2.6685,1.202],[96.1667,2.6686,0.0],[96.1673,2.6698,2.826],[96.1691,2.6667,0.0],[96.1709,2.6672,0.9865],[96.1702,2.6661,0.3205],[96.1747,2.6615,11.4075],[96.1741,2.6611,11.4075],[96.1692,2.6664,0.0],[96.1702,2.6633,0.0],[96.1716,2.6636,0.0],[96.1738,2.6599,2.4996],[96.1755,2.6611,11.4075],[96.1752,2.6598,2.4996],[96.1786,2.6586,2.0392],[96.1812,2.656,0.8949],[96.1817,2.652,0.0],[96.1839,2.6511,0.3021],[96.1831,2.6468,29.3937],[96.1813,2.6468,0.0],[96.1831,2.6421,27.3166],[96.1816,2.6387,0.0],[96.1863,2.6289,20.1156],[96.1929,2.6202,15.8285],[96.1918,2.6172,0.0],[96.1863,2.6206,0.0],[96.1854,2.6199,0.7555],[96.187,2.6181,3.7933],[96.1841,2.6199,0.7555],[96.1841,2.6158,20.9115],[96.1825,2.614,3.799],[96.1813,2.6179,1.6291],[96.1798,2.6155,1.1139],[96.178,2.6162,1.1139],[96.1798,2.6212,6.1186],[96.1791,2.6226,0.0],[96.1776,2.6218,12.2959],[96.1757,2.626,6.4643],[96.1764,2.6313,0.0],[96.1731,2.6284,15.6939],[96.1713,2.6303,22.0903],[96.1733,2.6308,4.8313],[96.1728,2.6344,4.2025],[96.1711,2.6358,0.0],[96.169,2.6334,13.5638],[96.1662,2.6378,0.0],[96.1637,2.6337,14.1865],[96.1606,2.6341,12.4931],[96.1612,2.6357,2.4562],[96.159,2.6377,26.4158],[96.1625,2.6381,0.0],[96.1582,2.6419,2.2308],[96.1541,2.6412,9.0359],[96.1551,2.6458,0.8235],[96.1535,2.6465,0.8235],[96.1549,2.6463,0.8235],[96.1549,2.6477,0.0],[96.1533,2.6483,0.0],[96.1524,2.6451,7.2165],[96.1475,2.6413,14.2229],[96.1462,2.636,2.6649],[96.1451,2.6372,0.0],[96.1439,2.6359,5.5441],[96.143,2.6382,1.812],[96.1452,2.6404,4.5073],[96.1462,2.6396,4.5073],[96.1463,2.6413,10.5691],[96.1449,2.6428,32.3266],[96.1482,2.6469,0.0],[96.1461,2.6496,0.0],[96.1448,2.6471,2.8099],[96.1423,2.6496,2.8805],[96.1434,2.6545,0.0],[96.1403,2.6516,1.4768],[96.1416,2.6485,7.9192],[96.1376,2.6461,8.3291],[96.1365,2.6491,24.4859],[96.1376,2.6537,0.8694],[96.1357,2.6543,0.0],[96.1358,2.6505,3.8312],[96.1335,2.6543,0.0],[96.1335,2.65,11.9807],[96.1322,2.649,0.0],[96.1346,2.6467,3.2154],[96.1333,2.6463,3.2154],[96.1329,2.643,12.4705],[96.1311,2.6434,6.7604],[96.1309,2.6487,0.0],[96.1293,2.646,8.4372],[96.1271,2.6488,0.0],[96.125,2.6465,11.8854],[96.1233,2.6481,0.0],[96.1234,2.6454,0.0],[96.1277,2.644,8.4108],[96.1256,2.6442,2.1222],[96.1265,2.6416,14.2645],[96.1242,2.6386,0.0],[96.1237,2.6339,1.8235],[96.1223,2.6337,14.7583],[96.1205,2.6364,0.0],[96.119,2.6345,5.2332],[96.1176,2.6348,8.75],[96.1171,2.6382,0.6958],[96.1112,2.6345,4.8322],[96.1109,2.6367,6.1265],[96.1148,2.641,0.0],[96.1101,2.6392,0.0],[96.1081,2.6353,4.7311],[96.1057,2.6367,4.1006],[96.107,2.6368,2.3704],[96.1057,2.6448,3.5458],[96.1022,2.645,6.9062],[96.1037,2.65,3.9069],[96.1027,2.651,4.9701],[96.0999,2.6471,0.0],[96.1006,2.6501,5.3539],[96.0974,2.6523,9.9347],[96.0982,2.6542,11.8995],[96.1001,2.652,6.1624],[96.0986,2.6549,11.8995],[96.0999,2.6533,9.3253],[96.1011,2.6496,5.3539],[96.1017,2.6511,6.1624],[96.0993,2.6551,11.8995],[96.1022,2.6514,4.9701],[96.1055,2.6517,1.7407],[96.1057,2.6533,5.6253],[96.1009,2.6578,7.5668],[96.101,2.6593,12.4398],[96.1049,2.6609,0.0],[96.103,2.662,10.795],[96.1034,2.6665,7.0259],[96.1012,2.67,9.9417],[96.1025,2.6734,2.2011],[96.0946,2.6731,2.705],[96.0928,2.6768,4.7622],[96.0967,2.677,0.0],[96.0959,2.6788,14.7036],[96.101,2.6746,0.9034],[96.1,2.6792,6.121],[96.105,2.6855,10.3984],[96.1075,2.6845,1.2599],[96.1066,2.6861,1.9197],[96.1086,2.6889,6.189],[96.1123,2.6918,0.0],[96.1169,2.692,0.0],[96.1191,2.6939,20.2761],[96.121,2.6925,3.0979],[96.1198,2.6902,3.9254],[96.1125,2.6869,6.1417],[96.1152,2.6859,11.0841],[96.1184,2.6873,8.1793],[96.1214,2.6849,1.6464],[96.1295,2.6825,12.0707],[96.1346,2.6834,2.2718],[96.1361,2.6866,7.6719],[96.1401,2.6892,7.3962],[96.1455,2.6873,1.0311],[96.1449,2.6896,5.8579],[96.1476,2.6908,6.4748],[96.149,2.6881,1.2387],[96.1517,2.6889,0.0],[96.1482,2.6939,0.0],[96.1456,2.6912,4.7084],[96.1451,2.6933,1.5303],[96.1425,2.6913,6.525],[96.1418,2.6956,4.5693],[96.1456,2.695,0.0],[96.1474,2.6985,0.0],[96.1464,2.7001,0.0],[96.1451,2.698,3.0479],[96.1452,2.7005,0.0],[96.1427,2.7013,8.7196],[96.1429,2.7025,8.2529],[96.1463,2.702,0.0],[96.1477,2.7038,0.0],[96.1462,2.7074,2.9164],[96.1468,2.713,0.0],[96.1416,2.7101,6.247],[96.1417,2.7131,0.0],[96.1402,2.7124,0.0],[96.139,2.7114,6.86],[96.1409,2.7093,6.247],[96.1351,2.7046,2.9796],[96.1348,2.7023,9.8978],[96.1287,2.701,0.0],[96.1273,2.7057,0.0],[96.1219,2.7061,0.8612],[96.1217,2.7108,0.0],[96.1159,2.7119,5.7559],[96.1154,2.715,1.6454],[96.1143,2.7133,2.3056],[96.1126,2.7146,2.7102],[96.1138,2.7154,2.7102],[96.1119,2.7211,19.9078],[96.1129,2.7246,0.0],[96.1102,2.7259,6.124],[96.1131,2.7271,2.2293],[96.1124,2.7301,8.5397],[96.1155,2.7287,4.9616],[96.1148,2.7275,4.9616],[96.1281,2.7242,6.844],[96.1321,2.7199,0.0],[96.13,2.727,3.8383],[96.1259,2.7263,4.3594],[96.1247,2.7283,4.5448],[96.1264,2.7272,4.5448],[96.1278,2.7286,5.9521],[96.1318,2.7279,0.0],[96.1319,2.7311,0.0],[96.1266,2.7294,0.0],[96.125,2.7316,0.0],[96.1223,2.7285,2.923],[96.1218,2.7321,0.0],[96.1235,2.7336,0.0],[96.1214,2.7326,0.0],[96.12,2.7352,0.0],[96.1194,2.7315,2.9021],[96.1182,2.7377,0.0],[96.1142,2.7385,0.0],[96.1144,2.7377,0.0],[96.1183,2.7366,0.0],[96.1162,2.7363,1.1121],[96.1083,2.7421,0.0],[96.1055,2.7413,4.7737],[96.0986,2.7469,0.0],[96.0903,2.7501,0.0],[96.0892,2.7451,12.9294],[96.087,2.7446,8.2195],[96.0899,2.7422,34.3876],[96.0907,2.7383,13.1779],[96.0883,2.7373,0.0],[96.0889,2.7325,9.3868],[96.0841,2.7233,10.5046],[96.0829,2.7111,30.5893],[96.0749,2.7019,77.9555],[96.0635,2.6983,39.6154],[96.0679,2.6816,67.1897],[96.068,2.6547,27.843],[96.0703,2.6412,94.2191],[96.088,2.6241,166.597],[96.0961,2.6063,26.8899],[96.0998,2.6029,108.8044],[96.1231,2.5951,24.6352],[96.1379,2.5869,69.7362],[96.1538,2.5834,111.0455],[96.1731,2.5695,71.8001],[96.1776,2.5597,183.4893]]],
[[[96.2138,2.6501,0.0],[96.219,2.6504,0.0],[96.2197,2.6532,0.0],[96.2128,2.6556,0.0],[96.2097,2.6541,2.1564],[96.2138,2.6501,0.0]]],
[[[96.1612,2.6654,7.6307],[96.162,2.6687,1.202],[96.1602,2.6694,0.0],[96.152,2.6681,0.3967],[96.157,2.6628,2.9021],[96.1612,2.6654,7.6307]]],
[[[96.1433,2.6761,12.4485],[96.1457,2.6725,3.2146],[96.1474,2.6732,0.0],[96.1456,2.6777,2.5594],[96.1442,2.6782,2.1869],[96.1433,2.6761,12.4485]]],
[[[96.1381,2.7237,6.6157],[96.133,2.7266,1.2855],[96.1352,2.7245,5.3956],[96.1338,2.7229,1.8036],[96.135,2.7213,1.3231],[96.1364,2.7224,5.0565],[96.1371,2.7197,1.601],[96.139,2.7204,0.0],[96.1381,2.7237,6.6157]]],
[[[96.121,2.7436,4.1769],[96.1158,2.7462,1.1812],[96.1114,2.7521,0.0],[96.1082,2.7508,2.5027],[96.1064,2.7466,5.964],[96.1072,2.7438,0.4842],[96.1054,2.7454,2.9233],[96.104,2.7446,2.9233],[96.1067,2.7428,2.143],[96.1091,2.7456,6.2649],[96.1134,2.7454,5.5983],[96.113,2.744,5.5983],[96.1146,2.7444,6.9217],[96.1211,2.739,4.9403],[96.1238,2.74,3.3512],[96.1251,2.7371,6.8622],[96.1279,2.7368,1.8754],[96.1279,2.7344,0.9668],[96.1294,2.7378999999999998,1.1483],[96.121,2.7436,4.1769]]],
[[[96.105,2.7489,1.0498],[96.1038,2.7502,0.0],[96.1016,2.7482,0.0],[96.0991,2.7489,0.0],[96.1048,2.7455,4.3347],[96.105,2.7489,1.0498]]]]}}