{"type":"Feature","properties":{"GID_3":"IDN.10.29.3_1","GID_0":"IDN","country":"Indonesia","GID_1":"IDN.10_1","province":"JawaTengah","NL_NAME_1":"NA","GID_2":"IDN.10.29_1","county":"Sragen","NL_NAME_2":"NA","city":"Gondang","VARNAME_3":"NA","NL_NAME_3":"NA","TYPE_3":"Kecamatan","ENGTYPE_3":"Sub-district","CC_3":"3314060","HASC_3":"NA","name":"Gondang.city"},
"geometry":{"type": "MultiPolygon","coordinates": [[[[111.0984,-7.4012,87.5816],[111.0968,-7.3998,87.5816],[111.0975,-7.3982,84.2358],[111.0947,-7.3989,82.8958],[111.0938,-7.3962,83.3916],[111.0918,-7.3966,83.0787],[111.0921,-7.3949,83.6996],[111.0874,-7.3913,80.002],[111.0872,-7.3855,75.7124],[111.0833,-7.3857,75.5908],[111.0789,-7.3825,73.2232],[111.0756,-7.3841,75.9811],[111.0762,-7.3873,75.0466],[111.072,-7.3929,75.6855],[111.0742,-7.3974,80.6488],[111.0719,-7.4019,83.4078],[111.0736,-7.4067,83.5214],[111.07,-7.411,83.9803],[111.0713,-7.4211,90.7122],[111.0749,-7.4271,90.3424],[111.0719,-7.433,100.0742],[111.0754,-7.4513,111.5351],[111.0735,-7.4593,122.1072],[111.0769,-7.4622,123.3285],[111.0979,-7.463,126.6514],[111.1005,-7.4673,142.9391],[111.1093,-7.4721,162.4058],[111.1231,-7.4714,176.2393],[111.1241,-7.4789,198.9911],[111.1319,-7.4794,183.684],[111.1332,-7.4787,183.684],[111.1332,-7.4747,180.8798],[111.1351,-7.4735,174.9241],[111.1345,-7.4685,158.9393],[111.1372,-7.4657,159.909],[111.1347,-7.4621,152.2297],[111.1318,-7.4644,144.9985],[111.1322,-7.4611,144.5163],[111.1287,-7.4611,137.1849],[111.131,-7.4566,132.0056],[111.1284,-7.4515,122.5726],[111.1252,-7.4504,126.7066],[111.1242,-7.4443,116.74],[111.1259,-7.4444,114.5109],[111.1261,-7.4427,113.7094],[111.1252,-7.4395,106.8759],[111.1228,-7.4391,111.316],[111.1239,-7.4344,104.6726],[111.1214,-7.4253,98.4362],[111.1191,-7.4233,96.7638],[111.1199,-7.4171,88.9655],[111.1184,-7.4145,88.7506],[111.1202,-7.412,88.9183],[111.1197,-7.4097,88.7118],[111.1243,-7.4091,85.6642],[111.1232,-7.4058,85.0833],[111.1271,-7.4046,82.4726],[111.1296,-7.4015,84.4605],[111.1284,-7.4007,78.3224],[111.1293,-7.3996,78.3224],[111.1164,-7.3982,82.8911],[111.1162,-7.4004,84.3412],[111.1123,-7.3987,84.2286],[111.1118,-7.3957,81.2221],[111.1079,-7.3957,80.2369],[111.1013,-7.4008,82.5188],[111.0984,-7.4012,87.5816]]]]}}