{"type":"Feature","properties":{"GID_3":"IDN.18.6.2_1","GID_0":"IDN","country":"Indonesia","GID_1":"IDN.18_1","province":"MalukuUtara","NL_NAME_1":"NA","GID_2":"IDN.18.6_1","county":"KepulauanSula","NL_NAME_2":"NA","city":"MangoliBarat","VARNAME_3":"NA","NL_NAME_3":"NA","TYPE_3":"Kecamatan","ENGTYPE_3":"Sub-district","CC_3":"8203040","HASC_3":"NA","name":"Mangoli_Barat.city"},
"geometry":{"type": "MultiPolygon","coordinates": [[[[125.4285,-1.8095,0.0],[125.4225,-1.8085,12.5165],[125.4205,-1.8069,0.0],[125.4204,-1.8,2.2607],[125.4127,-1.7967,0.3991],[125.409,-1.7764,4.6546],[125.4029,-1.7751,4.538],[125.3942,-1.7772,0.0],[125.3911,-1.7848,4.549],[125.3859,-1.7792,0.0],[125.3751,-1.7773,0.0],[125.3688,-1.7782,0.0],[125.3666,-1.7791,0.0],[125.3633,-1.7857,4.7239],[125.3606,-1.7872,0.0],[125.3562,-1.7954,0.0],[125.3599,-1.7997,0.0],[125.3617,-1.7962,12.5291],[125.3735,-1.7986,2.4911],[125.3763,-1.8021,1.0466],[125.3757,-1.8071,4.2661],[125.3703,-1.807,1.9668],[125.3619,-1.8105,4.2301],[125.3614,-1.8088,0.4186],[125.3551,-1.8081,4.8922],[125.3563,-1.8059,0.4526],[125.3541,-1.8039,0.0],[125.348,-1.8054,0.0],[125.3466,-1.8068,1.7314],[125.347,-1.8109,2.1342],[125.3417,-1.813,6.855],[125.3377,-1.8226,0.0],[125.3314,-1.8267,0.0],[125.3283,-1.8312,2.5972],[125.3281,-1.8342,13.97],[125.3295,-1.8376,0.5807],[125.3295,-1.8575,2.6392],[125.3328,-1.8756,21.3644],[125.3405,-1.8816,17.7158],[125.3448,-1.8882,0.0],[125.3579,-1.8869,0.0],[125.3598,-1.8846,0.0],[125.3628,-1.8775,0.0],[125.3629,-1.8727,0.0],[125.3656,-1.8687,0.0],[125.3651,-1.8646,0.0],[125.3675,-1.8622,0.0],[125.3659,-1.8519,4.036],[125.3679,-1.8507,0.0],[125.3678,-1.8472,0.0],[125.3706,-1.8461,8.6196],[125.3746,-1.8483,0.582],[125.3727,-1.8565,0.0],[125.3744,-1.8628,0.5241],[125.3778,-1.862,0.0],[125.3788,-1.8584,0.0],[125.3804,-1.863,0.0],[125.3835,-1.8642,7.5361],[125.3841,-1.866,2.3346],[125.3889,-1.8673,1.1775],[125.3924,-1.8593,4.8932],[125.3938,-1.8649,3.3431],[125.3976,-1.8674,0.0],[125.3943,-1.874,2.2852],[125.3999,-1.874,0.4274],[125.3996,-1.8717,8.3389],[125.4014,-1.8718,0.0],[125.4013,-1.869,12.6568],[125.4032,-1.8674,10.7917],[125.4028,-1.8693,4.8601],[125.4063,-1.8699,9.1201],[125.4055,-1.8739,1.9836],[125.407,-1.8779,1.8968],[125.4106,-1.8777,9.1799],[125.4123,-1.8799,0.0],[125.4155,-1.8762,9.3151],[125.4204,-1.8782,0.0],[125.4221,-1.883,0.0],[125.4235,-1.8821,5.7933],[125.4244,-1.8836,0.0],[125.4318,-1.8845,8.9074],[125.4358,-1.8881,1.5923],[125.4362,-1.8972,0.0],[125.4388,-1.9007,4.6335],[125.4343,-1.9094,0.0],[125.4331,-1.9158,5.8731],[125.4383,-1.9211,18.4759],[125.4407,-1.9274,2.1043],[125.4325,-1.9354,9.1541],[125.4239,-1.9392,4.985],[125.4198,-1.9431,7.4602],[125.4188,-1.9484,4.7392],[125.423,-1.9506,0.0],[125.4301,-1.9487,23.1721],[125.4336,-1.9497,0.0],[125.4375,-1.9462,31.7387],[125.4468,-1.9472,0.0],[125.4594,-1.9431,15.2616],[125.4656,-1.9429,31.2753],[125.4601,-1.8118,76.6513],[125.4659,-1.7796,3.3354],[125.4574,-1.7776,0.0],[125.4541,-1.7816,1.7154],[125.4523,-1.7895,0.0],[125.4532,-1.7928,0.0],[125.4501,-1.7998,6.3046],[125.4456,-1.8007,0.0],[125.4433,-1.7972,0.0],[125.4339,-1.8051,6.1584],[125.43,-1.8056,3.5545],[125.4285,-1.8095,0.0]]],
[[[125.4201,-1.8844,0.5519],[125.4177,-1.8844,0.0],[125.412,-1.8908,0.0],[125.4111,-1.8927,0.0],[125.4125,-1.8954,2.746],[125.4162,-1.8962,5.8891],[125.4167,-1.8937,3.2532],[125.4196,-1.8918,4.0495],[125.4215,-1.8856,0.0],[125.4201,-1.8844,0.5519]]],
[[[125.4173,-1.7971,0.0053],[125.4179,-1.7972,0.0053],[125.4184,-1.7927,0.0],[125.4164,-1.7936,0.5187],[125.4173,-1.7971,0.0053]]],
[[[125.3875,-1.8787,0.0],[125.3835,-1.8785,0.0],[125.3813,-1.8813,1.4679],[125.3768,-1.881,0.0],[125.3739,-1.8826,0.0],[125.3722,-1.8897,0.0],[125.3873,-1.8918,0.0],[125.3887,-1.889,0.0],[125.3867,-1.884,0.0],[125.3875,-1.8787,0.0]]],
[[[125.4228,-1.767,0.0],[125.4169,-1.7698,6.8357],[125.4198,-1.7749,0.0],[125.4255,-1.7696,0.0],[125.4228,-1.767,0.0]]]]}}