{"type":"Feature","properties":{"GID_3":"IDN.27.2.14_1","GID_0":"IDN","country":"Indonesia","GID_1":"IDN.27_1","province":"SulawesiTengah","NL_NAME_1":"NA","GID_2":"IDN.27.2_1","county":"Banggai","NL_NAME_2":"NA","city":"Nuhon","VARNAME_3":"NA","NL_NAME_3":"NA","TYPE_3":"Kecamatan","ENGTYPE_3":"Sub-district","CC_3":"7202031","HASC_3":"NA","name":"Nuhon.city"},
"geometry":{"type": "MultiPolygon","coordinates": [[[[121.94,-1.135,141.2968],[121.9423,-1.1337,124.5267],[121.9399,-1.1289,120.2532],[121.9413,-1.1269,129.192],[121.9477,-1.1275,134.5591],[121.9498,-1.1253,189.8389],[121.9502,-1.1196,177.8122],[121.9522,-1.1179,231.284],[121.9511,-1.116,221.3514],[121.9489,-1.1168,138.7583],[121.9492,-1.1135,160.6663],[121.9559,-1.1105,235.2847],[121.9563,-1.1145,203.9554],[121.9601,-1.1142,263.8887],[121.9609,-1.1174,195.6178],[121.9636,-1.1193,203.206],[121.9668,-1.1182,243.7878],[121.9666,-1.12,207.5943],[121.9701,-1.1231,185.9856],[121.9727,-1.1221,247.8792],[121.9749,-1.1232,177.185],[121.9756,-1.1221,203.4304],[121.9883,-1.1231,217.4716],[121.9905,-1.1274,203.9293],[121.9952,-1.126,285.7566],[121.9969,-1.13,193.8055],[122.0005,-1.1279,265.6399],[122.0032,-1.1284,243.1472],[122.0031,-1.1329,202.5953],[122.0061,-1.1315,207.1428],[122.0073,-1.133,203.0073],[122.0062,-1.1423,301.21],[122.019,-1.1408,281.3629],[122.026,-1.131,351.6203],[122.0385,-1.1032,662.1381],[122.0802,-1.0991,357.4754],[122.0983,-1.1018,434.8977],[122.1289,-1.1102,689.5562],[122.1525,-1.1046,1098.0066],[122.1678,-1.1032,1397.0883],[122.2095,-1.1032,1190.7902],[122.2373,-1.106,1308.5415],[122.2721,-1.1018,1729.8796],[122.2782,-1.0927,1477.2871],[122.2735,-1.0476,1277.4075],[122.2623,-1.0379,1124.7339],[122.261,-1.0268,951.2916],[122.2679,-1.0184,708.3066],[122.2651,-1.0101,661.3898],[122.2512,-0.9948,406.9818],[122.247,-0.9851,451.428],[122.2401,-0.9809,638.0646],[122.2254,-0.9602,140.3596],[122.2259,-0.9573,130.5168],[122.223,-0.9519,118.8715],[122.2235,-0.9435,100.4616],[122.2206,-0.9197,60.325],[122.2081,-0.9086,52.48],[122.1942,-0.9002,41.0715],[122.1468,-0.8978,0.0],[122.1466,-0.899,0.0],[122.146,-0.8977,0.0],[122.1447,-0.9065,0.0],[122.1351,-0.9207,0.0],[122.1293,-0.9248,0.0],[122.1281,-0.9285,0.0],[122.1192,-0.9394,0.0],[122.1037,-0.9514,0.0],[122.0929,-0.9547,0.0],[122.0905,-0.9514,0.0],[122.0877,-0.9514,0.0],[122.0764,-0.9438,0.0],[122.064,-0.9457,0.0],[122.0581,-0.9405,0.0],[122.0515,-0.9434,0.0],[122.0424,-0.9391,0.0],[122.0374,-0.9411,0.0],[122.0274,-0.9356,0.0],[122.0254,-0.9321,0.0],[122.0237,-0.9317,0.0],[122.0191,-0.9316,0.0],[122.0128,-0.9363,1.2334],[122.0052,-0.933,0.0],[121.9946,-0.9432,0.0],[121.9886,-0.9425,0.0],[121.986,-0.9465,0.0],[121.9873,-0.9506,0.0],[121.9837,-0.9581,0.0],[121.9798,-0.9599,0.0],[121.977,-0.966,0.0],[121.9729,-0.9675,0.0],[121.9701,-0.9706,0.0],[121.9629,-0.9724,0.0],[121.9565,-0.9824,0.0],[121.9424,-0.9887,0.0],[121.9362,-0.9864,0.0],[121.9288,-0.9872,0.0],[121.9232,-0.9856,0.0],[121.9102,-0.989,0.0],[121.9005,-0.9787,0.0],[121.8945,-0.9746,0.0],[121.8871,-0.9745,0.0],[121.8848,-0.9729,0.0],[121.8818,-0.9745,0.0],[121.8786,-0.9739,0.0],[121.8702,-0.9692,0.0],[121.8662,-0.9696,0.0],[121.8637,-0.9668,0.0],[121.8517,-0.9694,0.0],[121.8489,-0.9686,0.0],[121.8518,-0.9615,0.0],[121.8475,-0.963,0.0],[121.8425,-0.962,0.0],[121.8526,-1.0476,237.7019],[121.8856,-1.1173,558.563],[121.8985,-1.1489,798.5945],[121.9246,-1.143,174.53],[121.9264,-1.1405,232.6684],[121.9369,-1.1374,139.9208],[121.94,-1.135,141.2968]]]]}}