{"type":"Feature","properties":{"GID_2":"BRN.4.7_1","GID_0":"BRN","country":"Brunei","GID_1":"BRN.4_1","province":"Tutong","NL_NAME_1":"NA","county":"Telisai","VARNAME_2":"NA","NL_NAME_2":"NA","TYPE_2":"Mukim","ENGTYPE_2":"Mukim","CC_2":"NA","HASC_2":"BN.TU.TE","name":"Telisai.county"},
"geometry":{"type": "MultiPolygon","coordinates": [[[[114.5581,4.6495,69.0775],[114.5718,4.6719,43.9661],[114.5896,4.708,46.5355],[114.6032,4.7308,18.0198],[114.6151,4.7387,16.7861],[114.6255,4.7419,47.7458],[114.6277,4.757,23.9859],[114.625,4.7612,16.5442],[114.6165,4.7621,2.2453],[114.6063,4.7703,8.7449],[114.6025,4.7703,1.3882],[114.5992,4.7681,5.1994],[114.5964,4.7694,1.763],[114.5931,4.7664,7.4603],[114.5906,4.7672,2.4654],[114.5522,4.7333,4.639],[114.5295,4.7159,2.8588],[114.5349,4.6871,49.1008],[114.5433,4.6678,63.548],[114.5581,4.6495,69.0775]]]]}}