{"type":"Feature","properties":{"GID_3":"IDN.30.7.6_1","GID_0":"IDN","country":"Indonesia","GID_1":"IDN.30_1","province":"SumateraBarat","NL_NAME_1":"NA","GID_2":"IDN.30.7_1","county":"LimaPuluhKota","NL_NAME_2":"NA","city":"KapurIx","VARNAME_3":"NA","NL_NAME_3":"NA","TYPE_3":"Kecamatan","ENGTYPE_3":"Sub-district","CC_3":"1308070","HASC_3":"NA","name":"Kapur_Ix.city"},
"geometry":{"type": "MultiPolygon","coordinates": [[[[100.6271,0.2223,559.2053],[100.6202,0.2359,526.5884],[100.6134,0.2427,611.959],[100.6016,0.2593,322.7925],[100.5948,0.267,241.9015],[100.5841,0.2727,271.1893],[100.5772,0.2791,342.9702],[100.5643,0.2971,497.8001],[100.5546,0.3028,481.8141],[100.5415,0.3074,336.2583],[100.5335,0.3147,375.0496],[100.532,0.32,289.8326],[100.5381,0.3338,163.8628],[100.5313,0.343,179.9994],[100.5274,0.3451,203.2009],[100.5185,0.3213,336.9055],[100.5029,0.3113,282.5027],[100.4936,0.3079,451.8891],[100.4852,0.3083,432.4793],[100.473,0.3135,460.3725],[100.4676,0.3199,612.4517],[100.4629,0.3312,496.3077],[100.4612,0.3507,665.793],[100.4562,0.3678,302.4927],[100.4565,0.3774,342.4026],[100.454,0.3951,389.1755],[100.4502,0.4074,317.9599],[100.4382,0.4131,407.856],[100.431,0.4218,393.5218],[100.4198,0.4239,373.3394],[100.4165,0.4178,402.0372],[100.4099,0.4147,424.8713],[100.4025,0.4059,297.2929],[100.3892,0.399,226.612],[100.3758,0.3893,251.1822],[100.3661,0.3948,340.4851],[100.3641,0.3903,268.4725],[100.3472,0.3843,515.8779],[100.3442,0.3845,600.4437],[100.3376,0.3907,873.8582],[100.3196,0.403,954.5],[100.3134,0.3982,815.3185],[100.3005,0.3966,947.98],[100.303,0.3843,920.7791],[100.3116,0.3778,715.532],[100.3195,0.3676,613.2678],[100.3256,0.3665,745.9977],[100.3262,0.3642,715.6956],[100.3232,0.3609,711.5944],[100.3242,0.3576,801.8514],[100.3334,0.3515,729.9497],[100.328,0.3438,518.9924],[100.3322,0.338,553.9161],[100.3321,0.3359,538.1163],[100.329,0.3329,410.7559],[100.32,0.3147,624.7582],[100.3101,0.3057,834.2953],[100.3087,0.3002,811.9762],[100.3153,0.2881,878.062],[100.3198,0.2865,957.4171],[100.3158,0.2744,975.474],[100.3193,0.2741,904.326],[100.3321,0.2527,981.4083],[100.3294,0.2345,813.8514],[100.3325,0.2275,957.96],[100.3327,0.2194,1214.9568],[100.3366,0.2108,1196.0948],[100.342,0.205,1249.9612],[100.3515,0.1804,1277.766],[100.3495,0.1706,1345.9958],[100.3282,0.1497,1552.0146],[100.328,0.145,1395.3896],[100.324,0.1367,1329.9518],[100.324,0.1232,1706.6492],[100.3208,0.1186,1685.4521],[100.3204,0.1143,1726.4624],[100.3209,0.1112,1705.0221],[100.324,0.1075,1704.4148],[100.3249,0.102,1649.7822],[100.3158,0.0878,1869.5775],[100.3178,0.081,1901.9871],[100.3274,0.0637,1505.6483],[100.3302,0.0523,1634.1315],[100.3376,0.0428,1706.8953],[100.3611,0.0432,1782.7393],[100.3704,0.0467,1714.7217],[100.3748,0.0519,1830.791],[100.3827,0.0683,2012.599],[100.3919,0.0756,2216.6494],[100.4075,0.1083,1807.1827],[100.4137,0.1147,1779.3069],[100.4284,0.1223,1373.3798],[100.4468,0.1204,1230.4756],[100.4534,0.1165,1003.0791],[100.4613,0.116,974.2379],[100.4737,0.1126,1031.8257],[100.4882,0.1161,936.1024],[100.5126,0.1038,376.0883],[100.5233,0.1042,390.323],[100.5304,0.1108,490.7941],[100.5331,0.1156,524.3936],[100.5402,0.1205,532.683],[100.5448,0.121,511.0745],[100.5497,0.1404,405.2589],[100.5979,0.1562,196.9036],[100.6038,0.1596,211.4584],[100.6207,0.1776,172.983],[100.622,0.1821,157.7222],[100.6186,0.1927,145.7279],[100.6235,0.1989,149.153],[100.6205,0.2107,169.2461],[100.6267,0.2123,317.926],[100.6296,0.2154,457.6319],[100.6301,0.219,602.4102],[100.6271,0.2223,559.2053]]]]}}