{"type":"Feature","properties":{"GID_3":"IDN.5.5.3_1","GID_0":"IDN","country":"Indonesia","GID_1":"IDN.5_1","province":"Bengkulu","NL_NAME_1":"NA","GID_2":"IDN.5.5_1","county":"Kaur","NL_NAME_2":"NA","city":"KaurUtara","VARNAME_3":"NA","NL_NAME_3":"NA","TYPE_3":"Kecamatan","ENGTYPE_3":"Sub-district","CC_3":"1704070","HASC_3":"NA","name":"Kaur_Utara.city"},
"geometry":{"type": "MultiPolygon","coordinates": [[[[103.2376,-4.527,176.3792],[103.2395,-4.5217,184.0124],[103.2488,-4.5108,207.6282],[103.2496,-4.5048,228.5259],[103.2531,-4.5018,225.8966],[103.2443,-4.4975,257.1606],[103.2337,-4.4998,218.1132],[103.2319,-4.498,212.5438],[103.2318,-4.4939,167.8892],[103.2279,-4.4841,198.2258],[103.2271,-4.4714,269.8426],[103.2231,-4.4604,283.5384],[103.2129,-4.4491,378.674],[103.2056,-4.4446,368.9066],[103.2012,-4.4442,297.9561],[103.1962,-4.4401,217.0214],[103.1938,-4.4296,246.805],[103.1954,-4.4274,278.7755],[103.196,-4.4141,296.9984],[103.1992,-4.4088,326.6085],[103.1904,-4.4033,458.6686],[103.1877,-4.3971,536.2039],[103.1686,-4.3997,540.5088],[103.1649,-4.4061,485.7418],[103.1712,-4.413,298.666],[103.1734,-4.4169,271.9083],[103.1728,-4.4189,250.9723],[103.1757,-4.4224,249.8933],[103.1803,-4.4263,279.2163],[103.1833,-4.4265,299.4816],[103.1841,-4.4283,276.4133],[103.1827,-4.4316,267.5013],[103.1835,-4.4336,265.1538],[103.1817,-4.4338,250.7171],[103.1811,-4.4357,252.1076],[103.1823,-4.4395,263.3524],[103.1796,-4.4426,207.8911],[103.1806,-4.4446,227.3988],[103.1768,-4.4483,195.9421],[103.1762,-4.4514,173.3496],[103.1782,-4.4573,272.6545],[103.1798,-4.4597,232.0685],[103.1935,-4.4622,213.5382],[103.1983,-4.4681,231.2876],[103.1989,-4.4718,223.6112],[103.1969,-4.4783,195.1293],[103.1926,-4.4838,152.6113],[103.1927,-4.5189,243.3238],[103.1899,-4.5333,147.8118],[103.2278,-4.5334,156.515],[103.2318,-4.5327,126.3848],[103.2376,-4.527,176.3792]]]]}}