{"type":"Feature","properties":{"GID_3":"IDN.18.2.30_1","GID_0":"IDN","country":"Indonesia","GID_1":"IDN.18_1","province":"MalukuUtara","NL_NAME_1":"NA","GID_2":"IDN.18.2_1","county":"HalmaheraSelatan","NL_NAME_2":"NA","city":"PulauMakian","VARNAME_3":"NA","NL_NAME_3":"NA","TYPE_3":"Kecamatan","ENGTYPE_3":"Sub-district","CC_3":"8204070","HASC_3":"NA","name":"Pulau_Makian.city"},
"geometry":{"type": "MultiPolygon","coordinates": [[[[127.43,0.3015,0.0],[127.4408,0.3156,4.2662],[127.4435,0.3243,0.0],[127.4386,0.3318,7.18],[127.4429,0.3366,5.0804],[127.4371,0.3509,0.0],[127.4223,0.3665,8.9043],[127.42,0.373,9.2482],[127.415,0.375,14.5002],[127.4034,0.3731,22.205],[127.3982,0.3697,38.6288],[127.3879,0.3681,9.1711],[127.3736,0.3623,0.0],[127.3827,0.3532,198.5234],[127.3859,0.3455,514.587],[127.3963,0.3351,640.0267],[127.3958,0.3035,680.8727],[127.3921,0.2935,333.7708],[127.3843,0.2871,73.1332],[127.3808,0.2807,5.5978],[127.3847,0.2775,9.4146],[127.3946,0.2751,0.0],[127.3964,0.2767,2.8044],[127.402,0.2764,0.0],[127.4066,0.2786,0.0],[127.4137,0.2792,7.1033],[127.4172,0.2824,15.8826],[127.4221,0.2827,0.0],[127.4244,0.2874,30.6663],[127.4274,0.2883,0.0],[127.4299,0.2916,0.0],[127.43,0.3015,0.0]]]]}}