{"type":"Feature","properties":{"GID_3":"IDN.25.5.6_1","GID_0":"IDN","country":"Indonesia","GID_1":"IDN.25_1","province":"SulawesiBarat","NL_NAME_1":"NA","GID_2":"IDN.25.5_1","county":"PolewaliMandar","NL_NAME_2":"NA","city":"Campalagian","VARNAME_3":"NA","NL_NAME_3":"NA","TYPE_3":"Kecamatan","ENGTYPE_3":"Sub-district","CC_3":"7602030","HASC_3":"NA","name":"Campalagian.city"},
"geometry":{"type": "MultiPolygon","coordinates": [[[[119.1526,-3.4914,0.0],[119.17,-3.4882,0.0],[119.1861,-3.4921,0.1123],[119.1982,-3.493,0.0],[119.1954,-3.4833,0.6278],[119.1918,-3.4834,0.5],[119.1948,-3.4768,8.4709],[119.1911,-3.4736,10.4192],[119.1947,-3.4643,10.8482],[119.1901,-3.4601,13.8969],[119.1918,-3.4566,14.1954],[119.1839,-3.456,16.4586],[119.1887,-3.4504,16.392],[119.1933,-3.4504,11.1262],[119.186,-3.4387,10.9352],[119.1857,-3.4347,16.9472],[119.1879,-3.431,8.4365],[119.1823,-3.4293,7.6826],[119.1849,-3.4269,12.9337],[119.1847,-3.4241,7.8346],[119.1749,-3.4274,5.5352],[119.162,-3.4226,6.5562],[119.1496,-3.4162,4.8218],[119.1409,-3.4046,6.2454],[119.1329,-3.4008,21.3439],[119.1313,-3.4016,28.8944],[119.1334,-3.4058,17.7542],[119.1335,-3.411,19.9359],[119.1295,-3.4164,15.7087],[119.1261,-3.4184,22.9825],[119.1171,-3.4177,43.5281],[119.1106,-3.4205,78.1379],[119.1043,-3.4172,145.0928],[119.077,-3.4084,119.0452],[119.0603,-3.3941,193.2643],[119.0626,-3.4151,204.7739],[119.0583,-3.4455,535.3062],[119.0689,-3.4588,484.3344],[119.0756,-3.4711,474.4203],[119.0948,-3.4817,344.2595],[119.0998,-3.4866,256.445],[119.1041,-3.4987,112.0799],[119.1048,-3.5152,0.0],[119.111,-3.5168,0.0],[119.1191,-3.5126,3.1403],[119.1244,-3.5021,0.1021],[119.1348,-3.4944,0.9103],[119.1526,-3.4914,0.0]]]]}}