{"type":"Feature","properties":{"GID_3":"IDN.5.7.7_1","GID_0":"IDN","country":"Indonesia","GID_1":"IDN.5_1","province":"Bengkulu","NL_NAME_1":"NA","GID_2":"IDN.5.7_1","county":"Lebong","NL_NAME_2":"NA","city":"LebongUtara","VARNAME_3":"NA","NL_NAME_3":"NA","TYPE_3":"Kecamatan","ENGTYPE_3":"Sub-district","CC_3":"1707050","HASC_3":"NA","name":"Lebong_Utara.city"},
"geometry":{"type": "MultiPolygon","coordinates": [[[[102.2061,-3.1299,339.9062],[102.2017,-3.1251,334.9861],[102.2008,-3.1187,330.4151],[102.2049,-3.118,329.3411],[102.2055,-3.1153,329.1659],[102.2035,-3.1123,328.0115],[102.199,-3.112,328.0053],[102.203,-3.1051,327.7686],[102.1974,-3.095,317.787],[102.1967,-3.0963,331.0144],[102.1841,-3.0906,431.0263],[102.1813,-3.0813,383.4774],[102.1683,-3.0806,341.832],[102.166,-3.0821,398.5186],[102.1578,-3.0802,485.2773],[102.1427,-3.0816,384.3103],[102.1416,-3.0915,644.6028],[102.1595,-3.0983,753.7852],[102.1659,-3.1074,740.2074],[102.1737,-3.1045,638.4731],[102.1839,-3.1075,441.986],[102.1833,-3.1164,545.3651],[102.1864,-3.1243,746.8306],[102.1894,-3.1283,571.8163],[102.191,-3.1262,544.1803],[102.1966,-3.1339,420.2503],[102.1906,-3.1416,517.2986],[102.1859,-3.1516,568.619],[102.1935,-3.154,590.6273],[102.1997,-3.1536,601.2067],[102.2043,-3.1493,603.829],[102.2111,-3.1411,367.6993],[102.2077,-3.1379,361.7204],[102.2108,-3.1353,344.502],[102.2072,-3.1329,338.3478],[102.2061,-3.1299,339.9062]]]]}}