{"type":"Feature","properties":{"GID_3":"IDN.27.5.6_1","GID_0":"IDN","country":"Indonesia","GID_1":"IDN.27_1","province":"SulawesiTengah","NL_NAME_1":"NA","GID_2":"IDN.27.5_1","county":"Morowali","NL_NAME_2":"NA","city":"BungkuUtara","VARNAME_3":"NA","NL_NAME_3":"NA","TYPE_3":"Kecamatan","ENGTYPE_3":"Sub-district","CC_3":"7203080","HASC_3":"NA","name":"Bungku_Utara.city"},
"geometry":{"type": "MultiPolygon","coordinates": [[[[121.7908,-1.7869,0.0],[121.7972,-1.7713,0.0],[121.8023,-1.7647,0.0],[121.8049,-1.7652,0.0],[121.8071,-1.763,0.0],[121.8049,-1.762,0.0],[121.8028,-1.7542,1.3761],[121.8023,-1.7437,0.0],[121.8041,-1.7358,1.1484],[121.8091,-1.7294,2.1517],[121.8249,-1.7261,1.3632],[121.8256,-1.7248,0.0],[121.8232,-1.7233,5.5396],[121.8271,-1.7164,0.0],[121.837,-1.7141,0.0],[121.8396,-1.7061,3.1399],[121.8434,-1.7067,0.0],[121.8437,-1.7025,0.7275],[121.8485,-1.6947,0.0],[121.8513,-1.6932,12.4488],[121.8471,-1.6825,203.5792],[121.8308,-1.6727,138.0735],[121.8095,-1.6538,681.6685],[121.8025,-1.6454,637.5406],[121.7904,-1.6201,900.3112],[121.7803,-1.5841,546.5728],[121.7778,-1.5817,533.1458],[121.7943,-1.5753,613.29],[121.7969,-1.5586,437.9909],[121.7979,-1.5104,898.0896],[121.7944,-1.4563,653.3212],[121.7914,-1.4311,665.8569],[121.7916,-1.4085,517.9017],[121.7823,-1.4189,609.0334],[121.7612,-1.4362,703.1973],[121.7224,-1.4484,1103.375],[121.7003,-1.4509,980.1883],[121.6846,-1.4551,1156.5665],[121.6659,-1.4633,1286.7448],[121.6311,-1.4831,802.5646],[121.6197,-1.4911,794.1295],[121.5916,-1.5021,883.1389],[121.5923,-1.4976,843.3308],[121.5864,-1.4959,874.6664],[121.5574,-1.4928,874.2264],[121.5352,-1.4925,1139.3795],[121.5013,-1.4863,1651.3519],[121.4973,-1.485,1771.2653],[121.4787,-1.4668,1700.5292],[121.4709,-1.4473,1689.15],[121.4769,-1.4004,1931.1644],[121.4748,-1.3754,1966.5861],[121.4662,-1.3988,1874.3854],[121.466,-1.4049,2123.7007],[121.4327,-1.4049,1616.1533],[121.4031,-1.4353,1403.6558],[121.3764,-1.4523,1419.4598],[121.3603,-1.4568,1143.0975],[121.3509,-1.4732,1523.3011],[121.3525,-1.5129,1401.2678],[121.35,-1.5931,896.9268],[121.3507,-1.6383,1217.7731],[121.3531,-1.6537,981.387],[121.3525,-1.6704,725.3656],[121.3578,-1.6871,588.1215],[121.3679,-1.7113,548.7714],[121.3733,-1.7209,455.5164],[121.3787,-1.7269,491.3557],[121.3938,-1.7371,525.2994],[121.4125,-1.7524,514.7784],[121.4254,-1.7588,732.5754],[121.4378,-1.768,787.4984],[121.443,-1.7761,348.1111],[121.4462,-1.7968,255.2484],[121.4454,-1.8084,1.3525],[121.4523,-1.8112,19.2929],[121.4554,-1.8105,15.5023],[121.4607,-1.8161,3.4165],[121.4619,-1.8215,36.6058],[121.4563,-1.8237,3.7128],[121.4549,-1.8263,0.0],[121.4588,-1.8249,5.0557],[121.4625,-1.8272,13.6404],[121.468,-1.8364,57.3276],[121.4658,-1.8366,30.4738],[121.4667,-1.84,21.6541],[121.4618,-1.8401,10.0578],[121.4578,-1.8427,4.5907],[121.4546,-1.8486,15.3355],[121.4501,-1.8494,0.0],[121.4552,-1.8522,0.0],[121.4543,-1.8542,14.514],[121.4501,-1.8548,0.0],[121.449,-1.8606,5.595],[121.447,-1.8619,20.7465],[121.4487,-1.8632,7.9964],[121.4485,-1.8673,7.7073],[121.4602,-1.8649,0.0],[121.4642,-1.8622,20.8427],[121.4662,-1.8583,0.0],[121.4698,-1.857,31.5548],[121.4646,-1.8738,29.9382],[121.4577,-1.8768,17.1404],[121.4615,-1.879,8.4195],[121.4653,-1.8781,0.0],[121.4697,-1.8755,3.0051],[121.4732,-1.8756,0.0],[121.474,-1.8733,0.0],[121.4775,-1.8715,0.0],[121.4832,-1.8702,11.1458],[121.4861,-1.8748,2.1424],[121.4885,-1.8732,4.2002],[121.4867,-1.8751,2.1424],[121.4875,-1.8783,3.0965],[121.4853,-1.8792,0.0],[121.4861,-1.883,0.0],[121.4904,-1.8846,1.8836],[121.4945,-1.8897,0.0],[121.4968,-1.89,0.0],[121.4975,-1.8879,6.5607],[121.4989,-1.889,3.7703],[121.4968,-1.895,0.0],[121.4985,-1.8972,0.0],[121.5019,-1.8986,0.0],[121.506,-1.898,0.0],[121.5109,-1.9059,0.0],[121.5262,-1.9114,0.0],[121.5298,-1.9169,0.0],[121.5319,-1.9174,0.0],[121.5355,-1.9153,4.3704],[121.5396,-1.918,3.192],[121.5407,-1.9202,2.5566],[121.5391,-1.9211,0.0],[121.5413,-1.9235,0.0],[121.5402,-1.9255,1.288],[121.5429,-1.9275,1.5306],[121.5445,-1.9333,1.1638],[121.5478,-1.9348,0.8247],[121.5513,-1.9439,0.513],[121.553,-1.9449,0.0],[121.5581,-1.9437,2.0064],[121.5603,-1.9471,4.5435],[121.5601,-1.9493,6.2752],[121.5568,-1.9457,0.0],[121.5535,-1.9482,1.9987],[121.5599,-1.9555,0.0],[121.5738,-1.959,0.0],[121.5804,-1.9546,0.0],[121.6014,-1.9525,6.6203],[121.6155,-1.9541,3.9995],[121.6261,-1.9605,0.0],[121.6313,-1.9578,7.6063],[121.639,-1.9594,3.9671],[121.6435,-1.9561,5.3492],[121.6452,-1.9581,0.0],[121.653,-1.9552,2.1777],[121.6545,-1.9565,0.0],[121.6636,-1.9501,0.0],[121.6785,-1.9454,0.0],[121.6902,-1.9277,4.9303],[121.698,-1.9247,0.0],[121.7009,-1.9215,1.4401],[121.7064,-1.922,5.3994],[121.7121,-1.9249,0.0],[121.7142,-1.9231,0.0],[121.714,-1.9201,0.0],[121.7125,-1.9201,0.0],[121.7188,-1.9055,0.0],[121.7302,-1.9018,0.0],[121.7316,-1.8945,1.303],[121.7428,-1.8889,2.0078],[121.7443,-1.8814,3.695],[121.7497,-1.8759,0.0],[121.7539,-1.8672,0.0],[121.7632,-1.8546,1.6694],[121.7684,-1.8375,0.0],[121.767,-1.8355,0.0],[121.7634,-1.838,1.1748],[121.7655,-1.834,3.6547],[121.7678,-1.8337,0.0],[121.7677,-1.8288,2.0044],[121.7704,-1.8219,0.0],[121.7791,-1.8083,0.0],[121.779,-1.7983,2.4802],[121.7798,-1.7991,2.4802],[121.7822,-1.7928,1.9363],[121.7845,-1.7915,0.5286],[121.7816,-1.7995,0.0],[121.7828,-1.7992,0.0],[121.7908,-1.7869,0.0]]],
[[[121.4926,-1.9449,0.0],[121.4941,-1.9466,0.0],[121.4954,-1.9436,12.4903],[121.4936,-1.9429,5.699],[121.4926,-1.9449,0.0]]],
[[[121.4835,-1.942,0.0],[121.4842,-1.9419,0.0],[121.4837,-1.9412,0.0],[121.483,-1.9418,0.0],[121.4835,-1.942,0.0]]],
[[[121.4986,-1.9415,0.0],[121.5012,-1.94,0.0],[121.501,-1.9392,0.0],[121.4977,-1.9402,0.0],[121.4986,-1.9415,0.0]]],
[[[121.4863,-1.9319,0.0],[121.4802,-1.931,0.0],[121.482,-1.9322,45.7366],[121.483,-1.9362,35.4581],[121.4817,-1.9397,0.0],[121.4852,-1.9404,2.6088],[121.4866,-1.943,0.0],[121.4915,-1.9401,23.5979],[121.4885,-1.938,43.8161],[121.4878,-1.9355,36.8965],[121.489,-1.934,9.543],[121.4867,-1.9338,18.8163],[121.4863,-1.9319,0.0]]],
[[[121.4985,-1.9337,0.0],[121.4967,-1.9331,0.0],[121.4963,-1.9348,0.0],[121.498,-1.935,0.0],[121.4985,-1.9337,0.0]]],
[[[121.4776,-1.9299,0.0],[121.4783,-1.9303,0.0],[121.4786,-1.9299,0.0],[121.4781,-1.9296,0.0],[121.4776,-1.9299,0.0]]]]}}