{"type":"Feature","properties":{"GID_3":"IDN.17.8.2_1","GID_0":"IDN","country":"Indonesia","GID_1":"IDN.17_1","province":"Lampung","NL_NAME_1":"NA","GID_2":"IDN.17.8_1","county":"Metro","NL_NAME_2":"NA","city":"MetroPusat","VARNAME_3":"NA","NL_NAME_3":"NA","TYPE_3":"Kecamatan","ENGTYPE_3":"Sub-district","CC_3":"1872022","HASC_3":"NA","name":"Metro_Pusat.city"},
"geometry":{"type": "MultiPolygon","coordinates": [[[[105.2982,-5.1321,50.084],[105.3014,-5.1318,48.4337],[105.3048,-5.1341,48.5717],[105.3087,-5.1325,52.7776],[105.3091,-5.1228,49.9087],[105.3109,-5.1219,49.4791],[105.3095,-5.12,50.4252],[105.311,-5.1144,60.5082],[105.3095,-5.1142,60.0336],[105.3097,-5.1128,57.4897],[105.3146,-5.1088,54.946],[105.3249,-5.108,53.5178],[105.3305,-5.1036,46.6862],[105.337,-5.0935,54.4067],[105.3324,-5.0921,43.927],[105.3309,-5.0872,50.4293],[105.3274,-5.087,46.4493],[105.3175,-5.0919,43.708],[105.3142,-5.0869,45.3172],[105.3075,-5.0903,45.8249],[105.3046,-5.0891,52.2827],[105.3005,-5.0915,46.6885],[105.299,-5.0996,46.3965],[105.2879,-5.1047,47.7086],[105.2883,-5.108,51.4904],[105.2932,-5.1098,48.6479],[105.2945,-5.1122,50.0147],[105.2941,-5.1163,51.0192],[105.2973,-5.1213,54.7646],[105.2963,-5.1295,53.5228],[105.2982,-5.1321,50.084]]]]}}