{"type":"Feature","properties":{"GID_3":"IDN.30.12.3_1","GID_0":"IDN","country":"Indonesia","GID_1":"IDN.30_1","province":"SumateraBarat","NL_NAME_1":"NA","GID_2":"IDN.30.12_1","county":"PasamanBarat","NL_NAME_2":"NA","city":"KotoBalingka","VARNAME_3":"NA","NL_NAME_3":"NA","TYPE_3":"Kecamatan","ENGTYPE_3":"Sub-district","CC_3":"1312030","HASC_3":"NA","name":"Koto_Balingka.city"},
"geometry":{"type": "MultiPolygon","coordinates": [[[[99.4261,0.3351,59.5282],[99.434,0.3134,52.4418],[99.4384,0.3055,51.2502],[99.4492,0.2973,43.8057],[99.4518,0.288,41.288],[99.4684,0.2682,18.7283],[99.4721,0.2533,18.3096],[99.4695,0.2246,19.752],[99.4643,0.1952,5.3396],[99.4677,0.1847,9.7626],[99.4795,0.1661,10.3339],[99.4507,0.1419,0.0],[99.4779,0.1328,3.7458],[99.4944,0.124,0.0],[99.5073,0.1339,2.9943],[99.5191,0.1491,7.8308],[99.5188,0.1546,7.6454],[99.5094,0.1697,5.1164],[99.5083,0.1765,5.6451],[99.4974,0.2055,11.2671],[99.4993,0.2131,9.4706],[99.5047,0.2202,12.0117],[99.505,0.2268,13.4625],[99.5092,0.2351,15.918],[99.518,0.2451,17.3036],[99.5196,0.2507,19.6186],[99.53,0.2583,20.6074],[99.5372,0.261,21.1312],[99.5355,0.2692,28.2208],[99.5373,0.2767,30.1821],[99.5367,0.2848,36.1957],[99.5465,0.2968,52.5392],[99.5572,0.3242,91.2541],[99.559,0.3381,91.5958],[99.5618,0.3447,98.8955],[99.5561,0.3551,185.5052],[99.5553,0.3613,183.6384],[99.5566,0.3772,244.9824],[99.5622,0.3963,312.2301],[99.5602,0.4096,343.6435],[99.5662,0.4198,380.3324],[99.571,0.4256,415.9388],[99.5788,0.4311,456.2715],[99.588,0.443,537.8369],[99.6007,0.4656,712.1025],[99.6016,0.4723,773.0778],[99.5985,0.4979,986.4886],[99.5956,0.5112,1146.3475],[99.5908,0.5167,1174.407],[99.5868,0.5159,1171.0083],[99.5816,0.501,777.9209],[99.5786,0.4977,790.6575],[99.5616,0.485,517.1547],[99.566,0.4731,483.3734],[99.5504,0.4585,399.0192],[99.5493,0.45,353.8705],[99.5512,0.4488,398.1855],[99.5534,0.4421,354.4222],[99.5453,0.4291,322.871],[99.5401,0.4149,285.9351],[99.5267,0.3982,216.0632],[99.503,0.3791,122.3416],[99.4719,0.3628,115.188],[99.4686,0.3568,88.6145],[99.4612,0.3512,66.6963],[99.4412,0.3434,63.7],[99.4261,0.3351,59.5282]]]]}}