{"type":"Feature","properties":{"GID_3":"IDN.10.21.10_1","GID_0":"IDN","country":"Indonesia","GID_1":"IDN.10_1","province":"JawaTengah","NL_NAME_1":"NA","GID_2":"IDN.10.21_1","county":"Pati","NL_NAME_2":"NA","city":"Kayen","VARNAME_3":"NA","NL_NAME_3":"NA","TYPE_3":"Kecamatan","ENGTYPE_3":"Sub-district","CC_3":"3318020","HASC_3":"NA","name":"Kayen.city"},
"geometry":{"type": "MultiPolygon","coordinates": [[[[111.0073,-6.9698,419.0242],[111.0216,-6.9688,468.2842],[111.0296,-6.9721,503.1151],[111.0303,-6.966,498.7888],[111.0342,-6.9587,418.0828],[111.0317,-6.9475,205.4397],[111.0328,-6.93,125.9505],[111.0306,-6.9248,118.1015],[111.0292,-6.9117,38.2995],[111.0254,-6.9043,26.9922],[111.0282,-6.8917,21.8098],[111.0221,-6.8915,19.6269],[111.0149,-6.8876,16.8383],[111.01,-6.8887,16.9402],[111.01,-6.8872,17.1817],[111.0066,-6.8873,16.1222],[111.0016,-6.8836,14.1101],[111.0036,-6.8771,11.6072],[111.004,-6.8632,8.9074],[111.0109,-6.8628,10.6309],[111.0109,-6.8559,9.4246],[111.0166,-6.85,9.4621],[111.0181,-6.8503,9.4621],[111.019,-6.8465,8.6511],[111.0171,-6.844,7.6156],[111.0061,-6.8413,7.2064],[111.0033,-6.8417,6.5048],[111.0027,-6.8452,6.9185],[110.9953,-6.846,5.6077],[110.9824,-6.8418,4.6853],[110.9735,-6.8356,3.5934],[110.9622,-6.8443,3.3563],[110.9474,-6.8499,4.4038],[110.9322,-6.8589,4.2535],[110.9345,-6.8842,3.7042],[110.9451,-6.887,4.338],[110.9521,-6.886,4.2113],[110.9523,-6.894,4.4868],[110.9549,-6.8949,5.1811],[110.9568,-6.9009,6.7834],[110.9608,-6.9014,9.808],[110.9627,-6.9037,9.3891],[110.9625,-6.909,10.3883],[110.9573,-6.9129,12.765],[110.9559,-6.9196,18.9635],[110.9606,-6.9182,16.4612],[110.9611,-6.9221,20.3726],[110.969,-6.9294,53.3253],[110.9685,-6.9385,136.9825],[110.9648,-6.9417,218.1243],[110.9685,-6.9418,159.9888],[110.9722,-6.9451,204.0439],[110.9732,-6.953,190.5517],[110.9787,-6.9577,196.9562],[110.9797,-6.965,350.9345],[110.9786,-6.9674,357.8571],[110.9801,-6.9699,287.6179],[110.9852,-6.9711,266.1372],[111.0005,-6.9689,393.7812],[111.0073,-6.9698,419.0242]]]]}}