{"type":"Feature","properties":{"GID_3":"IDN.14.6.1_1","GID_0":"IDN","country":"Indonesia","GID_1":"IDN.14_1","province":"KalimantanTengah","NL_NAME_1":"NA","GID_2":"IDN.14.6_1","county":"Katingan","NL_NAME_2":"NA","city":"BukitRaya","VARNAME_3":"NA","NL_NAME_3":"NA","TYPE_3":"Kecamatan","ENGTYPE_3":"Sub-district","CC_3":"6209111","HASC_3":"NA","name":"Bukit_Raya.city"},
"geometry":{"type": "MultiPolygon","coordinates": [[[[112.3266,-1.0575,138.3431],[112.3233,-1.0473,147.8004],[112.3217,-1.0287,146.7856],[112.3102,-0.9823,251.5203],[112.3039,-0.9646,158.7313],[112.298,-0.9157,178.2242],[112.2971,-0.874,170.962],[112.2951,-0.8595,164.1512],[112.298,-0.8285,192.4018],[112.3038,-0.8013,195.8203],[112.3019,-0.78,192.8039],[112.3057,-0.7579,263.4211],[112.3059,-0.7339,645.8781],[112.2983,-0.7266,734.0157],[112.2884,-0.7122,547.6791],[112.268,-0.6682,240.5129],[112.2437,-0.6348,329.1757],[112.225,-0.6189,536.7806],[112.2111,-0.6133,1040.6907],[112.1981,-0.6146,648.408],[112.1913,-0.6193,427.3148],[112.1866,-0.6321,652.4175],[112.1832,-0.6364,798.9966],[112.1732,-0.6365,716.934],[112.1656,-0.6491,456.6183],[112.1603,-0.6538,492.476],[112.1587,-0.6583,507.0808],[112.1589,-0.6816,557.5134],[112.1571,-0.6831,548.5862],[112.1526,-0.678,351.0514],[112.1477,-0.6798,207.4667],[112.146,-0.6823,260.7314],[112.1532,-0.7062,588.1219],[112.1618,-0.7235,1120.4822],[112.1588,-0.7273,1146.5248],[112.1548,-0.7289,1059.6423],[112.1796,-0.7761,180.207],[112.181,-0.7962,186.2943],[112.1695,-0.8244,190.5566],[112.121,-0.9245,232.9514],[112.099,-0.9901,152.9456],[112.1133,-1.1665,140.93],[112.34,-1.119,121.8246],[112.3349,-1.086,102.9273],[112.3266,-1.0575,138.3431]]]]}}