{"type":"Feature","properties":{"GID_3":"IDN.12.1.11_1","GID_0":"IDN","country":"Indonesia","GID_1":"IDN.12_1","province":"KalimantanBarat","NL_NAME_1":"NA","GID_2":"IDN.12.1_1","county":"Bengkayang","NL_NAME_2":"NA","city":"Siding","VARNAME_3":"NA","NL_NAME_3":"NA","TYPE_3":"Kecamatan","ENGTYPE_3":"Sub-district","CC_3":"6102081","HASC_3":"NA","name":"Siding.city"},
"geometry":{"type": "MultiPolygon","coordinates": [[[[110.0712,1.1251,799.0279],[110.0732,1.1355,572.6168],[110.0821,1.1448,760.0204],[110.0989,1.1486,509.7422],[110.1023,1.1517,664.9969],[110.1062,1.1587,687.3556],[110.1222,1.1753,899.7319],[110.1283,1.1946,1042.0361],[110.1321,1.1966,998.9678],[110.1072,1.1952,562.8691],[110.0936,1.1985,343.6373],[110.0837,1.215,624.7691],[110.0817,1.2157,466.6352],[110.0683,1.2098,640.9297],[110.0413,1.2047,108.2517],[110.0399,1.2073,114.4518],[110.0423,1.2152,237.6507],[110.0609,1.232,259.6398],[110.0652,1.2393,145.3578],[110.0639,1.2527,284.6656],[110.0602,1.2615,81.4033],[110.0538,1.2666,267.0293],[110.0464,1.2644,67.0801],[110.0429,1.2664,65.1465],[110.0373,1.2735,72.7901],[110.0208,1.2815,55.7243],[110.0039,1.2947,227.8867],[109.9981,1.2955,219.2844],[109.9864,1.294,178.9533],[109.9809,1.2961,298.826],[109.9753,1.3048,206.4973],[109.9647,1.3434,272.3341],[109.9598,1.3422,286.9793],[109.9468,1.3339,73.6917],[109.9297,1.3189,51.361],[109.9082,1.3038,81.523],[109.8896,1.2845,18.4738],[109.8748,1.2661,25.3822],[109.8699,1.2548,26.8592],[109.8569,1.2103,51.9323],[109.8547,1.1951,42.9092],[109.8619,1.1774,48.2043],[109.8748,1.1709,51.5225],[109.915,1.172,57.6896],[109.9211,1.1691,67.7263],[109.9177,1.1551,75.7527],[109.908,1.1384,116.7198],[109.9027,1.1326,55.2253],[109.8952,1.1287,82.9239],[109.871,1.1401,47.5978],[109.8636,1.1322,175.5481],[109.8631,1.1136,344.5032],[109.8565,1.0948,376.5327],[109.8464,1.082,388.3589],[109.8336,1.0698,424.3876],[109.8284,1.0605,393.5216],[109.8391,1.0557,580.7505],[109.8974,1.0429,1013.2221],[109.9124,1.0375,1042.6569],[109.9196,1.0472,942.8218],[109.9276,1.0535,938.8966],[109.9312,1.0527,948.8407],[109.9487,1.0375,1140.1826],[109.9582,1.0316,1087.8539],[109.9639,1.031,933.2936],[109.9793,1.0354,1004.2808],[109.9807,1.0305,1031.2162],[109.9826,1.0294,1087.9381],[109.9881,1.0293,937.7263],[109.9961,1.0262,818.8987],[110.0036,1.0268,767.014],[110.0104,1.024,663.6659],[110.0223,1.0221,620.2562],[110.0328,1.0256,588.7714],[110.0365,1.0192,475.9664],[110.0396,1.0206,459.8416],[110.0438,1.0289,603.1942],[110.0547,1.037,624.681],[110.0907,1.0284,356.6302],[110.0925,1.0268,353.3875],[110.0928,1.0198,397.4326],[110.0993,1.022,356.185],[110.1237,1.0191,354.5397],[110.1301,1.0203,408.4767],[110.1358,1.025,314.5974],[110.1379,1.0316,335.7971],[110.1281,1.0435,327.5319],[110.1154,1.0555,342.9695],[110.1123,1.064,389.7635],[110.1152,1.074,230.931],[110.1261,1.079,270.562],[110.1299,1.0846,237.0941],[110.1296,1.0872,223.668],[110.1265,1.0904,217.2929],[110.1174,1.0936,227.3232],[110.1047,1.1038,168.885],[110.0887,1.1051,270.2238],[110.0812,1.1079,448.587],[110.0734,1.1166,577.3751],[110.0712,1.1251,799.0279]]]]}}