{"type":"Feature","properties":{"GID_3":"IDN.9.6.27_1","GID_0":"IDN","country":"Indonesia","GID_1":"IDN.9_1","province":"JawaBarat","NL_NAME_1":"NA","GID_2":"IDN.9.6_1","county":"Ciamis","NL_NAME_2":"NA","city":"Parigi","VARNAME_3":"NA","NL_NAME_3":"NA","TYPE_3":"Kecamatan","ENGTYPE_3":"Sub-district","CC_3":"3207050","HASC_3":"NA","name":"Parigi.city"},
"geometry":{"type": "MultiPolygon","coordinates": [[[[108.4997,-7.7165,0.4506],[108.5003,-7.7203,0.0],[108.5019,-7.7152,0.5208],[108.5153,-7.7002,0.0],[108.5293,-7.6962,0.0],[108.5312,-7.6931,1.1865],[108.5721,-7.6856,3.2192],[108.5715,-7.6764,11.7349],[108.5693,-7.6754,12.6079],[108.5725,-7.6688,12.8503],[108.5683,-7.6696,4.4921],[108.5671,-7.6673,10.2059],[108.5631,-7.6688,3.1716],[108.5613,-7.6664,12.6674],[108.5588,-7.6668,8.872],[108.5582,-7.6645,13.328],[108.5606,-7.6493,23.958],[108.5643,-7.6415,40.7924],[108.5644,-7.6363,69.6605],[108.5609,-7.6368,78.3866],[108.5604,-7.6345,79.2134],[108.5682,-7.6273,126.5939],[108.5704,-7.6269,124.9726],[108.5652,-7.6264,122.9128],[108.566,-7.6175,190.8947],[108.5586,-7.6168,171.0556],[108.5528,-7.613,161.1292],[108.5501,-7.6047,175.5431],[108.5531,-7.6031,177.3185],[108.5541,-7.5995,176.9504],[108.5489,-7.5903,427.7948],[108.5471,-7.574,531.7842],[108.5653,-7.5703,522.2108],[108.569,-7.5659,409.9197],[108.5712,-7.5663,422.5909],[108.5691,-7.5639,376.9352],[108.5582,-7.5613,289.9782],[108.5495,-7.5569,226.0927],[108.5485,-7.5648,471.1],[108.5447,-7.5698,490.4761],[108.5288,-7.5711,474.478],[108.5271,-7.5684,502.8084],[108.5285,-7.5733,482.1659],[108.5254,-7.5816,269.2817],[108.5217,-7.5847,229.38],[108.5209,-7.5882,255.22],[108.5157,-7.59,202.8413],[108.5142,-7.5924,225.1243],[108.514,-7.5999,194.1331],[108.5187,-7.6029,189.5701],[108.5138,-7.6127,163.4107],[108.5141,-7.615,157.2027],[108.5105,-7.6157,163.911],[108.5024,-7.6239,144.1488],[108.501,-7.6275,130.4323],[108.4974,-7.6274,124.0702],[108.497,-7.6321,115.5838],[108.4982,-7.6323,126.402],[108.4967,-7.6338,117.0719],[108.4899,-7.6365,113.5249],[108.4842,-7.6357,110.9245],[108.4742,-7.6412,123.1432],[108.4716,-7.6378,106.8451],[108.4621,-7.6366,98.9348],[108.4612,-7.6429,96.4172],[108.4574,-7.6427,96.8096],[108.4565,-7.6403,102.6653],[108.4532,-7.6448,130.8825],[108.4513,-7.6435,117.903],[108.4525,-7.6408,107.471],[108.4481,-7.6416,101.927],[108.4466,-7.6434,105.1563],[108.4491,-7.649,105.182],[108.448,-7.6518,101.2268],[108.4502,-7.653,105.0683],[108.4492,-7.6564,90.6551],[108.4515,-7.6582,95.1992],[108.4493,-7.6607,87.5198],[108.4528,-7.6646,87.9798],[108.4483,-7.67,85.4272],[108.4473,-7.6751,119.3391],[108.4511,-7.6761,120.5293],[108.4538,-7.6798,93.64],[108.4585,-7.6772,131.5199],[108.4648,-7.678,93.7876],[108.4758,-7.6838,114.9666],[108.4803,-7.6963,51.9988],[108.4957,-7.7064,10.124],[108.4958,-7.7078,10.124],[108.4917,-7.7097,1.6047],[108.4965,-7.7093,9.7542],[108.4958,-7.7134,1.3242],[108.4997,-7.7165,0.4506]]]]}}