{"type":"Feature","properties":{"GID_3":"IDN.11.9.8_1","GID_0":"IDN","country":"Indonesia","GID_1":"IDN.11_1","province":"JawaTimur","NL_NAME_1":"NA","GID_2":"IDN.11.9_1","county":"Jombang","NL_NAME_2":"NA","city":"Kesamben","VARNAME_3":"NA","NL_NAME_3":"NA","TYPE_3":"Kecamatan","ENGTYPE_3":"Sub-district","CC_3":"3517160","HASC_3":"NA","name":"Kesamben.city"},
"geometry":{"type": "MultiPolygon","coordinates": [[[[112.3543,-7.486,22.9924],[112.3553,-7.4827,22.9856],[112.3604,-7.4846,23.2538],[112.3629,-7.4828,22.5818],[112.3646,-7.4894,23.6948],[112.3706,-7.4901,22.7639],[112.3757,-7.487,22.2994],[112.3765,-7.483,22.2625],[112.3839,-7.4788,21.3812],[112.3891,-7.4804,21.8421],[112.3905,-7.47,22.8635],[112.3927,-7.4673,21.6907],[112.3997,-7.4648,22.6069],[112.4032,-7.4666,23.8559],[112.4027,-7.4627,24.7823],[112.4045,-7.4618,26.2318],[112.3975,-7.4575,22.2405],[112.3812,-7.4589,20.5],[112.3688,-7.4565,23.0378],[112.3582,-7.4576,21.7619],[112.3506,-7.4547,20.5],[112.3428,-7.4597,24.1287],[112.3329,-7.4539,21.7601],[112.3253,-7.4574,21.6047],[112.3194,-7.4461,24.3995],[112.3,-7.4419,25.9631],[112.2892,-7.4338,24.5],[112.2743,-7.4408,25.5],[112.2701,-7.4553,29.0779],[112.2772,-7.4554,26.9527],[112.2794,-7.459,27.209],[112.28,-7.4574,30.1077],[112.2819,-7.4579,28.3797],[112.2797,-7.4717,25.7948],[112.2882,-7.4741,25.2127],[112.2859,-7.4778,25.6475],[112.2853,-7.4873,25.3735],[112.2879,-7.4874,25.1063],[112.2871,-7.4915,25.1966],[112.2914,-7.4926,24.9158],[112.2922,-7.4901,28.8402],[112.2953,-7.4914,25.2997],[112.2966,-7.4901,28.6929],[112.3017,-7.4905,25.7419],[112.3019,-7.4885,27.7927],[112.304,-7.4886,28.7056],[112.3053,-7.4864,27.3171],[112.3098,-7.4887,25.8372],[112.3118,-7.4938,28.7121],[112.3149,-7.4959,24.7155],[112.3158,-7.4939,24.5244],[112.3176,-7.4947,23.9866],[112.3192,-7.4931,26.0656],[112.3233,-7.4953,26.9949],[112.3241,-7.4901,23.778199999999998],[112.3267,-7.4899,23.6505],[112.3267,-7.4978,24.5853],[112.3334,-7.4984,24.1219],[112.3351,-7.4998,24.2887],[112.3347,-7.502,26.0589],[112.3419,-7.502,27.1587],[112.342,-7.5001,26.3171],[112.3488,-7.5035,25.1861],[112.3498,-7.4997,23.9235],[112.3478,-7.4966,25.6334],[112.3478,-7.4893,26.6653],[112.3486,-7.4875,24.2484],[112.3537,-7.488,22.6273],[112.3543,-7.486,22.9924]]]]}}