{"type":"Feature","properties":{"GID_3":"IDN.26.7.11_1","GID_0":"IDN","country":"Indonesia","GID_1":"IDN.26_1","province":"SulawesiSelatan","NL_NAME_1":"NA","GID_2":"IDN.26.7_1","county":"Jeneponto","NL_NAME_2":"NA","city":"Turatea","VARNAME_3":"NA","NL_NAME_3":"NA","TYPE_3":"Kecamatan","ENGTYPE_3":"Sub-district","CC_3":"7304031","HASC_3":"NA","name":"Turatea.city"},
"geometry":{"type": "MultiPolygon","coordinates": [[[[119.7467,-5.6377,43.1259],[119.7512,-5.6373,59.0576],[119.7621,-5.6427,64.4245],[119.772,-5.6367,69.0605],[119.7766,-5.6368,71.7933],[119.7798,-5.6241,86.0899],[119.792,-5.6266,60.8716],[119.7932,-5.6225,81.208],[119.795,-5.6221,84.8349],[119.7977,-5.6059,68.3116],[119.796,-5.6044,79.8244],[119.7975,-5.6012,107.4511],[119.8005,-5.6022,106.5313],[119.7985,-5.598,125.199],[119.793,-5.5928,131.5569],[119.7932,-5.5845,152.818],[119.7892,-5.5792,157.206],[119.7926,-5.5753,172.9481],[119.7835,-5.5675,84.7373],[119.7789,-5.5683,99.3875],[119.7779,-5.5665,83.7734],[119.7789,-5.5614,73.9604],[119.7766,-5.5615,73.0513],[119.7771,-5.5642,73.2389],[119.7749,-5.5655,70.2788],[119.774,-5.5688,69.0612],[119.7692,-5.5696,81.9433],[119.7664,-5.5663,97.5214],[119.755,-5.5676,67.8145],[119.7477,-5.566,81.6447],[119.7391,-5.561,164.4962],[119.7303,-5.5613,39.5398],[119.734,-5.5654,43.9684],[119.7317,-5.5671,35.1176],[119.7339,-5.5748,34.3381],[119.7319,-5.5769,30.9617],[119.734,-5.5792,30.1344],[119.7323,-5.5841,25.868],[119.7368,-5.6016,105.6963],[119.711,-5.6266,81.0139],[119.719,-5.6309,78.2726],[119.7202,-5.6349,38.1436],[119.723,-5.634,20.1828],[119.7318,-5.6362,9.5262],[119.7327,-5.6413,13.5013],[119.7351,-5.6434,8.4463],[119.7397,-5.6439,32.1676],[119.7467,-5.6377,43.1259]]]]}}