{"type":"Feature","properties":{"GID_3":"IDN.10.35.18_1","GID_0":"IDN","country":"Indonesia","GID_1":"IDN.10_1","province":"JawaTengah","NL_NAME_1":"NA","GID_2":"IDN.10.35_1","county":"Wonogiri","NL_NAME_2":"NA","city":"Puhpelem","VARNAME_3":"NA","NL_NAME_3":"NA","TYPE_3":"Kecamatan","ENGTYPE_3":"Sub-district","CC_3":"3312201","HASC_3":"NA","name":"Puhpelem.city"},
"geometry":{"type": "MultiPolygon","coordinates": [[[[111.2808,-7.7891,416.1722],[111.2833,-7.7871,433.1205],[111.2846,-7.7777,516.6439],[111.2936,-7.7607,848.9399],[111.2935,-7.7572,868.7699],[111.291,-7.7551,848.4658],[111.2861,-7.7555,774.8829],[111.2851,-7.7544,721.6707],[111.2891,-7.75,618.1241],[111.2901,-7.7429,531.6802],[111.2868,-7.743,562.2803],[111.2833,-7.7383,605.655],[111.2745,-7.7349,669.1324],[111.2713,-7.7369,702.239],[111.2732,-7.7411,668.3841],[111.2707,-7.7398,686.2848],[111.2665,-7.7416,665.3795],[111.267,-7.7433,644.6167],[111.2652,-7.7442,696.9449],[111.2605,-7.7439,715.3091],[111.2596,-7.7468,660.1906],[111.2545,-7.7457,759.7816],[111.2521,-7.7468,753.3784],[111.2491,-7.742,795.0521],[111.2436,-7.7415,758.062],[111.2386,-7.7511,684.2321],[111.2331,-7.7465,740.7667],[111.2275,-7.7453,841.0652],[111.2248,-7.7409,912.5938],[111.2157,-7.7379,1328.7228],[111.2233,-7.7553,790.7162],[111.2285,-7.7617,705.3767],[111.2325,-7.762,696.9175],[111.2349,-7.7653,634.1056],[111.2417,-7.7669,585.365],[111.2436,-7.7703,569.8276],[111.2457,-7.7706,556.6182],[111.2452,-7.7717,567.7023],[111.2491,-7.772,554.2186],[111.2496,-7.7701,546.9763],[111.2479,-7.7695,551.6714],[111.2501,-7.7682,572.6919],[111.2516,-7.764,590.8717],[111.2535,-7.7636,614.8929],[111.2536,-7.7751,548.4763],[111.2566,-7.7796,505.0754],[111.2553,-7.7817,472.8677],[111.2558,-7.7862,468.362],[111.257,-7.7857,468.362],[111.2594,-7.7879,467.6182],[111.2589,-7.7893,442.4695],[111.2651,-7.7937,421.3407],[111.2638,-7.7946,423.4435],[111.2663,-7.7957,418.473],[111.2664,-7.7979,408.8262],[111.2649,-7.8007,409.9242],[111.2713,-7.8053,368.005],[111.2703,-7.8065,368.1245],[111.2717,-7.8099,355.718],[111.2769,-7.8116,347.1328],[111.2875,-7.8051,488.8616],[111.2937,-7.8106,523.3644],[111.3001,-7.8082,456.0884],[111.2985,-7.8012,385.6228],[111.2899,-7.794,380.701],[111.2856,-7.7942,395.6851],[111.2828,-7.7898,420.1274],[111.2834,-7.7884,406.3342],[111.2808,-7.7891,416.1722]]]]}}