{"type":"Feature","properties":{"GID_3":"IDN.1.14.5_1","GID_0":"IDN","country":"Indonesia","GID_1":"IDN.1_1","province":"Aceh","NL_NAME_1":"NA","GID_2":"IDN.1.14_1","county":"Bireuen","NL_NAME_2":"NA","city":"Juli","VARNAME_3":"NA","NL_NAME_3":"NA","TYPE_3":"Kecamatan","ENGTYPE_3":"Sub-district","CC_3":"1110050","HASC_3":"NA","name":"Juli.city"},
"geometry":{"type": "MultiPolygon","coordinates": [[[[96.6499,4.9568,312.3961],[96.6536,4.9545,277.9635],[96.6574,4.9554,270.631],[96.66,4.971,423.4868],[96.6627,4.9743,286.957],[96.7029,4.9697,453.9081],[96.7197,4.9709,469.2362],[96.7314,4.9689,471.7103],[96.7326,4.9718,430.4042],[96.7398,5.0155,198.9898],[96.7379,5.0506,242.2337],[96.7397,5.0814,112.8671],[96.7447,5.1095,81.3402],[96.7431,5.1169,41.8547],[96.7428,5.1378,156.9365],[96.7464,5.1553,91.7952],[96.7456,5.1604,138.1497],[96.7429,5.1633,110.0485],[96.7289,5.1631,133.59],[96.7288,5.169,107.2636],[96.7254,5.1733,73.0109],[96.7266,5.1796,42.8903],[96.7229,5.1796,44.9527],[96.7202,5.1839,26.2653],[96.7146,5.1861,30.1186],[96.712,5.1916,38.7307],[96.7032,5.1945,19.1621],[96.702,5.1945,20.0617],[96.7024,5.1898,20.5414],[96.6974,5.1896,21.9397],[96.6962,5.1874,40.9919],[96.6921,5.1876,26.4039],[96.6921,5.1895,21.0962],[96.6881,5.1893,15.4305],[96.6903,5.1869,32.9865],[96.6879,5.1798,114.4645],[96.6889,5.1712,65.3914],[96.6858,5.166,126.9871],[96.6796,5.1346,207.9334],[96.6588,5.1387,223.6239],[96.6541,5.1332,165.968],[96.6533,5.1183,62.3912],[96.6498,5.1131,64.6149],[96.6548,5.1106,77.1957],[96.6564,5.1072,75.4798],[96.6556,5.1014,81.4306],[96.6603,5.0925,68.2383],[96.6672,5.0903,74.2897],[96.667,5.0886,78.5318],[96.6605,5.0845,77.5758],[96.6588,5.0734,87.5785],[96.6544,5.0697,87.6012],[96.6545,5.0658,94.1497],[96.6583,5.0626,102.2788],[96.658,5.0609,116.3712],[96.6479,5.0581,270.108],[96.6194,5.063,151.0445],[96.6137,5.0624,166.5126],[96.6041,5.0461,209.1694],[96.6001,5.0321,227.1081],[96.5943,5.0216,155.0845],[96.5943,5.0197,151.5345],[96.6036,5.0107,158.2668],[96.6034,5.0047,177.2848],[96.6,5.0014,180.2307],[96.6002,4.9992,181.2772],[96.5971,4.9985,185.8692],[96.5992,4.9956,184.5862],[96.5978,4.9951,195.1248],[96.5985,4.9901,201.622],[96.5968,4.9886,197.8564],[96.5956,4.9826,212.5172],[96.5957,4.973,258.3621],[96.5993,4.9665,332.909],[96.6069,4.9602,487.7485],[96.6069,4.9559,492.3467],[96.6087,4.9537,392.9683],[96.6164,4.9539,331.4885],[96.6169,4.9564,337.1455],[96.6219,4.9535,318.9078],[96.6292,4.954,320.9175],[96.6286,4.955,320.9175],[96.6344,4.9544,309.8247],[96.6384,4.9561,341.2139],[96.644,4.9559,320.7024],[96.6441,4.9532,301.9947],[96.6472,4.9522,308.6107],[96.6453,4.9565,311.8358],[96.649,4.9555,302.7691],[96.6499,4.9568,312.3961]]]]}}