{"type":"Feature","properties":{"GID_2":"IDN.32.34_1","GID_0":"IDN","country":"Indonesia","GID_1":"IDN.32_1","province":"SumateraUtara","NL_NAME_1":"NA","county":"TobaSamosir","VARNAME_2":"NA","NL_NAME_2":"NA","TYPE_2":"Kabupaten","ENGTYPE_2":"Regency","CC_2":"1206","HASC_2":"ID.SU.TR","name":"Toba_Samosir.county"},
"geometry":{"type": "MultiPolygon","coordinates": [[[[99.263,2.1222,1138.9352],[99.2775,2.1144,1116.2557],[99.2919,2.1117,1194.4122],[99.2972,2.1161,1201.9734],[99.3045,2.1177,1185.4354],[99.315,2.123,1061.1344],[99.321,2.1223,941.8463],[99.327,2.1243,1032.3274],[99.3344,2.1233,1001.1271],[99.3421,2.1299,1312.9688],[99.3655,2.143,1407.7522],[99.3694,2.1436,1367.33],[99.3819,2.1666,1692.7137],[99.3923,2.169,1942.5472],[99.3933,2.1654,1745.7189],[99.4092,2.1828,1655.0143],[99.4173,2.1994,1048.8152],[99.4156,2.2109,1093.5681],[99.4171,2.2134,1073.4854],[99.4229,2.2157,1025.2244],[99.4358,2.2174,782.5172],[99.4649,2.2291,1000.687],[99.4741,2.2337,870.9115],[99.4762,2.2393,795.691],[99.482,2.2427,709.2625],[99.4969,2.2433,642.4199],[99.501,2.247,628.608],[99.5224,2.2417,661.369],[99.53,2.2467,605.2818],[99.537,2.2481,575.2172],[99.5381,2.25,515.8023],[99.5363,2.2555,477.7142],[99.5346,2.2563,472.6744],[99.5402,2.2594,449.4946],[99.5425,2.2658,431.4088],[99.5469,2.2684,418.8179],[99.5456,2.2718,406.9535],[99.5466,2.2838,386.0157],[99.5448,2.293,370.6394],[99.5489,2.3069,332.2277],[99.5557,2.3096,305.1042],[99.5611,2.3023,281.6545],[99.5642,2.3065,271.5255],[99.5774,2.3073,226.8984],[99.5849,2.3132,231.0278],[99.5828,2.3281,181.6897],[99.5515,2.3365,395.0285],[99.5331,2.3435,290.4493],[99.5198,2.3513,234.4337],[99.5211,2.3549,250.0523],[99.5196,2.3595,225.8147],[99.5204,2.3634,209.5489],[99.5176,2.3665,224.9812],[99.5174,2.3723,200.287],[99.5188,2.3762,182.5402],[99.523,2.3785,181.6817],[99.5211,2.3871,193.6958],[99.5241,2.3886,174.7922],[99.5232,2.3944,167.0675],[99.5264,2.4035,127.4249],[99.5271,2.4132,114.941],[99.5256,2.4174,110.7229],[99.5276,2.4322,96.023],[99.5231,2.4349,98.2217],[99.5197,2.4408,78.859],[99.5225,2.4461,117.0075],[99.5279,2.4499,61.4495],[99.5238,2.4568,55.0192],[99.524,2.4603,80.8809],[99.519,2.4551,80.3728],[99.512,2.4397,129.5979],[99.514,2.431,129.6935],[99.5176,2.4248,139.7254],[99.5173,2.4189,163.703],[99.5159,2.4165,168.4386],[99.5117,2.4166,165.6912],[99.5098,2.4143,158.4122],[99.5109,2.411,161.871],[99.5172,2.4059,165.9305],[99.517,2.4026,163.0703],[99.5196,2.3994,156.2585],[99.5166,2.3982,149.3782],[99.5156,2.3956,164.1413],[99.5099,2.3968,212.6602],[99.5031,2.3953,236.7003],[99.4192,2.46,989.9709],[99.4398,2.489,211.7066],[99.4462,2.4939,189.2292],[99.4506,2.5018,142.7159],[99.4493,2.505,98.2868],[99.4525,2.5403,178.1842],[99.4612,2.5508,152.4191],[99.4429,2.5625,195.7494],[99.4558,2.5762,173.3375],[99.4585,2.6008,106.5545],[99.4458,2.5936,125.9446],[99.4448,2.5868,146.8412],[99.446,2.5823,165.6214],[99.4435,2.5779,170.5776],[99.4328,2.568,182.601],[99.4267,2.5704,186.2139],[99.4214,2.5635,188.9542],[99.4154,2.5605,289.794],[99.41,2.5618,309.367],[99.4105,2.5669,311.4867],[99.4205,2.5899,146.5657],[99.4264,2.5952,131.2131],[99.4257,2.5976,100.2284],[99.4055,2.5901,161.2948],[99.3974,2.5824,186.4849],[99.3911,2.5666,150.7043],[99.3863,2.5638,146.0164],[99.3832,2.5655,178.4096],[99.3793,2.5647,122.7594],[99.3733,2.5686,144.5404],[99.3685,2.5683,158.9548],[99.3648,2.5656,165.0051],[99.3632,2.5661,201.7962],[99.3597,2.5623,169.7503],[99.3488,2.5604,278.8441],[99.3454,2.5635,201.4214],[99.3422,2.5624,194.4565],[99.3418,2.5645,238.4214],[99.3266,2.5662,230.6517],[99.3246,2.5642,231.9369],[99.3177,2.5632,268.4337],[99.3146,2.5593,263.6486],[99.3137,2.5618,283.7405],[99.3106,2.5618,283.2663],[99.3088,2.5541,294.422],[99.3085,2.5741,726.8586],[99.3039,2.5743,885.9351],[99.2934,2.564,866.8073],[99.2852,2.559,809.4683],[99.277,2.55,962.9098],[99.2675,2.5493,1069.6685],[99.2554,2.5407,1000.4777],[99.2478,2.5394,1078.0393],[99.2387,2.5445,1168.7587],[99.2304,2.5448,1374.1798],[99.219,2.5367,1549.0005],[99.2136,2.5237,1475.7147],[99.2075,2.5295,1422.0281],[99.1837,2.5329,1750.8074],[99.1817,2.5389,1733.7634],[99.1811,2.5526,1760.8029],[99.1771,2.5571,1794.3105],[99.1673,2.5608,1785.2615],[99.1614,2.568,1599.2283],[99.1571,2.5681,1502.0604],[99.1454,2.5731,1396.0193],[99.14,2.572,1409.4152],[99.132,2.567,1436.0591],[99.1253,2.569,1562.8685],[99.1176,2.5688,1806.5632],[99.1137,2.5735,1784.7787],[99.1012,2.5719,1753.8003],[99.0981,2.5729,1944.1204],[99.0874,2.5818,2143.7341],[99.0765,2.595,2126.5076],[99.0741,2.6046,2081.1675],[99.0641,2.6112,1743.5428],[99.0495,2.629,1681.7903],[99.0423,2.6337,1718.7063],[99.0392,2.6291,1838.0227],[99.0282,2.6192,1459.5146],[99.0155,2.6138,1293.7933],[99.0068,2.6137,1269.6642],[99.0048,2.6102,1287.1616],[99.0003,2.6101,1307.2234],[99.0001,2.6119,1284.8163],[98.9986,2.6115,1276.4714],[98.9919,2.6026,1316.95],[98.9772,2.6016,1278.4741],[98.961,2.6139,1245.9294],[98.9631,2.6211,1206.7452],[98.9622,2.6259,1188.4719],[98.9567,2.6348,1146.3091],[98.9582,2.6471,1056.4515],[98.9453,2.653,947.998],[98.9362,2.6595,928.5152],[98.9332,2.6584,901.0],[98.932,2.6519,916.0457],[98.9248,2.6538,901.0],[98.9165,2.6386,903.6724],[98.908,2.6287,901.0],[98.9128,2.6221,930.916],[98.9133,2.6127,904.0588],[98.9171,2.6032,901.0],[98.9155,2.5985,909.4945],[98.9175,2.5972,913.9287],[98.9232,2.6015,902.8393],[98.9277,2.5998,903.142],[98.9239,2.5932,901.0],[98.924,2.5858,904.0936],[98.9259,2.584,901.0],[98.9319,2.583,901.0],[98.9349,2.578,901.0],[98.941,2.5756,901.0],[98.9462,2.5679,916.5796],[98.9491,2.5678,909.6574],[98.9481,2.5644,921.1093],[98.9497,2.5631,907.1143],[98.9543,2.5624,901.0],[98.9519,2.5669,924.4878],[98.953,2.5686,909.4229],[98.9607,2.5674,915.1251],[98.9636,2.5648,901.0],[98.9656,2.5656,908.3641],[98.9735,2.5533,901.0],[98.9786,2.5552,903.4987],[98.9803,2.561,938.2559],[98.9833,2.5584,933.1179],[98.9828,2.5512,922.1157],[98.9871,2.5478,901.0],[98.9888,2.5417,914.3875],[98.9956,2.5408,901.0],[98.9915,2.5484,908.4707],[98.9935,2.5505,907.0594],[99.0042,2.5425,910.7982],[99.0085,2.5369,938.2137],[99.0079,2.5324,943.187],[99.0114,2.5282,901.0],[99.0284,2.5208,912.171],[99.0335,2.5239,936.4517],[99.0317,2.5219,901.0],[99.0321,2.5167,931.0574],[99.0405,2.5115,901.0],[99.0393,2.5092,907.5027],[99.0359,2.5096,901.0],[99.0393,2.5013,901.0],[99.0428,2.4986,920.9833],[99.0483,2.489,901.0],[99.0491,2.4802,906.2964],[99.046,2.4753,901.0],[99.0461,2.4701,901.0],[99.0477,2.4674,908.97],[99.051,2.4661,1152.772],[99.0487,2.4643,903.9221],[99.0487,2.4595,908.8186],[99.0524,2.457,904.5659],[99.0542,2.452,901.0],[99.0576,2.4484,901.0],[99.0541,2.4441,901.0],[99.0585,2.4429,901.0],[99.0539,2.43,901.0],[99.0532,2.4221,1011.3643],[99.0473,2.4137,964.2997],[99.0448,2.414,901.0],[99.0449,2.4123,948.5296],[99.0417,2.41,901.0],[99.0437,2.4082,908.7065],[99.0434,2.4041,904.8305],[99.0483,2.3956,903.2427],[99.0589,2.3987,907.9741],[99.0649,2.397,901.0],[99.0683,2.4018,901.0],[99.0751,2.4025,906.6954],[99.0779,2.4059,906.392],[99.0847,2.4071,911.1296],[99.0903,2.4101,902.7711],[99.0965,2.4093,907.9739],[99.0989,2.406,901.0],[99.0998,2.4101,907.6646],[99.1036,2.4144,905.0442],[99.1147,2.4169,901.0],[99.114,2.4219,905.3116],[99.1183,2.4232,903.3389],[99.1213,2.4325,903.8427],[99.13,2.438,903.3264],[99.1322,2.4363,901.0],[99.136,2.4379,905.223],[99.1375,2.434,903.9437],[99.1446,2.4359,905.9702],[99.1512,2.4291,903.973],[99.1545,2.4197,905.2787],[99.1544,2.4099,904.9417],[99.1517,2.4036,906.1191],[99.1532,2.3991,903.2175],[99.1518,2.396,905.384],[99.1501,2.3957,901.8954],[99.1515,2.3917,913.0115],[99.1475,2.3846,921.3318],[99.1322,2.3728,906.6797],[99.1267,2.3722,906.6564],[99.1222,2.3746,907.8653],[99.1223,2.3791,904.4021],[99.114,2.3759,906.3046],[99.1156,2.3737,906.8942],[99.1154,2.3699,907.2113],[99.1099,2.3593,906.1631],[99.1074,2.3577,905.2672],[99.1058,2.3614,901.6208],[99.1003,2.355,906.3206],[99.0849,2.3524,901.0],[99.0839,2.3512,901.0],[99.0856,2.3489,907.0085],[99.0828,2.3448,904.2703],[99.0795,2.345,906.0079],[99.0737,2.349,901.0],[99.0696,2.3475,903.6282],[99.0629,2.3416,903.8515],[99.062,2.3363,903.833],[99.0575,2.335,903.6122],[99.0419,2.3499,929.2012],[99.0373,2.3497,929.2731],[99.0367,2.3549,918.5255],[99.03,2.3639,901.0],[99.0283,2.3639,901.0],[99.0258,2.3619,901.0],[99.0256,2.3537,960.6066],[99.0225,2.3492,915.6035],[99.0147,2.3469,901.0],[99.0147,2.3413,901.0],[99.0127,2.3396,906.687],[99.008,2.3421,901.0],[99.0086,2.3395,905.7733],[99.0029,2.3378,901.0],[99.0047,2.3342,901.0],[99.0036,2.3266,910.1411],[98.9991,2.3215,915.6459],[98.9966,2.3221,985.137],[98.9922,2.3285,976.5217],[98.9893,2.3371,901.0],[98.9936,2.3047,1336.7405],[98.9993,2.2812,1408.1504],[99.0053,2.2684,1385.1038],[99.0022,2.2535,1403.6797],[99.0253,2.253,1398.1448],[99.0327,2.2544,1397.1755],[99.0579,2.2694,1389.0917],[99.0647,2.2704,1380.9919],[99.067,2.2723,1394.397],[99.0843,2.2722,1436.5793],[99.0957,2.2676,1446.1766],[99.0968,2.2609,1413.9346],[99.1027,2.2551,1438.5996],[99.1183,2.2562,1446.6431],[99.1252,2.2593,1427.3932],[99.129,2.256,1410.8145],[99.1377,2.2566,1403.4924],[99.1584,2.2393,1498.179],[99.1582,2.2374,1499.2561],[99.1601,2.2361,1500.4613],[99.1793,2.2317,1461.3446],[99.1988,2.2309,1496.5815],[99.2121,2.2129,1541.6938],[99.2108,2.2025,1445.1029],[99.2124,2.1982,1468.3215],[99.2106,2.1969,1424.9043],[99.2124,2.1947,1435.261],[99.2118,2.1906,1392.741],[99.2133,2.1876,1371.4076],[99.2126,2.186,1340.4523],[99.208,2.1863,1334.439],[99.2163,2.1703,1330.5938],[99.2272,2.1559,1288.9803],[99.233,2.1514,1258.3685],[99.2352,2.1452,1242.005],[99.2474,2.1272,1218.9301],[99.2584,2.1225,1177.5663],[99.263,2.1222,1138.9352]]],
[[[99.4585,2.6008,106.5545],[99.4584,2.6009,106.5545],[99.4581,2.6011,106.5545],[99.4585,2.6008,106.5545]]]]}}