{"type":"Feature","properties":{"GID_3":"IDN.4.6.18_1","GID_0":"IDN","country":"Indonesia","GID_1":"IDN.4_1","province":"Banten","NL_NAME_1":"NA","GID_2":"IDN.4.6_1","county":"Serang","NL_NAME_2":"NA","city":"Mancak","VARNAME_3":"NA","NL_NAME_3":"NA","TYPE_3":"Kecamatan","ENGTYPE_3":"Sub-district","CC_3":"3604190","HASC_3":"NA","name":"Mancak.city"},
"geometry":{"type": "MultiPolygon","coordinates": [[[[105.9307,-6.1751,174.1514],[105.9321,-6.1791,89.8261],[105.934,-6.1751,89.1388],[105.9372,-6.1737,93.7548],[105.9384,-6.1763,90.9678],[105.9408,-6.1764,89.6814],[105.9466,-6.1721,92.7217],[105.949,-6.1678,93.5438],[105.9539,-6.1654,88.9897],[105.9611,-6.1691,94.79],[105.9661,-6.1652,94.312],[105.9688,-6.1652,95.3358],[105.9822,-6.158,90.9969],[105.9939,-6.1539,90.3044],[105.9958,-6.151,91.0457],[105.9991,-6.1353,268.6428],[105.9984,-6.1293,345.0262],[106.0036,-6.1249,290.6789],[106.0035,-6.1223,268.4836],[106.0048,-6.1231,294.137],[106.0094,-6.1201,277.2144],[106.0055,-6.1181,275.7184],[106.0066,-6.1149,252.034],[106.0195,-6.1143,263.5339],[106.0278,-6.1077,197.2644],[106.0391,-6.113,316.9031],[106.0408,-6.1085,369.7647],[106.0469,-6.1047,459.7808],[106.051,-6.0996,334.0925],[106.0448,-6.0863,190.3027],[106.0411,-6.084,155.6819],[106.0349,-6.0839,90.7251],[106.0365,-6.0808,73.5655],[106.034,-6.0793,83.5412],[106.0202,-6.0782,93.1564],[106.0214,-6.0718,69.5049],[106.0198,-6.0709,73.9882],[106.0197,-6.0649,69.9235],[106.0219,-6.0632,56.4445],[106.0207,-6.0623,61.3594],[106.0227,-6.0624,60.4466],[106.0222,-6.0605,55.1236],[106.0237,-6.0605,55.1236],[106.0229,-6.0585,48.5907],[106.0239,-6.0592,48.5907],[106.0251,-6.0579,52.2507],[106.0234,-6.0574,45.6923],[106.0271,-6.054,46.656],[106.0261,-6.05,47.4143],[106.03,-6.0476,38.1602],[106.0288,-6.0454,40.3272],[106.0303,-6.0445,38.4571],[106.0304,-6.0407,31.8708],[106.0177,-6.0394,44.1872],[106.0151,-6.0429,53.6896],[106.0111,-6.0422,53.4677],[106.0097,-6.04,52.8256],[106.0075,-6.0461,53.4886],[106.003,-6.0464,54.574],[105.9938,-6.0404,37.9658],[105.9913,-6.0406,31.7564],[105.9914,-6.0425,50.7879],[105.9882,-6.0426,29.3406],[105.9879,-6.038,23.2391],[105.9844,-6.0372,39.6333],[105.9838,-6.0393,41.369],[105.9807,-6.0399,27.6908],[105.9812,-6.0447,40.7778],[105.9875,-6.0506,73.2116],[105.9878,-6.0533,96.157],[105.9845,-6.055,95.2594],[105.9759,-6.0519,63.7975],[105.9757,-6.0539,72.9608],[105.9734,-6.0537,61.1217],[105.9718,-6.0524,44.4881],[105.9728,-6.0501,46.9304],[105.9711,-6.0494,36.9576],[105.9691,-6.052,62.2889],[105.9691,-6.0551,82.6745],[105.9641,-6.058,253.4541],[105.9644,-6.0615,120.2414],[105.9618,-6.0668,55.0246],[105.9517,-6.0703,36.3993],[105.9503,-6.0782,78.456],[105.9535,-6.0811,94.4523],[105.9539,-6.08,94.4523],[105.9555,-6.0816,106.8259],[105.9588,-6.081,92.3477],[105.9602,-6.0874,139.9155],[105.9523,-6.0949,206.2513],[105.9492,-6.0952,235.2332],[105.9499,-6.0977,261.5847],[105.9421,-6.1078,553.2175],[105.9476,-6.1113,559.0123],[105.9484,-6.1164,598.8661],[105.9531,-6.1242,626.3322],[105.9513,-6.1266,580.6559],[105.952,-6.1337,577.1425],[105.9501,-6.1386,628.9406],[105.9511,-6.1447,609.508],[105.9391,-6.1567,393.5436],[105.9311,-6.1594,391.8532],[105.9307,-6.1751,174.1514]]]]}}