{"type":"Feature","properties":{"GID_3":"IDN.11.6.5_1","GID_0":"IDN","country":"Indonesia","GID_1":"IDN.11_1","province":"JawaTimur","NL_NAME_1":"NA","GID_2":"IDN.11.6_1","county":"Bondowoso","NL_NAME_2":"NA","city":"CurahDami","VARNAME_3":"NA","NL_NAME_3":"NA","TYPE_3":"Kecamatan","ENGTYPE_3":"Sub-district","CC_3":"3511110","HASC_3":"NA","name":"Curah_Dami.city"},
"geometry":{"type": "MultiPolygon","coordinates": [[[[113.792,-7.9393,305.1239],[113.7929,-7.9373,294.4874],[113.7991,-7.9373,287.7183],[113.8026,-7.9341,276.8796],[113.8032,-7.9255,274.2644],[113.8055,-7.9193,277.3405],[113.8039,-7.9187,280.0247],[113.8054,-7.9146,283.2304],[113.8072,-7.9141,280.5822],[113.8066,-7.9096,271.9917],[113.8086,-7.9017,281.0385],[113.8054,-7.8963,303.1593],[113.8077,-7.8914,302.4089],[113.8056,-7.8814,422.8769],[113.7934,-7.8788,397.4248],[113.7887,-7.8811,426.9678],[113.7891,-7.8871,371.5193],[113.7854,-7.8996,334.5211],[113.7832,-7.9014,352.2131],[113.781,-7.9007,350.7593],[113.7816,-7.9082,339.6009],[113.7703,-7.908,378.036],[113.7695,-7.9101,392.8524],[113.7613,-7.9115,451.8813],[113.7601,-7.9145,480.5915],[113.7506,-7.9181,635.2511],[113.7432,-7.923,796.8534],[113.7408,-7.9263,851.5817],[113.7366,-7.9277,987.6489],[113.7265,-7.9373,1381.5601],[113.7225,-7.9381,1423.0135],[113.724,-7.9404,1270.6766],[113.7314,-7.9435,1307.0461],[113.7283,-7.9481,1063.9512],[113.7333,-7.9545,1118.5267],[113.7428,-7.9585,900.1097],[113.7447,-7.9613,845.891],[113.7513,-7.9637,653.9388],[113.7566,-7.9684,549.3583],[113.7689,-7.9641,440.998],[113.7728,-7.9592,398.1159],[113.7776,-7.9578,377.4348],[113.779,-7.9555,368.4589],[113.7782,-7.9651,400.2363],[113.7933,-7.9696,327.2542],[113.7937,-7.9685,327.998],[113.7955,-7.9692,323.5997],[113.8021,-7.9551,301.067],[113.8032,-7.949,289.6513],[113.8017,-7.9468,289.5057],[113.7955,-7.9484,305.8673],[113.7918,-7.9458,311.5779],[113.792,-7.9393,305.1239]]]]}}