{"type":"Feature","properties":{"GID_3":"IDN.28.11.3_1","GID_0":"IDN","country":"Indonesia","GID_1":"IDN.28_1","province":"SulawesiTenggara","NL_NAME_1":"NA","GID_2":"IDN.28.11_1","county":"Muna","NL_NAME_2":"NA","city":"Batukara","VARNAME_3":"NA","NL_NAME_3":"NA","TYPE_3":"Kecamatan","ENGTYPE_3":"Sub-district","CC_3":"7402112","HASC_3":"NA","name":"Batukara.city"},
"geometry":{"type": "MultiPolygon","coordinates": [[[[122.922,-4.8729,451.0623],[122.9247,-4.8578,437.1759],[122.9238,-4.8374,370.346],[122.9158,-4.8045,213.1665],[122.9185,-4.7455,106.4317],[122.8425,-4.7425,14.833],[122.8481,-4.7531,0.0],[122.8477,-4.7601,0.0],[122.8508,-4.7653,24.3929],[122.8489,-4.7663,0.0],[122.8555,-4.77,46.1002],[122.8542,-4.7725,3.2615],[122.8574,-4.7798,6.3105],[122.8558,-4.7861,0.0],[122.8519,-4.7944,2.0164],[122.8461,-4.8004,0.0],[122.8447,-4.8185,17.4092],[122.8399,-4.8353,1.5712],[122.8321,-4.8384,4.3527],[122.8161,-4.8282,0.0],[122.8131,-4.8289,0.0],[122.8169,-4.8316,11.3965],[122.8185,-4.8386,7.0083],[122.8131,-4.8491,0.0],[122.8124,-4.8568,1.7281],[122.8104,-4.8571,1.0211],[122.8081,-4.8606,3.9589],[122.8089,-4.8634,1.7904],[122.806,-4.868,0.0],[122.8211,-4.8799,0.0],[122.9166,-4.8843,295.887],[122.922,-4.8729,451.0623]]]]}}