{"type":"Feature","properties":{"GID_3":"IDN.1.3.12_1","GID_0":"IDN","country":"Indonesia","GID_1":"IDN.1_1","province":"Aceh","NL_NAME_1":"NA","GID_2":"IDN.1.3_1","county":"AcehBesar","NL_NAME_2":"NA","city":"KutaMalaka","VARNAME_3":"NA","NL_NAME_3":"NA","TYPE_3":"Kecamatan","ENGTYPE_3":"Sub-district","CC_3":"1108101","HASC_3":"NA","name":"Kuta_Malaka.city"},
"geometry":{"type": "MultiPolygon","coordinates": [[[[95.3854,5.3929,147.0632],[95.3959,5.3996,104.2082],[95.4049,5.4161,46.4715],[95.4017,5.4239,32.1244],[95.4035,5.4272,28.792],[95.4025,5.4292,28.6564],[95.4081,5.4308,19.2309],[95.4073,5.4356,17.0413],[95.4109,5.4439,15.9786],[95.4065,5.4485,18.3762],[95.4085,5.4545,8.8852],[95.4049,5.4553,8.4755],[95.4039,5.4576,7.6695],[95.4118,5.4632,12.7753],[95.4127,5.4664,15.7407],[95.4105,5.4691,17.0396],[95.4,5.461,10.1337],[95.3972,5.4548,20.3382],[95.3955,5.4566,18.8297],[95.3925,5.4539,14.8306],[95.3945,5.4517,13.8006],[95.3934,5.4498,15.9737],[95.391,5.45,14.1977],[95.3831,5.4393,13.6832],[95.3781,5.3968,275.6024],[95.3785,5.3922,186.9529],[95.3854,5.3929,147.0632]]]]}}