{"type":"Feature","properties":{"GID_3":"IDN.12.2.10_1","GID_0":"IDN","country":"Indonesia","GID_1":"IDN.12_1","province":"KalimantanBarat","NL_NAME_1":"NA","GID_2":"IDN.12.2_1","county":"KapuasHulu","NL_NAME_2":"NA","city":"Empanang","VARNAME_3":"NA","NL_NAME_3":"NA","TYPE_3":"Kecamatan","ENGTYPE_3":"Sub-district","CC_3":"6108180","HASC_3":"NA","name":"Empanang.city"},
"geometry":{"type": "MultiPolygon","coordinates": [[[[111.8773,0.7952,55.0653],[111.8686,0.7994,58.9894],[111.8541,0.8098,39.8317],[111.845,0.8245,56.5602],[111.8442,0.8662,38.4617],[111.8418,0.888,45.1798],[111.8342,0.9097,82.6895],[111.8251,0.9248,385.5396],[111.821,0.9372,703.8797],[111.8072,0.9348,326.3779],[111.7868,0.9414,105.2572],[111.7779,0.9426,73.0478],[111.7687,0.9381,57.5552],[111.7514,0.9407,73.2018],[111.738,0.9365,115.3972],[111.6812,0.8944,103.8536],[111.6707,0.8804,61.2584],[111.6679,0.8613,216.6641],[111.6673,0.8417,198.5679],[111.6725,0.8315,185.3504],[111.6763,0.8135,112.3689],[111.682,0.8092,80.5491],[111.701,0.7998,78.2307],[111.7266,0.781,104.0625],[111.7412,0.7648,144.0439],[111.7475,0.753,125.9436],[111.7489,0.7464,138.7034],[111.7612,0.7392,73.4742],[111.7714,0.7376,78.5876],[111.7846,0.7393,41.4757],[111.8116,0.7391,48.7187],[111.8199,0.7406,42.3407],[111.8316,0.7509,32.1075],[111.8395,0.7535,36.3163],[111.8476,0.7535,38.7998],[111.8528,0.7525,50.1606],[111.8697,0.7371,60.5434],[111.8773,0.7326,55.5903],[111.8873,0.7291,42.3849],[111.909,0.7257,36.3632],[111.9181,0.7261,35.5429],[111.9334,0.7298,36.1206],[111.94,0.7441,21.1892],[111.9402,0.7538,22.0156],[111.9463,0.7649,21.4778],[111.9202,0.7813,34.3459],[111.8773,0.7952,55.0653]]]]}}