{"type":"Feature","properties":{"GID_3":"IDN.13.6.8_1","GID_0":"IDN","country":"Indonesia","GID_1":"IDN.13_1","province":"KalimantanSelatan","NL_NAME_1":"NA","GID_2":"IDN.13.6_1","county":"HuluSungaiSelatan","NL_NAME_2":"NA","city":"PadangBatung","VARNAME_3":"NA","NL_NAME_3":"NA","TYPE_3":"Kecamatan","ENGTYPE_3":"Sub-district","CC_3":"6306010","HASC_3":"NA","name":"Padang_Batung.city"},
"geometry":{"type": "MultiPolygon","coordinates": [[[[115.2886,-2.8032,17.3226],[115.2889,-2.8085,18.1463],[115.2699,-2.8126,19.963],[115.2656,-2.8053,19.6735],[115.2634,-2.828,15.2596],[115.2705,-2.8301,17.5185],[115.2796,-2.8406,115.6244],[115.279,-2.8431,115.2722],[115.2697,-2.849,130.8383],[115.264,-2.8585,58.3874],[115.2646,-2.8631,57.8112],[115.2682,-2.8677,59.2997],[115.2744,-2.8702,82.1687],[115.274,-2.8718,64.8031],[115.2697,-2.8728,88.786],[115.2699,-2.8753,86.6584],[115.2635,-2.8842,81.1427],[115.2567,-2.8892,90.7962],[115.2589,-2.8923,73.7708],[115.2629,-2.8929,58.4171],[115.267,-2.8965,56.7345],[115.2698,-2.9037,70.9271],[115.2809,-2.9177,69.0125],[115.2826,-2.9299,74.7921],[115.2869,-2.9298,87.0343],[115.2964,-2.9333,136.4296],[115.3012,-2.924,127.4664],[115.3059,-2.9235,131.8797],[115.3177,-2.9252,113.344],[115.3219,-2.9359,138.5043],[115.3314,-2.9332,161.0435],[115.3349,-2.934,208.1822],[115.3377,-2.9372,301.3451],[115.3419,-2.9376,363.3139],[115.354,-2.9352,505.3025],[115.3659,-2.926,619.9312],[115.3784,-2.919,505.899],[115.381,-2.9167,561.7169],[115.3846,-2.9068,251.41],[115.3838,-2.9031,239.4817],[115.3761,-2.8975,383.1379],[115.3753,-2.8943,380.7406],[115.3832,-2.8791,434.8061],[115.3799,-2.8711,315.0454],[115.38,-2.8664,308.3472],[115.3762,-2.8596,190.824],[115.3676,-2.8549,286.7464],[115.3652,-2.8477,155.6583],[115.3577,-2.8385,85.0474],[115.3585,-2.8316,123.6346],[115.3659,-2.8176,142.1971],[115.3786,-2.7832,128.6154],[115.3714,-2.7815,156.4617],[115.3586,-2.7841,92.5152],[115.3527,-2.7837,151.9053],[115.3486,-2.7734,70.9422],[115.3466,-2.7719,60.8403],[115.3234,-2.7653,28.6051],[115.3212,-2.7641,20.5931],[115.3199,-2.7598,25.4374],[115.3042,-2.762,15.2204],[115.3001,-2.7544,8.2697],[115.287,-2.7532,7.9719],[115.2796,-2.755,16.799],[115.2784,-2.7613,16.5621],[115.2807,-2.7692,18.1302],[115.2745,-2.7709,11.2851],[115.2751,-2.7791,10.8878],[115.2807,-2.7881,15.1981],[115.2904,-2.796,17.6931],[115.29,-2.7973,17.3917],[115.2867,-2.7975,16.4171],[115.287,-2.7999,21.3536],[115.2893,-2.8003,14.5369],[115.2886,-2.8032,17.3226]]]]}}