{"type":"Feature","properties":{"GID_3":"IDN.13.7.10_1","GID_0":"IDN","country":"Indonesia","GID_1":"IDN.13_1","province":"KalimantanSelatan","NL_NAME_1":"NA","GID_2":"IDN.13.7_1","county":"HuluSungaiTengah","NL_NAME_2":"NA","city":"Limpasu","VARNAME_3":"NA","NL_NAME_3":"NA","TYPE_3":"Kecamatan","ENGTYPE_3":"Sub-district","CC_3":"6307091","HASC_3":"NA","name":"Limpasu.city"},
"geometry":{"type": "MultiPolygon","coordinates": [[[[115.4622,-2.5207,31.5512],[115.4661,-2.5215,27.3397],[115.4739,-2.5278,24.0375],[115.4909,-2.531,25.8833],[115.5,-2.5306,44.1638],[115.5131,-2.5251,202.4731],[115.5199,-2.5112,260.2494],[115.5287,-2.5014,243.3245],[115.5298,-2.4965,230.04],[115.5336,-2.4953,221.6764],[115.5453,-2.4806,166.4516],[115.5514,-2.4835,89.3617],[115.5514,-2.4784,120.9716],[115.5191,-2.4668,38.9911],[115.5013,-2.462,34.7347],[115.4708,-2.4617,23.004],[115.4578,-2.4588,21.5163],[115.4509,-2.4553,29.1584],[115.4426,-2.4544,37.3358],[115.4385,-2.4634,45.8102],[115.4372,-2.4878,48.2422],[115.4418,-2.4892,28.1439],[115.4417,-2.5141,19.4311],[115.4462,-2.5263,17.9667],[115.4622,-2.5207,31.5512]]]]}}