{"type":"Feature","properties":{"GID_3":"IDN.23.16.15_1","GID_0":"IDN","country":"Indonesia","GID_1":"IDN.23_1","province":"Papua","NL_NAME_1":"NA","GID_2":"IDN.23.16_1","county":"Merauke","NL_NAME_2":"NA","city":"Sota","VARNAME_3":"NA","NL_NAME_3":"NA","TYPE_3":"Distrik","ENGTYPE_3":"District","CC_3":"9401044","HASC_3":"NA","name":"Sota.city"},
"geometry":{"type": "MultiPolygon","coordinates": [[[[140.9921,-8.7795,11.3073],[141.0078,-8.7842,17.0778],[141.0092,-8.5267,16.546],[141.0191,-8.5285,13.1769],[141.0191,-8.2988,26.3959],[141.0103,-8.2986,30.1931],[141.0118,-7.9999,29.8986],[141.0059,-7.7681,41.8832],[140.9576,-7.7777,26.3709],[140.9453,-7.7777,25.6979],[140.9181,-7.7736,24.5632],[140.9018,-7.7641,15.3374],[140.8719,-7.7559,21.7619],[140.8616,-7.7545,32.6712],[140.8604,-7.9899,29.1333],[140.8621,-8.0326,26.63],[140.8578,-8.057,22.0974],[140.8534,-8.0657,22.8399],[140.8264,-8.0895,23.9544],[140.8204,-8.1023,21.9282],[140.8119,-8.1148,3.4521],[140.8116,-8.1257,20.6951],[140.8165,-8.136,11.5163],[140.8142,-8.1437,19.8597],[140.8159,-8.1505,22.0914],[140.8153,-8.1585,20.2543],[140.8108,-8.1656,22.5285],[140.8148,-8.1733,20.2504],[140.8148,-8.1787,18.0817],[140.8125,-8.1807,17.9051],[140.815,-8.1873,16.3753],[140.8153,-8.1987,16.5931],[140.8173,-8.207,9.9952],[140.8167,-8.2164,5.3261],[140.813,-8.2255,21.3202],[140.8173,-8.2344,21.6694],[140.817,-8.2401,15.0709],[140.8085,-8.2483,14.0364],[140.8065,-8.2569,17.8405],[140.8002,-8.2689,14.7166],[140.7877,-8.2794,10.9329],[140.7739,-8.281,11.6851],[140.7423,-8.381,20.3658],[140.7353,-8.4319,17.873],[140.7265,-8.4547,23.2482],[140.7037,-8.5441,12.8612],[140.7172,-8.5521,15.5242],[140.7411,-8.5761,13.2132],[140.7498,-8.5924,11.7607],[140.7662,-8.6076,14.2764],[140.7836,-8.6457,16.0326],[140.7988,-8.6664,16.6717],[140.838,-8.7099,19.4522],[140.863,-8.7262,18.902],[140.8935,-8.7415,20.1253],[140.9218,-8.7523,21.7623],[140.949,-8.7687,19.5341],[140.9751,-8.7741,15.6144],[140.9921,-8.7795,11.3073]]]]}}