{"type":"Feature","properties":{"GID_3":"IDN.9.5.36_1","GID_0":"IDN","country":"Indonesia","GID_1":"IDN.9_1","province":"JawaBarat","NL_NAME_1":"NA","GID_2":"IDN.9.5_1","county":"Bogor","NL_NAME_2":"NA","city":"TajurHalang","VARNAME_3":"NA","NL_NAME_3":"NA","TYPE_3":"Kecamatan","ENGTYPE_3":"Sub-district","CC_3":"3201221","HASC_3":"NA","name":"Tajur_Halang.city"},
"geometry":{"type": "MultiPolygon","coordinates": [[[[106.7909,-6.4863,130.9928],[106.7819,-6.4775,132.7778],[106.7862,-6.4739,132.0514],[106.7839,-6.4648,119.0254],[106.7854,-6.4619,120.6293],[106.7825,-6.4585,120.6056],[106.784,-6.4543,114.412],[106.7817,-6.4544,110.9629],[106.7805,-6.4525,109.6771],[106.7753,-6.4524,116.3441],[106.7744,-6.4479,107.4977],[106.7698,-6.4471,113.2104],[106.7703,-6.4447,111.83],[106.7671,-6.4428,107.5137],[106.7652,-6.4381,104.7331],[106.7384,-6.4389,103.1757],[106.7374,-6.4414,105.729],[106.7392,-6.443,111.6136],[106.7369,-6.4425,105.729],[106.7358,-6.4474,108.5909],[106.7331,-6.4485,109.4856],[106.7364,-6.458,114.8296],[106.7343,-6.4592,111.9069],[106.7354,-6.4613,114.5069],[106.7338,-6.4655,114.8291],[106.7305,-6.466,117.4863],[106.7322,-6.4732,127.4681],[106.7301,-6.4745,119.9755],[106.7339,-6.4757,123.259],[106.735,-6.4791,122.7979],[106.737,-6.4788,125.543],[106.7393,-6.4811,121.8085],[106.7382,-6.4816,128.0908],[106.739,-6.4843,124.3174],[106.7411,-6.4852,131.2621],[106.7406,-6.4893,124.7336],[106.7426,-6.4882,126.6788],[106.7454,-6.4899,125.7982],[106.7451,-6.4913,134.1341],[106.7488,-6.4925,130.2546],[106.75,-6.4913,130.2546],[106.7557,-6.4948,140.6377],[106.757,-6.4922,138.8499],[106.759,-6.4921,138.6745],[106.7591,-6.5003,142.9037],[106.7608,-6.5015,136.2458],[106.7634,-6.4991,144.5069],[106.7668,-6.5002,148.1384],[106.7689,-6.4909,139.7783],[106.7722,-6.4901,146.578],[106.7733,-6.4926,143.889],[106.7774,-6.4918,148.5412],[106.779,-6.4948,144.7068],[106.7862,-6.4884,142.8864],[106.7917,-6.488,132.4705],[106.7909,-6.4863,130.9928]]]]}}