{"type":"Feature","properties":{"GID_3":"IDN.17.2.10_1","GID_0":"IDN","country":"Indonesia","GID_1":"IDN.17_1","province":"Lampung","NL_NAME_1":"NA","GID_2":"IDN.17.2_1","county":"LampungBarat","NL_NAME_2":"NA","city":"Ngambur","VARNAME_3":"NA","NL_NAME_3":"NA","TYPE_3":"Kecamatan","ENGTYPE_3":"Sub-district","CC_3":"1801013","HASC_3":"NA","name":"Ngambur.city"},
"geometry":{"type": "MultiPolygon","coordinates": [[[[104.2156,-5.4533,66.3491],[104.2157,-5.4477,50.8724],[104.2172,-5.4454,39.0053],[104.2159,-5.4438,42.719],[104.2156,-5.4363,131.2563],[104.2184,-5.4346,140.8232],[104.2221,-5.428,108.5755],[104.2241,-5.4289,120.8565],[104.2328,-5.4235,187.5642],[104.2349,-5.4182,167.3535],[104.237,-5.4181,188.6552],[104.2262,-5.4096,366.6593],[104.2192,-5.4063,249.0141],[104.1992,-5.4077,116.2309],[104.1939,-5.4067,46.5952],[104.1924,-5.4053,77.7695],[104.1933,-5.4,122.1404],[104.1918,-5.3986,131.4055],[104.186,-5.4003,93.9054],[104.183,-5.3982,85.3416],[104.1768,-5.3975,42.5495],[104.1716,-5.4033,47.2762],[104.167,-5.4028,48.5274],[104.1651,-5.3988,57.509],[104.1691,-5.3903,110.5109],[104.1665,-5.3893,62.6158],[104.1583,-5.3938,59.5083],[104.1525,-5.3928,33.7848],[104.1525,-5.3865,93.1431],[104.1459,-5.3794,97.9777],[104.1343,-5.3721,69.7357],[104.1292,-5.365,96.3662],[104.1219,-5.3611,65.6204],[104.1191,-5.3628,54.057],[104.1197,-5.3677,34.2183],[104.1175,-5.3738,24.1451],[104.1081,-5.3793,28.7714],[104.1058,-5.3828,22.4675],[104.0978,-5.3865,20.8647],[104.0989,-5.3916,12.2247],[104.0971,-5.4004,8.2343],[104.0924,-5.4023,8.4812],[104.0925,-5.4077,10.7855],[104.0882,-5.4054,10.6243],[104.084,-5.4063,9.8649],[104.0752,-5.4032,8.6558],[104.0722,-5.4039,7.3708],[104.0726,-5.4072,2.3247],[104.078,-5.4081,1.7498],[104.0913,-5.4162,9.3679],[104.1084,-5.4291,2.774],[104.1076,-5.4324,0.0],[104.1114,-5.4376,8.0203],[104.1117,-5.4459,9.378],[104.1207,-5.4574,3.8282],[104.1477,-5.4671,7.671],[104.1767,-5.481,6.2371],[104.1894,-5.4888,7.4643],[104.199,-5.4973,2.3899],[104.2017,-5.4913,13.0247],[104.1994,-5.4825,19.1279],[104.2033,-5.4609,20.2015],[104.2058,-5.4589,24.1135],[104.211,-5.4585,42.4345],[104.216,-5.4552,57.1196],[104.2156,-5.4533,66.3491]]]]}}