{"type":"Feature","properties":{"GID_3":"IDN.9.5.15_1","GID_0":"IDN","country":"Indonesia","GID_1":"IDN.9_1","province":"JawaBarat","NL_NAME_1":"NA","GID_2":"IDN.9.5_1","county":"Bogor","NL_NAME_2":"NA","city":"Ciseeng","VARNAME_3":"NA","NL_NAME_3":"NA","TYPE_3":"Kecamatan","ENGTYPE_3":"Sub-district","CC_3":"3201241","HASC_3":"NA","name":"Ciseeng.city"},
"geometry":{"type": "MultiPolygon","coordinates": [[[[106.6946,-6.4774,103.8865],[106.6941,-6.4732,103.1565],[106.6924,-6.4718,102.114],[106.694,-6.4717,107.3518],[106.6934,-6.4693,101.838],[106.6972,-6.4678,108.3477],[106.7065,-6.4731,113.5852],[106.7191,-6.4771,120.4445],[106.7139,-6.4719,119.4699],[106.7142,-6.4686,122.2812],[106.707,-6.4625,114.3261],[106.7013,-6.4486,106.5422],[106.7034,-6.4437,100.0555],[106.6979,-6.4421,105.5531],[106.6976,-6.4381,104.1665],[106.6952,-6.4382,102.4895],[106.6947,-6.4339,95.0502],[106.6916,-6.431,97.7102],[106.6908,-6.4334,93.0413],[106.6877,-6.4334,92.9552],[106.6867,-6.4238,87.6995],[106.6837,-6.4237,85.4104],[106.684,-6.4223,88.3837],[106.6816,-6.4244,82.8713],[106.6801,-6.4192,68.8248],[106.6771,-6.4183,67.3273],[106.6756,-6.4148,59.2299],[106.6721,-6.4143,57.6045],[106.6712,-6.4094,59.324],[106.6569,-6.4127,87.186],[106.6554,-6.4167,85.0934],[106.649,-6.4164,35.0696],[106.6468,-6.42,42.9342],[106.653,-6.4204,40.0778],[106.6538,-6.4223,38.0774],[106.65,-6.4313,42.5106],[106.6516,-6.4365,46.6614],[106.6507,-6.4391,46.4778],[106.6575,-6.4427,51.729],[106.6571,-6.4562,64.5017],[106.6516,-6.4622,94.6339],[106.654,-6.4645,82.1088],[106.6543,-6.4685,54.2573],[106.6583,-6.4692,57.2561],[106.6624,-6.4674,92.4912],[106.6625,-6.4723,60.9418],[106.6677,-6.4694,81.8159],[106.6679,-6.4745,78.383],[106.6729,-6.4763,76.2217],[106.6731,-6.4872,69.1858],[106.6783,-6.4916,75.4838],[106.6749,-6.4945,75.405],[106.6716,-6.5019,77.8718],[106.6742,-6.5048,89.7427],[106.6807,-6.5074,131.7227],[106.6801,-6.5088,117.3427],[106.6822,-6.5073,131.7227],[106.6859,-6.5078,125.1252],[106.6869,-6.5051,122.4358],[106.691,-6.506,113.2497],[106.6903,-6.5021,115.2237],[106.687,-6.5,112.6366],[106.6891,-6.4969,111.6792],[106.692,-6.4955,111.5063],[106.7076,-6.4947,115.6786],[106.7034,-6.4929,109.8957],[106.7026,-6.491,111.7171],[106.7012,-6.4924,107.9566],[106.6982,-6.4913,106.7244],[106.6979,-6.4856,113.945],[106.6943,-6.4832,111.5614],[106.6961,-6.481,107.7646],[106.6946,-6.4774,103.8865]]]]}}