{"type":"Feature","properties":{"GID_3":"IDN.20.8.3_1","GID_0":"IDN","country":"Indonesia","GID_1":"IDN.20_1","province":"NusaTenggaraBarat","NL_NAME_1":"NA","GID_2":"IDN.20.8_1","county":"Mataram","NL_NAME_2":"NA","city":"Mataram","VARNAME_3":"NA","NL_NAME_3":"NA","TYPE_3":"Kecamatan","ENGTYPE_3":"Sub-district","CC_3":"5271020","HASC_3":"NA","name":"Mataram.city"},
"geometry":{"type": "MultiPolygon","coordinates": [[[[116.1127,-8.6219,16.4108],[116.1178,-8.6184,20.7852],[116.1212,-8.6187,21.4189],[116.1213,-8.6166,21.0728],[116.1185,-8.6148,20.6037],[116.12,-8.6097,19.942],[116.1267,-8.6067,19.9817],[116.1254,-8.5973,20.8459],[116.1202,-8.5962,19.279],[116.12,-8.5938,20.5963],[116.113,-8.5935,17.8569],[116.1173,-8.5887,21.3022],[116.1192,-8.5817,21.8472],[116.1271,-8.583,26.0455],[116.1273,-8.5812,29.4328],[116.1227,-8.5798,25.5085],[116.113,-8.5817,21.2718],[116.1092,-8.5807,19.1843],[116.1075,-8.5882,17.3962],[116.1001,-8.5885,15.7536],[116.1008,-8.5948,12.0788],[116.095,-8.5918,11.7558],[116.0932,-8.5944,11.4883],[116.0966,-8.5999,9.6961],[116.0955,-8.6071,7.3558],[116.1002,-8.609,9.3064],[116.1005,-8.6078,9.9536],[116.1037,-8.6086,10.5748],[116.1034,-8.6152,11.8924],[116.0988,-8.6149,9.3545],[116.0957,-8.6258,9.1295],[116.1021,-8.6248,12.3091],[116.1052,-8.6209,13.1316],[116.1092,-8.6192,17.2277],[116.1088,-8.6172,16.4052],[116.1103,-8.6168,17.2855],[116.1117,-8.6167,18.1243],[116.1103,-8.6212,17.0314],[116.1127,-8.6219,16.4108]]]]}}