{"type":"Feature","properties":{"GID_3":"IDN.10.28.8_1","GID_0":"IDN","country":"Indonesia","GID_1":"IDN.10_1","province":"JawaTengah","NL_NAME_1":"NA","GID_2":"IDN.10.28_1","county":"Semarang","NL_NAME_2":"NA","city":"Getasan","VARNAME_3":"NA","NL_NAME_3":"NA","TYPE_3":"Kecamatan","ENGTYPE_3":"Sub-district","CC_3":"3322010","HASC_3":"NA","name":"Getasan.city"},
"geometry":{"type": "MultiPolygon","coordinates": [[[[110.462,-7.4107,1215.4949],[110.4655,-7.4081,1145.0298],[110.4816,-7.4033,927.7798],[110.4808,-7.4023,927.5222],[110.483,-7.4001,910.8469],[110.4841,-7.395,884.7853],[110.4921,-7.3888,809.6203],[110.4904,-7.3846,815.3746],[110.4912,-7.3816,804.5938],[110.4882,-7.3768,796.7395],[110.4814,-7.3796,821.5411],[110.4772,-7.3745,807.175],[110.4784,-7.3706,796.2064],[110.4744,-7.3561,698.4795],[110.4761,-7.3496,646.3182],[110.4714,-7.3455,617.1426],[110.4696,-7.3386,565.5121],[110.4717,-7.3332,530.9567],[110.4703,-7.3334,535.1624],[110.4683,-7.339,540.7934],[110.4607,-7.3382,533.5709],[110.4607,-7.3423,580.0481],[110.458,-7.3424,621.0941],[110.4563,-7.34,595.7971],[110.45,-7.3398,550.7995],[110.4508,-7.3492,679.676],[110.4487,-7.3515,723.4562],[110.4452,-7.3518,753.1052],[110.4405,-7.3591,901.3521],[110.4348,-7.3606,946.2905],[110.4332,-7.3582,1021.0304],[110.4334,-7.3539,1148.1627],[110.4303,-7.3505,1016.7545],[110.4293,-7.3462,667.3433],[110.4272,-7.3512,755.9786],[110.4257,-7.3498,747.265],[110.4218,-7.3501,1017.4026],[110.4164,-7.3551,1191.6003],[110.3993,-7.3602,1813.8418],[110.4036,-7.3655,1706.0586],[110.4042,-7.375,1277.0188],[110.4066,-7.377,1275.9401],[110.4052,-7.3787,1277.3608],[110.4053,-7.3896,1331.1798],[110.4132,-7.4079,1472.7633],[110.4143,-7.4166,1580.2988],[110.4194,-7.4221,1715.9703],[110.4242,-7.4298,2094.4922],[110.4249,-7.4349,2237.1475],[110.4382,-7.4532,3063.446],[110.4427,-7.4496,3036.6797],[110.4429,-7.4446,2914.647],[110.4473,-7.437,2393.7876],[110.4474,-7.4334,2239.3774],[110.4565,-7.4226,1637.0352],[110.4584,-7.4147,1334.5527],[110.462,-7.4107,1215.4949]]]]}}