{"type":"Feature","properties":{"GID_3":"IDN.17.7.7_1","GID_0":"IDN","country":"Indonesia","GID_1":"IDN.17_1","province":"Lampung","NL_NAME_1":"NA","GID_2":"IDN.17.7_1","county":"Mesuji","NL_NAME_2":"NA","city":"TanjungRaya","VARNAME_3":"NA","NL_NAME_3":"NA","TYPE_3":"Kecamatan","ENGTYPE_3":"Sub-district","CC_3":"1811040","HASC_3":"NA","name":"Tanjung_Raya.city"},
"geometry":{"type": "MultiPolygon","coordinates": [[[[105.4121,-3.9894,7.9582],[105.4106,-3.9922,13.9372],[105.4068,-3.9886,8.9075],[105.4038,-3.9907,14.1025],[105.3992,-3.9873,10.7272],[105.4077,-3.9793,27.2361],[105.4156,-3.977,17.8701],[105.4275,-3.9681,19.7281],[105.4367,-3.9676,18.0911],[105.4495,-3.9613,9.3525],[105.4569,-3.9388,4.2633],[105.4544,-3.9285,4.1953],[105.4362,-3.9193,24.8062],[105.4292,-3.9089,17.0301],[105.4255,-3.9117,21.2224],[105.4174,-3.9141,31.1106],[105.4122,-3.9129,39.4522],[105.404,-3.9071,32.095],[105.3917,-3.894,19.3375],[105.3879,-3.8824,20.8211],[105.3991,-3.8786,21.3509],[105.3981,-3.8521,18.2961],[105.3964,-3.8449,16.9403],[105.3863,-3.8374,16.9185],[105.385,-3.8311,4.2215],[105.3801,-3.8258,4.3892],[105.3816,-3.8218,4.5669],[105.3794,-3.8171,2.6793],[105.3763,-3.8186,2.9851],[105.3745,-3.8145,3.2752],[105.3735,-3.8008,4.101],[105.3829,-3.7983,2.8774],[105.3731,-3.7939,5.2068],[105.3689,-3.7947,1.5771],[105.3659,-3.7981,3.5592],[105.3631,-3.7984,2.3916],[105.3552,-3.7948,5.1349],[105.3291,-3.7977,6.3417],[105.335,-3.8583,3.5091],[105.3422,-3.8725,15.9728],[105.3403,-3.8774,17.6618],[105.3344,-3.8777,5.3213],[105.3471,-3.9023,15.2571],[105.3575,-3.9092,38.7942],[105.3568,-3.917,39.9798],[105.3519,-3.9138,21.435],[105.3388,-3.9205,29.1794],[105.3363,-3.9267,22.5079],[105.3114,-3.9261,8.4623],[105.3008,-3.9317,8.5987],[105.3008,-3.9358,10.5137],[105.2974,-3.9442,26.6929],[105.2956,-3.9841,43.6148],[105.3184,-3.9891,34.4381],[105.312,-3.997,36.5837],[105.3127,-4.0048,34.4569],[105.3161,-4.006,30.505],[105.3155,-4.0092,24.5077],[105.3254,-4.0088,18.0118],[105.3296,-4.0051,24.4769],[105.3397,-4.0013,35.6127],[105.3475,-3.991,24.9672],[105.3528,-3.9973,18.659],[105.3534,-4.0054,20.0474],[105.3565,-4.011,17.6845],[105.3646,-4.0169,6.6961],[105.3842,-4.0196,11.1955],[105.3855,-4.0224,7.0923],[105.3919,-4.0237,5.2138],[105.3979,-4.0287,2.3347],[105.4081,-4.0311,2.1369],[105.4066,-4.0109,21.3544],[105.4028,-4.0096,19.2854],[105.4036,-4.0071,26.9208],[105.4091,-4.0033,26.5751],[105.4161,-3.9915,23.8896],[105.4121,-3.9894,7.9582]]]]}}