{"type":"Feature","properties":{"GID_3":"IDN.10.6.9_1","GID_0":"IDN","country":"Indonesia","GID_1":"IDN.10_1","province":"JawaTengah","NL_NAME_1":"NA","GID_2":"IDN.10.6_1","county":"Brebes","NL_NAME_2":"NA","city":"Larangan","VARNAME_3":"NA","NL_NAME_3":"NA","TYPE_3":"Kecamatan","ENGTYPE_3":"Sub-district","CC_3":"3329070","HASC_3":"NA","name":"Larangan.city"},
"geometry":{"type": "MultiPolygon","coordinates": [[[[108.9484,-7.1284,32.9339],[108.9516,-7.1273,31.4182],[108.9526,-7.1235,33.3649],[108.9555,-7.1223,32.4031],[108.9676,-7.1264,34.0942],[108.9675,-7.1216,34.8011],[108.9773,-7.1213,37.8155],[108.9801,-7.1188,34.4812],[108.98,-7.1113,28.194],[108.9843,-7.1119,28.2314],[108.9851,-7.1058,24.2],[108.9803,-7.1036,24.9398],[108.9814,-7.1002,31.8053],[108.9859,-7.0971,31.3927],[108.9836,-7.0926,30.7849],[108.9838,-7.087,28.0958],[108.9778,-7.0839,26.2979],[108.9786,-7.0789,22.3613],[108.9771,-7.075,28.7632],[108.9669,-7.0669,16.2397],[108.9702,-7.06,18.4838],[108.9861,-7.0607,25.115],[108.9858,-7.0573,28.1964],[108.9791,-7.0507,17.9026],[108.9786,-7.046,16.0617],[108.9813,-7.0444,19.8007],[108.9867,-7.0458,17.7624],[108.9892,-7.0437,18.5987],[108.9827,-7.04,17.0969],[108.9834,-7.0382,17.8679],[108.9874,-7.0376,25.5736],[108.983,-7.0328,21.8353],[108.9856,-7.028,24.3208],[108.9836,-7.0235,16.7495],[108.9725,-7.0226,18.985],[108.97,-7.0167,12.2915],[108.9652,-7.02,16.1771],[108.9634,-7.0151,15.3169],[108.9669,-7.0093,17.1718],[108.97,-7.0073,16.767],[108.9696,-7.0009,16.2647],[108.9727,-7.0015,18.3403],[108.9745,-6.9997,16.8581],[108.9743,-6.9862,16.2117],[108.9758,-6.9853,14.8131],[108.9783,-6.9879,12.8669],[108.9799,-6.9833,19.58],[108.9774,-6.9827,16.8519],[108.9773,-6.9812,11.4269],[108.9803,-6.9814,19.1135],[108.9863,-6.9775,14.8784],[108.9895,-6.9786,17.0918],[108.9995,-6.971,11.0579],[109.0027,-6.9704,11.9216],[109.0053,-6.9678,12.297],[109.0072,-6.9611,14.5655],[109.0092,-6.9588,10.7886],[109.0135,-6.958,15.5555],[109.016,-6.952,9.0072],[109.0141,-6.9485,12.5968],[109.0034,-6.9524,11.9339],[108.9983,-6.9502,14.1539],[108.9965,-6.952,12.2799],[108.9846,-6.9499,14.4935],[108.9857,-6.9439,11.6571],[108.9675,-6.9427,11.7236],[108.9647,-6.9396,14.7621],[108.9593,-6.941,11.646],[108.9555,-6.9334,9.8527],[108.9469,-6.9333,11.8741],[108.9424,-6.9291,9.8157],[108.9396,-6.9299,8.9925],[108.94,-6.9328,8.9559],[108.9295,-6.935,8.5944],[108.9312,-6.9395,9.3818],[108.9312,-6.9492,10.4557],[108.9352,-6.9543,11.5056],[108.9348,-6.9571,11.8236],[108.9368,-6.9598,12.7688],[108.9184,-6.9584,13.3206],[108.9143,-6.9601,15.7774],[108.9081,-6.9585,18.3218],[108.9021,-6.9661,16.5629],[108.9051,-6.967,20.2649],[108.9042,-6.9703,18.9495],[108.9057,-6.9714,21.5691],[108.9114,-6.9711,17.1783],[108.9128,-6.9752,17.4933],[108.9294,-6.9798,15.4373],[108.9285,-6.9826,15.6252],[108.9219,-6.9847,17.2037],[108.9186,-6.9841,17.8276],[108.9149,-6.989,19.8621],[108.9142,-7.0022,27.1526],[108.9171,-7.0052,28.3428],[108.9164,-7.0102,30.0815],[108.9192,-7.0104,33.4356],[108.9195,-7.0148,36.7987],[108.9212,-7.0152,36.7987],[108.9189,-7.0174,42.8186],[108.92,-7.0196,40.8493],[108.9169,-7.0208,46.0872],[108.916,-7.0245,47.8224],[108.9094,-7.0257,66.7754],[108.9066,-7.0325,60.1977],[108.8995,-7.0349,47.349],[108.8995,-7.0426,50.4138],[108.9016,-7.0464,51.9631],[108.8965,-7.0599,95.4408],[108.8964,-7.0722,89.3385],[108.8947,-7.0771,89.3441],[108.8957,-7.0836,82.2867],[108.8916,-7.0947,94.7331],[108.8943,-7.1031,153.7836],[108.8997,-7.1023,94.4929],[108.9042,-7.1036,110.9628],[108.9257,-7.0984,183.2841],[108.9322,-7.0985,125.7211],[108.9332,-7.0995,125.7211],[108.9319,-7.1029,175.4983],[108.9375,-7.1091,180.505],[108.9336,-7.1146,111.1707],[108.9348,-7.1185,76.2718],[108.9371,-7.1218,67.1206],[108.9425,-7.1226,68.4228],[108.9442,-7.1299,31.4418],[108.9484,-7.1284,32.9339]]],
[[[108.9297,-6.9338,8.2942],[108.9293,-6.9327,8.6599],[108.9291,-6.9325,8.6599],[108.9297,-6.9338,8.2942]]],
[[[108.9294,-6.9316,8.6599],[108.9287,-6.9316,8.6599],[108.9291,-6.9322,8.6599],[108.9296,-6.932,8.6599],[108.9294,-6.9316,8.6599]]],
[[[108.9284,-6.9305,8.6742],[108.9283,-6.9304,8.6742],[108.9279,-6.9304,8.6742],[108.9285,-6.931,8.6742],[108.9284,-6.9305,8.6742]]],
[[[108.9278,-6.93,8.6742],[108.928,-6.9293,8.8909],[108.9277,-6.9293,8.8909],[108.9278,-6.9301,8.6742],[108.9278,-6.93,8.6742]]]]}}