{"type":"Feature","properties":{"GID_3":"IDN.10.17.16_1","GID_0":"IDN","country":"Indonesia","GID_1":"IDN.10_1","province":"JawaTengah","NL_NAME_1":"NA","GID_2":"IDN.10.17_1","county":"KotaSemarang","NL_NAME_2":"NA","city":"Tugu","VARNAME_3":"NA","NL_NAME_3":"NA","TYPE_3":"Kecamatan","ENGTYPE_3":"Sub-district","CC_3":"3374150","HASC_3":"NA","name":"Tugu.city"},
"geometry":{"type": "MultiPolygon","coordinates": [[[[110.3619,-6.9868,23.2068],[110.3638,-6.9856,10.3024],[110.3682,-6.9688,1.8619],[110.3643,-6.9658,1.9341],[110.3678,-6.9546,2.1107],[110.3665,-6.9537,0.0],[110.3573,-6.9539,0.0],[110.3208,-6.9392,0.0],[110.3093,-6.9372,0.0],[110.2992,-6.941,0.6487],[110.2917,-6.9502,0.0],[110.2931,-6.9515,0.2778],[110.2919,-6.9555,0.5727],[110.2997,-6.9591,0.8937],[110.2957,-6.9684,6.5782],[110.2881,-6.9654,6.5612],[110.2877,-6.9687,17.5636],[110.2935,-6.9719,21.1359],[110.3,-6.9736,10.3215],[110.3127,-6.9724,6.797],[110.3179,-6.9754,9.6401],[110.3305,-6.9765,13.8675],[110.3376,-6.9843,26.7403],[110.3412,-6.9858,25.945],[110.3476,-6.9855,22.6658],[110.3511,-6.9824,12.0762],[110.3619,-6.9868,23.2068]]],
[[[110.3118,-6.9372,0.0],[110.3126,-6.9374,0.0],[110.3129,-6.9374,0.0],[110.3111,-6.937,0.0],[110.3118,-6.9372,0.0]]],
[[[110.3103,-6.9369,0.0],[110.3104,-6.9369,0.0],[110.3108,-6.937,0.0],[110.3102,-6.9368,0.0],[110.3103,-6.9369,0.0]]]]}}