{"type":"Feature","properties":{"GID_3":"IDN.24.10.6_1","GID_0":"IDN","country":"Indonesia","GID_1":"IDN.24_1","province":"Riau","NL_NAME_1":"NA","GID_2":"IDN.24.10_1","county":"RokanHilir","NL_NAME_2":"NA","city":"PasirLimauKapas","VARNAME_3":"NA","NL_NAME_3":"NA","TYPE_3":"Kecamatan","ENGTYPE_3":"Sub-district","CC_3":"1409031","HASC_3":"NA","name":"Pasir_Limau_Kapas.city"},
"geometry":{"type": "MultiPolygon","coordinates": [[[[100.386,1.9744,11.273],[100.3883,1.9743,10.9353],[100.3976,1.9922,9.8319],[100.4162,2.0332,8.9609],[100.4488,2.0773,9.5743],[100.5107,2.1701,3.4782],[100.5226,2.1808,3.6069],[100.5241,2.1863,4.2428],[100.5206,2.1901,4.5463],[100.5068,2.199,6.65],[100.4926,2.2006,4.2724],[100.4907,2.2021,4.8129],[100.4907,2.2056,5.0677],[100.4872,2.2079,4.5987],[100.4857,2.2076,5.4559],[100.4861,2.2045,5.1873],[100.4761,2.201,3.4153],[100.4734,2.2018,3.3443],[100.4719,2.2049,2.9034],[100.4742,2.2087,5.32],[100.4761,2.2103,4.0017],[100.4815,2.2072,6.762],[100.4819,2.2134,9.06],[100.4715,2.2219,7.1207],[100.4665,2.2223,5.5961],[100.4638,2.2311,5.8349],[100.4489,2.2439,6.1941],[100.4431,2.2512,3.3837],[100.4351,2.2567,3.9901],[100.427,2.2718,5.4773],[100.4273,2.2762,3.1531],[100.4198,2.2795,4.1561],[100.4187,2.2827,3.5234],[100.4158,2.2849,3.5768],[100.4154,2.2885,4.2425],[100.4064,2.3001,12.0594],[100.3956,2.3092,11.9356],[100.387,2.3089,11.2553],[100.3927,2.3139,13.527],[100.3924,2.3187,9.5415],[100.378,2.3462,12.1224],[100.3798,2.3546,14.6128],[100.3751,2.3564,12.5068],[100.3766,2.3716,13.8752],[100.3612,2.3858,16.721],[100.3584,2.4111,0.0],[100.3541,2.4147,14.3387],[100.3484,2.4257,14.8655],[100.3466,2.4433,0.0],[100.3407,2.4598,11.9792],[100.3413,2.474,0.0],[100.3295,2.4972,13.6667],[100.3286,2.502,14.9028],[100.3311,2.5058,0.0],[100.3315,2.5136,0.0],[100.33,2.5298,10.701],[100.3272,2.5425,0.0],[100.3235,2.5475,0.0],[100.3196,2.5289,12.4059],[100.3071,2.4913,14.4412],[100.3072,2.48,12.2128],[100.3001,2.4608,15.5532],[100.2996,2.4462,15.9842],[100.2955,2.4282,17.0862],[100.2994,2.3565,7.8716],[100.3019,2.3499,7.813],[100.3008,2.3401,7.3338],[100.3131,2.31,9.952],[100.3174,2.2897,10.0041],[100.3278,2.2759,9.8495],[100.3336,2.2639,8.9282],[100.3354,2.2534,8.9029],[100.3499,2.2306,8.612],[100.3594,2.2117,8.8056],[100.3651,2.2108,8.5785],[100.3636,2.1683,8.7464],[100.3406,2.1277,7.8173],[100.3155,2.0524,11.5213],[100.3165,1.9981,13.7906],[100.3146,1.9757,17.307],[100.386,1.9744,11.273]]],
[[[100.5528,2.8689,0.0],[100.5533,2.8692,0.0],[100.5527,2.8697,0.0],[100.5524,2.869,0.846],[100.5528,2.8689,0.0]]],
[[[100.5544,2.8748,0.0],[100.5544,2.874,0.0],[100.5551,2.8793,0.0],[100.554,2.876,0.7677],[100.5544,2.8748,0.0]]],
[[[100.6416,2.7389,0.0],[100.6419,2.7385,0.0],[100.6423,2.739,0.0],[100.6417,2.7393,0.0],[100.6416,2.7389,0.0]]],
[[[100.6387,2.8003999999999998,0.0],[100.6383,2.8002,0.0],[100.6383,2.7998,0.0],[100.6388,2.8002,0.0],[100.6387,2.8003999999999998,0.0]]],
[[[100.5575,2.8679,0.0],[100.5558,2.8685,3.4897],[100.5573,2.8698,0.0],[100.5559,2.8696,1.3767],[100.5544,2.867,0.5858],[100.5556,2.8666,0.5682],[100.5575,2.8679,0.0]]],
[[[100.6841,2.8688,0.0],[100.6845,2.8688,0.0],[100.6845,2.8693,0.0],[100.6843,2.8693,0.0],[100.6841,2.8688,0.0]]],
[[[100.6248,2.8743,0.0],[100.6247,2.874,0.0],[100.625,2.8738,0.0],[100.6253,2.8742,0.0],[100.6248,2.8743,0.0]]],
[[[100.5637,2.8834,0.0],[100.5618,2.884,0.0],[100.5615,2.8822,0.0],[100.566,2.8763,0.0],[100.5665,2.8805,3.8649],[100.5637,2.8834,0.0]]],
[[[100.5719,2.8818,0.0],[100.572,2.8824,1.4993],[100.5713,2.8823,1.4993],[100.572,2.8811,0.0],[100.5719,2.8818,0.0]]],
[[[100.5972,2.9191,0.0],[100.597,2.9188,0.0],[100.5972,2.9182,0.0],[100.5976,2.9189,0.0],[100.5972,2.9191,0.0]]]]}}