{"type":"Feature","properties":{"GID_3":"IDN.10.2.2_1","GID_0":"IDN","country":"Indonesia","GID_1":"IDN.10_1","province":"JawaTengah","NL_NAME_1":"NA","GID_2":"IDN.10.2_1","county":"Banyumas","NL_NAME_2":"NA","city":"Banyumas","VARNAME_3":"NA","NL_NAME_3":"NA","TYPE_3":"Kecamatan","ENGTYPE_3":"Sub-district","CC_3":"3302110","HASC_3":"NA","name":"Banyumas.city"},
"geometry":{"type": "MultiPolygon","coordinates": [[[[109.2887,-7.5095,18.3636],[109.2738,-7.509,14.6254],[109.2687,-7.5129,14.3162],[109.2634,-7.5125,14.6434],[109.2587,-7.5031,14.2822],[109.2501,-7.5004,15.0577],[109.2424,-7.4939,14.5097],[109.237,-7.4931,13.7272],[109.2328,-7.4962,14.66],[109.2371,-7.4996,63.5288],[109.2391,-7.504,128.3236],[109.2364,-7.5122,264.5499],[109.2379,-7.5171,318.5248],[109.2417,-7.5213,323.9106],[109.2409,-7.5285,302.0952],[109.248,-7.5413,334.1926],[109.2477,-7.544,333.1478],[109.2439,-7.5473,294.1876],[109.2443,-7.55,277.5157],[109.2476,-7.5522,258.021],[109.2499,-7.5514,325.068],[109.2593,-7.5582,252.524],[109.2805,-7.5623,229.702],[109.2834,-7.5646,199.8275],[109.2917,-7.5629,208.5667],[109.2941,-7.5648,216.3235],[109.297,-7.5646,215.0624],[109.2981,-7.5622,210.2686],[109.3034,-7.5595,239.168],[109.3073,-7.5594,266.7444],[109.3079,-7.5564,258.414],[109.31,-7.555,254.6446],[109.3064,-7.5521,233.7104],[109.3024,-7.545,173.7746],[109.3048,-7.5432,156.2542],[109.3069,-7.5441,152.0065],[109.3086,-7.5407,140.1742],[109.3065,-7.5377,95.1301],[109.3096,-7.5344,69.8559],[109.306,-7.5192,24.9123],[109.3047,-7.5164,19.6867],[109.3023,-7.5169,19.8188],[109.2989,-7.5096,16.0007],[109.2887,-7.5095,18.3636]]]]}}