{"type":"Feature","properties":{"GID_3":"IDN.16.4.6_1","GID_0":"IDN","country":"Indonesia","GID_1":"IDN.16_1","province":"KepulauanRiau","NL_NAME_1":"NA","GID_2":"IDN.16.4_1","county":"KepulauanAnambas","NL_NAME_2":"NA","city":"SiantanTimur","VARNAME_3":"NA","NL_NAME_3":"NA","TYPE_3":"Kecamatan","ENGTYPE_3":"Sub-district","CC_3":"2105050","HASC_3":"NA","name":"Siantan_Timur.city"},
"geometry":{"type": "MultiPolygon","coordinates": [[[[106.4145,2.9826,4.6455],[106.415,2.9816,0.0],[106.4165,2.9885,11.8857],[106.4157,2.9941,0.0],[106.4139,2.9913,8.7327],[106.4133,2.9832,4.6455],[106.4145,2.9826,4.6455]]],
[[[106.395,3.0146,3.4619],[106.3963,3.0153,3.4619],[106.3966,3.0179,0.0],[106.3952,3.0174,0.0],[106.395,3.0146,3.4619]]],
[[[106.4081,3.0373,0.0],[106.4067,3.0385,0.0],[106.4068,3.032,0.0],[106.4044,3.0251,15.8007],[106.4027,3.028,49.5776],[106.4032,3.0356,0.0],[106.4007,3.038,2.8965],[106.3993,3.0382,2.8965],[106.3972,3.0355,2.6522],[106.3981,3.0327,0.0],[106.3933,3.0293,10.521],[106.395,3.0281,38.8891],[106.3946,3.0257,28.4877],[106.3971,3.0206,61.8302],[106.4047,3.0218,2.1568],[106.4067,3.0144,0.0],[106.4088,3.0134,1.4431],[106.4103,3.0207,28.3558],[106.4113,3.0227,41.5446],[106.413,3.0227,41.5446],[106.4161,3.0319,29.4055],[106.416,3.0365,16.4726],[106.4139,3.0359,6.8703],[106.4115,3.0293,8.1359],[106.4113,3.0373,0.0],[106.4081,3.0373,0.0]]],
[[[106.3937,3.0465,0.0],[106.3897,3.0443,0.0],[106.3899,3.0398,0.6124],[106.3944,3.0368,4.1024],[106.3954,3.0431,0.1166],[106.3937,3.0465,0.0]]],
[[[106.4047,3.1206,21.7014],[106.4039,3.1238,0.0],[106.4015,3.1234,20.9026],[106.4003,3.1218,2.6637],[106.4015,3.1189,10.624],[106.3967,3.1133,17.0514],[106.3991,3.1066,0.0],[106.4021,3.1093,1.1373],[106.4012,3.1134,0.0],[106.4047,3.1206,21.7014]]],
[[[106.4314,3.1234,22.9791],[106.4301,3.1245,0.0],[106.4288,3.1233,8.6199],[106.4313,3.1212,1.4746],[106.4328,3.1227,1.5154],[106.4314,3.1234,22.9791]]],
[[[106.406,3.1297,0.0],[106.4073,3.1295,0.0],[106.407,3.1313,0.0],[106.4062,3.1308,0.0],[106.406,3.1297,0.0]]],
[[[106.4183,3.1542,0.0],[106.4168,3.1547,0.0],[106.4151,3.1516,8.9783],[106.4093,3.1481,45.4517],[106.4081,3.1441,48.9091],[106.4035,3.1399,10.3218],[106.4032,3.1353,12.225],[106.4082,3.134,50.8434],[106.4081,3.1324,7.1182],[106.4101,3.1325,37.2017],[106.4104,3.1302,1.4924],[106.4119,3.13,0.0],[106.4113,3.1317,0.0],[106.4136,3.1346,15.463],[106.4167,3.1309,3.0189],[106.4185,3.131,13.3867],[106.42,3.1351,2.8103],[106.4227,3.1372,39.7463],[106.4252,3.1336,0.0],[106.4252,3.1306,0.0],[106.4264,3.1327,27.3939],[106.4293,3.1329,22.2447],[106.4296,3.1308,18.1642],[106.4335,3.1303,0.0],[106.4347,3.1284,4.3135],[106.4367,3.1291,1.9506],[106.4369,3.1305,0.0],[106.4342,3.1331,0.0],[106.4377,3.136,11.0923],[106.4376,3.1382,5.2386],[106.4328,3.1471,0.0],[106.4306,3.1498,5.4955],[106.4269,3.1506,0.0],[106.4206,3.1462,5.5956],[106.4183,3.1542,0.0]]],
[[[106.3959,3.154,0.0],[106.3942,3.1549,4.4466],[106.3922,3.1515,16.278],[106.3873,3.1512,2.4471],[106.3855,3.1471,6.6437],[106.3815,3.1441,0.0],[106.3801,3.139,0.0],[106.3881,3.1371,72.8561],[106.3896,3.1354,0.0],[106.3956,3.1354,0.0],[106.3961,3.1376,65.069],[106.3982,3.1377,34.5742],[106.3958,3.1405,3.5778],[106.3952,3.1447,0.0],[106.3928,3.1448,9.7165],[106.3931,3.1504,0.0],[106.396,3.1523,20.1366],[106.3959,3.154,0.0]]],
[[[106.4012,3.1457,0.9473],[106.4013,3.1453,0.0],[106.4018,3.1453,0.0],[106.4017,3.1458,0.9473],[106.4012,3.1457,0.9473]]],
[[[106.4085,3.159,0.0],[106.4052,3.1599,9.3162],[106.4034,3.1571,2.8368],[106.3992,3.1551,44.4953],[106.3972,3.1512,4.5969],[106.3996,3.1471,50.4092],[106.4018,3.1467,0.9473],[106.4075,3.1496,0.0],[106.4092,3.1528,0.0],[106.4085,3.159,0.0]]],
[[[106.4047,3.1603,0.0],[106.4062,3.1618,0.0],[106.4051,3.1626,0.0],[106.4033,3.1614,5.1216],[106.4047,3.1603,0.0]]],
[[[106.4506,3.1282,2.4314],[106.4466,3.1302,17.1083],[106.445,3.1253,7.2606],[106.4475,3.1228,6.1544],[106.4493,3.1255,28.5564],[106.451,3.1256,13.9635],[106.4547,3.1204,0.0],[106.4568,3.1235,0.0],[106.4506,3.1282,2.4314]]],
[[[106.44,3.1591,0.0],[106.4377,3.159,0.0],[106.4379,3.1572,13.0548],[106.4398,3.1569,3.5723],[106.44,3.1591,0.0]]],
[[[106.4489,3.1756,0.0],[106.4491,3.1751,0.7542],[106.4498,3.1752,0.7542],[106.4498,3.1759,0.0],[106.4489,3.1756,0.0]]],
[[[106.4434,3.1924,13.7419],[106.445,3.194,0.9442],[106.4439,3.1965,1.0205],[106.4416,3.1932,1.9902],[106.4327,3.1886,0.0],[106.4339,3.1841,18.8907],[106.4397,3.1849,7.6764],[106.4384,3.1797,35.7545],[106.4332,3.1761,0.0],[106.4335,3.1693,0.0],[106.4353,3.1677,8.746],[106.4379,3.1697,6.8711],[106.4387,3.1738,8.8851],[106.439,3.1688,6.8711],[106.441,3.1695,8.9744],[106.4393,3.1734,2.0796],[106.4409,3.1778,15.0123],[106.4435,3.175,1.4991],[106.445,3.1762,18.5336],[106.4477,3.1743,5.4717],[106.4455,3.1791,10.7993],[106.4464,3.1868,0.0],[106.4414,3.1877,48.3302],[106.4417,3.1918,31.6822],[106.4434,3.1924,13.7419]]],
[[[106.3861,3.0383,10.6863],[106.385,3.0399,0.0],[106.3807,3.0393,1.0244],[106.3826,3.0345,32.4271],[106.3802,3.0325,2.2798],[106.3803,3.0298,12.8244],[106.3853,3.0243,13.7949],[106.388,3.0284,11.5553],[106.3861,3.0383,10.6863]]],
[[[106.3751,3.0404,3.2835],[106.3716,3.04,0.0],[106.3712,3.0373,1.2475],[106.3733,3.0347,6.7201],[106.3772,3.0388,0.0],[106.3751,3.0404,3.2835]]],
[[[106.3795,3.0403,0.2676],[106.3815,3.0418,6.6002],[106.3815,3.0478,0.0],[106.3793,3.0447,4.5936],[106.3795,3.0403,0.2676]]],
[[[106.358,3.0919,0.0],[106.3561,3.0921,0.0],[106.3561,3.0946,0.0],[106.3547,3.0919,9.9261],[106.352,3.0909,3.9342],[106.351,3.0841,9.0781],[106.3481,3.0797,27.9872],[106.3458,3.0826,0.0],[106.3424,3.073,0.0],[106.3437,3.0702,20.6112],[106.3419,3.0663,4.3983],[106.3421,3.0616,8.7911],[106.3444,3.0593,6.2421],[106.3419,3.0561,10.5204],[106.3434,3.0519,12.3742],[106.3482,3.0499,11.9877],[106.352,3.0531,30.2933],[106.3544,3.0484,0.4501],[106.3549,3.052,44.1803],[106.353,3.0562,68.8809],[106.3558,3.0578,0.0],[106.3534,3.064,98.4031],[106.3553,3.0672,67.6697],[106.3533,3.078,63.1982],[106.3575,3.0829,25.1981],[106.358,3.0919,0.0]]],
[[[106.339,3.0596,0.0],[106.3343,3.0585,3.649],[106.3334,3.0541,5.0314],[106.3349,3.0518,2.1772],[106.3379,3.0522,0.0],[106.339,3.0596,0.0]]],
[[[106.3186,3.0648,11.6529],[106.3205,3.0644,11.6529],[106.3203,3.0669,1.2081],[106.3188,3.066,1.2081],[106.3186,3.0648,11.6529]]],
[[[106.3219,3.0718,2.8581],[106.3228,3.0711,0.0],[106.3232,3.0733,0.0],[106.3227,3.073,0.0],[106.3219,3.0718,2.8581]]],
[[[106.3372,3.0843,0.0],[106.3347,3.0864,19.7912],[106.3355,3.0916,0.0],[106.3328,3.0946,4.1118],[106.331,3.0928,36.0279],[106.3309,3.0858,41.292],[106.3293,3.0833,11.5999],[106.3307,3.0809,3.9476],[106.3273,3.0803,4.4095],[106.3264,3.0782,1.8032],[106.3262,3.0756,2.5344],[106.3282,3.075,7.0942],[106.3284,3.073,1.4086],[106.3319,3.081,17.4829],[106.3349,3.0774,4.5881],[106.3374,3.0793,0.0],[106.3372,3.0843,0.0]]],
[[[106.3459,3.1055,0.0],[106.3441,3.1063,1.6802],[106.3439,3.1111,0.0],[106.3408,3.105,4.1929],[106.3444,3.1028,9.9187],[106.3446,3.0952,0.0],[106.3458,3.0943,17.4405],[106.3483,3.0968,0.0],[106.3476,3.1017,0.0],[106.3455,3.1023,4.6628],[106.3459,3.1055,0.0]]],
[[[106.3553,3.1028,8.7383],[106.3542,3.1037,8.7383],[106.3553,3.1089,3.2833],[106.353,3.1098,0.0],[106.3501,3.1049,13.4884],[106.3509,3.1,0.0],[106.3526,3.0996,10.4463],[106.3553,3.1028,8.7383]]],
[[[106.3847,3.1537,9.272],[106.3826,3.1537,24.9237],[106.3818,3.1504,0.0],[106.3853,3.1523,9.272],[106.3847,3.1537,9.272]]],
[[[106.3895,3.1579,3.3063],[106.3878,3.1582,0.0],[106.386,3.1546,0.0],[106.3869,3.1516,2.4471],[106.3898,3.1566,16.5468],[106.3895,3.1579,3.3063]]],
[[[106.3087,3.0848,0.0],[106.3093,3.0844,0.0],[106.3094,3.0854,0.0],[106.3088,3.0855,2.4845],[106.3087,3.0848,0.0]]],
[[[106.3447,3.0934,10.3723],[106.343,3.0938,0.0],[106.3419,3.0919,22.6175],[106.3428,3.0846,3.6163],[106.3447,3.0869,9.7741],[106.3447,3.0934,10.3723]]],
[[[106.342,3.1262,0.5284],[106.3407,3.1405,7.3414],[106.3423,3.1468,3.8711],[106.3406,3.1514,0.0],[106.3387,3.1409,11.004],[106.3366,3.1471,0.0],[106.3346,3.1481,0.0],[106.3288,3.14,82.2711],[106.3271,3.1399,1.9319],[106.329,3.149,0.0],[106.3349,3.1565,28.5798],[106.3343,3.1588,0.0],[106.3308,3.1558,23.7804],[106.328,3.1589,0.0],[106.3273,3.149,6.5707],[106.3254,3.1459,13.9302],[106.32,3.1449,0.0],[106.3154,3.1347,4.8991],[106.3116,3.1352,30.1591],[106.3104,3.1438,9.0976],[106.3129,3.1512,0.0],[106.3122,3.1547,54.3357],[106.3176,3.1645,2.6951],[106.317,3.1696,0.0],[106.314,3.1661,1.5458],[106.3144,3.1643,6.6717],[106.3122,3.1633,0.0],[106.3117,3.1599,1.0203],[106.3079,3.158,0.0],[106.3076,3.1518,7.4645],[106.3008,3.1496,0.0],[106.3003,3.1443,12.4919],[106.3018,3.1429,0.0],[106.2996,3.1386,6.6757],[106.2966,3.1441,0.0],[106.2961,3.1414,4.1875],[106.2948,3.1421,0.0],[106.2925,3.1381,0.0],[106.2922,3.1316,7.1133],[106.2896,3.1294,0.633],[106.2867,3.1294,1.5264],[106.2852,3.1229,0.0],[106.2891,3.1153,2.8846],[106.2895,3.1117,0.5131],[106.2922,3.1122,14.4336],[106.2919,3.1092,11.5222],[106.2963,3.1045,3.4219],[106.2988,3.1087,0.0],[106.3002,3.1274,8.6013],[106.3029,3.1236,25.8156],[106.3023,3.1203,3.621],[106.3083,3.1174,50.5944],[106.3098,3.1144,0.0],[106.3116,3.1149,2.0504],[106.3086,3.1057,16.648],[106.31,3.0999,0.0],[106.3086,3.0975,8.2122],[106.3065,3.0997,0.0],[106.3054,3.0958,10.1449],[106.3063,3.0882,29.6919],[106.3088,3.0864,2.4845],[106.3155,3.0897,7.5239],[106.3168,3.1016,7.2268],[106.3201,3.1017,8.8594],[106.321,3.1135,0.0],[106.3231,3.1152,0.0],[106.322,3.1203,4.3848],[106.324,3.1235,4.1363],[106.3266,3.1138,0.0],[106.3281,3.1126,3.3775],[106.3304,3.1162,0.6078],[106.3305,3.1249,3.3191],[106.334,3.1186,0.0],[106.3354,3.1245,3.5497],[106.3371,3.1256,100.3409],[106.3373,3.1218,36.2722],[106.3391,3.1202,0.0],[106.3436,3.1238,0.0],[106.342,3.1262,0.5284]]],
[[[106.2834,3.1018,99.0932],[106.2893,3.0983,4.1288],[106.2891,3.1041,1.4086],[106.2884,3.1057,0.0],[106.2867,3.1042,1.8259],[106.2833,3.1202,2.657],[106.2818,3.1181,17.9319],[106.2819,3.1121,15.9404],[106.2796,3.1139,0.0],[106.2759,3.1062,64.7943],[106.2765,3.1199,0.0],[106.2749,3.1201,0.0],[106.2713,3.1155,22.9599],[106.2686,3.1155,0.9639],[106.2698,3.12,2.0234],[106.2774,3.1243,0.0],[106.2765,3.1266,0.0],[106.2797,3.138,0.0],[106.2812,3.1399,18.018],[106.2834,3.1395,11.3583],[106.2852,3.1421,55.9795],[106.2854,3.1481,60.0153],[106.2883,3.1507,0.0],[106.2915,3.161,6.0697],[106.2906,3.1683,0.5767],[106.2887,3.1698,1.3905],[106.288,3.1739,6.2292],[106.2893,3.1763,5.0294],[106.2877,3.1805,0.0],[106.2852,3.1794,0.0],[106.2819,3.1711,4.8415],[106.2802,3.1745,0.0],[106.2742,3.1702,8.3715],[106.2733,3.1736,0.0],[106.275,3.1804,26.3342],[106.2791,3.1802,0.8525],[106.2825,3.1823,3.912],[106.2821,3.1872,0.0],[106.2788,3.191,0.0],[106.2777,3.1957,0.0],[106.2758,3.1951,9.3424],[106.2757,3.1975,0.0],[106.2678,3.1923,241.1512],[106.2661,3.1743,171.7084],[106.2639,3.169,272.5302],[106.2587,3.1629,379.4143],[106.2496,3.1571,413.9843],[106.2544,3.1533,384.0592],[106.2572,3.1487,341.3195],[106.2606,3.1187,165.0115],[106.2664,3.1141,31.8992],[106.2677,3.1083,196.9495],[106.2717,3.1044,67.4122],[106.2834,3.1018,99.0932]]],
[[[106.2939,3.1592,8.8942],[106.2954,3.1588,8.8942],[106.2958,3.1623,3.966],[106.2938,3.167,0.0],[106.2924,3.1624,3.0648],[106.2939,3.1592,8.8942]]],
[[[106.3086,3.1742,0.0],[106.3037,3.1813,0.0],[106.3001,3.1749,29.0978],[106.2984,3.1777,0.0],[106.297,3.1766,10.2904],[106.2975,3.1716,4.8819],[106.2988,3.17,1.1847],[106.3,3.1708,30.1849],[106.3017,3.1655,0.0],[106.3104,3.173,0.0],[106.3102,3.1745,0.0],[106.3086,3.1742,0.0]]],
[[[106.3043,3.1842,11.2894],[106.306,3.1847,11.2894],[106.3048,3.1873,0.0],[106.3042,3.186,2.9854],[106.3043,3.1842,11.2894]]],
[[[106.3709,3.1592,22.3457],[106.372,3.1648,0.0],[106.3698,3.1612,0.0],[106.3648,3.159,0.0],[106.3627,3.1539,0.0],[106.3658,3.1557,43.1908],[106.3682,3.1552,0.0],[106.3709,3.1592,22.3457]]],
[[[106.3668,3.1614,0.0],[106.3672,3.1608,0.0],[106.3677,3.161,0.0],[106.3674,3.1619,0.0],[106.3668,3.1614,0.0]]],
[[[106.3689,3.19,4.1481],[106.3668,3.1899,19.1792],[106.3656,3.186,10.8747],[106.3627,3.184,0.0],[106.3628,3.1818,0.0],[106.3652,3.1798,10.0735],[106.3633,3.1775,0.0],[106.3662,3.1738,3.9644],[106.3613,3.1686,0.0],[106.3615,3.1657,0.0],[106.3643,3.1617,0.0],[106.3677,3.1635,1.1123],[106.365,3.169,3.3769],[106.3682,3.1741,0.0],[106.3669,3.1755,54.3842],[106.3698,3.1771,31.7283],[106.3689,3.19,4.1481]]],
[[[106.3542,3.1898,7.1469],[106.3552,3.1909,3.8661],[106.3539,3.1917,3.8661],[106.3531,3.1897,0.0],[106.3542,3.1898,7.1469]]],
[[[106.3049,3.1997,1.0416],[106.3055,3.2012,0.0],[106.3036,3.2021,0.0],[106.3,3.1988,2.0375],[106.2958,3.1994,0.0],[106.2932,3.1977,0.0],[106.2935,3.1933,0.0],[106.2914,3.1902,0.0],[106.2939,3.1854,7.7827],[106.2963,3.1843,0.0],[106.2987,3.189,0.0],[106.2982,3.1946,20.5586],[106.3007,3.1913,6.5821],[106.3025,3.1941,0.0],[106.3015,3.196,27.7404],[106.3049,3.1997,1.0416]]],
[[[106.308,3.194,0.0],[106.3105,3.1959,1.9535],[106.3089,3.2013,0.0],[106.3081,3.1994,0.0],[106.308,3.194,0.0]]],
[[[106.3022,3.2046,6.0912],[106.3046,3.2053,0.0],[106.3014,3.209,0.0],[106.3009,3.2062,5.8131],[106.3022,3.2046,6.0912]]],
[[[106.3525,3.1984,0.4656],[106.3531,3.1979,0.4656],[106.3538,3.199,0.0],[106.3532,3.1992,0.0],[106.3525,3.1984,0.4656]]],
[[[106.3513,3.2024,1.5001],[106.3496,3.2032,1.5001],[106.3477,3.1982,0.0],[106.3512,3.2013,20.5207],[106.3513,3.2024,1.5001]]],
[[[106.39,3.2575,2.873],[106.3908,3.2637,0.0],[106.3886,3.262,8.1828],[106.3892,3.26,2.6338],[106.3862,3.2558,0.0],[106.39,3.2575,2.873]]],
[[[106.4375,3.1661,3.0507],[106.4322,3.1638,0.0],[106.4281,3.1574,3.1543],[106.4319,3.1613,9.1013],[106.4363,3.1606,0.0],[106.4375,3.1661,3.0507]]],
[[[106.3969,3.1661,2.5732],[106.3976,3.1673,0.0],[106.397,3.1681,0.0],[106.3956,3.166,0.6478],[106.3969,3.1661,2.5732]]],
[[[106.437,3.2437,3.1713],[106.4374,3.243,3.1713],[106.4383,3.244,0.0],[106.4378,3.2443,0.0],[106.437,3.2437,3.1713]]],
[[[106.4455,3.1945,0.9442],[106.4462,3.1938,0.0],[106.4466,3.1949,0.0],[106.4458,3.1948,0.9442],[106.4455,3.1945,0.9442]]],
[[[106.4877,3.2111,0.0],[106.4857,3.2113,1.1274],[106.4826,3.2079,4.6466],[106.48,3.2076,2.4675],[106.4772,3.1901,0.7036],[106.4841,3.1947,27.7663],[106.4863,3.1936,0.0],[106.4861,3.1893,0.0],[106.4884,3.1895,1.6837],[106.4921,3.1988,45.9373],[106.4927,3.1916,1.9261],[106.4959,3.1887,34.7561],[106.4946,3.1855,0.0],[106.4978,3.1837,0.0],[106.5012,3.1918,3.3688],[106.499,3.1921,0.0],[106.498,3.1899,24.6143],[106.4961,3.1907,0.8472],[106.5012,3.2027,2.9592],[106.4991,3.2055,0.0],[106.4966,3.2058,0.0],[106.493,3.2042,0.0],[106.4907,3.1997,7.5204],[106.488,3.1994,3.5052],[106.4866,3.2041,53.712],[106.4877,3.2111,0.0]]],
[[[106.4543,3.2113,5.8397],[106.4559,3.2113,5.8397],[106.456,3.2126,0.0],[106.4553,3.2127,0.0],[106.4543,3.2113,5.8397]]],
[[[106.4859,3.2232,1.6964],[106.4836,3.2225,2.0221],[106.4828,3.2185,8.0645],[106.4777,3.2158,24.0305],[106.477,3.2075,1.3126],[106.4798,3.2093,0.0],[106.481,3.2137,7.382],[106.4872,3.2206,0.0],[106.4859,3.2232,1.6964]]],
[[[106.4753,3.2246,5.3569],[106.476,3.2238,5.3569],[106.4766,3.2259,0.4958],[106.4755,3.2258,0.4958],[106.4753,3.2246,5.3569]]],
[[[106.4736,3.2328,0.0],[106.4693,3.2298,21.14],[106.4717,3.2252,0.0],[106.4743,3.2261,1.4004],[106.4751,3.232,0.0],[106.4736,3.2328,0.0]]],
[[[106.4522,3.2461,33.8712],[106.4526,3.2514,0.0],[106.4457,3.2461,3.5484],[106.4415,3.2476,0.0],[106.4377,3.2401,0.0],[106.4396,3.2383,2.2112],[106.4413,3.2389,28.9755],[106.4409,3.2365,0.8583],[106.444,3.2355,69.6492],[106.4446,3.2323,30.2794],[106.4491,3.2333,11.5136],[106.4518,3.2322,20.6036],[106.4514,3.2283,0.0],[106.4563,3.2258,24.3845],[106.4583,3.2308,8.3566],[106.4559,3.2347,0.0],[106.4521,3.2339,59.2055],[106.454,3.2416,0.0],[106.4516,3.2423,64.8548],[106.4522,3.2461,33.8712]]],
[[[106.4497,3.2505,0.257],[106.4494,3.252,0.257],[106.4482,3.2501,5.2578],[106.4492,3.2492,5.2578],[106.4497,3.2505,0.257]]],
[[[106.4509,3.2575,11.4986],[106.4516,3.2586,11.4986],[106.447,3.2581,7.7316],[106.4445,3.2518,0.0],[106.4497,3.2538,44.7537],[106.4509,3.2575,11.4986]]]]}}