{"type":"Feature","properties":{"GID_3":"IDN.23.18.10_1","GID_0":"IDN","country":"Indonesia","GID_1":"IDN.23_1","province":"Papua","NL_NAME_1":"NA","GID_2":"IDN.23.18_1","county":"Nabire","NL_NAME_2":"NA","city":"Uwapa","VARNAME_3":"NA","NL_NAME_3":"NA","TYPE_3":"Distrik","ENGTYPE_3":"District","CC_3":"9404050","HASC_3":"NA","name":"Uwapa.city"},
"geometry":{"type": "MultiPolygon","coordinates": [[[[135.5767,-3.5548,114.7596],[135.5964,-3.5504,456.1508],[135.6204,-3.5652,693.5015],[135.6346,-3.5461,338.2155],[135.6587,-3.5083,346.4709],[135.6652,-3.5007,429.6198],[135.7144,-3.4892,366.1667],[135.7292,-3.4837,741.1394],[135.7453,-3.4741,1047.6647],[135.7359,-3.46,755.4508],[135.7234,-3.4498,589.454],[135.7143,-3.4395,322.3379],[135.7097,-3.4248,209.5389],[135.7131,-3.4111,264.0043],[135.7347,-3.3964,315.7392],[135.7836,-3.377,361.9532],[135.8006,-3.3736,587.2575],[135.8181,-3.3757,257.6477],[135.8246,-3.3525,178.5408],[135.8352,-3.3331,311.1929],[135.8368,-3.3099,154.0009],[135.8348,-3.3057,156.9814],[135.8252,-3.3003,411.8069],[135.8118,-3.2963,525.064],[135.8036,-3.2951,594.9769],[135.7839,-3.2963,556.3732],[135.7731,-3.293,529.0444],[135.7566,-3.2911,250.1301],[135.7476,-3.2868,188.0389],[135.7367,-3.2855,550.1411],[135.7035,-3.2739,193.1611],[135.7012,-3.2756,212.5964],[135.7012,-3.2784,234.1882],[135.6964,-3.2782,279.7753],[135.6644,-3.3155,548.2471],[135.6554,-3.3237,334.2587],[135.6396,-3.3434,238.288],[135.6387,-3.3465,246.17],[135.627,-3.3586,299.3635],[135.6224,-3.3669,231.9861],[135.6178,-3.3699,221.9334],[135.5952,-3.393,359.2466],[135.5902,-3.3925,331.5822],[135.5826,-3.4056,266.6855],[135.572,-3.4139,416.7631],[135.5614,-3.4255,348.19],[135.5481,-3.4338,247.8957],[135.5206,-3.4392,228.0669],[135.4556,-3.4668,16.0288],[135.4525,-3.4647,18.4318],[135.4489,-3.4653,12.7318],[135.4482,-3.4688,18.3763],[135.4514,-3.4726,26.9817],[135.4554,-3.4767,28.4711],[135.4618,-3.4796,147.8395],[135.4787,-3.4988,241.5768],[135.4793,-3.5104,137.6328],[135.4775,-3.5197,65.8095],[135.4816,-3.5221,32.0393],[135.4857,-3.5279,97.6117],[135.4822,-3.5354,136.1901],[135.4839,-3.5384,89.8019],[135.495,-3.543,208.3466],[135.4944,-3.5605,103.7584],[135.5095,-3.5756,259.6311],[135.5111,-3.5797,240.9391],[135.5182,-3.5783,101.6863],[135.5226,-3.5827,106.4228],[135.5319,-3.5805,107.9972],[135.5493,-3.563,98.6792],[135.5641,-3.5537,105.9492],[135.569,-3.5575,99.9759],[135.5767,-3.5548,114.7596]]]]}}