{"type":"Feature","properties":{"GID_3":"IDN.6.4.4_1","GID_0":"IDN","country":"Indonesia","GID_1":"IDN.6_1","province":"Gorontalo","NL_NAME_1":"NA","GID_2":"IDN.6.4_1","county":"GorontaloUtara","NL_NAME_2":"NA","city":"Kwandang","VARNAME_3":"NA","NL_NAME_3":"NA","TYPE_3":"Kecamatan","ENGTYPE_3":"Sub-district","CC_3":"7505020","HASC_3":"NA","name":"Kwandang.city"},
"geometry":{"type": "MultiPolygon","coordinates": [[[[123.0039,0.812,676.2157],[123.0059,0.828,678.993],[122.9993,0.8528,347.1214],[122.9975,0.8763,279.3864],[122.9999,0.889,329.431],[122.9972,0.8981,152.5147],[122.9996,0.9274,359.8723],[123.002,0.9335,324.0389],[123.0071,0.9375,107.4247],[123.0071,0.9434,19.5506],[122.9988,0.9434,0.0],[122.9946,0.9468,3.038],[122.9987,0.9511,0.0],[122.9987,0.9537,0.0],[123.0024,0.9565,5.2612],[122.9969,0.9577,9.2187],[122.9953,0.9602,4.7163],[122.9974,0.9613,2.9467],[122.9919,0.9631,16.92],[122.9862,0.9679,0.0],[122.9763,0.9658,4.1235],[122.97,0.9672,0.0],[122.9567,0.9638,0.0],[122.945,0.9648,0.0],[122.9389,0.9581,8.9807],[122.9429,0.9516,0.0],[122.9398,0.9444,18.358],[122.9427,0.941,3.4663],[122.9456,0.9412,8.7919],[122.9457,0.9381,0.0],[122.9495,0.9394,20.4143],[122.9567,0.9363,5.2035],[122.9753,0.9408,12.7896],[122.9764,0.9383,10.343],[122.9624,0.9295,0.0],[122.9562,0.9203,9.6252],[122.9501,0.9227,1.2607],[122.9499,0.9199,2.76],[122.9517,0.9179,18.0636],[122.9459,0.9128,0.0],[122.9506,0.9055,6.7636],[122.9485,0.9014,11.0343],[122.952,0.8941,30.4333],[122.951,0.8929,15.7837],[122.9458,0.8949,1.6948],[122.9448,0.8904,15.1561],[122.9406,0.8925,0.0],[122.9391,0.8888,10.7526],[122.9352,0.889,0.0],[122.934,0.8838,0.6098],[122.9303,0.8848,0.0],[122.924,0.8755,0.0],[122.9269,0.8724,9.1176],[122.9262,0.8683,3.0642],[122.9214,0.8674,1.5753],[122.9225,0.8658,9.4793],[122.9211,0.8606,14.1756],[122.9147,0.8585,19.8012],[122.9138,0.8559,0.9291],[122.9064,0.8573,0.0],[122.9077,0.8541,0.0],[122.905,0.8525,0.8853],[122.8973,0.8539,0.0],[122.8981,0.8495,3.8652],[122.8968,0.8491,0.0],[122.8961,0.8455,2.2926],[122.8936,0.8429,5.9515],[122.8885,0.8416,1.1612],[122.8878,0.8386,12.3636],[122.8852,0.8378,0.0],[122.8801,0.8312,1.0238],[122.871,0.8264,5.1966],[122.8636,0.8282,2.1755],[122.8596,0.8267,5.9019],[122.858,0.8203,0.0],[122.8605,0.8141,4.2859],[122.8573,0.8132,0.0],[122.8587,0.8085,3.4771],[122.8517,0.8093,0.0],[122.8496,0.8027,0.0],[122.8473,0.8014,7.3444],[122.8447,0.8024,0.0],[122.8423,0.8073,0.0],[122.8343,0.7898,110.2335],[122.8273,0.786,19.6056],[122.8237,0.776,32.1548],[122.8262,0.7596,93.5103],[122.8203,0.7551,221.262],[122.8189,0.751,223.446],[122.8257,0.7546,158.0007],[122.8305,0.755,140.0637],[122.8434,0.7623,127.5192],[122.8482,0.7607,161.9182],[122.8766,0.7649,238.4685],[122.8806,0.7639,263.3548],[122.8819,0.7619,298.877],[122.894,0.7617,233.2114],[122.9018,0.7584,335.546],[122.9012,0.7555,304.7883],[122.9055,0.7472,478.6109],[122.9051,0.7387,312.6297],[122.907,0.7354,347.59],[122.906,0.7256,360.8283],[122.9033,0.7246,356.7795],[122.9038,0.7227,353.3046],[122.8993,0.7125,301.3819],[122.904,0.7097,355.2944],[122.9021,0.7064,296.0332],[122.9025,0.7018,282.3201],[122.9005,0.6995,219.7912],[122.9064,0.6958,269.4846],[122.9117,0.6948,296.0782],[122.9185,0.689,290.6851],[122.9263,0.6943,224.3051],[122.9288,0.7023,247.0162],[122.928,0.7097,331.2989],[122.9308,0.7097,334.7361],[122.9323,0.7137,432.9875],[122.9434,0.7102,313.2195],[122.9673,0.715,420.0784],[122.9692,0.7156,409.4327],[122.9702,0.7191,435.3939],[122.976,0.7209,398.6195],[122.9793,0.7261,442.6198],[122.983,0.7285,476.2335],[122.9836,0.7304,458.6103],[122.9796,0.732,576.1487],[122.9807,0.7379,507.5624],[122.9775,0.7421,678.2692],[122.9814,0.7451,640.8207],[122.9833,0.7549,586.5073],[122.9879,0.7602,479.2687],[122.9929,0.7613,479.1057],[122.9966,0.7665,436.9756],[123.0003,0.7655,396.817],[123.0053,0.7703,333.5844],[123.0097,0.7896,348.2788],[123.0082,0.7927,353.17],[123.0014,0.7971,308.4023],[123.0029,0.7991,336.9034],[123.0039,0.812,676.2157]]],
[[[122.8936,0.8529,0.0],[122.8934,0.8527,0.0],[122.8938,0.8527,0.0],[122.8938,0.8529,0.0],[122.8936,0.8529,0.0]]],
[[[122.8983,0.8552,0.0],[122.8989,0.8555,0.0],[122.8987,0.8563,0.0],[122.8985,0.856,0.0],[122.8983,0.8552,0.0]]],
[[[122.8954,0.8585,4.1674],[122.8955,0.8583,4.1674],[122.8958,0.8582,0.0],[122.8957,0.8588,0.0],[122.8954,0.8585,4.1674]]],
[[[122.9376,0.9567,0.0],[122.9375,0.9562,0.0],[122.938,0.9563,0.0],[122.938,0.9567,0.0],[122.9376,0.9567,0.0]]],
[[[122.9385,0.9533,0.0],[122.9392,0.9531,0.0],[122.9396,0.9537,0.0],[122.939,0.9538,2.3035],[122.9385,0.9533,0.0]]],
[[[122.9476,0.9663,0.0],[122.948,0.9659,0.0],[122.9483,0.9661,0.0],[122.948,0.9665,0.0],[122.9476,0.9663,0.0]]],
[[[122.9473,0.9731,0.0],[122.9476,0.9727,0.0],[122.948,0.9734,0.0],[122.9475,0.9735,0.0],[122.9473,0.9731,0.0]]],
[[[122.9443,0.9763,0.0],[122.9442,0.9759,0.0],[122.9446,0.9757,0.0],[122.9448,0.9761,0.0],[122.9443,0.9763,0.0]]],
[[[122.9391,0.983,0.0],[122.9394,0.9834,0.0],[122.9388,0.9833,0.0],[122.9388,0.983,0.0],[122.9391,0.983,0.0]]],
[[[122.877,0.8704,0.0],[122.8774,0.87,5.5576],[122.8775,0.87,5.5576],[122.8772,0.8708,0.767],[122.877,0.8704,0.0]]],
[[[122.8597,0.8987,24.4332],[122.8542,0.8984,13.0228],[122.8525,0.8963,4.9192],[122.8547,0.8962,13.5199],[122.8564,0.8938,0.0],[122.8612,0.8943,24.6161],[122.8628,0.8916,0.0],[122.8668,0.8931,14.0697],[122.8673,0.8912,0.0],[122.8689,0.8933,1.8389],[122.8769,0.8926,4.4721],[122.8816,0.8875,2.639],[122.884,0.89,3.1923],[122.8837,0.8888,3.1923],[122.8821,0.887,0.6111],[122.883,0.8782,0.0],[122.8784,0.8699,5.5576],[122.8783,0.8639,3.3288],[122.8806,0.8631,2.2355],[122.881,0.8584,0.0],[122.8864,0.8582,1.3183],[122.8923,0.8533,0.0],[122.8953,0.8539,0.4096],[122.8952,0.859,5.1528],[122.8983,0.8609,0.0],[122.8966,0.8642,5.9599],[122.898,0.8675,0.0],[122.8898,0.8738,0.0],[122.893,0.8864,14.368],[122.8917,0.889,0.0],[122.8857,0.8904,12.6563],[122.8834,0.8963,12.1598],[122.877,0.8973,0.0],[122.8696,0.8937,1.8389],[122.865,0.8986,17.9182],[122.8597,0.8987,24.4332]]],
[[[122.8477,0.9031,0.0],[122.8477,0.9055,10.1092],[122.8457,0.9055,0.0],[122.8456,0.904,5.6258],[122.8477,0.9031,0.0]]],
[[[122.8776,0.9262,4.7309],[122.8721,0.9256,1.8322],[122.8752,0.9244,2.3823],[122.8737,0.9211,3.7056],[122.8776,0.9196,0.0],[122.8788,0.9216,1.9082],[122.8764,0.9239,2.3823],[122.8797,0.9258,0.0],[122.8776,0.9262,4.7309]]],
[[[122.8612,0.9236,0.0],[122.8612,0.9232,0.0],[122.8618,0.9234,0.0],[122.8613,0.9236,0.0],[122.8612,0.9236,0.0]]],
[[[122.8642,0.924,0.0],[122.8659,0.9259,7.1002],[122.8638,0.9272,0.0],[122.8634,0.9267,5.5434],[122.8642,0.924,0.0]]],
[[[122.8618,0.9364,0.0],[122.8619,0.936,0.0],[122.8622,0.936,0.0],[122.8622,0.9364,0.0],[122.8618,0.9364,0.0]]],
[[[122.8586,0.9354,0.0],[122.8589,0.9393,0.0],[122.8578,0.94,15.258],[122.8567,0.9364,3.3343],[122.8586,0.9354,0.0]]],
[[[122.8922,0.9655,8.3949],[122.8927,0.9674,1.9991],[122.89,0.9657,4.049],[122.8895,0.9633,0.0],[122.8908,0.9635,0.0],[122.8922,0.9655,8.3949]]],
[[[122.8893,0.9665,0.0],[122.8893,0.9662,0.0],[122.8896,0.9663,4.049],[122.8896,0.9665,4.049],[122.8893,0.9665,0.0]]],
[[[122.9352,0.9846,0.0],[122.9316,0.9881,9.4912],[122.929,0.9856,0.0],[122.9328,0.9817,0.0],[122.9352,0.9846,0.0]]]]}}