{"type":"Feature","properties":{"GID_3":"IDN.16.4.1_1","GID_0":"IDN","country":"Indonesia","GID_1":"IDN.16_1","province":"KepulauanRiau","NL_NAME_1":"NA","GID_2":"IDN.16.4_1","county":"KepulauanAnambas","NL_NAME_2":"NA","city":"JemajaTimur","VARNAME_3":"NA","NL_NAME_3":"NA","TYPE_3":"Kecamatan","ENGTYPE_3":"Sub-district","CC_3":"2105020","HASC_3":"NA","name":"Jemaja_Timur.city"},
"geometry":{"type": "MultiPolygon","coordinates": [[[[105.7755,2.8411,0.0],[105.7747,2.8455,0.0],[105.7734,2.8457,0.0],[105.7722,2.8421,6.6263],[105.7752,2.8399,2.0147],[105.7755,2.8411,0.0]]],
[[[105.705,2.8956,149.3605],[105.7049,2.8937,75.3062],[105.699,2.8894,17.4232],[105.7031,2.8819,1.0099],[105.7005,2.8813,2.377],[105.6993,2.8825,0.0],[105.699,2.881,1.3515],[105.6932,2.8823,0.0],[105.6915,2.8785,14.411],[105.6934,2.8762,53.5828],[105.6924,2.8733,6.6269],[105.6963,2.8729,8.2314],[105.698,2.8703,6.6035],[105.6947,2.868,0.0],[105.6949,2.8653,4.8067],[105.6937,2.8647,4.8067],[105.6974,2.861,29.9111],[105.6978,2.8586,15.0642],[105.693,2.8559,4.4924],[105.6935,2.8512,5.816],[105.6944,2.8499,3.0292],[105.6962,2.8511,9.4346],[105.7011,2.8467,8.7539],[105.7043,2.8415,16.5514],[105.7036,2.8377,16.0071],[105.7087,2.8354,0.0],[105.7107,2.8372,2.8956],[105.7122,2.8367,9.8763],[105.7129,2.831,2.3723],[105.7162,2.8333,39.8057],[105.7201,2.8302,10.5685],[105.7204,2.8265,20.5473],[105.725,2.8209,87.0093],[105.7257,2.8175,11.8494],[105.7308,2.8174,13.0645],[105.7327,2.8154,0.0],[105.7386,2.8218,0.0],[105.7387,2.8308,5.9044],[105.7401,2.8327,24.6758],[105.7429,2.829,49.0195],[105.7431,2.8255,12.9791],[105.7459,2.8254,2.7768],[105.7449,2.8186,3.5957],[105.7491,2.8199,3.3779],[105.75,2.8223,7.359],[105.7469,2.8268,0.0],[105.75,2.8271,35.1612],[105.7515,2.8299,3.5547],[105.7552,2.8292,21.9177],[105.7554,2.8271,11.8392],[105.7591,2.8255,0.0],[105.7599,2.8294,0.0],[105.7579,2.8328,6.7725],[105.7595,2.8349,8.1111],[105.7655,2.8357,41.5206],[105.7696,2.8335,0.0],[105.7702,2.8352,0.0],[105.7701,2.8437,0.0],[105.7664,2.8497,7.6962],[105.7646,2.851,0.0],[105.7619,2.8493,0.0],[105.7575,2.8517,1.2352],[105.7546,2.857,7.4066],[105.75,2.8548,0.55],[105.7456,2.8556,0.0],[105.7419,2.8545,0.0],[105.7392,2.8514,1.1435],[105.7356,2.8546,0.8883],[105.7332,2.8632,0.0],[105.728,2.8663,0.0],[105.7268,2.8705,0.0],[105.7223,2.874,9.2262],[105.7304,2.8757,3.9685],[105.7319,2.88,7.3322],[105.7342,2.8808,9.4874],[105.7368,2.8793,9.2934],[105.7411,2.8679,0.0],[105.7437,2.8681,0.0],[105.7441,2.8696,7.1371],[105.7477,2.8676,17.2601],[105.7552,2.8735,5.3398],[105.7612,2.8716,2.5125],[105.7676,2.8722,4.2218],[105.7699,2.8748,0.0],[105.7707,2.8805,10.8759],[105.7728,2.8814,11.4911],[105.7715,2.8855,0.0],[105.7677,2.8886,0.0],[105.7661,2.8947,4.632],[105.7693,2.8952,0.0],[105.7703,2.8982,6.7117],[105.778,2.8952,0.0],[105.7814,2.8977,15.1893],[105.7831,2.897,0.0],[105.7852,2.9067,0.7705],[105.7925,2.8947,3.0357],[105.798,2.8925,38.2191],[105.8004,2.8882,19.1887],[105.8114,2.8881,6.5561],[105.8127,2.8861,0.0],[105.8154,2.8887,3.5098],[105.8196,2.886,9.4894],[105.822,2.8867,2.3274],[105.8214,2.8911,0.0],[105.8175,2.894,4.1706],[105.8184,2.8972,0.0],[105.8117,2.9019,11.2851],[105.8085,2.902,11.0291],[105.8057,2.9049,3.7563],[105.7957,2.909,0.4084],[105.7965,2.9105,47.6003],[105.8025,2.9104,4.9493],[105.8028,2.909,4.9493],[105.8038,2.9099,4.9493],[105.8081,2.9074,29.9067],[105.8138,2.9066,0.0],[105.818,2.909,51.837],[105.8228,2.9075,14.5791],[105.8284,2.9108,10.2559],[105.8247,2.9145,0.0],[105.8215,2.9155,1.7508],[105.8224,2.9174,54.0768],[105.8268,2.9182,0.0],[105.8268,2.9201,0.0],[105.8225,2.9209,0.0],[105.8215,2.926,0.0],[105.8147,2.9286,2.6243],[105.8142,2.9322,32.4674],[105.8187,2.9351,0.0],[105.815,2.938,0.0],[105.811,2.9442,6.5626],[105.8136,2.9444,1.0882],[105.8173,2.949,9.8925],[105.8214,2.9489,0.0],[105.8188,2.954,1.14],[105.8208,2.9567,12.0317],[105.824,2.9567,3.2528],[105.8244,2.9583,5.7131],[105.8191,2.9679,1.6118],[105.8205,2.9706,11.286],[105.8295,2.9699,9.1546],[105.8348,2.9593,2.4314],[105.8447,2.9586,1.1303],[105.8493,2.9566,7.5843],[105.852,2.9574,1.777],[105.8515,2.9593,0.0],[105.8449,2.9596,1.0858],[105.8448,2.9615,25.1157],[105.8487,2.9636,0.0],[105.846,2.9665,2.132],[105.8427,2.9665,3.3095],[105.8414,2.9701,0.0],[105.8456,2.9736,1.9752],[105.8474,2.9781,0.0],[105.8417,2.978,6.3758],[105.8408,2.9797,3.1285],[105.8414,2.982,0.0],[105.8509,2.9877,0.0],[105.8451,2.9895,23.5685],[105.8449,2.9907,0.0],[105.8411,2.9901,16.5884],[105.8337,2.9931,0.0],[105.8294,2.9892,25.8073],[105.8244,2.991,0.0],[105.8194,2.9898,10.124],[105.8159,2.9923,0.0],[105.8171,2.9941,0.0],[105.8152,2.992,14.8542],[105.8107,2.9918,5.7134],[105.809,2.9902,10.7305],[105.8046,2.992,13.7712],[105.8039,2.9967,0.0],[105.8013,2.9977,21.3423],[105.801,3.0003,6.0539],[105.7975,2.9968,0.0],[105.8009,2.9956,6.017],[105.7982,2.9937,0.0],[105.8006,2.9924,2.3076],[105.7992,2.9897,0.9204],[105.7976,2.989,0.5821],[105.7966,2.9911,0.0],[105.7942,2.9911,0.0],[105.7882,2.988,2.9967],[105.7889,2.9854,26.7365],[105.7874,2.9832,4.3203],[105.7901,2.9802,2.0414],[105.7891,2.9758,0.5094],[105.7837,2.9716,4.5807],[105.7798,2.9729,0.0],[105.7784,2.9754,0.0],[105.7793,2.9769,0.0],[105.7777,2.9764,0.0],[105.776,2.9794,0.0],[105.7716,2.9798,0.0],[105.7701,2.982,1.8007],[105.7619,2.9812,0.0],[105.7596,2.9781,12.8553],[105.7612,2.9753,72.1234],[105.7602,2.9731,1.9936],[105.7548,2.9685,0.5045],[105.7492,2.9695,0.0],[105.7367,2.978,0.0],[105.7323,2.9592,12.0347],[105.7268,2.9511,4.7545],[105.7268,2.9484,12.0554],[105.74,2.9322,18.9093],[105.7416,2.9298,5.1842],[105.741,2.9277,3.4683],[105.7242,2.9153,184.7495],[105.705,2.8956,149.3605]]],
[[[105.7928,2.8836,20.6388],[105.7902,2.8861,0.0],[105.7853,2.8806,0.0],[105.7916,2.8748,5.2887],[105.7928,2.8762,8.5873],[105.7914,2.8786,15.9957],[105.7928,2.8836,20.6388]]],
[[[105.8487,2.9551,0.0],[105.8491,2.9549,0.0],[105.8495,2.9555,7.5843],[105.849,2.9558,7.4557],[105.8487,2.9551,0.0]]],
[[[105.8525,2.9557,0.0],[105.8514,2.9561,0.0],[105.8504,2.9555,7.5843],[105.8513,2.9549,2.6995],[105.8525,2.9557,0.0]]],
[[[105.7588,2.9754,1.512],[105.7593,2.9757,26.6564],[105.7589,2.9762,26.6564],[105.7586,2.9759,0.0],[105.7588,2.9754,1.512]]],
[[[105.7774,2.979,0.0],[105.778,2.979,0.0],[105.7775,2.9797,0.0],[105.7773,2.9793,0.0],[105.7774,2.979,0.0]]],
[[[105.7713,2.9831,0.0],[105.7712,2.984,0.0],[105.7697,2.983,2.6509],[105.7705,2.9822,2.6509],[105.7713,2.9831,0.0]]],
[[[105.8532,2.9744,9.884],[105.8522,2.9758,0.0],[105.851,2.9753,0.8007],[105.8512,2.9744,0.8007],[105.8532,2.9744,9.884]]],
[[[105.8059,3.0087,11.6821],[105.8027,3.0079,8.0807],[105.8022,3.0059,69.0206],[105.8049,3.0035,42.5217],[105.8049,2.9994,2.2893],[105.8068,2.9969,0.0],[105.808,2.9979,0.0],[105.8071,2.9992,4.5189],[105.8103,3.0007,71.2678],[105.8123,2.9996,0.0],[105.8147,3.0024,0.0],[105.8141,3.0042,0.0],[105.8059,3.0087,11.6821]]],
[[[105.84,3.0105,4.9067],[105.8404,3.0127,0.0],[105.8341,3.0098,4.3791],[105.8381,3.0078,4.0771],[105.84,3.0105,4.9067]]]]}}