{"type":"Feature","properties":{"GID_3":"IDN.11.29.3_1","GID_0":"IDN","country":"Indonesia","GID_1":"IDN.11_1","province":"JawaTimur","NL_NAME_1":"NA","GID_2":"IDN.11.29_1","county":"Ponorogo","NL_NAME_2":"NA","city":"Balong","VARNAME_3":"NA","NL_NAME_3":"NA","TYPE_3":"Kecamatan","ENGTYPE_3":"Sub-district","CC_3":"3502110","HASC_3":"NA","name":"Balong.city"},
"geometry":{"type": "MultiPolygon","coordinates": [[[[111.3974,-7.9776,125.758],[111.4047,-7.9761,119.3469],[111.4052,-7.9739,116.6226],[111.4111,-7.9719,115.0299],[111.4136,-7.9663,109.1317],[111.4165,-7.9656,109.5372],[111.4155,-7.9695,111.7043],[111.4125,-7.9709,112.6018],[111.4129,-7.9741,114.3083],[111.4201,-7.9731,114.9306],[111.4197,-7.9699,111.9848],[111.4235,-7.966,109.8535],[111.4232,-7.9731,112.7331],[111.4249,-7.9736,110.2212],[111.4252,-7.9778,113.4475],[111.4261,-7.9717,113.5923],[111.4286,-7.9734,111.4126],[111.429,-7.9707,110.3422],[111.4309,-7.9707,108.9373],[111.4317,-7.9723,109.7552],[111.4383,-7.971,104.2849],[111.4379,-7.9676,104.1499],[111.4429,-7.9678,102.1905],[111.443,-7.9645,100.8532],[111.4456,-7.9628,100.3511],[111.4472,-7.9592,102.0574],[111.4508,-7.9595,101.4085],[111.4508,-7.9664,102.3322],[111.4557,-7.9681,110.1538],[111.4559,-7.9664,106.3234],[111.4577,-7.9664,107.9052],[111.4582,-7.968,107.0534],[111.4633,-7.9682,105.351],[111.4604,-7.963,106.4015],[111.4613,-7.9581,103.1676],[111.4647,-7.959,103.9851],[111.4677,-7.9568,102.3958],[111.4609,-7.9551,100.5649],[111.4624,-7.9475,100.3],[111.4582,-7.9473,99.2356],[111.4574,-7.9447,99.5076],[111.454,-7.9445,98.9332],[111.4534,-7.947,99.3507],[111.4505,-7.9466,99.1678],[111.4516,-7.938,98.8819],[111.4497,-7.9371,99.9008],[111.4518,-7.9312,102.6463],[111.454,-7.9285,99.8461],[111.4617,-7.931,99.9176],[111.462,-7.9282,99.437],[111.4598,-7.9273,104.1895],[111.4594,-7.9239,97.3343],[111.4541,-7.9228,99.589],[111.456,-7.9169,99.226],[111.4545,-7.9117,97.2835],[111.4555,-7.9061,95.4173],[111.4482,-7.9073,96.4413],[111.4484,-7.9111,95.6537],[111.4455,-7.9128,95.762],[111.4456,-7.9177,96.9223],[111.4385,-7.9163,101.53],[111.4404,-7.909,100.8749],[111.439,-7.9084,97.8807],[111.4387,-7.9097,97.5545],[111.4337,-7.9098,114.0033],[111.4301,-7.9142,143.2233],[111.4283,-7.9136,143.2148],[111.4253,-7.9203,221.5309],[111.4138,-7.9214,101.0968],[111.414,-7.9229,101.0968],[111.4183,-7.9248,100.2791],[111.4146,-7.9315,100.8141],[111.4168,-7.9338,100.8676],[111.4168,-7.9425,103.6448],[111.4222,-7.9426,104.4246],[111.4216,-7.9479,105.7377],[111.4229,-7.9477,104.3839],[111.4228,-7.9499,104.9055],[111.4186,-7.9525,108.4992],[111.4034,-7.9524,114.3139],[111.4031,-7.9504,117.1303],[111.4005,-7.9502,119.221],[111.401,-7.9466,119.8239],[111.3929,-7.945,122.6964],[111.3912,-7.9457,124.6709],[111.392,-7.9489,124.9624],[111.3947,-7.9527,123.7948],[111.3921,-7.9541,122.4495],[111.3898,-7.952,124.2768],[111.383,-7.9536,135.1923],[111.3762,-7.9518,148.4518],[111.3645,-7.9531,174.4092],[111.3635,-7.9503,171.5978],[111.3588,-7.9471,269.9867],[111.3501,-7.9556,263.4178],[111.3368,-7.9585,438.015],[111.337,-7.9623,554.4324],[111.3436,-7.9646,490.6695],[111.3441,-7.9665,544.3998],[111.3455,-7.9662,490.6695],[111.3492,-7.9596,320.9501],[111.351,-7.9604,277.3781],[111.352,-7.9654,314.2042],[111.3563,-7.9606,221.8166],[111.3567,-7.9652,290.6502],[111.3578,-7.9665,308.62],[111.3587,-7.9656,251.2373],[111.3585,-7.9676,305.7694],[111.3615,-7.9674,344.6682],[111.3624,-7.9641,260.981],[111.3662,-7.9666,203.358],[111.3671,-7.9694,267.1927],[111.3706,-7.97,244.1963],[111.373,-7.9724,224.0637],[111.3714,-7.9743,196.1611],[111.3653,-7.9732,255.5218],[111.3639,-7.9754,266.0707],[111.3634,-7.9742,292.6314],[111.363,-7.9785,425.7764],[111.36,-7.9772,477.4747],[111.3577,-7.9781,675.4553],[111.3595,-7.9845,337.5403],[111.3647,-7.9889,250.7823],[111.3727,-7.989,189.804],[111.3778,-7.9853,171.1249],[111.3862,-7.9847,183.751],[111.3908,-7.9805,142.2906],[111.3974,-7.9776,125.758]]]]}}