{"type":"Feature","properties":{"GID_2":"IDN.18.7_1","GID_0":"IDN","country":"Indonesia","GID_1":"IDN.18_1","province":"MalukuUtara","NL_NAME_1":"NA","county":"PulauMorotai","VARNAME_2":"NA","NL_NAME_2":"NA","TYPE_2":"Kabupaten","ENGTYPE_2":"Regency","CC_2":"8207","HASC_2":"ID.MU.PM","name":"Pulau_Morotai.county"},
"geometry":{"type": "MultiPolygon","coordinates": [[[[128.2271,1.9639,0.0],[128.2313,1.9629,5.6085],[128.235,1.9665,11.5112],[128.2321,1.9689,0.0],[128.2271,1.9639,0.0]]],
[[[128.2943,2.0134,1.6421],[128.2934,2.0304,0.0],[128.2966,2.0342,5.4094],[128.3007,2.036,2.1405],[128.3094,2.0341,4.4327],[128.3238,2.0344,2.1126],[128.3336,2.0378,2.4512],[128.3458,2.0376,2.7072],[128.3608,2.0442,4.5596],[128.3727,2.0469,0.0],[128.3833,2.052,2.2154],[128.4006,2.0572,5.4723],[128.426,2.0583,0.6524],[128.4339,2.0611,9.36],[128.4464,2.0613,3.2444],[128.4544,2.056,10.359],[128.4707,2.0545,4.3229],[128.4789,2.0569,0.0],[128.4815,2.0609,2.2822],[128.4848,2.0625,6.4249],[128.4888,2.0624,9.4193],[128.4944,2.0578,1.4119],[128.501,2.0585,0.0],[128.5096,2.061,9.3704],[128.5183,2.0662,4.0549],[128.5234,2.0715,16.0023],[128.5248,2.0801,8.5555],[128.5273,2.0818,1.7179],[128.5325,2.0818,2.9911],[128.5422,2.0909,0.0],[128.5448,2.1001,0.0],[128.5468,2.1022,3.6809],[128.551,2.1049,0.0],[128.5605,2.1059,3.2089],[128.5614,2.1046,0.0],[128.5686,2.1038,3.846],[128.5737,2.1067,0.7177],[128.5777,2.1115,0.0],[128.5795,2.1167,0.0],[128.5795,2.1257,0.0],[128.575,2.1363,7.8946],[128.5763,2.1403,8.8802],[128.5797,2.1457,0.125],[128.5843,2.1491,4.7617],[128.5868,2.1613,0.0],[128.594,2.1681,4.6787],[128.5933,2.175,28.5266],[128.602,2.1876,0.0],[128.6024,2.1937,1.8292],[128.605,2.1961,2.1704],[128.6106,2.1975,1.1298],[128.6119,2.2013,38.7889],[128.6215,2.2111,0.0],[128.6247,2.2177,0.0],[128.622,2.2308,6.1728],[128.6241,2.233,10.3619],[128.6301,2.26,16.7914],[128.639,2.2759,2.7347],[128.6411,2.277,0.0],[128.6442,2.2877,16.2111],[128.6457,2.2878,9.64],[128.6487,2.2928,3.6905],[128.6478,2.3006,0.0],[128.6541,2.3112,4.5701],[128.6457,2.3198,2.9986],[128.6413,2.3322,0.0],[128.6422,2.3372,25.7629],[128.6451,2.34,0.0],[128.6449,2.3455,8.0018],[128.6498,2.3675,0.787],[128.6571,2.3768,1.3773],[128.6626,2.3772,5.0165],[128.6653,2.3795,4.7416],[128.6661,2.385,0.0],[128.6637,2.3912,1.73],[128.6658,2.3961,0.0],[128.6687,2.3986,0.7587],[128.6763,2.4001,0.0],[128.6836,2.4062,1.2423],[128.6881,2.4116,6.8673],[128.6885,2.4175,9.8285],[128.6939,2.4224,3.5435],[128.6929,2.4276,0.0],[128.6897,2.4296,2.2775],[128.6899,2.4314,0.0],[128.6888,2.4302,2.2775],[128.6869,2.4318,2.1886],[128.6922,2.4429,3.7301],[128.69,2.452,17.4938],[128.6874,2.4561,9.1273],[128.6885,2.4594,3.9363],[128.6927,2.46,0.0],[128.6905,2.4898,0.0],[128.6877,2.5023,0.0],[128.678,2.5059,0.0],[128.6733,2.4986,6.7293],[128.67,2.4993,0.0],[128.6699,2.5043,0.0],[128.664,2.5123,0.0],[128.6615,2.513,0.0],[128.6613,2.5215,15.9058],[128.6584,2.5252,4.3623],[128.6538,2.5268,3.7211],[128.6535,2.5242,4.3963],[128.6516,2.5238,0.0],[128.6444,2.5337,10.1887],[128.6365,2.5309,12.1919],[128.634,2.5342,0.0],[128.6327,2.5339,0.0],[128.6317,2.5368,0.0],[128.6357,2.5403,0.0],[128.6361,2.5431,12.4791],[128.6322,2.5509,7.1552],[128.6304,2.5639,0.0],[128.6286,2.5646,0.0],[128.6242,2.562,14.1605],[128.6144,2.5665,0.0],[128.6106,2.5711,0.0],[128.6073,2.5781,1.1391],[128.6082,2.5804,0.0],[128.6114,2.5816,7.208],[128.6018,2.6025,0.0],[128.5937,2.6125,0.0],[128.5918,2.6195,0.0],[128.5826,2.6344,4.6153],[128.5692,2.6453,2.7427],[128.5658,2.6455,0.0],[128.5602,2.6419,0.0],[128.5485,2.6276,1.473],[128.5434,2.6153,5.0209],[128.5463,2.6063,9.6405],[128.5403,2.5973,0.0],[128.5309,2.5874,0.0],[128.5304,2.5805,0.0],[128.5261,2.577,14.3287],[128.5197,2.5762,2.2133],[128.5116,2.581,0.0],[128.5066,2.5799,0.0],[128.506,2.5778,0.0],[128.5028,2.5763,2.2573],[128.4993,2.5781,0.0],[128.4969,2.5838,0.0],[128.4897,2.5862,14.9388],[128.4866,2.59,21.6795],[128.4847,2.5894,11.5586],[128.4858,2.5856,0.0],[128.4839,2.5853,28.0609],[128.4762,2.5945,2.1772],[128.4751,2.5935,4.2182],[128.4766,2.589,6.8022],[128.4742,2.587,11.9381],[128.4685,2.5907,17.3964],[128.4678,2.5966,52.5039],[128.4615,2.5958,0.0],[128.4554,2.5846,3.3365],[128.4523,2.5861,3.0288],[128.4516,2.5818,28.268],[128.448,2.5811,9.9784],[128.447,2.5781,23.243],[128.4454,2.5778,23.243],[128.4475,2.5737,44.4187],[128.4455,2.5692,10.5445],[128.4388,2.5673,8.5021],[128.4332,2.5728,7.0449],[128.433,2.5697,7.3838],[128.4297,2.5681,22.4979],[128.4302,2.5655,21.9779],[128.4267,2.5567,0.0],[128.4276,2.5537,2.7945],[128.4203,2.5503999999999998,14.0957],[128.4198,2.5449,35.0194],[128.4165,2.5423,0.0],[128.417,2.5389,20.54],[128.4151,2.5366,0.0],[128.4163,2.5349,10.263],[128.4143,2.5347,0.0],[128.4131,2.5325,11.5625],[128.4106,2.533,9.9792],[128.4124,2.5308,9.1013],[128.4104,2.5271,6.9007],[128.4073,2.526,4.2961],[128.4042,2.5294,0.0],[128.4025,2.5291,0.0],[128.4022,2.5263,47.8008],[128.3974,2.5262,0.5322],[128.3953,2.5235,25.5847],[128.3904,2.5219,23.9969],[128.3854,2.5177,3.1525],[128.3799,2.5189,0.0],[128.3808,2.5147,0.0],[128.3759,2.5118,23.3144],[128.3771,2.5087,27.2252],[128.3757,2.5056,39.6306],[128.3736,2.5059,2.8208],[128.3727,2.5082,0.0],[128.3692,2.5068,7.5822],[128.3645,2.5085,8.0216],[128.3618,2.5077,0.0],[128.3606,2.5048,0.0],[128.3569,2.5031,0.0],[128.3493,2.4945,40.582],[128.351,2.4903,8.3474],[128.3501,2.4878999999999998,2.7195],[128.3422,2.4841,0.5023],[128.3431,2.4832,31.1404],[128.3407,2.4804,66.8216],[128.3359,2.4805,0.0],[128.3333,2.4733,51.7007],[128.3303,2.4743,0.0],[128.3227,2.4711,45.5624],[128.3238,2.469,29.1614],[128.3214,2.4649,15.0632],[128.3195,2.4643,0.0],[128.3199,2.4632,80.7903],[128.3172,2.4632,17.1082],[128.3129,2.4584,0.0],[128.3078,2.4481,78.8589],[128.3067,2.4486,32.3545],[128.3053,2.4453,22.219],[128.2974,2.4428,6.2552],[128.2964,2.4389,0.0],[128.2991,2.4346,3.4233],[128.2941,2.4297,1.1171],[128.2936,2.4274,1.8469],[128.2972,2.4229,0.0],[128.2962,2.4157,0.0],[128.2988,2.4126,4.9781],[128.287,2.3901,27.8123],[128.2862,2.384,0.0],[128.2884,2.3806,22.6595],[128.2847,2.3722,0.0],[128.2757,2.3631,1.9794],[128.2746,2.3579,10.4051],[128.2659,2.3502,16.324],[128.2626,2.3451,76.8818],[128.2625,2.3422,65.6554],[128.2516,2.3352,0.0],[128.2487,2.3308,26.2872],[128.2491,2.3268,1.625],[128.2426,2.3217,10.6438],[128.2415,2.3185,11.647],[128.2322,2.3162,1.212],[128.2311,2.3116,1.431],[128.2192,2.3065,10.1789],[128.2132,2.302,8.124],[128.2113,2.2974,11.0143],[128.203,2.2907,3.7162],[128.1972,2.2805,0.0],[128.197,2.2788,0.468],[128.202,2.2773,2.2076],[128.2092,2.2776,2.6703],[128.2161,2.2802,0.0],[128.2224,2.2771,8.595],[128.2248,2.2729,0.0],[128.2227,2.2697,0.0],[128.2286,2.2649,7.266],[128.2308,2.2585,0.0],[128.2339,2.2584,6.647],[128.2352,2.2519,0.0],[128.2462,2.2499,17.090699999999998],[128.2455,2.2475,2.6592],[128.2493,2.2476,10.6367],[128.2456,2.2431,0.0],[128.249,2.2428,3.1953],[128.2497,2.2379,0.0],[128.2458,2.234,10.3474],[128.2441,2.2207,15.6168],[128.2452,2.2151,4.9057],[128.2399,2.2053,2.4644],[128.2423,2.2019,0.0],[128.2481,2.1989,6.038],[128.2476,2.1928,0.0],[128.2493,2.1897,0.0],[128.2482,2.1739,9.7326],[128.247,2.1697,2.3497],[128.2436,2.1631,0.0],[128.2433,2.1581,0.0],[128.2444,2.1509,7.24],[128.2482,2.143,8.3063],[128.246,2.1237,3.2636],[128.2507,2.1174,3.1102],[128.2495,2.1109,0.0],[128.2544,2.1021,10.268],[128.2534,2.0936,0.0],[128.2703,2.0823,4.0695],[128.2751,2.0866,1.7161],[128.2789,2.0876,10.2373],[128.2856,2.0776,5.8254],[128.2845,2.0702,0.0],[128.2914,2.0618,4.463],[128.2932,2.0544,4.226],[128.291,2.0497,0.6097],[128.2892,2.0499,0.6097],[128.2893,2.0495,0.6097],[128.2911,2.0495,6.2991],[128.2918,2.0456,7.0412],[128.2876,2.0372,9.7502],[128.2874,2.029,7.944],[128.2834,2.0188,3.4696],[128.2807,2.0161,0.2804],[128.278,2.006,0.0],[128.2706,1.9976,9.268],[128.2598,1.9805,0.0],[128.2691,1.9859,2.7673],[128.2769,1.9929,2.6517],[128.2805,1.9983,1.9257],[128.2919,2.008,1.0929],[128.2923,2.0116,2.9508],[128.2943,2.0134,1.6421]]],
[[[128.2708,2.0538,0.0],[128.2683,2.0551,0.0],[128.2683,2.0517,0.0],[128.2706,2.0448,5.8735],[128.2729,2.044,0.0],[128.2737,2.0463,0.9371],[128.2708,2.0538,0.0]]],
[[[128.2803,2.058,0.884],[128.2766,2.0609,0.0],[128.2742,2.0578,0.0],[128.2785,2.0535,0.0],[128.2805,2.0554,0.7572],[128.2803,2.058,0.884]]],
[[[128.2512,2.0588,1.5076],[128.2479,2.0625,0.0],[128.2442,2.0612,10.9994],[128.2463,2.0559,5.1433],[128.2489,2.055,0.0],[128.2516,2.0575,6.8835],[128.253,2.0536,0.0],[128.2553,2.0534,0.0],[128.2567,2.0557,0.0],[128.2552,2.0592,0.0],[128.2532,2.0602,5.1958],[128.2512,2.0588,1.5076]]],
[[[128.2246,2.0186,3.2728],[128.2253,2.0202,0.0],[128.2224,2.0198,1.6317],[128.2214,2.0172,5.0236],[128.2226,2.0164,0.8357],[128.2246,2.0186,3.2728]]],
[[[128.2125,2.0532,0.0],[128.2141,2.054,0.3929],[128.2096,2.0582,0.6969],[128.2097,2.0545,5.1464],[128.2125,2.0532,0.0]]],
[[[128.1895,2.0946,2.0048],[128.1858,2.0927,0.0],[128.1829,2.0943,0.6228],[128.186,2.0882,0.0],[128.1914,2.0867,0.0],[128.1937,2.0821,0.5889],[128.1933,2.0771,2.5116],[128.1959,2.0733,0.0],[128.1936,2.09,0.0],[128.1895,2.0946,2.0048]]],
[[[128.2254,2.1163,1.6981],[128.2264,2.1159,1.6981],[128.2262,2.1246,0.6068],[128.2229,2.1222,0.0],[128.2225,2.1199,0.2338],[128.2231,2.1171,0.0],[128.2254,2.1163,1.6981]]],
[[[128.2133,2.1215,0.0],[128.206,2.1242,0.0],[128.2094,2.1212,1.2483],[128.2142,2.1212,0.0],[128.2133,2.1215,0.0]]],
[[[128.196,2.1269,0.7696],[128.1895,2.1268,2.4935],[128.1877,2.125,0.0],[128.1927,2.1217,0.0],[128.196,2.1269,0.7696]]],
[[[128.1841,2.1258,0.0],[128.1856,2.1269,0.0],[128.1843,2.1287,0.0],[128.1834,2.1268,2.104],[128.1841,2.1258,0.0]]],
[[[128.2276,2.1391,0.0],[128.2246,2.141,0.0],[128.2216,2.1387,6.9673],[128.222,2.1291,3.0609],[128.2245,2.1266,0.0],[128.2322,2.1323,1.3977],[128.2276,2.1391,0.0]]],
[[[128.2712,2.0661,0.0],[128.2681,2.0681,1.7859],[128.267,2.0673,1.7859],[128.2684,2.0634,1.8422],[128.2709,2.0619,0.0],[128.2735,2.0633,0.0],[128.2712,2.0661,0.0]]],
[[[128.2727,2.078,0.0],[128.2698,2.0771,0.0],[128.2736,2.0751,0.0],[128.2739,2.076,4.1681],[128.2727,2.078,0.0]]],
[[[128.2788,2.0804,1.3758],[128.2811,2.0801,0.0],[128.2812,2.083,6.3529],[128.2789,2.0821,5.7978],[128.2788,2.0804,1.3758]]],
[[[128.2464,2.1697,2.3497],[128.2467,2.1694,2.3497],[128.2464,2.1698,2.3497],[128.2464,2.1697,2.3497]]],
[[[128.236,2.2069,0.0],[128.2336,2.2072,1.3758],[128.2357,2.2034,0.0],[128.2366,2.2045,0.0],[128.236,2.2069,0.0]]],
[[[128.2216,2.1716,0.0],[128.2218,2.1721,0.0],[128.2171,2.1748,0.0],[128.218,2.1712,3.3916],[128.2216,2.1716,0.0]]],
[[[128.2096,2.1919,0.0],[128.2124,2.1927,0.428],[128.2148,2.2007,1.4608],[128.2105,2.2095,0.5417],[128.2062,2.2046,0.0],[128.2054,2.2008,4.9466],[128.2063,2.1948,0.0],[128.2096,2.1919,0.0]]],
[[[128.2091,2.215,0.0],[128.2087,2.2142,0.0],[128.2089,2.2135,0.0],[128.2099,2.2152,0.0],[128.2091,2.215,0.0]]],
[[[128.153,2.2828,10.6808],[128.1582,2.2831,0.0],[128.1607,2.286,0.0],[128.1587,2.2877,0.0],[128.1559,2.2873,0.0],[128.1515,2.2842,4.0365],[128.153,2.2828,10.6808]]],
[[[128.1664,2.289,3.3031],[128.18,2.292,0.0],[128.188,2.3065,8.367],[128.1859,2.3104,7.7677],[128.1817,2.3093,7.4412],[128.1768,2.3147,0.0],[128.1794,2.3188,2.0152],[128.1796,2.3236,19.6388],[128.1776,2.325,29.8192],[128.1802,2.3269,0.0],[128.1779,2.3316,0.0],[128.1822,2.3392,0.0],[128.1802,2.3469,6.0901],[128.1826,2.3497,0.0],[128.1823,2.3569,0.0],[128.1852,2.3658,0.0],[128.1826,2.3665,23.6047],[128.1809,2.3711,3.5016],[128.1767,2.3747,0.0],[128.1787,2.3809,0.0],[128.1784,2.3871,0.0],[128.1741,2.3928,0.0],[128.1712,2.4049,7.2227],[128.1665,2.4127,0.0],[128.1548,2.4066,3.242],[128.1434,2.3894,5.8403],[128.1413,2.3822,38.9646],[128.1451,2.3755,9.8999],[128.144,2.3701,10.4549],[128.1416,2.3663,11.1161],[128.1379,2.3656,0.0],[128.131,2.352,20.6119],[128.1316,2.3488,15.014],[128.1364,2.3473,7.0657],[128.1362,2.3429,0.0],[128.1331,2.3401,2.5196],[128.1282,2.3422,0.0],[128.1249,2.3335,12.2668],[128.1261,2.3271,4.4508],[128.1311,2.3223,12.9015],[128.1297,2.3159,0.0],[128.1391,2.2993,14.876],[128.1437,2.2953,0.0],[128.1515,2.2919,0.0],[128.1584,2.2914,11.4329],[128.1609,2.2877,1.8677],[128.1664,2.289,3.3031]]],
[[[128.6811,2.3802,0.0],[128.6838,2.3806,3.3931],[128.6841,2.3832,0.0],[128.6814,2.382,0.0],[128.6811,2.3802,0.0]]]]}}