{"type":"Feature","properties":{"GID_3":"IDN.10.25.12_1","GID_0":"IDN","country":"Indonesia","GID_1":"IDN.10_1","province":"JawaTengah","NL_NAME_1":"NA","GID_2":"IDN.10.25_1","county":"Purworejo","NL_NAME_2":"NA","city":"Loano","VARNAME_3":"NA","NL_NAME_3":"NA","TYPE_3":"Kecamatan","ENGTYPE_3":"Sub-district","CC_3":"3306150","HASC_3":"NA","name":"Loano.city"},
"geometry":{"type": "MultiPolygon","coordinates": [[[[110.0528,-7.6861,124.5393],[110.0582,-7.6837,183.2168],[110.0733,-7.6908,423.6794],[110.0838,-7.6853,476.5303],[110.0916,-7.6862,321.3929],[110.094,-7.6848,305.197],[110.1012,-7.6867,472.3341],[110.1053,-7.6859,293.5204],[110.1066,-7.6872,355.6796],[110.1092,-7.6856,382.6839],[110.1073,-7.6805,286.6349],[110.1103,-7.6749,366.5032],[110.1178,-7.6721,333.5011],[110.1189,-7.6707,303.2625],[110.1179,-7.6683,298.1784],[110.122,-7.6677,314.1898],[110.123,-7.6635,358.6498],[110.1303,-7.6577,535.8647],[110.1309,-7.6539,615.8484],[110.1297,-7.6546,574.7158],[110.1283,-7.6525,698.1264],[110.1257,-7.6526,556.7025],[110.126,-7.6505,626.2174],[110.1192,-7.6503,399.1723],[110.114,-7.6467,465.1977],[110.1106,-7.6464,348.7812],[110.111,-7.6425,386.6411],[110.1044,-7.645,271.3764],[110.0996,-7.6426,371.1679],[110.0965,-7.6452,401.3253],[110.0928,-7.6442,356.4635],[110.0919,-7.6459,392.0003],[110.0835,-7.6487,389.8831],[110.077,-7.6539,267.1275],[110.0699,-7.6489,224.2146],[110.0654,-7.6483,126.6913],[110.0605,-7.6527,136.8558],[110.0569,-7.6495,149.4883],[110.0501,-7.6511,132.9469],[110.0463,-7.6493,145.9473],[110.0452,-7.6512,144.2128],[110.0451,-7.649,145.9473],[110.042,-7.6483,123.8592],[110.0437,-7.651,134.8319],[110.0421,-7.6511,119.7543],[110.0423,-7.6558,104.2615],[110.0387,-7.6512,113.3775],[110.0354,-7.6387,149.2169],[110.0296,-7.6399,128.6414],[110.0298,-7.6377,134.3503],[110.0166,-7.6372,305.7221],[110.0147,-7.6394,271.2097],[110.0124,-7.6377,286.5772],[110.0126,-7.6446,222.3535],[110.0159,-7.6457,233.3234],[110.016,-7.647,211.4068],[110.0237,-7.6483,238.7235],[110.0267,-7.6544,198.3638],[110.0326,-7.6599,136.3059],[110.0335,-7.6632999999999996,118.7611],[110.0318,-7.6642,120.2607],[110.0287,-7.6619,134.145],[110.0224,-7.6618,152.1816],[110.0215,-7.663,173.4862],[110.0119,-7.6639,126.7687],[110.01,-7.6621,77.9348],[110.0113,-7.6691,190.1068],[110.0154,-7.6716,160.7186],[110.0132,-7.6758,124.5891],[110.016,-7.6833,85.939],[110.0135,-7.685,59.9631],[110.0127,-7.6882,56.5692],[110.0257,-7.6894,140.1841],[110.0267,-7.6916,140.3433],[110.0257,-7.6976,107.3664],[110.028,-7.7018,88.1238],[110.0328,-7.7044,63.106699999999996],[110.0393,-7.7032,117.58],[110.0376,-7.6994,67.6073],[110.0342,-7.6985,88.4857],[110.0374,-7.6872,74.0967],[110.0417,-7.6881,96.6937],[110.0518,-7.6993,381.2252],[110.0556,-7.6897,181.5433],[110.0528,-7.6861,124.5393]]]]}}