{"type":"Feature","properties":{"GID_3":"IDN.9.7.29_1","GID_0":"IDN","country":"Indonesia","GID_1":"IDN.9_1","province":"JawaBarat","NL_NAME_1":"NA","GID_2":"IDN.9.7_1","county":"Cianjur","NL_NAME_2":"NA","city":"Sukaresmi","VARNAME_3":"NA","NL_NAME_3":"NA","TYPE_3":"Kecamatan","ENGTYPE_3":"Sub-district","CC_3":"3203230","HASC_3":"NA","name":"Sukaresmi.city"},
"geometry":{"type": "MultiPolygon","coordinates": [[[[107.0837,-6.7697,1173.6774],[107.0946,-6.7571,1071.925],[107.0984,-6.7482,942.8187],[107.1088,-6.7485,917.4575],[107.1108,-6.7466,943.3144],[107.1199,-6.749,809.3118],[107.1256,-6.7427,750.0024],[107.1285,-6.7469,818.0838],[107.1307,-6.7468,822.3814],[107.1361,-6.7445,809.6515],[107.1426,-6.7444,781.7138],[107.1435,-6.739,758.7051],[107.1451,-6.7378,682.9927],[107.1569,-6.7376,555.8054],[107.1551,-6.7255,535.4078],[107.1581,-6.7137,473.5635],[107.1515,-6.7118,563.8149],[107.1464,-6.7071,573.7771],[107.1458,-6.7044,587.0291],[107.1495,-6.6973,613.3223],[107.1479,-6.6888,498.1833],[107.1492,-6.6866,468.0718],[107.1447,-6.6846,477.3943],[107.1469,-6.6811,521.5074],[107.1424,-6.6759,377.9958],[107.1403,-6.6673,250.7471],[107.1377,-6.6668,252.8661],[107.1346,-6.6705,262.5209],[107.1302,-6.6698,273.2177],[107.1226,-6.6636,287.7954],[107.1192,-6.6632,291.4633],[107.1132,-6.6635,310.4301],[107.1099,-6.6659,315.2265],[107.108,-6.6639,327.9677],[107.1062,-6.6649,333.0721],[107.1042,-6.6638,331.1353],[107.1025,-6.6668,373.2623],[107.1004,-6.6644,340.2588],[107.097,-6.664,350.089],[107.0887,-6.6675,383.957],[107.0863,-6.6672,392.5185],[107.0849,-6.6649,405.0766],[107.0789,-6.6649,440.6769],[107.0733,-6.6625,502.442],[107.0715,-6.6647,507.3221],[107.0685,-6.6652,522.1125],[107.0638,-6.6615,546.2008],[107.0567,-6.6688,685.7716],[107.0533,-6.6851,1015.1309],[107.052,-6.6855,1014.0989],[107.0528,-6.6887,1001.2874],[107.0577,-6.6891,1005.7483],[107.0618,-6.6921,973.4887],[107.0614,-6.6986,879.1968],[107.0637,-6.7,869.5609],[107.0592,-6.7,893.9669],[107.0589,-6.7027,900.3949],[107.0654,-6.7042,884.7727],[107.0631,-6.706,888.3873],[107.0634,-6.7137,891.3098],[107.0534,-6.7143,942.1361],[107.052,-6.713,948.7523],[107.0442,-6.7158,989.8403],[107.0439,-6.7177,996.9609],[107.054,-6.7162,940.2257],[107.0664,-6.7215,857.2983],[107.0754,-6.723,823.4274],[107.0678,-6.7269,842.4924],[107.0736,-6.7302,836.2106],[107.0784,-6.7295,815.3155],[107.0788,-6.733,812.7028],[107.0733,-6.7323,842.9938],[107.0653,-6.7358,901.2139],[107.0608,-6.7412,948.3431],[107.0625,-6.7417,966.9421],[107.0624,-6.7441,999.388],[107.0607,-6.7455,1040.1632],[107.0583,-6.7535,1011.303],[107.0625,-6.7563,1040.1116],[107.0662,-6.7617,1130.4669],[107.0719,-6.7629,1075.5127],[107.0787,-6.7705,1197.9475],[107.0837,-6.7697,1173.6774]]]]}}