{"type":"Feature","properties":{"GID_3":"IDN.4.8.5_1","GID_0":"IDN","country":"Indonesia","GID_1":"IDN.4_1","province":"Banten","NL_NAME_1":"NA","GID_2":"IDN.4.8_1","county":"Tangerang","NL_NAME_2":"NA","city":"Curug","VARNAME_3":"NA","NL_NAME_3":"NA","TYPE_3":"Kecamatan","ENGTYPE_3":"Sub-district","CC_3":"3603050","HASC_3":"NA","name":"Curug.city"},
"geometry":{"type": "MultiPolygon","coordinates": [[[[106.5865,-6.2615,31.9482],[106.5858,-6.2539,28.4669],[106.5897,-6.2498,28.8712],[106.5892,-6.2478,29.3464],[106.5861,-6.2466,26.0121],[106.5861,-6.2438,26.1186],[106.5887,-6.242,26.6754],[106.5885,-6.2384,24.6688],[106.5904,-6.2379,23.2736],[106.5908,-6.2351,23.4714],[106.5958,-6.2293,23.8058],[106.5934,-6.2185,19.0629],[106.5908,-6.2213,20.7252],[106.5916,-6.2227,20.7252],[106.5829,-6.2207,26.4042],[106.5803,-6.2163,23.6906],[106.5732,-6.2155,24.3332],[106.5714,-6.2123,26.1573],[106.5698,-6.2132,26.0315],[106.5649,-6.2112,27.8427],[106.5691,-6.2063,24.5377],[106.5537,-6.1988,21.0497],[106.5528,-6.2031,22.2357],[106.5556,-6.2041,20.3054],[106.5567,-6.207,22.3917],[106.5579,-6.2066,22.1122],[106.5564,-6.2095,20.4542],[106.5592,-6.2106,20.1377],[106.5575,-6.2137,22.5463],[106.5595,-6.2153,23.4629],[106.5572,-6.2186,24.9484],[106.5568,-6.2226,24.1876],[106.5552,-6.2231,23.3366],[106.5561,-6.2238,23.3366],[106.5509,-6.2291,29.2796],[106.552,-6.2296,25.9974],[106.5509,-6.2327,27.6744],[106.5466,-6.2341,30.1435],[106.5436,-6.2371,27.5458],[106.5417,-6.2411,27.679],[106.5427,-6.2418,26.0322],[106.5386,-6.2465,33.3179],[106.5406,-6.2543,30.626],[106.5379,-6.2549,28.5852],[106.5368,-6.2592,30.5776],[106.5399,-6.2627,31.0898],[106.5452,-6.264,34.8819],[106.5469,-6.2692,37.7663],[106.5517,-6.2703,41.7308],[106.5541,-6.2691,36.9661],[106.5558,-6.2713,39.6455],[106.5593,-6.2716,40.9776],[106.5616,-6.2749,39.2134],[106.5689,-6.2741,32.5966],[106.5714,-6.2726,34.7663],[106.5717,-6.2706,37.1943],[106.5768,-6.2688,30.5985],[106.5797,-6.2658,33.81],[106.5833,-6.2665,28.898],[106.5865,-6.2615,31.9482]]]]}}