{"type":"Feature","properties":{"GID_3":"IDN.9.19.7_1","GID_0":"IDN","country":"Indonesia","GID_1":"IDN.9_1","province":"JawaBarat","NL_NAME_1":"NA","GID_2":"IDN.9.19_1","county":"KotaTasikmalaya","NL_NAME_2":"NA","city":"Mangkubumi","VARNAME_3":"NA","NL_NAME_3":"NA","TYPE_3":"Kecamatan","ENGTYPE_3":"Sub-district","CC_3":"3278060","HASC_3":"NA","name":"Mangkubumi.city"},
"geometry":{"type": "MultiPolygon","coordinates": [[[[108.2136,-7.3524,354.9995],[108.209,-7.3488,358.0009],[108.2085,-7.3455,358.7464],[108.2056,-7.3435,362.5757],[108.2056,-7.3399,364.4969],[108.2096,-7.3338,358.5454],[108.207,-7.3352,364.5723],[108.2015,-7.334,368.2211],[108.2026,-7.331,370.0204],[108.2006,-7.3295,373.1431],[108.2013,-7.3257,369.0754],[108.1918,-7.3253,383.2294],[108.1925,-7.3274,379.8429],[108.189,-7.3274,381.4537],[108.1909,-7.3287,387.4589],[108.1863,-7.3286,387.573],[108.1827,-7.331,396.7992],[108.177,-7.3253,402.5207],[108.1731,-7.3255,424.9896],[108.1672,-7.3227,429.6656],[108.1634,-7.3181,431.3519],[108.1594,-7.3204,440.8348],[108.1609,-7.3215,436.3219],[108.1603,-7.3239,436.9084],[108.1546,-7.324,446.9866],[108.1533,-7.3259,436.0529],[108.1527,-7.3354,418.3067],[108.1567,-7.3378,416.6853],[108.1596,-7.3422,409.3027],[108.1666,-7.3442,399.5404],[108.1664,-7.3473,390.4042],[108.1682,-7.3466,390.4042],[108.1669,-7.3487,391.4011],[108.1678,-7.3504,384.9784],[108.1663,-7.3513,387.8514],[108.1671,-7.3524,382.4028],[108.1644,-7.3548,380.2071],[108.1634,-7.3632,360.5739],[108.1677,-7.3713,350.8829],[108.1707,-7.3732,335.3659],[108.1712,-7.3725,341.466],[108.1693,-7.3712,350.2332],[108.1688,-7.3679,355.4922],[108.1706,-7.365,370.6823],[108.1752,-7.3652,375.9341],[108.1752,-7.3632,379.1713],[108.1836,-7.3672,364.0487],[108.1898,-7.3671,352.1456],[108.1916,-7.3689,351.3683],[108.1928,-7.3674,356.3206],[108.1949,-7.3694,346.4969],[108.2001,-7.3683,340.1704],[108.1998,-7.3656,344.9476],[108.2025,-7.3661,345.8347],[108.2042,-7.3647,340.537],[108.2073,-7.3666,339.4266],[108.2103,-7.3662,340.9026],[108.2149,-7.3602,353.646],[108.2205,-7.3617,362.593],[108.2224,-7.3608,362.0535],[108.2215,-7.3547,359.4199],[108.2136,-7.3524,354.9995]]]]}}