{"type":"Feature","properties":{"GID_3":"IDN.29.13.19_1","GID_0":"IDN","country":"Indonesia","GID_1":"IDN.29_1","province":"SulawesiUtara","NL_NAME_1":"NA","GID_2":"IDN.29.13_1","county":"Minahasa","NL_NAME_2":"NA","city":"TondanoSelatan","VARNAME_3":"NA","NL_NAME_3":"NA","TYPE_3":"Kecamatan","ENGTYPE_3":"Sub-district","CC_3":"7102191","HASC_3":"NA","name":"Tondano_Selatan.city"},
"geometry":{"type": "MultiPolygon","coordinates": [[[[124.8896,1.2438,687.9892],[124.8918,1.2446,688.9649],[124.8945,1.2428,688.998],[124.8965,1.2439,688.4497],[124.8974,1.2489,711.5204],[124.9008,1.2547,714.2496],[124.9013,1.2608,685.766],[124.9009,1.2629,683.7549],[124.8933,1.2643,725.805],[124.8931,1.2769,685.071],[124.8905,1.2843,685.8156],[124.8874,1.2828,685.5222],[124.8672,1.2857,806.0932],[124.8701,1.289,789.9693],[124.8646,1.2921,882.0822],[124.8629,1.298,832.7899],[124.8559,1.2953,962.2453],[124.8592,1.2884,880.2601],[124.856,1.2823,870.9037],[124.8554,1.2678,1131.8662],[124.853,1.2627,1093.7723],[124.86,1.2615,973.1906],[124.8777,1.2463,807.9009],[124.8815,1.2371,690.4817],[124.8846,1.2406,726.3857],[124.8889,1.2383,681.5],[124.8905,1.2417,689.2642],[124.8896,1.2438,687.9892]]]]}}