{"type":"Feature","properties":{"GID_3":"IDN.6.5.7_1","GID_0":"IDN","country":"Indonesia","GID_1":"IDN.6_1","province":"Gorontalo","NL_NAME_1":"NA","GID_2":"IDN.6.5_1","county":"Gorontalo","NL_NAME_2":"NA","city":"LimbotoBarat","VARNAME_3":"NA","NL_NAME_3":"NA","TYPE_3":"Kecamatan","ENGTYPE_3":"Sub-district","CC_3":"7502071","HASC_3":"NA","name":"Limboto_Barat.city"},
"geometry":{"type": "MultiPolygon","coordinates": [[[[122.9,0.621,17.1311],[122.9012,0.6192,16.9251],[122.9052,0.62,17.4125],[122.914,0.6144,15.1626],[122.9146,0.6168,17.0381],[122.9195,0.6125,13.063],[122.9371,0.6062,10.9682],[122.9386,0.6134,7.9903],[122.942,0.6152,7.4421],[122.9437,0.6141,7.2785],[122.9465,0.6168,6.9978],[122.9492,0.6146,6.0958],[122.9498,0.6163,6.363],[122.9499,0.6235,10.6979],[122.9457,0.6275,9.9625],[122.9431,0.6275,9.9892],[122.9443,0.6312,9.0912],[122.968,0.6281,10.5475],[122.971,0.6377,16.1479],[122.9693,0.6417,29.340699999999998],[122.9707,0.6501,45.5603],[122.9678,0.6533,49.6114],[122.9624,0.6552,66.2329],[122.9579,0.6697,80.6127],[122.9574,0.7072,269.2988],[122.959,0.7134,223.9997],[122.9411,0.7102,324.4452],[122.9352,0.7137,376.6906],[122.9323,0.7137,432.9875],[122.9308,0.7097,334.7361],[122.928,0.7097,331.2989],[122.9288,0.7023,247.0162],[122.9263,0.6943,224.3051],[122.9185,0.689,290.6851],[122.9117,0.6948,296.0782],[122.9009,0.6989,219.7912],[122.904,0.7097,355.2944],[122.8993,0.7125,301.3819],[122.8886,0.6661,223.9555],[122.8865,0.6438,31.5944],[122.8908,0.6224,19.3983],[122.894,0.6236,17.6566],[122.8996,0.6223,16.7403],[122.9,0.621,17.1311]]]]}}