{"type":"Feature","properties":{"GID_3":"IDN.11.33.10_1","GID_0":"IDN","country":"Indonesia","GID_1":"IDN.11_1","province":"JawaTimur","NL_NAME_1":"NA","GID_2":"IDN.11.33_1","county":"Situbondo","NL_NAME_2":"NA","city":"Kendit","VARNAME_3":"NA","NL_NAME_3":"NA","TYPE_3":"Kecamatan","ENGTYPE_3":"Sub-district","CC_3":"3512080","HASC_3":"NA","name":"Kendit.city"},
"geometry":{"type": "MultiPolygon","coordinates": [[[[113.9326,-7.7933,283.9289],[113.9368,-7.7917,332.5394],[113.936,-7.7901,258.1233],[113.9377,-7.7869,212.5316],[113.9357,-7.7764,433.9922],[113.9409,-7.7755,379.5271],[113.9461,-7.7714,277.7332],[113.9546,-7.761,217.0081],[113.9543,-7.7596,217.0081],[113.9627,-7.7601,144.8041],[113.9644,-7.7586,131.1781],[113.9702,-7.7599,126.0337],[113.9786,-7.7564,109.8424],[113.9795,-7.7476,87.8827],[113.982,-7.7436,79.4701],[113.9811,-7.7396,63.5791],[113.9717,-7.7364,54.4109],[113.959,-7.7286,10.4435],[113.9408,-7.7221,3.4284],[113.9324,-7.7146,4.6278],[113.9248,-7.6988,3.7461],[113.9212,-7.701,1.714],[113.9126,-7.6966,2.0067],[113.9047,-7.6995,2.1631],[113.8927,-7.6945,3.3014],[113.8908,-7.6918,3.1814],[113.8885,-7.6918,16.7728],[113.8862,-7.6878,0.0],[113.8784,-7.6881,38.4807],[113.8742,-7.6865,5.4318],[113.8691,-7.6826,1.1133],[113.8682,-7.68,0.0],[113.8663,-7.697,192.6603],[113.863,-7.702,349.6932],[113.8605,-7.7181,1063.5798],[113.8489,-7.7233,1083.1514],[113.8583,-7.7396,393.2034],[113.8627,-7.7435,371.4662],[113.864,-7.7568,447.7983],[113.8608,-7.7746,760.4189],[113.8532,-7.7802,759.0269],[113.8495,-7.7956,632.3441],[113.8645,-7.7933,399.9067],[113.8723,-7.7975,346.4868],[113.8757,-7.7951,335.6879],[113.8757,-7.7916,340.4314],[113.8773,-7.7911,308.5493],[113.8829,-7.7971,280.4547],[113.8967,-7.7983,263.1038],[113.8996,-7.8001,285.5944],[113.8993,-7.8017,233.6369],[113.9036,-7.8032,209.4182],[113.906,-7.8,285.429],[113.9048,-7.7988,347.5001],[113.9055,-7.7956,448.844],[113.9169,-7.7925,378.2157],[113.9182,-7.7888,380.6796],[113.9287,-7.7906,274.4779],[113.9298,-7.7927,250.3271],[113.9326,-7.7933,283.9289]]]]}}