{"type":"Feature","properties":{"GID_3":"IDN.1.15.1_1","GID_0":"IDN","country":"Indonesia","GID_1":"IDN.1_1","province":"Aceh","NL_NAME_1":"NA","GID_2":"IDN.1.15_1","county":"GayoLues","NL_NAME_2":"NA","city":"BlangJerango","VARNAME_3":"NA","NL_NAME_3":"NA","TYPE_3":"Kecamatan","ENGTYPE_3":"Sub-district","CC_3":"1113011","HASC_3":"NA","name":"Blang_Jerango.city"},
"geometry":{"type": "MultiPolygon","coordinates": [[[[97.1115,3.8303,2673.6128],[97.1213,3.8109,1833.7128],[97.1321,3.8191,2387.1152],[97.138,3.8288,2820.5286],[97.1759,3.8675,2460.9658],[97.1852,3.8811,2244.7571],[97.1939,3.8883,1899.1622],[97.209,3.9164,2103.7566],[97.2163,3.9261,2535.6914],[97.2231,3.9304,2726.6023],[97.2266,3.942,2568.053],[97.2334,3.9522,2320.0977],[97.2354,3.9585,2129.0518],[97.2568,3.9836,1375.8577],[97.2658,3.9993,1148.6907],[97.2726,4.0178,1041.2769],[97.2772,4.0413,1129.5079],[97.2766,4.0525,1405.6624],[97.218,4.0475,1396.5547],[97.205,4.0496,1336.2332],[97.189,4.0498,1171.577],[97.1729,4.0588,940.9742],[97.1647,4.0608,841.4813],[97.1524,4.0625,789.1911],[97.1427,4.0591,721.6432],[97.1383,4.0655,830.8776],[97.1324,4.0637,706.7283],[97.1291,4.0664,803.503],[97.128,4.0695,830.5609],[97.1189,4.072,716.047],[97.113,4.0632,894.5131],[97.113,4.0553,1160.5262],[97.1147,4.0517,1055.0669],[97.113,4.0502,1057.999],[97.1127,4.0369,1132.29],[97.0907,4.0126,1513.2332],[97.0853,4.0001,1612.6449],[97.0808,3.9943,1543.9188],[97.0731,3.9759,2117.7986],[97.0633,3.9594,2322.8787],[97.0686,3.9584,2115.7554],[97.0746,3.9536,1989.8606],[97.0803,3.9514,1629.0457],[97.1002,3.9481,1579.7314],[97.1082,3.9411,1402.2285],[97.117,3.9286,1590.3234],[97.1178,3.922,1773.0535],[97.1157,3.9116,2104.3799],[97.1079,3.8922,2188.176],[97.1092,3.8752,2366.5679],[97.1135,3.8642,2380.2927],[97.1068,3.8571,2297.9399],[97.1053,3.8472,2406.9133],[97.1115,3.8303,2673.6128]]]]}}