{"type":"Feature","properties":{"GID_3":"IDN.11.8.14_1","GID_0":"IDN","country":"Indonesia","GID_1":"IDN.11_1","province":"JawaTimur","NL_NAME_1":"NA","GID_2":"IDN.11.8_1","county":"Jember","NL_NAME_2":"NA","city":"Mayang","VARNAME_3":"NA","NL_NAME_3":"NA","TYPE_3":"Kecamatan","ENGTYPE_3":"Sub-district","CC_3":"3509080","HASC_3":"NA","name":"Mayang.city"},
"geometry":{"type": "MultiPolygon","coordinates": [[[[113.8351,-8.2197,239.6826],[113.8439,-8.2128,279.2612],[113.8478,-8.2051,310.9432],[113.8481,-8.1929,295.2555],[113.8461,-8.1923,287.1761],[113.8471,-8.1908,284.0495],[113.8451,-8.1881,268.9724],[113.8497,-8.1843,273.8333],[113.8502,-8.1773,273.5472],[113.8416,-8.1785,264.2165],[113.832,-8.1693,236.2013],[113.8262,-8.1707,220.018],[113.8161,-8.1687,198.4533],[113.8094,-8.1728,189.1776],[113.8071,-8.1722,184.4333],[113.7997,-8.1755,176.5703],[113.7988,-8.1737,173.7408],[113.7951,-8.1731,171.2036],[113.7895,-8.1747,176.7212],[113.7862,-8.182,157.7255],[113.7783,-8.1881,149.1054],[113.7693,-8.189,141.1307],[113.7661,-8.1878,135.6356],[113.765,-8.1894,129.9147],[113.7599,-8.1895,139.4534],[113.7535,-8.1927,124.878],[113.7458,-8.2011,117.1457],[113.7439,-8.2014,109.1664],[113.7457,-8.2058,104.9663],[113.7383,-8.2071,102.0938],[113.7358,-8.2107,94.3742],[113.7363,-8.213,105.7483],[113.7318,-8.2102,94.8131],[113.7292,-8.2119,98.5084],[113.7302,-8.2151,95.862],[113.7263,-8.2165,97.3654],[113.7261,-8.2269,96.8564],[113.7242,-8.2288,102.6762],[113.7262,-8.2303,88.4659],[113.7291,-8.2269,101.7941],[113.7384,-8.2258,105.0686],[113.7401,-8.2222,110.5862],[113.7484,-8.2162,113.7379],[113.7498,-8.2126,117.2982],[113.7558,-8.2078,121.6587],[113.7609,-8.2068,126.2423],[113.7657,-8.2032,131.5509],[113.7685,-8.2051,133.3411],[113.7751,-8.2018,136.6787],[113.7771,-8.2041,161.388],[113.7761,-8.2101,220.8478],[113.785,-8.2147,399.4846],[113.7856,-8.2187,418.912],[113.7793,-8.2303,435.0891],[113.7822,-8.234,391.8011],[113.7828,-8.239,430.8876],[113.7858,-8.2446,496.6551],[113.8048,-8.2402,306.7062],[113.8136,-8.2351,280.5042],[113.8207,-8.2283,263.184],[113.8313,-8.2278,222.2731],[113.8354,-8.2227,213.2789],[113.8351,-8.2197,239.6826]]]]}}