{"type":"Feature","properties":{"GID_3":"IDN.26.6.15_1","GID_0":"IDN","country":"Indonesia","GID_1":"IDN.26_1","province":"SulawesiSelatan","NL_NAME_1":"NA","GID_2":"IDN.26.6_1","county":"Gowa","NL_NAME_2":"NA","city":"SombaOpu","VARNAME_3":"NA","NL_NAME_3":"NA","TYPE_3":"Kecamatan","ENGTYPE_3":"Sub-district","CC_3":"7306040","HASC_3":"NA","name":"Somba_Opu.city"},
"geometry":{"type": "MultiPolygon","coordinates": [[[[119.4951,-5.2437,8.2208],[119.4999,-5.2357,14.5526],[119.5005,-5.2279,17.5413],[119.4964,-5.2248,20.3553],[119.5008,-5.2175,17.1809],[119.5081,-5.2095,11.962],[119.5187,-5.2103,5.3321],[119.5175,-5.2073,4.7647],[119.5204,-5.2054,6.4299],[119.5212,-5.2008,4.6389],[119.5182,-5.1984,4.2437],[119.5168,-5.1937,4.0101],[119.5139,-5.1932,6.0737],[119.5134,-5.1947,3.6247],[119.5107,-5.1949,3.9206],[119.4925,-5.1899,7.9934],[119.4866,-5.1909,4.6803],[119.4862,-5.1893,4.8729],[119.476,-5.1842,2.0022],[119.4704,-5.1791,2.4916],[119.4636,-5.1771,2.8524],[119.4611,-5.1946,8.2459],[119.4463,-5.1889,7.2504],[119.4407,-5.1883,8.2897],[119.4396,-5.1921,4.1127],[119.4473,-5.2054,3.9577],[119.4594,-5.22,3.0],[119.4684,-5.2232,7.0078],[119.4727,-5.222,3.0],[119.476,-5.2291,4.1702],[119.4867,-5.2408,7.4846],[119.4951,-5.2437,8.2208]]]]}}