{"type":"Feature","properties":{"GID_3":"IDN.26.3.13_1","GID_0":"IDN","country":"Indonesia","GID_1":"IDN.26_1","province":"SulawesiSelatan","NL_NAME_1":"NA","GID_2":"IDN.26.3_1","county":"Bone","NL_NAME_2":"NA","city":"Lappariaja","VARNAME_3":"NA","NL_NAME_3":"NA","TYPE_3":"Kecamatan","ENGTYPE_3":"Sub-district","CC_3":"7311130","HASC_3":"NA","name":"Lappariaja.city"},
"geometry":{"type": "MultiPolygon","coordinates": [[[[119.9927,-4.7583,100.9786],[119.9968,-4.7546,129.8018],[120.0024,-4.7632,106.1589],[120.0025,-4.757,108.4526],[120.0071,-4.7611,94.4939],[120.0109,-4.7587,93.1274],[120.0132,-4.7536,107.1615],[120.0159,-4.7575,94.8833],[120.0179,-4.7576,98.5015],[120.0199,-4.7532,90.0502],[120.027,-4.7512,88.5613],[120.0265,-4.7454,91.935],[120.0233,-4.7449,86.3819],[120.0223,-4.7421,92.1255],[120.0248,-4.7345,95.6713],[120.0309,-4.735,81.3044],[120.0305,-4.7233,98.4465],[120.0363,-4.7214,104.9985],[120.0364,-4.7177,105.7374],[120.032,-4.7169,82.5823],[120.0271,-4.7113,103.8276],[120.0327,-4.7056,76.8],[120.0294,-4.7007,83.5666],[120.0196,-4.6979,86.5675],[120.0167,-4.7001,85.3323],[120.0154,-4.7055,77.4068],[120.0128,-4.7038,78.5198],[120.0134,-4.6988,76.9751],[120.0111,-4.6962,82.9539],[120.0115,-4.6902,69.4688],[120.0143,-4.6889,75.0255],[120.0172,-4.6911,71.3276],[120.0219,-4.6913,86.3231],[120.0227,-4.6886,73.0422],[120.0214,-4.6844,83.1925],[120.0184,-4.6817,83.7294],[120.0193,-4.6775,91.0513],[120.0175,-4.6745,79.7499],[120.0147,-4.6767,73.475],[120.0124,-4.6818,69.418],[120.0096,-4.6819,66.4394],[120.0084,-4.6798,68.5818],[120.0057,-4.6821,72.8709],[120.0026,-4.6813,74.8281],[120.0044,-4.678,70.0996],[120.0018,-4.6733,71.4534],[120.0067,-4.672,97.223],[120.0087,-4.6668,93.4258],[120.0054,-4.6608,98.4791],[120.0062,-4.6552,84.2253],[119.9981,-4.6524,73.1626],[120.0005,-4.6481,84.6443],[119.9957,-4.6487,70.0579],[119.9927,-4.646,74.8017],[119.9841,-4.6564,97.8021],[119.9845,-4.6599,114.6341],[119.9809,-4.6652,136.6079],[119.9614,-4.6739,181.1335],[119.9534,-4.6747,191.6573],[119.9351,-4.6719,203.5017],[119.9257,-4.6668,238.0],[119.9257,-4.6706,264.4114],[119.9228,-4.6721,292.647],[119.9068,-4.6687,918.7908],[119.9056,-4.6709,907.6202],[119.907,-4.6734,918.8586],[119.9065,-4.6821,837.2961],[119.9022,-4.6894,863.5974],[119.8941,-4.6983,916.7943],[119.885,-4.7148,1011.8009],[119.8846,-4.7188,1057.5156],[119.8898,-4.7251,824.1868],[119.8973,-4.7278,694.0654],[119.9005,-4.732,661.4843],[119.9105,-4.732,529.0895],[119.9231,-4.7437,412.3869],[119.9247,-4.7484,348.2946],[119.9299,-4.7533,290.2735],[119.9369,-4.7585,228.0425],[119.9445,-4.7603,220.5219],[119.9544,-4.7657,239.3644],[119.9714,-4.7786,151.39],[119.9742,-4.7748,130.3981],[119.9781,-4.7741,129.1029],[119.9773,-4.7701,141.8577],[119.9791,-4.7718,110.9187],[119.9818,-4.7711,111.0923],[119.9851,-4.7645,133.4655],[119.9876,-4.7664,115.6965],[119.9909,-4.7642,115.2651],[119.9934,-4.76,101.2659],[119.9927,-4.7583,100.9786]]]]}}