{"type":"Feature","properties":{"GID_3":"IDN.32.15.18_1","GID_0":"IDN","country":"Indonesia","GID_1":"IDN.32_1","province":"SumateraUtara","NL_NAME_1":"NA","GID_2":"IDN.32.15_1","county":"Langkat","NL_NAME_2":"NA","city":"SeiLepan","VARNAME_3":"NA","NL_NAME_3":"NA","TYPE_3":"Kecamatan","ENGTYPE_3":"Sub-district","CC_3":"1213170","HASC_3":"NA","name":"Sei_Lepan.city"},
"geometry":{"type": "MultiPolygon","coordinates": [[[[98.0849,3.7745,220.9205],[98.1065,3.7714,45.0926],[98.1135,3.7782,69.5403],[98.1258,3.7802,63.4039],[98.1491,3.7952,95.5902],[98.1687,3.7996,72.826],[98.1627,3.8016,77.2927],[98.1546,3.807,97.4363],[98.1541,3.8182,54.5926],[98.1511,3.8238,65.4822],[98.1503,3.8339,32.4395],[98.1555,3.8328,35.732],[98.1659,3.8403,27.4093],[98.1678,3.8441,28.2296],[98.1741,3.8454,31.8974],[98.1716,3.8504,26.1061],[98.1739,3.852,25.787],[98.1728,3.8547,24.2522],[98.1741,3.8546,25.7739],[98.175,3.8585,23.6331],[98.1733,3.8647,24.7152],[98.1767,3.8631,24.38],[98.1782,3.8656,20.6353],[98.1771,3.8666,20.9005],[98.1795,3.8654,24.7768],[98.1811,3.8699,22.8233],[98.1821,3.8677,24.972],[98.1836,3.8696,24.7385],[98.1854,3.8685,23.9764],[98.1867,3.8726,27.8523],[98.1909,3.8719,22.2201],[98.1927,3.8742,20.1159],[98.1944,3.8725,21.7108],[98.1965,3.8737,22.4049],[98.1978,3.8723,20.671],[98.1991,3.8754,19.5269],[98.2004,3.8742,19.5269],[98.2032,3.8751,24.7324],[98.2033,3.8778,20.2619],[98.2009,3.8789,18.9585],[98.2017,3.8829,19.217],[98.2056,3.8844,20.5442],[98.2097,3.893,20.703],[98.2147,3.8937,18.0837],[98.213,3.8967,19.2461],[98.2142,3.8986,19.4729],[98.2158,3.897,17.2696],[98.2205,3.9009,18.9745],[98.2232,3.8985,17.1632],[98.2275,3.9005,29.808],[98.2291,3.906,17.6514],[98.2266,3.9094,16.6695],[98.2286,3.9113,15.9713],[98.2301,3.9108,16.0335],[98.2309,3.913,15.1934],[98.2384,3.9128,14.5012],[98.2407,3.9106,12.8143],[98.243,3.9116,17.1225],[98.2438,3.9146,13.8462],[98.2462,3.9108,17.0825],[98.2497,3.9106,14.5621],[98.2503,3.9125,16.2767],[98.2528,3.905,13.0596],[98.2565,3.9082,22.1454],[98.2598,3.8995,21.7453],[98.2953,3.8988,43.22],[98.2975,3.9209,34.5044],[98.300299999999993,3.9258,50.3194],[98.3069,3.9285,31.6508],[98.3049,3.9363,29.2825],[98.3136,3.9448,25.4475],[98.3107,3.9496,23.573],[98.3137,3.9566,22.7361],[98.3123,3.9614,24.9555],[98.3141,3.9711,21.4344],[98.3053,3.9809,6.5322],[98.3033,3.9803,17.1328],[98.3018,3.9847,12.2311],[98.2999,3.9842,10.1246],[98.2991,3.9853,8.2483],[98.3005,3.9864,11.1499],[98.2975,3.9871,13.4503],[98.2973,3.9901,8.3744],[98.2935,3.9862,6.7239],[98.2935,4.0061,6.262],[98.2819,4.001,2.6195],[98.2826,4.0213,8.2407],[98.2805,4.0281,0.0],[98.2639,4.0324,0.4691],[98.2629,4.0315,0.7261],[98.2635,4.0278,0.3951],[98.2712,4.0192,0.4656],[98.2685,4.0169,0.0],[98.2474,4.0089,3.4512],[98.2468,4.0061,0.8933],[98.253,4.0,1.8511],[98.2508,3.9972,2.0078],[98.2478,3.9853,12.5201],[98.2488,3.9806,8.1093],[98.2446,3.98,6.8072],[98.2414,3.9731,25.209],[98.2389,3.9719,11.2194],[98.2368,3.974,22.466],[98.2279,3.9738,18.3301],[98.2254,3.9699,13.2918],[98.2215,3.9676,14.7138],[98.2224,3.9638,11.0593],[98.2183,3.9551,14.1999],[98.2167,3.9546,17.5351],[98.2148,3.957,18.0587],[98.1734,3.9416,60.2911],[98.1778,3.9358,71.0913],[98.1784,3.9311,66.999],[98.1864,3.9215,65.3344],[98.1874,3.9143,49.7759],[98.1858,3.9075,35.2215],[98.1812,3.9009,58.3042],[98.1734,3.8936,72.7563],[98.1696,3.8834,36.218],[98.1641,3.8821,43.7426],[98.1355,3.8843,81.6008],[98.1051,3.8754,110.6988],[98.0851,3.8597,57.8163],[98.0805,3.8531,67.1992],[98.0657,3.8399,166.43],[98.0635,3.8321,138.2892],[98.0651,3.8147,153.1307],[98.0561,3.8118,111.7485],[98.0479,3.8131,111.2977],[98.0412,3.8163,137.9002],[98.0341,3.816,149.9315],[98.0262,3.8138,120.4167],[98.0208,3.8092,147.7248],[98.0126,3.8072,213.5909],[98.0108,3.8026,300.5512],[98.0107,3.7936,376.0248],[98.0041,3.7872,520.6741],[98.0039,3.7836,528.4044],[97.9994,3.774,658.9536],[98.006,3.7754,586.1895],[98.0426,3.7709,379.0413],[98.0639,3.7749,144.2739],[98.0849,3.7745,220.9205]]],
[[[98.3,4.0202,3.8568],[98.3077,4.0125,3.5331],[98.3146,4.0201,6.7634],[98.3074,4.0277,5.7988],[98.3048,4.0414,0.0],[98.2945,4.0368,0.0],[98.2875,4.0302,2.2261],[98.2878,4.0253,4.8856],[98.292,4.0211,4.7945],[98.2954,4.0185,6.3902],[98.2978,4.0229,4.4598],[98.3,4.0202,3.8568]]]]}}