{"type":"Feature","properties":{"GID_3":"IDN.34.2.6_1","GID_0":"IDN","country":"Indonesia","GID_1":"IDN.34_1","province":"KalimantanTimur","NL_NAME_1":"NA","GID_2":"IDN.34.2_1","county":"Berau","NL_NAME_2":"NA","city":"Maratua","VARNAME_3":"NA","NL_NAME_3":"NA","TYPE_3":"Kecamatan","ENGTYPE_3":"Sub-district","CC_3":"6405041","HASC_3":"NA","name":"Maratua.city"},
"geometry":{"type": "MultiPolygon","coordinates": [[[[118.8081,1.943,0.0],[118.8077,1.9405,0.0],[118.8085,1.9405,0.0],[118.8094,1.944,0.0],[118.8081,1.943,0.0]]],
[[[118.8032,1.9613,0.0],[118.802,1.9572,0.0],[118.8041,1.9548,0.0],[118.8051,1.9561,0.0],[118.8032,1.9613,0.0]]],
[[[118.8166,1.9613,0.0],[118.8166,1.9576,0.0],[118.8245,1.961,0.0],[118.8297,1.9697,0.0],[118.8298,1.9732,0.0],[118.8233,1.9701,0.0],[118.8166,1.9613,0.0]]],
[[[118.579,2.2356,16.9799],[118.5749,2.2398,42.7593],[118.5695,2.2525,35.7941],[118.5667,2.2599,35.935],[118.567,2.2663,19.6078],[118.5638,2.2733,54.0234],[118.5654,2.2809,0.0],[118.5648,2.2886,17.1654],[118.567,2.2924,0.0],[118.567,2.3007,18.744],[118.5689,2.3032,6.5541],[118.5724,2.3032,0.0],[118.5772,2.2997,1.7488],[118.5844,2.2857,0.0],[118.5895,2.2806,6.7528],[118.5939,2.2726,0.0],[118.6003,2.2697,0.0],[118.6098,2.2621,0.0],[118.6161,2.2601,0.0],[118.6208,2.2519,0.0],[118.6322,2.2483,0.0],[118.6357,2.2458,0.0],[118.6367,2.2499,5.5306],[118.6338,2.2547,18.332],[118.6224,2.2595,16.4492],[118.6076,2.2691,26.5406],[118.6034,2.2748,37.6336],[118.5962,2.2802,37.8212],[118.5829,2.2991,13.6513],[118.5721,2.3099,45.3493],[118.5699,2.3102,40.878],[118.5623,2.3026,11.9928],[118.5616,2.2886,0.0],[118.5588,2.2787,0.0],[118.5597,2.2736,0.0],[118.5629,2.2685,26.5087],[118.5613,2.2478,0.0],[118.566,2.2347,0.0],[118.5768,2.2245,5.3543],[118.5834,2.2114,0.0],[118.5904,2.205,0.0],[118.597,2.1936,0.0],[118.6046,2.1878,0.0],[118.6081,2.1875,0.0],[118.603,2.1936,6.5729],[118.6037,2.1961,2.8549],[118.6056,2.1932,0.5223],[118.611,2.1907,0.9563],[118.6132,2.1849,0.0],[118.6182,2.1802,0.0],[118.6265,2.1798,2.6877],[118.6331,2.1744,0.0],[118.642,2.1715,0.0],[118.6467,2.168,0.0],[118.6493,2.1626,0.0],[118.6518,2.161,0.0],[118.6518,2.1655,7.4457],[118.6489,2.1702,16.6577],[118.635,2.1804,37.2987],[118.623,2.1865,21.46],[118.6097,2.2006,8.874],[118.6056,2.2076,2.6572],[118.5983,2.2095,39.8529],[118.5894,2.2162,18.0512],[118.579,2.2356,16.9799]]],
[[[118.5302,2.1605,42.7303],[118.5204,2.1605,30.5546],[118.5129,2.1568,33.9857],[118.5043,2.1345,0.0],[118.5191,2.1385,0.0],[118.5386,2.1351,0.0],[118.5576,2.1175,0.0],[118.5622,2.1152,0.0],[118.5606,2.1234,55.1594],[118.5394,2.1505,8.425],[118.5371,2.159,36.838],[118.5302,2.1605,42.7303]]],
[[[118.6008,2.2541,0.0],[118.594,2.2568,0.0],[118.5952,2.253,0.0],[118.6021,2.2521,0.0],[118.6008,2.2541,0.0]]],
[[[118.5899,2.2564,0.0],[118.5923,2.2563,0.0],[118.5889,2.2593,0.0],[118.5891,2.2571,0.0],[118.5899,2.2564,0.0]]]]}}