{"type":"Feature","properties":{"GID_3":"IDN.21.12.5_1","GID_0":"IDN","country":"Indonesia","GID_1":"IDN.21_1","province":"NusaTenggaraTimur","NL_NAME_1":"NA","GID_2":"IDN.21.12_1","county":"Ngada","NL_NAME_2":"NA","city":"Jerebuu","VARNAME_3":"NA","NL_NAME_3":"NA","TYPE_3":"Kecamatan","ENGTYPE_3":"Sub-district","CC_3":"5312011","HASC_3":"NA","name":"Jerebuu.city"},
"geometry":{"type": "MultiPolygon","coordinates": [[[[121.0073,-8.9375,337.1302],[121.0078,-8.9384,319.8805],[121.0222,-8.9314,357.722],[121.0239,-8.9138,993.8013],[121.0308,-8.9099,1133.139],[121.0357,-8.9113,1227.9583],[121.0509,-8.9074,982.1962],[121.0587,-8.8984,1294.6323],[121.0605,-8.8895,1242.1301],[121.0559,-8.8808,1211.4323],[121.048,-8.8788,1243.9379],[121.045,-8.8753,1260.05],[121.0439,-8.8732,1284.8834],[121.0465,-8.8679,1345.4307],[121.0461,-8.8635,1463.7738],[121.0244,-8.8711,1056.751],[121.0186,-8.8712,858.5298],[121.0141,-8.8739,615.098],[121.004,-8.8739,684.4966],[121.0021,-8.8717,710.3851],[121.0014,-8.8645,1042.5005],[120.9971,-8.8573,1174.0546],[120.9896,-8.8521,1410.3137],[120.982,-8.8512,1488.8102],[120.9704,-8.8595,1108.4894],[120.9563,-8.8771,2130.5479],[120.9542,-8.8777,2138.1482],[120.9623,-8.8832,1644.7532],[120.9683,-8.8897,1127.6956],[120.9694,-8.8998,810.3284],[120.9674,-8.9062,660.7484],[120.9684,-8.9107,540.8784],[120.9667,-8.9199,355.3439],[120.9687,-8.9233,323.5756],[120.9712,-8.9245,264.6177],[120.98,-8.9234,262.2726],[120.989,-8.9295,294.2638],[120.9961,-8.9321,408.3112],[121.0,-8.9328,366.149],[121.0016,-8.93,471.2381],[121.0073,-8.9375,337.1302]]]]}}