{"type":"Feature","properties":{"GID_3":"IDN.34.6.5_1","GID_0":"IDN","country":"Indonesia","GID_1":"IDN.34_1","province":"KalimantanTimur","NL_NAME_1":"NA","GID_2":"IDN.34.6_1","county":"KutaiKartanegara","NL_NAME_2":"NA","city":"LoaJanan","VARNAME_3":"NA","NL_NAME_3":"NA","TYPE_3":"Kecamatan","ENGTYPE_3":"Sub-district","CC_3":"6403040","HASC_3":"NA","name":"Loa_Janan.city"},
"geometry":{"type": "MultiPolygon","coordinates": [[[[117.1297,-0.6637,19.6464],[117.1301,-0.6564,20.044],[117.138,-0.6487,12.8229],[117.1421,-0.6194,26.4057],[117.125,-0.6075,46.0225],[117.1201,-0.5991,31.9705],[117.1151,-0.5979,24.3066],[117.1102,-0.5996,30.9377],[117.1001,-0.5941,10.8373],[117.0966,-0.591,7.953],[117.0971,-0.5809,2.9959],[117.0939,-0.5771,6.1612],[117.0845,-0.5763,0.0],[117.0821,-0.5773,0.0],[117.0786,-0.5862,0.0],[117.0755,-0.5899,0.0],[117.0762,-0.5786,6.7884],[117.0667,-0.5714,63.5613],[117.0589,-0.55,29.976],[117.041,-0.5583,4.1144],[117.0327,-0.5659,46.6534],[117.0316,-0.5719,10.4696],[117.0331,-0.5853,2.1075],[117.0283,-0.5891,2.9911],[117.0281,-0.592,4.3723],[117.0234,-0.5992,10.8276],[117.0203,-0.5998,12.1384],[117.0187,-0.6043,19.4334],[117.0151,-0.6063,27.0081],[117.0097,-0.6034,16.3789],[117.0033,-0.6027,15.1576],[116.9952,-0.6092,18.9218],[116.9889,-0.6245,52.955],[116.9822,-0.6474,52.8112],[116.9763,-0.6508,47.171],[116.9765,-0.6553,28.1697],[116.9712,-0.6586,28.6551],[116.9661,-0.6672,34.4053],[116.966,-0.6706,56.4166],[116.9513,-0.6675,61.9018],[116.9492,-0.6686,58.1594],[116.9373,-0.7238,50.365],[116.9328,-0.7292,50.2027],[116.9319,-0.7416,62.7452],[116.9273,-0.7533,72.5912],[116.9169,-0.7714,70.9479],[116.9154,-0.7831,101.6555],[116.9034,-0.8019,53.9669],[116.8802,-0.8265,144.2334],[116.8927,-0.8315,64.7205],[116.8848,-0.8514,68.1934],[116.8989,-0.864,71.5865],[116.9198,-0.8888,78.3657],[116.9406,-0.9076,109.5852],[116.955,-0.9257,129.7211],[116.9725,-0.9183,104.585],[116.9809,-0.9112,136.1181],[117.0052,-0.8667,142.2197],[117.0105,-0.8515,165.3837],[117.0112,-0.8425,175.0573],[117.0159,-0.8394,95.5339],[117.0316,-0.8353,80.6446],[117.0444,-0.8222,98.0356],[117.0605,-0.8122,43.7556],[117.062,-0.8046,53.3728],[117.0677,-0.7991,30.9389],[117.0727,-0.7982,23.59],[117.0787,-0.7995,25.1322],[117.0807,-0.7975,26.1541],[117.0844,-0.8009,29.4099],[117.0869,-0.8007,15.5357],[117.0889,-0.7933,35.6055],[117.0944,-0.7931,23.0418],[117.094,-0.7896,20.069],[117.0986,-0.7836,27.3883],[117.0983,-0.7794,40.5961],[117.1069,-0.7729,45.8361],[117.125,-0.7459,39.2534],[117.134,-0.7403,30.3284],[117.1417,-0.7264,48.2192],[117.15,-0.7056,38.6458],[117.1528,-0.6972,31.2938],[117.1533,-0.6885,26.9349],[117.152,-0.6852,24.2745],[117.1386,-0.6874,45.4476],[117.1384,-0.6739,67.3738],[117.1353,-0.6719,57.8967],[117.1297,-0.6637,19.6464]]]]}}