{"type":"Feature","properties":{"GID_2":"IDN.21.21_1","GID_0":"IDN","country":"Indonesia","GID_1":"IDN.21_1","province":"NusaTenggaraTimur","NL_NAME_1":"NA","county":"TimorTengahUtara","VARNAME_2":"NA","NL_NAME_2":"NA","TYPE_2":"Kabupaten","ENGTYPE_2":"Regency","CC_2":"5305","HASC_2":"ID.NT.TU","name":"Timor_Tengah_Utara.county"},
"geometry":{"type": "MultiPolygon","coordinates": [[[[124.5037,-9.6532,326.3065],[124.5086,-9.656,316.7969],[124.5105,-9.6596,305.7743],[124.5171,-9.663,259.6617],[124.5198,-9.6607,262.8031],[124.5302,-9.6607,252.2866],[124.5397,-9.6535,245.5532],[124.5406,-9.6469,241.8403],[124.5426,-9.6451,244.3352],[124.5448,-9.6441,239.1807],[124.5549,-9.6454,233.7366],[124.5656,-9.6387,225.7245],[124.5724,-9.6306,218.9369],[124.5733,-9.623,216.0087],[124.5776,-9.6183,212.2784],[124.5846,-9.6163,209.3122],[124.6,-9.6192,199.2785],[124.6065,-9.6165,195.279],[124.6092,-9.613,193.8705],[124.6155,-9.6134,191.3804],[124.6176,-9.6108,189.1138],[124.6191,-9.6027,186.0406],[124.6261,-9.5991,180.9873],[124.627,-9.5944,177.435],[124.6338,-9.5861,172.2199],[124.6384,-9.5877,171.8459],[124.6484,-9.5832,163.4656],[124.6604,-9.5814,156.228],[124.6702,-9.5822,152.455],[124.6785,-9.5859,146.6268],[124.686,-9.5846,142.2498],[124.6962,-9.5862,138.987],[124.7013,-9.5825,135.567],[124.7003,-9.5689,132.8099],[124.7048,-9.5607,127.7137],[124.7258,-9.554,118.3579],[124.7309,-9.5537,115.5925],[124.7354,-9.5559,111.6082],[124.7382,-9.562,108.9408],[124.7534,-9.5638,103.0343],[124.757,-9.5597,102.8659],[124.7569,-9.5576,109.028],[124.7519,-9.5542,113.1586],[124.7541,-9.5436,122.1648],[124.7527,-9.541,127.6401],[124.753,-9.5363,130.9927],[124.7415,-9.5302,138.0543],[124.7388,-9.5186,153.2721],[124.7364,-9.5163,158.5986],[124.7384,-9.5097,163.7517],[124.7341,-9.5101,164.4802],[124.729,-9.5133,168.6966],[124.7224,-9.5069,191.3551],[124.7212,-9.5035,176.1306],[124.7229,-9.5013,182.211],[124.7286,-9.5026,189.6421],[124.7284,-9.4984,190.2478],[124.7313,-9.4985,200.8997],[124.7323,-9.4962,237.4221],[124.7334,-9.4981,215.0757],[124.732,-9.5011,200.8617],[124.7371,-9.4995,210.118],[124.7399,-9.4975,231.6808],[124.7367,-9.4964,220.6895],[124.7379,-9.4941,215.8147],[124.7409,-9.4939,219.3012],[124.744,-9.4876,224.8957],[124.7459,-9.49,244.2701],[124.7486,-9.4898,278.2007],[124.7527,-9.4823,241.8643],[124.7571,-9.4822,252.3938],[124.7599,-9.4794,265.2103],[124.7623,-9.4824,250.4122],[124.7648,-9.48,256.0951],[124.7671,-9.4819,268.5527],[124.7682,-9.4763,276.1634],[124.7661,-9.4747,283.7057],[124.7688,-9.4716,293.0682],[124.7687,-9.4677,329.4647],[124.7714,-9.4675,301.9396],[124.7731,-9.47,300.9287],[124.7816,-9.4702,308.6104],[124.7813,-9.4672,312.8155],[124.7787,-9.464,307.5021],[124.7816,-9.4571,372.3344],[124.78,-9.453,376.9074],[124.7839,-9.4528,375.579],[124.7883,-9.4456,373.5744],[124.7849,-9.4439,373.3337],[124.7878,-9.4392,379.9191],[124.7862,-9.4361,392.9709],[124.7879,-9.4307,395.6624],[124.7856,-9.4285,396.884],[124.788,-9.4257,401.0058],[124.7862,-9.4246,416.6401],[124.7877,-9.4188,411.8883],[124.7787,-9.4113,429.2103],[124.772,-9.4103,465.6771],[124.7698,-9.4064,530.2822],[124.7711,-9.4021,465.7269],[124.7688,-9.3975,471.4741],[124.775,-9.3982,515.4744],[124.789,-9.385,481.3908],[124.7944,-9.3829,474.0868],[124.8001,-9.3836,517.2146],[124.8026,-9.3811,485.3206],[124.8052,-9.3738,436.3439],[124.8089,-9.369,413.3252],[124.8073,-9.3679,409.448],[124.8081,-9.366,406.4683],[124.8063,-9.3655,392.7929],[124.8061,-9.3619,408.1041],[124.8007,-9.3551,364.3696],[124.8019,-9.3534,362.7762],[124.8006,-9.3507,355.9193],[124.8031,-9.3499,354.9266],[124.8043,-9.3471,351.8269],[124.8073,-9.347,347.6109],[124.8198,-9.3392,336.8697],[124.8239,-9.3401,333.6752],[124.8304,-9.3354,328.1715],[124.8375,-9.3352,330.0864],[124.8378,-9.3313,327.6364],[124.8398,-9.3326,327.6369],[124.8447,-9.3226,334.8697],[124.8426,-9.3175,336.8342],[124.844,-9.3176,336.8342],[124.8453,-9.3192,335.0322],[124.8478,-9.3169,336.2177],[124.8452,-9.3163,337.9153],[124.8447,-9.3109,339.9386],[124.8463,-9.3113,340.1489],[124.8431,-9.3092,342.0342],[124.8427,-9.3059,343.3878],[124.8458,-9.3023,346.1458],[124.8437,-9.2994,348.8618],[124.8451,-9.2992,349.1786],[124.8446,-9.298,349.1786],[124.8467,-9.2981,348.9496],[124.8456,-9.2965,350.8279],[124.8469,-9.2937,353.3486],[124.8488,-9.2937,353.9222],[124.8548,-9.2849,360.3029],[124.8533,-9.284,362.2728],[124.8522,-9.2781,371.2639],[124.8527,-9.2712,379.598],[124.8505,-9.2651,412.2302],[124.8505,-9.2544,549.073],[124.8489,-9.25,576.4003],[124.8376,-9.234,599.053],[124.8358,-9.2157,596.5353],[124.8272,-9.2052,458.7903],[124.82,-9.1996,383.8842],[124.8187,-9.1892,334.0812],[124.8167,-9.1854,297.223],[124.8203,-9.1807,280.2308],[124.8209,-9.1739,264.0123],[124.8127,-9.1726,221.1287],[124.8092,-9.1683,200.3448],[124.8125,-9.1665,208.9116],[124.8121,-9.1651,214.1946],[124.8156,-9.1658,225.6177],[124.8173,-9.1595,309.4853],[124.8248,-9.1522,206.2394],[124.8269,-9.1455,169.8456],[124.826,-9.1437,186.9624],[124.8205,-9.1442,142.1796],[124.8166,-9.1058,223.7979],[124.8136,-9.102,162.05],[124.816,-9.0913,92.4858],[124.814,-9.0895,71.2669],[124.8181,-9.0859,64.3949],[124.8202,-9.0763,126.6639],[124.8155,-9.065,25.5767],[124.8115,-9.0635,20.316],[124.8044,-9.0545,10.8768],[124.8025,-9.0472,10.9189],[124.8056,-9.0413,12.2098],[124.802,-9.0374,8.7757],[124.8008,-9.0299,2.6044],[124.7968,-9.0264,2.5],[124.7974,-9.0224,21.0806],[124.7951,-9.0218,7.1505],[124.7924,-9.0182,1.4388],[124.7854,-9.0191,1.2232],[124.7732,-9.0318,4.6927],[124.7656,-9.0328,0.0],[124.7572,-9.0415,5.2316],[124.7298,-9.0588,2.9434],[124.7245,-9.0585,3.042],[124.7155,-9.0507,0.0],[124.7061,-9.0506,1.8714],[124.6974,-9.0536,0.0],[124.6947,-9.0596,7.0584],[124.6914,-9.0787,0.0],[124.6865,-9.0939,4.9278],[124.6816,-9.1034,0.0],[124.6702,-9.1181,5.067],[124.6587,-9.1253,1.5085],[124.6537,-9.1256,0.7379],[124.6492,-9.124,0.0],[124.6393,-9.1283,1.0777],[124.6229,-9.1481,1.763],[124.6159,-9.1534,7.4434],[124.5727,-9.1644,2.6629],[124.5725,-9.1665,2.2827],[124.5698,-9.1664,2.5069],[124.5688,-9.1674,2.5069],[124.5705,-9.1666,2.5069],[124.5699,-9.1678,2.5069],[124.5726,-9.1681,3.1676],[124.5691,-9.1693,2.7139],[124.5612,-9.1778,2.5703],[124.5534,-9.1781,9.3023],[124.5528,-9.1729,0.0],[124.5512,-9.1725,0.6788],[124.5419,-9.1763,7.7045],[124.5387,-9.1762,0.0],[124.5303,-9.1864,17.6145],[124.5061,-9.1761,0.0],[124.5017,-9.1762,0.0],[124.4976,-9.1792,0.7647],[124.4917,-9.1779,0.0],[124.4857,-9.172,2.578],[124.4811,-9.172,1.259],[124.4761,-9.1744,2.9958],[124.4781,-9.1762,7.4879],[124.4804,-9.1893,28.8461],[124.4795,-9.1956,60.0166],[124.4829,-9.1978,135.6933],[124.4776,-9.2,64.0575],[124.476,-9.2034,112.1066],[124.4685,-9.2083,80.325],[124.4661,-9.224,274.4608],[124.4685,-9.2281,294.3817],[124.4658,-9.2314,353.614],[124.4673,-9.2383,446.9421],[124.4645,-9.2424,568.2554],[124.4661,-9.2498,1071.8704],[124.462,-9.2508,1040.4169],[124.4609,-9.2568,768.4888],[124.4547,-9.2669,623.5914],[124.4561,-9.2751,623.6204],[124.4555,-9.2836,727.9961],[124.462,-9.2935,889.644],[124.4626,-9.2995,954.3306],[124.4594,-9.3048,985.5037],[124.4564,-9.3059,980.7764],[124.4546,-9.3086,1012.7574],[124.4468,-9.3064,926.9284],[124.4435,-9.3127,707.3199],[124.4402,-9.3145,573.631],[124.4383,-9.3339,319.2844],[124.4349,-9.3347,337.7574],[124.4336,-9.3314,293.5053],[124.4311,-9.3339,303.9025],[124.4265,-9.3318,293.7],[124.4219,-9.3363,277.5439],[124.4149,-9.3356,253.3435],[124.412,-9.3383,253.5967],[124.4094,-9.3369,232.6223],[124.4035,-9.34,222.5478],[124.4042,-9.3428,275.3145],[124.4021,-9.3455,295.7766],[124.4011,-9.3522,381.68],[124.3896,-9.3606,485.3052],[124.38,-9.3568,414.2661],[124.3801,-9.3632,438.3856],[124.3779,-9.3653,415.2132],[124.3783,-9.3704,345.6388],[124.3741,-9.3766,288.6967],[124.3787,-9.3798,293.0186],[124.3819,-9.3895,299.4288],[124.3793,-9.3933,306.0515],[124.3804,-9.3968,324.3632],[124.3766,-9.4,364.278],[124.3725,-9.4011,388.5979],[124.3772,-9.4037,375.9612],[124.3745,-9.4063,402.3129],[124.3734,-9.4051,385.8827],[124.3716,-9.406,398.6895],[124.3739,-9.4087,429.2219],[124.3726,-9.4147,416.0994],[124.3668,-9.4195,524.9684],[124.3625,-9.4192,571.1063],[124.3541,-9.424,697.1736],[124.3496,-9.4286,810.369],[124.3482,-9.434,903.1468],[124.3524,-9.4412,824.4169],[124.359,-9.4434,831.5195],[124.3621,-9.4461,781.5658],[124.3651,-9.4596,498.6202],[124.3565,-9.4642,525.5289],[124.3549,-9.4693,580.1461],[124.3569,-9.4718,615.0366],[124.3553,-9.4766,680.8843],[124.3566,-9.4818,748.8654],[124.3548,-9.4852,797.1088],[124.3497,-9.4856,835.0885],[124.3422,-9.4828,831.0628],[124.3383,-9.4866,865.7831],[124.3322,-9.4856,981.9531],[124.3162,-9.4959,1112.8491],[124.3014,-9.4935,1155.0386],[124.2968,-9.5027,1067.7557],[124.2927,-9.5017,1139.5277],[124.2878,-9.5047,1297.7783],[124.2851,-9.5029,1330.4851],[124.2782,-9.5029,1510.6581],[124.2794,-9.4889,1257.1062],[124.2824,-9.4853,1147.219],[124.2849,-9.476,919.8352],[124.2882,-9.4724,867.8491],[124.2865,-9.4687,837.8038],[124.287,-9.4646,778.0548],[124.2846,-9.4628,705.2134],[124.2836,-9.4584,655.5936],[124.287,-9.4512,524.5771],[124.2813,-9.4407,474.7155],[124.2742,-9.4341,427.6252],[124.2765,-9.4291,414.0624],[124.2756,-9.4248,392.292],[124.2733,-9.424,389.0894],[124.274,-9.4204,379.3514],[124.2711,-9.4146,382.0165],[124.2716,-9.4124,359.1027],[124.2698,-9.4112,361.9463],[124.2678,-9.4124,363.0437],[124.2667,-9.407,346.1893],[124.2628,-9.4037,337.1591],[124.2609,-9.3958,323.4857],[124.2521,-9.3923,312.6957],[124.2446,-9.384,300.5303],[124.239,-9.3817,329.0116],[124.235,-9.3744,302.7682],[124.2306,-9.3759,284.4232],[124.2167,-9.3656,268.6949],[124.2121,-9.3678,264.6532],[124.2109,-9.3701,273.7168],[124.205,-9.3706,252.3884],[124.2031,-9.3778,240.9741],[124.197,-9.3789,235.3148],[124.1925,-9.3778,241.3585],[124.1901,-9.3839,219.6152],[124.1857,-9.3873,212.5679],[124.1737,-9.3905,195.5331],[124.1722,-9.3932,226.8842],[124.1682,-9.3944,193.5526],[124.1681,-9.3967,172.2195],[124.1719,-9.4003,174.8831],[124.1612,-9.4125,154.3942],[124.1625,-9.4186,143.5784],[124.1547,-9.4225,143.5702],[124.1501,-9.4219,136.3106],[124.15,-9.4273,127.9115],[124.1438,-9.4242,130.5345],[124.1341,-9.4265,140.9188],[124.1284,-9.4167,128.0363],[124.1263,-9.416,134.631],[124.1249,-9.4109,138.5244],[124.1198,-9.4067,117.811],[124.1164,-9.41,131.9772],[124.1131,-9.4067,93.1888],[124.1105,-9.4101,99.4219],[124.0986,-9.4091,72.0],[124.0959,-9.4061,89.4426],[124.0933,-9.4091,82.8325],[124.0926,-9.4126,90.2061],[124.0954,-9.4173,138.5156],[124.1006,-9.4179,175.5744],[124.106,-9.4213,173.8938],[124.1065,-9.4249,167.1976],[124.1109,-9.4303,231.5836],[124.1175,-9.4307,237.9531],[124.122,-9.4338,257.8527],[124.1242,-9.4336,264.5131],[124.1243,-9.4371,251.7164],[124.1327,-9.4403,307.2245],[124.1342,-9.4384,285.7045],[124.1361,-9.4426,303.0163],[124.1399,-9.4433,303.8889],[124.1398,-9.4456,328.1255],[124.1415,-9.444,332.5106],[124.143,-9.4446,336.1469],[124.1446,-9.4477,334.7562],[124.1428,-9.4508,372.7251],[124.1449,-9.4528,362.3624],[124.1475,-9.4531,334.0179],[124.1548,-9.4487,351.8191],[124.1623,-9.4521,366.219],[124.1666,-9.4558,387.7661],[124.1786,-9.4749,565.245],[124.1834,-9.4747,613.1602],[124.1854,-9.4805,682.5914],[124.1887,-9.4809,746.7272],[124.1899,-9.4832,795.5638],[124.2018,-9.485,947.5975],[124.2032,-9.4899,1061.9036],[124.2063,-9.4918,1108.4352],[124.2099,-9.5004,1295.8376],[124.2153,-9.5021,1445.0034],[124.2193,-9.5057,1704.6367],[124.2239,-9.5062,1919.6534],[124.2229,-9.5113,1811.0537],[124.2244,-9.5142,1778.7577],[124.2292,-9.5181,1755.1685],[124.2339,-9.5183,1730.3328],[124.2386,-9.5261,2227.3274],[124.2313,-9.5265,2172.8008],[124.2242,-9.5297,2074.6064],[124.2148,-9.5382,1944.2498],[124.2132,-9.5455,2085.4753],[124.2169,-9.547,2164.605],[124.2232,-9.5531,2161.8818],[124.2245,-9.5585,2208.335],[124.2267,-9.5603,2312.644],[124.2295,-9.5586,2207.9321],[124.2314,-9.5465,1516.0403],[124.2364,-9.5432,1371.0323],[124.2401,-9.5456,1292.3749],[124.2468,-9.5463,1215.6372],[124.2541,-9.5508,1128.3314],[124.2574,-9.5503,1116.6235],[124.259,-9.5522,1097.6058],[124.2672,-9.5528,1043.6676],[124.2683,-9.5589,1013.4568],[124.2727,-9.5599,1021.2396],[124.2742,-9.5644,995.3311],[124.276,-9.5645,1001.0811],[124.2761,-9.5663,991.4601],[124.2802,-9.5699,987.4504],[124.2829,-9.5697,981.901],[124.2852,-9.5674,955.2121],[124.2977,-9.568,919.058],[124.3047,-9.5734,893.8763],[124.3086,-9.5718,858.242],[124.3125,-9.5757,846.8699],[124.3115,-9.5802,845.0779],[124.3169,-9.5895,831.6234],[124.3163,-9.5914,830.5562],[124.3181,-9.5925,821.7806],[124.3296,-9.592,941.0316],[124.3409,-9.587,777.4149],[124.3478,-9.5881,707.8775],[124.351,-9.5864,638.1949],[124.3544,-9.5878,628.8768],[124.3618,-9.5971,497.8161],[124.3704,-9.5902,462.4828],[124.375,-9.5913,457.7376],[124.3764,-9.5937,442.2597],[124.3788,-9.5934,437.5252],[124.3814,-9.5964,428.8236],[124.3856,-9.5949,426.2901],[124.39,-9.5982,442.0654],[124.3938,-9.5935,408.5191],[124.4029,-9.5946,397.6266],[124.4093,-9.6,407.239],[124.4226,-9.5977,381.8253],[124.4243,-9.5943,375.7229],[124.4327,-9.6052,458.5641],[124.4476,-9.6147,404.4389],[124.4489,-9.6187,398.7692],[124.4505,-9.6173,394.3144],[124.4521,-9.6191,391.69],[124.4558,-9.6148,380.6778],[124.4578,-9.6159,375.4201],[124.461,-9.6135,376.1065],[124.4591,-9.6172,376.7556],[124.4564,-9.6188,374.1994],[124.458,-9.6253,394.2403],[124.4551,-9.6254,395.3088],[124.4575,-9.6346,442.0923],[124.4916,-9.6451,528.314],[124.5037,-9.6532,326.3065]]]]}}