{"type":"Feature","properties":{"GID_3":"IDN.9.5.32_1","GID_0":"IDN","country":"Indonesia","GID_1":"IDN.9_1","province":"JawaBarat","NL_NAME_1":"NA","GID_2":"IDN.9.5_1","county":"Bogor","NL_NAME_2":"NA","city":"Rumpin","VARNAME_3":"NA","NL_NAME_3":"NA","TYPE_3":"Kecamatan","ENGTYPE_3":"Sub-district","CC_3":"3201260","HASC_3":"NA","name":"Rumpin.city"},
"geometry":{"type": "MultiPolygon","coordinates": [[[[106.6901,-6.5242,105.5612],[106.6916,-6.5207,112.3561],[106.6899,-6.5176,120.9631],[106.6847,-6.5131,94.2406],[106.6785,-6.5156,123.1299],[106.6807,-6.5074,131.7227],[106.6742,-6.5048,89.7427],[106.6717,-6.5022,77.8718],[106.6749,-6.4945,75.405],[106.6783,-6.4916,75.4838],[106.6731,-6.4872,69.1858],[106.6729,-6.4763,76.2217],[106.6679,-6.4745,78.383],[106.6677,-6.4694,81.8159],[106.6625,-6.4723,60.9418],[106.6624,-6.4674,92.4912],[106.6583,-6.4692,57.2561],[106.6543,-6.4685,54.2573],[106.654,-6.4645,82.1088],[106.6514,-6.4618,94.6339],[106.6571,-6.4562,64.5017],[106.6575,-6.4427,51.729],[106.6507,-6.4391,46.4778],[106.6516,-6.4365,46.6614],[106.65,-6.4313,42.5106],[106.6537,-6.4216,38.0774],[106.6466,-6.4198,42.9342],[106.6508,-6.412,34.547],[106.6495,-6.4103,34.6046],[106.6454,-6.4095,32.6178],[106.6485,-6.4041,37.5671],[106.6418,-6.39,24.9258],[106.6456,-6.3847,23.3854],[106.6544,-6.3775,25.7073],[106.6556,-6.3721,23.469],[106.6532,-6.3659,21.5159],[106.651,-6.3622,24.9523],[106.6287,-6.3609,55.0],[106.6034,-6.3619,50.7937],[106.5981,-6.3587,46.3099],[106.5967,-6.3599,48.9373],[106.5978,-6.3626,49.6533],[106.5939,-6.3627,51.2554],[106.593,-6.359,57.0554],[106.5912,-6.3667,48.5349],[106.594,-6.3681,50.2898],[106.593,-6.3701,52.777],[106.5957,-6.3708,52.1397],[106.5939,-6.3746,54.7801],[106.5924,-6.3741,53.5241],[106.5914,-6.3755,57.853],[106.5929,-6.378,49.5776],[106.5941,-6.3777,51.5754],[106.5943,-6.3815,59.5272],[106.5914,-6.3814,54.6859],[106.5934,-6.384,51.3354],[106.5906,-6.3837,52.9737],[106.5917,-6.3862,56.3736],[106.5891,-6.3886,53.9167],[106.589,-6.3924,53.8142],[106.5914,-6.3942,50.764],[106.5901,-6.3957,52.3105],[106.5934,-6.3969,58.534],[106.5959,-6.4006,63.8617],[106.5986,-6.4009,55.8867],[106.5965,-6.4021,56.1417],[106.5975,-6.4035,53.9315],[106.5918,-6.4068,62.8049],[106.5939,-6.4073,60.5037],[106.5925,-6.4149,59.3997],[106.5962,-6.416,61.1165],[106.5965,-6.4184,63.0967],[106.599,-6.4197,64.3192],[106.5986,-6.4216,63.806],[106.5943,-6.422,62.9713],[106.5927,-6.4262,68.4415],[106.5953,-6.4286,68.3105],[106.6,-6.439,86.4285],[106.6056,-6.4435,103.8634],[106.5995,-6.4504,102.0737],[106.6037,-6.4566,126.1335],[106.6029,-6.4584,140.2271],[106.5992,-6.4595,151.895],[106.604,-6.4665,224.3678],[106.6101,-6.4687,279.7675],[106.6137,-6.4734,187.0057],[106.6095,-6.4745,193.6898],[106.6102,-6.4776,204.8989],[106.6124,-6.4787,225.4315],[106.6101,-6.4806,217.978],[106.6095,-6.4901,265.6209],[106.6076,-6.4898,262.4397],[106.6054,-6.4921,258.1414],[106.6054,-6.5016,458.3663],[106.5994,-6.5146,409.9008],[106.6007,-6.5296,418.5524],[106.5951,-6.5376,419.0739],[106.6027,-6.5455,278.946],[106.6044,-6.5508,229.0221],[106.6146,-6.5546,176.8857],[106.6176,-6.5494,174.8222],[106.6204,-6.5494,176.8845],[106.6224,-6.5469,168.871],[106.6272,-6.5514,187.6414],[106.6269,-6.5464,182.5412],[106.6298,-6.5476,180.191],[106.6313,-6.5454,162.8596],[106.6331,-6.5469,186.3031],[106.6353,-6.546,161.6537],[106.6355,-6.542,167.7638],[106.6394,-6.5406,155.6871],[106.6389,-6.5393,150.5404],[106.6368,-6.5397,154.8114],[106.6377,-6.5374,167.3537],[106.6435,-6.5394,147.4846],[106.6461,-6.5386,146.5258],[106.6476,-6.5411,151.3388],[106.6495,-6.5387,145.7114],[106.6496,-6.5425,152.079],[106.6513,-6.5405,139.2461],[106.6546,-6.5419,156.7274],[106.6573,-6.5394,133.2354],[106.6572,-6.5369,135.8651],[106.6651,-6.5354,135.8302],[106.6679,-6.5365,141.831],[106.679,-6.5309,127.3296],[106.6801,-6.5322,120.6176],[106.6844,-6.5317,120.2863],[106.6855,-6.529,119.6089],[106.688,-6.5286,105.2842],[106.6862,-6.5264,129.033],[106.6887,-6.5268,105.8128],[106.6901,-6.5242,105.5612]]]]}}