{"type":"Feature","properties":{"GID_3":"IDN.12.9.1_1","GID_0":"IDN","country":"Indonesia","GID_1":"IDN.12_1","province":"KalimantanBarat","NL_NAME_1":"NA","GID_2":"IDN.12.9_1","county":"Pontianak","NL_NAME_2":"NA","city":"Anjongan","VARNAME_3":"NA","NL_NAME_3":"NA","TYPE_3":"Kecamatan","ENGTYPE_3":"Sub-district","CC_3":"6104091","HASC_3":"NA","name":"Anjongan.city"},
"geometry":{"type": "MultiPolygon","coordinates": [[[[109.2366,0.3236,17.2521],[109.2353,0.3416,38.1088],[109.2487,0.3385,38.9264],[109.2491,0.3416,61.625],[109.2486,0.3451,203.8754],[109.2446,0.3514,355.3792],[109.2419,0.3626,310.3578],[109.2446,0.3719,272.272],[109.2429,0.3749,185.9328],[109.2392,0.3761,167.9923],[109.2295,0.3751,166.8793],[109.221,0.3797,198.8636],[109.218,0.3888,161.9159],[109.2156,0.3904,102.748],[109.202,0.3921,27.7404],[109.1797,0.3906,15.1701],[109.1782,0.3924,18.6201],[109.1769,0.4025,19.4856],[109.1782,0.412,19.0462],[109.1813,0.4145,23.6566],[109.1809,0.4176,31.9967],[109.1774,0.4181,24.6597],[109.174,0.4214,22.3554],[109.166,0.4223,14.5929],[109.1606,0.4183,15.2939],[109.1589,0.4148,22.4278],[109.1557,0.4154,12.1537],[109.1559,0.4131,19.5205],[109.152,0.4157,16.1926],[109.1517,0.4117,22.1118],[109.1467,0.4098,21.8849],[109.1458,0.4124,17.1523],[109.1397,0.4099,17.696],[109.1368,0.4116,20.2005],[109.132,0.4098,16.9706],[109.1296,0.4114,11.4073],[109.1286,0.4068,17.8931],[109.1233,0.4133,13.8807],[109.1211,0.414,12.9548],[109.1222,0.4161,11.2752],[109.1202,0.4167,16.1838],[109.1191,0.4153,17.0148],[109.1155,0.4168,20.4846],[109.1155,0.4197,10.4809],[109.1109,0.4181,11.8224],[109.1126,0.4159,14.4936],[109.1097,0.4142,13.639],[109.1093,0.4169,16.0663],[109.1066,0.4167,11.3875],[109.1085,0.421,13.799],[109.1044,0.4212,10.1982],[109.0998,0.4171,13.2028],[109.0993,0.4189,14.386],[109.1014,0.4217,10.4375],[109.0969,0.422,12.1454],[109.0959,0.4169,14.3759],[109.0926,0.4202,8.6314],[109.0928,0.4258,13.0592],[109.0899,0.4245,12.5898],[109.0895,0.4217,15.5553],[109.0933,0.4152,9.5336],[109.0938,0.4095,10.4016],[109.0887,0.3983,21.6971],[109.0842,0.3965,18.9842],[109.0802,0.3836,6.8799],[109.0897,0.3717,7.8446],[109.0881,0.3666,8.8687],[109.0914,0.3645,9.7818],[109.0914,0.3558,20.9144],[109.0896,0.3498,23.3228],[109.0904,0.3441,22.4126],[109.0936,0.3393,21.5321],[109.093,0.3298,20.574],[109.0946,0.3219,17.3737],[109.0987,0.3155,10.808],[109.1063,0.3142,17.4185],[109.109,0.3159,17.7023],[109.1233,0.3165,5.0356],[109.145,0.3105,5.4739],[109.1552,0.3096,13.8952],[109.1676,0.3027,8.2729],[109.1744,0.2935,7.7439],[109.2005,0.2901,11.4481],[109.204,0.3037,15.7136],[109.2088,0.3147,37.0494],[109.2199,0.3235,21.0185],[109.235,0.32,11.0637],[109.2365,0.32,10.3292],[109.2366,0.3236,17.2521]]]]}}