{"type":"Feature","properties":{"GID_3":"IDN.32.4.9_1","GID_0":"IDN","country":"Indonesia","GID_1":"IDN.32_1","province":"SumateraUtara","NL_NAME_1":"NA","GID_2":"IDN.32.4_1","county":"DeliSerdang","NL_NAME_2":"NA","city":"Kutalimbaru","VARNAME_3":"NA","NL_NAME_3":"NA","TYPE_3":"Kecamatan","ENGTYPE_3":"Sub-district","CC_3":"1212040","HASC_3":"NA","name":"Kutalimbaru.city"},
"geometry":{"type": "MultiPolygon","coordinates": [[[[98.5317,3.3538,409.1784],[98.5541,3.3865,270.6836],[98.5596,3.4237,186.5934],[98.5516,3.4934,66.7007],[98.5358,3.5045,82.9164],[98.5278,3.5123,80.1353],[98.5258,3.5167,75.7789],[98.5281,3.5207,67.2451],[98.5389,3.5313,63.3503],[98.5427,3.5413,55.4966],[98.5463,3.567,44.2834],[98.5363,3.5759,42.7465],[98.5366,3.5724,39.3957],[98.5334,3.5678,41.3807],[98.5213,3.5696,48.4093],[98.5006,3.5685,43.5626],[98.5018,3.5598,46.7695],[98.5081,3.5561,47.557],[98.5106,3.5527,44.6409],[98.5091,3.5485,48.3088],[98.5114,3.5442,53.3275],[98.5078,3.5427,50.4814],[98.512,3.5394,51.2695],[98.5106,3.5312,57.3919],[98.5202,3.5237,62.0388],[98.5246,3.5222,68.1937],[98.5244,3.52,70.2753],[98.5208,3.5208,71.8863],[98.5191,3.5104,64.1],[98.514,3.5019,63.2821],[98.5132,3.4972,72.1001],[98.51,3.4951,89.5206],[98.5133,3.4938,79.0557],[98.5109,3.4899,88.8152],[98.5103,3.4807,82.8861],[98.5076,3.476,86.0447],[98.5096,3.469,119.1456],[98.5089,3.4649,107.7289],[98.5042,3.4544,118.0502],[98.5069,3.4497,140.2845],[98.5036,3.4385,148.3103],[98.5046,3.4311,157.0459],[98.5023,3.4258,175.548],[98.5012,3.4159,200.8778],[98.5015,3.4069,235.2345],[98.5047,3.4032,238.8364],[98.5045,3.4008,247.7261],[98.4956,3.3908,275.1749],[98.4987,3.3852,296.2783],[98.4995,3.3748,336.5767],[98.5018,3.3719,348.4169],[98.5047,3.3618,397.4096],[98.5043,3.3469,463.3585],[98.5008,3.3381,494.5079],[98.5049,3.3285,543.7634],[98.5031,3.3184,526.3843],[98.5095,3.3085,683.6194],[98.4983,3.2981,710.2379],[98.4866,3.2915,965.616],[98.4853,3.2888,895.5514],[98.4762,3.2833,1056.8104],[98.4699,3.2763,1195.8079],[98.4703,3.2736,1230.2872],[98.4749,3.2709,1234.8774],[98.4733,3.2566,1354.3516],[98.4686,3.2555,1343.8418],[98.4685,3.2495,1334.1613],[98.4721,3.2383,1412.967],[98.4716,3.2359,1454.5682],[98.4652,3.2309,1459.9557],[98.4742,3.223,1567.3892],[98.4769,3.2224,1662.5291],[98.4993,3.2734,1228.4877],[98.5062,3.2839,942.9418],[98.5165,3.3058,716.374],[98.5204,3.3182,628.213],[98.5226,3.339,479.899],[98.5274,3.3491,418.3877],[98.5317,3.3538,409.1784]]]]}}