{"type":"Feature","properties":{"GID_3":"IDN.22.5.6_1","GID_0":"IDN","country":"Indonesia","GID_1":"IDN.22_1","province":"PapuaBarat","NL_NAME_1":"NA","GID_2":"IDN.22.5_1","county":"Maybrat","NL_NAME_2":"NA","city":"AitinyoUtara","VARNAME_3":"NA","NL_NAME_3":"NA","TYPE_3":"Distrik","ENGTYPE_3":"District","CC_3":"9110050","HASC_3":"NA","name":"Aitinyo_Utara.city"},
"geometry":{"type": "MultiPolygon","coordinates": [[[[132.3524,-1.364,376.0864],[132.3656,-1.354,357.4556],[132.3777,-1.3614,332.6076],[132.3809,-1.3591,333.4908],[132.398,-1.3563,323.7029],[132.3975,-1.3521,349.0436],[132.3663,-1.2992,287.1174],[132.3373,-1.281,274.2716],[132.3242,-1.2769,253.1547],[132.3131,-1.2851,252.6828],[132.3068,-1.2922,257.4575],[132.3021,-1.3253,461.2964],[132.3164,-1.3389,475.228],[132.3189,-1.3633,365.2296],[132.322,-1.3647,368.0174],[132.3375,-1.3626,389.8012],[132.3446,-1.3652,387.8278],[132.3524,-1.364,376.0864]]]]}}