{"type":"Feature","properties":{"GID_3":"IDN.32.29.4_1","GID_0":"IDN","country":"Indonesia","GID_1":"IDN.32_1","province":"SumateraUtara","NL_NAME_1":"NA","GID_2":"IDN.32.29_1","county":"Simalungun","NL_NAME_2":"NA","city":"BosarMaligas","VARNAME_3":"NA","NL_NAME_3":"NA","TYPE_3":"Kecamatan","ENGTYPE_3":"Sub-district","CC_3":"1209200","HASC_3":"NA","name":"Bosar_Maligas.city"},
"geometry":{"type": "MultiPolygon","coordinates": [[[[99.3573,2.8845,114.6851],[99.3592,2.8832,119.3911],[99.3614,2.9038,136.7719],[99.357,2.9174,140.7248],[99.3586,2.9214,118.3067],[99.3657,2.9256,116.6816],[99.3718,2.9326,127.6177],[99.3852,2.9413,117.1198],[99.3926,2.9561,103.0354],[99.4003,2.9634,100.985],[99.4087,2.968,121.3819],[99.4122,2.9738,87.9299],[99.4116,2.9786,71.6989],[99.4056,2.9887,90.2109],[99.4067,3.0079,76.0522],[99.4046,3.0277,91.2262],[99.4073,3.0352,97.5127],[99.4179,3.0449,88.5988],[99.4553,3.0633,53.915],[99.4697,3.0741,51.9611],[99.4693,3.0785,41.9445],[99.4415,3.0875,56.6721],[99.4358,3.0933,47.4783],[99.4352,3.1026,45.0952],[99.4406,3.1108,35.1311],[99.4489,3.1154,26.7204],[99.4772,3.1185,27.0176],[99.4824,3.122,33.9479],[99.4831,3.1248,34.3684],[99.4219,3.1467,36.8517],[99.3631,3.1511,46.2303],[99.3784,3.1827,38.7997],[99.3647,3.1808,41.9244],[99.3499,3.1753,32.9853],[99.3391,3.1698,32.8879],[99.3274,3.1581,47.6248],[99.3318,3.1412,49.6357],[99.3313,3.11,58.3694],[99.3372,3.0906,69.4672],[99.3316,3.0558,91.1205],[99.3157,3.0073,111.4792],[99.304,2.9586,141.8822],[99.3042,2.95,144.0815],[99.3078,2.9432,137.5221],[99.3288,2.9237,160.4821],[99.3327,2.9182,154.5526],[99.3382,2.916,154.8867],[99.3446,2.9095,168.1815],[99.3486,2.9042,156.2171],[99.3481,2.8955,117.436],[99.3531,2.8921,136.4327],[99.3573,2.8845,114.6851]]]]}}