{"type":"Feature","properties":{"GID_2":"IDN.22.11_1","GID_0":"IDN","country":"Indonesia","GID_1":"IDN.22_1","province":"PapuaBarat","NL_NAME_1":"NA","county":"TelukWondama","VARNAME_2":"NA","NL_NAME_2":"NA","TYPE_2":"Kabupaten","ENGTYPE_2":"Regency","CC_2":"9103","HASC_2":"ID.IB.TW","name":"Teluk_Wondama.county"},
"geometry":{"type": "MultiPolygon","coordinates": [[[[134.4741,-2.8676,31.1018],[134.4637,-2.8686,16.6225],[134.4556,-2.8671,26.0969],[134.4523,-2.8576,24.817],[134.4439,-2.8496,23.4434],[134.4469,-2.8472,0.0],[134.4488,-2.843,0.0],[134.4492,-2.8377,0.0],[134.4476,-2.8335,9.7916],[134.4493,-2.8231,0.0],[134.4467,-2.8179,72.1621],[134.4486,-2.8164,5.4206],[134.4484,-2.8141,0.0],[134.4504,-2.8135,0.0],[134.4539,-2.8168,0.0],[134.4564,-2.8168,0.0],[134.4565,-2.8146,0.0],[134.4521,-2.811,25.2575],[134.4407,-2.8091,22.4798],[134.4344,-2.7987,48.7136],[134.4291,-2.7952,46.4489],[134.4265,-2.8,116.7124],[134.4246,-2.7942,72.5397],[134.4248,-2.7837,0.0],[134.4229,-2.779,54.0749],[134.4153,-2.7736,73.3221],[134.4085,-2.7726,85.6091],[134.4074,-2.7704,90.3515],[134.4119,-2.7548,0.0],[134.4108,-2.7496,0.0],[134.4043,-2.7377,0.0],[134.4045,-2.7327,0.0],[134.4084,-2.723,3.9298],[134.4063,-2.7201,48.3902],[134.4,-2.7237,23.909],[134.3954,-2.7113,5.518],[134.3809,-2.6963,47.9921],[134.3884,-2.6964,0.0],[134.3797,-2.6764,18.5125],[134.3724,-2.6772,68.3972],[134.3709,-2.6729,0.0],[134.3677,-2.6697,5.4076],[134.3674,-2.661,0.0],[134.3744,-2.6544,0.0],[134.3755,-2.6475,7.6281],[134.367,-2.6485,26.2928],[134.3611,-2.6431,22.2013],[134.3574,-2.6359,0.0],[134.3537,-2.6334,9.6414],[134.3549,-2.6309,1.9275],[134.3509,-2.6297,32.7277],[134.3508,-2.627,23.589],[134.3603,-2.6254,0.0],[134.3605,-2.6211,0.0],[134.3518,-2.6161,24.6221],[134.3498,-2.6087,0.0],[134.3417,-2.6075,34.693],[134.3417,-2.6007,1.8379],[134.3367,-2.5935,12.1423],[134.3351,-2.5883,0.0],[134.3273,-2.587,57.1061],[134.3232,-2.5905,35.817],[134.3202,-2.591,38.6961],[134.3192,-2.5879,18.6555],[134.3204,-2.5833,0.0],[134.3226,-2.5822,0.0],[134.3334,-2.5841,0.0],[134.3368,-2.5809,0.0],[134.34,-2.5813,0.0],[134.3417,-2.5787,0.0],[134.3372,-2.5752,52.7185],[134.3326,-2.568,89.2938],[134.3345,-2.5588,0.0],[134.3385,-2.5594,0.0],[134.3408,-2.5551,0.0],[134.3332,-2.55,64.9673],[134.3284,-2.5492,57.5722],[134.3277,-2.5464,37.9844],[134.3258,-2.5456,14.4982],[134.3253,-2.5478,25.5301],[134.3204,-2.5474,36.5907],[134.3206,-2.5454,20.8309],[134.3187,-2.5439,39.8357],[134.3209,-2.541,5.6097],[134.3113,-2.5368,75.3484],[134.3146,-2.5338,1.7422],[134.3191,-2.5353,0.0],[134.3216,-2.5323,0.0],[134.321,-2.5289,21.9742],[134.312,-2.519,0.0],[134.3015,-2.5214,91.1223],[134.2959,-2.5207,110.5728],[134.287,-2.5222,64.2261],[134.2899,-2.5189,104.7533],[134.3106,-2.516,12.7228],[134.3149,-2.5127,4.3984],[134.3176,-2.5149,0.0],[134.3196,-2.514,0.0],[134.3195,-2.5092,35.3782],[134.3007,-2.5083,72.0453],[134.2987,-2.5072,59.8552],[134.2967,-2.4967,0.0],[134.2937,-2.4976,34.9342],[134.2907,-2.496,28.1709],[134.2906,-2.4896,0.0],[134.2853,-2.4869,106.1745],[134.2842,-2.4845,46.0218],[134.2804,-2.4847,103.4753],[134.2804,-2.4803,0.0],[134.2754,-2.4789,55.7385],[134.2676,-2.4824,67.4485],[134.2649,-2.481,70.8631],[134.2662,-2.4793,84.9115],[134.2722,-2.4784,128.3704],[134.2756,-2.4742,0.0],[134.2766,-2.469,10.1278],[134.2716,-2.4643,57.7021],[134.2693,-2.4644,53.2486],[134.268,-2.4681,13.6651],[134.2661,-2.4662,8.2649],[134.2655,-2.4642,20.3691],[134.2687,-2.4598,0.0],[134.2681,-2.452,8.3111],[134.2658,-2.4518,29.2309],[134.2636,-2.4548,55.1592],[134.2605,-2.4552,74.8065],[134.2586,-2.446,5.1069],[134.2627,-2.4399,0.0],[134.2624,-2.4356,4.9791],[134.2538,-2.4303,65.2197],[134.2501,-2.4334,11.4436],[134.2485,-2.4428,28.2086],[134.2448,-2.4429,21.8668],[134.2403,-2.434,0.0],[134.2307,-2.426,6.496],[134.2255,-2.4241,38.7963],[134.2156,-2.4238,19.4134],[134.2145,-2.4189,7.2329],[134.2079,-2.4073,0.0],[134.203,-2.403,61.5273],[134.2027,-2.401,50.8961],[134.2059,-2.398,0.0],[134.2024,-2.3942,14.35],[134.2051,-2.3877,0.0],[134.2045,-2.3826,3.0254],[134.2025,-2.3833,72.3728],[134.1989,-2.3897,0.0],[134.1968,-2.3889,155.364],[134.1965,-2.3819,0.0],[134.1942,-2.3807,9.2381],[134.1934,-2.3769,0.0],[134.1931,-2.3688,0.0],[134.1875,-2.3645,33.0496],[134.1858,-2.3581,0.0],[134.1824,-2.3608,29.5687],[134.1764,-2.3554,0.0],[134.1742,-2.3233,0.0],[134.1633,-2.3125,5.9757],[134.16,-2.3007,0.0],[134.1572,-2.2966,13.572],[134.1587,-2.2894,0.0],[134.1548,-2.2781,6.7087],[134.1583,-2.2697,0.0],[134.1567,-2.2646,0.0],[134.1525,-2.259,0.0],[134.1555,-2.2563,0.0],[134.1601,-2.2559,0.0],[134.1594,-2.2539,0.0],[134.1529,-2.253,6.3291],[134.152,-2.2505,0.0],[134.1574,-2.2474,0.0],[134.1563,-2.2456,0.0],[134.1513,-2.2449,34.9715],[134.1488,-2.2426,24.7631],[134.1396,-2.2415,204.6255],[134.1389,-2.239,36.7521],[134.1396,-2.234,0.0],[134.1377,-2.2292,0.0],[134.1467,-2.2283,0.0],[134.1475,-2.225,0.0],[134.1404,-2.223,25.7251],[134.1368,-2.2174,0.0],[134.1422,-2.2159,0.0],[134.1494,-2.2036,0.0],[134.1496,-2.1995,0.0],[134.1482,-2.1975,0.0],[134.1435,-2.1964,106.8407],[134.1428,-2.1944,69.6031],[134.147,-2.1936,0.0],[134.1474,-2.1913,0.0],[134.144,-2.1807,0.0],[134.1478,-2.1759,0.0],[134.1477,-2.1729,0.0],[134.1468,-2.1703,0.0],[134.142,-2.1695,73.9761],[134.1433,-2.1674,0.0],[134.1455,-2.1672,0.0],[134.1454,-2.1587,0.0],[134.1413,-2.1566,0.0],[134.1294,-2.1562,79.22],[134.1278,-2.1576,74.8007],[134.1279,-2.1601,154.3698],[134.1312,-2.1674,107.5467],[134.1299,-2.1691,177.5175],[134.1235,-2.1693,130.9158],[134.1209,-2.1638,0.0],[134.1184,-2.1437,0.0],[134.1146,-2.1287,0.0],[134.1167,-2.1143,0.0],[134.115,-2.1096,5.3218],[134.108,-2.1036,90.0465],[134.1069,-2.1008,7.4004],[134.1083,-2.0985,0.0],[134.1135,-2.1009,0.0],[134.1147,-2.0988,0.0],[134.1043,-2.0742,3.6147],[134.1072,-2.0615,0.0],[134.1042,-2.0529,0.0],[134.1073,-2.0502,0.0],[134.1098,-2.0442,0.0],[134.1177,-2.0402,0.0],[134.1199,-2.0419,0.0],[134.1214,-2.0398,0.0],[134.1212,-2.0286,0.0],[134.123,-2.0257,0.0],[134.1251,-2.0264,26.8487],[134.128,-2.0326,0.0],[134.1317,-2.0309,0.0],[134.1303,-2.0199,0.0],[134.1313,-2.0174,0.0],[134.1389,-2.0103,0.0],[134.1424,-2.0027,0.0],[134.1401,-1.983,5.264],[134.1363,-1.9764,79.0842],[134.1384,-1.9664,5.3799],[134.1451,-1.9673,0.0],[134.1446,-1.9698,0.0],[134.1463,-1.972,13.4364],[134.1518,-1.9705,4.1633],[134.1537,-1.966,25.6441],[134.1528,-1.9634,25.0734],[134.1473,-1.9629,19.5699],[134.146,-1.9608,2.8328],[134.1416,-1.9606,5.3448],[134.1384,-1.9638,11.4069],[134.1345,-1.9568,96.1314],[134.1362,-1.9462,67.0749],[134.133,-1.9276,2.1441],[134.1278,-1.9135,23.4905],[134.121,-1.8853,3.0367],[134.1224,-1.8767,29.3179],[134.1206,-1.8752,16.9876],[134.1226,-1.8715,8.5918],[134.1216,-1.8643,0.0],[134.1198,-1.8628,0.8947],[134.118,-1.8637,0.0],[134.114,-1.8684,21.761],[134.1074,-1.8678,7.6024],[134.1064,-1.8632,6.32],[134.1017,-1.8621,47.5915],[134.1036,-1.8559,17.4998],[134.1024,-1.8538,4.1123],[134.1039,-1.852,20.4861],[134.1069,-1.852,4.411],[134.0996,-1.8339,10.8393],[134.1027,-1.8156,0.0],[134.0991,-1.8046,75.4832],[134.1008,-1.7969,56.8565],[134.0968,-1.7914,0.0],[134.099,-1.7832,22.4935],[134.0985,-1.7732,12.2856],[134.1001,-1.7669,81.7531],[134.0845,-1.7697,143.2106],[134.0448,-1.7685,496.6519],[134.0033,-1.7715,141.7486],[134.0058,-1.825,262.7732],[134.0058,-1.862,246.4369],[134.0031,-1.8621,198.0787],[134.0046,-1.91,207.4873],[134.0188,-2.0049,146.9372],[134.0202,-2.0046,153.7293],[134.0242,-2.0216,202.9988],[134.0238,-2.0393,144.0936],[134.029,-2.0731,89.3278],[134.0358,-2.1046,52.1115],[134.0451,-2.1901,23.0855],[134.0475,-2.1969,59.9153],[134.0514,-2.2313,141.8441],[134.0518,-2.2644,406.1889],[134.057,-2.3158,23.9517],[134.0622,-2.343,16.3423],[134.0645,-2.3728,5.9723],[134.0706,-2.4132,357.2737],[134.0741,-2.4274,58.5864],[134.0724,-2.4446,389.0754],[134.0733,-2.4666,455.1301],[134.0716,-2.4802,688.8015],[134.0713,-2.5094,1083.3888],[134.076,-2.5745,183.2184],[134.0806,-2.5947,363.1986],[134.0837,-2.6033,193.2948],[134.0917,-2.617,249.8681],[134.0965,-2.6377,231.3436],[134.1082,-2.6632,112.1058],[134.12,-2.6835,181.1571],[134.129,-2.7052,198.0947],[134.1337,-2.7301,318.9062],[134.1423,-2.7516,281.4651],[134.1457,-2.7686,205.1737],[134.155,-2.7897,182.9243],[134.171,-2.8358,176.3353],[134.1735,-2.8468,271.4927],[134.1726,-2.8523,314.1096],[134.1761,-2.8609,470.1731],[134.1772,-2.8607,511.4838],[134.1931,-2.9029,188.8065],[134.2048,-2.9504,236.5384],[134.2335,-3.0432,808.0231],[134.3231,-3.1848,491.4837],[134.2795,-3.2402,733.4808],[134.2565,-3.2825,347.8163],[134.2376,-3.3108,318.4754],[134.2243,-3.35,436.9092],[134.2514,-3.4022,650.1583],[134.2839,-3.4141,649.9766],[134.3356,-3.4362,1107.9502],[134.3852,-3.4621,1029.418],[134.413,-3.4741,969.8135],[134.4874,-3.4899,523.8656],[134.5252,-3.5058,313.7558],[134.6359,-3.5426,254.3102],[134.7268,-3.4086,659.4913],[134.7259,-3.3638,1184.5703],[134.7035,-3.3455,999.0455],[134.6298,-2.7416,278.91],[134.6309,-2.7416,278.91],[134.6244,-2.6997,716.3862],[134.5988,-2.4891,10.4048],[134.5705,-2.4764,37.8126],[134.5698,-2.4726,0.0],[134.5719,-2.4646,0.0],[134.5676,-2.4617,16.4461],[134.5666,-2.4591,56.8145],[134.5593,-2.4574,52.8873],[134.5565,-2.4584,90.0611],[134.5329,-2.4519,49.9621],[134.5307,-2.452,0.0],[134.5299,-2.4539,0.0],[134.5329,-2.4572,20.5595],[134.5324,-2.4605,0.0],[134.5339,-2.4628,0.0],[134.5442,-2.4671,0.0],[134.5503,-2.4723,0.0],[134.5511,-2.4749,10.1573],[134.5456,-2.4751,17.8781],[134.5378,-2.471,80.5557],[134.5276,-2.4705,91.3059],[134.5211,-2.4673,80.8644],[134.5187,-2.4675,45.3524],[134.5143,-2.4715,26.442],[134.5129,-2.4775,0.0],[134.5159,-2.4793,0.0],[134.5202,-2.476,0.0],[134.5226,-2.476,0.0],[134.5354,-2.4811,0.0],[134.5455,-2.4777,0.0],[134.5564,-2.4782,0.0],[134.5613,-2.4813,0.0],[134.5695,-2.4827,12.4814],[134.5676,-2.4876,31.1816],[134.5653,-2.489,69.8902],[134.5571,-2.4855,73.8605],[134.551,-2.4851,90.264],[134.5474,-2.4897,0.0],[134.5531,-2.4926,0.0],[134.5526,-2.4951,23.7101],[134.5502,-2.4959,39.9006],[134.5375,-2.4881,45.5472],[134.517,-2.4855,99.8319],[134.5119,-2.4861,2.0971],[134.4873,-2.5097,28.5816],[134.4857,-2.5126,0.0],[134.4896,-2.5169,69.8529],[134.4839,-2.5178,0.0],[134.4731,-2.5271,0.0],[134.4642,-2.5491,0.0],[134.4622,-2.5517,1.3718],[134.4595,-2.5521,0.0],[134.4631,-2.5575,0.0],[134.459,-2.5716,0.0],[134.4596,-2.594,0.0],[134.4637,-2.5997,0.0],[134.4702,-2.6022,0.0],[134.4725,-2.6068,0.0],[134.4739,-2.6141,11.1462],[134.4688,-2.619,0.0],[134.4687,-2.6214,0.0],[134.4693,-2.6273,0.0],[134.4726,-2.6351,6.3764],[134.4721,-2.642,0.0],[134.4741,-2.6462,0.0],[134.4846,-2.6571,0.0],[134.4916,-2.6596,0.0],[134.4935,-2.6626,0.0],[134.4957,-2.6779,0.0],[134.4919,-2.6827,0.0],[134.4906,-2.6883,0.0],[134.4973,-2.6976,0.0],[134.498,-2.7008,0.0],[134.4946,-2.7154,0.0],[134.4981,-2.7249,0.0],[134.5083,-2.736,0.0],[134.5023,-2.7538,0.0],[134.5027,-2.7587,0.0],[134.5059,-2.7669,0.0],[134.5137,-2.7725,0.0],[134.5126,-2.7822,0.0],[134.521,-2.7974,0.0],[134.517,-2.8136,0.0],[134.5175,-2.8203,0.0],[134.5107,-2.8429,21.6343],[134.5089,-2.8374,0.0],[134.4981,-2.8469,6.373],[134.4975,-2.849,6.9082],[134.5,-2.8495,13.0466],[134.4966,-2.8526,23.3379],[134.4941,-2.8539,15.4382],[134.4881,-2.8522,0.0],[134.4876,-2.8545,0.0],[134.4901,-2.8583,6.1082],[134.4962,-2.8638,21.9574],[134.4948,-2.8673,22.1377],[134.4894,-2.8637,24.0854],[134.4848,-2.863,18.6109],[134.4818,-2.8659,19.8308],[134.4741,-2.8676,31.1018]]],
[[[134.5739,-2.4185,98.8882],[134.5635,-2.4145,74.0584],[134.5607,-2.4107,95.5003],[134.5612,-2.4047,0.0],[134.5642,-2.4036,0.0],[134.5734,-2.4054,0.0],[134.575,-2.4041,4.9459],[134.5745,-2.3992,33.7891],[134.5766,-2.3985,0.0],[134.5792,-2.3983,0.0],[134.5833,-2.4024,0.0],[134.5854,-2.4027,0.0],[134.5875,-2.4007,0.0],[134.5885,-2.3938,63.1408],[134.5863,-2.3845,57.4481],[134.5844,-2.383,139.2849],[134.5804,-2.3847,125.0451],[134.5782,-2.3838,64.4746],[134.5781,-2.3755,18.849],[134.5721,-2.3633,69.2891],[134.5722,-2.3556,23.568],[134.5759,-2.3421,0.0],[134.5732,-2.3365,90.2153],[134.5731,-2.3312,55.8063],[134.5771,-2.3193,0.0],[134.5693,-2.3112,0.0],[134.57,-2.3036,0.0],[134.5733,-2.2949,20.7246],[134.5706,-2.2848,29.5286],[134.5628,-2.2836,37.1017],[134.5617,-2.2884,0.0],[134.5645,-2.2955,1.4874],[134.5606,-2.2995,0.0],[134.5624,-2.3016,2.991],[134.562,-2.3051,56.4826],[134.5601,-2.3062,42.4341],[134.5627,-2.321,0.0],[134.56,-2.3259,10.6068],[134.5512,-2.3334,13.9557],[134.5522,-2.3367,0.0],[134.5649,-2.3387,0.0],[134.5684,-2.3433,0.0],[134.5687,-2.3471,16.4125],[134.5656,-2.3529,12.6192],[134.5597,-2.3533,60.2906],[134.5578,-2.3551,0.0],[134.5608,-2.3585,0.0],[134.5623,-2.3638,0.0],[134.5598,-2.3696,21.5029],[134.558,-2.3712,4.2818],[134.5553,-2.3711,21.4509],[134.5509,-2.3689,97.7131],[134.5443,-2.3693,38.6947],[134.5367,-2.3671,37.9536],[134.5322,-2.3677,37.1803],[134.5294,-2.3698,149.3277],[134.5237,-2.3667,77.1456],[134.5114,-2.3671,8.6251],[134.5043,-2.362,29.9029],[134.5022,-2.3665,0.0],[134.5049,-2.3714,0.0],[134.504,-2.3768,0.0],[134.5072,-2.3784,0.0],[134.5108,-2.3837,0.0],[134.5205,-2.3859,12.8944],[134.52,-2.3882,35.7085],[134.5098,-2.3874,36.8856],[134.5073,-2.3892,0.0],[134.5088,-2.3983,0.0],[134.5128,-2.4033,0.0],[134.5181,-2.4049,0.0],[134.5245,-2.4032,0.0],[134.5294,-2.4049,0.0],[134.5291,-2.4104,0.0],[134.5337,-2.4152,0.0],[134.5514,-2.4136,0.0],[134.5615,-2.4178,3.8847],[134.5509,-2.4224,16.3437],[134.5459,-2.4217,4.0757],[134.5423,-2.4267,84.6746],[134.5323,-2.4279,39.7678],[134.5314,-2.4306,0.0],[134.5338,-2.4331,0.0],[134.5413,-2.4343,0.0],[134.5461,-2.4381,0.0],[134.555,-2.4381,0.0],[134.5621,-2.4436,0.0],[134.5642,-2.4436,0.0],[134.5683,-2.4353,0.0],[134.5739,-2.4352,0.0],[134.5766,-2.4335,0.0],[134.577,-2.4223,5.6548],[134.5762,-2.4196,42.3886],[134.5739,-2.4185,98.8882]]],
[[[134.7679,-2.2138,0.0],[134.7699,-2.2136,0.0],[134.7702,-2.2113,0.0],[134.7683,-2.2082,4.5322],[134.7655,-2.2084,0.0],[134.766,-2.2113,0.0],[134.7679,-2.2138,0.0]]],
[[[134.7388,-2.154,13.6007],[134.7414,-2.1586,0.0],[134.7443,-2.1604,0.0],[134.7467,-2.1599,0.0],[134.7471,-2.1557,0.0],[134.7391,-2.1479,3.9373],[134.7368,-2.1486,15.5548],[134.7388,-2.154,13.6007]]],
[[[134.7249,-2.0724,10.2613],[134.723,-2.0735,18.2054],[134.7224,-2.0792,28.5031],[134.7229,-2.0827,9.5711],[134.7268,-2.0857,0.0],[134.7288,-2.0836,0.0],[134.7276,-2.0808,31.4219],[134.7287,-2.0742,0.0],[134.7249,-2.0724,10.2613]]],
[[[134.5206,-2.4532,53.0883],[134.5171,-2.4567,0.0],[134.5192,-2.4582,0.0],[134.5241,-2.4581,0.0],[134.5248,-2.4557,30.9286],[134.5206,-2.4532,53.0883]]],
[[[134.5307,-2.4387,0.0],[134.5334,-2.4392,0.0],[134.5372,-2.4377,0.0],[134.532,-2.4368,0.0],[134.5307,-2.4387,0.0]]],
[[[134.5221,-2.4343,39.2729],[134.5175,-2.4385,0.0],[134.5222,-2.4406,0.0],[134.5276,-2.4374,0.0],[134.5265,-2.4357,5.2137],[134.5221,-2.4343,39.2729]]],
[[[134.5226,-2.4255,3.0592],[134.5193,-2.4254,0.0],[134.5181,-2.4286,0.0],[134.5209,-2.4277,0.0],[134.5226,-2.4255,3.0592]]],
[[[134.5477,-2.3554,0.0],[134.5499,-2.3547,0.0],[134.5487,-2.3526,2.6972],[134.5448,-2.3519,20.9911],[134.5421,-2.3535,0.0],[134.545,-2.3547,0.0],[134.5477,-2.3554,0.0]]],
[[[134.5214,-2.3533,0.0],[134.5241,-2.3556,0.0],[134.5276,-2.3544,0.0],[134.5276,-2.352,27.5643],[134.5215,-2.347,98.7697],[134.5152,-2.3443,38.6492],[134.5072,-2.3474,92.6925],[134.5036,-2.3439,65.142],[134.5006,-2.3503,0.0],[134.5009,-2.3524,0.0],[134.5044,-2.354,0.0],[134.5102,-2.3548,0.0],[134.5148,-2.353,0.0],[134.5191,-2.3545,0.0],[134.5214,-2.3533,0.0]]],
[[[134.3031,-2.4933,15.5052],[134.3034,-2.4977,0.0],[134.3067,-2.5026,0.0],[134.3089,-2.5006,0.0],[134.3086,-2.4956,0.0],[134.305,-2.4823,0.0],[134.3018,-2.4854,6.5896],[134.3031,-2.4933,15.5052]]],
[[[134.4714,-2.3063,0.0],[134.466,-2.3107,0.0],[134.4618,-2.3179,0.0],[134.4627,-2.3258,0.0],[134.4688,-2.329,0.0],[134.4717,-2.3287,0.0],[134.4766,-2.3164,0.0],[134.4863,-2.3116,0.0],[134.491,-2.3074,0.0],[134.4922,-2.304,0.0],[134.4915,-2.3013,0.0],[134.4861,-2.2982,0.0],[134.4823,-2.2986,0.0],[134.4714,-2.3063,0.0]]],
[[[134.3407,-2.1539,0.0],[134.3468,-2.1659,0.0],[134.3511,-2.167,11.1864],[134.3537,-2.1582,18.0466],[134.3584,-2.1573,21.0106],[134.3612,-2.1549,78.0528],[134.3697,-2.1433,27.5452],[134.3728,-2.1305,108.5323],[134.3811,-2.1185,26.6676],[134.3798,-2.1057,70.3234],[134.3838,-2.1028,39.0716],[134.389,-2.1032,0.0],[134.3917,-2.0962,30.6858],[134.3839,-2.0894,66.6004],[134.383,-2.0862,76.6667],[134.3842,-2.082,8.9087],[134.3918,-2.0767,109.1313],[134.3932,-2.0788,0.0],[134.3958,-2.0785,0.0],[134.3966,-2.0759,84.3347],[134.4012,-2.0764,9.7745],[134.4051,-2.0728,9.313],[134.3995,-2.0667,42.1878],[134.3971,-2.0661,30.699],[134.407,-2.044,0.0],[134.4095,-2.0442,42.49],[134.4108,-2.0462,0.0],[134.4126,-2.0454,0.0],[134.4129,-2.0425,0.0],[134.4073,-2.0357,48.8783],[134.4075,-2.0221,64.5396],[134.4052,-2.0149,7.5013],[134.4057,-2.0021,3.4988],[134.4047,-2.0001,0.0],[134.3925,-1.9941,0.0],[134.3768,-1.9918,0.0],[134.3618,-1.9981,0.0],[134.3559,-2.01,0.0],[134.3452,-2.0255,0.0],[134.3399,-2.0442,0.0],[134.3261,-2.0625,0.0],[134.319,-2.0694,0.0],[134.3152,-2.0775,0.0],[134.3146,-2.0833,0.0],[134.3196,-2.0869,0.0],[134.3239,-2.0861,61.1303],[134.3278,-2.0882,0.0],[134.3276,-2.091,0.0],[134.3251,-2.095,15.3065],[134.3224,-2.0949,45.9987],[134.3173,-2.089,0.0],[134.3152,-2.0892,0.0],[134.311,-2.0931,0.0],[134.3109,-2.0993,0.0],[134.3147,-2.1003,3.2221],[134.3172,-2.0985,19.1544],[134.3194,-2.0992,13.2712],[134.3207,-2.1012,0.0],[134.3336,-2.1062,33.9419],[134.3351,-2.1086,0.0],[134.3364,-2.1136,0.0],[134.334,-2.1231,0.0],[134.3345,-2.1347,0.0],[134.3407,-2.1456,0.0],[134.3407,-2.1539,0.0]]],
[[[134.721,-2.0659,0.0],[134.7217,-2.0638,0.0],[134.7176,-2.063,4.3781],[134.7167,-2.0651,0.0],[134.721,-2.0659,0.0]]],
[[[134.7311,-2.0404,7.3267],[134.7319,-2.0464,12.9298],[134.7369,-2.0519,4.6432],[134.7428,-2.0519,0.0],[134.7455,-2.0488,0.0],[134.7465,-2.0415,0.0],[134.7453,-2.0333,0.0],[134.7407,-2.0252,0.0],[134.7407,-2.0186,0.0],[134.7387,-2.0168,7.1393],[134.7284,-2.0224,8.6248],[134.7253,-2.026,4.8602],[134.7311,-2.0404,7.3267]]],
[[[134.6994,-1.9859,0.8631],[134.7059,-1.9902,0.0],[134.7026,-1.9839,1.9737],[134.6984,-1.9835,0.0],[134.6994,-1.9859,0.8631]]],
[[[134.7033,-1.9767,0.0],[134.7011,-1.9759,0.0],[134.7008,-1.9799,0.0],[134.7032,-1.9804,0.0],[134.7033,-1.9767,0.0]]],
[[[134.4837,-2.8573,21.6724],[134.4797,-2.8523,0.0],[134.475,-2.8581,0.0],[134.4799,-2.8625,0.0],[134.4837,-2.8573,21.6724]]],
[[[134.4623,-2.8261,0.0],[134.4634,-2.8241,0.0],[134.4596,-2.8197,0.0],[134.4576,-2.8235,0.0],[134.4598,-2.8259,0.0],[134.4623,-2.8261,0.0]]],
[[[134.3914,-2.5365,49.7991],[134.39,-2.532,6.4422],[134.3826,-2.5309,12.7918],[134.3783,-2.5232,0.0],[134.3721,-2.5262,16.0037],[134.3709,-2.5285,23.5502],[134.373,-2.5417,34.9221],[134.3702,-2.5509,1.064],[134.3761,-2.5557,39.6572],[134.3795,-2.5676,0.0],[134.3872,-2.5791,0.0],[134.3899,-2.5787,0.0],[134.3926,-2.5756,0.0],[134.3961,-2.5613,0.0],[134.3941,-2.5426,0.0],[134.3957,-2.5412,0.0],[134.3914,-2.5365,49.7991]]],
[[[134.2819,-2.4733,21.327],[134.2813,-2.4759,0.0],[134.2835,-2.4767,0.0],[134.2852,-2.472,15.6661],[134.2819,-2.4733,21.327]]],
[[[134.152,-2.0849,6.6132],[134.151,-2.0794,15.4257],[134.1488,-2.0786,0.0],[134.1506,-2.0869,0.0],[134.1525,-2.086,6.6132],[134.152,-2.0849,6.6132]]],
[[[134.1544,-2.0664,24.8201],[134.1525,-2.0678,10.7791],[134.1543,-2.0713,0.0],[134.1563,-2.0678,5.3023],[134.1544,-2.0664,24.8201]]],
[[[134.156,-2.042,31.8193],[134.1569,-2.037,16.5807],[134.1553,-2.032,78.1895],[134.1563,-2.0269,2.2757],[134.1589,-2.027,0.0],[134.1584,-2.0181,0.0],[134.1511,-2.003,11.0477],[134.1498,-2.0048,0.0],[134.1519,-2.013,37.7015],[134.1483,-2.0263,8.1944],[134.1514,-2.034,26.999],[134.148,-2.0368,0.0],[134.151,-2.0498,0.0],[134.1536,-2.0539,0.0],[134.1564,-2.0545,0.0],[134.158,-2.0501,5.074],[134.156,-2.042,31.8193]]],
[[[134.5256,-2.3017,88.8956],[134.5184,-2.3009,21.0387],[134.5243,-2.3134,0.0],[134.5318,-2.3107,0.0],[134.5329,-2.3088,0.0],[134.5256,-2.3017,88.8956]]],
[[[134.4777,-2.2255,0.0],[134.4719,-2.2377,0.0],[134.472,-2.242,0.0],[134.4753,-2.2443,0.0],[134.4783,-2.2413,0.0],[134.4872,-2.2243,0.0],[134.4947,-2.2165,0.0],[134.4951,-2.2139,0.0],[134.4934,-2.2116,0.0],[134.4828,-2.2023,0.0],[134.4777,-2.2126,0.0],[134.4777,-2.2255,0.0]]],
[[[134.1402,-2.1404,0.0],[134.1356,-2.1347,29.7268],[134.1369,-2.141,0.0],[134.1387,-2.1419,0.0],[134.1402,-2.1404,0.0]]],
[[[134.1371,-2.0236,0.0],[134.136,-2.0217,6.8678],[134.134,-2.0226,18.3505],[134.1353,-2.0252,7.5195],[134.1371,-2.0236,0.0]]],
[[[134.1424,-1.9554,0.0],[134.1409,-1.9571,0.0],[134.1456,-1.958,0.0],[134.1447,-1.9551,12.2631],[134.1424,-1.9554,0.0]]],
[[[134.1351,-1.8819,9.9858],[134.1328,-1.8863,0.0],[134.135,-1.8971,0.0],[134.1393,-1.8911,0.0],[134.1351,-1.8819,9.9858]]],
[[[134.1497,-1.9428,13.8269],[134.1483,-1.9413,24.7096],[134.1466,-1.943,0.0],[134.1474,-1.9453,24.4308],[134.1501,-1.9457,23.7519],[134.1497,-1.9428,13.8269]]],
[[[134.1714,-1.9263,21.43],[134.1748,-1.9194,2.2541],[134.173,-1.9122,19.2452],[134.1775,-1.9134,8.2614],[134.1819,-1.9108,6.33],[134.1858,-1.8922,3.8906],[134.1902,-1.8838,8.8352],[134.1911,-1.8884,30.9074],[134.1873,-1.9004,0.0],[134.1882,-1.9037,1.3539],[134.191,-1.9044,0.0],[134.1926,-1.9021,1.265],[134.2018,-1.8715,1.9525],[134.2013,-1.8672,21.6003],[134.2107,-1.8371,28.4319],[134.2148,-1.8295,7.5696],[134.2095,-1.8146,0.0],[134.2068,-1.8099,3.7348],[134.2048,-1.8095,0.0],[134.2005,-1.827,13.1026],[134.1993,-1.829,15.9488],[134.1967,-1.8267,11.101],[134.1989,-1.8073,0.0],[134.1952,-1.8013,4.1001],[134.1952,-1.7934,11.052],[134.207,-1.7817,4.3938],[134.2094,-1.7868,49.2179],[134.209,-1.7994,15.3546],[134.215,-1.7967,9.1336],[134.2215,-1.7892,9.9849],[134.2268,-1.7771,11.6301],[134.231,-1.7763,0.0],[134.234,-1.7635,0.0],[134.2376,-1.7571,29.7933],[134.2396,-1.7465,38.0781],[134.2264,-1.7354,0.0],[134.2217,-1.7341,5.2478],[134.2198,-1.7358,6.6132],[134.221,-1.74,0.0],[134.2198,-1.7426,2.2293],[134.2106,-1.7391,0.0],[134.2088,-1.7432,5.968],[134.2047,-1.7379,6.0193],[134.2023,-1.7382,3.8334],[134.2025,-1.7544,0.0],[134.1951,-1.7634,26.3564],[134.1829,-1.7834,1.2713],[134.18,-1.796,0.0],[134.1736,-1.8049,14.023],[134.159,-1.8195,0.0],[134.1517,-1.8224,0.0],[134.1481,-1.8291,26.7807],[134.1466,-1.8524,14.833],[134.1496,-1.8595,19.8718],[134.1499,-1.8678,7.128],[134.1469,-1.8802,6.9688],[134.1467,-1.8905,7.8598],[134.1426,-1.8962,4.0684],[134.1475,-1.9011,1.6009],[134.1368,-1.903,5.1133],[134.1353,-1.9084,18.625],[134.138,-1.9136,2.9626],[134.1445,-1.9094,5.4417],[134.146,-1.9117,22.1936],[134.1483,-1.9113,4.2169],[134.1505,-1.907,14.746],[134.1575,-1.9199,0.6849],[134.1594,-1.9347,0.0],[134.1641,-1.9421,41.6542],[134.165,-1.9498,7.5117],[134.1673,-1.9507,2.8006],[134.172,-1.9444,15.9372],[134.1695,-1.9337,37.3176],[134.1714,-1.9263,21.43]]],
[[[134.2106,-1.8045,1.7472],[134.2085,-1.803,11.3561],[134.2063,-1.8047,0.0],[134.2102,-1.8087,15.7618],[134.2106,-1.8045,1.7472]]],
[[[134.1973,-1.7503,0.0],[134.1978,-1.7571,0.0],[134.2002,-1.7532,0.0],[134.1998,-1.7495,0.0],[134.1973,-1.7503,0.0]]]]}}