{"type":"Feature","properties":{"GID_3":"IDN.32.17.2_1","GID_0":"IDN","country":"Indonesia","GID_1":"IDN.32_1","province":"SumateraUtara","NL_NAME_1":"NA","GID_2":"IDN.32.17_1","county":"NiasBarat","NL_NAME_2":"NA","city":"LolofituMoi","VARNAME_3":"NA","NL_NAME_3":"NA","TYPE_3":"Kecamatan","ENGTYPE_3":"Sub-district","CC_3":"1225040","HASC_3":"NA","name":"Lolofitu_Moi.city"},
"geometry":{"type": "MultiPolygon","coordinates": [[[[97.5901,1.0348,157.9186],[97.5974,1.0344,262.2634],[97.612799999999993,1.0302,304.8458],[97.6196,1.0423,161.3526],[97.6266,1.0451,198.142],[97.6246,1.0516,309.1667],[97.6309,1.0549,277.5408],[97.6385,1.0549,272.2832],[97.6508,1.0613,313.097],[97.6464,1.0653,299.4957],[97.6388,1.0659,256.0306],[97.6358,1.0682,294.9908],[97.6233,1.065,185.4315],[97.6188,1.0592,220.2809],[97.6124,1.0548,174.5156],[97.6058,1.064,351.4897],[97.6071,1.0642,310.0523],[97.6094,1.0709,214.4318],[97.6105,1.0796,129.8038],[97.6157,1.0773,115.234],[97.6221,1.0785,161.7397],[97.6213,1.08,178.3639],[97.6324,1.0816,275.9773],[97.631,1.0885,202.4668],[97.6321,1.0955,228.9383],[97.649,1.094,217.302],[97.6473,1.1004,219.3531],[97.6434,1.1006,138.3666],[97.6328,1.1049,297.7225],[97.6302,1.1166,258.9574],[97.6264,1.1121,308.9317],[97.6198,1.108,254.8824],[97.6137,1.1098,194.1416],[97.5932,1.1101,194.2134],[97.5862,1.1204,159.3585],[97.5791,1.1206,158.2368],[97.5744,1.1239,211.7561],[97.5721,1.12,232.9119],[97.5694,1.1128,188.7878],[97.5704,1.0904,196.7271],[97.5678,1.0783,97.1252],[97.5796,1.0566,232.1586],[97.5847,1.0426,178.1558],[97.5901,1.0348,157.9186]]]]}}