{"type":"Feature","properties":{"GID_3":"IDN.19.4.6_1","GID_0":"IDN","country":"Indonesia","GID_1":"IDN.19_1","province":"Maluku","NL_NAME_1":"NA","GID_2":"IDN.19.4_1","county":"KepulauanAru","NL_NAME_2":"NA","city":"AruUtara","VARNAME_3":"NA","NL_NAME_3":"NA","TYPE_3":"Kecamatan","ENGTYPE_3":"Sub-district","CC_3":"8105031","HASC_3":"NA","name":"Aru_Utara.city"},
"geometry":{"type": "MultiPolygon","coordinates": [[[[134.7631,-5.911,11.5496],[134.7677,-5.9182,0.0],[134.7705,-5.9188,0.0],[134.7725,-5.9167,0.0],[134.7664,-5.9109,9.9662],[134.7658,-5.9083,0.0],[134.7592,-5.9071,0.0],[134.7592,-5.9109,0.0],[134.7631,-5.911,11.5496]]],
[[[134.7804,-5.8941,0.0],[134.7769,-5.8959,0.0],[134.7738,-5.9012,0.0],[134.7737,-5.9071,0.0],[134.7766,-5.9095,5.2209],[134.7879,-5.9063,0.0],[134.7908,-5.8998,0.0],[134.7881,-5.8941,0.6679],[134.7804,-5.8941,0.0]]],
[[[134.785,-5.8709,0.0],[134.7837,-5.8739,1.1906],[134.785,-5.8748,0.0],[134.788,-5.8757,6.7309],[134.7905,-5.8735,2.2028],[134.787,-5.8699,0.727],[134.785,-5.8709,0.0]]],
[[[134.7601,-5.8617,11.3415],[134.7683,-5.8666,0.0],[134.7684,-5.8643,2.8675],[134.7659,-5.8614,10.4474],[134.7662,-5.8571,14.6718],[134.7691,-5.8543,0.0],[134.7693,-5.851,0.0],[134.7609,-5.8481,0.0],[134.7527,-5.8525,5.1721],[134.7522,-5.8572,7.0244],[134.759,-5.8598,5.4529],[134.7601,-5.8617,11.3415]]],
[[[134.8028,-5.8774,4.8605],[134.8053,-5.8753,0.0],[134.7998,-5.8707,7.9652],[134.7919,-5.8736,2.2786],[134.7843,-5.8788,0.0],[134.783,-5.8882,0.0],[134.7912,-5.894,7.1109],[134.7947,-5.8897,7.1413],[134.7943,-5.8867,9.3264],[134.7966,-5.8824,6.8331],[134.7996,-5.883,1.8142],[134.8008,-5.8778,10.7963],[134.8028,-5.8774,4.8605]]],
[[[134.8035,-5.8661,0.0],[134.802,-5.8672,2.7425],[134.7963,-5.8655,0.0],[134.7954,-5.8699,0.0],[134.8019,-5.8704,4.6114],[134.8022,-5.8688,11.4634],[134.8039,-5.8704,0.0],[134.8056,-5.8673,3.3779],[134.8035,-5.8661,0.0]]],
[[[134.8229,-5.8275,1.7283],[134.8228,-5.8282,2.6268],[134.8235,-5.8282,2.6268],[134.8236,-5.8277,1.7283],[134.8229,-5.8275,1.7283]]],
[[[134.8203,-5.825,0.0],[134.8193,-5.826,0.0],[134.8206,-5.8281,8.1588],[134.8217,-5.8267,10.9486],[134.8203,-5.825,0.0]]],
[[[134.7702,-5.8419,0.0],[134.7689,-5.84,2.048],[134.7682,-5.8434,0.0],[134.7694,-5.8434,0.0],[134.7702,-5.8419,0.0]]],
[[[134.7737,-5.8419,0.8169],[134.7733,-5.8388,0.908],[134.7722,-5.8386,2.9585],[134.7711,-5.8398,3.5707],[134.7737,-5.8419,0.8169]]],
[[[134.7703,-5.8404,2.048],[134.7709,-5.8398,3.5707],[134.7701,-5.8394,0.0],[134.7698,-5.8398,2.048],[134.7703,-5.8404,2.048]]],
[[[134.7651,-5.8285,0.0],[134.7658,-5.8292,0.0],[134.7661,-5.8291,0.0],[134.7658,-5.8278,1.7882],[134.7651,-5.8285,0.0]]],
[[[134.8007,-5.8124,12.4104],[134.8009,-5.8102,4.3023],[134.7994,-5.8097,6.8247],[134.7943,-5.81,4.0392],[134.7879,-5.8068,1.3048],[134.7768,-5.8062,0.0],[134.7737,-5.8088,0.0],[134.7724,-5.813,17.4629],[134.7671,-5.817,6.9739],[134.7671,-5.8218,5.9164],[134.7695,-5.8234,1.7323],[134.7735,-5.8216,7.7669],[134.7807,-5.8231,0.0],[134.7905,-5.8209,9.4013],[134.7954,-5.8216,0.0],[134.8006,-5.817,3.7328],[134.8007,-5.8124,12.4104]]],
[[[134.7465,-5.808,0.0],[134.7528,-5.803,2.8101],[134.7596,-5.8006,14.3075],[134.7588,-5.7963,17.3909],[134.7522,-5.7921,4.42],[134.7524,-5.7884,0.0],[134.7505,-5.7853,8.929],[134.7468,-5.788,7.5467],[134.7455,-5.7917,3.1852],[134.7422,-5.7964,19.4478],[134.7429,-5.8033,0.0],[134.7465,-5.808,0.0]]],
[[[134.7816,-5.7955,0.0],[134.7816,-5.7944,0.0],[134.7798,-5.7944,0.0],[134.7799,-5.7953,4.2695],[134.7816,-5.7955,0.0]]],
[[[134.7704,-5.79,2.0825],[134.7686,-5.7928,0.0],[134.77,-5.7943,16.736],[134.774,-5.7964,1.0875],[134.7774,-5.796,0.0],[134.7787,-5.7897,0.0],[134.7765,-5.7868,0.0],[134.7704,-5.79,2.0825]]],
[[[134.8153,-5.8228,5.4211],[134.8158,-5.8225,5.4211],[134.8154,-5.8213,5.4211],[134.8147,-5.8214,5.4211],[134.8153,-5.8228,5.4211]]],
[[[134.8087,-5.8067,1.9909],[134.8077,-5.8086,6.3904],[134.8059,-5.8065,2.4085],[134.8031,-5.8086,0.0],[134.8013,-5.8163,3.7328],[134.8051,-5.8184,5.1389],[134.814,-5.8193,3.8639],[134.814,-5.8165,0.0],[134.8118,-5.8149,13.2125],[134.8087,-5.8067,1.9909]]],
[[[134.7958,-5.787,0.0],[134.795,-5.7784,1.5032],[134.7886,-5.7747,1.1654],[134.7827,-5.7749,0.0],[134.7776,-5.7832,9.4865],[134.7784,-5.7861,9.9329],[134.7871,-5.791,7.1714],[134.7945,-5.7895,3.652],[134.797,-5.7927,0.0],[134.7958,-5.787,0.0]]],
[[[134.7925,-5.7703,0.0],[134.7913,-5.7704,0.0],[134.7913,-5.7713,0.0],[134.7926,-5.7717,0.0],[134.7925,-5.7703,0.0]]],
[[[134.8134,-5.7424,1.5434],[134.8142,-5.7397,0.0],[134.813,-5.7399,5.1468],[134.8124,-5.7376,0.0],[134.814,-5.7374,0.0],[134.8137,-5.7349,1.057],[134.8118,-5.735,0.6405],[134.8113,-5.7367,2.3495],[134.8075,-5.7312,0.0],[134.8001,-5.7283,0.0],[134.7924,-5.7279,0.0],[134.787,-5.7329,0.0],[134.7864,-5.7351,3.3054],[134.7886,-5.7368,5.6485],[134.7861,-5.737,0.0],[134.7849,-5.7389,0.0],[134.7823,-5.7575,0.0],[134.7834,-5.7581,0.0],[134.788,-5.7547,0.0],[134.7916,-5.7553,1.2552],[134.7978,-5.7516,1.8088],[134.8033,-5.7512,13.4665],[134.8091,-5.7456,3.2676],[134.8087,-5.7433,7.2254],[134.8128,-5.7441,0.0],[134.8126,-5.7417,1.5434],[134.8134,-5.7424,1.5434]]],
[[[134.8048,-5.7211,0.0],[134.8046,-5.721,0.0],[134.8045,-5.7211,0.0],[134.8046,-5.7213,0.0],[134.8048,-5.7211,0.0]]],
[[[134.8023,-5.7209,0.0],[134.8029,-5.7214,0.0],[134.8035,-5.7205,0.0],[134.8029,-5.7202,0.0],[134.8023,-5.7209,0.0]]],
[[[134.7522,-5.7825,0.0],[134.7512,-5.7838,6.7368],[134.7535,-5.7874,4.9011],[134.754,-5.7851,4.2863],[134.7522,-5.7825,0.0]]],
[[[134.7842,-5.7635,0.0],[134.7826,-5.7668,0.0],[134.7847,-5.7702,0.0],[134.7902,-5.7683,0.0],[134.7893,-5.7631,3.8744],[134.7842,-5.7635,0.0]]],
[[[134.7706,-5.6858,0.0],[134.769,-5.6867,10.5277],[134.7703,-5.6889,8.6517],[134.7713,-5.6869,0.0],[134.7706,-5.6858,0.0]]],
[[[134.7706,-5.6814,1.7585],[134.7725,-5.6769,2.0334],[134.7702,-5.6726,0.0],[134.7666,-5.6753,0.0],[134.7587,-5.6769,1.735],[134.7596,-5.6823,0.0],[134.7666,-5.6856,2.5647],[134.7706,-5.6814,1.7585]]],
[[[134.7961,-5.7191,5.0124],[134.7965,-5.7215,1.6009],[134.8,-5.7195,0.0],[134.7973,-5.7181,5.0124],[134.7961,-5.7191,5.0124]]],
[[[134.8051,-5.6026,0.0],[134.8007,-5.601,0.0],[134.7983,-5.6035,0.0],[134.7986,-5.6061,0.0],[134.8019,-5.6079,0.0],[134.8044,-5.6072,0.0],[134.8051,-5.6026,0.0]]],
[[[134.7691,-5.8791,0.0],[134.7694,-5.8764,2.3723],[134.7716,-5.8772,0.7888],[134.7703,-5.8719,0.0],[134.7642,-5.8703,5.0886],[134.7578,-5.86,11.6503],[134.7515,-5.8582,2.5351],[134.7458,-5.8624,10.6444],[134.7393,-5.8803,7.9273],[134.7282,-5.8896,0.0],[134.7272,-5.8961,0.0],[134.7352,-5.9024,8.5689],[134.7377,-5.9074,0.0],[134.7421,-5.9053,0.0],[134.7427,-5.9023,12.6423],[134.7464,-5.8985,1.0722],[134.7513,-5.9027,0.0],[134.7565,-5.8978,10.3275],[134.7596,-5.897,10.7533],[134.7659,-5.8903,5.9805],[134.77,-5.8906,1.1268],[134.7725,-5.889,1.1662],[134.7727,-5.8859,0.6633],[134.7706,-5.8864,12.9155],[134.7718,-5.8846,0.6633],[134.7691,-5.8791,0.0]]],
[[[134.7367,-5.7378,0.0],[134.7309,-5.7384,0.0],[134.7278,-5.7466,18.4309],[134.7205,-5.7489,13.2297],[134.7007,-5.7387,3.3467],[134.6937,-5.7293,0.0],[134.668,-5.7248,14.0445],[134.6637,-5.7262,0.0],[134.6577,-5.7359,8.0283],[134.6558,-5.7455,7.1899],[134.6596,-5.7489,8.5402],[134.669,-5.7506,11.5778],[134.6716,-5.7604,0.0],[134.6769,-5.7703,15.2596],[134.6829,-5.7701,8.4287],[134.6915,-5.7774,6.3477],[134.69,-5.7847,0.0],[134.6921,-5.797,2.3398],[134.6962,-5.8026,7.5024],[134.7061,-5.8102,0.0],[134.7142,-5.8132,0.0],[134.7175,-5.8124,0.0],[134.7206,-5.807,4.5845],[134.7265,-5.8099,2.0388],[134.73,-5.8096,2.9351],[134.7352,-5.8062,3.4856],[134.7351,-5.8028,0.0],[134.7399,-5.8004,18.7064],[134.7395,-5.7959,12.8651],[134.7448,-5.7914,3.1852],[134.7475,-5.7861,7.5067],[134.7428,-5.7802,18.1],[134.7426,-5.7763,16.2972],[134.7462,-5.7736,0.0],[134.7448,-5.7665,1.594],[134.7421,-5.7627,0.0],[134.7417,-5.7418,21.3512],[134.7367,-5.7378,0.0]]],
[[[134.718,-5.6063,0.9812],[134.7148,-5.6071,14.7193],[134.7185,-5.6024,0.0],[134.7126,-5.5975,0.0],[134.6944,-5.5994,15.29],[134.6982,-5.5889,6.7933],[134.69,-5.5864,3.6737],[134.6905,-5.5937,15.6034],[134.6882,-5.5999,6.8198],[134.6901,-5.6153,15.1649],[134.6877,-5.6068,7.1575],[134.6875,-5.5988,10.0501],[134.6901,-5.593,15.6034],[134.6867,-5.5816,0.0],[134.6812,-5.5828,1.2432],[134.68,-5.5862,0.0],[134.6684,-5.5869,0.0],[134.6673,-5.5941,0.0],[134.6631,-5.5983,3.5751],[134.6641,-5.5887,0.0],[134.6608,-5.5875,0.0],[134.6594,-5.5828,0.0],[134.6544,-5.581,0.0],[134.6519,-5.5831,7.4553],[134.6535,-5.5774,5.7179],[134.6518,-5.5761,0.0],[134.6416,-5.5778,0.0],[134.643,-5.5869,2.5856],[134.6405,-5.5931,4.0863],[134.6419,-5.5877,2.5856],[134.6411,-5.5836,0.0],[134.639,-5.5826,0.0],[134.6346,-5.5847,22.0873],[134.6296,-5.5816,0.0],[134.6244,-5.5843,0.0],[134.6213,-5.5833,1.4378],[134.6085,-5.5741,16.3938],[134.6099,-5.5734,16.3938],[134.6095,-5.5714,7.9762],[134.6071,-5.5693,0.0],[134.6038,-5.5688,0.0],[134.6001,-5.5684,5.2413],[134.5964,-5.5753,0.0],[134.5949,-5.5755,0.0],[134.5929,-5.5688,0.0],[134.5877,-5.5728,0.0],[134.5824,-5.5716,5.5628],[134.5812,-5.5688,2.5607],[134.5724,-5.5712,0.0],[134.5695,-5.5696,15.634],[134.5696,-5.5631,2.0152],[134.566,-5.5689,11.2539],[134.5621,-5.565,16.0998],[134.5521,-5.5607,1.768],[134.5474,-5.5691,11.7823],[134.5357,-5.5715,10.399],[134.5339,-5.5705,5.8099],[134.5309,-5.5723,0.0],[134.5294,-5.5763,0.0],[134.5293,-5.5821,0.0],[134.5331,-5.5843,18.4518],[134.5332,-5.5955,12.878],[134.5358,-5.5999,12.6732],[134.5358,-5.6055,9.2216],[134.5342,-5.6079,0.0],[134.5356,-5.6271,56.5366],[134.5453,-5.6388,7.1466],[134.5473,-5.6494,11.6795],[134.5612,-5.6498,20.5824],[134.5696,-5.6536,17.1492],[134.5728,-5.6531,10.8633],[134.5755,-5.6496,36.1441],[134.5728,-5.6643,0.0],[134.5736,-5.6675,14.016],[134.579,-5.6771,3.8085],[134.5891,-5.6849,7.0115],[134.5957,-5.6954,13.3754],[134.5941,-5.6989,13.167],[134.5972,-5.7014,1.6168],[134.5987,-5.7003,25.5559],[134.6026,-5.7085,15.1521],[134.6085,-5.7129,24.4398],[134.6105,-5.7188,14.0507],[134.6162,-5.7227,11.2001],[134.6191,-5.7214,5.2921],[134.6197,-5.7175,9.3256],[134.6238,-5.7133,5.55],[134.6311,-5.7112,22.0062],[134.6396,-5.7118,2.7879],[134.6474,-5.7239,10.4117],[134.6507,-5.7256,3.1006],[134.6538,-5.7243,0.0],[134.6537,-5.7216,8.7635],[134.6609,-5.7246,3.0977],[134.67,-5.7236,19.447],[134.6913,-5.7248,8.6021],[134.6979,-5.7265,0.0],[134.7015,-5.731,14.5517],[134.6996,-5.7349,4.5274],[134.7041,-5.7388,6.2263],[134.7131,-5.7415,0.0],[134.7166,-5.7415,2.4937],[134.7222,-5.7344,9.7412],[134.7245,-5.7268,14.2665],[134.7303,-5.718,1.0901],[134.7313,-5.7081,16.9257],[134.7347,-5.7052,3.6549],[134.735,-5.7015,0.0],[134.7313,-5.701,0.0],[134.7252,-5.704,12.7969],[134.7301,-5.698,1.3208],[134.7318,-5.6932,0.0],[134.7294,-5.686,2.1013],[134.7266,-5.6836,6.8188],[134.732,-5.6823,5.9058],[134.7335,-5.6787,18.4678],[134.7314,-5.6723,16.6386],[134.75,-5.6732,0.0],[134.7519,-5.6693,4.1066],[134.754,-5.6686,0.9916],[134.7591,-5.6684,1.0902],[134.7611,-5.6702,1.7585],[134.7681,-5.6683,0.0],[134.764,-5.6656,5.389],[134.764,-5.6581,0.8064],[134.7568,-5.6537,3.4866],[134.761,-5.6489,6.8798],[134.762,-5.6502,2.1573],[134.7631,-5.6491,0.0],[134.7636,-5.6458,0.0],[134.762,-5.6462,0.7997],[134.7571,-5.6389,1.1394],[134.7572,-5.6339,0.0],[134.7527,-5.6309,0.0],[134.7484,-5.6326,3.201],[134.7502,-5.629,9.5604],[134.7477,-5.6194,0.8439],[134.7434,-5.6156,0.0],[134.7396,-5.6172,0.0],[134.7377,-5.6208,0.0],[134.7421,-5.6347,6.9508],[134.737,-5.6399,3.0],[134.729,-5.6444,6.8659],[134.7404,-5.6355,11.7518],[134.7413,-5.6332,10.6184],[134.7351,-5.6247,7.6549],[134.7297,-5.6131,6.6161],[134.7166,-5.6121,9.7267],[134.718,-5.6063,0.9812]]],
[[[134.739,-5.6045,0.0],[134.7367,-5.6063,4.9656],[134.7373,-5.6082,1.3948],[134.7404,-5.6073,3.0896],[134.739,-5.6045,0.0]]],
[[[134.7707,-5.6493,0.0],[134.7692,-5.6504,0.0],[134.7702,-5.6522,0.0],[134.772,-5.6507,0.0],[134.7707,-5.6493,0.0]]],
[[[134.7504,-5.6297,0.4428],[134.7499,-5.6304,4.8599],[134.7514,-5.6307,0.4428],[134.7513,-5.6298,0.4428],[134.7504,-5.6297,0.4428]]],
[[[134.7071,-5.5772,8.8139],[134.7097,-5.5766,0.0],[134.7077,-5.5738,0.0],[134.6989,-5.5744,9.5619],[134.6993,-5.5768,18.9495],[134.703,-5.5799,1.5187],[134.7071,-5.5772,8.8139]]],
[[[134.6638,-5.567,0.0],[134.6635,-5.5684,1.4548],[134.6648,-5.5687,0.0],[134.6645,-5.5662,9.2724],[134.6638,-5.567,0.0]]],
[[[134.7117,-5.5677,0.0],[134.7107,-5.5648,3.6047],[134.7148,-5.5572,7.3075],[134.7151,-5.5512,9.5363],[134.713,-5.5487,7.8145],[134.7086,-5.5504,0.0],[134.7076,-5.5526,3.9955],[134.707,-5.5491,0.0],[134.7024,-5.5492,0.0],[134.7016,-5.5508,2.7454],[134.7053,-5.5565,2.1672],[134.7008,-5.5606,0.0],[134.7008,-5.5676,1.6861],[134.6988,-5.5725,0.0],[134.7041,-5.5725,9.5478],[134.7073,-5.5691,9.4135],[134.7108,-5.57,3.6891],[134.7117,-5.5677,0.0]]],
[[[134.6628,-5.5102,8.254],[134.662,-5.5109,8.254],[134.6635,-5.5063,7.9329],[134.6607,-5.498,6.0149],[134.6553,-5.4926,0.0],[134.6518,-5.4955,2.7995],[134.6541,-5.4921,0.0],[134.6516,-5.4863,5.6389],[134.6541,-5.4859,0.0],[134.6517,-5.4754,0.5195],[134.6493,-5.4743,0.0],[134.6482,-5.476,5.3592],[134.6481,-5.4737,0.0],[134.645,-5.4774,9.5647],[134.6446,-5.4763,9.5647],[134.6472,-5.4727,0.5807],[134.6462,-5.4704,3.6258],[134.6508,-5.4672,4.0337],[134.6511,-5.4629,2.7293],[134.6528,-5.4607,0.0],[134.6514,-5.451,6.2167],[134.6482,-5.4475,2.7192],[134.6475,-5.4392,0.0],[134.6317,-5.4302,0.0],[134.6295,-5.4364,6.1701],[134.631,-5.4302,0.0],[134.6199,-5.4236,1.713],[134.6132,-5.4209,0.0],[134.6092,-5.4206,0.0],[134.608,-5.422,0.0],[134.6118,-5.43,0.0],[134.6077,-5.4371,0.5],[134.6059,-5.4468,0.5],[134.6094,-5.4548,2.4402],[134.6076,-5.4534,8.497],[134.6044,-5.4471,0.5],[134.6048,-5.4445,1.8055],[134.6022,-5.4442,5.1066],[134.6052,-5.4413,10.7742],[134.6059,-5.4374,1.0671],[134.6044,-5.4361,5.1203],[134.6086,-5.4307,7.977],[134.6078,-5.4277,2.1911],[134.6048,-5.425,0.0],[134.5974,-5.4226,0.0],[134.6012,-5.4209,13.2007],[134.6017,-5.4185,11.5939],[134.5975,-5.4143,0.0],[134.5911,-5.4162,0.0],[134.5894,-5.4234,6.6996],[134.5838,-5.4163,14.8983],[134.579,-5.4196,11.2337],[134.5747,-5.4178,0.0],[134.5716,-5.4187,3.7233],[134.5664,-5.4248,0.0],[134.5679,-5.4278,8.1555],[134.5656,-5.4265,3.918],[134.5646,-5.4275,0.0],[134.5641,-5.4314,0.5],[134.5693,-5.4391,13.7195],[134.5722,-5.4399,2.25],[134.5752,-5.4379,9.2319],[134.578,-5.4392,9.1938],[134.5765,-5.4408,6.0698],[134.5699,-5.4414,8.4434],[134.5649,-5.4393,8.9981],[134.5596,-5.4344,0.0],[134.5554,-5.4348,6.0985],[134.5549,-5.4389,4.0146],[134.557,-5.4403,3.7081],[134.558,-5.4457,1.0],[134.5609,-5.4488,1.375],[134.5598,-5.4499,7.9723],[134.5546,-5.445,7.6728],[134.553,-5.4399,0.25],[134.5508,-5.4383,1.835],[134.5487,-5.4376,0.0],[134.548,-5.4388,5.9574],[134.5468,-5.4362,0.0],[134.5424,-5.4367,10.8016],[134.5397,-5.4326,0.0],[134.5385,-5.4349,16.1153],[134.5367,-5.4337,2.2777],[134.5353,-5.4351,5.1964],[134.534,-5.4301,7.1388],[134.5305,-5.4265,7.7616],[134.5271,-5.4276,4.7338],[134.5199,-5.4254,10.5361],[134.5083,-5.4197,4.9898],[134.5,-5.4198,8.3041],[134.4911,-5.4314,7.3248],[134.4931,-5.44,2.7746],[134.4959,-5.442,2.484],[134.4935,-5.4433,3.1939],[134.4942,-5.4469,0.0],[134.4982,-5.4482,7.0067],[134.5002,-5.4512,8.1816],[134.5027,-5.4508,5.3913],[134.5029,-5.4544,1.044],[134.5008,-5.4564,0.0],[134.5016,-5.4595,11.6355],[134.5035,-5.4605,8.246],[134.5007,-5.4677,0.0],[134.5028,-5.4706,1.1053],[134.5004,-5.4713,2.4425],[134.5,-5.4755,15.2478],[134.4956,-5.4763,11.6229],[134.4942,-5.4794,4.2567],[134.4909,-5.4796,0.0],[134.4909,-5.4845,0.0],[134.4934,-5.4845,19.082],[134.4919,-5.4867,2.0533],[134.4977,-5.4888,3.1793],[134.5029,-5.4878,10.1001],[134.5073,-5.4848,2.2477],[134.5122,-5.486,9.7355],[134.5158,-5.4797,2.2492],[134.5226,-5.4817,0.625],[134.5269,-5.4883,3.5271],[134.5295,-5.4887,8.0665],[134.533,-5.4788,5.5622],[134.5365,-5.4789,9.0712],[134.5332,-5.4791,5.5622],[134.5321,-5.4857,13.7228],[134.5298,-5.4896,9.7094],[134.5265,-5.4899,4.4037],[134.5212,-5.486,0.625],[134.5149,-5.4888,0.5],[134.5062,-5.4894,0.0],[134.506,-5.4909,2.0549],[134.5051,-5.4921,8.9136],[134.5043,-5.4932,5.2464],[134.5027,-5.4945,7.8928],[134.5024,-5.4987,3.5534],[134.5,-5.5017,5.4586],[134.5007,-5.5058,1.8729],[134.5042,-5.509,2.0256],[134.5123,-5.5102,3.6152],[134.5147,-5.5125,4.7271],[134.5204,-5.5111,5.4459],[134.5167,-5.5148,3.0835],[134.5182,-5.5177,18.0902],[134.5117,-5.524,4.2273],[134.5149,-5.5263,12.5728],[134.5156,-5.5291,7.1429],[134.5142,-5.5304,7.4652],[134.5156,-5.5315,8.2249],[134.5104,-5.5355,2.4616],[134.5061,-5.5457,12.3439],[134.5059,-5.5539,18.591],[134.5138,-5.5619,0.0],[134.5178,-5.5589,0.0],[134.5183,-5.5566,4.6901],[134.5224,-5.5549,3.0299],[134.5286,-5.5619,7.6762],[134.531,-5.5693,1.4615],[134.5383,-5.5677,9.6759],[134.5395,-5.5654,13.5659],[134.5422,-5.5678,9.4199],[134.5449,-5.5668,1.7214],[134.5486,-5.5593,22.0949],[134.553,-5.5574,11.3881],[134.5553,-5.5605,5.5007],[134.5656,-5.564,1.9431],[134.5673,-5.5605,4.2364],[134.569,-5.5603,4.2364],[134.5715,-5.5631,8.1875],[134.5711,-5.5695,0.0],[134.581,-5.5667,10.6967],[134.5852,-5.5703,11.1989],[134.5924,-5.5672,8.1053],[134.5972,-5.5694,5.3878],[134.5989,-5.5598,3.8998],[134.5991,-5.565,4.5155],[134.601,-5.5649,14.5862],[134.6018,-5.5671,0.0],[134.6031,-5.5658,14.1654],[134.6115,-5.569,6.5807],[134.6131,-5.5711,4.1383],[134.6128,-5.574,1.7713],[134.6205,-5.5808,0.7472],[134.6269,-5.5807,2.2686],[134.6288,-5.5737,10.268],[134.6288,-5.5797,2.2686],[134.6335,-5.5787,12.1773],[134.636,-5.5813,0.0],[134.6372,-5.581,0.0],[134.6386,-5.5723,7.3704],[134.6397,-5.574,2.1483],[134.6409,-5.5724,6.8852],[134.6422,-5.5733,0.0],[134.6411,-5.5698,11.4794],[134.644,-5.5731,0.0],[134.6492,-5.573,0.0],[134.649,-5.5705,4.1955],[134.6459,-5.5693,15.0883],[134.6498,-5.5685,0.25],[134.649,-5.5662,7.9259],[134.6466,-5.5651,10.3452],[134.6491,-5.5594,12.4505],[134.6475,-5.5559,9.3257],[134.6479,-5.5516,7.6974],[134.6533,-5.5595,11.8714],[134.6559,-5.5584,13.1512],[134.6573,-5.5625,15.271],[134.656,-5.5683,7.3961],[134.6569,-5.5687,7.3961],[134.6577,-5.5655,8.4545],[134.6595,-5.5706,2.6663],[134.6611,-5.5704,1.8683],[134.6646,-5.5656,9.2724],[134.6653,-5.5686,0.0],[134.672,-5.5718,0.0],[134.6795,-5.5722,3.5502],[134.6829,-5.5683,0.0],[134.6813,-5.5646,6.247],[134.6827,-5.5656,4.2205],[134.6843,-5.5645,13.59],[134.683,-5.5599,13.1491],[134.6893,-5.5636,3.5121],[134.6872,-5.5695,0.0],[134.6918,-5.5715,2.8813],[134.6964,-5.5704,16.2647],[134.699,-5.5662,0.0],[134.6977,-5.5628,0.0],[134.6903,-5.5585,15.5845],[134.6845,-5.5499,6.0293],[134.6769,-5.5457,10.6918],[134.6781,-5.5442,12.6047],[134.6738,-5.5384,20.9519],[134.6776,-5.535,9.493],[134.6837,-5.5351,4.7786],[134.688,-5.5373,8.9697],[134.6898,-5.5342,14.9632],[134.6903,-5.5356,16.1195],[134.695,-5.5365,1.9922],[134.6996,-5.535,1.0681],[134.701,-5.5356,0.0],[134.7032,-5.5324,0.0],[134.6996,-5.5305,0.0],[134.7011,-5.5262,0.0],[134.6997,-5.5229,7.2936],[134.7032,-5.5214,1.3939],[134.7037,-5.5191,4.8353],[134.7065,-5.5199,0.0],[134.7055,-5.516,0.0],[134.6991,-5.512,0.0],[134.6913,-5.5112,1.527],[134.6818,-5.5072,8.9315],[134.6756,-5.4904,0.8081],[134.6727,-5.4893,0.0],[134.6716,-5.4856,1.1662],[134.6645,-5.4814,6.0715],[134.6623,-5.4829,0.0],[134.6606,-5.4885,3.9091],[134.6622,-5.5018,7.0388],[134.6642,-5.5064,13.5122],[134.6628,-5.5102,8.254]]],
[[[134.7006,-5.5441,9.99],[134.7024,-5.5419,3.9309],[134.6991,-5.5358,1.0681],[134.6954,-5.5369,1.9922],[134.6903,-5.5361,16.1195],[134.6897,-5.5404,0.0],[134.6913,-5.5448,3.9164],[134.6986,-5.5471,10.213],[134.7006,-5.5441,9.99]]],
[[[134.6599,-5.4693,0.0],[134.6572,-5.4704,1.7558],[134.659,-5.4731,0.8899],[134.6614,-5.4715,7.185],[134.6599,-5.4693,0.0]]],
[[[134.5231,-5.8737,68.1489],[134.5299,-5.89,35.1232],[134.5378,-5.8833,41.5736],[134.5593,-5.8717,50.9081],[134.5722,-5.873,39.3624],[134.5851,-5.8697,45.3973],[134.5996,-5.8687,23.9906],[134.6036,-5.8575,22.9495],[134.6366,-5.8572,9.6673],[134.6396,-5.8638,17.1549],[134.6441,-5.869,11.5883],[134.6467,-5.8643,3.6338],[134.655,-5.8571,13.2599],[134.6713,-5.85,8.259],[134.6717,-5.8455,22.8599],[134.687,-5.8418,8.3282],[134.6892,-5.8392,5.6593],[134.6875,-5.8354,22.722],[134.6901,-5.8328,23.692],[134.6994,-5.8254,11.0625],[134.7054,-5.8251,8.1199],[134.7108,-5.8204,15.2454],[134.7132,-5.8158,5.4867],[134.699,-5.8067,3.0815],[134.6902,-5.797,13.4132],[134.6881,-5.7822,5.6714],[134.6889,-5.7764,6.1982],[134.6819,-5.7716,6.8088],[134.6755,-5.7713,2.1053],[134.6705,-5.7625,9.0192],[134.6673,-5.7519,0.0],[134.6621,-5.7521,0.0],[134.6541,-5.7471,0.0],[134.6532,-5.7434,12.6972],[134.655,-5.7445,1.9143],[134.6548,-5.7412,6.1143],[134.6559,-5.7429,0.0],[134.6564,-5.7416,0.0],[134.6546,-5.7379,0.0],[134.6603,-5.7269,2.1097],[134.6553,-5.7243,0.0],[134.6535,-5.7272,0.0],[134.6501,-5.7281,11.2153],[134.6431,-5.7217,12.7283],[134.6407,-5.7156,1.5725],[134.6363,-5.7129,2.0995],[134.6324,-5.7151,7.4367],[134.6254,-5.7148,2.7228],[134.619,-5.7241,7.5764],[134.616,-5.7256,8.8716],[134.6093,-5.7191,11.4452],[134.6066,-5.7132,3.3694],[134.6016,-5.7102,9.903],[134.5991,-5.7054,8.1697],[134.5946,-5.7023,0.0],[134.5887,-5.6864,5.9118],[134.5767,-5.6771,0.0],[134.5745,-5.672,10.587],[134.5699,-5.6732,51.2],[134.5591,-5.6945,67.0258],[134.5277,-5.7019,83.1354],[134.4967,-5.6997,61.7062],[134.4993,-5.7037,65.0421],[134.5012,-5.7176,78.2993],[134.5086,-5.7336,75.0804],[134.5212,-5.7504,61.0897],[134.5368,-5.7676,70.3707],[134.545,-5.7826,46.9477],[134.5332,-5.7862,61.3517],[134.5218,-5.7939,46.1256],[134.5181,-5.8406,74.2598],[134.5088,-5.8524,73.0546],[134.5231,-5.8737,68.1489]]],
[[[134.5054,-5.5114,8.8786],[134.4998,-5.5088,3.5674],[134.497,-5.5099,0.0],[134.4955,-5.5144,2.744],[134.4984,-5.5239,4.7817],[134.5038,-5.5231,0.0],[134.5075,-5.5244,1.6697],[134.5142,-5.5179,0.0],[134.5141,-5.5166,0.0],[134.5054,-5.5114,8.8786]]],
[[[134.5019,-5.4955,4.5606],[134.5023,-5.4942,7.8928],[134.5051,-5.4921,8.9136],[134.5043,-5.4907,2.8584],[134.5011,-5.4902,1.49],[134.4972,-5.4925,5.8465],[134.4891,-5.4872,2.1683],[134.4881,-5.4905,10.6598],[134.4859,-5.4909,0.0],[134.4859,-5.4973,0.0],[134.4878,-5.4976,13.1933],[134.4912,-5.5054,2.4483],[134.499,-5.5054,5.3051],[134.4991,-5.5017,7.1653],[134.502,-5.4982,3.5534],[134.5019,-5.4955,4.5606]]],
[[[134.6842,-5.4653,0.0],[134.6824,-5.47,14.4302],[134.6846,-5.4755,11.3784],[134.6867,-5.4767,1.028],[134.6891,-5.4747,1.5669],[134.6897,-5.4687,6.4514],[134.6859,-5.4637,0.0],[134.6842,-5.4653,0.0]]],
[[[134.6735,-5.4688,0.0],[134.6739,-5.477,2.39],[134.6773,-5.4776,6.7078],[134.6804,-5.4746,0.0],[134.6817,-5.4608,0.0],[134.6802,-5.4601,0.0],[134.6785,-5.4628,1.2452],[134.675,-5.464,0.0],[134.6735,-5.4688,0.0]]],
[[[134.6563,-5.4629,8.3446],[134.6626,-5.4691,1.3371],[134.6655,-5.4748,0.5804],[134.6691,-5.4746,0.6055],[134.6742,-5.4654,8.1889],[134.6686,-5.4562,0.0],[134.6661,-5.4559,0.0],[134.6644,-5.448,0.0],[134.6622,-5.4453,0.0],[134.655,-5.442,0.0],[134.6515,-5.4425,0.0],[134.6501,-5.4471,0.0],[134.656,-5.4544,15.2549],[134.6563,-5.4629,8.3446]]],
[[[134.6807,-5.4068,0.0],[134.6793,-5.4044,0.0],[134.6772,-5.4058,0.0],[134.6797,-5.4082,0.0],[134.6807,-5.4068,0.0]]],
[[[134.6378,-5.4165,11.9764],[134.6353,-5.4177,0.672],[134.6353,-5.4194,2.7197],[134.6381,-5.4199,0.7154],[134.6378,-5.4165,11.9764]]],
[[[134.6426,-5.4131,2.5197],[134.6429,-5.4198,0.0],[134.6452,-5.4204,7.4559],[134.6468,-5.4185,14.0032],[134.6457,-5.4081,0.0],[134.644,-5.4082,0.0],[134.6426,-5.4131,2.5197]]],
[[[134.616,-5.4055,0.0],[134.6246,-5.4123,14.184],[134.6302,-5.4107,5.1536],[134.6303,-5.409,9.8307],[134.626,-5.4058,6.8141],[134.6221,-5.3997,12.9013],[134.616,-5.4055,0.0]]],
[[[134.6481,-5.4051,0.0],[134.646,-5.4043,0.0],[134.6456,-5.405,0.0],[134.647,-5.4063,0.0],[134.6481,-5.4051,0.0]]],
[[[134.6271,-5.4004,15.2104],[134.6271,-5.399,13.1503],[134.6252,-5.399,16.1544],[134.6253,-5.4001,15.0696],[134.6271,-5.4004,15.2104]]],
[[[134.6595,-5.4056,0.0],[134.6637,-5.3911,15.9952],[134.6591,-5.3869,0.0],[134.6546,-5.3869,0.0],[134.6528,-5.3885,0.0],[134.6504,-5.3876,0.0],[134.6487,-5.3923,0.0],[134.6509,-5.402,0.0],[134.6538,-5.407,0.0],[134.6569,-5.4088,0.0],[134.6589,-5.4089,0.0],[134.6595,-5.4056,0.0]]],
[[[134.6169,-5.3999,0.0],[134.6204,-5.3977,1.5752],[134.62,-5.3965,1.5752],[134.6122,-5.3884,2.0073],[134.6129,-5.3833,0.0],[134.6103,-5.381,0.0],[134.6078,-5.382,0.0],[134.6059,-5.3863,8.1221],[134.5952,-5.3904,2.0642],[134.5925,-5.3932,0.0],[134.5968,-5.3984,3.4183],[134.5959,-5.4011,2.8487],[134.6064,-5.4072,10.3256],[134.6114,-5.4081,0.0],[134.6169,-5.3999,0.0]]],
[[[134.6654,-5.3906,1.8983],[134.6649,-5.3942,13.8651],[134.6662,-5.3947,14.0527],[134.6664,-5.3924,1.5927],[134.6654,-5.3906,1.8983]]],
[[[134.674,-5.3927,3.2131],[134.6794,-5.3951,0.8664],[134.6835,-5.3934,0.0],[134.6819,-5.3896,0.9372],[134.6767,-5.3876,0.0],[134.6707,-5.389,4.2931],[134.6706,-5.3904,1.0156],[134.674,-5.3927,3.2131]]],
[[[134.4893,-5.437,0.0],[134.4895,-5.4328,0.0],[134.4949,-5.4242,10.4263],[134.4927,-5.4223,2.1932],[134.4853,-5.4284,12.8336],[134.4836,-5.428,15.3801],[134.4772,-5.4324,0.0],[134.4741,-5.4382,12.5377],[134.4698,-5.4392,0.0],[134.465,-5.4439,2.22],[134.4603,-5.4524,0.0],[134.4606,-5.4584,0.0],[134.4621,-5.4609,0.0],[134.4692,-5.4598,0.0],[134.4707,-5.4571,2.1944],[134.4777,-5.4548,2.634],[134.4889,-5.4408,6.0734],[134.4893,-5.437,0.0]]],
[[[134.5613,-5.4251,6.1224],[134.5587,-5.4252,0.0],[134.5571,-5.4287,1.7394],[134.5616,-5.4284,1.427],[134.5635,-5.4258,1.2248],[134.5613,-5.4251,6.1224]]],
[[[134.5794,-5.4022,2.2031],[134.5921,-5.405,0.0],[134.5944,-5.4035,0.0],[134.5953,-5.3992,0.0],[134.5924,-5.3947,10.9452],[134.5866,-5.3936,1.7379],[134.5781,-5.3999,7.9364],[134.5794,-5.4022,2.2031]]],
[[[134.6191,-5.3866,1.9828],[134.6155,-5.3886,0.0],[134.6152,-5.3907,3.6442],[134.6217,-5.396,11.0287],[134.6254,-5.3926,1.7308],[134.6251,-5.3906,0.0],[134.6211,-5.3865,1.1799],[134.6191,-5.3866,1.9828]]],
[[[134.6063,-5.3692,0.8959],[134.6042,-5.3708,3.3389],[134.6044,-5.3736,11.282],[134.6101,-5.3749,2.8505],[134.6101,-5.3702,5.9061],[134.6066,-5.3682,0.8959],[134.6063,-5.3692,0.8959]]],
[[[134.5661,-5.397,3.0887],[134.5645,-5.3973,0.0],[134.5645,-5.3993,0.0],[134.5664,-5.399,8.0576],[134.5661,-5.397,3.0887]]],
[[[134.5887,-5.3877,0.0],[134.59,-5.3906,7.3621],[134.5919,-5.391,10.0431],[134.5955,-5.3886,5.6485],[134.5978,-5.3889,5.7676],[134.6046,-5.3852,0.0],[134.6037,-5.3819,1.675],[134.5967,-5.3806,0.0],[134.5887,-5.3877,0.0]]],
[[[134.6011,-5.3704,7.6905],[134.6027,-5.3707,2.908],[134.6054,-5.3678,0.0],[134.6009,-5.3571,1.5033],[134.584,-5.3567,2.0177],[134.5766,-5.3635,0.0],[134.5756,-5.37,9.3059],[134.5715,-5.3739,2.6787],[134.5733,-5.3805,9.0725],[134.5699,-5.3787,15.1192],[134.5668,-5.381,0.0],[134.5621,-5.3861,0.0],[134.5612,-5.3898,5.7953],[134.5647,-5.3951,0.0],[134.5761,-5.3941,4.3838],[134.5827,-5.3895,13.1188],[134.5829,-5.3867,10.6056],[134.5911,-5.3802,10.8521],[134.5959,-5.3708,10.6697],[134.6011,-5.3704,7.6905]]],
[[[134.4683,-5.3771,0.0],[134.4783,-5.377,2.3815],[134.4726,-5.3716,2.716],[134.473,-5.3683,0.0],[134.4706,-5.3662,0.0],[134.4675,-5.3686,0.0],[134.4666,-5.3716,4.0155],[134.4683,-5.3771,0.0]]],
[[[134.5816,-5.3551,0.0],[134.5843,-5.3529,10.451],[134.5976,-5.3549,0.0],[134.6031,-5.3499,0.0],[134.6021,-5.3446,13.2807],[134.5994,-5.3385,1.7679],[134.5895,-5.3287,0.0],[134.5705,-5.3245,0.0],[134.56,-5.3287,3.3955],[134.5523,-5.3358,3.0774],[134.5522,-5.3381,1.2365],[134.5479,-5.3436,0.0],[134.5505,-5.3473,5.5584],[134.5502,-5.357,6.7815],[134.5482,-5.3574,7.6609],[134.545,-5.3478,0.0],[134.5322,-5.3507999999999996,0.0],[134.5266,-5.3591,15.1015],[134.529,-5.3648,12.0704],[134.5256,-5.3641,9.7758],[134.5225,-5.3603,2.0457],[134.5145,-5.3628,0.0],[134.5063,-5.3685,0.9283],[134.5047,-5.3752,0.0],[134.5061,-5.3777,8.8722],[134.5026,-5.3817,0.0],[134.5022,-5.386,0.0],[134.5076,-5.3884,15.0207],[134.5091,-5.3921,6.3234],[134.5164,-5.3964,10.8044],[134.5285,-5.4071,5.7207],[134.5396,-5.4115,0.0],[134.5433,-5.409,1.3087],[134.5461,-5.4018,6.2647],[134.5481,-5.4002,3.1133],[134.5523,-5.3974,5.4378],[134.5563,-5.3986,2.6896],[134.5582,-5.3973,7.6482],[134.5582,-5.3928,5.7174],[134.5559,-5.3904,10.839],[134.5582,-5.3896,1.8771],[134.5586,-5.3856,9.0981],[134.5665,-5.3768,4.5199],[134.5678,-5.3686,5.3379],[134.5816,-5.3551,0.0]]],
[[[134.5317,-5.3344,0.0],[134.5401,-5.3362,0.0],[134.5352,-5.3326,1.6336],[134.524,-5.3302,5.6027],[134.5193,-5.3307,0.0],[134.5155,-5.3329,0.0],[134.5107,-5.3393,0.0],[134.5103,-5.3452,1.7548],[134.5125,-5.3462,5.3882],[134.5137,-5.3413,0.0],[134.5155,-5.342,0.0],[134.5183,-5.3375,10.417],[134.5218,-5.3372,11.2721],[134.5261,-5.3342,0.7628],[134.5317,-5.3344,0.0]]]]}}