{"type":"Feature","properties":{"GID_3":"IDN.11.32.14_1","GID_0":"IDN","country":"Indonesia","GID_1":"IDN.11_1","province":"JawaTimur","NL_NAME_1":"NA","GID_2":"IDN.11.32_1","county":"Sidoarjo","NL_NAME_2":"NA","city":"Tanggulangin","VARNAME_3":"NA","NL_NAME_3":"NA","TYPE_3":"Kecamatan","ENGTYPE_3":"Sub-district","CC_3":"3515060","HASC_3":"NA","name":"Tanggulangin.city"},
"geometry":{"type": "MultiPolygon","coordinates": [[[[112.7354,-7.5348,1.5248],[112.7365,-7.5354,1.5248],[112.7374,-7.5332,2.2418],[112.7433,-7.5331,1.0854],[112.7464,-7.5294,1.0726],[112.7479,-7.53,1.2254],[112.7484,-7.5208,1.1747],[112.7588,-7.5193,0.0],[112.7662,-7.5233,1.1907],[112.7677,-7.5209,0.0],[112.7666,-7.5184,0.0],[112.7725,-7.5171,1.8282],[112.7743,-7.5137,0.6575],[112.7786,-7.5145,1.186],[112.7817,-7.5099,0.9817],[112.7816,-7.5068,0.0],[112.7753,-7.5033,0.0],[112.7759,-7.5011,0.3034],[112.7717,-7.5003,0.0],[112.7702,-7.5026,0.0],[112.7648,-7.4976,0.0],[112.7629,-7.499,0.2369],[112.7575,-7.4948,0.4043],[112.7534,-7.494,0.4986],[112.752,-7.4973,0.2674],[112.7476,-7.4957,1.4984],[112.7473,-7.4983,1.8694],[112.73779999999999,-7.4977,3.8955],[112.7362,-7.5031,2.0161],[112.7291,-7.4995,3.8392],[112.7241,-7.5008,2.9511],[112.7191,-7.4996,4.3982],[112.7184,-7.5017,3.3724],[112.6947,-7.4921,3.8752],[112.6909,-7.4895,5.8799],[112.6912,-7.4875,6.0658],[112.6892,-7.4855,6.4475],[112.6842,-7.4829,4.2295],[112.682,-7.4859,5.709],[112.6718,-7.4803,7.496],[112.6628,-7.4784,7.3243],[112.6612,-7.4837,6.3769],[112.6677,-7.4839,6.076],[112.6674,-7.4911,9.21],[112.6693,-7.4905,8.1783],[112.6726,-7.4927,8.6266],[112.6709,-7.4984,5.5656],[112.6691,-7.4977,4.5848],[112.6683,-7.5031,4.6678],[112.6796,-7.5048,3.7703],[112.6806,-7.5027,3.6077],[112.6829,-7.5057,3.6208],[112.6826,-7.5087,3.2257],[112.6889,-7.5101,3.704],[112.6883,-7.5128,3.1965],[112.6997,-7.5171,4.207],[112.7073,-7.5223,12.1827],[112.7139,-7.5242,13.5],[112.7153,-7.5219,13.5874],[112.7204,-7.5231,8.7952],[112.7218,-7.5185,5.4134],[112.736,-7.5227,1.4408],[112.7326,-7.5338,1.6342],[112.7354,-7.5348,1.5248]]]]}}