{"type":"Feature","properties":{"GID_3":"IDN.20.7.5_1","GID_0":"IDN","country":"Indonesia","GID_1":"IDN.20_1","province":"NusaTenggaraBarat","NL_NAME_1":"NA","GID_2":"IDN.20.7_1","county":"LombokUtara","NL_NAME_2":"NA","city":"Tanjung","VARNAME_3":"NA","NL_NAME_3":"NA","TYPE_3":"Kecamatan","ENGTYPE_3":"Sub-district","CC_3":"5208020","HASC_3":"NA","name":"Tanjung.city"},
"geometry":{"type": "MultiPolygon","coordinates": [[[[116.1578,-8.4586,954.2988],[116.161,-8.4562,985.444],[116.1635,-8.4628,1006.8792],[116.1688,-8.4659,908.7362],[116.1732,-8.4658,853.4249],[116.1792,-8.4628,973.8566],[116.1852,-8.4636,1066.7405],[116.192,-8.4677,1321.6011],[116.1923,-8.4732,1377.988],[116.1987,-8.4779,1278.6495],[116.2053,-8.4802,1453.0616],[116.2139,-8.4804,1440.1731],[116.2181,-8.472,1089.5483],[116.2224,-8.4567,1124.6663],[116.2299,-8.4557,935.3582],[116.2359,-8.4525,829.8426],[116.2448,-8.4537,698.8234],[116.248,-8.4518,659.9017],[116.256,-8.4527,685.4789],[116.2648,-8.4513,729.3718],[116.2772,-8.445,806.0081],[116.2786,-8.4407,727.1771],[116.2684,-8.4391,634.3384],[116.2647,-8.4406,656.6599],[116.2641,-8.438,611.6649],[116.2559,-8.4368,564.7705],[116.2514,-8.4324,536.5894],[116.2441,-8.4344,500.6305],[116.2401,-8.4308,485.0287],[116.2395,-8.4271,479.7624],[116.2361,-8.4227,465.0815],[116.2359,-8.4184,431.1193],[116.2265,-8.4149,397.839],[116.223,-8.4157,352.9604],[116.2218,-8.4106,359.8366],[116.2176,-8.407,327.2456],[116.2165,-8.4037,300.2971],[116.2097,-8.4032,254.304],[116.2081,-8.4045,254.304],[116.1987,-8.4001,176.4758],[116.1955,-8.4037,146.4575],[116.1902,-8.4049,188.0796],[116.1867,-8.4039,118.7617],[116.1848,-8.3995,116.6948],[116.1874,-8.3963,91.3063],[116.1902,-8.3957,85.94],[116.1891,-8.3886,62.2369],[116.1862,-8.3831,51.7318],[116.1829,-8.3831,50.9448],[116.1779,-8.3696,24.9116],[116.1803,-8.3679,26.6787],[116.1773,-8.3652,22.1915],[116.1744,-8.3558,9.5848],[116.1719,-8.3535,8.8051],[116.1773,-8.3475,10.1169],[116.1769,-8.3428,0.602],[116.1754,-8.3419,0.602],[116.1628,-8.3454,2.5497],[116.1536,-8.3433,5.0213],[116.1498,-8.3464,2.5821],[116.1447,-8.3551,2.5742],[116.1368,-8.3584,5.4969],[116.1355,-8.3628,0.9547],[116.1297,-8.3655,4.1017],[116.1238,-8.3592,0.0],[116.1213,-8.3639,0.0],[116.1217,-8.3689,10.6023],[116.1198,-8.3703,7.5846],[116.1142,-8.3676,1.8563],[116.1083,-8.3616,3.8407],[116.1022,-8.3608,1.8159],[116.0995,-8.3628,4.9835],[116.1059,-8.379,4.065],[116.1057,-8.3856,0.0],[116.1141,-8.3885,15.7052],[116.1171,-8.3931,26.0514],[116.1163,-8.3972,22.0269],[116.1183,-8.4041,90.7326],[116.121,-8.4072,97.7652],[116.1222,-8.4132,181.9137],[116.1205,-8.4147,106.0817],[116.1241,-8.4236,237.5235],[116.1234,-8.4271,287.2965],[116.1139,-8.4269,262.4213],[116.1126,-8.4305,350.3541],[116.1094,-8.4327,385.8003],[116.1096,-8.4372,458.0848],[116.1052,-8.4371,422.49],[116.1105,-8.4425,541.5228],[116.1156,-8.4404,619.9105],[116.1227,-8.4418,647.3698],[116.128,-8.4477,606.5401],[116.1287,-8.4544,681.621],[116.1345,-8.462,656.4258],[116.1374,-8.457,694.7828],[116.1421,-8.4544,715.0888],[116.1462,-8.4583,763.3432],[116.1549,-8.4599,909.3135],[116.1578,-8.4586,954.2988]]]]}}