{"type":"Feature","properties":{"GID_3":"IDN.28.3.2_1","GID_0":"IDN","country":"Indonesia","GID_1":"IDN.28_1","province":"SulawesiTenggara","NL_NAME_1":"NA","GID_2":"IDN.28.3_1","county":"ButonUtara","NL_NAME_2":"NA","city":"Kambowa","VARNAME_3":"NA","NL_NAME_3":"NA","TYPE_3":"Kecamatan","ENGTYPE_3":"Sub-district","CC_3":"7409101","HASC_3":"NA","name":"Kambowa.city"},
"geometry":{"type": "MultiPolygon","coordinates": [[[[122.9794,-5.0589,5.6747],[122.9782,-5.0537,1.7835],[122.9721,-5.0462,18.6021],[122.9719,-5.0396,18.607],[122.9688,-5.0329,18.697],[122.9685,-5.0269,2.9044],[122.9633,-5.026,0.0],[122.955,-5.0292,4.0366],[122.9521,-5.0251,7.0264],[122.9512,-5.0205,0.96],[122.9516,-5.0188,8.3555],[122.9557,-5.0172,0.0],[122.9549,-5.0018,16.9232],[122.958,-4.9948,0.0],[122.9654,-4.9614,8.4085],[122.9705,-4.9509,14.7386],[122.9612,-4.9346,73.3029],[122.9612,-4.9307,79.7375],[122.9592,-4.9287,64.0314],[122.9566,-4.9287,41.5098],[122.9566,-4.9267,19.6261],[122.9533,-4.9254,49.9526],[122.9533,-4.9234,51.5151],[122.9467,-4.9234,132.1581],[122.946,-4.9182,102.4308],[122.9421,-4.9142,99.7096],[122.9394,-4.9142,108.7845],[122.9361,-4.9175,155.7325],[122.9084,-4.9027,310.8351],[122.8918,-4.9475,41.28],[122.89,-4.9724,111.6253],[122.8785,-5.0266,273.7448],[122.8687,-5.0488,284.3065],[122.8607,-5.0497,378.7711],[122.8554,-5.055,494.7624],[122.8483,-5.0772,386.0034],[122.843,-5.0799,474.2833],[122.8276,-5.0958,269.068],[122.839,-5.1088,497.8187],[122.8425,-5.1154,621.6704],[122.8513,-5.1185,573.9465],[122.8609,-5.1176,613.8771],[122.8686,-5.1214,551.411],[122.8884,-5.1228,402.1867],[122.9006,-5.1197,371.4296],[122.9283,-5.1422,285.4187],[122.9489,-5.1483,3.2199],[122.9529,-5.1415,10.3432],[122.9652,-5.1318,15.9605],[122.9661,-5.1242,2.5585],[122.9733,-5.1154,17.8313],[122.972,-5.1136,9.8698],[122.971,-5.0959,11.9351],[122.9685,-5.0899,6.2526],[122.972,-5.0868,1.22],[122.9794,-5.0589,5.6747]]]]}}