{"type":"Feature","properties":{"GID_3":"IDN.21.20.6_1","GID_0":"IDN","country":"Indonesia","GID_1":"IDN.21_1","province":"NusaTenggaraTimur","NL_NAME_1":"NA","GID_2":"IDN.21.20_1","county":"TimorTengahSelatan","NL_NAME_2":"NA","city":"AmanubanTimur","VARNAME_3":"NA","NL_NAME_3":"NA","TYPE_3":"Kecamatan","ENGTYPE_3":"Sub-district","CC_3":"5304080","HASC_3":"NA","name":"Amanuban_Timur.city"},
"geometry":{"type": "MultiPolygon","coordinates": [[[[124.5361,-9.7468,388.8218],[124.5391,-9.7443,373.4758],[124.541,-9.7488,397.3846],[124.5421,-9.7481,393.9522],[124.5483,-9.7523,417.325],[124.5523,-9.7521,464.2879],[124.5555,-9.7611,474.5313],[124.5734,-9.7648,697.8156],[124.5829,-9.764,577.356],[124.5945,-9.7667,744.2401],[124.6018,-9.76,747.554],[124.6197,-9.7531,661.8514],[124.6295,-9.7426,450.8631],[124.6317,-9.7362,315.1417],[124.6337,-9.735,314.0487],[124.6384,-9.7342,313.8744],[124.6397,-9.736,312.1065],[124.6399,-9.7345,309.9843],[124.6427,-9.7348,302.8558],[124.6438,-9.7326,298.8808],[124.6452,-9.7349,290.2697],[124.6473,-9.7357,278.6427],[124.6488,-9.7341,282.4515],[124.6499,-9.7351,269.5568],[124.6505,-9.7316,325.0297],[124.6479,-9.7277,437.3954],[124.6478,-9.7238,526.5845],[124.6519,-9.7129,479.371],[124.6524,-9.7056,422.842],[124.6545,-9.7007,414.3346],[124.6574,-9.6999,413.4695],[124.6601,-9.6911,362.1965],[124.6625,-9.6907,339.1271],[124.6623,-9.6885,337.8728],[124.6662,-9.6866,352.7447],[124.6664,-9.6849,324.0259],[124.6691,-9.6845,316.0285],[124.6685,-9.6787,306.0511],[124.67,-9.6789,302.7108],[124.6702,-9.677,301.7661],[124.6673,-9.6724,283.7326],[124.6637,-9.6719,287.8162],[124.6612,-9.6676,302.0304],[124.6604,-9.6695,267.9167],[124.6598,-9.6663,269.8987],[124.658,-9.6654,259.9277],[124.6554,-9.6652,266.2426],[124.6548,-9.6687,278.7935],[124.6534,-9.667,270.6396],[124.651,-9.6673,273.0559],[124.6514,-9.6713,287.8361],[124.6495,-9.6699,276.7354],[124.65,-9.6714,300.5212],[124.6486,-9.6706,293.6003],[124.6461,-9.6728,293.6953],[124.6471,-9.674,295.4117],[124.6452,-9.6735,293.973],[124.6444,-9.6754,297.2918],[124.6421,-9.6757,303.6674],[124.6441,-9.6794,304.6647],[124.6356,-9.6842,340.1942],[124.6285,-9.6854,365.1965],[124.6258,-9.6882,379.9434],[124.626,-9.697,444.4347],[124.6225,-9.6975,445.1882],[124.6185,-9.7006,421.6802],[124.6141,-9.7009,427.7257],[124.6116,-9.7054,483.1524],[124.6086,-9.7057,499.8276],[124.606,-9.7021,493.2525],[124.6038,-9.7024,484.2307],[124.6023,-9.6975,474.48],[124.5996,-9.6969,467.2923],[124.5968,-9.6986,460.4045],[124.588,-9.6905,421.4534],[124.5864,-9.6808,420.2512],[124.5854,-9.6794,427.8737],[124.583,-9.6798,417.9892],[124.5867,-9.677,418.3482],[124.5868,-9.6746,417.4152],[124.5813,-9.6692,327.5421],[124.5803,-9.6663,315.8876],[124.5818,-9.6658,321.2327],[124.5774,-9.6599,287.2396],[124.5786,-9.6565,285.7356],[124.5752,-9.6478,254.0549],[124.5766,-9.6445,302.7097],[124.5803,-9.6447,246.8838],[124.5811,-9.6471,271.7647],[124.5903,-9.6462,295.0268],[124.5921,-9.6426,323.4277],[124.5948,-9.6418,340.9262],[124.5998,-9.6455,381.628],[124.6059,-9.6441,430.5298],[124.608,-9.6478,443.4641],[124.6101,-9.6484,388.3547],[124.6155,-9.6451,272.9709],[124.6183,-9.6404,239.714],[124.6179,-9.6376,247.6738],[124.6199,-9.6364,231.9399],[124.6185,-9.6354,231.6283],[124.6202,-9.6299,225.3846],[124.6188,-9.6268,217.8361],[124.6208,-9.626,216.7627],[124.6199,-9.6224,213.7879],[124.6224,-9.6172,231.0702],[124.6176,-9.6107,189.1138],[124.6155,-9.6134,191.3804],[124.6092,-9.613,193.8705],[124.6065,-9.6165,195.279],[124.6,-9.6192,199.2785],[124.5846,-9.6163,209.3122],[124.5804,-9.6169,210.0419],[124.5742,-9.6213,215.3684],[124.5721,-9.6311,218.9369],[124.5592,-9.6437,230.2102],[124.5541,-9.6455,233.6874],[124.5448,-9.6441,239.1807],[124.5426,-9.6451,244.3352],[124.5439,-9.6583,270.9166],[124.5402,-9.6621,258.898],[124.5385,-9.6684,274.5257],[124.5404,-9.6765,275.5595],[124.539,-9.6778,278.3473],[124.5391,-9.6826,286.2157],[124.5316,-9.6833,308.9213],[124.5291,-9.6869,322.7498],[124.5305,-9.6943,341.1232],[124.5157,-9.7161,383.2653],[124.5152,-9.7307,390.1103],[124.5135,-9.7325,389.4548],[124.515,-9.741,413.7331],[124.5134,-9.7429,408.5917],[124.516,-9.7485,428.3816],[124.5158,-9.7518,435.6031],[124.5111,-9.7589,485.8166],[124.5101,-9.7632,579.4556],[124.5274,-9.7642,544.2499],[124.5324,-9.7619,438.3879],[124.5338,-9.7596,511.1106],[124.5304,-9.7502,396.3416],[124.532,-9.7484,393.2002],[124.5355,-9.7497,388.5041],[124.5361,-9.7468,388.8218]],
[[124.6056,-9.6436,405.0782],[124.6057,-9.6437,430.5298],[124.6059,-9.6441,430.5298],[124.6056,-9.6436,405.0782]]]]}}