{"type":"Feature","properties":{"GID_3":"IDN.21.20.19_1","GID_0":"IDN","country":"Indonesia","GID_1":"IDN.21_1","province":"NusaTenggaraTimur","NL_NAME_1":"NA","GID_2":"IDN.21.20_1","county":"TimorTengahSelatan","NL_NAME_2":"NA","city":"Kuatnana","VARNAME_3":"NA","NL_NAME_3":"NA","TYPE_3":"Kecamatan","ENGTYPE_3":"Sub-district","CC_3":"5304042","HASC_3":"NA","name":"Kuatnana.city"},
"geometry":{"type": "MultiPolygon","coordinates": [[[[124.4633,-9.8985,487.1559],[124.4592,-9.8905,575.8906],[124.4598,-9.8857,656.5944],[124.4582,-9.882,629.7158],[124.4543,-9.8793,512.9835],[124.4537,-9.8772,489.2097],[124.455,-9.8684,544.1514],[124.4597,-9.8651,569.4471],[124.4612,-9.8612,532.2494],[124.4564,-9.8457,755.2238],[124.4533,-9.8454,853.1635],[124.4531,-9.8401,842.7426],[124.446,-9.8271,750.912],[124.4448,-9.8212,666.2644],[124.4408,-9.8197,689.2413],[124.4243,-9.805,568.8931],[124.4162,-9.7942,495.1105],[124.409,-9.7875,460.7031],[124.4077,-9.7837,462.1723],[124.4089,-9.7801,451.713],[124.4067,-9.7778,461.3144],[124.4061,-9.7714,448.1348],[124.404,-9.7707,421.5626],[124.4029,-9.7667,406.3839],[124.4,-9.7687,406.411],[124.3945,-9.7637,415.0586],[124.3896,-9.7665,428.6743],[124.3822,-9.764,435.0295],[124.3822,-9.7672,428.9782],[124.3777,-9.7704,437.0044],[124.3794,-9.7756,458.3969],[124.377,-9.7779,456.5055],[124.3767,-9.7804,457.6168],[124.3753,-9.7802,457.6168],[124.3737,-9.7753,456.9294],[124.3718,-9.7759,461.1555],[124.3717,-9.7785,467.4821],[124.3681,-9.7787,460.841],[124.3657,-9.7837,467.2735],[124.3672,-9.7856,510.6431],[124.3634,-9.7857,470.1288],[124.3623,-9.7878,477.4172],[124.3651,-9.79,494.0395],[124.3606,-9.7897,483.7159],[124.3611,-9.7883,477.3033],[124.3597,-9.788,478.0086],[124.3585,-9.7907,490.5624],[124.355,-9.7873,492.8858],[124.3542,-9.7902,487.9656],[124.356,-9.7913,489.6182],[124.3512,-9.7902,490.4055],[124.3521,-9.7942,492.7478],[124.3495,-9.7931,491.9913],[124.3496,-9.7956,493.9695],[124.3468,-9.7963,493.9597],[124.3475,-9.7983,502.0697],[124.3454,-9.7988,496.6677],[124.3449,-9.8011,499.053],[124.3403,-9.8006,504.123],[124.3376,-9.8056,508.4367],[124.3336,-9.8029,526.3959],[124.3329,-9.8065,521.3998],[124.331,-9.8057,522.0815],[124.3297,-9.808,526.4379],[124.3277,-9.8047,517.8253],[124.3265,-9.8063,521.3831],[124.3277,-9.8081,528.8364],[124.3238,-9.8073,522.4528],[124.3253,-9.8097,525.8802],[124.3237,-9.8108,525.8802],[124.3273,-9.8116,530.6246],[124.324,-9.8174,535.6136],[124.3261,-9.8178,561.4462],[124.3262,-9.8198,555.8217],[124.3239,-9.8202,538.9151],[124.3265,-9.8227,572.9004],[124.3211,-9.825,566.8939],[124.3234,-9.827,547.6499],[124.3204,-9.8273,555.0078],[124.3183,-9.8297,554.9135],[124.3202,-9.8333,594.6042],[124.3185,-9.8385,582.8424],[124.3171,-9.8387,571.7275],[124.3191,-9.8399,579.7228],[124.3184,-9.8449,607.2469],[124.3196,-9.8427,621.3909],[124.321,-9.8445,597.3687],[124.322,-9.8426,680.8943],[124.3301,-9.8409,610.3609],[124.3354,-9.8468,605.8756],[124.3362,-9.8507,605.0455],[124.3384,-9.8511,617.6591],[124.3372,-9.8522,619.8219],[124.3434,-9.8526,621.6287],[124.3453,-9.8554,626.2126],[124.3478,-9.8548,623.6683],[124.3511,-9.8572,633.2293],[124.3641,-9.8572,660.5519],[124.3646,-9.8442,676.5382],[124.3747,-9.8388,618.5654],[124.3777,-9.8351,599.0127],[124.3828,-9.833,595.0457],[124.3829,-9.8316,596.1306],[124.3876,-9.831,587.6031],[124.3894,-9.8283,583.0175],[124.3887,-9.8272,582.5618],[124.3907,-9.8259,579.2502],[124.4014,-9.8352,687.9226],[124.4045,-9.841,736.5831],[124.4076,-9.8412,750.1528],[124.4102,-9.8453,803.9657],[124.4125,-9.8462,812.1621],[124.4127,-9.8485,818.9673],[124.4054,-9.8544,672.9566],[124.404,-9.8581,582.0225],[124.3963,-9.863,503.3755],[124.3952,-9.8679,468.9352],[124.3863,-9.864,591.9127],[124.3854,-9.8673,687.4853],[124.3906,-9.8736,451.4276],[124.3933,-9.8801,431.0272],[124.3918,-9.8843,403.8673],[124.3936,-9.889,394.6435],[124.3877,-9.897,363.2832],[124.3893,-9.9004,357.7488],[124.3922,-9.9008,348.8485],[124.3919,-9.9052,337.903],[124.3935,-9.9081,366.4163],[124.3953,-9.9084,332.8934],[124.3941,-9.9096,320.6088],[124.3964,-9.9109,342.6689],[124.3964,-9.9138,317.6435],[124.398,-9.9125,330.0535],[124.3991,-9.9134,312.7939],[124.4,-9.9246,293.9],[124.4042,-9.9278,302.735],[124.4029,-9.9324,281.1064],[124.4053,-9.9355,277.7713],[124.4118,-9.936,286.3805],[124.4143,-9.929,303.0109],[124.4192,-9.9299,308.0482],[124.423,-9.9251,327.9579],[124.4257,-9.9279,325.118],[124.4283,-9.9262,335.9536],[124.4311,-9.9267,352.9084],[124.4338,-9.9237,342.9417],[124.4371,-9.9237,354.2109],[124.4406,-9.9186,361.5723],[124.4546,-9.9196,397.0734],[124.4599,-9.9153,416.7189],[124.4641,-9.9019,466.6493],[124.4633,-9.8985,487.1559]]]]}}