{"type":"Feature","properties":{"GID_3":"IDN.21.20.24_1","GID_0":"IDN","country":"Indonesia","GID_1":"IDN.21_1","province":"NusaTenggaraTimur","NL_NAME_1":"NA","GID_2":"IDN.21.20_1","county":"TimorTengahSelatan","NL_NAME_2":"NA","city":"Noebana","VARNAME_3":"NA","NL_NAME_3":"NA","TYPE_3":"Kecamatan","ENGTYPE_3":"Sub-district","CC_3":"5304103","HASC_3":"NA","name":"Noebana.city"},
"geometry":{"type": "MultiPolygon","coordinates": [[[[124.6077,-9.7882,540.1553],[124.6117,-9.804,733.3505],[124.6167,-9.8029,584.5592],[124.6201,-9.8047,555.159],[124.6293,-9.7998,501.4906],[124.6317,-9.8089,552.9071],[124.6372,-9.8126,612.7396],[124.6421,-9.8128,716.9882],[124.6466,-9.8154,824.8702],[124.6525,-9.8084,832.4435],[124.6607,-9.8081,840.6907],[124.6657,-9.8045,616.6803],[124.6699,-9.7984,508.9072],[124.67,-9.7817,296.6177],[124.6792,-9.7773,275.2702],[124.6792,-9.7665,263.604],[124.6849,-9.7475,210.4328],[124.6923,-9.7415,188.5908],[124.6834,-9.7414,230.0842],[124.6831,-9.7462,209.1234],[124.6811,-9.7471,213.9462],[124.6802,-9.7431,217.4769],[124.6762,-9.7442,218.1653],[124.6736,-9.7413,222.2084],[124.6708,-9.7441,228.6703],[124.6658,-9.7412,265.739],[124.6608,-9.7431,245.9048],[124.6579,-9.7392,278.6871],[124.6543,-9.7388,271.6414],[124.6545,-9.737,264.3409],[124.6522,-9.7377,269.8147],[124.6488,-9.7341,282.4515],[124.6473,-9.7357,278.6427],[124.6452,-9.7349,290.2697],[124.6441,-9.7327,298.8808],[124.6427,-9.7348,302.8558],[124.6399,-9.7345,309.9843],[124.6397,-9.736,312.1065],[124.6384,-9.7342,313.8744],[124.6337,-9.735,314.0487],[124.6317,-9.7362,315.1417],[124.6295,-9.7426,450.8631],[124.6225,-9.75,674.1567],[124.62,-9.7691,536.7076],[124.6137,-9.7815,453.767],[124.6072,-9.7865,487.6897],[124.6077,-9.7882,540.1553]]]]}}