{"type":"Feature","properties":{"GID_3":"IDN.21.20.25_1","GID_0":"IDN","country":"Indonesia","GID_1":"IDN.21_1","province":"NusaTenggaraTimur","NL_NAME_1":"NA","GID_2":"IDN.21.20_1","county":"TimorTengahSelatan","NL_NAME_2":"NA","city":"Noebeba","VARNAME_3":"NA","NL_NAME_3":"NA","TYPE_3":"Kecamatan","ENGTYPE_3":"Sub-district","CC_3":"5304051","HASC_3":"NA","name":"Noebeba.city"},
"geometry":{"type": "MultiPolygon","coordinates": [[[[124.3047,-10.0358,305.6971],[124.3216,-10.0445,225.4835],[124.3227,-10.0469,204.6535],[124.3259,-10.0474,187.6422],[124.3249,-10.0541,138.2671],[124.3264,-10.0545,157.1309],[124.3264,-10.0586,122.9135],[124.3302,-10.0597,122.3524],[124.3332,-10.0576,173.7237],[124.3366,-10.0508,280.4393],[124.3533,-10.0372,151.0583],[124.3583,-10.0281,239.4579],[124.3656,-10.0328,264.7147],[124.3682,-10.0381,115.9892],[124.3788,-10.0381,143.7154],[124.3835,-10.0314,144.4356],[124.3819,-10.0295,143.631],[124.3806,-10.0164,152.9545],[124.3868,-10.007,166.4722],[124.3858,-10.0021,177.7569],[124.3816,-9.9975,180.2206],[124.3793,-9.9882,193.3486],[124.4004,-9.9872,382.8771],[124.4111,-9.9755,340.1324],[124.4136,-9.9691,305.7834],[124.4133,-9.9659,319.2471],[124.4105,-9.969,292.3437],[124.4076,-9.9696,260.9702],[124.4018,-9.9644,263.5],[124.4062,-9.9515,360.538],[124.405,-9.9401,286.9149],[124.4073,-9.9358,280.9706],[124.4031,-9.933,280.878],[124.4038,-9.9274,288.82],[124.3983,-9.9245,296.6519],[124.3971,-9.9223,303.2953],[124.395,-9.9224,307.5727],[124.39,-9.9165,320.6463],[124.3885,-9.9189,332.4604],[124.3864,-9.9169,335.2327],[124.3864,-9.9199,357.5835],[124.3845,-9.9206,346.6237],[124.3831,-9.9179,358.1381],[124.3802,-9.9172,356.3042],[124.3768,-9.9212,369.5526],[124.3689,-9.9182,389.7259],[124.3674,-9.9191,389.7259],[124.3674,-9.9176,417.238],[124.3666,-9.9189,402.8087],[124.3591,-9.9186,424.026],[124.3553,-9.9167,440.1311],[124.3484,-9.921,501.393],[124.3222,-9.9268,586.3145],[124.3216,-9.9235,597.6654],[124.3189,-9.9221,606.2112],[124.3194,-9.9202,608.048],[124.3148,-9.9201,628.7553],[124.3149,-9.9188,622.1898],[124.3093,-9.9154,647.8102],[124.3028,-9.913,704.5674],[124.2945,-9.9164,641.095],[124.2911,-9.9285,771.002],[124.289,-9.9292,748.6763],[124.2851,-9.9262,654.0149],[124.2804,-9.93,600.0892],[124.2774,-9.9297,584.0909],[124.2738,-9.9363,576.4064],[124.2643,-9.9365,502.3275],[124.263,-9.9404,584.7621],[124.2662,-9.9542,424.7724],[124.2652,-9.9592,358.8965],[124.2669,-9.9644,311.3484],[124.2662,-9.9673,299.7612],[124.2692,-9.9738,252.4449],[124.265,-9.9766,269.4832],[124.2618,-9.9761,231.4087],[124.2545,-9.9788,222.5613],[124.2505,-9.9819,212.269],[124.2512,-9.9843,201.431],[124.2463,-9.9914,179.7994],[124.2455,-9.997,168.9556],[124.2431,-10.0014,158.0327],[124.2394,-10.0033,153.6599],[124.2374,-10.0147,135.3405],[124.2342,-10.0157,132.7932],[124.2305,-10.0232,125.0586],[124.2227,-10.0291,103.8285],[124.2439,-10.0316,125.5383],[124.246,-10.0276,150.035],[124.2541,-10.0261,174.3682],[124.2599,-10.0203,182.8926],[124.2651,-10.0182,206.7343],[124.2667,-10.014099999999999,224.3282],[124.2697,-10.0139,248.4154],[124.2756,-10.0079,403.7484],[124.2857,-10.0095,403.5313],[124.291,-10.0062,445.8085],[124.3013,-10.0085,264.1342],[124.3177,-10.0044,515.7338],[124.3196,-10.007,443.3751],[124.319,-10.0089,413.2331],[124.3214,-10.0105,409.0909],[124.3205,-10.0152,384.1516],[124.3161,-10.0173,341.9975],[124.3144,-10.0204,264.4039],[124.3065,-10.026,200.7347],[124.3047,-10.0358,305.6971]]]]}}