{"type":"Feature","properties":{"GID_3":"IDN.21.20.30_1","GID_0":"IDN","country":"Indonesia","GID_1":"IDN.21_1","province":"NusaTenggaraTimur","NL_NAME_1":"NA","GID_2":"IDN.21.20_1","county":"TimorTengahSelatan","NL_NAME_2":"NA","city":"Santian","VARNAME_3":"NA","NL_NAME_3":"NA","TYPE_3":"Kecamatan","ENGTYPE_3":"Sub-district","CC_3":"5304104","HASC_3":"NA","name":"Santian.city"},
"geometry":{"type": "MultiPolygon","coordinates": [[[[124.666,-9.8138,813.8729],[124.6704,-9.8139,782.1903],[124.6765,-9.8098,709.9291],[124.6838,-9.8077,649.2119],[124.6896,-9.8091,441.8578],[124.6976,-9.807,275.24],[124.7042,-9.802,303.3783],[124.707,-9.8098,196.4205],[124.7131,-9.8112,173.3619],[124.7167,-9.8098,166.1517],[124.7194,-9.8118,195.5892],[124.7317,-9.8016,431.9457],[124.7441,-9.7864,491.8448],[124.7437,-9.7827,470.0304],[124.7459,-9.7786,355.2984],[124.7401,-9.7737,374.3936],[124.7511,-9.769,168.5188],[124.7583,-9.7697,244.4777],[124.7632,-9.7641,101.8617],[124.7589,-9.7625,121.4735],[124.7466,-9.7624,194.2339],[124.7429,-9.7607,272.3159],[124.7379,-9.7633,309.7466],[124.73,-9.7645,300.6817],[124.7283,-9.7638,263.0531],[124.7258,-9.7567,213.032],[124.721,-9.7557,195.7521],[124.7192,-9.7537,210.54],[124.7191,-9.75,182.3286],[124.7212,-9.7486,179.6686],[124.7232,-9.7408,134.4064],[124.7152,-9.7428,164.6621],[124.712,-9.746,156.3423],[124.7052,-9.748,166.1491],[124.6999,-9.7437,181.8374],[124.6923,-9.7415,188.5908],[124.6849,-9.7475,210.4328],[124.6792,-9.7665,263.604],[124.6792,-9.7773,275.2702],[124.67,-9.7817,296.6177],[124.6699,-9.7984,508.9072],[124.6657,-9.8045,616.6803],[124.6607,-9.8081,840.6907],[124.6638,-9.8096,814.7598],[124.666,-9.8138,813.8729]]]]}}