{"type":"Feature","properties":{"GID_3":"IDN.21.20.32_1","GID_0":"IDN","country":"Indonesia","GID_1":"IDN.21_1","province":"NusaTenggaraTimur","NL_NAME_1":"NA","GID_2":"IDN.21.20_1","county":"TimorTengahSelatan","NL_NAME_2":"NA","city":"Toianas","VARNAME_3":"NA","NL_NAME_3":"NA","TYPE_3":"Kecamatan","ENGTYPE_3":"Sub-district","CC_3":"5304111","HASC_3":"NA","name":"Toianas.city"},
"geometry":{"type": "MultiPolygon","coordinates": [[[[124.7981,-9.7486,34.3304],[124.8061,-9.7254,55.8942],[124.8126,-9.6893,64.2345],[124.8213,-9.6692,80.4867],[124.8208,-9.658,81.8293],[124.8156,-9.6548,88.7499],[124.8071,-9.6535,124.0877],[124.8021,-9.6503,115.9423],[124.8007,-9.6457,126.8065],[124.796,-9.6431,136.0406],[124.7909,-9.6347,151.4399],[124.7845,-9.6338,169.9526],[124.7793,-9.6354,255.005],[124.7716,-9.6323,309.7136],[124.7682,-9.6352,394.594],[124.7705,-9.6369,402.109],[124.7695,-9.6408,414.8582],[124.7648,-9.6484,419.6851],[124.7586,-9.6538,383.4943],[124.7573,-9.6517,338.942],[124.7541,-9.6522,347.2312],[124.7475,-9.6483,271.3772],[124.7445,-9.65,293.2614],[124.7471,-9.6558,369.7141],[124.7449,-9.6631,337.9966],[124.7434,-9.6636,338.4173],[124.7494,-9.669,438.947],[124.7485,-9.6861,463.7823],[124.7462,-9.6898,407.7879],[124.7415,-9.6925,331.8612],[124.7404,-9.6986,275.4581],[124.733,-9.7023,202.8787],[124.7387,-9.7062,299.3412],[124.7442,-9.7204,279.8618],[124.7424,-9.7253,205.6287],[124.7456,-9.7288,172.4846],[124.747,-9.7345,126.4031],[124.7443,-9.7377,105.169],[124.7389,-9.7361,112.0686],[124.7343,-9.7391,119.6194],[124.7232,-9.7408,134.4064],[124.719,-9.753,210.54],[124.721,-9.7557,195.7521],[124.7258,-9.7567,213.032],[124.7283,-9.7638,263.0531],[124.73,-9.7645,300.6817],[124.7379,-9.7633,309.7466],[124.7429,-9.7607,272.3159],[124.7526,-9.7633,151.7351],[124.7606,-9.7627,117.1678],[124.7702,-9.7707,81.0592],[124.7737,-9.7698,64.9105],[124.7769,-9.7723,59.7142],[124.7812,-9.7722,49.7001],[124.784,-9.7749,60.7287],[124.787,-9.7745,41.073],[124.7899,-9.7765,32.6217],[124.7944,-9.7734,26.3278],[124.8019,-9.7781,14.8036],[124.8038,-9.7758,13.8906],[124.7998,-9.7744,15.8152],[124.7977,-9.7709,18.0541],[124.7971,-9.7612,27.6243],[124.7994,-9.756,33.7208],[124.7981,-9.7486,34.3304]]]]}}