{"type":"Feature","properties":{"GID_3":"IDN.31.8.2_1","GID_0":"IDN","country":"Indonesia","GID_1":"IDN.31_1","province":"SumateraSelatan","NL_NAME_1":"NA","GID_2":"IDN.31.8_1","county":"OganIlir","NL_NAME_2":"NA","city":"IndralayaUtara","VARNAME_3":"NA","NL_NAME_3":"NA","TYPE_3":"Kecamatan","ENGTYPE_3":"Sub-district","CC_3":"1610061","HASC_3":"NA","name":"Indralaya_Utara.city"},
"geometry":{"type": "MultiPolygon","coordinates": [[[[104.6436,-3.2143,11.5096],[104.6457,-3.2103,13.3295],[104.6634,-3.2179,7.7217],[104.6829,-3.2053,4.5688],[104.6849,-3.202,3.7243],[104.6946,-3.202,3.2322],[104.7107,-3.2146,2.6151],[104.7031,-3.2053,3.5571],[104.6984,-3.2049,3.4213],[104.6954,-3.2009,3.0389],[104.697,-3.1881,3.2053],[104.69,-3.1864,3.9263],[104.6985,-3.1746,3.3113],[104.6925,-3.1635,6.512],[104.6957,-3.1536,4.7577],[104.6942,-3.1444,3.6798],[104.6998,-3.1404,3.6941],[104.7005,-3.1379,3.6879],[104.6988,-3.1335,3.645],[104.7022,-3.1111,3.0725],[104.7013,-3.106,3.0771],[104.7131,-3.0972,3.4349],[104.7194,-3.0945,2.6519],[104.7178,-3.0911,2.7713],[104.7189,-3.0902,2.7713],[104.7182,-3.0856,2.6735],[104.7155,-3.0793,5.4138],[104.7198,-3.0738,4.7696],[104.7163,-3.068,2.9923],[104.7096,-3.0665,2.8122],[104.6905,-3.056,2.7017],[104.676,-3.0609,5.6258],[104.6808,-3.0667,2.3655],[104.6789,-3.0685,2.6874],[104.6182,-3.1114,2.853],[104.6095,-3.1015,4.0735],[104.5779,-3.0936,2.6166],[104.5474,-3.0962,2.1204],[104.5441,-3.0959,3.2462],[104.5424,-3.0908,2.6354],[104.526,-3.0974,3.8229],[104.5227,-3.0965,3.0396],[104.5207,-3.0914,2.7956],[104.5171,-3.0895,3.6716],[104.4994,-3.0935,2.0061],[104.4831,-3.1084,2.1713],[104.4788,-3.1159,3.1603],[104.4791,-3.1208,2.5152],[104.484,-3.1248,2.6282],[104.4851,-3.1311,2.0242],[104.4837,-3.1363,2.4969],[104.49,-3.1424,2.5785],[104.4921,-3.1634,2.7763],[104.4969,-3.1692,13.2391],[104.4961,-3.1738,9.0856],[104.5001,-3.1798,10.5281],[104.4998,-3.1818,9.9226],[104.5026,-3.184,9.0822],[104.5071,-3.1946,15.3757],[104.5145,-3.2052,14.8496],[104.5351,-3.2147,12.3172],[104.5634,-3.2152,27.4458],[104.5688,-3.2301,24.3568],[104.571,-3.2284,20.9261],[104.5755,-3.2316,22.5451],[104.5793,-3.2406,19.3803],[104.5823,-3.2424,17.239],[104.5946,-3.2427,12.7734],[104.604,-3.247,1.7435],[104.6047,-3.2406,2.2732],[104.608,-3.2345,1.9907],[104.6154,-3.237,1.3796],[104.6202,-3.2342,2.8958],[104.6247,-3.2345,5.7285],[104.6291,-3.2399,4.1131],[104.625,-3.245,1.874],[104.6251,-3.2493,1.4938],[104.6319,-3.2575,1.6685],[104.6455,-3.2539,1.4679],[104.6517,-3.2475,2.1553],[104.6495,-3.2326,2.3154],[104.6434,-3.2229,9.6768],[104.6436,-3.2143,11.5096]]]]}}