{"type":"Feature","properties":{"GID_3":"IDN.9.4.9_1","GID_0":"IDN","country":"Indonesia","GID_1":"IDN.9_1","province":"JawaBarat","NL_NAME_1":"NA","GID_2":"IDN.9.4_1","county":"Bekasi","NL_NAME_2":"NA","city":"CikarangTimur","VARNAME_3":"NA","NL_NAME_3":"NA","TYPE_3":"Kecamatan","ENGTYPE_3":"Sub-district","CC_3":"3216041","HASC_3":"NA","name":"Cikarang_Timur.city"},
"geometry":{"type": "MultiPolygon","coordinates": [[[[107.2168,-6.3209,18.8307],[107.2247,-6.3206,19.2863],[107.2231,-6.3184,22.2263],[107.2186,-6.3183,18.4689],[107.2173,-6.3162,18.3357],[107.2199,-6.3131,18.4443],[107.2218,-6.3166,18.7828],[107.2239,-6.3163,18.6826],[107.2246,-6.3102,21.8528],[107.2276,-6.3093,18.3604],[107.2242,-6.3078,24.3233],[107.2241,-6.3057,21.4009],[107.2278,-6.3045,20.7188],[107.2294,-6.3022,18.2922],[107.233,-6.3037,16.1026],[107.2323,-6.2999,15.6704],[107.2337,-6.299,13.999],[107.2354,-6.3019,16.2022],[107.2353,-6.3066,15.1428],[107.2372,-6.3072,14.8279],[107.2394,-6.3043,14.3131],[107.2365,-6.2967,15.9164],[107.242,-6.2967,17.1145],[107.2443,-6.2993,16.4135],[107.2467,-6.2993,16.1056],[107.2487,-6.2933,16.3865],[107.2509,-6.2929,16.0994],[107.2546,-6.295,14.3771],[107.2555,-6.2902,14.9483],[107.2611,-6.2861,14.1131],[107.264,-6.2864,12.4558],[107.2619,-6.2819,14.3802],[107.2633,-6.2801,13.8011],[107.2666,-6.2849,14.2073],[107.268,-6.2807,14.236],[107.2654,-6.2788,10.1225],[107.2667,-6.2738,13.0791],[107.2591,-6.2762,14.5011],[107.2585,-6.2784,12.068],[107.2503,-6.2766,11.8235],[107.2433,-6.2797,12.1049],[107.2354,-6.2795,11.9851],[107.2363,-6.2745,11.6616],[107.2411,-6.2723,11.5598],[107.2419,-6.2698,11.5417],[107.2454,-6.2697,11.33],[107.2462,-6.2667,13.0984],[107.2436,-6.2659,11.9152],[107.2352,-6.2695,14.4084],[107.2256,-6.2658,15.0859],[107.2142,-6.2659,14.6494],[107.2148,-6.2589,11.3394],[107.2214,-6.2441,10.9113],[107.2148,-6.2423,11.4308],[107.2121,-6.2352,9.1632],[107.2132,-6.2339,9.0547],[107.2104,-6.235,8.9952],[107.2017,-6.2317,9.0499],[107.1963,-6.2654,12.654],[107.1856,-6.2689,14.5733],[107.1853,-6.274,15.9688],[107.1836,-6.2754,16.6388],[107.1847,-6.2767,16.9489],[107.1823,-6.2821,16.3208],[107.1789,-6.2849,17.8266],[107.1776,-6.289,18.6662],[107.1724,-6.288,20.4173],[107.1711,-6.2954,21.7926],[107.1676,-6.3002,22.5351],[107.1706,-6.3046,22.2888],[107.1668,-6.312,24.9583],[107.1693,-6.3124,24.564],[107.1717,-6.3156,20.5262],[107.1766,-6.3183,22.7932],[107.1852,-6.3197,28.2632],[107.1845,-6.3239,29.4973],[107.1956,-6.3274,24.5972],[107.1966,-6.3295,22.0647],[107.209,-6.3284,18.4507],[107.2094,-6.3222,18.9292],[107.2139,-6.3228,18.1033],[107.2135,-6.3249,20.8089],[107.2153,-6.3257,19.7763],[107.2168,-6.3209,18.8307]]]]}}