{"type":"Feature","properties":{"GID_3":"IDN.32.26.2_1","GID_0":"IDN","country":"Indonesia","GID_1":"IDN.32_1","province":"SumateraUtara","NL_NAME_1":"NA","GID_2":"IDN.32.26_1","county":"Samosir","NL_NAME_2":"NA","city":"Nainggolan","VARNAME_3":"NA","NL_NAME_3":"NA","TYPE_3":"Kecamatan","ENGTYPE_3":"Sub-district","CC_3":"1217050","HASC_3":"NA","name":"Nainggolan.city"},
"geometry":{"type": "MultiPolygon","coordinates": [[[[98.8828,2.4331,901.0],[98.8846,2.4339,910.2842],[98.8877,2.432,902.8362],[98.8885,2.4278,902.3086],[98.8919,2.4272,901.8893],[98.8979,2.4305,903.6127],[98.9006,2.4361,905.0153],[98.9089,2.4351,901.0],[98.9159,2.4368,902.2512],[98.9238,2.4333,901.0],[98.9347,2.4377,902.8043],[98.9403,2.445,902.6888],[98.9371,2.4668,1016.9691],[98.9269,2.474,1134.7235],[98.9226,2.4799,1193.0881],[98.9235,2.4809,1170.7742],[98.9191,2.5059,1261.8931],[98.9124,2.5109,1320.9983],[98.9099,2.5164,1290.4973],[98.9081,2.5295,1323.8907],[98.9003,2.5338,1393.4027],[98.8968,2.5451,1461.2626],[98.8925,2.543,1466.0869],[98.8883,2.5362,1465.4274],[98.8753,2.509,1417.9663],[98.8728,2.5011,1293.7404],[98.8697,2.479,1092.2664],[98.8618,2.4676,1026.8271],[98.8458,2.4542,907.3188],[98.8495,2.4478,913.8883],[98.8597,2.4437,926.0861],[98.861,2.4385,901.0],[98.8646,2.4343,901.8805],[98.877,2.4303,901.0],[98.8778,2.4325,902.8923],[98.8828,2.4331,901.0]]]]}}