{"type":"Feature","properties":{"GID_3":"IDN.11.4.6_1","GID_0":"IDN","country":"Indonesia","GID_1":"IDN.11_1","province":"JawaTimur","NL_NAME_1":"NA","GID_2":"IDN.11.4_1","county":"Blitar","NL_NAME_2":"NA","city":"Kademangan","VARNAME_3":"NA","NL_NAME_3":"NA","TYPE_3":"Kecamatan","ENGTYPE_3":"Sub-district","CC_3":"3505070","HASC_3":"NA","name":"Kademangan.city"},
"geometry":{"type": "MultiPolygon","coordinates": [[[[112.0637,-8.2264,203.3616],[112.0676,-8.2257,229.1838],[112.0741,-8.2284,233.4253],[112.0851,-8.2284,230.0511],[112.1024,-8.223,220.2367],[112.1124,-8.2249,263.9625],[112.1178,-8.2299,284.5951],[112.1235,-8.2312,305.1227],[112.1261,-8.2289,307.232],[112.1241,-8.2277,290.6387],[112.1246,-8.2255,292.2823],[112.1225,-8.2229,265.1296],[112.1245,-8.214,281.5237],[112.1332,-8.2146,286.1358],[112.1339,-8.2125,250.5963],[112.1428,-8.2113,266.0017],[112.15,-8.207,275.7811],[112.1572,-8.1996,300.7568],[112.1631,-8.1974,280.198],[112.1652,-8.1987,297.8652],[112.1655,-8.1956,290.7205],[112.1694,-8.1919,239.5519],[112.1714,-8.178,270.4691],[112.1745,-8.1767,241.5439],[112.1806,-8.1618,137.561],[112.1904,-8.153,141.4965],[112.1909,-8.1504,130.8994],[112.1836,-8.149,131.7544],[112.1786,-8.1508,134.7559],[112.1774,-8.145,126.1303],[112.1751,-8.1432,129.3838],[112.1693,-8.1444,126.2645],[112.1495,-8.1425,123.6307],[112.1382,-8.1359,121.3998],[112.1361,-8.1331,117.5203],[112.1245,-8.129,117.3272],[112.1219,-8.1254,115.4104],[112.1199,-8.1273,126.4685],[112.1165,-8.1576,251.3609],[112.1147,-8.1588,243.1684],[112.1037,-8.1584,225.4917],[112.0975,-8.1664,181.0184],[112.0958,-8.1718,245.8241],[112.094,-8.1736,247.5421],[112.089,-8.1733,258.2823],[112.0786,-8.1875,278.6498],[112.0672,-8.1869,262.563],[112.0576,-8.1836,261.5152],[112.0379,-8.1732,276.0117],[112.0354,-8.1693,180.1975],[112.0316,-8.17,270.5033],[112.029,-8.168,270.2994],[112.0291,-8.1814,312.5078],[112.0271,-8.1846,294.4045],[112.0242,-8.1857,288.9913],[112.0254,-8.1876,290.9971],[112.023,-8.1933,307.8915],[112.0261,-8.1957,314.3623],[112.0264,-8.199,316.3887],[112.0282,-8.2003,319.2415],[112.0254,-8.2059,326.1356],[112.0239,-8.2253,231.9337],[112.022,-8.2269,221.3165],[112.027,-8.2265,264.1266],[112.0293,-8.229,267.1823],[112.0473,-8.2329,180.7792],[112.0487,-8.2271,166.3403],[112.0534,-8.2268,216.399],[112.0618,-8.2311,182.7179],[112.0635,-8.2304,182.7179],[112.0637,-8.2264,203.3616]]]]}}