{"type":"Feature","properties":{"GID_3":"IDN.1.3.6_1","GID_0":"IDN","country":"Indonesia","GID_1":"IDN.1_1","province":"Aceh","NL_NAME_1":"NA","GID_2":"IDN.1.3_1","county":"AcehBesar","NL_NAME_2":"NA","city":"Indrapuri","VARNAME_3":"NA","NL_NAME_3":"NA","TYPE_3":"Kecamatan","ENGTYPE_3":"Sub-district","CC_3":"1108030","HASC_3":"NA","name":"Indrapuri.city"},
"geometry":{"type": "MultiPolygon","coordinates": [[[[95.4638,5.3876,32.9527],[95.4815,5.4,43.0727],[95.4871,5.4076,29.0231],[95.4885,5.4122,30.2131],[95.4965,5.4217,44.9179],[95.5094,5.427,44.8366],[95.5184,5.4346,136.4037],[95.5439,5.4695,296.933],[95.5572,5.4747,388.1525],[95.5531,5.4833,389.2921],[95.5649,5.4878,277.4732],[95.5724,5.4966,214.4846],[95.5714,5.5002,220.5436],[95.5629,5.5075,183.7269],[95.5587,5.5074,243.5366],[95.5515,5.5115,255.4451],[95.5443,5.5212,251.0601],[95.5275,5.5336,264.5273],[95.5163,5.5267,326.2888],[95.5119,5.5138,279.6184],[95.4921,5.4922,138.5286],[95.4842,5.4751,58.0605],[95.4773,5.4709,62.7112],[95.4706,5.4699,42.4726],[95.4682,5.4666,39.8218],[95.4577,5.4616,29.6264],[95.4563,5.455,27.6743],[95.4509,5.4524,22.2495],[95.4509,5.443,18.8713],[95.4312,5.4428,9.5179],[95.4283,5.4534,9.9067],[95.4162,5.4559,12.7113],[95.4085,5.4545,8.8852],[95.4065,5.4485,18.3762],[95.4109,5.4439,15.9786],[95.4073,5.4356,17.0413],[95.4081,5.4308,19.2309],[95.4031,5.4301,28.6564],[95.4035,5.4272,28.792],[95.4017,5.4239,32.1244],[95.4049,5.4161,46.4715],[95.3959,5.3996,104.2082],[95.3865,5.3933,118.4673],[95.3776,5.3915,177.5975],[95.3661,5.3791,571.7041],[95.3558,5.372,1079.4921],[95.3434,5.3692,1504.1053],[95.3442,5.3628,1346.9375],[95.3536,5.3503,961.5026],[95.3648,5.3459,942.125],[95.3691,5.3409,968.881],[95.3688,5.3377,939.5518],[95.3654,5.3329,1002.145],[95.3781,5.3201,925.126],[95.3783,5.3128,860.0838],[95.3883,5.3015,1107.4193],[95.3941,5.3049,835.3524],[95.4061,5.3238,266.2958],[95.4197,5.3341,74.3358],[95.4438,5.3662,34.1852],[95.445,5.3715,54.5918],[95.4501,5.3783,68.2176],[95.4638,5.3876,32.9527]]]]}}