{"type":"Feature","properties":{"GID_3":"IDN.24.11.9_1","GID_0":"IDN","country":"Indonesia","GID_1":"IDN.24_1","province":"Riau","NL_NAME_1":"NA","GID_2":"IDN.24.11_1","county":"RokanHulu","NL_NAME_2":"NA","city":"RambahHilir","VARNAME_3":"NA","NL_NAME_3":"NA","TYPE_3":"Kecamatan","ENGTYPE_3":"Sub-district","CC_3":"1407041","HASC_3":"NA","name":"Rambah_Hilir.city"},
"geometry":{"type": "MultiPolygon","coordinates": [[[[100.2643,0.9312,67.7311],[100.2616,0.9096,61.3005],[100.3233,0.9212,59.8032],[100.3378,0.9154,47.103],[100.3525,0.9125,53.7395],[100.3721,0.9123,57.4857],[100.3845,0.9142,53.2397],[100.3952,0.927,51.491],[100.4034,0.9433,53.3183],[100.4123,0.9377,52.306],[100.4147,0.943,52.1667],[100.4189,0.943,50.0701],[100.422,0.9366,48.3266],[100.4264,0.9358,43.1982],[100.4266,0.9308,48.2796],[100.4303,0.9278,53.5719],[100.4389,0.9288,44.4245],[100.4421,0.9278,47.3548],[100.4407,0.9439,42.2023],[100.4526,0.949,45.0883],[100.4592,0.9467,43.0483],[100.4646,0.9484,40.9685],[100.479,0.9586,46.2576],[100.4759,0.9709,42.4328],[100.4782,0.976,47.9267],[100.4821,0.9791,33.144],[100.4849,0.9782,33.7798],[100.4814,0.9886,36.3734],[100.4756,0.9949,33.4898],[100.4709,0.9974,57.3138],[100.4551,1.0145,50.3166],[100.4479,1.0149,56.5571],[100.4408,1.0118,57.6645],[100.4349,1.0136,47.553],[100.433,1.0172,50.2668],[100.4357,1.0248,78.1381],[100.4354,1.0262,81.6147],[100.4312,1.0261,60.9315],[100.4308,1.0323,74.4363],[100.4228,1.0315,75.9502],[100.4159,1.0333,50.9445],[100.4169,1.0252,55.2666],[100.4155,1.0226,50.2468],[100.4125,1.0223,49.5861],[100.4029,1.0267,54.1888],[100.4016,1.0346,59.998],[100.3996,1.0346,62.9415],[100.3975,1.0265,53.8837],[100.3947,1.0236,49.9927],[100.3932,1.0248,58.9404],[100.3932,1.0308,64.5416],[100.3898,1.0368,58.1232],[100.3865,1.0373,67.3767],[100.3815,1.0424,67.9278],[100.3501,1.0325,54.1906],[100.3439,1.0325,57.1694],[100.3343,1.029,56.3938],[100.3207,1.0301,62.4743],[100.3121,1.0291,64.2972],[100.3063,1.025,61.0884],[100.2977,1.0143,68.6661],[100.2952,1.0134,67.6232],[100.2911,1.0037,65.873],[100.2872,1.0004,75.8667],[100.2792,1.0005,70.5622],[100.2696,0.9941,78.5796],[100.236,0.9811,81.5445],[100.2655,0.9406,68.1037],[100.2643,0.9312,67.7311]]]]}}