{"type":"Feature","properties":{"GID_3":"IDN.30.4.8_1","GID_0":"IDN","country":"Indonesia","GID_1":"IDN.30_1","province":"SumateraBarat","NL_NAME_1":"NA","GID_2":"IDN.30.4_1","county":"Dharmasraya","NL_NAME_2":"NA","city":"Sitiung","VARNAME_3":"NA","NL_NAME_3":"NA","TYPE_3":"Kecamatan","ENGTYPE_3":"Sub-district","CC_3":"1311030","HASC_3":"NA","name":"Sitiung.city"},
"geometry":{"type": "MultiPolygon","coordinates": [[[[101.6661,-1.0684,89.9675],[101.6725,-1.0637,90.6126],[101.6818,-1.0642,94.5205],[101.6979,-1.0552,91.2417],[101.7052,-1.0476,87.303],[101.7103,-1.0366,90.2342],[101.7103,-1.0298,92.9179],[101.7247,-1.0003,90.4487],[101.717,-0.9996,88.6962],[101.6958,-0.9894,106.9697],[101.6885,-0.9874,112.1494],[101.6876,-0.9884,105.4617],[101.6846,-0.9859,102.4572],[101.6715,-0.9825,118.9393],[101.6613,-0.9779,128.7657],[101.6485,-0.9634,126.1346],[101.6315,-0.9558,205.0512],[101.618,-0.9409,151.4238],[101.6048,-0.9333,368.5135],[101.5976,-0.9269,241.7338],[101.5865,-0.9295,388.9628],[101.5649,-0.9197,352.0551],[101.5343,-0.9171,396.9711],[101.5326,-0.9188,509.0629],[101.5352,-0.9249,548.5336],[101.5357,-0.9393,106.963],[101.5394,-0.9419,110.455],[101.541,-0.9483,114.1799],[101.5488,-0.9567,90.3609],[101.5522,-0.9701,108.0111],[101.557,-0.9764,106.4344],[101.5583,-0.9843,101.6256],[101.5644,-0.9884,110.1415],[101.5685,-0.9875,109.5904],[101.5661,-0.993,108.1579],[101.5803,-1.0083,102.611],[101.5845,-1.0189,120.0623],[101.5883,-1.0226,107.6176],[101.5973,-1.0391,133.0586],[101.6005,-1.0396,110.8998],[101.6074,-1.047,111.5549],[101.6111,-1.0611,130.9343],[101.6096,-1.062,140.6719],[101.6088,-1.0955,147.8325],[101.6156,-1.0935,136.7773],[101.6274,-1.0858,113.6123],[101.6529,-1.0811,99.5763],[101.664,-1.0752,97.7461],[101.6661,-1.0684,89.9675]]]]}}