{"type":"Feature","properties":{"GID_3":"IDN.25.3.9_1","GID_0":"IDN","country":"Indonesia","GID_1":"IDN.25_1","province":"SulawesiBarat","NL_NAME_1":"NA","GID_2":"IDN.25.3_1","county":"MamujuUtara","NL_NAME_2":"NA","city":"Pedongga","VARNAME_3":"NA","NL_NAME_3":"NA","TYPE_3":"Kecamatan","ENGTYPE_3":"Sub-district","CC_3":"7605032","HASC_3":"NA","name":"Pedongga.city"},
"geometry":{"type": "MultiPolygon","coordinates": [[[[119.3206,-1.2467,4.2756],[119.3201,-1.2449,3.4754],[119.3143,-1.2454,0.0],[119.3115,-1.2566,4.193],[119.3028,-1.2735,0.0],[119.3033,-1.2762,4.5939],[119.3178,-1.2962,0.0],[119.3223,-1.2901,2.458],[119.326,-1.2896,1.2405],[119.3272,-1.2856,2.0505],[119.3326,-1.2891,2.5989],[119.3302,-1.287,3.8166],[119.3302,-1.2846,2.8974],[119.3326,-1.2833,3.4727],[119.3329,-1.2861,3.513],[119.337,-1.2867,3.8076],[119.3481,-1.3026,3.8622],[119.3616,-1.3013,2.354],[119.3629,-1.3027,3.3506],[119.3739,-1.3025,8.45],[119.375,-1.3038,8.8477],[119.4063,-1.3037,16.2801],[119.4063,-1.3025,15.7085],[119.4109,-1.3037,15.5074],[119.4545,-1.3035,23.7588],[119.4702,-1.3013,20.8254],[119.4748,-1.3058,23.646],[119.4758,-1.3055,18.7968],[119.4733,-1.2978,22.5989],[119.4756,-1.2945,24.1698],[119.5058,-1.2745,25.9417],[119.4783,-1.2576,22.6423],[119.4742,-1.2637,23.7877],[119.4719,-1.2634,20.7038],[119.4705,-1.2613,20.1174],[119.4696,-1.2625,20.1174],[119.4653,-1.2613,26.9486],[119.4644,-1.2597,22.4824],[119.45,-1.2612,23.7308],[119.4482,-1.2595,24.5033],[119.4482,-1.2566,22.7227],[119.4374,-1.2502,18.2284],[119.4248,-1.2467,20.4421],[119.4208,-1.2428,22.8103],[119.4192,-1.2344,14.5899],[119.4172,-1.2341,14.2946],[119.4104,-1.2359,12.6813],[119.4094,-1.238,10.8557],[119.4059,-1.2383,13.0573],[119.4011,-1.2427,20.211],[119.399,-1.2427,16.7769],[119.3974,-1.2468,58.6558],[119.3923,-1.2507,12.5495],[119.3732,-1.2495,15.8689],[119.3712,-1.2439,17.7175],[119.3726,-1.2413,22.6744],[119.3718,-1.2386,42.0214],[119.3656,-1.2372,9.6183],[119.3527,-1.2374,6.9915],[119.3527,-1.2448,11.3749],[119.3396,-1.2449,4.3182],[119.3395,-1.2468,6.5867],[119.3206,-1.2467,4.2756]]]]}}