{"type":"Feature","properties":{"GID_3":"IDN.24.3.10_1","GID_0":"IDN","country":"Indonesia","GID_1":"IDN.24_1","province":"Riau","NL_NAME_1":"NA","GID_2":"IDN.24.3_1","county":"IndragiriHilir","NL_NAME_2":"NA","city":"KualaIndragiri","VARNAME_3":"NA","NL_NAME_3":"NA","TYPE_3":"Kecamatan","ENGTYPE_3":"Sub-district","CC_3":"1403050","HASC_3":"NA","name":"Kuala_Indragiri.city"},
"geometry":{"type": "MultiPolygon","coordinates": [[[[103.4772,-0.4473,5.7884],[103.484,-0.4479,9.4183],[103.514,-0.4648,5.0454],[103.5296,-0.4652,14.8472],[103.5466,-0.4704,12.0949],[103.555,-0.4771,8.745],[103.5654,-0.4818,9.2598],[103.6002,-0.4405,9.5605],[103.6044,-0.4326,8.6752],[103.6044,-0.4221,7.8974],[103.6014,-0.4139,0.0],[103.5856,-0.3996,0.0],[103.581,-0.3972,0.0],[103.5691,-0.3949,0.0],[103.5401,-0.3992,0.0],[103.5341,-0.397,0.7496],[103.5239,-0.3871,0.0],[103.5179,-0.3725,0.0],[103.5128,-0.369,0.0],[103.4702,-0.3813,3.9174],[103.463,-0.3806,0.0],[103.4548,-0.3772,0.0],[103.4463,-0.3705,0.0],[103.4264,-0.3762,0.0],[103.4028,-0.3785,0.0],[103.3927,-0.3787,0.0],[103.3677,-0.3744,0.0],[103.3524,-0.3686,0.0],[103.3308,-0.3567,0.0],[103.3192,-0.3616,0.0],[103.3162,-0.3655,8.4271],[103.3369,-0.3832,3.1624],[103.3609,-0.4007,2.1263],[103.3862,-0.4133,5.2713],[103.4362,-0.4336,5.0372],[103.4462,-0.4351,6.5942],[103.4561,-0.4392,9.6136],[103.4595,-0.4432,6.2281],[103.4772,-0.4473,5.7884]]],
[[[103.2761,-0.3525,6.2719],[103.314,-0.3643,4.0287],[103.3158,-0.3612,2.5561],[103.3242,-0.3564,4.4881],[103.3263,-0.3527,0.0],[103.3189,-0.3449,0.0],[103.2826,-0.3258,0.0],[103.2618,-0.3054,0.0],[103.246,-0.305,0.0],[103.2448,-0.3454,6.4688],[103.258,-0.3468,7.0098],[103.2761,-0.3525,6.2719]]],
[[[103.3683,-0.29,3.7241],[103.3616,-0.2848,4.1545],[103.3565,-0.2841,7.9995],[103.3471,-0.2866,8.5749],[103.3445,-0.2848,5.5079],[103.3444,-0.2796,6.597],[103.3498,-0.2721,4.84],[103.3524,-0.2651,6.5423],[103.3432,-0.251,0.0],[103.3073,-0.252,0.0],[103.2768,-0.2436,0.0],[103.2686,-0.2472,0.0],[103.2585,-0.2621,0.0],[103.2519,-0.2684,2.6421],[103.2331,-0.2776,0.0],[103.2343,-0.28,4.7214],[103.2467,-0.2834,5.3197],[103.2514,-0.2897,6.6628],[103.2633,-0.2923,5.0553],[103.2705,-0.296,5.9877],[103.2928,-0.3175,5.9417],[103.3081,-0.3222,3.1346],[103.322,-0.3303,10.6895],[103.3414,-0.3486,11.4723],[103.3644,-0.3575,7.8798],[103.376,-0.3591,8.7737],[103.4078,-0.3575,10.2773],[103.4264,-0.3582,5.6986],[103.4372,-0.3553,9.3872],[103.447,-0.3472,7.1454],[103.4522,-0.3405,0.0],[103.4588,-0.322,2.6031],[103.4593,-0.3132,0.0],[103.438,-0.3019,0.0],[103.4214,-0.3031,1.5765],[103.4038,-0.2932,0.0],[103.3909,-0.2932,2.85],[103.3809,-0.2967,1.3229],[103.3683,-0.29,3.7241]]],
[[[103.5055,-0.3528,6.5224],[103.5081,-0.3528,0.0],[103.5164,-0.3616,0.0],[103.5234,-0.3652,4.3099],[103.5379,-0.3877,2.3065],[103.5627,-0.3833,2.0384],[103.5794,-0.3839,6.3774],[103.5963,-0.3949,0.4783],[103.5986,-0.3949,1.4427],[103.6001,-0.3925,6.189],[103.6054,-0.3957,1.4873],[103.6283,-0.388,0.0],[103.6535,-0.3747,7.5892],[103.6648,-0.366,8.0516],[103.6672,-0.3664,0.0],[103.6692,-0.3641,11.3528],[103.6745,-0.3636,3.4846],[103.6836,-0.3593,9.486],[103.69,-0.3581,3.6432],[103.694,-0.3547,9.3413],[103.6989,-0.3552,5.7668],[103.7156,-0.3504,6.0233],[103.7394,-0.3461,7.7226],[103.7637,-0.3449,1.6792],[103.7783,-0.3472,0.0],[103.7834,-0.3458,0.0],[103.7858,-0.3418,0.0],[103.7464,-0.3193,14.5124],[103.6566,-0.3044,7.6826],[103.6191,-0.3017,6.0637],[103.5929,-0.3024,5.3422],[103.5636,-0.3069,4.5195],[103.5176,-0.33,7.4642],[103.4923,-0.3458,5.3074],[103.4963,-0.3486,6.5153],[103.5017,-0.3492,7.3755],[103.5055,-0.3528,6.5224]]],
[[[103.5109,-0.2249,7.178],[103.5222,-0.2083,0.0],[103.5177,-0.2028,0.0],[103.5125,-0.2003,0.0],[103.4994,-0.2043,0.0],[103.4793,-0.2063,0.0],[103.4482,-0.2143,0.0],[103.424,-0.2311,0.0],[103.4072,-0.2394,0.0],[103.3817,-0.2447,3.5591],[103.3563,-0.2476,0.0],[103.3445,-0.2508,0.0],[103.3529,-0.2635,10.7458],[103.353,-0.2665,7.1729],[103.352,-0.2704,7.1682],[103.3458,-0.2796,4.534],[103.3456,-0.2847,6.6289],[103.3616,-0.2835,9.8933],[103.3792,-0.2946,6.5847],[103.3826,-0.2948,4.1643],[103.3928,-0.291,5.4991],[103.4053,-0.2917,11.3053],[103.4229,-0.3011,9.4525],[103.4393,-0.2996,12.8996],[103.4446,-0.301,10.9494],[103.4588,-0.3102,9.1831],[103.4606,-0.3097,0.0],[103.4678,-0.2893,10.1229],[103.5109,-0.2249,7.178]]],
[[[103.5595,-0.1752,0.0],[103.532,-0.1765,0.0],[103.511,-0.1816,0.0],[103.4988,-0.1876,0.0],[103.4791,-0.2011,5.42],[103.4907,-0.2011,11.9568],[103.5136,-0.1968,9.9625],[103.5292,-0.2046,3.855],[103.5326,-0.2046,0.0],[103.5674,-0.194,0.0],[103.5692,-0.1875,1.5565],[103.5675,-0.1797,0.0],[103.5595,-0.1752,0.0]]]]}}