{"type":"Feature","properties":{"GID_3":"IDN.11.8.28_1","GID_0":"IDN","country":"Indonesia","GID_1":"IDN.11_1","province":"JawaTimur","NL_NAME_1":"NA","GID_2":"IDN.11.8_1","county":"Jember","NL_NAME_2":"NA","city":"Tanggul","VARNAME_3":"NA","NL_NAME_3":"NA","TYPE_3":"Kecamatan","ENGTYPE_3":"Sub-district","CC_3":"3509180","HASC_3":"NA","name":"Tanggul.city"},
"geometry":{"type": "MultiPolygon","coordinates": [[[[113.4514,-8.1917,28.9923],[113.4536,-8.193,27.366],[113.4578,-8.1925,30.1348],[113.4681,-8.1961,29.5456],[113.4692,-8.1975,29.8921],[113.4681,-8.2043,29.9688],[113.4708,-8.2089,29.5421],[113.478,-8.2113,29.2503],[113.4851,-8.21,30.3118],[113.4872,-8.2035,33.1609],[113.4947,-8.1962,39.8851],[113.4972,-8.1869,60.1941],[113.503,-8.1801,94.1217],[113.5082,-8.1693,122.5633],[113.5115,-8.1665,128.6425],[113.5116,-8.163,139.468],[113.5143,-8.1601,155.9275],[113.5185,-8.1501,207.1193],[113.5228,-8.1475,229.8376],[113.5294,-8.1386,283.8531],[113.5362,-8.1335,311.587],[113.5388,-8.1257,351.5846],[113.5461,-8.1177,415.8564],[113.5497,-8.1078,444.5535],[113.5506,-8.0933,563.2161],[113.5487,-8.0906,600.8476],[113.5484,-8.0831,690.1161],[113.5502,-8.0782,812.6725],[113.5501,-8.0606,1115.3411],[113.5539,-8.0479,1495.6608],[113.5528,-8.0424,1693.9589],[113.5579,-8.0305,2197.8772],[113.5601,-8.0293,2245.2781],[113.5576,-8.0244,2237.4539],[113.5597,-8.0116,2173.4158],[113.5622,-8.0072,2226.5859],[113.5653,-8.0064,2145.7852],[113.566,-8.0024,2166.3635],[113.5708,-7.9966,2215.0112],[113.5695,-7.9878,2237.6868],[113.5602,-7.9869,2177.189],[113.5576,-7.9933,2001.7307],[113.5525,-7.9982,1832.9176],[113.5428,-8.0007,1754.4176],[113.5393,-8.0064,1732.1875],[113.5356,-8.0076,1486.1049],[113.5344,-8.0067,1490.3715],[113.5331,-8.0092,1457.8862],[113.5302,-8.0081,1390.9323],[113.5276,-8.017,1614.2501],[113.5142,-8.0138,1289.3784],[113.5042,-8.0072,1176.1006],[113.4944,-8.0051,992.0464],[113.4942,-8.0022,1022.9802],[113.49,-7.9971,902.6573],[113.483,-7.9965,923.4515],[113.4804,-7.9924,806.6248],[113.4764,-7.9965,945.7245],[113.4821,-8.0094,1149.5237],[113.4799,-8.0111,1082.0889],[113.4789,-8.0183,1027.3647],[113.4712,-8.0223,995.8771],[113.4688,-8.0383,911.5012],[113.4634,-8.0507,678.249],[113.4644,-8.0676,631.1063],[113.461,-8.0829,489.9485],[113.4563,-8.0918,367.7352],[113.4441,-8.1042,190.88],[113.4505,-8.1076,157.3781],[113.4524,-8.1121,137.4761],[113.4505,-8.1144,141.0664],[113.4513,-8.1189,109.1462],[113.4447,-8.125,73.3405],[113.4436,-8.1314,65.1719],[113.4389,-8.1341,47.8014],[113.4317,-8.1347,40.9495],[113.4304,-8.1366,33.9646],[113.432,-8.1371,33.9646],[113.4306,-8.1373,33.9646],[113.4293,-8.1409,32.1189],[113.433,-8.1477,29.8964],[113.4298,-8.1511,27.4393],[113.4309,-8.1531,27.327],[113.4336,-8.1569,25.563],[113.4408,-8.1611,27.4405],[113.4374,-8.1698,28.1457],[113.4379,-8.1721,25.2099],[113.4399,-8.175,25.7945],[113.4503,-8.1746,30.6617],[113.4501,-8.176,30.6617],[113.4555,-8.1772,31.747],[113.4565,-8.1794,30.211],[113.4559,-8.186,26.6352],[113.4523,-8.1922,28.9923],[113.4514,-8.1917,28.9923]]]]}}