{"type":"Feature","properties":{"GID_3":"IDN.12.1.7_1","GID_0":"IDN","country":"Indonesia","GID_1":"IDN.12_1","province":"KalimantanBarat","NL_NAME_1":"NA","GID_2":"IDN.12.1_1","county":"Bengkayang","NL_NAME_2":"NA","city":"Monterado","VARNAME_3":"NA","NL_NAME_3":"NA","TYPE_3":"Kecamatan","ENGTYPE_3":"Sub-district","CC_3":"6102031","HASC_3":"NA","name":"Monterado.city"},
"geometry":{"type": "MultiPolygon","coordinates": [[[[109.0926,0.6548,14.3913],[109.1044,0.6354,21.2591],[109.108,0.6446,24.9966],[109.124,0.6524,22.5411],[109.1333,0.6598,20.3644],[109.1399,0.6802,48.1389],[109.1491,0.6937,112.0478],[109.1571,0.6961,76.3814],[109.1927,0.7008,63.1886],[109.2002,0.7059,97.4016],[109.2067,0.7178,78.904],[109.2102,0.7208,98.7021],[109.194,0.7424,66.6696],[109.1858,0.7502,148.3437],[109.1836,0.7564,129.6859],[109.1842,0.7589,102.3057],[109.1868,0.7618,139.9492],[109.1934,0.7639,270.5413],[109.1774,0.782,184.9463],[109.1656,0.7778,97.8693],[109.1595,0.7765,152.5868],[109.1575,0.7777,107.6718],[109.153,0.7875,54.6515],[109.1491,0.7885,36.3762],[109.149,0.7977,56.6134],[109.1518,0.8108,43.8315],[109.1409,0.8153,31.286],[109.1497,0.8253,29.8828],[109.1584,0.8278,46.7493],[109.1817,0.8266,44.3566],[109.1854,0.8394,28.3122],[109.1879,0.8425,19.7601],[109.2132,0.8581,18.8369],[109.205,0.8699,8.474],[109.2095,0.8975,20.8597],[109.2175,0.921,14.3122],[109.2157,0.9245,16.8315],[109.1937,0.9321,6.0228],[109.1851,0.9409,4.6546],[109.1755,0.9623,10.636],[109.1715,0.9616,10.7402],[109.169,0.9555,17.1406],[109.1667,0.954,13.8092],[109.1654,0.9504,8.8608],[109.1626,0.9491,14.4304],[109.1655,0.9456,13.4349],[109.1603,0.9409,12.4832],[109.1627,0.938,6.6138],[109.1603,0.9343,14.2115],[109.1607,0.9183,7.2658],[109.1574,0.9031,6.5597],[109.1471,0.9023,6.7818],[109.1442,0.9007,11.8243],[109.1324,0.884,16.2323],[109.1245,0.8822,31.4412],[109.1167,0.8751,15.0127],[109.1028,0.8673,25.7638],[109.0927,0.862,35.788],[109.0585,0.8509,582.6305],[109.0522,0.8461,684.9447],[109.0409,0.8315,512.5903],[109.0355,0.7787,81.5172],[109.0314,0.7716,74.4865],[109.0243,0.7671,23.7513],[109.0274,0.7496,41.6305],[109.031,0.7404,20.9854],[109.0369,0.7311,35.838],[109.0553,0.7094,34.8002],[109.0564,0.7042,33.9035],[109.0727,0.6805,23.3452],[109.0861,0.6655,21.1123],[109.0926,0.6548,14.3913]]]]}}