{"type":"Feature","properties":{"GID_3":"IDN.32.29.14_1","GID_0":"IDN","country":"Indonesia","GID_1":"IDN.32_1","province":"SumateraUtara","NL_NAME_1":"NA","GID_2":"IDN.32.29_1","county":"Simalungun","NL_NAME_2":"NA","city":"HutabayuRaja","VARNAME_3":"NA","NL_NAME_3":"NA","TYPE_3":"Kecamatan","ENGTYPE_3":"Sub-district","CC_3":"1209170","HASC_3":"NA","name":"Hutabayu_Raja.city"},
"geometry":{"type": "MultiPolygon","coordinates": [[[[99.3097,2.8791,138.0936],[99.3165,2.8859,122.4052],[99.3217,2.886,136.4421],[99.3329,2.8942,128.9973],[99.3383,2.895,110.7918],[99.3411,2.8937,114.7717],[99.3441,2.8957,130.09],[99.3478,2.8952,108.0647],[99.3486,2.9042,156.2171],[99.3382,2.916,154.8867],[99.3327,2.9182,154.5526],[99.3288,2.9237,160.4821],[99.3078,2.9432,137.5221],[99.3042,2.95,144.0815],[99.3062,2.9702,132.5348],[99.3157,3.0073,111.4792],[99.3316,3.0558,91.1205],[99.3372,3.0906,69.4672],[99.3313,3.11,58.3694],[99.3318,3.1412,49.6357],[99.3274,3.1581,47.6248],[99.3237,3.1539,48.594],[99.3204,3.145,53.9814],[99.3195,3.137,58.2967],[99.3113,3.1093,66.0171],[99.2972,3.0763,89.1622],[99.2926,3.072,95.1252],[99.2886,3.061,77.6938],[99.275,3.04,109.3452],[99.2607,3.023,123.9979],[99.2527,3.0166,137.3733],[99.2503,3.0077,133.2422],[99.2455,3.0036,135.0443],[99.2477,2.9992,151.6011],[99.2477,2.9927,161.1809],[99.2444,2.9884,167.5354],[99.246,2.9835,165.2644],[99.2531,2.9786,159.0563],[99.2617,2.9753,157.8401],[99.2522,2.9644,157.6019],[99.2678,2.9629,145.3937],[99.2714,2.9602,150.0562],[99.254,2.9309,179.9556],[99.2492,2.9138,184.9483],[99.2702,2.8881,138.1233],[99.2754,2.8838,210.5007],[99.282,2.8801,198.2218],[99.3015,2.8787,146.9959],[99.3057,2.8815,136.4207],[99.3097,2.8791,138.0936]]]]}}