{"type":"Feature","properties":{"GID_3":"IDN.31.1.12_1","GID_0":"IDN","country":"Indonesia","GID_1":"IDN.31_1","province":"SumateraSelatan","NL_NAME_1":"NA","GID_2":"IDN.31.1_1","county":"BanyuAsin","NL_NAME_2":"NA","city":"RantauBayur","VARNAME_3":"NA","NL_NAME_3":"NA","TYPE_3":"Kecamatan","ENGTYPE_3":"Sub-district","CC_3":"1607010","HASC_3":"NA","name":"Rantau_Bayur.city"},
"geometry":{"type": "MultiPolygon","coordinates": [[[[104.5985,-3.059,1.9312],[104.6104,-3.0539,1.7654],[104.6166,-3.0564,3.9652],[104.6195,-3.0644,2.0485],[104.6339,-3.058,2.3637],[104.6512,-3.0572,1.9781],[104.6489,-3.0532,2.6166],[104.6461,-3.0271,0.0],[104.6258,-3.0006,15.8318],[104.6239,-2.9954,12.3391],[104.6227,-2.98,25.8361],[104.6272,-2.9622,16.8259],[104.6177,-2.9495,18.5048],[104.6074,-2.9297,23.3743],[104.6037,-2.9336,22.8961],[104.6084,-2.9616,16.3039],[104.5649,-2.9669,33.7752],[104.5514,-2.9746,22.9364],[104.5384,-2.9787,12.9442],[104.5302,-2.9795,11.0378],[104.5168,-2.9768,16.2792],[104.5123,-2.9772,16.4788],[104.5026,-2.9754,13.3384],[104.4998,-2.9705,24.6205],[104.4813,-2.9694,23.5005],[104.4763,-2.9717,25.7657],[104.479,-2.978,27.3483],[104.4144,-2.9585,21.4868],[104.3974,-2.9601,21.4014],[104.35,-2.9759,2.9416],[104.3387,-2.9774,26.9673],[104.3322,-2.9773,25.8496],[104.3294,-2.9757,23.2241],[104.3238,-2.977,5.656],[104.3142,-2.9764,7.4757],[104.3077,-2.9677,28.688],[104.2685,-2.9844,18.9294],[104.2258,-2.9751,15.0884],[104.2245,-2.9481,13.2753],[104.2536,-2.9331,30.6911],[104.2439,-2.9305,26.1726],[104.2432,-2.9213,28.0858],[104.2452,-2.9124,33.9001],[104.2546,-2.8965,37.6964],[104.246,-2.898,38.8595],[104.2351,-2.8945,37.6521],[104.2238,-2.8818,43.8962],[104.2165,-2.8777,47.2827],[104.2085,-2.8774,19.8978],[104.174,-2.8831,25.4983],[104.1818,-2.8922,31.683],[104.1844,-2.9027,29.9622],[104.1833,-2.9116,37.5398],[104.1801,-2.9174,14.8905],[104.1827,-2.9174,18.0176],[104.1831,-2.9238,26.1228],[104.1772,-2.9421,23.1472],[104.1755,-2.969,26.4299],[104.1806,-2.9928,22.0226],[104.1794,-3.0201,4.9037],[104.1804,-3.0324,3.1918],[104.1832,-3.0442,3.8794],[104.1876,-3.0525,15.3299],[104.1674,-3.0548,7.2629],[104.1608,-3.0691,4.1963],[104.1628,-3.0776,4.026],[104.1616,-3.082,4.4241],[104.1536,-3.0906,5.7642],[104.1545,-3.1025,3.6725],[104.2437,-3.0861,6.4601],[104.2484,-3.0843,7.4305],[104.2524,-3.0747,6.8178],[104.2568,-3.0746,6.0056],[104.2577,-3.0805,6.243],[104.2599,-3.0816,4.5526],[104.2779,-3.0667,7.6285],[104.2842,-3.0552,5.6618],[104.3082,-3.0587,11.5466],[104.3075,-3.0492,9.8078],[104.2873,-3.0446,10.2614],[104.2879,-3.0284,4.0427],[104.302,-3.0255,5.6042],[104.3217,-3.0186,4.6183],[104.3236,-3.0221,5.0997],[104.3431,-3.0173,3.6607],[104.3757,-3.0208,3.1457],[104.3916,-3.0264,5.8342],[104.4053,-3.0385,9.1321],[104.3973,-3.0603,11.4853],[104.4838,-3.0645,2.7684],[104.4925,-3.0683,2.4374],[104.5024,-3.0682,2.2227],[104.5034,-3.0801,2.3612],[104.5232,-3.0747,2.8243],[104.5425,-3.0642,2.4315],[104.5527,-3.0568,2.411],[104.5614,-3.0635,3.0926],[104.5778,-3.0617,1.2812],[104.5784,-3.0629,1.2812],[104.5789,-3.0598,0.0],[104.5814,-3.0636,0.6001],[104.5849,-3.0654,0.0],[104.5929,-3.0625,4.5965],[104.5937,-3.0642,2.6075],[104.5914,-3.0731,0.9751],[104.5952,-3.0782,0.7621],[104.5986,-3.0791,0.0],[104.6046,-3.0731,2.3643],[104.61,-3.0593,2.0817],[104.5998,-3.0621,1.6407],[104.5985,-3.059,1.9312]],
[[104.6107,-3.0537,1.9772],[104.5992,-3.0495,1.6569],[104.6031,-3.0415,3.2923],[104.6019,-3.0321,0.0],[104.6032,-3.0251,0.8101],[104.6134,-3.0241,1.9341],[104.6054,-3.0366,1.9985],[104.6107,-3.0537,1.9772]]]]}}