{"type":"Feature","properties":{"GID_3":"IDN.28.11.23_1","GID_0":"IDN","country":"Indonesia","GID_1":"IDN.28_1","province":"SulawesiTenggara","NL_NAME_1":"NA","GID_2":"IDN.28.11_1","county":"Muna","NL_NAME_2":"NA","city":"Sawerigadi","VARNAME_3":"NA","NL_NAME_3":"NA","TYPE_3":"Kecamatan","ENGTYPE_3":"Sub-district","CC_3":"7402051","HASC_3":"NA","name":"Sawerigadi.city"},
"geometry":{"type": "MultiPolygon","coordinates": [[[[122.4812,-4.8751,44.7339],[122.5189,-4.8509,47.0503],[122.5205,-4.836,47.8504],[122.5088,-4.8076,27.5664],[122.511,-4.7882999999999996,21.7874],[122.5152,-4.7925,29.453],[122.5497,-4.8039,43.7206],[122.5545,-4.7991,46.3305],[122.5545,-4.7957,40.2321],[122.5449,-4.7672,30.7378],[122.5349,-4.7556,23.2579],[122.5282,-4.7511,17.7937],[122.5192,-4.75,18.114],[122.5072,-4.7436,10.5722],[122.5046,-4.7444,6.1132],[122.4995,-4.7497,8.3804],[122.4905,-4.7537,12.1764],[122.4828,-4.7333,5.1764],[122.4809,-4.7306,4.067],[122.4745,-4.7274,2.4405],[122.4776,-4.7313,3.7855],[122.4742,-4.7302,4.061],[122.4766,-4.739,2.6535],[122.4749,-4.7377,0.0],[122.4675,-4.7393,0.0],[122.4676,-4.7431,3.743],[122.4641,-4.7419,2.0305],[122.4579,-4.7439,2.0059],[122.4653,-4.7625,12.4963],[122.4732,-4.7766,17.2887],[122.4754,-4.7843,19.2066],[122.4416,-4.8313,12.9328],[122.4355,-4.8459,24.1507],[122.4812,-4.8751,44.7339]]]]}}