{"type":"Feature","properties":{"GID_3":"IDN.1.6.2_1","GID_0":"IDN","country":"Indonesia","GID_1":"IDN.1_1","province":"Aceh","NL_NAME_1":"NA","GID_2":"IDN.1.6_1","county":"AcehSingkil","NL_NAME_2":"NA","city":"GunungMeriah","VARNAME_3":"NA","NL_NAME_3":"NA","TYPE_3":"Kecamatan","ENGTYPE_3":"Sub-district","CC_3":"1102031","HASC_3":"NA","name":"Gunung_Meriah.city"},
"geometry":{"type": "MultiPolygon","coordinates": [[[[97.9073,2.3264,5.7703],[97.9158,2.3254,5.6874],[97.9153,2.3225,5.5927],[97.9211,2.3236,5.9715],[97.9252,2.3259,7.9147],[97.9277,2.3298,6.835],[97.9306,2.3301,6.2942],[97.9314,2.332,10.8447],[97.9334,2.3311,10.6184],[97.9351,2.334,13.1761],[97.937,2.3333,11.0201],[97.9416,2.3362,15.6592],[97.9413,2.3391,15.3811],[97.9465,2.344,20.6986],[97.9466,2.3505,23.6806],[97.949,2.3557,26.7266],[97.9509,2.3561,23.6896],[97.9558,2.3529,21.5673],[97.9561,2.3604,16.0625],[97.9605,2.3637,18.3045],[97.966,2.3634,20.377],[97.9681,2.3667,25.384],[97.9688,2.3632,26.8806],[97.9666,2.3604,23.172],[97.9683,2.3581,23.8543],[97.9684,2.3519,27.0258],[97.9834,2.352,39.0342],[97.9855,2.3533,44.482],[97.9871,2.3506,45.4815],[97.992,2.3532,43.384],[97.9973,2.3511,68.1942],[98.0003,2.3542,64.1387],[98.0036,2.355,59.9861],[98.0197,2.3452,23.1871],[98.0253,2.3444,48.6977],[98.0302,2.3453,68.1411],[98.0396,2.3532,81.0594],[98.0464,2.356,73.588],[98.0634,2.3572,61.4891],[98.0678,2.3626,65.9008],[98.0709,2.379,109.2023],[98.0618,2.3845,128.8142],[98.059,2.3839,128.6912],[98.0578,2.3855,100.0187],[98.0451,2.3878,112.2622],[98.0401,2.3904,109.3893],[98.0377,2.3935,87.4972],[98.0407,2.3972,84.4677],[98.0411,2.4007,64.6709],[98.045,2.4034,70.0097],[98.0449,2.412,93.9576],[98.0438,2.4127,76.8342],[98.0361,2.4128,86.0479],[98.0287,2.4083,64.4977],[98.0268,2.409,68.8983],[98.0258,2.415,79.7903],[98.0174,2.4149,51.2714],[98.013,2.4124,45.8766],[98.013,2.4099,41.2251],[98.0078,2.4145,61.8264],[97.9992,2.4142,59.9507],[97.9964,2.4188,58.4727],[97.9867,2.4106,52.8466],[97.9842,2.4138,40.9806],[97.9848,2.4158,31.1253],[97.9712,2.4207,8.2661],[97.9669,2.4268,8.9945],[97.9591,2.4285,9.1137],[97.9582,2.4307,3.5],[97.9617,2.4323,3.5],[97.9665,2.4384,11.2546],[97.9667,2.4404,6.8144],[97.9625,2.4448,8.554],[97.9461,2.4482,54.4626],[97.9394,2.4474,47.3013],[97.9339,2.4493,38.0843],[97.9271,2.4444,49.5238],[97.9265,2.4397,55.9253],[97.9235,2.4347,45.6364],[97.9094,2.4348,21.8738],[97.9046,2.4271,25.9015],[97.9078,2.4273,29.859],[97.9092,2.4024,35.64],[97.9059,2.4019,40.5084],[97.9078,2.3977,18.356],[97.9062,2.3955,27.3164],[97.9064,2.3924,8.2227],[97.9019,2.3864,9.9384],[97.9001,2.3853,7.3739],[97.8941,2.3881,9.8961],[97.8909,2.3866,6.8466],[97.8866,2.3874,7.0385],[97.8852,2.386,7.2653],[97.8805,2.3883,5.7843],[97.8573,2.3613,7.9375],[97.9053,2.3436,11.7276],[97.9003,2.338,5.7851],[97.8991,2.3276,6.257],[97.9073,2.3264,5.7703]]],
[[[98.0159,2.4468,67.1247],[98.0144,2.4471,61.1788],[98.0129,2.445,47.3818],[98.0136,2.4433,70.8571],[98.0105,2.4378,64.9742],[98.0197,2.4366,73.5713],[98.0191,2.448,71.918],[98.0159,2.4468,67.1247]]],
[[[97.9278,2.4577,43.1688],[97.9304,2.4619,50.7719],[97.9299,2.4656,54.892],[97.9244,2.4587,54.8054],[97.9278,2.4577,43.1688]]]]}}