{"type":"Feature","properties":{"GID_3":"IDN.3.7.5_1","GID_0":"IDN","country":"Indonesia","GID_1":"IDN.3_1","province":"BangkaBelitung","NL_NAME_1":"NA","GID_2":"IDN.3.7_1","county":"Pangkalpinang","NL_NAME_2":"NA","city":"TamanSari","VARNAME_3":"NA","NL_NAME_3":"NA","TYPE_3":"Kecamatan","ENGTYPE_3":"Sub-district","CC_3":"1971040","HASC_3":"NA","name":"Taman_Sari.city"},
"geometry":{"type": "MultiPolygon","coordinates": [[[[106.1071,-2.1287,4.146],[106.1073,-2.1304,4.5107],[106.1087,-2.13,7.0626],[106.1187,-2.1245,5.1315],[106.1199,-2.1224,7.3486],[106.1182,-2.1203,2.2919],[106.1219,-2.1158,2.1446],[106.1182,-2.1138,4.6845],[106.1187,-2.1126,3.0742],[106.1126,-2.1121,8.7866],[106.1121,-2.1157,14.3185],[106.11,-2.1154,18.5411],[106.1096,-2.118,17.7589],[106.1082,-2.1178,15.8269],[106.1071,-2.1287,4.146]]]]}}