{"type":"Feature","properties":{"GID_2":"BRN.3.1_1","GID_0":"BRN","country":"Brunei","GID_1":"BRN.3_1","province":"Temburong","NL_NAME_1":"NA","county":"Amo","VARNAME_2":"NA","NL_NAME_2":"NA","TYPE_2":"Mukim","ENGTYPE_2":"Mukim","CC_2":"NA","HASC_2":"BN.TE.AM","name":"Amo.county"},
"geometry":{"type": "MultiPolygon","coordinates": [[[[115.0882,4.6479,39.0182],[115.0893,4.6401,34.1494],[115.0975,4.6183,24.7828],[115.0959,4.6162,34.0457],[115.084,4.6136,89.9536],[115.0844,4.6034,61.3456],[115.0888,4.5995,51.7013],[115.1053,4.5949,72.1888],[115.1557,4.5488,159.3206],[115.1538,4.5433,280.3703],[115.1353,4.5132,219.8026],[115.1342,4.5078,277.1005],[115.1356,4.4899,344.1991],[115.1383,4.4785,323.2028],[115.1532,4.4626,374.4525],[115.1547,4.4588,308.6661],[115.1561,4.3947,372.7059],[115.1653,4.3932,462.7466],[115.2105,4.376,389.3],[115.2267,4.376,478.0334],[115.2493,4.3789,744.057],[115.257,4.373,735.8684],[115.2598,4.3525,838.0207],[115.2621,4.3464,847.298],[115.2667,4.3453,992.8966],[115.2932,4.3503,1377.6868],[115.3022,4.3467,1113.5449],[115.3133,4.338,1093.1252],[115.3158,4.3293,950.2627],[115.3217,4.32,946.5591],[115.3278,4.3146,1061.2178],[115.3331,4.3124,1133.4707],[115.3394,4.3115,1269.4834],[115.3459,4.3133,1439.2128],[115.3673,4.3272,1290.1002],[115.3749,4.3357,1059.6814],[115.3759,4.3427,1168.1001],[115.3759,4.3536,1306.7506],[115.371,4.3615,1273.0618],[115.3626,4.3688,809.4506],[115.3512,4.391,867.1284],[115.3454,4.3971,934.8297],[115.324,4.4103,816.7872],[115.315,4.4183,600.3343],[115.3097,4.4257,501.8678],[115.2983,4.4367,281.3546],[115.2924,4.4479,238.216],[115.2883,4.4617,263.1791],[115.2933,4.4789,347.9829],[115.2877,4.4934,262.2435],[115.289,4.5015,267.4804],[115.2872,4.5059,301.0357],[115.2887,4.5121,241.6693],[115.2878,4.5164,179.1904],[115.2813,4.5219,238.2567],[115.2807,4.5256,358.0215],[115.2812,4.5388,311.062],[115.2835,4.5478,496.8712],[115.2804,4.5537,470.5417],[115.2802,4.5598,548.7849],[115.2823,4.5635,453.7691],[115.2639,4.567,591.4218],[115.2526,4.5669,529.2618],[115.2468,4.5651,409.1971],[115.2336,4.5659,345.042],[115.1968,4.5938,157.5723],[115.1846,4.6124,103.8303],[115.1847,4.6156,108.6789],[115.2105,4.6486,92.1499],[115.2099,4.6512,56.6411],[115.1941,4.6659,77.6816],[115.1877,4.6672,50.1098],[115.1795,4.6653,94.3365],[115.1716,4.6658,123.0972],[115.1489,4.6408,49.8571],[115.1232,4.6428,128.3318],[115.1158,4.6505,37.3655],[115.1078,4.6483,5.106],[115.0882,4.6479,39.0182]]]]}}