{"type":"Feature","properties":{"GID_3":"IDN.18.6.14_1","GID_0":"IDN","country":"Indonesia","GID_1":"IDN.18_1","province":"MalukuUtara","NL_NAME_1":"NA","GID_2":"IDN.18.6_1","county":"KepulauanSula","NL_NAME_2":"NA","city":"TaliabuBaratLaut","VARNAME_3":"NA","NL_NAME_3":"NA","TYPE_3":"Kecamatan","ENGTYPE_3":"Sub-district","CC_3":"8203062","HASC_3":"NA","name":"Taliabu_Barat_Laut.city"},
"geometry":{"type": "MultiPolygon","coordinates": [[[[124.3405,-1.879,1.2126],[124.4438,-1.8792,768.2252],[124.4439,-1.8363,802.234],[124.4391,-1.8367,804.947],[124.4308,-1.7822,546.1732],[124.4259,-1.7291,298.2028],[124.417,-1.7291,277.5663],[124.3811,-1.7195,106.4375],[124.3684,-1.7189,1.013],[124.367,-1.7254,6.9207],[124.3681,-1.7272,3.6614],[124.3667,-1.7292,0.0],[124.3715,-1.734,2.6678],[124.3721,-1.7419,2.1678],[124.3688,-1.7423,0.3972],[124.3653,-1.7453,0.6236],[124.3622,-1.751,0.0],[124.3645,-1.7555,0.0],[124.3631,-1.76,0.7097],[124.3653,-1.7605,3.276],[124.3659,-1.7632,0.0],[124.3649,-1.7654,3.037],[124.3642,-1.7627,0.0],[124.3609,-1.7613,2.056],[124.3605,-1.7702,0.0],[124.3577,-1.7721,0.0],[124.3541,-1.781,0.0],[124.3482,-1.788,0.0],[124.3467,-1.8027,1.6839],[124.3484,-1.8047,4.5978],[124.3456,-1.8059,0.0],[124.3453,-1.811,1.6606],[124.3422,-1.8148,0.0],[124.3445,-1.8226,4.6437],[124.3424,-1.8255,3.6709],[124.342,-1.8315,0.0],[124.3455,-1.8386,2.5097],[124.3434,-1.8476,0.0],[124.3444,-1.856,12.1103],[124.3426,-1.8564,1.2378],[124.3415,-1.8599,0.0],[124.3427,-1.8641,7.5982],[124.3405,-1.867,0.0],[124.3405,-1.879,1.2126]]],
[[[124.3599,-1.7588,0.5622],[124.3611,-1.7589,0.0],[124.3603,-1.757,0.0],[124.3597,-1.7575,0.0],[124.3599,-1.7588,0.5622]]],
[[[124.3602,-1.7444,0.8491],[124.3597,-1.7427,0.0],[124.3584,-1.7433,0.0],[124.3589,-1.7443,0.8491],[124.3602,-1.7444,0.8491]]],
[[[124.3586,-1.7391,0.9409],[124.357,-1.739,0.9409],[124.3595,-1.7417,0.0],[124.3602,-1.74,1.2369],[124.3586,-1.7391,0.9409]]],
[[[124.3704,-1.7394,0.618],[124.3716,-1.7396,1.2562],[124.3715,-1.738,2.3196],[124.3707,-1.7383,0.618],[124.3704,-1.7394,0.618]]],
[[[124.3687,-1.7374,1.3353],[124.3688,-1.7357,0.5341],[124.3651,-1.7362,1.2834],[124.3632,-1.7407,1.1134],[124.3674,-1.7415,0.3972],[124.3687,-1.7374,1.3353]]],
[[[124.3614,-1.7321,0.0],[124.3605,-1.7309,0.0],[124.3575,-1.7317,0.5522],[124.356,-1.7335,0.0],[124.3563,-1.7364,0.0],[124.3598,-1.7364,0.0],[124.3614,-1.7321,0.0]]],
[[[124.3659,-1.7219,2.3171],[124.3638,-1.719,0.5588],[124.3618,-1.7235,0.7074],[124.3664,-1.7268,0.0],[124.3668,-1.7253,1.2763],[124.3659,-1.7219,2.3171]]],
[[[124.3325,-1.7276,0.7162],[124.3338,-1.7275,0.7162],[124.3343,-1.7247,0.0],[124.3317,-1.7263,0.0],[124.3325,-1.7276,0.7162]]],
[[[124.3404,-1.7248,0.0],[124.3413,-1.7259,0.0],[124.342,-1.7241,0.0],[124.3411,-1.7238,0.0],[124.3404,-1.7248,0.0]]],
[[[124.3463,-1.7225,1.5755],[124.3449,-1.7223,1.5755],[124.3447,-1.7227,1.5755],[124.3453,-1.7234,0.0],[124.3463,-1.7225,1.5755]]],
[[[124.3381,-1.7144,2.9978],[124.3398,-1.7133,0.0],[124.3401,-1.7102,0.0],[124.3368,-1.7041,0.0],[124.3308,-1.7124,0.0],[124.3305,-1.7171,0.0],[124.3339,-1.7227,0.496],[124.3379,-1.7221,1.4265],[124.3381,-1.7144,2.9978]]],
[[[124.341,-1.8208,1.4246],[124.3375,-1.8227,0.0],[124.338,-1.8275,0.0],[124.3398,-1.8275,3.3479],[124.341,-1.8208,1.4246]]],
[[[124.3139,-1.77,0.0],[124.3144,-1.7697,0.0],[124.3139,-1.769,0.0],[124.3137,-1.7692,0.0],[124.3139,-1.77,0.0]]],
[[[124.3486,-1.7599,1.7543],[124.345,-1.7574,1.0693],[124.3422,-1.7629,0.0],[124.3427,-1.7668,2.403],[124.3461,-1.7687,3.0814],[124.3453,-1.771,2.9469],[124.3437,-1.7694,0.0],[124.3415,-1.7719,0.0],[124.3446,-1.7783,0.0],[124.349,-1.7758,2.1391],[124.3503,-1.7686,3.1392],[124.3486,-1.7599,1.7543]]],
[[[124.3151,-1.7675,0.0],[124.3148,-1.7659,0.0],[124.3131,-1.7668,0.0],[124.3145,-1.7668,0.0],[124.3139,-1.7685,0.0],[124.3151,-1.7675,0.0]]],
[[[124.315,-1.7873,1.4984],[124.3143,-1.7856,1.5119],[124.3115,-1.7863,3.7418],[124.3103,-1.7923,1.2548],[124.3116,-1.7942,2.1524],[124.309,-1.7972,3.6481],[124.3053,-1.7963,3.4402],[124.3043,-1.7984,0.0],[124.3057,-1.8013,0.0],[124.3082,-1.8014,0.0],[124.3158,-1.7925,0.0],[124.315,-1.7873,1.4984]]],
[[[124.2978,-1.7825,0.5785],[124.2986,-1.783,0.0],[124.2986,-1.7817,0.5785],[124.2975,-1.7815,0.5785],[124.2978,-1.7825,0.5785]]],
[[[124.2969,-1.7808,0.0],[124.2973,-1.7813,0.5785],[124.2979,-1.7811,0.0],[124.2972,-1.78,0.0],[124.2969,-1.7808,0.0]]],
[[[124.296,-1.7805,0.0],[124.2962,-1.7809,0.0],[124.2965,-1.7809,0.0],[124.2965,-1.7803,0.0],[124.296,-1.7805,0.0]]],
[[[124.3131,-1.7714,0.0],[124.3129,-1.7718,0.0],[124.3137,-1.7717,0.0],[124.3137,-1.7716,0.0],[124.3131,-1.7714,0.0]]],
[[[124.2924,-1.7449,0.0],[124.2933,-1.7433,0.0],[124.285,-1.7514,3.9256],[124.2832,-1.755,3.0582],[124.285,-1.7634,0.8378],[124.2923,-1.776,0.6182],[124.2955,-1.778,0.0],[124.295,-1.7763,0.8136],[124.2963,-1.7754,1.8975],[124.2987,-1.78,0.0],[124.3046,-1.78,0.0],[124.306,-1.7844,0.0],[124.3112,-1.7855,1.3199],[124.314,-1.7839,1.2589],[124.3139,-1.7814,2.8233],[124.3104,-1.7739,1.2807],[124.3077,-1.7727,0.0],[124.307,-1.7692,4.3253],[124.3021,-1.7674,2.9488],[124.3032,-1.7611,0.6424],[124.2939,-1.7537,1.7866],[124.29,-1.7539,2.0993],[124.2885,-1.7515,3.0655],[124.2858,-1.7537,6.1194],[124.2871,-1.7517,3.0655],[124.2905,-1.7509,0.62],[124.2901,-1.7486,0.7601],[124.2924,-1.7449,0.0]]],
[[[124.3124,-1.7561,0.0],[124.313,-1.756,0.0],[124.3133,-1.7554,0.0],[124.3116,-1.7556,0.0],[124.3124,-1.7561,0.0]]],
[[[124.3127,-1.7504,0.0],[124.3123,-1.7509,0.0],[124.3126,-1.7511,0.0],[124.3132,-1.7504,0.0],[124.3127,-1.7504,0.0]]],
[[[124.3433,-1.7479,0.874],[124.3431,-1.7472,0.874],[124.3419,-1.747,2.7987],[124.3396,-1.7476,0.0],[124.3428,-1.7475,0.874],[124.3433,-1.7479,0.874]]],
[[[124.3534,-1.7464,0.0],[124.3526,-1.7459,0.0],[124.3515,-1.7461,0.5314],[124.3527,-1.7471,0.0],[124.3534,-1.7464,0.0]]],
[[[124.3551,-1.7396,0.9636],[124.3529,-1.7394,1.1286],[124.3523,-1.7411,0.0],[124.355,-1.7414,0.0],[124.3551,-1.7396,0.9636]]],
[[[124.3164,-1.7182,1.1897],[124.3124,-1.7193,0.0],[124.3112,-1.7233,0.0],[124.3136,-1.7352,1.2948],[124.315,-1.737,0.0],[124.3172,-1.737,0.493],[124.3161,-1.7398,1.0431],[124.3183,-1.7403,0.6622],[124.3175,-1.7419,0.0],[124.3192,-1.7436,0.6588],[124.3218,-1.7402,0.0],[124.3203,-1.7387,0.0],[124.3211,-1.737,0.0],[124.3183,-1.7272,1.0636],[124.3197,-1.7226,0.0],[124.3164,-1.7182,1.1897]]],
[[[124.2989,-1.7308,0.0],[124.2983,-1.7319,0.0],[124.2997,-1.7332,0.0],[124.2998,-1.7329,0.0],[124.2989,-1.7308,0.0]]],
[[[124.3083,-1.7324,0.0],[124.3088,-1.7289,0.4289],[124.3078,-1.7282,0.4289],[124.3077,-1.7302,0.8785],[124.3083,-1.7324,0.0]]],
[[[124.3031,-1.7292,0.0],[124.3048,-1.7288,0.7023],[124.3052,-1.7272,0.0],[124.303,-1.7274,0.0],[124.3031,-1.7292,0.0]]],
[[[124.3058,-1.7264,0.0],[124.3062,-1.7256,0.0],[124.3051,-1.7259,0.0],[124.3051,-1.7263,1.6189],[124.3058,-1.7264,0.0]]]]}}