{"type":"Feature","properties":{"GID_3":"IDN.17.1.13_1","GID_0":"IDN","country":"Indonesia","GID_1":"IDN.17_1","province":"Lampung","NL_NAME_1":"NA","GID_2":"IDN.17.1_1","county":"BandarLampung","NL_NAME_2":"NA","city":"TelukBetungUtara","VARNAME_3":"NA","NL_NAME_3":"NA","TYPE_3":"Kecamatan","ENGTYPE_3":"Sub-district","CC_3":"1871050","HASC_3":"NA","name":"Teluk_Betung_Utara.city"},
"geometry":{"type": "MultiPolygon","coordinates": [[[[105.271,-5.4435,8.7167],[105.273,-5.4461,7.9641],[105.275,-5.4403,14.6439],[105.278,-5.437,21.2321],[105.2757,-5.4323,77.7195],[105.2757,-5.4269,82.5216],[105.272,-5.4229,83.7094],[105.2695,-5.4228,87.7321],[105.2691,-5.427,96.532],[105.2626,-5.4256,112.573],[105.2515,-5.428,82.9266],[105.2514,-5.4249,119.1347],[105.2405,-5.4253,169.5389],[105.2383,-5.43,132.5817],[105.2313,-5.4313,94.3357],[105.2306,-5.4332,108.0014],[105.2263,-5.4303,110.25],[105.2194,-5.4296,196.4288],[105.2168,-5.4271,174.4097],[105.213,-5.428,214.3825],[105.2126,-5.427,210.4005],[105.2115,-5.4294,214.3825],[105.2057,-5.4294,246.6259],[105.2059,-5.4419,201.0191],[105.2076,-5.4435,231.1263],[105.2108,-5.4423,209.5053],[105.2145,-5.4463,145.9854],[105.2194,-5.4431,120.1446],[105.2227,-5.4434,111.009],[105.2277,-5.4388,107.6447],[105.23,-5.4388,88.4261],[105.2303,-5.4365,84.7164],[105.2313,-5.4381,88.4261],[105.2317,-5.4363,84.7164],[105.2333,-5.4371,68.3916],[105.2329,-5.4357,68.8039],[105.2346,-5.437,63.9931],[105.2381,-5.4345,74.1554],[105.2465,-5.4369,53.146],[105.246,-5.4401,68.8561],[105.2472,-5.4378,53.146],[105.2493,-5.4393,26.1226],[105.2526,-5.4377,61.5045],[105.2546,-5.4409,58.3649],[105.2589,-5.4392,50.6337],[105.2618,-5.4431,34.6322],[105.2616,-5.4452,19.817],[105.271,-5.4435,8.7167]]]]}}