{"type":"Feature","properties":{"GID_3":"IDN.32.15.1_1","GID_0":"IDN","country":"Indonesia","GID_1":"IDN.32_1","province":"SumateraUtara","NL_NAME_1":"NA","GID_2":"IDN.32.15_1","county":"Langkat","NL_NAME_2":"NA","city":"Babalan","VARNAME_3":"NA","NL_NAME_3":"NA","TYPE_3":"Kecamatan","ENGTYPE_3":"Sub-district","CC_3":"1213160","HASC_3":"NA","name":"Babalan.city"},
"geometry":{"type": "MultiPolygon","coordinates": [[[[98.2976,4.0214,6.0554],[98.2954,4.0185,6.3902],[98.292,4.0211,4.7945],[98.2878,4.0253,4.8856],[98.2875,4.0302,2.2261],[98.2832,4.0277,0.6966],[98.2805,4.0281,0.0],[98.2826,4.0213,8.2407],[98.2819,4.001,2.6195],[98.2935,4.0061,6.262],[98.2935,3.9862,6.7239],[98.2973,3.9901,8.3744],[98.2975,3.9871,13.4503],[98.3005,3.9864,11.1499],[98.2991,3.9853,8.2483],[98.2999,3.9842,10.1246],[98.3018,3.9847,12.2311],[98.3033,3.9803,17.1328],[98.3053,3.9809,6.5322],[98.3141,3.9711,21.4344],[98.3245,3.9715,17.9399],[98.3341,3.9846,4.7974],[98.3364,3.9941,3.6724],[98.3458,4.0035,2.2105],[98.3537,4.0152,1.8904],[98.354,4.0233,4.4866],[98.3675,4.0277,1.7077],[98.3705,4.0303,1.6658],[98.3793,4.0428,2.2926],[98.3793,4.0475,3.1061],[98.3815,4.052,2.2785],[98.3902,4.061,2.0554],[98.4043,4.069,0.0],[98.3963,4.0749,0.0],[98.3895,4.0778,0.0],[98.3829,4.0752,0.2466],[98.3745,4.0745,0.0],[98.3716,4.0716,0.3396],[98.3698,4.0735,0.0],[98.3516,4.0783,0.0],[98.3438,4.0754,1.1445],[98.3174,4.073,0.0],[98.3113,4.0686,0.0],[98.311,4.0516,0.0],[98.3072,4.0428,0.0],[98.3048,4.0414,0.0],[98.3074,4.0277,5.7988],[98.3146,4.0201,6.7634],[98.3077,4.0125,3.5331],[98.2995,4.0219,4.8514],[98.2978,4.0229,4.4598],[98.2976,4.0214,6.0554]]]]}}