{"type":"Feature","properties":{"GID_3":"IDN.10.24.8_1","GID_0":"IDN","country":"Indonesia","GID_1":"IDN.10_1","province":"JawaTengah","NL_NAME_1":"NA","GID_2":"IDN.10.24_1","county":"Purbalingga","NL_NAME_2":"NA","city":"Karangmoncol","VARNAME_3":"NA","NL_NAME_3":"NA","TYPE_3":"Kecamatan","ENGTYPE_3":"Sub-district","CC_3":"3303150","HASC_3":"NA","name":"Karangmoncol.city"},
"geometry":{"type": "MultiPolygon","coordinates": [[[[109.4834,-7.3109,134.1777],[109.4852,-7.3021,146.202],[109.4946,-7.2953,160.3487],[109.4978,-7.2881,181.215],[109.4956,-7.2857,317.1056],[109.487,-7.2847,242.9297],[109.485,-7.2814,235.2163],[109.4875,-7.2796,251.9603],[109.4875,-7.2724,257.2009],[109.4831,-7.2698,276.6873],[109.4821,-7.2657,308.2928],[109.4791,-7.2639,329.6651],[109.4832,-7.2537,463.4928],[109.4839,-7.2427,621.574],[109.4826,-7.2407,686.1504],[109.4861,-7.2228,890.9],[109.4799,-7.222,1073.0502],[109.4694,-7.2099,987.6176],[109.4624,-7.2042,947.5377],[109.4569,-7.1957,977.1074],[109.4576,-7.1903,913.3114],[109.4601,-7.1874,779.8045],[109.4588,-7.185,789.1579],[109.4565,-7.1849,905.8304],[109.4488,-7.1778,781.9607],[109.4406,-7.1779,740.4122],[109.4388,-7.1794,709.5655],[109.4398,-7.1848,642.2865],[109.4364,-7.1976,585.3363],[109.442,-7.2098,553.2205],[109.4396,-7.2198,513.9721],[109.4407,-7.221,480.3322],[109.4381,-7.2248,473.4061],[109.4437,-7.2355,418.9113],[109.4445,-7.2469,369.4218],[109.4426,-7.2558,360.9681],[109.4399,-7.2603,255.201],[109.4432,-7.2681,203.6329],[109.448,-7.2735,190.617],[109.4486,-7.2879,165.9901],[109.4474,-7.2903,171.1434],[109.4497,-7.296,145.9958],[109.4492,-7.3014,134.9818],[109.4511,-7.3082,140.6458],[109.448,-7.3126,117.2884],[109.4479,-7.3154,118.9777],[109.4392,-7.3198,103.4929],[109.4366,-7.3256,95.3138],[109.4363,-7.332,97.6095],[109.433,-7.3365,84.0583],[109.433,-7.3403,78.6673],[109.4358,-7.3372,83.5052],[109.4395,-7.3393,81.436],[109.4569,-7.337,89.9538],[109.4609,-7.3379,92.3521],[109.4672,-7.3353,93.7137],[109.4803,-7.3366,119.6467],[109.4848,-7.3172,132.1702],[109.4834,-7.3109,134.1777]]]]}}