{"type":"Feature","properties":{"GID_3":"IDN.1.12.6_1","GID_0":"IDN","country":"Indonesia","GID_1":"IDN.1_1","province":"Aceh","NL_NAME_1":"NA","GID_2":"IDN.1.12_1","county":"BandaAceh","NL_NAME_2":"NA","city":"LuengBata","VARNAME_3":"NA","NL_NAME_3":"NA","TYPE_3":"Kecamatan","ENGTYPE_3":"Sub-district","CC_3":"1171021","HASC_3":"NA","name":"Lueng_Bata.city"},
"geometry":{"type": "MultiPolygon","coordinates": [[[[95.3422,5.5284,5.7541],[95.3439,5.5283,5.5747],[95.3449,5.533,6.8586],[95.3414,5.5415,4.8327],[95.3415,5.5478,5.2674],[95.3306,5.5536,3.5736],[95.3302,5.551,6.8958],[95.3281,5.5509,6.2628],[95.329,5.546,5.013],[95.3265,5.5459,5.3542],[95.3276,5.5445,5.6625],[95.3255,5.538,4.91],[95.3259,5.5325,4.747],[95.3302,5.5305,6.0225],[95.3302,5.526,5.5488],[95.3365,5.5288,6.5286],[95.3422,5.5284,5.7541]]]]}}