{"type":"Feature","properties":{"GID_3":"IDN.1.8.8_1","GID_0":"IDN","country":"Indonesia","GID_1":"IDN.1_1","province":"Aceh","NL_NAME_1":"NA","GID_2":"IDN.1.8_1","county":"AcehTengah","NL_NAME_2":"NA","city":"Kebayakan","VARNAME_3":"NA","NL_NAME_3":"NA","TYPE_3":"Kecamatan","ENGTYPE_3":"Sub-district","CC_3":"1106032","HASC_3":"NA","name":"Kebayakan.city"},
"geometry":{"type": "MultiPolygon","coordinates": [[[[96.8453,4.6394,1251.1013],[96.8625,4.6347,1231.0],[96.862,4.6382,1231.5635],[96.8665,4.642,1231.7727],[96.8941,4.637,1231.0],[96.9013,4.6391,1237.6912],[96.9193,4.6377,1268.8881],[96.9356,4.6335,1231.0],[96.9371,4.6549,1894.3302],[96.929,4.6567,1856.5859],[96.8871,4.6592,1736.9551],[96.853,4.6664,1448.1462],[96.8402,4.666,1502.194],[96.8231,4.6725,1364.3185],[96.8207,4.6749,1380.7107],[96.8236,4.6793,1329.0057],[96.8204,4.6812,1330.1871],[96.8202,4.6845,1307.6968],[96.8164,4.6848,1325.4574],[96.8122,4.6808,1393.5468],[96.8105,4.6748,1461.1353],[96.8055,4.6758,1491.8467],[96.8046,4.6774,1492.2305],[96.8075,4.6819,1435.9197],[96.8041,4.6799,1471.8173],[96.8019,4.6761,1518.3086],[96.805,4.6678,1613.5315],[96.8169,4.6579,1480.9213],[96.8207,4.6565,1420.1884],[96.8185,4.656,1441.8217],[96.8329,4.6466,1306.9667],[96.8395,4.6445,1270.3594],[96.839,4.6422,1263.8799],[96.8453,4.6394,1251.1013]]]]}}