{"type":"Feature","properties":{"GID_3":"IDN.31.7.17_1","GID_0":"IDN","country":"Indonesia","GID_1":"IDN.31_1","province":"SumateraSelatan","NL_NAME_1":"NA","GID_2":"IDN.31.7_1","county":"MusiRawas","NL_NAME_2":"NA","city":"SumberHarta","VARNAME_3":"NA","NL_NAME_3":"NA","TYPE_3":"Kecamatan","ENGTYPE_3":"Sub-district","CC_3":"1605032","HASC_3":"NA","name":"Sumber_Harta.city"},
"geometry":{"type": "MultiPolygon","coordinates": [[[[102.9138,-3.0944,50.4798],[102.9096,-3.1086,46.4103],[102.9205,-3.1101,55.2672],[102.9283,-3.0994,45.6054],[102.9325,-3.1182,56.4203],[102.9367,-3.1192,52.6181],[102.9411,-3.1273,52.335],[102.9418,-3.1233,54.6436],[102.9478,-3.1195,52.0517],[102.9499,-3.1198,53.0168],[102.9484,-3.1185,51.2003],[102.9529,-3.1149,48.6979],[102.9529,-3.1118,55.64],[102.9552,-3.1116,57.2431],[102.9559,-3.1088,58.4756],[102.9481,-3.1043,49.323],[102.9501,-3.0979,63.9387],[102.9604,-3.0978,49.3848],[102.9653,-3.0998,52.2146],[102.9662,-3.0971,50.2372],[102.9638,-3.0929,47.3785],[102.9669,-3.0852,48.8015],[102.9697,-3.0853,48.4894],[102.9733,-3.0826,42.2427],[102.9753,-3.082,43.7089],[102.979,-3.09,44.49],[102.9808,-3.0887,44.4985],[102.9809,-3.0857,43.5606],[102.9848,-3.0826,48.797],[102.9865,-3.0844,43.8048],[102.9916,-3.0828,42.6838],[102.9943,-3.0847,43.3736],[102.9942,-3.0732,40.5718],[102.986,-3.0675,46.2751],[102.976,-3.0666,47.5004],[102.9733,-3.0401,41.0864],[102.9699,-3.0336,48.9966],[102.9738,-3.0285,44.0522],[102.9769,-3.028,39.4388],[102.9823,-3.0143,42.0151],[102.9888,-3.0098,41.2803],[102.993,-3.0033,40.9148],[102.9963,-3.0025,34.7388],[102.9634,-2.9584,33.7558],[102.9597,-2.9596,36.6875],[102.9577,-2.9571,38.7495],[102.9577,-2.9556,36.8628],[102.9595,-2.9555,33.5668],[102.9612,-2.9575,35.7133],[102.9628,-2.9572,36.5187],[102.964,-2.9519,34.4388],[102.9603,-2.9505,31.4579],[102.9629,-2.9478,33.5644],[102.962,-2.9463,31.6196],[102.9575,-2.9487,36.5573],[102.958,-2.9454,34.7276],[102.9566,-2.9451,34.7276],[102.9479,-2.9479,36.9987],[102.9404,-2.9443,41.2028],[102.9359,-2.9461,44.9952],[102.9397,-2.9553,48.3167],[102.9396,-2.9673,47.705],[102.9308,-2.9697,42.7745],[102.9057,-2.9697,51.9703],[102.9224,-3.0023,48.321],[102.9248,-3.035,45.5444],[102.922,-3.0427,42.7378],[102.9301,-3.0724,44.3962],[102.9298,-3.0791,51.8519],[102.9165,-3.085,42.3001],[102.9138,-3.0944,50.4798]]]]}}