{"type":"Feature","properties":{"GID_3":"IDN.4.5.25_1","GID_0":"IDN","country":"Indonesia","GID_1":"IDN.4_1","province":"Banten","NL_NAME_1":"NA","GID_2":"IDN.4.5_1","county":"Pandeglang","NL_NAME_2":"NA","city":"Pagelaran","VARNAME_3":"NA","NL_NAME_3":"NA","TYPE_3":"Kecamatan","ENGTYPE_3":"Sub-district","CC_3":"3601110","HASC_3":"NA","name":"Pagelaran.city"},
"geometry":{"type": "MultiPolygon","coordinates": [[[[105.8819,-6.409,15.5281],[105.8795,-6.4083,7.7417],[105.8781,-6.405,30.0084],[105.8808,-6.4015,42.8464],[105.8811,-6.3954,49.4599],[105.8762,-6.3924,52.9863],[105.8627,-6.3978,35.8332],[105.8625,-6.3913,43.9942],[105.8652,-6.3911,44.5513],[105.8659,-6.3851,37.3324],[105.8632,-6.3819,34.6206],[105.8641,-6.3813,34.5377],[105.8597,-6.3796,22.6558],[105.8583,-6.3802,14.0358],[105.8592,-6.3813,34.1008],[105.8571,-6.3808,18.6635],[105.8555,-6.387,28.1277],[105.8522,-6.3845,25.3666],[105.8488,-6.385,15.2895],[105.849,-6.3869,14.85],[105.8463,-6.3853,14.9423],[105.8427,-6.3886,25.3411],[105.8287,-6.3928,4.4969],[105.8247,-6.397,3.3534],[105.8268,-6.4082,5.9905],[105.8232,-6.4339,2.9399],[105.8084,-6.4719,0.7555],[105.8124,-6.4699,8.3047],[105.8166,-6.4606,2.4399],[105.8207,-6.4561,5.5129],[105.8207,-6.4537,2.7745],[105.824,-6.4534,2.9881],[105.8246,-6.4472,3.6408],[105.8283,-6.4438,2.9323],[105.8281,-6.4411,2.7868],[105.832,-6.4408,1.7761],[105.83,-6.4361,1.6196],[105.8337,-6.4374,0.7963],[105.8347,-6.4341,2.4702],[105.8391,-6.4366,2.0973],[105.8381,-6.4331,0.9138],[105.8408,-6.4319,4.1161],[105.8442,-6.432,2.5415],[105.8428,-6.4374,5.5011],[105.8488,-6.4361,6.3174],[105.8472,-6.439,10.2079],[105.8481,-6.4399,4.7162],[105.8571,-6.4374,2.5131],[105.8569,-6.443,2.7076],[105.8583,-6.4439,3.2649],[105.859,-6.4403,2.9001],[105.8604,-6.4398,3.3734],[105.8658,-6.4476,3.5439],[105.8655,-6.4503,4.1844],[105.8714,-6.4495,4.7632],[105.874,-6.446,2.8729],[105.875,-6.4495,4.4432],[105.8758,-6.4473,4.3237],[105.8784,-6.4486,5.2056],[105.8779,-6.4475,8.2168],[105.8803,-6.4462,5.0522],[105.8822,-6.4464,7.8376],[105.8814,-6.4495,4.8374],[105.8848,-6.4488,4.2706],[105.8853,-6.4453,4.4648],[105.8892,-6.4483,4.0086],[105.8911,-6.4465,2.8475],[105.8897,-6.446,5.6077],[105.8891,-6.4407,7.8479],[105.8919,-6.4389,5.7875],[105.8914,-6.4353,3.8641],[105.8935,-6.4304,4.5121],[105.8917,-6.4172,6.7342],[105.8887,-6.4083,38.9137],[105.8819,-6.409,15.5281]]]]}}