{"type":"Feature","properties":{"GID_3":"IDN.28.8.22_1","GID_0":"IDN","country":"Indonesia","GID_1":"IDN.28_1","province":"SulawesiTenggara","NL_NAME_1":"NA","GID_2":"IDN.28.8_1","county":"KonaweSelatan","NL_NAME_2":"NA","city":"Wolasi","VARNAME_3":"NA","NL_NAME_3":"NA","TYPE_3":"Kecamatan","ENGTYPE_3":"Sub-district","CC_3":"7405081","HASC_3":"NA","name":"Wolasi.city"},
"geometry":{"type": "MultiPolygon","coordinates": [[[[122.5254,-4.2549,99.1375],[122.5336,-4.2481,96.3489],[122.5333,-4.2464,106.2719],[122.5358,-4.246,121.2787],[122.5362,-4.2432,94.5543],[122.5379,-4.244,92.8374],[122.541,-4.2306,104.0821],[122.5361,-4.1618,325.1458],[122.5127,-4.1492,87.6845],[122.4927,-4.145,309.7907],[122.4871,-4.1453,231.8894],[122.4814,-4.1481,280.1848],[122.4704,-4.1464,334.452],[122.4657,-4.1501,291.8232],[122.4582,-4.1501,329.6223],[122.4519,-4.1549,412.9126],[122.4471,-4.1618,503.8377],[122.4428,-4.1629,371.8022],[122.4232,-4.1575,510.7665],[122.4084,-4.1474,392.3105],[122.394,-4.1421,538.8951],[122.3899,-4.1362,379.0756],[122.3665,-4.159,537.4399],[122.3712,-4.1681,644.1842],[122.3797,-4.1772,552.6749],[122.4115,-4.1916,415.5948],[122.4184,-4.1964,429.6605],[122.4274,-4.2065,422.8512],[122.4322,-4.2193,425.4553],[122.4417,-4.2337,287.5238],[122.4454,-4.2455,163.7231],[122.4502,-4.2502,189.4831],[122.4592,-4.2476,115.7018],[122.4645,-4.2487,108.1272],[122.4688,-4.2465,98.0471],[122.4718,-4.2496,89.4166],[122.4762,-4.25,99.8931],[122.4848,-4.2473,101.2261],[122.4907,-4.2541,70.0699],[122.4921,-4.2593,68.5549],[122.4985,-4.2582,77.4326],[122.5039,-4.2608,77.1545],[122.5041,-4.2583,81.7909],[122.5067,-4.2562,89.1583],[122.5128,-4.259,85.0436],[122.5134,-4.2561,97.3602],[122.5173,-4.2559,105.1714],[122.5204,-4.2585,85.4702],[122.5206,-4.2547,89.2755],[122.5188,-4.2525,108.4248],[122.5213,-4.2516,85.3117],[122.5254,-4.2549,99.1375]]]]}}