{"type":"Feature","properties":{"GID_3":"IDN.11.30.15_1","GID_0":"IDN","country":"Indonesia","GID_1":"IDN.11_1","province":"JawaTimur","NL_NAME_1":"NA","GID_2":"IDN.11.30_1","county":"Probolinggo","NL_NAME_2":"NA","city":"Paiton","VARNAME_3":"NA","NL_NAME_3":"NA","TYPE_3":"Kecamatan","ENGTYPE_3":"Sub-district","CC_3":"3513130","HASC_3":"NA","name":"Paiton.city"},
"geometry":{"type": "MultiPolygon","coordinates": [[[[113.5153,-7.751,25.356],[113.517,-7.7484,22.5788],[113.5161,-7.7455,17.064],[113.52,-7.7445,22.8137],[113.5166,-7.7351,18.8079],[113.517,-7.7321,16.8735],[113.5184,-7.73,17.2035],[113.5204,-7.7305,14.3118],[113.5205,-7.729,13.7577],[113.5206,-7.7306,16.409],[113.5261,-7.731,17.9038],[113.5259,-7.7375,17.8271],[113.5302,-7.7379,23.5223],[113.5311,-7.7393,27.2165],[113.5381,-7.7389,20.6592],[113.5435,-7.736,20.1591],[113.5402,-7.7269,14.8033],[113.5457,-7.7219,8.2216],[113.5461,-7.7325,15.3768],[113.5475,-7.7351,20.2082],[113.5501,-7.7357,22.2768],[113.5519,-7.7409,27.9608],[113.5537,-7.7406,29.8766],[113.5563,-7.7432,51.6299],[113.5732,-7.7444,263.9552],[113.5728,-7.7399,234.2315],[113.5782,-7.733,262.0951],[113.5787,-7.7265,162.4776],[113.5883,-7.7265,267.0197],[113.5905,-7.7237,181.1024],[113.5906,-7.7167,31.7383],[113.5965,-7.7172,15.2668],[113.5979,-7.7153,2.2043],[113.5834,-7.7117,3.641],[113.5793,-7.7081,13.4677],[113.5773,-7.7111,5.8026],[113.574,-7.7105,3.7496],[113.5626,-7.7142,0.5458],[113.5522,-7.7117,0.5455],[113.5509,-7.7135,1.5145],[113.5461,-7.7135,2.8729],[113.5382,-7.71,0.6225],[113.5279,-7.7092,0.8328],[113.5144,-7.7021,0.0],[113.4962,-7.698,0.8351],[113.485,-7.6984,0.0],[113.4774,-7.7042,1.0148],[113.471,-7.7066,0.0],[113.4727,-7.7097,1.3236],[113.4702,-7.7135,2.9251],[113.4611,-7.7205,1.3105],[113.4598,-7.7327,4.3086],[113.4623,-7.7354,5.3341],[113.461,-7.7356,5.3341],[113.4614,-7.7371,6.0013],[113.4655,-7.7342,8.0046],[113.4678,-7.7428,8.7951],[113.4769,-7.7439,12.9856],[113.479,-7.7479,14.3849],[113.4813,-7.7481,15.0291],[113.4834,-7.7521,15.2494],[113.4825,-7.7548,17.0512],[113.4841,-7.7555,22.8836],[113.4819,-7.7562,17.0512],[113.4819,-7.7591,21.3709],[113.4898,-7.758,25.7317],[113.4905,-7.7599,25.6176],[113.4942,-7.7614,24.7769],[113.495,-7.7645,26.3682],[113.5029,-7.7613,23.0574],[113.5055,-7.7645,25.0277],[113.5069,-7.7625,26.9879],[113.5121,-7.7615,31.1462],[113.5173,-7.7518,25.9799],[113.5153,-7.751,25.356]]]]}}