{"type":"Feature","properties":{"GID_3":"IDN.11.37.14_1","GID_0":"IDN","country":"Indonesia","GID_1":"IDN.11_1","province":"JawaTimur","NL_NAME_1":"NA","GID_2":"IDN.11.37_1","county":"Tuban","NL_NAME_2":"NA","city":"Semanding","VARNAME_3":"NA","NL_NAME_3":"NA","TYPE_3":"Kecamatan","ENGTYPE_3":"Sub-district","CC_3":"3523120","HASC_3":"NA","name":"Semanding.city"},
"geometry":{"type": "MultiPolygon","coordinates": [[[[112.0412,-7.0159,170.8378],[112.0407,-7.0201,244.0213],[112.0446,-7.0192,219.8162],[112.0539,-7.0204,124.3684],[112.0568,-7.0191,113.3445],[112.056,-7.0169,119.0665],[112.0659,-7.0166,87.3336],[112.0717,-7.0204,94.8075],[112.0716,-7.025,86.8162],[112.0773,-7.024,56.4521],[112.0792,-7.0265,44.9804],[112.0813,-7.0231,52.2835],[112.0763,-7.0153,67.5674],[112.0761,-7.0097,80.9926],[112.0797,-7.0059,77.9457],[112.0919,-7.007,56.9221],[112.0928,-7.0031,56.1738],[112.0951,-7.0013,68.5669],[112.0917,-6.9963,87.6658],[112.0875,-6.9959,60.7528],[112.0858,-6.9929,55.3919],[112.0879,-6.9911,54.431],[112.0897,-6.9833,37.2803],[112.1391,-6.9827,42.6496],[112.1344,-6.978,55.2229],[112.1337,-6.9709,36.3364],[112.1303,-6.9682,33.6687],[112.1275,-6.9621,22.6304],[112.1293,-6.9511,16.2706],[112.1265,-6.9432,14.9834],[112.1092,-6.937,37.407],[112.101,-6.9373,48.9877],[112.0916,-6.9346,62.7575],[112.0942,-6.9298,55.4767],[112.0927,-6.9184,30.4177],[112.0913,-6.9187,32.6577],[112.0875,-6.9105,25.3145],[112.0808,-6.9056,36.3173],[112.0795,-6.9013,24.9783],[112.0769,-6.9019,24.622],[112.0742,-6.8993,14.8164],[112.0736,-6.9012,19.7747],[112.0702,-6.9003,16.9513],[112.0673,-6.906,16.5792],[112.0602,-6.904,18.8082],[112.0581,-6.9068,22.0242],[112.0385,-6.9013,27.9465],[112.0346,-6.9071,25.9004],[112.0304,-6.9086,17.426],[112.0239,-6.9144,34.9748],[112.0121,-6.9142,54.3644],[112.008,-6.9121,33.1369],[112.0085,-6.9097,29.328],[112.0016,-6.909,37.5921],[111.9956,-6.9241,106.6283],[111.9928,-6.9263,121.2291],[111.9917,-6.9336,91.5054],[111.986,-6.933,109.2404],[111.9837,-6.9361,127.5139],[111.9809,-6.9366,144.5863],[111.9749,-6.9416,151.5225],[111.9724,-6.9395,147.0377],[111.9663,-6.9419,143.1671],[111.966,-6.9485,153.1849],[111.9673,-6.9509,163.7876],[111.9659,-6.9528,160.6185],[111.9711,-6.9575,186.1888],[111.9724,-6.9634,203.6377],[111.9762,-6.9636,225.6169],[111.9819,-6.9684,241.9703],[111.9881,-6.9695,239.5938],[111.9912,-6.9741,247.9621],[111.9973,-6.9662,216.2759],[112.0031,-6.9633,172.5857],[112.0074,-6.964,172.2214],[112.0144,-6.9682,213.785],[112.025,-6.984,168.329],[112.032,-6.9864,151.4252],[112.0379,-6.9855,141.7535],[112.0425,-6.9826,146.3945],[112.0497,-6.9725,54.7713],[112.0593,-6.9837,54.695],[112.0559,-6.9853,54.601],[112.0482,-6.997,112.5154],[112.049,-7.008,114.6529],[112.0443,-7.0112,123.9732],[112.0412,-7.0159,170.8378]]]]}}