{"type":"Feature","properties":{"GID_3":"IDN.10.12.9_1","GID_0":"IDN","country":"Indonesia","GID_1":"IDN.10_1","province":"JawaTengah","NL_NAME_1":"NA","GID_2":"IDN.10.12_1","county":"Kebumen","NL_NAME_2":"NA","city":"Karanganyar","VARNAME_3":"NA","NL_NAME_3":"NA","TYPE_3":"Kecamatan","ENGTYPE_3":"Sub-district","CC_3":"3305200","HASC_3":"NA","name":"Karanganyar.city"},
"geometry":{"type": "MultiPolygon","coordinates": [[[[109.5725,-7.6474,8.8743],[109.5751,-7.6476,11.1908],[109.5766,-7.6445,14.5623],[109.5799,-7.643,10.8252],[109.5857,-7.645,14.9335],[109.5893,-7.6439,10.8603],[109.5915,-7.628,31.2333],[109.5944,-7.627,43.7071],[109.5909,-7.6242,64.8015],[109.5928,-7.6214,85.732],[109.5918,-7.6188,104.1845],[109.603,-7.6158,158.0177],[109.6059,-7.6134,202.2896],[109.6062,-7.6021,294.6475],[109.5987,-7.6023,310.5778],[109.5954,-7.6001,265.0255],[109.5854,-7.6016,209.5369],[109.5815,-7.6087,64.9178],[109.5818,-7.616,25.9914],[109.5736,-7.6087,139.4433],[109.5677,-7.6066,181.164],[109.5639,-7.5972,241.8031],[109.563,-7.5877,110.8093],[109.5579,-7.5803,52.7862],[109.5591,-7.5741,114.5093],[109.561,-7.5732,138.0965],[109.5587,-7.5703,147.4247],[109.5602,-7.5638,274.0627],[109.5547,-7.5625,274.3195],[109.552,-7.5637,296.0809],[109.5492,-7.5623,266.5305],[109.5447,-7.5674,124.5277],[109.545,-7.5737,72.446],[109.5474,-7.5747,110.2485],[109.5433,-7.5785,74.9935],[109.5436,-7.5868,28.1102],[109.5415,-7.5883,33.4226],[109.5422,-7.5909,34.7908],[109.5396,-7.5908,25.3575],[109.539,-7.5937,94.2037],[109.5427,-7.5959,109.2944],[109.5402,-7.6006,26.8324],[109.5432,-7.6036,18.1051],[109.5431,-7.6108,16.799],[109.5451,-7.6112,20.5177],[109.5444,-7.6161,15.3788],[109.5465,-7.622,17.8326],[109.5453,-7.6241,17.2398],[109.5481,-7.6238,10.9088],[109.5483,-7.626,12.8885],[109.5538,-7.6255,8.2629],[109.5506,-7.6273,8.4419],[109.5502,-7.6304,9.066],[109.5548,-7.6337,6.2641],[109.5546,-7.6372,5.954],[109.5589,-7.6377,6.9135],[109.559,-7.6363,6.9135],[109.561,-7.6364,8.1073],[109.5623,-7.6398,11.6026],[109.5598,-7.6427,16.1228],[109.5599,-7.6457,11.5035],[109.5646,-7.6484,7.1575],[109.566,-7.6464,7.7907],[109.5725,-7.6474,8.8743]]]]}}