{"type":"Feature","properties":{"GID_3":"IDN.4.8.27_1","GID_0":"IDN","country":"Indonesia","GID_1":"IDN.4_1","province":"Banten","NL_NAME_1":"NA","GID_2":"IDN.4.8_1","county":"Tangerang","NL_NAME_2":"NA","city":"Sukamulya","VARNAME_3":"NA","NL_NAME_3":"NA","TYPE_3":"Kecamatan","ENGTYPE_3":"Sub-district","CC_3":"3603132","HASC_3":"NA","name":"Sukamulya.city"},
"geometry":{"type": "MultiPolygon","coordinates": [[[[106.4296,-6.1905,18.5717],[106.436,-6.1885,21.8876],[106.4372,-6.1898,21.0838],[106.4443,-6.1891,18.9119],[106.4477,-6.1852,14.2459],[106.4487,-6.1812,15.0206],[106.4467,-6.1736,12.5794],[106.4481,-6.1637,8.2663],[106.4539,-6.1623,9.306],[106.4576,-6.166,15.7898],[106.4633,-6.1653,9.5663],[106.465,-6.1596,8.7025],[106.4674,-6.1585,7.9453],[106.4644,-6.1564,12.9294],[106.4666,-6.1543,8.2319],[106.4681,-6.1561,7.6015],[106.4681,-6.1537,8.245],[106.4704,-6.1523,12.1611],[106.4668,-6.1507,7.628],[106.4675,-6.1462,9.4513],[106.4639,-6.1447,6.9064],[106.4634,-6.1419,7.3424],[106.4614,-6.1434,6.5174],[106.4565,-6.1428,7.3982],[106.4493,-6.1312,6.8881],[106.4455,-6.132,9.3251],[106.4442,-6.1289,5.6254],[106.4391,-6.1273,4.7788],[106.4362,-6.1271,3.5106],[106.4335,-6.1292,4.5873],[106.4315,-6.1373,12.0609],[106.4286,-6.1403,6.7991],[106.4237,-6.1415,14.3837],[106.423,-6.1448,14.3694],[106.4178,-6.1458,8.015],[106.4141,-6.1529,16.0696],[106.416,-6.1572,12.4809],[106.4104,-6.1653,9.9468],[106.4092,-6.1711,16.7405],[106.412,-6.1823,15.2062],[106.4175,-6.183,15.9081],[106.421,-6.1867,22.3186],[106.4296,-6.1905,18.5717]]]]}}