{"type":"Feature","properties":{"GID_3":"IDN.4.3.6_1","GID_0":"IDN","country":"Indonesia","GID_1":"IDN.4_1","province":"Banten","NL_NAME_1":"NA","GID_2":"IDN.4.3_1","county":"KotaTangerang","NL_NAME_2":"NA","city":"Jatiuwung","VARNAME_3":"NA","NL_NAME_3":"NA","TYPE_3":"Kecamatan","ENGTYPE_3":"Sub-district","CC_3":"3671040","HASC_3":"NA","name":"Jatiuwung.city"},
"geometry":{"type": "MultiPolygon","coordinates": [[[[106.5873,-6.1944,24.036],[106.5914,-6.1859,18.2009],[106.5882,-6.1857,17.5617],[106.5881,-6.1829,14.387],[106.5857,-6.1805,11.9193],[106.5852,-6.1748,8.1718],[106.5833,-6.1755,10.7126],[106.5825,-6.1797,11.9867],[106.5767,-6.1782,14.6028],[106.5744,-6.1865,19.6285],[106.5711,-6.1844,18.7833],[106.567,-6.1762,12.1714],[106.5649,-6.1798,13.9851],[106.5533,-6.1841,13.6279],[106.5534,-6.1881,17.6129],[106.5519,-6.1881,16.7027],[106.5515,-6.1898,18.1195],[106.5526,-6.1901,18.1195],[106.5519,-6.1948,18.2083],[106.5534,-6.195,18.9359],[106.5539,-6.1976,18.2168],[106.5526,-6.1994,19.0398],[106.5562,-6.1989,24.6893],[106.5581,-6.2015,26.5457],[106.5691,-6.2063,24.5377],[106.5649,-6.2112,27.8427],[106.5698,-6.2132,26.0315],[106.5714,-6.2123,26.1573],[106.5732,-6.2155,24.3332],[106.5803,-6.2163,23.6906],[106.5829,-6.2207,26.4042],[106.5916,-6.2227,20.7252],[106.5907,-6.2216,20.7252],[106.5947,-6.2146,20.0971],[106.5937,-6.2136,18.4518],[106.5957,-6.205,18.5884],[106.5862,-6.1979,24.5272],[106.5873,-6.1944,24.036]]]]}}