{"type":"Feature","properties":{"ISO3166-1-Alpha-3":"IDN","country":"Indonesia","fill":"#F0F","id":"554","name":"Maluku"},
"geometry":{"type": "MultiPolygon","coordinates": [[[[128.22193,-8.20892,0.0],[128.21355,-8.1994,0.0],[128.19272,-8.20094,0.0],[128.16603,-8.21054,4.3775],[128.13917,-8.21649,14.7494],[128.11793,-8.2068,0.0],[128.10377,-8.21185,25.1923],[128.09799,-8.22096,25.8569],[128.09457,-8.23235,26.023],[128.08717,-8.24432,26.6367],[128.08326,-8.25457,28.3973],[128.08823,-8.26385,8.612],[128.09685,-8.27093,0.0],[128.10369,-8.27508,0.0],[128.1233,-8.28094,0.0],[128.15162,-8.2846,0.0],[128.18198,-8.28509,0.0],[128.20729,-8.28191,0.0],[128.219,-8.27858,0.0],[128.23146,-8.27288,10.075],[128.23764,-8.26409,0.0],[128.23121,-8.25123,0.0],[128.22641,-8.23968,17.1799],[128.22193,-8.20892,0.0]]],
[[[129.03614,-8.22031,0.0],[129.02963,-8.2068,0.0],[128.98951,-8.1889,0.0],[128.98536,-8.18572,0.0],[128.8895,-8.17783,0.0],[128.85841,-8.18572,0.0],[128.83448,-8.1998,180.1028],[128.85231,-8.22291,0.0],[128.88771,-8.24489,0.0],[128.91635,-8.25465,0.0],[128.9297,-8.24969,0.0],[128.93914,-8.24066,7.7209],[128.94923,-8.23602,0.0],[128.96461,-8.24432,0.0],[128.97901,-8.25506,0.0],[128.99342,-8.26149,0.0],[129.0062,-8.2636,0.0],[129.01596,-8.26141,0.0],[129.02768,-8.25091,0.0],[129.035,-8.2361,0.0],[129.03614,-8.22031,0.0]]],
[[[127.68914,-8.23789,0.0],[127.72438,-8.22373,0.0],[127.74488,-8.22047,0.0],[127.76881,-8.21258,0.0],[127.77198,-8.19443,0.0],[127.76059,-8.17392,0.0],[127.74187,-8.15895,0.0],[127.72291,-8.15301,0.0],[127.70265,-8.15146,0.0],[127.68295,-8.15521,5.2549],[127.60401,-8.2068,10.333],[127.62078,-8.21266,22.3154],[127.64812,-8.23577,11.7391],[127.6692,-8.2409,0.0],[127.68914,-8.23789,0.0]]],
[[[127.83253,-8.09857,0.0],[127.7964,-8.10377,0.0],[127.78517,-8.10231,0.0],[127.77418,-8.10345,0.0],[127.76564,-8.10809,11.6483],[127.76157,-8.11745,0.0],[127.77556,-8.12461,30.1129],[127.78517,-8.13161,19.6716],[127.78956,-8.14137,15.8241],[127.79322,-8.16237,23.5309],[127.80209,-8.1762,32.5597],[127.827,-8.19638,17.8912],[127.8436,-8.20574,12.4507],[127.86378,-8.21071,24.1752],[127.92529999999999,-8.2151,15.0193],[127.9393,-8.21819,10.4308],[127.952,-8.22389,14.2479],[127.99415,-8.25189,8.069],[128.00864,-8.25872,0.0],[128.02565,-8.26141,0.0],[128.04151,-8.25506,26.9488],[128.05397,-8.22682,3.1243],[128.06642,-8.22047,0.0],[128.11793,-8.17889,0.0],[128.12745,-8.16131,2.3854],[128.12355,-8.15032,0.0],[128.09059,-8.13104,0.0],[128.05738,-8.14202,0.0],[128.01783,-8.14316,0.0],[127.94028,-8.13104,0.0],[127.86793,-8.10622,0.0],[127.83253,-8.09857,0.0]]],
[[[131.07716,-8.14202,3.7034],[131.07984,-8.13323,22.6756],[131.08546,-8.12493,0.0],[131.05095,-8.09124,0.0],[131.03761,-8.08327,10.4985],[131.01441,-8.09539,22.468],[130.97381,-8.14528,16.8931],[130.95167,-8.14137,18.9564],[130.93849,-8.13258,0.0],[130.92644,-8.1325,0.0],[130.91749,-8.14129,7.7737],[130.91342,-8.15895,0.0],[130.91603,-8.17645,0.0],[130.92107,-8.18776,0.0],[130.92221,-8.19842,0.0],[130.91342,-8.21364,0.0],[130.90553,-8.21941,0.0],[130.87908,-8.23122,35.0189],[130.8694,-8.23349,28.5004],[130.85499,-8.24,12.4988],[130.84425,-8.25433,5.509],[130.83579,-8.26865,12.8438],[130.81528,-8.28533,19.6474],[130.77442,-8.33416,24.1121],[130.76336,-8.35076,0.0],[130.81088,-8.35133,0.0],[130.8213,-8.3471,0.0],[130.83473,-8.33563,0.0],[130.87941,-8.30926,0.0],[130.89243,-8.29608,0.0],[130.89625,-8.28436,5.9081],[130.89373,-8.25123,0.0],[130.90211,-8.24969,0.0],[130.95167,-8.23349,0.0],[130.97967,-8.2361,8.8309],[130.99106,-8.2348,0.0],[131.06121,-8.20582,0.0],[131.10092,-8.17962,2.0632],[131.13168,-8.16766,0.0],[131.16082,-8.15228,0.0],[131.18165,-8.12493,0.0],[131.16017,-8.11875,11.9537],[131.14161,-8.12168,31.0155],[131.12485,-8.1277,17.9611],[131.10939,-8.13104,0.0],[131.10401,-8.13437,0.0],[131.094,-8.14837,10.1225],[131.08888,-8.15154,3.7665],[131.07944,-8.14886,0.0],[131.07716,-8.14202,3.7034]]],
[[[127.22495,-8.10858,0.0],[127.23463,-8.08652,0.0],[127.23422,-8.07041,0.0],[127.23211,-8.05429,0.0],[127.22641,-8.03924,0.0],[127.21632,-8.02695,0.0],[127.20191,-8.01979,19.7257],[127.18588,-8.01873,64.9815],[127.17075,-8.02386,82.8727],[127.15895,-8.03493,95.849],[127.15561,-8.04844,90.7847],[127.15756,-8.07936,129.2978],[127.15211,-8.08953,90.6742],[127.15211,-8.09694,123.7378],[127.20216,-8.11126,0.0],[127.22495,-8.10858,0.0]]],
[[[129.76612,-7.81308,17.4388],[129.7588,-7.80869,11.8185],[129.73292,-7.79803,10.2903],[129.72486,-7.79599,12.5096],[129.6325,-7.79599,0.0],[129.60125,-7.80731,0.0],[129.58758,-7.83563,0.0],[129.58522,-7.90203,0.0],[129.59425,-7.924,0.0],[129.68849,-8.02842,0.0],[129.69386,-8.03826,0.0],[129.7588,-8.05446,1.5167],[129.77638,-8.05535,0.0],[129.78224,-8.04608,17.6021],[129.81153,-7.98301,103.8391],[129.84791,-7.94655,0.0],[129.85906,-7.93255,0.0],[129.86207,-7.91692,7.3011],[129.86101,-7.89886,3.7176],[129.8545,-7.88405,0.0],[129.84116,-7.87786,12.7412],[129.83839,-7.87274,131.9879],[129.84425,-7.84686,14.879],[129.84457,-7.8362,0.0],[129.8392,-7.82985,0.0],[129.82984,-7.82391,0.0],[129.81935,-7.81927,21.9307],[129.81056,-7.8165,50.8646],[129.77524,-7.81707,32.2213],[129.76612,-7.81308,17.4388]]],
[[[130.06666,-7.76263,275.8635],[130.05592,-7.76149,146.6493],[130.04689,-7.76336,91.8],[130.03712,-7.76165,16.7223],[130.03094,-7.76263,0.0],[130.02906,-7.76784,0.0],[130.02565,-7.77256,0.0],[130.03248,-7.775,0.0],[130.04518,-7.77508,0.0],[130.0525,-7.77711,0.0],[130.06593,-7.78786,0.0],[130.08033,-7.78737,70.5379],[130.08375,-7.77256,208.8002],[130.07748,-7.76588,243.444],[130.06666,-7.76263,275.8635]]],
[[[130.01539,-7.74407,3.1655],[130.00782,-7.72487,224.6202],[130.00587,-7.71404,317.1511],[130.00099,-7.70672,219.7828],[129.99195,-7.70208,0.0],[129.9826,-7.70485,0.0],[129.97885,-7.71266,0.0],[129.97975,-7.7221,0.0],[129.98316,-7.73235,0.0],[129.99269,-7.73854,0.0],[129.99415,-7.7444,0.0],[129.99724,-7.74822,0.0],[130.00847,-7.75042,0.0],[130.01539,-7.74407,3.1655]]],
[[[131.13258,-7.6233,0.0],[131.12648,-7.61777,0.0],[131.11899,-7.61932,0.0],[131.10499,-7.629,0.0],[131.09376,-7.63502,1.0827],[131.09034,-7.63592,0.0],[131.08253,-7.63502,0.0],[131.07838,-7.6334,0.0],[131.07789,-7.63079,0.0],[131.06853,-7.63885,0.0],[131.05494,-7.6456,0.0],[131.04029,-7.65016,0.0],[131.01189,-7.6535,0.0],[130.99952,-7.65748,0.0],[130.98951,-7.66383,0.0],[130.98243,-7.67181,0.0],[130.9712,-7.70135,14.1928],[130.98683,-7.71185,32.3786],[131.04379,-7.71347,0.0],[131.0359,-7.6876,16.6149],[131.04982,-7.68377,6.9391],[131.0923,-7.69232,15.4517],[131.10922,-7.68182,1.9578],[131.1194,-7.66326,0.0],[131.13258,-7.6233,0.0]]],
[[[126.72169,-7.66806,23.8587],[126.7116,-7.65887,178.575],[126.70314,-7.64772,186.4772],[126.69272,-7.63763,0.0],[126.64698,-7.61696,186.6357],[126.63453,-7.60687,136.1865],[126.63087,-7.59857,32.0811],[126.63022,-7.58717,33.1093],[126.63136,-7.56536,134.6554],[126.62696,-7.55999,129.5997],[126.61744,-7.56211,187.5344],[126.60353,-7.56943,42.3025],[126.50375,-7.59043,58.7883],[126.48455,-7.59726,202.3315],[126.4524,-7.61956,0.0],[126.39796,-7.64381,32.8596],[126.34645,-7.68914,30.8542],[126.32838,-7.69573,100.2234],[126.30437,-7.69345,31.1368],[126.28004,-7.68808,0.0],[126.26149,-7.68613,0.0],[126.24537,-7.69118,92.4389],[126.21485,-7.70941,45.3543],[126.20314,-7.71347,44.3888],[126.04615,-7.69345,39.7777],[126.03492,-7.68914,0.0],[126.03126,-7.68231,0.0],[126.02272,-7.67604,0.0],[125.99269,-7.66155,0.0],[125.98064,-7.65862,175.7],[125.96892,-7.66009,108.1747],[125.9572,-7.6679,76.6375],[125.94793,-7.67832,157.1317],[125.92115,-7.72112,11.8467],[125.9144,-7.73659,39.9661],[125.90821,-7.74407,0.0],[125.9026,-7.74725,0.0],[125.88803,-7.75189,0.0],[125.88404,-7.75433,0.0],[125.87892,-7.77191,106.716],[125.87623,-7.79469,48.9625],[125.8698,-7.81471,12.4012],[125.85328,-7.82334,0.0],[125.83888,-7.82708,0.0],[125.82504,-7.83701,0.0],[125.81422,-7.85027,0.0],[125.80836,-7.86419,13.1473],[125.80844,-7.93426,0.0],[125.80519,-7.94549,0.0],[125.79819,-7.95322,0.0],[125.78631,-7.97112,0.0],[125.77589,-7.99179,0.0],[125.77418,-8.00758,0.0],[125.78932,-8.01605,0.0],[125.81202,-8.00758,0.0],[125.89772,-7.93922,151.4179],[125.90203,-7.93727,113.5793],[125.91285,-7.93499,158.5488],[125.91814,-7.93255,151.79],[125.9214,-7.9275,336.472],[125.924,-7.91513,480.2181],[125.92506,-7.91188,322.8596],[125.93507,-7.90789,414.4879],[125.94614,-7.90602,188.8674],[125.96941,-7.90586,278.7805],[125.98032,-7.9035,109.2701],[125.99879,-7.89373,275.5163],[126.05397,-7.8847,79.9364],[126.07496,-7.88388,183.5652],[126.0901,-7.89153,0.0],[126.11451,-7.88299,136.044],[126.13689,-7.8886,14.7002],[126.15553,-7.90163,15.2255],[126.16896,-7.9157,22.5116],[126.18979,-7.92352,41.9746],[126.27442,-7.91188,30.6667],[126.30055,-7.91522,22.3308],[126.35027,-7.92929,0.0],[126.37379,-7.93255,14.166],[126.42189,-7.93255,0.0],[126.43328,-7.9367,45.5863],[126.45476,-7.95818,42.8785],[126.46616,-7.96657,18.5911],[126.47527,-7.95534,60.9738],[126.48813,-7.93271,70.5901],[126.49733,-7.92254,19.363],[126.50424,-7.91237,0.0],[126.50416,-7.90309,0.0],[126.50221,-7.89479,47.5098],[126.50441,-7.88812,31.2873],[126.55934,-7.81992,0.0],[126.56837,-7.81414,10.4507],[126.58937,-7.80625,2.9373],[126.59734,-7.80218,0.0],[126.62045,-7.78135,121.7428],[126.63136,-7.77549,31.2001],[126.71339,-7.74749,23.7968],[126.72788,-7.75465,0.0],[126.74903,-7.754,0.0],[126.79233,-7.74749,0.0],[126.80299,-7.75115,0.0],[126.81349,-7.75807,0.0],[126.8235,-7.76238,0.0],[126.83334,-7.75807,0.0],[126.8392,-7.74822,0.0],[126.84002,-7.73943,11.0094],[126.83676,-7.72633,36.9761],[126.83432,-7.71185,0.0],[126.82911,-7.69549,0.0],[126.82163,-7.68027,0.0],[126.81324,-7.66863,8.8196],[126.79884,-7.66424,32.518],[126.73756,-7.67181,316.6923],[126.72169,-7.66806,23.8587]]],
[[[129.68067,-7.55413,536.7922],[129.66375,-7.53655,0.0],[129.65854,-7.53509,0.0],[129.65358,-7.54705,0.0],[129.65528,-7.56048,0.0],[129.67514,-7.57155,0.0],[129.68198,-7.57724,0.0],[129.69459,-7.57757,0.0],[129.71217,-7.56951,94.4699],[129.71388,-7.5582,556.2074],[129.7068,-7.55478,79.9516],[129.70004,-7.55836,161.4192],[129.69068,-7.55999,314.0002],[129.68067,-7.55413,536.7922]]],
[[[127.3895,-7.64967,0.0],[127.39861,-7.64381,0.0],[127.40838,-7.6233,0.0],[127.41285,-7.61777,0.0],[127.41863,-7.61468,0.0],[127.43116,-7.61305,0.0],[127.4673,-7.59905,0.0],[127.4817,-7.5901,0.0],[127.48779999999999,-7.57928,0.0],[127.48927,-7.54453,0.0],[127.48439,-7.5324,11.6209],[127.47023,-7.52776,269.6774],[127.45411,-7.52565,0.0],[127.44068,-7.5206,0.0],[127.41847,-7.50791,0.0],[127.38494,-7.50286,0.0],[127.37273,-7.50612,119.2236],[127.36443,-7.52158,147.5919],[127.36443,-7.5368,171.3823],[127.37574,-7.56992,227.5521],[127.37867,-7.58587,162.0114],[127.37615,-7.59588,143.2551],[127.36988,-7.60027,290.6434],[127.36199,-7.6028,274.3247],[127.3545,-7.60687,368.1121],[127.3484,-7.61533,399.6595],[127.34767,-7.62298,322.3994],[127.35076,-7.6408,262.8045],[127.35768,-7.65569,0.0],[127.3733,-7.65618,0.0],[127.3895,-7.64967,0.0]]],
[[[130.86476,-7.48919,0.0],[130.85865,-7.48691,0.0],[130.84449,-7.51385,10.489],[130.84099,-7.52874,11.962],[130.84523,-7.54209,10.0233],[130.85662,-7.54697,52.0521],[130.89772,-7.55446,58.9146],[130.93767,-7.55576,1.8958],[130.94166,-7.55348,0.6958],[130.95387,-7.5442,1.5743],[130.95851,-7.54209,0.0],[130.96705,-7.54518,0.0],[130.9734,-7.5512,0.0],[130.97918,-7.55527,0.0],[130.98585,-7.55193,0.0],[130.98829,-7.54518,4.3838],[130.98422,-7.53997,12.9753],[130.97657,-7.53639,20.5801],[130.9686,-7.5346,3.8253],[130.98463,-7.51816,0.0],[130.97755,-7.51531,9.1809],[130.94483,-7.52158,0.0],[130.9336,-7.51784,0.0],[130.92042,-7.51092,0.0],[130.90675,-7.5075,0.0],[130.89373,-7.51409,0.9803],[130.86476,-7.48919,0.0]]],
[[[131.18287,-7.41595,0.0],[131.18141,-7.41131,10.8005],[131.1775,-7.40667,33.7214],[131.17482,-7.40423,7.5217],[131.16725,-7.4,0.0],[131.16342,-7.40049,0.0],[131.16017,-7.40293,0.0],[131.15366,-7.40423,0.0],[131.14145,-7.40537,0.0],[131.12477,-7.41041,0.0],[131.06739,-7.41774,0.0],[131.05128,-7.41717,0.0],[131.035,-7.41351,0.0],[131.02711,-7.41302,0.0],[131.01824,-7.41522,0.0],[131.00327,-7.42449,0.0],[130.99106,-7.4389,64.0304],[130.9852,-7.45599,87.8008],[130.98927,-7.47324,108.9449],[131.00489,-7.48577,29.0948],[131.02459,-7.48528,28.8058],[131.04721,-7.4804,22.5192],[131.07179,-7.47942,21.4661],[131.06666,-7.49285,2.515],[131.06316,-7.497,8.3237],[131.05738,-7.50042,4.3861],[131.05738,-7.50791,29.976],[131.06918,-7.5075,10.2514],[131.08033,-7.50368,0.0],[131.08888,-7.49774,0.0],[131.09596,-7.48138,11.3322],[131.10515,-7.47601,5.6424],[131.11647,-7.47186,22.147],[131.12696,-7.4664,11.232],[131.16586,-7.42449,27.8818],[131.18287,-7.41595,0.0]]],
[[[131.28224,-7.3235,10.1752],[131.26954,-7.30291,0.0],[131.26498,-7.29713,0.0],[131.25758,-7.30397,14.7089],[131.24301,-7.32977,0.0],[131.23097,-7.34417,81.986],[131.22348,-7.35125,0.0],[131.21583,-7.35711,54.7098],[131.22755,-7.36248,51.1993],[131.27711,-7.37078,0.0],[131.27101,-7.35711,0.0],[131.29347,-7.34059,1.8513],[131.29762,-7.3366,14.6913],[131.29916,-7.32741,0.0],[131.29762,-7.31911,0.0],[131.29274,-7.31805,0.0],[131.28395,-7.32977,0.0],[131.28224,-7.3235,10.1752]]],
[[[131.65358,-7.16619,0.0],[131.66098,-7.12859,0.0],[131.65431,-7.11289,0.0],[131.63754,-7.10906,0.0],[131.6172,-7.11224,0.0],[131.58985,-7.12021,0.0],[131.56861,-7.13095,0.0],[131.53696,-7.15423,23.8579],[131.52882,-7.1701,26.3144],[131.53207,-7.19036,5.9019],[131.54477,-7.2199,27.2977],[131.53582,-7.2234,8.7794],[131.5267,-7.22552,0.0],[131.50685,-7.22674,0.0],[131.49399,-7.22959,0.0],[131.48902,-7.2365,18.6304],[131.48683,-7.24538,20.5563],[131.48268,-7.25465,20.8269],[131.46266,-7.27874,23.8212],[131.45509,-7.29119,10.5123],[131.4485,-7.30926,11.1802],[131.44972,-7.31959,14.7007],[131.45411,-7.3283,19.2329],[131.45314,-7.33441,8.1901],[131.39698,-7.34344,36.9989],[131.3908,-7.34832,25.4944],[131.38982,-7.35866,0.0],[131.39137,-7.36834,11.0569],[131.39332,-7.37078,18.3497],[131.38836,-7.38193,24.5205],[131.38429,-7.386,17.3098],[131.37965,-7.38934,0.0],[131.37281,-7.39804,0.0],[131.36061,-7.42767,9.2131],[131.35572,-7.43532,4.2848],[131.34702,-7.43825,0.0],[131.34116,-7.43157,0.0],[131.3357,-7.42254,0.0],[131.32814,-7.4179,0.0],[131.3152,-7.42295,2.2551],[131.25473,-7.47226,7.2653],[131.24155,-7.48773,12.5712],[131.23268,-7.50709,7.309],[131.2295,-7.53118,6.6229],[131.22478,-7.54632,7.4561],[131.20248,-7.57952,28.2618],[131.19516,-7.59677,27.552],[131.18971,-7.63242,12.2053],[131.19158,-7.63763,3.3305],[131.18141,-7.64121,8.7666],[131.18133,-7.64959,7.94],[131.19483,-7.68377,32.9243],[131.21168,-7.69492,35.1559],[131.23211,-7.70257,29.898],[131.24985,-7.70664,30.7342],[131.22332,-7.71445,0.0],[131.20387,-7.71331,0.0],[131.16114,-7.69232,0.0],[131.13917,-7.68613,0.0],[131.12257,-7.69101,3.2457],[131.11476,-7.70696,15.0099],[131.11964,-7.73382,0.0],[131.12696,-7.73382,2.8405],[131.12696,-7.72633,32.058],[131.13315,-7.72633,17.2048],[131.13356,-7.73748,26.8044],[131.13738,-7.74342,0.0],[131.14405,-7.7444,0.0],[131.15366,-7.74066,6.6332],[131.15138,-7.75384,16.6392],[131.15675,-7.76605,3.5125],[131.15699,-7.77435,5.4204],[131.13998,-7.77549,17.0355],[131.13998,-7.78167,9.704],[131.14715,-7.78558,16.0944],[131.15528,-7.7916,37.6442],[131.16114,-7.79957,40.7617],[131.16114,-7.80967,19.9008],[131.15284,-7.82187,4.0762],[131.14381,-7.82122,0.0],[131.13299,-7.81658,0.0],[131.11964,-7.8165,0.0],[131.10255,-7.82855,5.2833],[131.09018,-7.84881,11.7937],[131.0857,-7.87176,3.146],[131.0923,-7.89153,0.0],[131.10475,-7.88958,11.5806],[131.11598,-7.8987,0.0],[131.12387,-7.91367,38.6461],[131.12696,-7.92913,30.907],[131.11158,-7.9695,32.006],[131.10662,-7.99131,8.3591],[131.11622,-8.00075,0.0],[131.19077,-8.00661,0.0],[131.22967,-8.00351,3.5787],[131.25733,-7.98707,0.0],[131.26189,-7.97698,0.0],[131.26588,-7.95436,9.2603],[131.27101,-7.94549,0.0],[131.28346,-7.93613,0.0],[131.28932,-7.93719,0.0],[131.29396,-7.94248,0.0],[131.30144,-7.94549,0.0],[131.3108,-7.95403,14.7777],[131.306,-7.9734,43.2143],[131.29151,-8.01133,10.717],[131.29933,-8.02565,0.0],[131.31674,-8.018,0.0],[131.33522,-8.00091,0.0],[131.34547,-7.98707,0.0],[131.3484,-7.97666,0.0],[131.34848,-7.9699,0.0],[131.34978,-7.96413,0.0],[131.35572,-7.95631,0.0],[131.36085,-7.94736,0.0],[131.35727,-7.94158,0.0],[131.34864,-7.93906,57.7812],[131.33863,-7.93922,51.8635],[131.34816,-7.92213,0.0],[131.35808,-7.91229,0.0],[131.36866,-7.90399,18.2645],[131.37965,-7.89153,0.0],[131.38022,-7.87322,0.0],[131.38258,-7.85955,0.0],[131.3899,-7.8471,0.0],[131.43434,-7.81406,4.1982],[131.44117,-7.80584,52.6064],[131.4489,-7.80023,55.3573],[131.46412,-7.79437,0.0],[131.47495,-7.78297,31.3807],[131.469,-7.76181,94.8876],[131.48072,-7.76621,1.0517],[131.49,-7.76328,0.0],[131.49741,-7.75612,0.0],[131.50318,-7.74749,0.0],[131.49692,-7.72633,6.9743],[131.51336,-7.71697,85.322],[131.53858,-7.71258,27.7614],[131.55836,-7.70664,101.0613],[131.57423,-7.69492,0.0],[131.57936,-7.6889,0.0],[131.59864,-7.64853,34.8866],[131.60279,-7.64381,24.1958],[131.61891,-7.63698,77.6253],[131.63307,-7.62005,0.0],[131.64332,-7.59905,0.0],[131.6526,-7.55495,15.2486],[131.66293,-7.53183,0.0],[131.66871,-7.50921,0.0],[131.6609,-7.48691,48.2795],[131.66912,-7.48455,0.0],[131.67555,-7.48016,0.0],[131.67986,-7.47308,0.0],[131.68344,-7.45159,0.0],[131.695,-7.42881,24.8097],[131.69776,-7.42506,4.1345],[131.70362,-7.42539,56.3186],[131.70875,-7.42457,0.0],[131.70924,-7.4179,0.0],[131.70631,-7.41269,0.0],[131.70314,-7.41277,0.0],[131.69923,-7.414,0.0],[131.695,-7.4118,0.0],[131.68727,-7.40586,0.0],[131.67791,-7.40081,0.0],[131.66847,-7.39422,0.0],[131.6609,-7.38388,72.8412],[131.67335,-7.37184,18.0981],[131.67506,-7.35817,0.0],[131.66944,-7.34401,0.0],[131.64869,-7.31032,0.0],[131.64723,-7.30926,0.0],[131.64649,-7.30218,0.0],[131.64723,-7.282,0.0],[131.64275,-7.25482,0.0],[131.64552,-7.24481,2.7354],[131.65463,-7.23358,0.0],[131.66651,-7.22389,5.6848],[131.67457,-7.22259,17.0977],[131.6836,-7.22503,11.1002],[131.69858,-7.22674,57.2623],[131.71119,-7.22389,8.6524],[131.72608,-7.21657,29.6997],[131.73829,-7.20664,15.5834],[131.74334,-7.19606,0.0],[131.73951,-7.19598,0.0],[131.71372,-7.15049,0.0],[131.70997,-7.13747,0.0],[131.70411,-7.13152,0.0],[131.69191,-7.14121,0.0],[131.67652,-7.16058,14.4332],[131.66822,-7.16668,0.0],[131.65463,-7.17213,0.0],[131.65358,-7.16619,0.0]]],
[[[131.91847,-7.10361,1.4786],[131.9004,-7.11004,0.0],[131.87843,-7.10605,0.0],[131.75701,-7.11004,0.0],[131.73219,-7.14121,23.6703],[131.74269,-7.15838,42.229],[131.77223,-7.16497,12.8611],[131.84278,-7.1618,17.6823],[131.87794,-7.16448,12.2453],[131.90398,-7.18035,15.3724],[131.91407,-7.21649,14.2734],[131.92164,-7.22389,17.2606],[131.9559,-7.2492,24.7911],[131.96559,-7.25465,0.0],[131.9817,-7.2457,0.0],[131.98601,-7.22527,0.0],[131.98219,-7.1889,0.0],[131.97706,-7.17409,0.0],[131.95346,-7.15407,4.5408],[131.94809,-7.14121,0.0],[131.94418,-7.12664,0.0],[131.93385,-7.11159,0.0],[131.91847,-7.10361,1.4786]]],
[[[128.67652,-7.17889,0.0],[128.68051,-7.17246,0.0],[128.66822,-7.15814,0.0],[128.65854,-7.14381,0.0],[128.66969,-7.13738,172.3551],[128.69125,-7.13323,0.0],[128.70135,-7.12282,0.0],[128.69972,-7.10955,38.447],[128.68637,-7.09637,0.0],[128.67897,-7.09385,0.0],[128.66082,-7.09246,0.0],[128.65235,-7.08953,0.0],[128.6434,-7.08278,79.5693],[128.62859,-7.06854,0.0],[128.61964,-7.06316,0.0],[128.59246,-7.07301,127.7551],[128.56324,-7.09124,0.0],[128.5394,-7.11224,16.2285],[128.52882,-7.13055,16.6041],[128.53273,-7.15106,28.4336],[128.54664,-7.16269,8.0273],[128.58399,-7.17889,34.8422],[128.62233,-7.21014,27.1977],[128.63868,-7.2199,0.0],[128.67652,-7.17889,0.0]]],
[[[129.14259,-6.99749,0.0],[129.1504,-6.99147,0.0],[129.15284,-6.97617,443.4562],[129.14479,-6.96209,207.4092],[129.13429,-6.96111,239.0326],[129.12501,-6.96575,50.2376],[129.11744,-6.97275,0.0],[129.11622,-6.98333,0.0],[129.12501,-6.99326,0.0],[129.13543,-6.99814,0.0],[129.14259,-6.99749,0.0]]],
[[[129.52906,-6.72308,143.8846],[129.52019,-6.72112,71.0811],[129.50978,-6.7234,96.3853],[129.49708,-6.72259,66.733],[129.48634,-6.7291,0.0],[129.47877,-6.74407,0.0],[129.47788,-6.75604,0.0],[129.48097,-6.76002,0.0],[129.48455,-6.7553,0.0],[129.48618,-6.75457,0.0],[129.48813,-6.76084,0.0],[129.49317,-6.76572,0.0],[129.50131,-6.7706,0.0],[129.51157,-6.76971,0.0],[129.51808,-6.76312,0.0],[129.52906,-6.73919,103.838],[129.53077,-6.73122,18.7803],[129.52906,-6.72308,143.8846]]],
[[[131.62452,-6.70973,0.0],[131.62867,-6.69394,0.0],[131.61931,-6.68255,25.7923],[131.59742,-6.67913,64.6417],[131.56568,-6.69647,19.9838],[131.53736,-6.73805,52.1985],[131.52735,-6.78086,44.1034],[131.55104,-6.80153,0.0],[131.56479,-6.79559,0.0],[131.58204,-6.78167,0.0],[131.59132,-6.76767,0.0],[131.56617,-6.75164,0.0],[131.5687,-6.7326,0.0],[131.58399,-6.7195,0.0],[131.60621,-6.72715,0.0],[131.62452,-6.70973,0.0]]],
[[[134.67604,-6.7575,25.8761],[134.68043,-6.74326,20.197],[134.7033,-6.70778,8.3271],[134.71363,-6.69573,9.3184],[134.72218,-6.68279,22.6727],[134.7295,-6.66481,21.4747],[134.73756,-6.63095,19.2873],[134.73634,-6.61688,15.5085],[134.73015,-6.60475,14.6357],[134.72006,-6.59531,18.2364],[134.70737,-6.58904,31.1148],[134.69606,-6.58799,8.7776],[134.68767,-6.59197,1.8457],[134.68149,-6.59987,0.0],[134.67661,-6.61053,0.0],[134.66578,-6.65049,0.0],[134.63258,-6.70037,0.0],[134.62827,-6.70941,6.8145],[134.6316,-6.72723,0.0],[134.63006,-6.73577,0.0],[134.62143,-6.747,0.0],[134.65366,-6.76881,7.8507],[134.66944,-6.77288,5.419],[134.67604,-6.7575,25.8761]]],
[[[134.72983,-6.54616,5.6177],[134.73439,-6.52581,28.6447],[134.73097,-6.51434,14.1645],[134.72779,-6.50457,24.7932],[134.71949,-6.48626,6.6904],[134.70484,-6.47047,8.7718],[134.68434,-6.45778,13.37],[134.66326,-6.45485,0.0],[134.64479,-6.46445,0.0],[134.63136,-6.47584,15.7764],[134.62379,-6.4861,21.8526],[134.62615,-6.49717,12.5301],[134.63592,-6.50628,0.0],[134.6443,-6.52077,0.0],[134.64812,-6.54192,0.0],[134.65626,-6.55901,0.0],[134.67482,-6.56308,0.0],[134.68849,-6.55853,12.1561],[134.69386,-6.55348,19.7752],[134.70248,-6.55096,15.6258],[134.71534,-6.55299,7.6055],[134.72983,-6.54616,5.6177]]],
[[[130.02166,-6.32497,0.0],[130.02605,-6.31845,260.6688],[130.02076,-6.31243,421.514],[130.00375,-6.30625,53.2187],[129.99781,-6.30975,0.0],[129.99871,-6.31715,0.0],[130.00611,-6.32488,0.0],[130.01368,-6.32838,0.0],[130.02166,-6.32497,0.0]]],
[[[134.60776,-6.42148,2.7166],[134.60231,-6.40455,0.0],[134.58961,-6.38779,12.1799],[134.57472,-6.37477,12.7563],[134.56316,-6.36956,12.0262],[134.5442,-6.36386,16.9452],[134.52866,-6.35027,5.6653],[134.50473,-6.32122,10.4341],[134.49497,-6.3139,10.4962],[134.46355,-6.29697,32.7109],[134.45216,-6.28802,15.937],[134.44614,-6.28541,19.5091],[134.43775,-6.28509,10.2948],[134.42937,-6.28672,0.0],[134.42115,-6.29013,19.4712],[134.41342,-6.29453,18.5923],[134.40642,-6.29957,4.843],[134.39137,-6.31609,17.8285],[134.38673,-6.31959,21.7924],[134.37208,-6.32781,0.0],[134.36451,-6.33359,0.0],[134.35646,-6.34157,0.0],[134.34986,-6.35068,0.0],[134.34718,-6.35963,22.8012],[134.35035,-6.37176,0.0],[134.35841,-6.37949,0.0],[134.41774,-6.40643,7.9299],[134.42286,-6.41465,8.6644],[134.42726,-6.42636,0.0],[134.438,-6.4275,18.2776],[134.45143,-6.4249,6.064],[134.46388,-6.4249,13.4224],[134.48658,-6.45436,12.6936],[134.49122,-6.46233,2.6654],[134.49236,-6.47161,9.9701],[134.49586,-6.48528,13.642],[134.50229,-6.50018,0.0],[134.51157,-6.5136,7.9905],[134.54176,-6.52947,13.8406],[134.56056,-6.51605,3.7389],[134.56568,-6.49139,19.4138],[134.55372,-6.47324,10.1809],[134.58815,-6.45525,13.4564],[134.60222,-6.44158,15.0178],[134.60776,-6.42148,2.7166]]],
[[[134.83766,-6.46006,25.4401],[134.86109,-6.39007,29.8948],[134.87892,-6.35589,30.2465],[134.88592,-6.33636,22.7624],[134.88819,-6.31406,13.5461],[134.8838,-6.29949,16.8687],[134.87184,-6.28851,9.948],[134.85613,-6.28379,13.7098],[134.84059,-6.28769,0.0],[134.83562,-6.29656,0.0],[134.83367,-6.31146,0.0],[134.83375,-6.34238,15.7411],[134.81422,-6.3458,0.0],[134.799,-6.37054,0.0],[134.79412,-6.40195,0.0],[134.80641,-6.4249,16.2562],[134.80641,-6.43174,2.8115],[134.79396,-6.44052,0.0],[134.79835,-6.45224,0.0],[134.81178,-6.46429,0.0],[134.82635,-6.47324,0.0],[134.83766,-6.46006,25.4401]]],
[[[134.43653,-6.44525,16.0762],[134.42042,-6.43279,26.0665],[134.40724,-6.41912,21.3284],[134.39243,-6.4083,16.5337],[134.34938,-6.39983,12.8332],[134.32976,-6.38934,25.3469],[134.31275,-6.3742,18.2317],[134.28777,-6.34189,23.3924],[134.28809999999999,-6.33603,23.6272],[134.29591,-6.32529,0.0],[134.29982,-6.31585,17.5263],[134.29884,-6.30584,19.0154],[134.29461,-6.29778,23.3198],[134.28883,-6.29453,7.3857],[134.27711,-6.29022,47.4701],[134.24724,-6.26832,23.5298],[134.21404,-6.2348,16.387],[134.19874,-6.2243,27.0713],[134.16383,-6.21502,13.1142],[134.15406,-6.20306,18.862],[134.14601,-6.18873,0.0],[134.136,-6.17693,9.3097],[134.12379,-6.17156,12.9973],[134.11199,-6.17295,13.0688],[134.10271,-6.18011,20.9164],[134.0975,-6.19207,0.0],[134.09913,-6.22568,0.0],[134.12159,-6.29192,0.0],[134.12745,-6.32529,0.0],[134.12037,-6.41985,10.1808],[134.13697,-6.45037,5.2932],[134.18946,-6.44525,0.0],[134.19117,-6.46282,0.0],[134.20826,-6.48984,0.0],[134.20997,-6.50742,11.3217],[134.1858,-6.48919,0.0],[134.13111,-6.47975,15.2686],[134.12062,-6.46233,12.6261],[134.11752,-6.45208,9.8859],[134.11061,-6.45916,8.003],[134.10377,-6.47487,0.0],[134.08595,-6.64202,0.0],[134.06658,-6.71966,0.0],[134.05445,-6.75164,0.0],[134.05299,-6.76434,2.3358],[134.05502,-6.77516,10.1389],[134.06446,-6.79559,0.0],[134.07342,-6.82676,25.0827],[134.08985,-6.83831,56.4281],[134.12745,-6.84938,0.0],[134.14047,-6.85491,11.8496],[134.14617,-6.85898,5.154],[134.15846,-6.87363,6.9256],[134.18507,-6.91863,10.763],[134.20737,-6.91131,7.6418],[134.2448,-6.88348,14.4184],[134.31072,-6.85947,16.9636],[134.3589,-6.82073,5.0551],[134.36427,-6.80779,6.839],[134.34718,-6.80153,8.8736],[134.39829,-6.71966,17.5208],[134.40895,-6.71502,7.4577],[134.42156,-6.7042,6.2568],[134.43214,-6.69158,6.7664],[134.43653,-6.68206,17.1982],[134.43377,-6.67702,0.0],[134.42042,-6.66416,5.7603],[134.4017,-6.66497,19.983],[134.4017,-6.65748,23.6932],[134.42872,-6.65276,0.0],[134.45037,-6.66058,4.3189],[134.47218,-6.6618,1.8421],[134.49928,-6.63779,8.4782],[134.50416,-6.62754,0.0],[134.50831,-6.60906,9.8578],[134.51539,-6.59954,4.7424],[134.52149,-6.58685,9.7383],[134.51051,-6.58066,0.0],[134.48439,-6.57562,0.0],[134.47755,-6.53135,15.2688],[134.47975,-6.52549,12.8662],[134.48439,-6.52264,10.4752],[134.48902,-6.52068,9.8518],[134.49122,-6.51727,8.3703],[134.49,-6.51133,12.7749],[134.4878,-6.50856,11.3257],[134.48536,-6.50693,3.1786],[134.4817,-6.49774,17.1662],[134.46388,-6.46575,8.8795],[134.46209,-6.46038,18.3396],[134.46209,-6.45566,24.4352],[134.46127,-6.45086,20.9572],[134.45704,-6.44525,23.2459],[134.44996,-6.44134,15.8334],[134.44606,-6.44345,16.5313],[134.44264,-6.44638,18.9258],[134.43653,-6.44525,16.0762]]],
[[[134.15528,-6.00652,9.9275],[134.12599,-6.03427,0.0],[134.11492,-6.07684,0.0],[134.12037,-6.12217,0.0],[134.14112,-6.15789,0.0],[134.17164,-6.13649,0.0],[134.18605,-6.13397,0.0],[134.18946,-6.15049,13.7042],[134.17986,-6.16709,14.9609],[134.16603,-6.18304,15.9267],[134.16228,-6.19655,0.0],[134.18263,-6.20574,0.0],[134.20281,-6.19427,15.3232],[134.21795,-6.20761,9.0222],[134.2339,-6.23935,19.5058],[134.2776,-6.27508,0.0],[134.285,-6.28427,0.0],[134.29078,-6.28004,28.7657],[134.30397,-6.28753,0.0],[134.32667,-6.3082,19.3513],[134.33318,-6.32057,20.3151],[134.33481,-6.32887,0.0],[134.33766,-6.33196,0.0],[134.34718,-6.32928,17.4925],[134.36647,-6.31569,33.0163],[134.38087,-6.29876,21.4404],[134.39747,-6.28493,35.3188],[134.42286,-6.28086,8.1944],[134.42286,-6.27402,14.6732],[134.40789,-6.27191,38.9071],[134.39568,-6.26491,18.4696],[134.38592,-6.2575,16.8529],[134.37794,-6.25408,59.1868],[134.35597,-6.25457,60.5726],[134.3532,-6.25042,32.7403],[134.3615,-6.23935,24.3169],[134.34278,-6.23935,23.244],[134.33326,-6.23455,19.839],[134.29982,-6.1845,37.2393],[134.28631,-6.17498,45.2535],[134.27149,-6.1784,17.5951],[134.25701,-6.15838,39.7276],[134.24252,-6.14422,14.0604],[134.23414,-6.13006,7.9723],[134.23732,-6.11012,55.5967],[134.24635,-6.09645,0.0],[134.2658,-6.07741,0.0],[134.27149,-6.0617,22.1755],[134.25099,-6.07098,0.0],[134.2448,-6.07594,12.552],[134.24049,-6.0735,19.278199999999998],[134.23585,-6.06268,5.424],[134.22584,-6.02874,17.1898],[134.21778,-6.02361,29.3373],[134.2068,-6.02532,28.2595],[134.16066,-6.04355,13.976],[134.15528,-6.04803,20.4277],[134.15528,-6.00652,9.9275]]],
[[[134.20688,-5.82733,28.7906],[134.22039,-5.81561,19.7703],[134.22779,-5.78932,12.1534],[134.22828,-5.77337,11.0271],[134.2256,-5.77117,7.7716],[134.21274,-5.75872,4.5587],[134.20484,-5.75612,9.6444],[134.20021,-5.7553,11.4789],[134.19207,-5.75302,0.0],[134.17774,-5.75449,0.0],[134.16969,-5.76832,0.0],[134.16749,-5.789,0.0],[134.16969,-5.81113,0.0],[134.18051,-5.82733,0.0],[134.19459,-5.83017,0.0],[134.20688,-5.82733,28.7906]]],
[[[132.70289,-5.61679,20.9817],[132.69752,-5.59743,5.1241],[132.68784,-5.60003,0.0],[132.6753,-5.61289,0.0],[132.66139,-5.62347,0.0],[132.65691,-5.62038,0.0],[132.6198,-5.60296,36.0498],[132.62233,-5.61663,0.0],[132.62761,-5.62558,0.0],[132.63413,-5.6334,10.135],[132.64088,-5.64332,45.6375],[132.64194,-5.64853,33.1532],[132.64088,-5.6679,15.3668],[132.64381,-5.67547,10.8044],[132.6504,-5.6775,0.0],[132.65748,-5.67742,0.0],[132.66139,-5.67881,31.82],[132.66236,-5.68434,20.9573],[132.66196,-5.69101,45.689],[132.66041,-5.6972,42.7751],[132.65797,-5.70176,26.0314],[132.65504,-5.70875,35.3503],[132.66139,-5.71111,18.7274],[132.67018,-5.71152,33.7334],[132.67506,-5.71217,38.506],[132.68336,-5.74912,0.0],[132.68873,-5.76002,7.72],[132.67449,-5.76002,7.9315],[132.67164,-5.78338,3.8253],[132.67506,-5.83571,0.0],[132.6727,-5.83636,0.0],[132.66798,-5.83652,0.0],[132.66342,-5.83856,0.0],[132.66139,-5.84539,0.0],[132.66236,-5.85215,0.0],[132.66481,-5.85516,0.0],[132.667,-5.85752,0.0],[132.66822,-5.86248,0.0],[132.66782,-5.88812,24.8887],[132.66969,-5.9,42.4453],[132.67506,-5.9109,0.0],[132.67506,-5.90407,24.4377],[132.68605,-5.92205,0.0],[132.69191,-5.92881,6.3667],[132.69923,-5.93133,24.8883],[132.70867,-5.9275,13.8132],[132.7142,-5.91839,0.0],[132.71648,-5.907,0.0],[132.71599,-5.89666,20.3797],[132.72364,-5.91033,0.0],[132.73072,-5.93418,24.3906],[132.74155,-5.95037,3.7696],[132.76059,-5.94158,8.7306],[132.77556,-5.92392,29.7144],[132.78736,-5.90586,10.4808],[132.79713,-5.88584,0.0],[132.80543,-5.86248,0.0],[132.81227,-5.81959,0.0],[132.81105,-5.79705,0.0],[132.80201,-5.78737,0.0],[132.7859,-5.77972,18.712],[132.77931,-5.761,0.9188],[132.77638,-5.73846,0.0],[132.77125,-5.71844,16.8225],[132.76368,-5.71844,26.8097],[132.76238,-5.72243,31.3636],[132.75758,-5.73211,11.9897],[132.75717,-5.72291,0.0],[132.74537,-5.68646,0.0],[132.74366,-5.66839,0.0],[132.74049,-5.66009,7.0395],[132.73357,-5.65504,15.1954],[132.72633,-5.65496,10.2794],[132.71111,-5.65862,1.9191],[132.70289,-5.65765,0.0],[132.6906,-5.65008,0.0],[132.69239,-5.64202,46.0017],[132.69947,-5.63152,0.0],[132.70289,-5.61679,20.9817]]],
[[[132.7894,-5.55291,29.4754],[132.79127,-5.54437,21.0903],[132.78981,-5.53582,20.8054],[132.78492,-5.52728,0.0],[132.76531,-5.54534,0.0],[132.75082,-5.5735,0.0],[132.74317,-5.60442,0.0],[132.74317,-5.6303,7.1209],[132.75847,-5.67067,16.4937],[132.76368,-5.67881,0.0],[132.7728,-5.68222,24.6092],[132.78053,-5.68035,31.1581],[132.78492,-5.67254,49.1165],[132.78492,-5.65765,54.8294],[132.78785,-5.66668,32.1316],[132.792,-5.67449,0.0],[132.79786,-5.68043,0.0],[132.80543,-5.68499,38.6644],[132.80747,-5.67986,32.6608],[132.81275,-5.67132,16.1718],[132.80454,-5.65667,22.2743],[132.79933,-5.64153,26.4332],[132.79672,-5.62566,32.4949],[132.79737,-5.60906,13.3661],[132.81186,-5.56552,5.0444],[132.81105,-5.5556,9.9235],[132.80519,-5.55299,0.0],[132.79737,-5.55397,0.0],[132.78981,-5.55731,29.0728],[132.78492,-5.56146,17.5319],[132.7894,-5.55291,29.4754]]],
[[[132.3462,-5.5359,0.0],[132.31861,-5.5136,0.0],[132.30714,-5.52117,0.0],[132.30885,-5.53574,28.8616],[132.31739,-5.55104,5.2227],[132.33155,-5.56829,43.6274],[132.33432,-5.57293,25.3669],[132.34002,-5.57366,38.1739],[132.35353,-5.56894,27.4216],[132.36329,-5.56292,2.6627],[132.37143,-5.55413,30.6492],[132.37761,-5.5442,14.8563],[132.38071,-5.53411,0.0],[132.36118,-5.5403,0.0],[132.3462,-5.5359,0.0]]],
[[[127.55519,-5.50661,0.0],[127.55128,-5.51238,0.6604],[127.56137,-5.51727,0.0],[127.55519,-5.50661,0.0]]],
[[[127.55486,-5.49049,0.0],[127.54591,-5.49529,0.0],[127.55698,-5.49977,0.0],[127.55486,-5.49049,0.0]]],
[[[134.58123,-5.42425,7.7472],[134.56788,-5.42783,8.1555],[134.53972,-5.44061,29.3332],[134.52711,-5.44004,29.0105],[134.52247,-5.43629,48.3844],[134.5193,-5.43231,39.7967],[134.51547,-5.42946,30.8594],[134.50831,-5.42938,26.2219],[134.50213,-5.43174,34.486],[134.49659,-5.43613,11.6858],[134.49252,-5.44183,0.0],[134.49122,-5.44817,0.0],[134.49204,-5.49578,10.594],[134.49464,-5.50075,9.1719],[134.50196,-5.51035,8.4542],[134.50506,-5.51775,12.5926],[134.50587,-5.52825,0.0],[134.50473,-5.54778,0.0],[134.4948,-5.54323,33.787],[134.49122,-5.54095,13.0285],[134.48316,-5.55283,0.0],[134.4725,-5.55788,0.0],[134.46266,-5.55283,0.0],[134.45704,-5.53411,16.6043],[134.41245,-5.61395,0.0],[134.40919,-5.62689,0.0],[134.40406,-5.64088,0.0],[134.39186,-5.65211,0.0],[134.37818,-5.6618,0.0],[134.36769,-5.67132,0.0],[134.36069,-5.68841,24.5445],[134.35873,-5.70355,0.0],[134.35182,-5.71445,0.0],[134.33009,-5.71844,0.0],[134.30974,-5.71258,43.6622],[134.27719,-5.68572,13.7637],[134.25782,-5.67881,36.9024],[134.23732,-5.68328,22.837],[134.21551,-5.6959,0.0],[134.202,-5.7125,0.0],[134.20655,-5.7291,0.0],[134.23268,-5.75091,0.0],[134.24789,-5.76043,0.0],[134.26515,-5.76686,0.0],[134.29916,-5.76824,0.0],[134.31821,-5.77256,2.8944],[134.32667,-5.78395,6.0192],[134.3309,-5.80397,0.0],[134.34099,-5.80429,0.0],[134.35239,-5.79339,0.0],[134.3615,-5.78053,0.0],[134.37827,-5.79372,0.0],[134.37648,-5.8056,0.0],[134.35401,-5.8283,0.0],[134.35401,-5.83571,0.0],[134.36036,-5.84954,12.7729],[134.3235,-5.86826,0.0],[134.32252,-5.88942,0.0],[134.31251,-5.90195,1.0],[134.29916,-5.91302,11.1012],[134.28883,-5.91774,0.0],[134.28809999999999,-5.92392,0.0],[134.31227,-5.95436,0.0],[134.3191,-5.96608,0.0],[134.31511,-5.98398,0.0],[134.30567,-6.00123,0.0],[134.30177,-6.01629,0.0],[134.313,-6.0276,12.2814],[134.33326,-6.02606,0.0],[134.36931,-6.02386,0.0],[134.36769,-6.03436,11.4883],[134.34889,-6.05088,11.6612],[134.33058,-6.05039,44.2295],[134.31202,-6.04713,15.4825],[134.29249,-6.05486,50.1811],[134.27589,-6.08359,11.1044],[134.27662,-6.11932,1.7391],[134.29135,-6.15635,0.0],[134.31609,-6.18906,0.0],[134.32146,-6.19817,2.8443],[134.32667,-6.21063,5.2266],[134.33351,-6.22145,20.7596],[134.34376,-6.22617,0.0],[134.34938,-6.22454,0.0],[134.35401,-6.22137,0.0],[134.35865,-6.21982,0.0],[134.36451,-6.22308,0.0],[134.36736,-6.22796,36.2047],[134.36891,-6.23317,29.4258],[134.37159,-6.23756,20.1452],[134.37794,-6.23935,17.4639],[134.43775,-6.26409,0.0],[134.44947,-6.26377,17.5143],[134.45924,-6.27842,11.5033],[134.50196,-6.29925,0.0],[134.51157,-6.31162,0.0],[134.51629,-6.3139,12.0363],[134.53484,-6.33123,0.0],[134.53582,-6.33538,17.5787],[134.54038,-6.33807,0.0],[134.55372,-6.35589,0.0],[134.55934,-6.35589,0.0],[134.57057,-6.34881,0.0],[134.58367,-6.35231,1.1542],[134.60776,-6.36956,0.0],[134.63022,-6.35125,14.1817],[134.70183,-6.32187,16.4486],[134.71705,-6.29795,16.0875],[134.72088,-6.28183,27.425],[134.73959,-6.24196,12.8846],[134.74781,-6.22991,14.2919],[134.75131,-6.21917,16.5659],[134.74366,-6.19883,28.0182],[134.74781,-6.18906,30.8562],[134.75318,-6.18279,17.571],[134.7566,-6.17596,17.9634],[134.75815,-6.1679,13.49],[134.75807,-6.15789,0.0],[134.74073,-6.17116,16.9641],[134.69109,-6.18808,9.1415],[134.69728,-6.18084,6.693],[134.70143,-6.17059,7.8936],[134.70289,-6.15789,14.2604],[134.71022,-6.16009,14.9709],[134.71315,-6.16172,5.177],[134.71705,-6.16473,0.0],[134.73601,-6.15399,16.3781],[134.75465,-6.13551,13.9681],[134.76824,-6.11297,6.0643],[134.77223,-6.08961,9.7053],[134.76515,-6.07684,17.3073],[134.72731,-6.0276,15.6198],[134.71144,-6.02028,16.4486],[134.67066,-5.98675,15.2389],[134.66236,-5.97601,4.8392],[134.65699,-5.95387,4.5859],[134.64259,-5.94752,25.6294],[134.60108,-5.95184,17.5215],[134.60572,-5.94394,0.0],[134.61451,-5.93743,0.0],[134.62599,-5.93304,14.1871],[134.63885,-5.93133,0.0],[134.65431,-5.93328,4.1085],[134.66277,-5.93816,0.0],[134.66847,-5.94476,0.0],[134.67604,-5.95184,0.0],[134.69532,-5.96217,0.0],[134.72096,-5.97161,13.4341],[134.73609,-5.9695,14.4852],[134.72389,-5.945,15.0505],[134.72706,-5.94476,18.2105],[134.73756,-5.945,0.954],[134.72779,-5.93694,8.421],[134.70289,-5.92596,12.8153],[134.69654,-5.91774,19.5437],[134.69947,-5.9026,19.4212],[134.70965,-5.89617,17.2867],[134.72023,-5.90057,0.0],[134.72389,-5.91774,0.0],[134.73439,-5.90984,0.0],[134.75424,-5.89837,20.2857],[134.7649,-5.89039,5.9805],[134.76002,-5.88567,15.8461],[134.75587,-5.87933,20.9354],[134.75123,-5.87672,23.5323],[134.75441,-5.86077,18.5994],[134.74334,-5.84694,15.1603],[134.72397,-5.83782,24.543],[134.70289,-5.83571,10.5852],[134.71111,-5.82366,0.0],[134.73121,-5.80291,15.0837],[134.73756,-5.78737,23.5964],[134.73878,-5.77353,22.9149],[134.73862,-5.76556,16.7297],[134.73756,-5.76002,12.0277],[134.73316,-5.75661,18.8321],[134.72625,-5.75433,20.7811],[134.71705,-5.75262,11.333],[134.71876,-5.73756,9.3174],[134.72641,-5.7112,12.5694],[134.73976,-5.68515,0.0],[134.75807,-5.67132,0.0],[134.73683,-5.63795,11.2553],[134.71022,-5.60914,14.9208],[134.69117,-5.59637,6.3073],[134.68035,-5.59092,0.0],[134.67237,-5.5888,9.5659],[134.6443,-5.5862,0.0],[134.6351,-5.5888,27.0534],[134.64145,-5.5792,0.0],[134.6517,-5.57464,0.0],[134.67604,-5.56894,12.5285],[134.67604,-5.57513,0.0],[134.68238,-5.57513,0.0],[134.67897,-5.55788,22.7709],[134.6753,-5.55218,23.3979],[134.66863,-5.54778,26.8897],[134.68898,-5.53688,6.0782],[134.69654,-5.53411,10.4842],[134.68849,-5.52386,20.7218],[134.65895,-5.50465,14.2369],[134.6482,-5.4931,8.0939],[134.63592,-5.45525,16.8659],[134.62827,-5.44476,15.3764],[134.58123,-5.42425,7.7472]]],
[[[127.8034,-5.40765,0.0],[127.79851,-5.40016,0.0],[127.79005,-5.4096,0.0],[127.8034,-5.40765,0.0]]],
[[[127.77906,-5.34287,0.0],[127.77687,-5.34881,0.0],[127.78517,-5.35296,0.0],[127.77906,-5.34287,0.0]]],
[[[131.97511,-5.38747,0.0],[131.98072,-5.37965,0.0],[131.9852,-5.37786,2.5763],[131.99204,-5.37737,0.0],[132.00034,-5.37322,0.0],[132.01629,-5.33082,39.5597],[132.00864,-5.31276,14.587],[131.99724,-5.31243,0.0],[131.9865,-5.31764,2.712],[131.97739,-5.32334,0.0],[131.96241,-5.34352,0.0],[131.95948,-5.37298,0.0],[131.96559,-5.38877,0.0],[131.97511,-5.38747,0.0]]],
[[[133.04705,-5.64861,0.0],[133.0608,-5.63934,0.0],[133.0691,-5.63714,0.0],[133.0796,-5.63177,0.0],[133.10597,-5.60565,0.0],[133.11329,-5.59564,0.0],[133.13893,-5.52117,0.0],[133.16538,-5.38014,0.0],[133.17213,-5.36972,0.0],[133.18434,-5.36199,0.0],[133.18873,-5.3445,0.0],[133.18816,-5.3248,92.6238],[133.18434,-5.31032,88.9546],[133.17262,-5.29648,13.1525],[133.1561,-5.28834,0.0],[133.13787,-5.28729,69.4493],[133.12135,-5.29461,127.1458],[133.11012,-5.31097,31.0693],[133.10434,-5.35068,366.9281],[133.09669,-5.36631,103.0015],[133.07586,-5.39804,59.1767],[133.03875,-5.5136,0.0],[133.02296,-5.54852,0.0],[133.01857,-5.56618,0.0],[133.0149,-5.60711,0.0],[133.00408,-5.64715,0.0],[132.99659,-5.65154,17.6874],[132.98032,-5.64463,0.0],[132.96412,-5.64072,0.0],[132.92888,-5.69801,0.0],[132.93116,-5.71494,0.0],[132.92888,-5.77711,0.0],[132.92351,-5.78672,8.3276],[132.90008,-5.8139,0.0],[132.84051,-5.98496,0.0],[132.8423,-5.99684,0.0],[132.85678,-5.98943,0.0],[132.94947,-5.87428,159.6565],[132.9568,-5.86248,0.0],[132.95851,-5.84433,0.0],[132.95094,-5.81308,0.0],[132.94939,-5.7942,39.3426],[132.95753,-5.76141,5.1134],[132.97543,-5.72869,63.2179],[132.99724,-5.69997,0.0],[133.0171,-5.67881,0.0],[133.02711,-5.66269,3.0487],[133.03354,-5.65439,15.7912],[133.04705,-5.64861,0.0]]],
[[[131.74871,-4.75905,32.4461],[131.75441,-4.7365,20.3762],[131.75017,-4.71054,0.0],[131.73308,-4.69305,0.0],[131.72608,-4.70778,57.3088],[131.72511,-4.7317,0.0],[131.72901,-4.75465,40.3062],[131.7365,-4.76629,109.5717],[131.74871,-4.75905,32.4461]]],
[[[129.77833,-4.52451,33.3614],[129.76271,-4.51881,11.8896],[129.75782,-4.52256,0.0],[129.77027,-4.53932,0.0],[129.77833,-4.52451,33.3614]]],
[[[129.9485,-4.51434,0.0],[129.94109,-4.50888,0.0],[129.93181,-4.51507,0.0],[129.92726,-4.53045,0.0],[129.91814,-4.5372,0.0],[129.87403,-4.54583,157.6259],[129.85906,-4.55478,9.8659],[129.87184,-4.55389,65.5013],[129.8838,-4.5556,39.4232],[129.89332,-4.56024,0.0],[129.89926,-4.56829,0.0],[129.91603,-4.5639,100.5797],[129.93336,-4.56292,70.3261],[129.94565,-4.55608,77.9977],[129.9485,-4.51434,0.0]]],
[[[131.68043,-4.52402,1.927],[131.67075,-4.49017,0.0],[131.64942,-4.45241,0.0],[131.63347,-4.43043,0.0],[131.62615,-4.42685,0.0],[131.6198,-4.42449,0.0],[131.61354,-4.42523,0.0],[131.60621,-4.43043,0.0],[131.61647,-4.44158,67.6595],[131.65504,-4.52565,75.6426],[131.6609,-4.53427,121.54],[131.68043,-4.52402,1.927]]],
[[[131.39186,-4.1535,28.2688],[131.38551,-4.14023,0.0],[131.36598,-4.12217,12.8886],[131.31764,-4.08807,9.8262],[131.30437,-4.07488,0.0],[131.29851,-4.06585,0.0],[131.29461,-4.06316,0.0],[131.28834,-4.06341,0.0],[131.28419,-4.06609,0.0],[131.2815,-4.07,2.2587],[131.28045,-4.0748,29.3986],[131.28053,-4.07952,47.6127],[131.2837,-4.08978,51.9513],[131.28924,-4.10003,80.7033],[131.29656,-4.10906,125.1199],[131.30502,-4.11533,198.075],[131.35271,-4.1334,176.4784],[131.38543,-4.15618,103.1589],[131.39186,-4.1535,28.2688]]],
[[[131.24757,-4.04266,0.0],[131.2505,-4.03232,0.0],[131.24985,-4.0097,0.0],[131.24871,-4.00286,0.0],[131.24537,-3.99684,0.0],[131.24049,-3.99179,0.0],[131.23504,-3.98756,0.0],[131.20916,-3.97894,0.0],[131.21079,-3.99578,3.4162],[131.21648,-4.01865,0.0],[131.22608,-4.03834,15.6821],[131.23959,-4.04705,11.866],[131.24757,-4.04266,0.0]]],
[[[131.4533,-4.05576,0.0],[131.44483,-4.03672,51.9055],[131.43434,-4.0136,0.0],[131.42701,-3.98333,0.0],[131.41603,-3.95859,44.1305],[131.39438,-3.95159,0.0],[131.3777,-3.95713,0.0],[131.36964,-3.96217,0.0],[131.36598,-3.96844,0.0],[131.37013,-3.98528,0.0],[131.39129,-4.03151,0.0],[131.40065,-4.04705,1.2587],[131.42189,-4.06292,76.8162],[131.44239,-4.06512,52.856],[131.4533,-4.05576,0.0]]],
[[[127.24137,-3.91082,0.0],[127.24264,-3.90041,0.0],[127.24953,-3.89028,0.0],[127.25602,-3.87453,0.0],[127.2532,-3.84921,0.0],[127.24612,-3.83622,0.0],[127.23463,-3.82106,0.0],[127.19899,-3.81032,0.0],[127.1819,-3.80853,0.0],[127.16521,-3.81414,0.0],[127.13793,-3.84685,0.0],[127.13605,-3.86986,0.0],[127.14509,-3.88498,0.0],[127.1605,-3.89903,0.0],[127.17255,-3.91011,0.0],[127.19073,-3.91173,0.0],[127.20953,-3.91478,0.0],[127.22697,-3.91706,0.0],[127.24137,-3.91082,0.0]]],
[[[128.79713,-3.69378,0.0],[128.81056,-3.67645,5.8039],[128.80421,-3.66937,47.7542],[128.79965,-3.66139,165.4339],[128.79713,-3.65252,75.0629],[128.79623,-3.64284,2.146],[128.77687,-3.6373,0.0],[128.75799,-3.64365,0.0],[128.74635,-3.65976,0.0],[128.74855,-3.68385,0.0],[128.76173,-3.69964,0.0],[128.77931,-3.70224,0.0],[128.79713,-3.69378,0.0]]],
[[[128.43165,-3.62705,73.265],[128.44907,-3.62314,0.0],[128.49057,-3.61858,22.7642],[128.52898,-3.60442,87.7522],[128.54591,-3.60133,1.095],[128.56381,-3.59189,15.1283],[128.55885,-3.57049,92.5309],[128.54282,-3.54746,65.8681],[128.52882,-3.53297,0.0],[128.51271,-3.52606,23.6204],[128.47731,-3.51979,14.9351],[128.46144,-3.51214,0.7513],[128.42709,-3.52272,5.7021],[128.41651,-3.53135,4.9321],[128.41017,-3.54323,0.0],[128.40691,-3.55682,0.0],[128.40602,-3.57025,0.0],[128.40138,-3.58636,0.0],[128.39291,-3.60662,0.0],[128.38754,-3.62689,0.0],[128.39291,-3.64284,0.0],[128.43165,-3.62705,73.265]]],
[[[128.32342,-3.57025,2.0994],[128.33107,-3.55413,7.3648],[128.34457,-3.54209,11.8729],[128.34938,-3.52947,42.9046],[128.33082,-3.5119,98.5252],[128.28712,-3.50457,159.7088],[128.24171,-3.52215,425.2223],[128.1587,-3.58465,0.0],[128.14731,-3.58847,0.0],[128.06251,-3.58359,0.0],[128.0477,-3.58473,0.0],[128.03452,-3.58904,0.0],[127.98414,-3.62054,0.0],[127.96095,-3.64031,0.0],[127.91635,-3.69394,0.0],[127.91236,-3.70306,0.0],[127.92335,-3.72601,125.7645],[127.92677,-3.74684,0.0],[127.93344,-3.76344,0.0],[127.95411,-3.77321,0.0],[127.98601,-3.77158,53.9906],[128.00571,-3.75677,152.9227],[128.02174,-3.73642,109.4014],[128.04274,-3.71803,144.0365],[128.05551,-3.71331,256.4228],[128.08074,-3.70818,29.1178],[128.1067,-3.69207,4.0742],[128.14519,-3.67645,0.0],[128.18377,-3.64691,73.1342],[128.20289,-3.63934,0.0],[128.22096,-3.6491,0.0],[128.20436,-3.66815,17.1466],[128.15203,-3.70306,0.0],[128.13209,-3.74228,0.0],[128.12713,-3.74944,0.0],[128.10401,-3.76377,0.0],[128.09742,-3.77321,0.0],[128.12867,-3.76963,56.6831],[128.14674,-3.75506,316.8786],[128.16147,-3.73903,294.4832],[128.18312,-3.73162,285.3447],[128.21266,-3.72926,246.5403],[128.2365,-3.72226,263.0764],[128.25489,-3.70957,236.2753],[128.27491,-3.68108,146.2966],[128.27817,-3.67441,245.8067],[128.27589,-3.66619,276.3787],[128.25123,-3.63258,2.8945],[128.24659,-3.62038,67.6864],[128.25196,-3.61492,44.5324],[128.26303,-3.615,33.7253],[128.26922,-3.61582,11.0806],[128.28305,-3.62176,1.3056],[128.30307,-3.63397,0.0],[128.30974,-3.63543,0.0],[128.33497,-3.62721,135.7942],[128.33717,-3.61159,185.0882],[128.32887,-3.59173,16.2792],[128.32342,-3.57025,2.0994]]],
[[[128.66066,-3.53338,15.5109],[128.63168,-3.52256,18.1171],[128.62159,-3.51572,14.645],[128.60629,-3.49668,0.0],[128.59783,-3.49179,0.0],[128.58399,-3.49147,0.0],[128.56105,-3.49375,0.0],[128.55909,-3.50937,0.0],[128.56788,-3.52801,14.5842],[128.5857,-3.55299,0.0],[128.59376,-3.56862,0.0],[128.60353,-3.58343,0.0],[128.61817,-3.59393,5.9686],[128.61061,-3.59393,46.2337],[128.61899,-3.60752,0.0],[128.62745,-3.61761,0.0],[128.63624,-3.62282,0.0],[128.64552,-3.62176,220.5036],[128.65602,-3.6124,197.6537],[128.65545,-3.60215,157.6244],[128.65162,-3.59149,31.9057],[128.65235,-3.58082,0.0],[128.66879,-3.56927,62.0019],[128.68702,-3.58221,10.663],[128.70655,-3.60296,0.0],[128.72804,-3.61492,34.9611],[128.72641,-3.54599,192.8762],[128.72055,-3.52557,174.2049],[128.70574,-3.50254,70.2844],[128.69321,-3.50205,6.5211],[128.68247,-3.51702,0.0],[128.67286,-3.53981,13.9883],[128.66066,-3.53338,15.5109]]],
[[[127.53224,-3.25449,0.0],[127.52963,-3.25335,0.0],[127.52638,-3.25433,0.0],[127.52475,-3.25612,0.0],[127.52182,-3.26181,0.0],[127.51271,-3.27361,0.0],[127.50961,-3.27654,0.0],[127.48512,-3.29209,0.0],[127.48048,-3.29339,0.0],[127.49057,-3.30682,116.7704],[127.50359,-3.32008,125.9985],[127.5197,-3.33025,86.4537],[127.56544,-3.33847,6.1541],[127.60304,-3.35687,0.0],[127.62452,-3.36175,25.0116],[127.64357,-3.35605,124.3989],[127.64161,-3.34026,0.0],[127.62867,-3.32187,19.314],[127.61549,-3.30739,0.0],[127.58302,-3.268,0.0],[127.56398,-3.25579,1.674],[127.53443,-3.25579,0.0],[127.53224,-3.25449,0.0]]],
[[[127.77849,-3.24424,250.256],[127.78565999999999,-3.23431,301.1163],[127.7964,-3.21152,26.362],[127.78981,-3.19964,70.4729],[127.78826,-3.18328,13.6133],[127.78443,-3.16872,0.0],[127.77223,-3.16253,61.4294],[127.76629,-3.16041,14.4566],[127.76336,-3.15594,14.6368],[127.7614,-3.15154,16.2497],[127.75815,-3.14951,0.0],[127.75343,-3.15057,0.0],[127.74187,-3.15635,0.0],[127.70631,-3.15635,0.0],[127.68735,-3.17832,0.0],[127.65968,-3.20143,0.0],[127.64332,-3.22438,122.3025],[127.65854,-3.2457,0.0],[127.67921,-3.25164,7.2271],[127.74187,-3.2457,68.7763],[127.76645,-3.24627,80.6437],[127.77849,-3.24424,250.256]]],
[[[126.87525,-3.10947,12.0764],[126.8589,-3.08587,0.0],[126.84002,-3.07366,0.0],[126.72023,-3.06015,131.244],[126.4214,-3.07049,0.0],[126.29713,-3.10589,26.7048],[126.25831,-3.122,0.0],[126.22657,-3.14951,14.2172],[126.22774,-3.17476,9.5424],[126.202,-3.18184,0.0],[126.18509,-3.18089,0.0],[126.16134,-3.17232,0.0],[126.13632,-3.16062,0.0],[126.12162,-3.1479,5.6479],[126.11087,-3.12171,0.0],[126.09092,-3.1121,1.4217],[126.06461,-3.13293,0.0],[126.03656,-3.15359,0.0],[126.01726,-3.17116,0.0],[125.99174,-3.24819,0.0],[126.00723,-3.36101,2.801],[126.04119,-3.41286,12.2573],[126.04176,-3.4201,13.9156],[126.05263,-3.44632,11.0263],[126.06851,-3.46738,0.0],[126.08813,-3.48362,0.0],[126.14855,-3.5255,0.0],[126.16529,-3.56797,0.0],[126.17356,-3.60253,0.0],[126.20302,-3.63099,0.0],[126.24392,-3.6314,0.0],[126.2588,-3.64226,0.0],[126.2749,-3.66326,0.0],[126.32466,-3.68764,0.0],[126.36443,-3.6972,13.4838],[126.38063,-3.70306,211.72],[126.43888,-3.75045,0.0],[126.52506,-3.78992,15.7026],[126.55853,-3.79329,0.0],[126.58933,-3.81664,0.0],[126.65629,-3.83485,106.6999],[126.67428,-3.8425,16.9037],[126.69657,-3.86379,0.0],[126.7189,-3.85485,0.0],[126.74219,-3.85938,0.0],[126.77709,-3.83269,0.0],[126.82693,-3.81009,0.0],[126.907,-3.78734,0.0],[126.94606,-3.7658,29.4211],[126.9568,-3.75563,29.928],[126.98072,-3.72454,100.79],[126.99073,-3.71803,67.2294],[127.00196,-3.7138,32.9948],[127.12159,-3.65325,110.1503],[127.14145,-3.6491,92.3433],[127.16521,-3.65342,251.0208],[127.1858,-3.65993,126.8294],[127.20574,-3.6596,169.2289],[127.22722,-3.64284,37.8563],[127.24342,-3.60605,19.8227],[127.2409,-3.47096,308.775],[127.24635,-3.44997,28.4398],[127.26466,-3.40472,0.0],[127.26881,-3.38592,0.0],[127.25978,-3.37119,0.0],[127.23854,-3.36321,0.0],[127.19313,-3.35556,0.0],[127.15895,-3.33717,0.0],[127.14829,-3.33441,0.0],[127.13787,-3.33978,0.0],[127.12477,-3.36321,0.0],[127.11394,-3.36858,0.0],[127.09474,-3.36207,0.0],[127.08009,-3.34881,0.0],[127.06951,-3.33668,0.0],[127.06275,-3.33441,5.1597],[127.05454,-3.32301,0.0],[127.04615,-3.30535,0.0],[127.04078,-3.28672,0.0],[127.04225,-3.27239,0.0],[127.05592,-3.25954,52.7523],[127.06983,-3.26092,4.0124],[127.08302,-3.26816,0.0],[127.09352,-3.27239,25.9954],[127.10646,-3.27304,31.3803],[127.11183,-3.27207,33.6611],[127.11232,-3.26442,28.2338],[127.10914,-3.22942,0.8834],[127.10694,-3.21885,0.0],[127.10231,-3.21038,0.0],[127.09352,-3.20078,0.0],[127.08424,-3.19427,0.0],[127.05494,-3.17946,0.0],[127.035,-3.17352,8.6526],[127.00066,-3.14951,7.9266],[126.97918,-3.14227,6.6204],[126.95574,-3.13779,0.0],[126.93409,-3.13055,0.0],[126.91871,-3.11468,0.0],[126.8934,-3.12558,0.0],[126.87525,-3.10947,12.0764]]],
[[[127.98357,-2.94883,82.1417],[127.99155,-2.94345,76.2958],[127.9944,-2.93906,71.2751],[127.98536,-2.92946,59.1868],[127.96998,-2.92018,0.0],[127.95411,-2.91668,0.0],[127.92604,-2.91668,6.4652],[127.93377,-2.93401,0.0],[127.93287,-2.94598,23.0325],[127.92529999999999,-2.95517,109.4218],[127.91236,-2.9638,75.4548],[127.9074,-2.96453,294.8344],[127.90235,-2.9625,247.3331],[127.89649,-2.96185,214.8091],[127.88893,-2.96722,273.3402],[127.87965,-2.97942,247.1382],[127.87525,-2.98301,94.6769],[127.86801,-2.98431,0.0],[127.85401,-2.98943,0.0],[127.83717,-3.00189,0.0],[127.82545,-3.01653,0.0],[127.827,-3.02899,0.0],[127.83839,-3.0333,0.0],[127.91847,-3.02923,140.5645],[127.93426,-3.02557,0.0],[127.94728,-3.01849,0.0],[127.95094,-3.01092,4.4332],[127.96095,-2.98349,45.4948],[127.96404,-2.97763,48.4351],[127.96909,-2.97226,42.3814],[127.98357,-2.94883,82.1417]]],
[[[129.54103,-2.78004,0.0],[129.53484,-2.78004,15.2873],[129.5232,-2.78631,0.0],[129.44353,-2.78493,18.9781],[129.40024,-2.7916,21.593],[129.37289,-2.80682,36.945],[129.36647,-2.82399,0.0],[129.36411,-2.84205,16.1852],[129.35841,-2.85622,16.5622],[129.32838,-2.86679,0.0],[129.27613,-2.89617,0.0],[129.24317,-2.90683,0.0],[129.22779,-2.91522,0.0],[129.22145,-2.92636,11.7962],[129.21852,-2.94118,47.0593],[129.2116,-2.94085,2.8015],[129.20045,-2.92978,0.0],[129.19532,-2.9284,0.0],[129.19191,-2.92303,0.0],[129.18735,-2.92295,2.9589],[129.17945,-2.92645,0.0],[129.17823,-2.93043,0.8745],[129.17994,-2.93426,0.0],[129.18051,-2.93662,9.8045],[129.18051,-2.94215,2.265],[129.18434,-2.94915,0.0],[129.18539,-2.95517,0.0],[129.17709,-2.9577,0.0],[129.17416,-2.95648,37.9853],[129.17213,-2.95387,0.0],[129.16912,-2.95135,0.0],[129.16285,-2.95029,0.0],[129.1526,-2.95135,49.4334],[129.13315,-2.95648,0.0],[129.12184,-2.9577,0.0],[129.10524,-2.94793,0.0],[129.07944,-2.90537,0.0],[129.06446,-2.89617,3.5161],[129.07057,-2.85491,5.3984],[129.06886,-2.82122,0.0],[129.05291,-2.80446,12.4027],[129.01596,-2.81422,15.1664],[128.94728,-2.84441,0.0],[128.90821,-2.8554,9.7785],[128.86524,-2.86207,11.1928],[128.8423,-2.86224,0.0],[128.80055,-2.85622,0.0],[128.60076,-2.85467,22.149],[128.57545,-2.85133,0.0],[128.53785,-2.83717,0.0],[128.51588,-2.83416,0.0],[128.49855,-2.83652,0.0],[128.45973,-2.84629,0.0],[128.41733,-2.85052,0.0],[128.38103,-2.85996,0.0],[128.21241,-2.86053,100.289],[128.18678,-2.85467,0.0],[128.17547,-2.85703,0.0],[128.16668,-2.86395,21.391],[128.1609,-2.87412,0.0],[128.15886,-2.88567,25.2791],[128.1561,-2.89324,166.7798],[128.14991,-2.89495,23.7329],[128.14324,-2.89463,0.0],[128.13893,-2.89617,0.0],[128.13746,-2.9013,12.2999],[128.13624,-2.90765,82.5396],[128.13649,-2.91188,194.96],[128.13893,-2.90984,119.7746],[128.1211,-2.94451,0.0],[128.11215,-2.94997,0.0],[128.08546,-2.95485,0.0],[128.07691,-2.9577,0.0],[128.07,-2.97064,0.0],[128.08497,-2.97389,64.5999],[128.10629,-2.97552,3.2607],[128.11793,-2.98431,0.0],[128.11411,-2.99358,0.0],[128.09498,-3.01092,0.0],[128.09059,-3.02215,4.8928],[128.09181,-3.0346,1.5029],[128.10369,-3.06699,0.0],[128.08375,-3.07366,4.2495],[128.06666,-3.06699,0.0],[128.04615,-3.06585,0.0],[128.02565,-3.06862,0.0],[128.00807,-3.07366,0.7229],[127.99293,-3.08261,119.9097],[127.9673,-3.10369,0.0],[127.95069,-3.10784,0.0],[127.93873,-3.11338,0.0],[127.91627,-3.13991,0.0],[127.90561,-3.14951,0.0],[127.89649,-3.15211,0.0],[127.87403,-3.15439,0.0],[127.86476,-3.15635,0.0],[127.84392,-3.16611,19.0252],[127.8423,-3.17327,0.0],[127.86801,-3.19378,0.0],[127.87525,-3.20875,3.8564],[127.88575,-3.26621,14.0602],[127.9157,-3.30722,0.0],[127.92302,-3.3139,0.0],[127.93019,-3.32334,0.0],[127.93385,-3.34531,0.0],[127.93344,-3.38974,0.0],[127.90309,-3.47666,78.0841],[127.89861,-3.52386,0.0],[127.92604,-3.55348,121.2046],[127.92921,-3.54274,301.7688],[127.94264,-3.52166,324.2251],[127.94386,-3.51572,272.9369],[127.93719,-3.50555,219.2632],[127.93588,-3.497,315.3719],[127.94028,-3.47845,152.3174],[127.95289,-3.44394,360.839],[127.96217,-3.42571,314.4286],[127.9756,-3.40504,50.0422],[127.98146,-3.38502,6.3005],[127.98756,-3.37607,16.3425],[127.99391,-3.37371,8.835],[128.01417,-3.37135,17.7122],[128.02223,-3.36858,122.2325],[128.0315,-3.35768,71.6254],[128.0442,-3.32578,107.4697],[128.05307,-3.31064,121.3008],[128.0569,-3.29681,11.4984],[128.06658,-3.19695,15.2203],[128.07691,-3.16253,84.2673],[128.09067,-3.13201,1.5726],[128.11061,-3.10003,75.2775],[128.13575,-3.07537,110.0137],[128.16578,-3.06699,0.0],[128.18434,-3.0744,0.0],[128.19679,-3.09092,0.0],[128.20004,-3.11142,11.1826],[128.18588,-3.14072,0.0],[128.18019,-3.16676,80.343],[128.17856,-3.19101,191.4405],[128.17872,-3.19427,231.5312],[128.18287,-3.19378,82.2579],[128.21144,-3.20428,129.2837],[128.23097,-3.20875,8.8432],[128.27215,-3.21152,6.393],[128.28207,-3.22088,1.8847],[128.39918,-3.41009,0.0],[128.41619,-3.42596,14.5387],[128.44972,-3.44329,32.3193],[128.4642,-3.45452,47.2871],[128.48414,-3.4625,0.0],[128.50831,-3.45696,10.0675],[128.54933,-3.43743,45.8216],[128.58692,-3.43434,0.0],[128.63592,-3.43662,0.0],[128.67758,-3.43231,0.0],[128.69386,-3.41009,11.8431],[128.69044,-3.40569,2.0397],[128.68328,-3.40106,3.0081],[128.67604,-3.39479,0.0],[128.67286,-3.38592,0.125],[128.67498,-3.37542,0.0],[128.67954,-3.36875,0.0],[128.68434,-3.36386,0.0],[128.68637,-3.35858,0.0],[128.69256,-3.34873,0.0],[128.77687,-3.27939,0.0],[128.78273,-3.26922,0.0],[128.79217,-3.26043,0.0],[128.85092,-3.23821,0.0],[128.86915,-3.21364,0.0],[128.87208,-3.20778,2.2753],[128.87745,-3.20257,15.1457],[128.88966,-3.20436,1.5898],[128.90952,-3.21152,0.0],[128.93336,-3.21356,0.0],[128.95289,-3.22039,8.6786],[128.96892,-3.23301,10.6728],[128.98194,-3.25189,11.5953],[128.94703,-3.30023,0.0],[128.93767,-3.32041,94.892],[128.93963,-3.33261,74.6904],[128.96079,-3.35556,25.5058],[128.98422,-3.34743,269.6657],[129.05844,-3.34075,60.9528],[129.08432,-3.34124,11.9651],[129.11354,-3.34881,21.9329],[129.19361,-3.38974,0.0],[129.23618,-3.40163,0.0],[129.35808,-3.41009,11.5072],[129.40154,-3.42295,0.0],[129.48561,-3.46347,0.0],[129.53004,-3.46478,112.3499],[129.56324,-3.43963,14.0615],[129.55144,-3.40325,33.3543],[129.50196,-3.33441,49.7271],[129.50961,-3.3025,13.9107],[129.54493,-3.29778,90.7603],[129.89047,-3.3331,57.7373],[129.93385,-3.34832,0.0],[129.96127,-3.38226,0.0],[129.96225,-3.3908,0.0],[129.96127,-3.4201,0.0],[129.96363,-3.42832,0.0],[129.97291,-3.4415,0.0],[129.97511,-3.44769,0.0],[129.98316,-3.45973,0.0],[130.00172,-3.47308,0.0],[130.03712,-3.49147,0.0],[130.08806,-3.5097,0.0],[130.1019,-3.5119,0.0],[130.10662,-3.51483,0.0],[130.12648,-3.53297,0.0],[130.3108,-3.59393,19.2793],[130.35646,-3.62469,0.0],[130.37599,-3.62916,0.0],[130.39894,-3.63128,0.0],[130.41879,-3.6369,1.2324],[130.43531,-3.64544,12.3992],[130.44801,-3.65651,6.6501],[130.46559,-3.68385,0.0],[130.47779,-3.69736,10.2267],[130.49269,-3.70306,9.0764],[130.5158,-3.7055,16.8623],[130.53517,-3.71185,0.0],[130.55128,-3.72096,0.0],[130.56471,-3.73162,0.0],[130.60694,-3.7785,0.0],[130.61647,-3.78631,21.4984],[130.6316,-3.78867,5.8811],[130.73121,-3.82594,0.0],[130.75278,-3.82789,56.2172],[130.76734,-3.83408,0.0],[130.79957,-3.86175,8.9813],[130.81788,-3.86883,4.9573],[130.84156,-3.865,3.9109],[130.84148,-3.8528,0.0],[130.83107,-3.8375,0.0],[130.82472,-3.82448,0.0],[130.83155,-3.69411,0.0],[130.83473,-3.68231,0.0],[130.84889,-3.66269,0.0],[130.85206,-3.65293,0.0],[130.85483,-3.64642,0.0],[130.86866,-3.62575,69.6323],[130.87322,-3.61492,135.2187],[130.87623,-3.59531,70.2971],[130.87574,-3.58563,35.8868],[130.87322,-3.57399,92.7571],[130.8628,-3.55731,35.693],[130.83139,-3.52646,2.6751],[130.81935,-3.50514,14.3852],[130.8108,-3.48455,0.0],[130.81088,-3.46494,15.1425],[130.83155,-3.45794,8.4182],[130.81658,-3.43426,1.5257],[130.79298,-3.41644,25.1979],[130.76149,-3.40586,1.6305],[130.72234,-3.40325,12.4008],[130.68263,-3.40643,11.8626],[130.66668,-3.40358,4.395],[130.66033,-3.39275,0.0],[130.65594,-3.38095,0.0],[130.63722,-3.35361,13.0753],[130.63282,-3.33782,0.0],[130.63103,-3.2527,0.0],[130.62224,-3.21258,0.0],[130.60222,-3.18011,10.7511],[130.59938,-3.17303,19.0266],[130.59197,-3.13885,0.0],[130.5879,-3.12949,0.0],[130.57846,-3.12282,0.0],[130.50294,-3.0945,0.0],[130.48894,-3.0875,0.0],[130.38933,-2.99383,0.0],[130.34498,-2.97763,12.5953],[130.30152,-2.97723,9.1128],[130.21266,-2.99041,0.0],[130.04664,-2.99212,0.0],[129.96485,-2.97357,5.8864],[129.94386,-2.96453,6.1053],[129.92758,-2.94695,0.0],[129.91163,-2.9332,0.0],[129.89503,-2.92539,9.985],[129.88559,-2.93662,9.4658],[129.8733,-2.9275,9.3885],[129.86988,-2.91627,0.0],[129.86834,-2.907,10.3113],[129.86207,-2.90301,5.0462],[129.84986,-2.90618,5.594],[129.83815,-2.91269,3.6215],[129.82545,-2.91766,7.1962],[129.81056,-2.91668,8.5937],[129.79802,-2.90643,3.347],[129.77809,-2.87542,8.1851],[129.76612,-2.86891,11.3878],[129.75375,-2.86647,8.8254],[129.61183,-2.80682,5.0989],[129.55494,-2.799,0.0],[129.54957,-2.79664,0.0],[129.54526,-2.79355,0.0],[129.54371,-2.78973,0.0],[129.54103,-2.78004,0.0]]]]}}