{"type":"Feature","properties":{"GID_3":"IDN.8.9.4_1","GID_0":"IDN","country":"Indonesia","GID_1":"IDN.8_1","province":"Jambi","NL_NAME_1":"NA","GID_2":"IDN.8.9_1","county":"TanjungJabungB","NL_NAME_2":"NA","city":"KualaBetara","VARNAME_3":"NA","NL_NAME_3":"NA","TYPE_3":"Kecamatan","ENGTYPE_3":"Sub-district","CC_3":"1507041","HASC_3":"NA","name":"Kuala_Betara.city"},
"geometry":{"type": "MultiPolygon","coordinates": [[[[103.4567,-0.9814,10.3639],[103.4958,-1.0151,3.1978],[103.5063,-1.0085,4.0675],[103.5125,-1.0068,5.0755],[103.5147,-1.005,7.0809],[103.5142,-1.0015,12.9408],[103.5205,-1.0004,10.3443],[103.5239,-1.0026,8.9144],[103.5268,-1.0001,10.1708],[103.5261,-0.9966,9.831],[103.53,-0.9966,9.7319],[103.5312,-0.9929,7.4652],[103.5351,-0.9932,8.9904],[103.5371,-0.9883,9.6],[103.5348,-0.9849,9.0181],[103.5392,-0.9818,8.4857],[103.5406,-0.9788,10.8862],[103.5479,-0.9792,11.4197],[103.5496,-0.9769,12.8026],[103.5432,-0.9741,11.0044],[103.5431,-0.9708,9.8363],[103.5458,-0.969,8.7772],[103.5437,-0.9659,5.8985],[103.5485,-0.9654,8.3114],[103.5479,-0.9607,5.7174],[103.5495,-0.9598,9.2003],[103.5517,-0.9639,12.2781],[103.5543,-0.9641,10.3909],[103.5587,-0.9572,5.7847],[103.5559,-0.9565,9.2874],[103.5541,-0.9582,11.3431],[103.5509,-0.9567,9.2577],[103.5512,-0.9534,7.473],[103.5556,-0.9542,6.2635],[103.5564,-0.9528,6.8087],[103.5534,-0.9478,3.7536],[103.5577,-0.9467,3.4755],[103.5572,-0.942,4.431],[103.5641,-0.9429,4.7738],[103.566,-0.9416,4.6401],[103.5647,-0.939,4.3438],[103.5599,-0.9387,4.2102],[103.5606,-0.9341,3.5007],[103.5592,-0.928,4.4406],[103.5632,-0.9299,3.1745],[103.5679,-0.9282,4.9517],[103.5665,-0.9251,3.752],[103.5632,-0.926,4.1003],[103.5613,-0.9224,4.4178],[103.5603,-0.9159,3.6994],[103.5645,-0.9161,5.4587],[103.5672,-0.9134,6.8699],[103.5625,-0.9113,3.7419],[103.5605,-0.9067,4.4465],[103.5633,-0.8966,8.1291],[103.5693,-0.8932,4.3796],[103.5675,-0.8877,9.2495],[103.5682,-0.8818,9.3526],[103.5741,-0.8752,2.9949],[103.5662,-0.8631,1.3218],[103.5499,-0.8562,0.0],[103.5383,-0.8675,0.0],[103.5212,-0.8695,2.8566],[103.518,-0.8671,4.3278],[103.5194,-0.8608,0.7778],[103.5161,-0.8531,1.1621],[103.5129,-0.8525,2.0654],[103.5083,-0.8583,2.7397],[103.5019,-0.8607,1.385],[103.4914,-0.8537,7.3352],[103.4814,-0.8445,5.7043],[103.4785,-0.8443,6.2261],[103.4738,-0.8462,5.148],[103.4724,-0.8575,7.6083],[103.4697,-0.8622,7.9018],[103.4551,-0.8589,7.5444],[103.4542,-0.8731,3.2132],[103.451,-0.8775,1.0364],[103.4564,-0.8833,1.9601],[103.4599,-0.907,7.476],[103.4538,-0.9087,7.3865],[103.4591,-0.9264,8.2387],[103.4567,-0.9814,10.3639]]]]}}