{"type":"Feature","properties":{"GID_3":"IDN.26.13.7_1","GID_0":"IDN","country":"Indonesia","GID_1":"IDN.26_1","province":"SulawesiSelatan","NL_NAME_1":"NA","GID_2":"IDN.26.13_1","county":"Maros","NL_NAME_2":"NA","city":"Mandai","VARNAME_3":"NA","NL_NAME_3":"NA","TYPE_3":"Kecamatan","ENGTYPE_3":"Sub-district","CC_3":"7308010","HASC_3":"NA","name":"Mandai.city"},
"geometry":{"type": "MultiPolygon","coordinates": [[[[119.5424,-5.1107,5.768],[119.548,-5.1137,4.6598],[119.5639,-5.1157,11.665],[119.5655,-5.1189,12.9606],[119.5655,-5.1257,26.2866],[119.5791,-5.1324,24.7134],[119.5907,-5.1309,133.3708],[119.577,-5.1189,38.1976],[119.5718,-5.1121,20.9054],[119.5676,-5.0985,7.9727],[119.568,-5.0969,9.3614],[119.5742,-5.0934,8.4751],[119.573,-5.0804,5.9449],[119.5762,-5.0789,5.6979],[119.5792,-5.0798,6.4163],[119.5834,-5.0765,8.4366],[119.5847,-5.0666,13.8432],[119.583,-5.0633,9.2925],[119.5887,-5.0627,7.0139],[119.5912,-5.0607,10.0946],[119.5943,-5.0443,5.424],[119.5887,-5.0444,4.4562],[119.5737,-5.0398,11.2595],[119.5683,-5.0414,9.223],[119.5617,-5.0497,7.4577],[119.5472,-5.0379,1.4347],[119.5447,-5.0431,10.2336],[119.546,-5.044,2.7512],[119.5453,-5.0464,3.8429],[119.5467,-5.0494,7.9931],[119.541,-5.0483,2.031],[119.5399,-5.0563,10.4613],[119.5278,-5.0656,2.3778],[119.5311,-5.068,6.5135],[119.5325,-5.0719,4.0985],[119.5363,-5.0736,7.3094],[119.5381,-5.0798,5.6325],[119.5414,-5.0834,9.2734],[119.5374,-5.0937,10.6307],[119.5389,-5.0999,12.0286],[119.5409,-5.1007,8.0506],[119.5405,-5.1034,8.7956],[119.5387,-5.1042,10.28],[119.5419,-5.1064,5.423],[119.5424,-5.1107,5.768]]]]}}