{"type":"Feature","properties":{"GID_3":"IDN.34.12.1_1","GID_0":"IDN","country":"Indonesia","GID_1":"IDN.34_1","province":"KalimantanTimur","NL_NAME_1":"NA","GID_2":"IDN.34.12_1","county":"Samarinda","NL_NAME_2":"NA","city":"Palaran","VARNAME_3":"NA","NL_NAME_3":"NA","TYPE_3":"Kecamatan","ENGTYPE_3":"Sub-district","CC_3":"6472010","HASC_3":"NA","name":"Palaran.city"},
"geometry":{"type": "MultiPolygon","coordinates": [[[[117.1996,-0.5632,0.0],[117.1816,-0.5559,0.0],[117.159,-0.53,1.4722],[117.1395,-0.5473,111.7399],[117.1258,-0.5665,83.9687],[117.1131,-0.5714,7.7019],[117.1094,-0.5758,4.5518],[117.1193,-0.5988,29.222],[117.1241,-0.6065,46.0225],[117.1421,-0.6194,26.4057],[117.1379,-0.6491,12.8229],[117.1306,-0.6556,18.0765],[117.1294,-0.6602,19.0926],[117.1301,-0.6645,18.6508],[117.1384,-0.6739,67.3738],[117.1386,-0.6874,45.4476],[117.152,-0.6852,24.2745],[117.161,-0.7045,56.6999],[117.1636,-0.7059,57.5859],[117.1662,-0.7065,39.5743],[117.1682,-0.705,52.4529],[117.1774,-0.7071,10.3436],[117.1817,-0.7065,8.308],[117.1858,-0.7007,9.9138],[117.1855,-0.6963,6.8393],[117.1878,-0.694,3.6321],[117.1883,-0.6894,8.2012],[117.1912,-0.6873,5.6857],[117.1935,-0.6824,3.6916],[117.1935,-0.676,5.7226],[117.2013,-0.6702,7.6204],[117.2229,-0.6684,4.1986],[117.2268,-0.6654,6.358],[117.2322,-0.6602,5.1609],[117.2353,-0.6534,17.2444],[117.2306,-0.6419,1.5597],[117.2317,-0.6387,7.1563],[117.2452,-0.6342,7.556],[117.2501,-0.6272,5.4321],[117.2627,-0.6206,10.8516],[117.2704,-0.6116,37.5142],[117.2719,-0.5996,3.7941],[117.277,-0.599,6.2275],[117.2828,-0.6008,0.0],[117.2857,-0.5972,0.0],[117.2842,-0.5917,0.0],[117.2787,-0.5855,0.0],[117.2643,-0.5778,0.0],[117.251,-0.5743,0.0],[117.2298,-0.5759,0.0],[117.1996,-0.5632,0.0]]]]}}