{"type":"Feature","properties":{"GID_3":"IDN.26.11.6_1","GID_0":"IDN","country":"Indonesia","GID_1":"IDN.26_1","province":"SulawesiSelatan","NL_NAME_1":"NA","GID_2":"IDN.26.11_1","county":"Luwu","NL_NAME_2":"NA","city":"Bua","VARNAME_3":"NA","NL_NAME_3":"NA","TYPE_3":"Kecamatan","ENGTYPE_3":"Sub-district","CC_3":"7317070","HASC_3":"NA","name":"Bua.city"},
"geometry":{"type": "MultiPolygon","coordinates": [[[[120.2643,-3.1675,2.7683],[120.2656,-3.1665,2.7683],[120.2546,-3.1584,2.0629],[120.252,-3.1472,1.8944],[120.2521,-3.1414,1.8411],[120.2568,-3.1353,0.6032],[120.2603,-3.1268,0.0],[120.2593,-3.1107,1.5918],[120.2611,-3.1056,1.6679],[120.2625,-3.0825,0.8555],[120.2597,-3.071,0.0],[120.2581,-3.0695,1.3237],[120.2587,-3.065,1.3321],[120.2543,-3.059,1.1074],[120.2531,-3.0515,3.6335],[120.2498,-3.0503999999999998,0.637],[120.2501,-3.0475,0.0],[120.2476,-3.0465,0.5468],[120.2478,-3.0498,1.941],[120.2454,-3.0487,0.3968],[120.2443,-3.0503,1.2638],[120.2408,-3.0489,0.9286],[120.2396,-3.0501,1.1657],[120.2357,-3.0479,0.0],[120.2337,-3.0486,1.0912],[120.2288,-3.0432,0.6671],[120.2222,-3.0517,82.9689],[120.216,-3.0567,36.0968],[120.2076,-3.0596,69.8993],[120.1985,-3.0567,71.9239],[120.1944,-3.0577,44.9343],[120.1893,-3.0545,59.4005],[120.1847,-3.0555,205.8068],[120.1742,-3.0542,417.425],[120.1656,-3.0573,174.5275],[120.1637,-3.0688,110.1783],[120.1602,-3.0718,105.4747],[120.1545,-3.0707,136.4956],[120.1534,-3.0733,159.146],[120.1503,-3.0728,219.4702],[120.1485,-3.0807,190.3629],[120.1516,-3.0909,362.7555],[120.1491,-3.0963,516.6933],[120.1505,-3.1047,560.2308],[120.1478,-3.1202,848.0775],[120.139,-3.1274,1106.3783],[120.1292,-3.1315,1348.104],[120.1343,-3.1368,1192.2777],[120.1338,-3.1525,1259.6278],[120.138,-3.1595,1170.5063],[120.1372,-3.1662,1230.9501],[120.1423,-3.1714,1275.718],[120.1462,-3.1804,1254.8159],[120.1559,-3.1835,1069.6005],[120.17,-3.1721,1098.7157],[120.1777,-3.1774,962.6846],[120.1923,-3.1731,1085.6735],[120.2006,-3.1756,828.0463],[120.2043,-3.173,646.6629],[120.2119,-3.1778,380.3336],[120.2353,-3.1793,67.5688],[120.2375,-3.1836,56.3545],[120.2405,-3.1842,51.7678],[120.2426,-3.1826,45.5429],[120.2435,-3.1838,42.3656],[120.2586,-3.1848,7.9891],[120.2633,-3.1832,3.1941],[120.262,-3.1798,0.5],[120.2631,-3.1778,0.5],[120.2606,-3.1753999999999998,6.73],[120.2643,-3.1675,2.7683]]]]}}