{"type":"Feature","properties":{"GID_3":"IDN.32.9.21_1","GID_0":"IDN","country":"Indonesia","GID_1":"IDN.32_1","province":"SumateraUtara","NL_NAME_1":"NA","GID_2":"IDN.32.9_1","county":"KotaMedan","NL_NAME_2":"NA","city":"MedanTuntungan","VARNAME_3":"NA","NL_NAME_3":"NA","TYPE_3":"Kecamatan","ENGTYPE_3":"Sub-district","CC_3":"1275010","HASC_3":"NA","name":"Medan_Tuntungan.city"},
"geometry":{"type": "MultiPolygon","coordinates": [[[[98.5995,3.51,52.0421],[98.5966,3.5057,48.9746],[98.5967,3.5008,51.9224],[98.5934,3.4997,63.2828],[98.5925,3.4979,55.7835],[98.6001,3.4909,76.7908],[98.6089,3.4967,71.7454],[98.6172,3.4983,63.6826],[98.6158,3.5033,58.6883],[98.6206,3.5068,51.0589],[98.6247,3.507,54.0008],[98.6236,3.5161,48.9734],[98.6257,3.5188,49.863],[98.6279,3.5182,47.4271],[98.6276,3.512,50.7136],[98.6297,3.5116,50.6866],[98.6285,3.5087,53.7638],[98.63,3.5089,53.1975],[98.6318,3.5058,50.0463],[98.6302,3.503,51.4091],[98.6324,3.5024,56.3386],[98.6322,3.4998,53.9513],[98.6336,3.4992,58.3563],[98.632,3.4989,53.9513],[98.634,3.4982,54.3182],[98.6329,3.4976,54.3182],[98.6339,3.4966,58.8893],[98.6367,3.4972,57.6753],[98.6347,3.4935,61.458],[98.6371,3.4905,64.8825],[98.6357,3.4893,68.2258],[98.6446,3.4881,63.9411],[98.6475,3.4982,58.1998],[98.6482,3.4958,51.8434],[98.6498,3.4971,55.3056],[98.655,3.4962,50.5443],[98.6555,3.5007,57.8351],[98.659,3.5046,47.1919],[98.6594,3.508,42.8984],[98.6435,3.5088,48.7457],[98.6428,3.51,54.2341],[98.6443,3.5148,45.5996],[98.6477,3.5155,46.5804],[98.6493,3.5183,48.4343],[98.6482,3.5319,38.5047],[98.6478,3.5297,39.2409],[98.6461,3.5293,41.6563],[98.6426,3.5346,42.0456],[98.6362,3.5296,47.1998],[98.6337,3.5326,41.5974],[98.629,3.5326,42.068],[98.6291,3.5371,39.7179],[98.6158,3.5377,42.328],[98.6184,3.5467,36.331],[98.6204,3.5474,35.4566],[98.6207,3.5495,34.8673],[98.6074,3.5505,34.2365],[98.5988,3.5465,30.9161],[98.5931,3.5403,42.5335],[98.5975,3.538,38.8372],[98.6003,3.5386,36.2884],[98.6026,3.5342,39.972],[98.601,3.5329,36.9423],[98.6023,3.5318,50.0259],[98.5974,3.5281,43.1458],[98.6022,3.5162,59.5424],[98.5995,3.51,52.0421]]]]}}