{"type":"Feature","properties":{"GID_3":"IDN.12.5.5_1","GID_0":"IDN","country":"Indonesia","GID_1":"IDN.12_1","province":"KalimantanBarat","NL_NAME_1":"NA","GID_2":"IDN.12.5_1","county":"KotaPontianak","NL_NAME_2":"NA","city":"PontianakTimur","VARNAME_3":"NA","NL_NAME_3":"NA","TYPE_3":"Kecamatan","ENGTYPE_3":"Sub-district","CC_3":"6171020","HASC_3":"NA","name":"Pontianak_Timur.city"},
"geometry":{"type": "MultiPolygon","coordinates": [[[[109.3643,-0.0209,0.0],[109.3455,-0.0237,1.6705],[109.352,-0.0361,3.2523],[109.3732,-0.0616,2.4615],[109.3841,-0.0522,9.0961],[109.371,-0.0361,3.6697],[109.3761,-0.0313,4.177],[109.3789,-0.0321,3.192],[109.3827,-0.0296,3.2268],[109.3836,-0.0265,4.258],[109.3643,-0.0209,0.0]]]]}}