{"type":"Feature","properties":{"GID_3":"IDN.9.6.31_1","GID_0":"IDN","country":"Indonesia","GID_1":"IDN.9_1","province":"JawaBarat","NL_NAME_1":"NA","GID_2":"IDN.9.6_1","county":"Ciamis","NL_NAME_2":"NA","city":"Sadananya","VARNAME_3":"NA","NL_NAME_3":"NA","TYPE_3":"Kecamatan","ENGTYPE_3":"Sub-district","CC_3":"3207240","HASC_3":"NA","name":"Sadananya.city"},
"geometry":{"type": "MultiPolygon","coordinates": [[[[108.335,-7.3027,269.8854],[108.333,-7.2995,302.195],[108.3383,-7.2851,332.9873],[108.3406,-7.2849,307.9125],[108.3382,-7.2831,297.5047],[108.3377,-7.2789,334.6419],[108.3344,-7.2781,317.3826],[108.3336,-7.2736,334.8085],[108.3297,-7.2701,349.1218],[108.3271,-7.2627,430.0861],[108.3143,-7.2476,560.5536],[108.3175,-7.2436,558.3336],[108.3155,-7.2393,611.9858],[108.3159,-7.2346,649.5984],[108.3128,-7.223,801.6974],[108.3088,-7.2199,935.1818],[108.3082,-7.2164,965.3317],[108.3123,-7.2106,979.9659],[108.3091,-7.2061,1113.7697],[108.3077,-7.2067,1051.8442],[108.3103,-7.1982,1185.1257],[108.308,-7.1987,1172.0182],[108.3036,-7.1942,1164.2814],[108.3016,-7.1997,1037.9088],[108.2998,-7.1965,1096.4355],[108.2973,-7.1958,1214.0643],[108.2813,-7.1947,1635.7424],[108.2812,-7.2008,1324.1808],[108.2854,-7.2049,1152.0286],[108.284,-7.2099,937.8163],[108.2867,-7.2111,962.1336],[108.2836,-7.2209,980.3947],[108.2819,-7.222,1112.2981],[108.2726,-7.2177,1416.3329],[108.271,-7.219,1389.8264],[108.2764,-7.2266,1243.7886],[108.2758,-7.2337,913.0331],[108.2823,-7.2373,1019.6407],[108.281,-7.2435,745.73],[108.2832,-7.2463,762.079],[108.2802,-7.248,693.5267],[108.2786,-7.2518,615.6051],[108.2834,-7.2556,632.351],[108.2911,-7.2588,565.5396],[108.2935,-7.263,507.3929],[108.2978,-7.2662,474.3312],[108.2951,-7.268,448.0015],[108.2958,-7.27,442.7422],[108.294,-7.27,442.7422],[108.2947,-7.274,419.3234],[108.3013,-7.2824,359.6075],[108.2987,-7.2828,373.5967],[108.296,-7.2877,400.5304],[108.3004,-7.289,379.929],[108.2989,-7.2914,388.3093],[108.3074,-7.2923,352.53],[108.3085,-7.2952,353.8486],[108.3129,-7.2968,318.0382],[108.3191,-7.3034,288.2057],[108.3173,-7.304,299.4009],[108.3165,-7.3065,280.07619999999997],[108.3194,-7.3063,278.4604],[108.3211,-7.31,269.0335],[108.3271,-7.3142,263.1076],[108.3259,-7.3158,258.9694],[108.3306,-7.3194,241.5589],[108.3297,-7.321,238.0378],[108.3321,-7.3206,235.2086],[108.3317,-7.3218,243.8106],[108.3351,-7.3217,240.7814],[108.336,-7.3163,242.7407],[108.3385,-7.3168,233.7048],[108.3458,-7.3118,213.8676],[108.3449,-7.3089,232.5125],[108.3399,-7.3056,239.5305],[108.3394,-7.3031,252.4175],[108.3363,-7.3039,267.5519],[108.335,-7.3027,269.8854]]]]}}