{"type":"Feature","properties":{"GID_3":"IDN.9.7.1_1","GID_0":"IDN","country":"Indonesia","GID_1":"IDN.9_1","province":"JawaBarat","NL_NAME_1":"NA","GID_2":"IDN.9.7_1","county":"Cianjur","NL_NAME_2":"NA","city":"Agrabinta","VARNAME_3":"NA","NL_NAME_3":"NA","TYPE_3":"Kecamatan","ENGTYPE_3":"Sub-district","CC_3":"3203010","HASC_3":"NA","name":"Agrabinta.city"},
"geometry":{"type": "MultiPolygon","coordinates": [[[[106.9269,-7.4389,3.8459],[106.9891,-7.4454,0.0],[106.9913,-7.4441,3.9583],[106.9926,-7.435,8.2721],[106.9958,-7.4346,3.2341],[106.9949,-7.4199,43.441],[106.987,-7.4095,95.7206],[106.9846,-7.3968,86.6338],[106.9771,-7.3952,83.2113],[106.9613,-7.3966,82.8281],[106.9605,-7.3924,15.9855],[106.9648,-7.3925,17.3162],[106.9663,-7.3904,15.9115],[106.9609,-7.3858,69.8573],[106.9601,-7.3796,27.1445],[106.9572,-7.3776,85.2879],[106.9557,-7.3683,67.9337],[106.958,-7.3661,108.8301],[106.9698,-7.3663,161.1907],[106.9693,-7.3644,148.2592],[106.9723,-7.359,135.5426],[106.9693,-7.3539,175.1301],[106.9538,-7.3411,242.4265],[106.9522,-7.3334,263.5845],[106.9531,-7.33,284.9177],[106.964,-7.3252,263.4438],[106.9565,-7.3188,78.0895],[106.9548,-7.3208,75.7765],[106.9509,-7.3215,77.4185],[106.9468,-7.3185,73.9221],[106.9406,-7.3178,93.8427],[106.9339,-7.3244,119.6734],[106.9336,-7.3287,169.0284],[106.9353,-7.3328,93.0335],[106.9341,-7.3341,88.3463],[106.9276,-7.333,92.5243],[106.9262,-7.327,101.3732],[106.9195,-7.3219,71.3127],[106.9151,-7.323,78.1746],[106.9114,-7.3283,83.6012],[106.9108,-7.3347,48.0738],[106.908,-7.3395,44.4424],[106.9094,-7.3493,80.2753],[106.9035,-7.3513,91.2665],[106.9032,-7.3426,51.675],[106.8953,-7.3414,52.7998],[106.8929,-7.3433,73.1292],[106.8949,-7.3476,35.4681],[106.89,-7.3487,56.3871],[106.8847,-7.3534,59.7803],[106.8811,-7.3515,40.4082],[106.8768,-7.3535,42.9803],[106.8768,-7.3629,28.1146],[106.875,-7.3641,21.79],[106.8711,-7.3632,47.9597],[106.8692,-7.3557,30.3284],[106.8602,-7.3638,22.3964],[106.8555,-7.3611,72.6124],[106.8605,-7.3571,19.0029],[106.8594,-7.3543,31.0188],[106.8549,-7.3556,40.8394],[106.8508,-7.3607,26.903199999999998],[106.8455,-7.3564,21.6073],[106.8425,-7.3585,27.9543],[106.8319,-7.358,30.1499],[106.8276,-7.3652,14.0659],[106.8231,-7.3625,13.4497],[106.8197,-7.3724,8.4927],[106.8052,-7.3881,22.1269],[106.7956,-7.3916,8.4715],[106.7951,-7.3968,10.3817],[106.7814,-7.3974,27.6166],[106.7763,-7.4045,6.8257],[106.7778,-7.4111,15.4072],[106.7819,-7.4161,6.238],[106.7834,-7.4162,6.238],[106.7864,-7.4106,4.1121],[106.7894,-7.409,3.9221],[106.7921,-7.4173,2.0],[106.7928,-7.4152,2.9558],[106.7934,-7.4173,2.0],[106.7946,-7.4323,0.5],[106.7935,-7.4361,0.0],[106.7953,-7.4369,0.9679],[106.8315,-7.4338,2.6735],[106.878,-7.435,0.0],[106.8789,-7.4337,0.0],[106.8771,-7.4332,0.4861],[106.8636,-7.4331,2.5213],[106.8636,-7.4306,8.4621],[106.8813,-7.4337,0.0],[106.8839,-7.4302,2.275],[106.8825,-7.4337,4.5232],[106.8801,-7.4347,0.0],[106.9269,-7.4389,3.8459]]]]}}