{"type":"Feature","properties":{"GID_3":"IDN.11.23.2_1","GID_0":"IDN","country":"Indonesia","GID_1":"IDN.11_1","province":"JawaTimur","NL_NAME_1":"NA","GID_2":"IDN.11.23_1","county":"Mojokerto","NL_NAME_2":"NA","city":"DawarBlandong","VARNAME_3":"NA","NL_NAME_3":"NA","TYPE_3":"Kecamatan","ENGTYPE_3":"Sub-district","CC_3":"3516170","HASC_3":"NA","name":"Dawar_Blandong.city"},
"geometry":{"type": "MultiPolygon","coordinates": [[[[112.4524,-7.3658,58.9458],[112.4524,-7.3621,55.1807],[112.4562,-7.3624,57.6441],[112.4578,-7.3644,60.0837],[112.4621,-7.3644,51.6234],[112.4651,-7.3633,45.7077],[112.4657,-7.3606,50.0957],[112.4691,-7.3582,59.5108],[112.4742,-7.3591,58.4606],[112.4759,-7.362,55.7464],[112.4739,-7.353,55.7042],[112.4788,-7.3518,54.1595],[112.479,-7.3494,55.0422],[112.4821,-7.349,62.7067],[112.4845,-7.3368,37.6],[112.4797,-7.3293,43.383],[112.4774,-7.3057,18.6917],[112.4717,-7.3049,20.1863],[112.4678,-7.3065,20.6291],[112.4623,-7.3124,21.2443],[112.4599,-7.3129,21.5436],[112.4573,-7.312,19.7452],[112.457,-7.309,18.5017],[112.4555,-7.311,18.609],[112.4521,-7.3098,21.6869],[112.4507,-7.3055,22.7283],[112.4497,-7.3074,19.2148],[112.4476,-7.3064,19.094],[112.4475,-7.3031,20.8108],[112.442,-7.3081,20.1615],[112.4432,-7.3108,21.3966],[112.4403,-7.3141,20.9005],[112.4322,-7.3139,24.6866],[112.4287,-7.3108,25.1083],[112.4215,-7.3172,25.7601],[112.4212,-7.3145,24.4333],[112.4232,-7.3126,23.3286],[112.417,-7.3128,24.3115],[112.419,-7.3168,26.6528],[112.4098,-7.3176,25.8146],[112.402,-7.3223,30.5351],[112.4014,-7.3257,30.5149],[112.3979,-7.3267,29.4629],[112.3968,-7.3249,29.3383],[112.3961,-7.3274,27.6694],[112.3941,-7.327,28.3464],[112.3948,-7.3309,30.0875],[112.3913,-7.3334,36.634],[112.3819,-7.3301,35.7386],[112.38,-7.3268,35.1068],[112.3762,-7.3278,38.5118],[112.3764,-7.3235,32.0931],[112.3718,-7.3238,32.3141],[112.3717,-7.3266,36.465],[112.3691,-7.3245,40.2583],[112.3631,-7.3269,35.8749],[112.3587,-7.3263,36.3607],[112.358,-7.3307,39.0792],[112.3528,-7.3333,43.1851],[112.3464,-7.3406,50.7437],[112.3477,-7.3462,58.8261],[112.3546,-7.354,61.0533],[112.3605,-7.3683,87.2344],[112.3699,-7.3761,66.2639],[112.3811,-7.3754,69.2441],[112.3833,-7.3685,74.192],[112.3872,-7.3677,80.4108],[112.3881,-7.366,72.5667],[112.392,-7.3661,80.254],[112.3933,-7.3635,82.1735],[112.3951,-7.3634,86.0348],[112.4058,-7.3696,87.513],[112.4092,-7.37,90.2222],[112.4116,-7.3742,92.5543],[112.4129,-7.3744,92.5543],[112.4154,-7.3706,82.5713],[112.4226,-7.3706,75.8892],[112.428,-7.375,71.1637],[112.4279,-7.3768,66.4112],[112.4342,-7.3787,48.4254],[112.4322,-7.3853,66.8097],[112.4438,-7.3867,49.5041],[112.4452,-7.3858,39.5908],[112.4444,-7.3825,41.8145],[112.4463,-7.3808,53.4841],[112.4525,-7.382,62.6188],[112.4496,-7.3746,48.8852],[112.4501,-7.3708,52.4203],[112.4536,-7.3706,55.9543],[112.4524,-7.3658,58.9458]]]]}}