{"type":"Feature","properties":{"GID_3":"IDN.9.20.7_1","GID_0":"IDN","country":"Indonesia","GID_1":"IDN.9_1","province":"JawaBarat","NL_NAME_1":"NA","GID_2":"IDN.9.20_1","county":"Kuningan","NL_NAME_2":"NA","city":"Cilebak","VARNAME_3":"NA","NL_NAME_3":"NA","TYPE_3":"Kecamatan","ENGTYPE_3":"Sub-district","CC_3":"3208051","HASC_3":"NA","name":"Cilebak.city"},
"geometry":{"type": "MultiPolygon","coordinates": [[[[108.5269,-7.1797,222.6502],[108.5278,-7.182,221.916],[108.5331,-7.1846,257.3791],[108.5423,-7.1864,300.0413],[108.5406,-7.1897,332.1786],[108.5551,-7.1904,183.3865],[108.5555,-7.1932,177.0737],[108.561,-7.1911,254.3735],[108.56,-7.1862,270.4929],[108.5659,-7.1803,477.5004],[108.5621,-7.1714,806.1578],[108.5583,-7.1682,610.7598],[108.5523,-7.165,376.9605],[108.5445,-7.1644,294.0583],[108.5407,-7.1671,259.2708],[108.534,-7.1651,252.1722],[108.5262,-7.1742,245.85059999999999],[108.5207,-7.1729,319.4748],[108.5226,-7.1763,343.6807],[108.5291,-7.1781,322.5114],[108.526,-7.1785,290.5174],[108.5269,-7.1797,222.6502]]],
[[[108.5914,-7.1511,921.2289],[108.5941,-7.1499,964.0181],[108.604,-7.151,900.1307],[108.6108,-7.1494,858.2091],[108.6168,-7.1448,1010.4515],[108.6192,-7.1382,991.7365],[108.6182,-7.1353,854.3247],[108.6193,-7.1319,897.3839],[108.6181,-7.132,877.2041],[108.6171,-7.1277,735.053],[108.602,-7.128,764.8623],[108.598,-7.125,688.3873],[108.5988,-7.1234,559.7257],[108.6031,-7.1224,449.0281],[108.606,-7.112,312.0978],[108.6083,-7.1119,288.5464],[108.6133,-7.1038,237.8031],[108.6024,-7.096,272.9532],[108.5927,-7.0921,303.5844],[108.5888,-7.093,407.4203],[108.5856,-7.0971,385.6718],[108.5781,-7.1022,358.3788],[108.5758,-7.1066,468.8841],[108.5722,-7.1066,518.0205],[108.5733,-7.1099,417.3087],[108.5719,-7.12,623.4225],[108.5733,-7.1222,662.6649],[108.5573,-7.1175,727.099],[108.5521,-7.125,476.1688],[108.5542,-7.1298,350.4463],[108.5553,-7.1389,607.457],[108.5635,-7.1418,721.1581],[108.5666,-7.1567,570.3224],[108.5714,-7.1641,721.317],[108.5748,-7.1651,952.1307],[108.5808,-7.164,959.762],[108.5834,-7.1573,1090.0101],[108.5888,-7.1551,1086.1001],[108.5914,-7.1511,921.2289]]]]}}