{"type":"Feature","properties":{"GID_2":"IDN.12.12_1","GID_0":"IDN","country":"Indonesia","GID_1":"IDN.12_1","province":"KalimantanBarat","NL_NAME_1":"NA","county":"Sekadau","VARNAME_2":"NA","NL_NAME_2":"NA","TYPE_2":"Kabupaten","ENGTYPE_2":"Regency","CC_2":"6109","HASC_2":"ID.KB.SE","name":"Sekadau.county"},
"geometry":{"type": "MultiPolygon","coordinates": [[[[110.6983,-0.6328,89.4471],[110.7032,-0.632,77.9077],[110.7154,-0.6231,97.0539],[110.7203,-0.6223,102.4691],[110.7281,-0.6226,102.1992],[110.7319,-0.6294,100.3892],[110.7362,-0.6255,191.8944],[110.7489,-0.6221,292.2231],[110.7651,-0.6094,123.6838],[110.7744,-0.6089,114.3812],[110.7755,-0.6068,115.5442],[110.7827,-0.6068,173.7109],[110.8039,-0.6011,754.1603],[110.8127,-0.5896,750.1705],[110.8437,-0.5678,254.3448],[110.8468,-0.5553,217.884],[110.8463,-0.5413,132.2376],[110.8504,-0.5272,140.9243],[110.8599,-0.516,131.1466],[110.8721,-0.5059,123.162],[110.8669,-0.4904,268.2473],[110.8815,-0.4779,755.7184],[110.8996,-0.4592,657.162],[110.9072,-0.458,672.7446],[110.9214,-0.4622,771.6523],[110.9258,-0.4678,818.2472],[110.9357,-0.4701,845.9561],[110.947,-0.4815,1089.3463],[110.9718,-0.485,1118.5569],[111.0178,-0.5036,948.9123],[111.0296,-0.5012,965.3011],[111.0509,-0.5029,1085.2465],[111.0654,-0.5007,1458.2002],[111.0689,-0.5019,1549.7092],[111.0885,-0.4972,1506.0974],[111.0863,-0.4857,1281.7202],[111.0777,-0.4747,1040.6855],[111.0671,-0.4652,992.8343],[111.0574,-0.4482,1201.9929],[111.0468,-0.438,821.8033],[111.0348,-0.4164,831.3948],[111.028,-0.3823,454.4682],[111.0272,-0.3473,109.9944],[111.0289,-0.3276,105.947],[111.034,-0.3102,95.6899],[111.0428,-0.2999,219.0225],[111.0555,-0.2933,282.2565],[111.0702,-0.2807,123.759],[111.0754,-0.2742,349.1282],[111.0765,-0.2685,272.9169],[111.0794,-0.2663,207.8132],[111.0884,-0.2521,83.0835],[111.0916,-0.2413,77.4478],[111.0924,-0.2301,74.6308],[111.0857,-0.2034,66.346],[111.0852,-0.1958,88.3427],[111.0874,-0.183,64.5863],[111.0949,-0.1816,114.2363],[111.0978,-0.1661,104.8283],[111.0958,-0.152,121.2243],[111.0963,-0.1389,144.2241],[111.0987,-0.1336,149.461],[111.1117,-0.1244,105.1013],[111.1286,-0.121,51.8098],[111.1359,-0.1129,52.7479],[111.1353,-0.0996,45.5472],[111.1459,-0.0701,34.0629],[111.1488,0.0015,31.0711],[111.1346,0.0448,36.1901],[111.1302,0.0751,36.406],[111.1237,0.0856,12.5],[111.1476,0.1024,12.5],[111.1529,0.104,12.5],[111.1595,0.1026,12.5],[111.1652,0.0987,12.5],[111.1784,0.0791,12.5],[111.1827,0.0766,12.5],[111.2016,0.072,12.5],[111.2105,0.062,17.2319],[111.2144,0.0617,12.5],[111.2191,0.0642,12.5],[111.2242,0.0733,12.5],[111.2322,0.1091,13.0],[111.2385,0.1214,13.0],[111.2489,0.1269,13.0],[111.2749,0.1324,13.0],[111.273,0.1492,28.0604],[111.2688,0.157,28.0395],[111.2658,0.1648,24.5429],[111.266,0.1701,23.5198],[111.2643,0.1718,25.8941],[111.26,0.2042,19.3716],[111.2621,0.2125,16.9026],[111.2677,0.216,19.1688],[111.2669,0.2192,17.9637],[111.2631,0.2227,17.4925],[111.266,0.2327,18.975],[111.2712,0.2311,18.7541],[111.2726,0.2324,18.3534],[111.2703,0.2356,19.8388],[111.2734,0.2411,24.2842],[111.2731,0.2458,24.94],[111.271,0.2489,21.3867],[111.2689,0.249,20.7654],[111.2706,0.2443,23.1091],[111.269,0.2411,23.2954],[111.267,0.2507,20.2273],[111.261,0.2468,27.7439],[111.263,0.2507,23.9985],[111.2597,0.2612,22.7494],[111.2627,0.2604,28.8695],[111.2632,0.2615,21.8607],[111.2587,0.2663,25.4419],[111.2611,0.2687,28.5916],[111.258,0.2691,23.4972],[111.2547,0.2724,22.5626],[111.2548,0.2747,25.215],[111.2591,0.2784,28.6995],[111.2561,0.2894,22.0131],[111.2592,0.2949,27.9618],[111.2526,0.2965,24.9959],[111.249,0.2939,26.9299],[111.2473,0.2976,21.7802],[111.2441,0.2977,26.6329],[111.2405,0.3009,26.8141],[111.2372,0.3016,24.4566],[111.2367,0.3057,25.181],[111.2317,0.3063,25.116],[111.2311,0.3097,22.987],[111.2358,0.3247,24.3697],[111.2349,0.3257,21.4009],[111.2299,0.3234,42.1255],[111.2317,0.3309,30.1148],[111.2277,0.3279,40.2085],[111.2277,0.3319,25.1011],[111.2233,0.3327,25.5204],[111.223,0.3339,22.9457],[111.2265,0.336,29.4424],[111.2215,0.341,33.8017],[111.2227,0.3437,29.4333],[111.2172,0.358,25.9485],[111.2203,0.3629,22.2693],[111.2302,0.3664,22.5918],[111.253,0.3638,34.442],[111.2592,0.3652,29.7229],[111.2642,0.3695,39.2196],[111.2674,0.3752,45.2659],[111.2679,0.3919,33.5033],[111.258,0.4222,34.3915],[111.258,0.4276,36.1703],[111.26,0.4332,27.6421],[111.2669,0.4428,26.2328],[111.2679,0.4554,35.6179],[111.2708,0.466,58.6061],[111.2854,0.4908,39.9789],[111.2927,0.509,39.3546],[111.2956,0.5246,46.1116],[111.2913,0.5462,41.4179],[111.2803,0.5647,53.0225],[111.2735,0.5827,57.7786],[111.2696,0.5891,48.8856],[111.2624,0.5942,59.7979],[111.2578,0.5955,54.3144],[111.2301,0.5891,174.8921],[111.2202,0.5927,197.3912],[111.2048,0.6021,51.3464],[111.1933,0.6128,45.227],[111.1559,0.6615,47.3063],[111.1373,0.6782,67.0768],[111.1229,0.6887,48.1032],[111.1199,0.7059,54.2527],[111.1054,0.7168,62.5846],[111.1003,0.7279,76.5165],[111.0601,0.7403,113.114],[111.0535,0.74,90.4715],[111.0501,0.7289,110.1992],[111.0403,0.7122,70.2582],[111.0317,0.7031,59.9927],[111.0082,0.6852,54.4465],[111.0073,0.6819,47.2207],[111.0092,0.6742,50.8461],[111.0125,0.6687,49.2679],[111.0133,0.6619,51.4788],[111.0095,0.6407,53.0202],[111.0108,0.6184,54.2077],[111.0098,0.605,123.3991],[111.0009,0.5804,343.6914],[111.0019,0.5629,511.7576],[110.9963,0.5518,51.2025],[110.9744,0.5252,38.4573],[110.9625,0.5021,91.0133],[110.9565,0.4973,87.1216],[110.9515,0.4815,62.8536],[110.9425,0.4618,79.0599],[110.9428,0.4429,90.6476],[110.9398,0.4318,79.1907],[110.9427,0.4142,65.2603],[110.9464,0.4054,53.4828],[110.9459,0.4007,45.6898],[110.9479,0.3982,50.5209],[110.9513,0.3973,46.1649],[110.9533,0.3909,49.4328],[110.9608,0.3854,52.1063],[110.9636,0.3851,50.0188],[110.9733,0.36,54.4623],[110.972,0.3475,76.8707],[110.968,0.3341,61.4032],[110.9543,0.3205,44.9134],[110.9462,0.3092,41.6103],[110.9447,0.2941,43.1313],[110.9352,0.2575,55.2729],[110.9218,0.2293,64.6548],[110.9152,0.2263,86.6353],[110.903,0.2277,64.9291],[110.8961,0.2235,51.9028],[110.8883,0.2148,38.8938],[110.8861,0.206,42.5004],[110.8889,0.1955,39.2232],[110.8889,0.1864,33.5866],[110.8825,0.1603,32.5656],[110.8773,0.153,27.629],[110.8732,0.1239,57.2339],[110.868,0.1146,102.3459],[110.8557,0.1006,90.1045],[110.8484,0.0933,219.1583],[110.8401,0.0901,205.3886],[110.8356,0.0935,122.2114],[110.8119,0.091,35.3581],[110.7689,0.0771,20.6946],[110.7547,0.0688,27.1025],[110.7496,0.0609,26.7573],[110.7501,0.0452,47.3069],[110.7563,0.0284,26.9358],[110.7538,0.0131,26.3635],[110.7503,0.0,28.6705],[110.7404,-0.0136,24.7374],[110.7301,-0.0227,33.1507],[110.7258,-0.033,53.1013],[110.719,-0.0393,43.4359],[110.7142,-0.0784,120.5808],[110.7156,-0.0921,97.5414],[110.7201,-0.1069,135.4538],[110.7384,-0.128,108.2234],[110.7407,-0.1406,123.6228],[110.7454,-0.148,118.2244],[110.7459,-0.1563,148.9342],[110.75,-0.1644,221.9644],[110.7163,-0.1695,77.2083],[110.7015,-0.1687,78.449],[110.6869,-0.1621,73.4444],[110.6692,-0.1566,71.8327],[110.6507,-0.1456,82.9329],[110.6436,-0.1447,73.7083],[110.6403,-0.1503,75.1965],[110.6301,-0.2041,254.0037],[110.6099,-0.2244,102.0725],[110.6053,-0.2377,103.1256],[110.584,-0.2485,378.3349],[110.5707,-0.2505,320.6112],[110.5651,-0.2531,265.6559],[110.5601,-0.2587,402.23],[110.5611,-0.2731,214.3494],[110.5667,-0.2777,402.1125],[110.5697,-0.2823,298.8722],[110.5697,-0.2859,214.1397],[110.556,-0.3206,331.8544],[110.5548,-0.3321,355.3408],[110.5562,-0.3427,389.047],[110.5608,-0.3507,500.7757],[110.5615,-0.3665,460.0085],[110.5663,-0.3793,433.3464],[110.5954,-0.4082,365.7851],[110.6042,-0.4229,423.9565],[110.6168,-0.4594,462.7883],[110.6132,-0.4679,703.292],[110.6157,-0.4875,479.0277],[110.6137,-0.5072,543.1231],[110.6218,-0.5302,424.4295],[110.6317,-0.5468,247.0679],[110.6299,-0.5672,252.1573],[110.6369,-0.6191,100.4444],[110.6491,-0.6164,328.1762],[110.6701,-0.6196,82.5965],[110.6782,-0.6216,91.0327],[110.6983,-0.6328,89.4471]]]]}}