{"type":"Feature","properties":{"GID_3":"IDN.11.5.22_1","GID_0":"IDN","country":"Indonesia","GID_1":"IDN.11_1","province":"JawaTimur","NL_NAME_1":"NA","GID_2":"IDN.11.5_1","county":"Bojonegoro","NL_NAME_2":"NA","city":"Sekar","VARNAME_3":"NA","NL_NAME_3":"NA","TYPE_3":"Kecamatan","ENGTYPE_3":"Sub-district","CC_3":"3522041","HASC_3":"NA","name":"Sekar.city"},
"geometry":{"type": "MultiPolygon","coordinates": [[[[111.7979,-7.4437,586.8361],[111.7979,-7.4402,475.5079],[111.78,-7.4333,309.7629],[111.7735,-7.4277,266.9413],[111.7736,-7.4225,240.4765],[111.7708,-7.4216,251.3892],[111.7729,-7.4163,226.1048],[111.7754,-7.4155,214.5781],[111.7745,-7.4121,204.5771],[111.776,-7.4083,231.4896],[111.7735,-7.4078,198.8779],[111.7751,-7.4063,193.1961],[111.7724,-7.4052,191.6767],[111.7732,-7.4018,183.9775],[111.7702,-7.4007,179.2427],[111.7706,-7.3979,182.6101],[111.767,-7.3947,170.7676],[111.764,-7.3952,170.9476],[111.7649,-7.3942,166.2975],[111.7627,-7.3902,163.2431],[111.7638,-7.3841,155.1512],[111.7597,-7.378,147.0002],[111.7616,-7.3743,148.3788],[111.7607,-7.3704,146.7328],[111.7626,-7.3695,137.5115],[111.7598,-7.3671,143.1142],[111.7632,-7.3664,142.1225],[111.7626,-7.3642,135.8731],[111.761,-7.3646,147.5672],[111.7619,-7.3611,140.7545],[111.7593,-7.3587,137.1898],[111.76,-7.356,123.5114],[111.7589,-7.3572,119.9673],[111.7585,-7.3555,116.9085],[111.757,-7.358,126.7641],[111.7562,-7.3566,125.2707],[111.7579,-7.3532,116.6126],[111.756,-7.3524,114.0858],[111.7577,-7.3485,113.2501],[111.75,-7.3467,159.1947],[111.7443,-7.3475,113.1364],[111.7399,-7.3501,135.6831],[111.7365,-7.3548,133.543],[111.7299,-7.3517,171.6476],[111.7139,-7.3691,195.7973],[111.7036,-7.3724,225.3613],[111.6969,-7.3688,178.0464],[111.6923,-7.3603,179.4925],[111.6826,-7.3566,170.3712],[111.6789,-7.347,162.2235],[111.6718,-7.3445,175.9032],[111.6543,-7.3541,172.0006],[111.6415,-7.358,176.3374],[111.6312,-7.3591,245.5636],[111.6229,-7.367,204.5021],[111.6162,-7.368,182.1595],[111.6138,-7.3698,176.7582],[111.6163,-7.3794,169.7839],[111.6235,-7.3822,140.8262],[111.6307,-7.3897,134.3315],[111.6547,-7.3991,143.7928],[111.6845,-7.4166,201.334],[111.7109,-7.4366,139.9685],[111.7167,-7.4432,141.8188],[111.7272,-7.4488,163.55],[111.7373,-7.4509,209.8736],[111.7463,-7.455,223.2982],[111.7673,-7.4688,271.3823],[111.7729,-7.4695,330.7781],[111.788,-7.4646,567.1768],[111.7883,-7.4584,612.2079],[111.7942,-7.4518,662.9934],[111.7979,-7.4437,586.8361]]]]}}