{"type":"Feature","properties":{"GID_2":"IDN.17.8_1","GID_0":"IDN","country":"Indonesia","GID_1":"IDN.17_1","province":"Lampung","NL_NAME_1":"NA","county":"Metro","VARNAME_2":"NA","NL_NAME_2":"NA","TYPE_2":"Kota","ENGTYPE_2":"City","CC_2":"1872","HASC_2":"ID.LA.ME","name":"Metro.county"},
"geometry":{"type": "MultiPolygon","coordinates": [[[[105.2767,-5.1705,31.1835],[105.2751,-5.1737,29.6035],[105.2761,-5.18,33.8145],[105.2823,-5.1778,29.8179],[105.2854,-5.1816,34.7117],[105.2924,-5.1818,58.8824],[105.2947,-5.1853,57.2171],[105.3018,-5.183,51.624],[105.3024,-5.1791,44.2123],[105.3112,-5.1804,56.7656],[105.318,-5.1759,48.8128],[105.3185,-5.1732,43.7297],[105.3203,-5.1724,29.4548],[105.3247,-5.1769,51.5161],[105.3262,-5.1743,58.3521],[105.3254,-5.1717,52.838],[105.331,-5.1681,39.2038],[105.3265,-5.1604,46.9534],[105.3303,-5.156,41.9383],[105.3328,-5.1557,46.061],[105.3337,-5.1531,42.133],[105.3319,-5.1518,40.9178],[105.3307,-5.139,48.5636],[105.3277,-5.1397,53.5474],[105.3248,-5.1365,51.0539],[105.3254,-5.1309,49.5053],[105.3235,-5.1284,48.1017],[105.3254,-5.1281,48.2059],[105.327,-5.1242,48.0157],[105.3311,-5.1242,49.8319],[105.3308,-5.1206,47.5995],[105.3288,-5.1187,45.7515],[105.3339,-5.1117,53.1236],[105.3365,-5.112,44.4556],[105.3395,-5.1065,49.8904],[105.3435,-5.1076,43.3119],[105.3481,-5.1035,41.7355],[105.3439,-5.0984,43.4999],[105.3361,-5.0952,45.55],[105.337,-5.0935,54.4067],[105.3334,-5.0929,44.3303],[105.3321,-5.0909,43.6803],[105.3336,-5.0884,46.3457],[105.3493,-5.0791,44.2981],[105.3588,-5.0672,39.5332],[105.3581,-5.0656,41.839],[105.3535,-5.0622,44.2626],[105.3503,-5.0635,38.7406],[105.3507,-5.0654,44.9663],[105.3473,-5.0664,52.2322],[105.3482,-5.0696,47.4002],[105.3466,-5.0696,49.3086],[105.3464,-5.0715,46.9877],[105.3359,-5.0719,39.9757],[105.3312,-5.0701,42.9665],[105.3305,-5.0713,40.4381],[105.3249,-5.0709,52.407],[105.3232,-5.0745,43.0605],[105.3163,-5.0756,45.8226],[105.3149,-5.0735,57.3589],[105.3165,-5.0696,54.4882],[105.3107,-5.0691,50.4403],[105.3121,-5.065,51.6779],[105.3181,-5.0614,51.2793],[105.3212,-5.0561,42.6694],[105.32,-5.0524,48.6619],[105.3182,-5.0516,50.2102],[105.315,-5.0553,41.518],[105.3061,-5.0573,47.5784],[105.3041,-5.0629,42.451],[105.3009,-5.0648,42.5891],[105.2958,-5.0731,49.72],[105.2805,-5.0835,43.6771],[105.2821,-5.0877,51.5954],[105.2803,-5.0884,43.9439],[105.2784,-5.0927,43.7125],[105.2695,-5.0968,46.9545],[105.269,-5.1025,49.5245],[105.2735,-5.107,50.4358],[105.2839,-5.1039,47.0986],[105.2905,-5.1088,47.1772],[105.2888,-5.1095,51.4904],[105.2893,-5.1113,49.1319],[105.2878,-5.112,49.1319],[105.2846,-5.1202,47.751],[105.2786,-5.1239,57.2442],[105.2779,-5.1301,50.0055],[105.2738,-5.1327,49.5496],[105.2754,-5.1374,51.4832],[105.2711,-5.141,55.6031],[105.2751,-5.1452,55.0868],[105.2751,-5.147,55.0571],[105.2693,-5.1495,53.0798],[105.2684,-5.1528,52.4139],[105.2624,-5.1589,52.5526],[105.2632,-5.1625,56.553],[105.2688,-5.1587,53.5141],[105.275,-5.1594,54.9052],[105.2748,-5.1656,44.5452],[105.2778,-5.1684,37.4153],[105.2767,-5.1705,31.1835]]]]}}