{"type":"Feature","properties":{"GID_3":"IDN.10.5.11_1","GID_0":"IDN","country":"Indonesia","GID_1":"IDN.10_1","province":"JawaTengah","NL_NAME_1":"NA","GID_2":"IDN.10.5_1","county":"Boyolali","NL_NAME_2":"NA","city":"Musuk","VARNAME_3":"NA","NL_NAME_3":"NA","TYPE_3":"Kecamatan","ENGTYPE_3":"Sub-district","CC_3":"3309040","HASC_3":"NA","name":"Musuk.city"},
"geometry":{"type": "MultiPolygon","coordinates": [[[[110.5368,-7.6273,456.5475],[110.5408,-7.6284,433.2134],[110.5452,-7.6256,438.4984],[110.5424,-7.6166,473.6797],[110.5504,-7.6092,466.6017],[110.5448,-7.6048,501.0964],[110.5477,-7.6008,499.4562],[110.5505,-7.6032,486.8477],[110.5518,-7.5999,491.046],[110.5539,-7.6004,486.033],[110.5596,-7.595,483.5664],[110.5612,-7.5963,475.8124],[110.5668,-7.5879,483.85],[110.5708,-7.5884,467.657],[110.5735,-7.5841,472.2274],[110.5775,-7.585,448.4747],[110.5664,-7.5765,507.5852],[110.5702,-7.5733,498.6461],[110.5729,-7.5647,506.0607],[110.5717,-7.5637,515.4865],[110.5733,-7.5621,508.0892],[110.5715,-7.5599,519.6797],[110.5665,-7.5595,537.6489],[110.5667,-7.5562,542.2727],[110.5638,-7.5552,549.2913],[110.5654,-7.5535,551.4165],[110.5642,-7.5514,552.1649],[110.5701,-7.5539,525.3032],[110.5715,-7.5509,526.4739],[110.5856,-7.554,453.2161],[110.586,-7.5511,457.2874],[110.5902,-7.5474,444.6655],[110.5912,-7.5491,433.6249],[110.5931,-7.5446,431.5585],[110.5888,-7.5415,452.0232],[110.5911,-7.5345,451.6429],[110.5847,-7.5361,477.8803],[110.5753,-7.5357,514.5171],[110.5738,-7.5378,526.2535],[110.5758,-7.5393,512.5173],[110.573,-7.5397,528.2153],[110.5589,-7.5355,603.5444],[110.5454,-7.5286,717.2315],[110.5425,-7.5366,711.5458],[110.5346,-7.5336,792.6466],[110.5308,-7.5376,803.3235],[110.5241,-7.5345,885.8544],[110.5155,-7.533,959.163],[110.5132,-7.5433,935.6848],[110.4896,-7.537,1222.7334],[110.4814,-7.5333,1447.2554],[110.4523,-7.5365,2640.0342],[110.4474,-7.5393,2830.9849],[110.4461,-7.5418,2863.772],[110.4494,-7.5441,2688.4736],[110.4582,-7.5413,2384.0068],[110.4775,-7.5544,1381.2668],[110.4782,-7.5559,1385.5745],[110.4769,-7.5571,1377.0168],[110.4888,-7.5733,981.6351],[110.4922,-7.5805,903.1107],[110.4914,-7.5819,895.101],[110.4932,-7.5836,878.2709],[110.4961,-7.5836,843.0106],[110.4954,-7.5849,841.7564],[110.497,-7.5843,843.0106],[110.4991,-7.5877,804.2255],[110.5001,-7.587,797.4981],[110.5011,-7.5887,786.1915],[110.5065,-7.5903,717.5085],[110.5085,-7.5932,717.3881],[110.5067,-7.5957,717.324],[110.5147,-7.6022,647.3331],[110.5167,-7.6008,645.4695],[110.5235,-7.6042,595.981],[110.5231,-7.606,587.4633],[110.5132,-7.6057,635.7289],[110.513,-7.6108,605.9115],[110.5209,-7.6178,548.8322],[110.5223,-7.6215,524.9227],[110.5311,-7.6264,467.8028],[110.5324,-7.6294,460.2274],[110.5388,-7.635,424.8224],[110.54,-7.6345,418.3432],[110.534,-7.6281,457.331],[110.5368,-7.6273,456.5475]]]]}}