{"type":"Feature","properties":{"GID_3":"IDN.5.6.4_1","GID_0":"IDN","country":"Indonesia","GID_1":"IDN.5_1","province":"Bengkulu","NL_NAME_1":"NA","GID_2":"IDN.5.6_1","county":"Kepahiang","NL_NAME_2":"NA","city":"Merigi","VARNAME_3":"NA","NL_NAME_3":"NA","TYPE_3":"Kecamatan","ENGTYPE_3":"Sub-district","CC_3":"1708080","HASC_3":"NA","name":"Merigi.city"},
"geometry":{"type": "MultiPolygon","coordinates": [[[[102.5117,-3.5193,601.5525],[102.5231,-3.5165,620.476],[102.5261,-3.5142,617.8729],[102.5294,-3.5141,629.7343],[102.533,-3.5163,643.0708],[102.5344,-3.5152,644.3389],[102.541,-3.5152,671.8079],[102.5446,-3.5169,681.8418],[102.5482,-3.5161,707.478],[102.554,-3.513,739.9311],[102.5551,-3.5089,774.9693],[102.5604,-3.506,800.6089],[102.5331,-3.4961,646.0521],[102.5185,-3.496,620.1552],[102.5121,-3.4978,609.4173],[102.5117,-3.494,610.8793],[102.5088,-3.4957,606.7433],[102.509,-3.4981,607.062],[102.5005,-3.5008,601.8306],[102.4976,-3.5068,607.7972],[102.4969,-3.5136,638.9423],[102.4945,-3.5142,629.2602],[102.4999,-3.5151,630.6189],[102.5076,-3.5193,607.9183],[102.5117,-3.5193,601.5525]]]]}}