{"type":"Feature","properties":{"GID_3":"IDN.32.4.21_1","GID_0":"IDN","country":"Indonesia","GID_1":"IDN.32_1","province":"SumateraUtara","NL_NAME_1":"NA","GID_2":"IDN.32.4_1","county":"DeliSerdang","NL_NAME_2":"NA","city":"Sunggal","VARNAME_3":"NA","NL_NAME_3":"NA","TYPE_3":"Kecamatan","ENGTYPE_3":"Sub-district","CC_3":"1212230","HASC_3":"NA","name":"Sunggal.city"},
"geometry":{"type": "MultiPolygon","coordinates": [[[[98.5611,3.5561,46.3185],[98.5766,3.5482,44.1439],[98.5897,3.5445,41.8379],[98.5931,3.5403,42.5335],[98.5988,3.5465,30.9161],[98.6058,3.55,31.0278],[98.6062,3.5532,30.0992],[98.6116,3.5537,32.7136],[98.6108,3.5596,28.6886],[98.6067,3.5589,29.4177],[98.612,3.5622,25.689],[98.6114,3.564,26.6575],[98.6075,3.5658,32.6339],[98.6073,3.5675,30.86],[98.6092,3.5707,24.0692],[98.6084,3.5772,22.8011],[98.6102,3.5782,26.7976],[98.6113,3.5835,23.1335],[98.6078,3.5813,24.8749],[98.6021,3.5872,26.5248],[98.6048,3.5884,26.2644],[98.6044,3.5925,25.5423],[98.6082,3.593,25.7323],[98.6077,3.5946,25.414],[98.6039,3.5948,24.968],[98.6081,3.5958,24.6102],[98.6052,3.5989,24.6392],[98.6068,3.6104,22.4888],[98.6016,3.6121,20.9288],[98.6023,3.6164,22.841],[98.5993,3.6203,21.0958],[98.6056,3.6186,20.7648],[98.6054,3.6131,22.1024],[98.61,3.6132,21.2844],[98.6103,3.6184,19.6043],[98.6131,3.6182,20.1938],[98.613,3.6121,19.4559],[98.6276,3.6127,20.2311],[98.6304,3.6157,20.1573],[98.6526,3.6152,21.2041],[98.6601,3.6227,17.9728],[98.6613,3.6222,17.9728],[98.6653,3.6256,16.8006],[98.6644,3.6317,17.3222],[98.6665,3.6353,18.6475],[98.6634,3.6354,16.4568],[98.663,3.6373,15.2343],[98.6593,3.6387,15.1936],[98.6596,3.644,13.3725],[98.6264,3.6442,11.4468],[98.6205,3.6517,16.7124],[98.6113,3.6587,19.1659],[98.5971,3.6626,14.3534],[98.583,3.6636,11.3548],[98.5621,3.6615,13.1658],[98.5112,3.6605,22.2519],[98.5112,3.6555,23.6961],[98.5169,3.6554,22.6303],[98.5179,3.6536,20.6938],[98.5179,3.6522,20.6938],[98.5114,3.6523,23.6492],[98.5114,3.6459,24.014],[98.5178,3.6457,22.3015],[98.5166,3.6417,24.3965],[98.5116,3.6417,23.6308],[98.5118,3.6336,26.039],[98.5107,3.6334,24.5958],[98.5119,3.6318,24.3456],[98.5161,3.6317,22.821],[98.5161,3.6296,24.2254],[98.5256,3.6293,20.8696],[98.5256,3.6207,22.8884],[98.5328,3.6208,23.035],[98.5331,3.6128,26.8964],[98.5337,3.6113,28.4369],[98.5356,3.6114,25.8443],[98.5362,3.6068,27.3399],[98.5331,3.5964,26.7471],[98.5339,3.5943,28.1052],[98.5325,3.5931,31.0832],[98.5351,3.593,28.1996],[98.5361,3.5763,42.7465],[98.5611,3.5561,46.3185]]]]}}