{"type":"Feature","properties":{"GID_3":"IDN.10.35.19_1","GID_0":"IDN","country":"Indonesia","GID_1":"IDN.10_1","province":"JawaTengah","NL_NAME_1":"NA","GID_2":"IDN.10.35_1","county":"Wonogiri","NL_NAME_2":"NA","city":"Purwantoro","VARNAME_3":"NA","NL_NAME_3":"NA","TYPE_3":"Kecamatan","ENGTYPE_3":"Sub-district","CC_3":"3312190","HASC_3":"NA","name":"Purwantoro.city"},
"geometry":{"type": "MultiPolygon","coordinates": [[[[111.2496,-7.8612,262.867],[111.2544,-7.8594,269.0787],[111.2576,-7.8607,269.4278],[111.2579,-7.8627,245.4831],[111.2613,-7.8603,245.0073],[111.2671,-7.8611,231.0084],[111.2683,-7.8589,244.936],[111.2693,-7.8613,249.0611],[111.2736,-7.8627,230.0237],[111.2747,-7.8649,231.5914],[111.2857,-7.8671,229.8426],[111.2936,-7.8711,264.752],[111.2967,-7.8704,321.5503],[111.2974,-7.8629,168.0336],[111.2997,-7.8599,192.5858],[111.319,-7.855,381.831],[111.3188,-7.8485,309.3764],[111.3151,-7.8439,336.0761],[111.3058,-7.8411,571.9683],[111.3056,-7.8347,528.1548],[111.3038,-7.8313,622.6338],[111.3069,-7.8231,533.178],[111.3039,-7.8181,429.6273],[111.3049,-7.8147,402.4424],[111.3009,-7.8117,448.0533],[111.3001,-7.8082,456.0884],[111.2937,-7.8106,523.3644],[111.2875,-7.8051,488.8616],[111.2751,-7.8117,362.0769],[111.2714,-7.8096,380.0668],[111.2703,-7.8065,368.1245],[111.2713,-7.8053,368.005],[111.2697,-7.8032,367.3528],[111.2631,-7.799,423.0376],[111.2582,-7.7967,440.1617],[111.2456,-7.7946,508.8333],[111.2486,-7.8112,471.3247],[111.2467,-7.8126,442.0267],[111.244,-7.8122,431.4663],[111.2436,-7.8085,441.3578],[111.2411,-7.8059,473.5409],[111.2377,-7.8061,472.7562],[111.2352,-7.8029,506.352],[111.233,-7.8035,501.1532],[111.2334,-7.8023,506.4783],[111.2297,-7.8005,521.4965],[111.2258,-7.8017,568.3308],[111.2244,-7.806,548.6522],[111.2138,-7.8088,539.6636],[111.2136,-7.8145,512.465],[111.2107,-7.8168,499.7631],[111.211,-7.8216,478.8796],[111.2123,-7.8222,474.1212],[111.2112,-7.8254,464.8585],[111.2177,-7.8269,432.7699],[111.2266,-7.8377,372.1913],[111.2233,-7.8432,471.0839],[111.2184,-7.8468,650.8694],[111.2196,-7.8508,666.1565],[111.2231,-7.8521,866.7477],[111.2242,-7.8548,843.0875],[111.2223,-7.8598,824.872],[111.2183,-7.8639,817.6552],[111.2178,-7.8713,722.6971],[111.2277,-7.8748,563.1609],[111.2384,-7.8654,403.7472],[111.2452,-7.8616,279.8828],[111.2496,-7.8612,262.867]]]]}}