{"type":"Feature","properties":{"GID_3":"IDN.18.2.6_1","GID_0":"IDN","country":"Indonesia","GID_1":"IDN.18_1","province":"MalukuUtara","NL_NAME_1":"NA","GID_2":"IDN.18.2_1","county":"HalmaheraSelatan","NL_NAME_2":"NA","city":"BacanTimur","VARNAME_3":"NA","NL_NAME_3":"NA","TYPE_3":"Kecamatan","ENGTYPE_3":"Sub-district","CC_3":"8204040","HASC_3":"NA","name":"Bacan_Timur.city"},
"geometry":{"type": "MultiPolygon","coordinates": [[[[127.5388,-0.6713,479.2782],[127.5441,-0.7016,992.8529],[127.6465,-0.6381,29.3004],[127.6471,-0.6291,0.0],[127.643,-0.6295,4.2748],[127.6431,-0.6266,0.0],[127.6344,-0.6294,0.0],[127.6292,-0.6282,19.7445],[127.6231,-0.6303,18.0946],[127.612,-0.6312,3.0707],[127.6053,-0.6283,5.1758],[127.6017,-0.6212,0.0],[127.5976,-0.6195,0.0],[127.6005,-0.6095,0.0],[127.5987,-0.6001,4.1139],[127.5961,-0.5978,0.0],[127.5999,-0.5901,0.0],[127.5988,-0.5866,6.57],[127.6014,-0.5887,0.0],[127.6037,-0.5876,6.1699],[127.6011,-0.584,7.4118],[127.6001,-0.5845,7.4118],[127.6012,-0.5796,8.9193],[127.6002,-0.5772,3.6528],[127.6056,-0.5745,8.6503],[127.6113,-0.5741,5.6922],[127.6139,-0.5693,8.6085],[127.6215,-0.5628,4.4598],[127.6294,-0.5487,6.8537],[127.6354,-0.5424,2.4209],[127.6375,-0.537,7.6661],[127.6448,-0.5307,20.8104],[127.6488,-0.5292,3.2604],[127.6543,-0.522,5.9722],[127.6603,-0.5207,2.541],[127.6637,-0.5175,0.0],[127.6645,-0.5108,6.145],[127.6722,-0.5007,1.5229],[127.676,-0.4985,0.0],[127.6743,-0.494,0.0],[127.6744,-0.4871,0.0],[127.6777,-0.4808,16.1594],[127.6841,-0.4755,0.0],[127.6865,-0.4711,7.584],[127.6897,-0.4704,9.1243],[127.6927,-0.4589,0.0],[127.6925,-0.4563,0.0],[127.6846,-0.4553,7.7224],[127.681,-0.4529,7.3162],[127.6795,-0.4508,13.9624],[127.6828,-0.4483,0.0],[127.6798,-0.4461,4.4359],[127.6625,-0.4414,11.9971],[127.6582,-0.4385,2.4406],[127.6574,-0.436,0.0],[127.659,-0.4326,7.1176],[127.6577,-0.4265,0.0],[127.6503,-0.4235,14.9582],[127.6525,-0.4182,10.8029],[127.6481,-0.4139,1.9989],[127.6395,-0.4104,3.6219],[127.6359,-0.4116,45.4133],[127.6281,-0.4104,0.0],[127.6268,-0.4128,8.5715],[127.6275,-0.417,187.7764],[127.6243,-0.4141,1.1863],[127.6211,-0.4162,3.0902],[127.6151,-0.4127,2.1693],[127.6171,-0.4106,7.8845],[127.619,-0.4112,5.6094],[127.6208,-0.4055,14.5852],[127.6197,-0.4027,0.0],[127.6176,-0.404,10.6688],[127.6149,-0.402,3.32],[127.6163,-0.3976,0.0],[127.6141,-0.3966,3.6461],[127.6153,-0.3954,0.0],[127.6145,-0.391,0.0],[127.6157,-0.386,0.0],[127.6131,-0.3799,0.0],[127.6082,-0.3724,0.0],[127.6034,-0.3703,2.5202],[127.5977,-0.3774,31.4951],[127.5926,-0.3797,18.5979],[127.5953,-0.3727,32.9832],[127.5943,-0.3711,16.6991],[127.5957,-0.3703,0.0],[127.5953,-0.3665,28.9558],[127.5915,-0.3638,1.9391],[127.5932,-0.359,2.1695],[127.5888,-0.3576,1.0185],[127.5887,-0.3527,0.4662],[127.5872,-0.3506,3.4462],[127.5788,-0.3474,5.1429],[127.5787,-0.3435,0.0],[127.5765,-0.3417,16.0137],[127.5812,-0.3377,0.0],[127.5814,-0.3336,0.0],[127.5771,-0.3283,0.0],[127.5742,-0.3288,13.898],[127.5744,-0.3257,20.4673],[127.5697,-0.3225,0.0],[127.5705,-0.319,0.0],[127.5682,-0.3153,10.7647],[127.5509,-0.3461,447.5825],[127.5258,-0.4741,74.7615],[127.5251,-0.5432,236.7986],[127.5316,-0.6376,77.9556],[127.5388,-0.6713,479.2782]]],
[[[127.6138,-0.579,3.5198],[127.6098,-0.5759,5.232],[127.6055,-0.5755,2.8298],[127.6044,-0.5789,8.2612],[127.6067,-0.5854,0.0],[127.6141,-0.5829,0.0],[127.6138,-0.579,3.5198]]],
[[[127.618,-0.5725,0.9599],[127.6195,-0.5723,2.3598],[127.6194,-0.5711,0.0],[127.6176,-0.5716,0.9599],[127.618,-0.5725,0.9599]]],
[[[127.6821,-0.4927,0.0],[127.6806,-0.4849,3.9867],[127.6762,-0.4888,7.6198],[127.6783,-0.4898,11.3857],[127.6786,-0.4948,0.0],[127.6816,-0.495,0.0],[127.6821,-0.4927,0.0]]],
[[[127.7118,-0.456,0.0],[127.707,-0.452,15.3781],[127.7022,-0.4536,9.365],[127.704,-0.4562,7.594],[127.7068,-0.4549,5.4902],[127.7075,-0.4564,0.0],[127.7094,-0.4558,17.9015],[127.7102,-0.4588,0.0],[127.7118,-0.456,0.0]]],
[[[127.7225,-0.4395,0.0],[127.7216,-0.4389,0.0],[127.7211,-0.4403,0.0],[127.723,-0.4408,0.0],[127.7225,-0.4395,0.0]]],
[[[127.7287,-0.4122,3.164],[127.7253,-0.4128,0.0],[127.7285,-0.4224,17.7152],[127.7258,-0.4223,7.436],[127.7267,-0.4208,5.7083],[127.7248,-0.4177,0.0],[127.7248,-0.4228,0.0],[127.7282,-0.423,4.4306],[127.7338,-0.4296,0.0],[127.7381,-0.4309,20.5836],[127.7406,-0.4309,18.7169],[127.7416,-0.4276,65.7906],[127.7457,-0.4275,4.5967],[127.7461,-0.4244,0.0],[127.7436,-0.427,22.9994],[127.7429,-0.4253,6.055],[127.7399,-0.4252,17.0416],[127.7369,-0.4226,0.0],[127.7353,-0.4202,103.3688],[127.7377,-0.4181,0.0],[127.7368,-0.4157,1.5805],[127.7338,-0.416,0.0],[127.7317,-0.4132,6.763],[127.7287,-0.4122,3.164]]],
[[[127.7556,-0.4157,4.3677],[127.7552,-0.4143,0.0],[127.7528,-0.416,4.4261],[127.754,-0.4163,0.0],[127.7556,-0.4157,4.3677]]]]}}