{"type":"Feature","properties":{"GID_3":"IDN.32.1.21_1","GID_0":"IDN","country":"Indonesia","GID_1":"IDN.32_1","province":"SumateraUtara","NL_NAME_1":"NA","GID_2":"IDN.32.1_1","county":"Asahan","NL_NAME_2":"NA","city":"SiloLaut","VARNAME_3":"NA","NL_NAME_3":"NA","TYPE_3":"Kecamatan","ENGTYPE_3":"Sub-district","CC_3":"1208101","HASC_3":"NA","name":"Silo_Laut.city"},
"geometry":{"type": "MultiPolygon","coordinates": [[[[99.7502,3.0162,11.96],[99.7714,3.0157,4.1788],[99.7709,3.0268,12.4851],[99.7804,3.0605,10.7443],[99.7799,3.0675,8.3982],[99.787,3.0935,4.6661],[99.79,3.0962,2.7876],[99.7924,3.0954,5.3285],[99.7972,3.1007,1.5057],[99.7959,3.1029,0.0],[99.794,3.1019,5.6075],[99.7959,3.1034,0.0],[99.7947,3.1062,5.5549],[99.7909,3.1083,9.65],[99.7903,3.1116,1.7484],[99.785,3.1159,10.0268],[99.7837,3.1231,2.2504],[99.7777,3.1254,12.8401],[99.7679,3.1367,10.3096],[99.762,3.1492,5.0289],[99.7578,3.1692,0.0],[99.7523,3.1708,0.0],[99.7476,3.1601,3.801],[99.7416,3.1527,4.4277],[99.7228,3.1359,6.4338],[99.7067,3.1251,8.3896],[99.698,3.1116,5.9695],[99.6962,3.111,4.5302],[99.6936,3.1054,8.4418],[99.6904,3.0678,9.6231],[99.6907,3.0635,14.057],[99.6948,3.0635,15.311],[99.7313,3.0738,10.5707],[99.731,3.0562,10.6153],[99.733,3.0561,10.7323],[99.731,3.0378,10.9706],[99.7333,3.0228,10.2647],[99.7322,3.0187,8.539],[99.7502,3.0162,11.96]]]]}}