{"type":"Feature","properties":{"GID_3":"IDN.14.2.7_1","GID_0":"IDN","country":"Indonesia","GID_1":"IDN.14_1","province":"KalimantanTengah","NL_NAME_1":"NA","GID_2":"IDN.14.2_1","county":"BaritoTimur","NL_NAME_2":"NA","city":"Paku","VARNAME_3":"NA","NL_NAME_3":"NA","TYPE_3":"Kecamatan","ENGTYPE_3":"Sub-district","CC_3":"6212090","HASC_3":"NA","name":"Paku.city"},
"geometry":{"type": "MultiPolygon","coordinates": [[[[115.1243,-1.95,33.7453],[115.1476,-1.9528,21.9091],[115.1574,-1.9697,44.3174],[115.1647,-1.9733,35.9174],[115.1687,-1.9612,31.4879],[115.1912,-1.95,44.2984],[115.2011,-1.9415,33.1948],[115.2137,-1.9542,48.1875],[115.2292,-1.9556,44.7275],[115.2391,-1.95,51.7686],[115.2363,-1.9204,51.0178],[115.2545,-1.9204,61.6427],[115.263,-1.9134,63.2514],[115.3024,-1.8571,142.4899],[115.3157,-1.8517,256.4998],[115.3087,-1.8493,237.5924],[115.3084,-1.8464,240.1563],[115.2841,-1.843,105.9645],[115.2616,-1.843,114.7959],[115.2433,-1.8374,81.3952],[115.2222,-1.8444,58.6069],[115.1982,-1.8599,40.463],[115.1673,-1.8514,47.1491],[115.1532,-1.8585,26.9371],[115.1237,-1.874,28.7026],[115.1026,-1.8894,15.9242],[115.0941,-1.9134,26.7521],[115.1011,-1.9288,27.7641],[115.0983,-1.9401,14.2557],[115.1096,-1.95,39.0593],[115.1243,-1.95,33.7453]]]]}}