{"type":"Feature","properties":{"GID_3":"IDN.20.10.17_1","GID_0":"IDN","country":"Indonesia","GID_1":"IDN.20_1","province":"NusaTenggaraBarat","NL_NAME_1":"NA","GID_2":"IDN.20.10_1","county":"Sumbawa","NL_NAME_2":"NA","city":"OrongTelu","VARNAME_3":"NA","NL_NAME_3":"NA","TYPE_3":"Kecamatan","ENGTYPE_3":"Sub-district","CC_3":"5204021","HASC_3":"NA","name":"Orong_Telu.city"},
"geometry":{"type": "MultiPolygon","coordinates": [[[[117.2086,-8.7117,309.3764],[117.191,-8.7123,734.082],[117.1623,-8.7093,768.2676],[117.1386,-8.703,734.2628],[117.1168,-8.6994,874.1677],[117.0857,-8.6998,1054.7764],[117.0904,-8.717,1053.4451],[117.0906,-8.7305,892.8166],[117.0886,-8.7484,723.2976],[117.0832,-8.7588,509.5726],[117.0841,-8.7637,405.6653],[117.0817,-8.7661,383.9777],[117.0741,-8.7671,370.6132],[117.0735,-8.7712,343.5542],[117.0702,-8.7718,328.5958],[117.0703,-8.7747,361.2601],[117.0671,-8.7765,316.0807],[117.0659,-8.7803,304.5553],[117.0486,-8.783,446.2768],[117.0416,-8.7882,394.8505],[117.0405,-8.7921,291.0523],[117.0451,-8.8027,452.0672],[117.061,-8.8049,376.1653],[117.0655,-8.8098,252.8372],[117.0739,-8.8148,227.1731],[117.0766,-8.8237,210.1009],[117.0845,-8.8255,204.9949],[117.0854,-8.8346,214.5995],[117.0819,-8.8357,221.9062],[117.0809,-8.8391,249.9749],[117.079,-8.8398,241.4389],[117.079,-8.8442,263.2979],[117.0738,-8.848,360.1702],[117.0722,-8.8572,590.5266],[117.0745,-8.8584,622.8048],[117.0785,-8.8576,578.8594],[117.0838,-8.8602,552.0217],[117.092,-8.8583,559.894],[117.0949,-8.8536,484.8696],[117.0996,-8.8507,555.0775],[117.1128,-8.8507,379.9503],[117.1232,-8.841,181.7359],[117.1342,-8.8382,587.0656],[117.1427,-8.8308,682.7998],[117.1475,-8.8175,701.1874],[117.152,-8.8124,709.3853],[117.1603,-8.8135,878.691],[117.1997,-8.829,483.3309],[117.2296,-8.8486,105.6614],[117.2359,-8.8474,90.945],[117.2374,-8.852,101.501],[117.2455,-8.8532,79.9014],[117.2468,-8.8643,128.4183],[117.2493,-8.864,132.385],[117.2499,-8.8588,88.9424],[117.2568,-8.8514,66.8011],[117.2586,-8.8566,93.5482],[117.2609,-8.8517,90.3979],[117.2603,-8.8468,100.0555],[117.2619,-8.8455,92.9463],[117.2642,-8.8456,145.0871],[117.2651,-8.8486,92.7863],[117.2684,-8.8495,96.2329],[117.2692,-8.845,113.9931],[117.2679,-8.843,96.2382],[117.2692,-8.8412,142.893],[117.2725,-8.8411,124.6401],[117.2771,-8.8448,128.3074],[117.2828,-8.8469,122.3913],[117.2857,-8.8439,129.7802],[117.2917,-8.8441,115.0373],[117.2923,-8.8412,141.3135],[117.2876,-8.8398,166.5535],[117.2877,-8.8374,148.008],[117.2915,-8.8361,128.4627],[117.2982,-8.837,121.6043],[117.2976,-8.8342,145.5349],[117.3028,-8.8276,162.6182],[117.2927,-8.8189,309.3036],[117.2781,-8.8009,524.1946],[117.2721,-8.7908,584.7],[117.269,-8.7817,542.9171],[117.2645,-8.7568,290.669],[117.2656,-8.7461,476.6578],[117.2706,-8.7432,336.2873],[117.2757,-8.733,559.4876],[117.2844,-8.7217,467.9048],[117.2843,-8.7171,479.7578],[117.2822,-8.7162,459.1997],[117.2806,-8.7125,450.0689],[117.2796,-8.705,511.0232],[117.2558,-8.7115,611.316],[117.2464,-8.7124,491.459],[117.2086,-8.7117,309.3764]]]]}}