{"type":"Feature","properties":{"GID_3":"IDN.11.10.20_1","GID_0":"IDN","country":"Indonesia","GID_1":"IDN.11_1","province":"JawaTimur","NL_NAME_1":"NA","GID_2":"IDN.11.10_1","county":"Kediri","NL_NAME_2":"NA","city":"Plosoklaten","VARNAME_3":"NA","NL_NAME_3":"NA","TYPE_3":"Kecamatan","ENGTYPE_3":"Sub-district","CC_3":"3506090","HASC_3":"NA","name":"Plosoklaten.city"},
"geometry":{"type": "MultiPolygon","coordinates": [[[[112.2159,-7.9136,470.4185],[112.2171,-7.9153,483.1252],[112.23,-7.9189,545.1928],[112.239,-7.919,611.5936],[112.2434,-7.9245,633.7101],[112.2553,-7.9256,731.3735],[112.2561,-7.9273,733.4747],[112.2615,-7.9282,768.0769],[112.2693,-7.933,870.7091],[112.2766,-7.931,1016.1666],[112.2809,-7.9241,903.778],[112.2763,-7.9204,892.217],[112.2688,-7.9189,778.3071],[112.2662,-7.9101,737.9961],[112.2622,-7.9083,698.9656],[112.2608,-7.9049,662.2622],[112.2458,-7.8938,530.8088],[112.2334,-7.8884,466.4074],[112.2308,-7.8852,447.484],[112.2283,-7.875,399.8965],[112.2121,-7.863,331.1626],[112.2181,-7.8524,314.924],[112.2155,-7.8523,309.0943],[112.2145,-7.8388,277.6936],[112.2086,-7.8363,265.3605],[112.2104,-7.8308,258.6015],[112.2035,-7.8283,237.1584],[112.2001,-7.8308,236.9232],[112.1924,-7.8259,209.808],[112.1899,-7.8285,220.4605],[112.1917,-7.8302,224.8783],[112.1884,-7.8344,218.8974],[112.1791,-7.8242,196.4949],[112.1785,-7.8266,194.5213],[112.1681,-7.8234,178.9275],[112.1516,-7.826,156.4365],[112.1479,-7.8228,151.172],[112.1466,-7.825,155.4839],[112.1528,-7.8289,163.4178],[112.1543,-7.8316,167.6388],[112.1503,-7.8296,161.7361],[112.1496,-7.8316,162.8499],[112.1459,-7.8298,157.2442],[112.1442,-7.8312,157.2442],[112.1354,-7.8262,145.931],[112.1282,-7.825,137.7089],[112.1328,-7.8223,144.7451],[112.1252,-7.8145,126.9507],[112.1211,-7.813,122.6804],[112.1152,-7.8317,133.9775],[112.1174,-7.8326,138.1],[112.1171,-7.8355,133.4405],[112.1133,-7.8342,134.3878],[112.1119,-7.8363,134.7415],[112.1178,-7.8413,143.2496],[112.1132,-7.8516,145.9208],[112.117,-7.852,146.0359],[112.1142,-7.8599,153.838],[112.1148,-7.8621,155.7485],[112.1173,-7.8641,162.486],[112.119,-7.8628,157.6227],[112.1208,-7.8639,165.6324],[112.1185,-7.8688,167.3432],[112.1117,-7.8698,164.0983],[112.1087,-7.8765,165.764],[112.1091,-7.8799,170.918],[112.113,-7.8839,181.3121],[112.1144,-7.888,180.7724],[112.1196,-7.8903,191.7356],[112.1215,-7.8824,192.9952],[112.125,-7.8813,195.634],[112.1369,-7.8857,211.1857],[112.1401,-7.8846,218.5692],[112.143,-7.8877,222.3617],[112.149,-7.8895,241.1743],[112.1492,-7.8912,251.3973],[112.1551,-7.8951,261.6664],[112.1647,-7.8984,286.9633],[112.2025,-7.9049,404.8821],[112.2076,-7.9098,430.0522],[112.2159,-7.9136,470.4185]]]]}}