{"type":"Feature","properties":{"GID_3":"IDN.9.11.22_1","GID_0":"IDN","country":"Indonesia","GID_1":"IDN.9_1","province":"JawaBarat","NL_NAME_1":"NA","GID_2":"IDN.9.11_1","county":"Garut","NL_NAME_2":"NA","city":"Kersamanah","VARNAME_3":"NA","NL_NAME_3":"NA","TYPE_3":"Kecamatan","ENGTYPE_3":"Sub-district","CC_3":"3205261","HASC_3":"NA","name":"Kersamanah.city"},
"geometry":{"type": "MultiPolygon","coordinates": [[[[108.0282,-7.0962,1129.9314],[108.0364,-7.1052,1348.1274],[108.0382,-7.1142,1638.0179],[108.0447,-7.1171,1687.1106],[108.0477,-7.1153,1608.1509],[108.0509,-7.1061,1378.2374],[108.0506,-7.0962,1093.9329],[108.0484,-7.0874,913.6134],[108.0509,-7.0809,739.9588],[108.0485,-7.0763,704.8719],[108.0481,-7.0685,669.4992],[108.0444,-7.0611,596.2266],[108.0429,-7.0608,596.2266],[108.0426,-7.0528,544.198],[108.0377,-7.0477,531.2581],[108.0368,-7.0432,523.2809],[108.0393,-7.0377,498.866],[108.0362,-7.0337,442.725],[108.0354,-7.0351,464.0371],[108.0315,-7.0321,454.449],[108.0302,-7.0332,488.207],[108.0322,-7.0349,462.6039],[108.0304,-7.0367,480.6379],[108.0312,-7.0401,493.438],[108.0253,-7.0389,461.7388],[108.0205,-7.0455,469.8327],[108.0154,-7.0394,478.8826],[108.015,-7.0422,489.6175],[108.0118,-7.0429,493.4059],[108.0122,-7.046,503.7735],[108.0094,-7.0434,465.6002],[108.006,-7.0458,478.7461],[108.0039,-7.0451,474.5428],[108.0027,-7.0474,474.8851],[107.9993,-7.0457,467.894],[107.9983,-7.0502,498.7833],[108.0002,-7.0525,511.8623],[108.0098,-7.057,569.6618],[108.0125,-7.0659,637.8582],[108.0193,-7.0703,663.9747],[108.0207,-7.0748,712.2726],[108.0237,-7.0754,725.8267],[108.023,-7.0827,844.2283],[108.0335,-7.0943,1245.1274],[108.0312,-7.0971,1204.7175],[108.0282,-7.0962,1129.9314]]]]}}