{"type":"Feature","properties":{"GID_3":"IDN.12.7.5_1","GID_0":"IDN","country":"Indonesia","GID_1":"IDN.12_1","province":"KalimantanBarat","NL_NAME_1":"NA","GID_2":"IDN.12.7_1","county":"Landak","NL_NAME_2":"NA","city":"Mandor","VARNAME_3":"NA","NL_NAME_3":"NA","TYPE_3":"Kecamatan","ENGTYPE_3":"Sub-district","CC_3":"6103050","HASC_3":"NA","name":"Mandor.city"},
"geometry":{"type": "MultiPolygon","coordinates": [[[[109.447,0.2548,10.726],[109.4578,0.2495,12.3231],[109.4739,0.2467,16.4988],[109.4853,0.2345,17.8747],[109.4944,0.2296,9.4533],[109.4959,0.2221,11.2489],[109.4988,0.2248,6.5749],[109.5054,0.2265,7.1839],[109.5138,0.2342,13.9565],[109.5161,0.2475,12.7603],[109.5116,0.2702,25.415],[109.5126,0.2756,13.9693],[109.5158,0.2854,27.9852],[109.5277,0.299,34.5268],[109.5347,0.3196,72.2236],[109.532,0.3359,57.3706],[109.5185,0.3479,53.1337],[109.5142,0.3571,30.5493],[109.5142,0.3696,164.1341],[109.5223,0.3783,77.9971],[109.5282,0.381,30.914],[109.5325,0.387,39.1152],[109.5393,0.405,107.7475],[109.5425,0.4316,320.136],[109.5225,0.4345,89.6092],[109.5146,0.4339,79.5051],[109.4988,0.4183,88.2183],[109.4884,0.4155,71.2254],[109.4811,0.41,62.4774],[109.4731,0.4068,76.1897],[109.458,0.4071,72.1271],[109.4447,0.412,84.0283],[109.4383,0.4123,84.0064],[109.4334,0.4044,88.8776],[109.4257,0.4031,70.8223],[109.4217,0.3987,75.4437],[109.4162,0.3859,58.7162],[109.3933,0.3771,38.3414],[109.3852,0.371,23.4056],[109.3353,0.3636,25.9524],[109.3093,0.3616,46.3786],[109.2971,0.3562,50.1647],[109.2913,0.3488,39.77],[109.2867,0.3461,16.0696],[109.2631,0.3369,217.9087],[109.254,0.3372,61.9617],[109.2353,0.3416,38.1088],[109.2365,0.32,10.3292],[109.2221,0.3238,13.8415],[109.2163,0.3215,31.2228],[109.2088,0.3147,37.0494],[109.204,0.3037,15.7136],[109.2005,0.2901,11.4481],[109.2176,0.2805,26.1632],[109.2458,0.2774,7.6098],[109.2529,0.2729,9.7959],[109.2599,0.2638,33.6],[109.2731,0.2638,12.9399],[109.2811,0.2669,22.4311],[109.3209,0.2674,28.8295],[109.3618,0.2633,15.3478],[109.3855,0.2543,30.7666],[109.4056,0.2563,27.2284],[109.447,0.2548,10.726]]]]}}