{"type":"Feature","properties":{"GID_3":"IDN.32.12.4_1","GID_0":"IDN","country":"Indonesia","GID_1":"IDN.32_1","province":"SumateraUtara","NL_NAME_1":"NA","GID_2":"IDN.32.12_1","county":"LabuhanbatuUtara","NL_NAME_2":"NA","city":"KualuhHulu","VARNAME_3":"NA","NL_NAME_3":"NA","TYPE_3":"Kecamatan","ENGTYPE_3":"Sub-district","CC_3":"1223070","HASC_3":"NA","name":"Kualuh_Hulu.city"},
"geometry":{"type": "MultiPolygon","coordinates": [[[[99.5315,2.5245,29.6074],[99.5309,2.5327,77.6729],[99.5397,2.5334,38.2985],[99.5446,2.5303,84.4816],[99.5475,2.5333,33.3654],[99.548,2.5425,47.0814],[99.5527,2.5434,47.4399],[99.5585,2.5382,55.5594],[99.5856,2.542,26.6219],[99.5919,2.5392,26.4244],[99.5976,2.5441,29.3529],[99.6091,2.5401,29.4266],[99.6114,2.541,39.4771],[99.6116,2.5382,25.6189],[99.6162,2.537,34.59],[99.6257,2.5304,26.5],[99.6324,2.5337,33.6202],[99.6382,2.5333,27.7202],[99.6419,2.5349,24.0607],[99.6506,2.532,25.4267],[99.6575,2.534,23.3586],[99.6647,2.5333,35.2231],[99.6764,2.5275,29.7451],[99.6885,2.5244,22.061],[99.6941,2.5262,21.7213],[99.7031,2.5354,27.9216],[99.714,2.5275,24.364],[99.7293,2.5253,15.9869],[99.7334,2.5264,22.9319],[99.7453,2.547,12.4969],[99.7486,2.5495,10.6407],[99.767,2.5454,7.7748],[99.7773,2.5514,9.4324],[99.7927,2.5539,15.0882],[99.805,2.5429,6.5792],[99.8171,2.5382,11.153],[99.8157,2.5362,6.9285],[99.8216,2.5296,4.7397],[99.8423,2.5344,6.0478],[99.8531,2.539,10.6867],[99.8737,2.5407,9.3746],[99.8807,2.5563,12.8169],[99.878,2.5663,10.4218],[99.878,2.574,13.3176],[99.8299,2.5749,12.3568],[99.8308,2.5985,8.7382],[99.8285,2.6318,10.4848],[99.8308,2.6461,10.809],[99.8261,2.6721,12.402],[99.8289,2.6839,11.589],[99.8271,2.6965,10.4405],[99.8222,2.6885,11.0819],[99.7507,2.6253,14.1833],[99.7467,2.6271,21.7514],[99.7425,2.6262,21.6708],[99.7255,2.6065,10.0704],[99.7193,2.6045,10.4753],[99.7122,2.5966,15.0567],[99.6971,2.587,25.8555],[99.6676,2.5872,30.2725],[99.6544,2.5815,24.9155],[99.6438,2.5802,28.9031],[99.6434,2.5762,28.7838],[99.6088,2.5752,34.863],[99.6068,2.5792,38.1163],[99.5917,2.5857,38.3415],[99.5868,2.5909,38.7024],[99.5832,2.5913,40.6977],[99.5781,2.5864,36.6089],[99.5696,2.585,44.162],[99.5629,2.5945,50.0116],[99.5596,2.6047,49.918],[99.5558,2.6062,50.3382],[99.543,2.603,76.1332],[99.5384,2.5922,79.2375],[99.5284,2.5926,85.5495],[99.5221,2.5906,87.1737],[99.5172,2.5921,103.4751],[99.5137,2.5886,92.3658],[99.5,2.5852,85.0545],[99.4896,2.5774,113.522],[99.4725,2.556,167.2864],[99.4612,2.5508,152.4191],[99.453,2.5412,176.9228],[99.4493,2.505,98.2868],[99.4507,2.5029,155.8136],[99.45,2.5,171.6066],[99.4462,2.4939,189.2292],[99.4398,2.489,211.7066],[99.4192,2.46,989.9709],[99.5,2.3984,185.7453],[99.5012,2.3956,207.2796],[99.5099,2.3968,212.6602],[99.5156,2.3956,164.1413],[99.5166,2.3982,149.3782],[99.5196,2.3994,156.2585],[99.517,2.4026,163.0703],[99.5171,2.406,165.9305],[99.5098,2.4134,159.4658],[99.511,2.4163,156.7716],[99.5157,2.4164,168.4386],[99.5174,2.4193,163.703],[99.5176,2.4248,139.7254],[99.514,2.431,129.6935],[99.512,2.4397,129.5979],[99.5171,2.4515,97.9104],[99.5234,2.4613,64.23],[99.5229,2.4671,57.5776],[99.5144,2.4731,72.0256],[99.5147,2.4896,102.9928],[99.5176,2.4929,55.4607],[99.5222,2.4946,42.6786],[99.5243,2.5017,35.3596],[99.5311,2.5105,42.1449],[99.5315,2.5245,29.6074]]]]}}