{"type":"Feature","properties":{"GID_3":"IDN.33.2.13_1","GID_0":"IDN","country":"Indonesia","GID_1":"IDN.33_1","province":"Yogyakarta","NL_NAME_1":"NA","GID_2":"IDN.33.2_1","county":"GunungKidul","NL_NAME_2":"NA","city":"SaptoSari","VARNAME_3":"NA","NL_NAME_3":"NA","TYPE_3":"Kecamatan","ENGTYPE_3":"Sub-district","CC_3":"3403030","HASC_3":"NA","name":"Sapto_Sari.city"},
"geometry":{"type": "MultiPolygon","coordinates": [[[[110.5231,-8.0548,297.5132],[110.5174,-8.0502,292.7538],[110.5166,-8.0393,302.8898],[110.5141,-8.0365,297.9655],[110.5144,-8.0328,285.4058],[110.507,-8.0347,272.6002],[110.5077,-8.0293,283.8503],[110.5055,-8.02,248.148],[110.502,-8.0206,234.5853],[110.5023,-8.0235,261.9442],[110.4976,-8.0188,251.7302],[110.4907,-8.0161,253.1016],[110.4913,-8.0184,271.3755],[110.4759,-8.03,304.1019],[110.4785,-8.0417,288.2711],[110.4698,-8.0554,271.4226],[110.4691,-8.0631,269.7703],[110.4623,-8.0629,264.0009],[110.4596,-8.0643,259.1398],[110.4608,-8.0855,157.2358],[110.4629,-8.0945,119.0229],[110.4669,-8.0994,92.5532],[110.4662,-8.1054,48.0439],[110.4718,-8.1104,8.2782],[110.4767,-8.1098,8.3326],[110.4816,-8.1123,14.5682],[110.4858,-8.1122,39.5271],[110.4863,-8.1137,5.5317],[110.4883,-8.113,9.8893],[110.4913,-8.1171,0.0],[110.4965,-8.1166,22.537],[110.497,-8.1179,22.537],[110.5033,-8.1185,10.1487],[110.5131,-8.124,0.0],[110.5148,-8.1214,21.9349],[110.5147,-8.1234,0.0],[110.5167,-8.1228,19.4365],[110.5173,-8.1253,0.0],[110.522,-8.1261,21.3103],[110.5231,-8.1291,5.062],[110.525,-8.1282,14.5563],[110.5262,-8.1304,0.0],[110.5281,-8.1294,21.0015],[110.5278,-8.1316,0.0],[110.5312,-8.1306,28.6577],[110.533,-8.1317,0.0],[110.5348,-8.1302,25.6527],[110.5463,-8.1355,0.0],[110.5456,-8.132,15.1043],[110.547,-8.1325,15.1043],[110.5483,-8.1292,8.0217],[110.5458,-8.1272,36.2006],[110.5456,-8.1187,71.0513],[110.5484,-8.1128,85.3563],[110.5517,-8.1104,91.6346],[110.5576,-8.0962,150.1928],[110.5573,-8.0844,208.4086],[110.5553,-8.0862,208.031],[110.5533,-8.0859,208.031],[110.5476,-8.0796,223.691],[110.547,-8.0625,246.4809],[110.5494,-8.0588,266.6845],[110.5517,-8.047,259.5669],[110.5517,-8.0418,218.8591],[110.5497,-8.0413,228.9635],[110.5523,-8.0375,197.6207],[110.5486,-8.0283,178.4914],[110.5413,-8.0342,242.1964],[110.5342,-8.0307,229.9062],[110.5295,-8.0352,264.9098],[110.5275,-8.0421,302.2213],[110.5278,-8.053,302.1648],[110.5231,-8.0548,297.5132]]]]}}