{"type":"Feature","properties":{"GID_3":"IDN.5.3.8_1","GID_0":"IDN","country":"Indonesia","GID_1":"IDN.5_1","province":"Bengkulu","NL_NAME_1":"NA","GID_2":"IDN.5.3_1","county":"BengkuluUtara","NL_NAME_2":"NA","city":"Kerkap","VARNAME_3":"NA","NL_NAME_3":"NA","TYPE_3":"Kecamatan","ENGTYPE_3":"Sub-district","CC_3":"1703050","HASC_3":"NA","name":"Kerkap.city"},
"geometry":{"type": "MultiPolygon","coordinates": [[[[102.2313,-3.5957,59.3873],[102.2407,-3.5926,78.759],[102.2675,-3.5918,61.2888],[102.2779,-3.5773,31.3176],[102.2915,-3.563,52.6992],[102.3115,-3.5525,156.1502],[102.3266,-3.5373,172.6827],[102.3357,-3.5303,206.5697],[102.3442,-3.5267,267.3526],[102.3833,-3.52,624.3029],[102.4037,-3.5081,497.2033],[102.4217,-3.494,941.2755],[102.4201,-3.4924,945.0013],[102.4181,-3.4786,970.4101],[102.406,-3.4556,1168.5837],[102.4083,-3.451,1286.6333],[102.4081,-3.4476,1354.3389],[102.3985,-3.4374,1392.7393],[102.3965,-3.4224,1635.318],[102.3899,-3.4147,1341.3519],[102.373,-3.4115,1828.7607],[102.3699,-3.4099,1849.2932],[102.3669,-3.4053,2126.6777],[102.3685,-3.4003,2111.9856],[102.3766,-3.3947,1937.8947],[102.3741,-3.3905,2186.6682],[102.3744,-3.3848,2430.4031],[102.3761,-3.382,2355.1128],[102.3593,-3.3732,2269.3093],[102.315,-3.3727,1499.6959],[102.3058,-3.3699,978.8413],[102.2971,-3.3784,869.6561],[102.295,-3.382,764.5715],[102.2951,-3.3863,783.8997],[102.2989,-3.4005,862.6635],[102.2995,-3.4107,727.6425],[102.297,-3.4231,672.7893],[102.2861,-3.4352,307.0009],[102.2621,-3.4565,224.1513],[102.2435,-3.49,148.1078],[102.2475,-3.5026,93.5118],[102.2471,-3.5093,100.1188],[102.2387,-3.5239,101.6922],[102.2359,-3.5344,64.8318],[102.2359,-3.5411,75.6923],[102.2369,-3.5522,72.3642],[102.244,-3.5642,66.4037],[102.2264,-3.5664,75.1476],[102.2277,-3.5918,50.2198],[102.2286,-3.5964,57.4144],[102.2313,-3.5957,59.3873]]]]}}