{"type":"Feature","properties":{"GID_3":"IDN.34.5.11_1","GID_0":"IDN","country":"Indonesia","GID_1":"IDN.34_1","province":"KalimantanTimur","NL_NAME_1":"NA","GID_2":"IDN.34.5_1","county":"KutaiBarat","NL_NAME_2":"NA","city":"LongIram","VARNAME_3":"NA","NL_NAME_3":"NA","TYPE_3":"Kecamatan","ENGTYPE_3":"Sub-district","CC_3":"6402090","HASC_3":"NA","name":"Long_Iram.city"},
"geometry":{"type": "MultiPolygon","coordinates": [[[[115.6235,-0.0379,23.7786],[115.632,-0.0304,17.7565],[115.6372,-0.0228,17.7597],[115.6471,-0.0143,18.9363],[115.6509,0.0042,26.0042],[115.6509,0.0184,26.9115],[115.6637,0.0459,60.7117],[115.6765,0.0592,65.0469],[115.6798,0.0606,57.0333],[115.6864,0.0677,65.205],[115.6921,0.0696,82.2539],[115.6992,0.0753,79.9647],[115.7026,0.08,103.3881],[115.7111,0.0833,109.3402],[115.7281,0.0809,100.7483],[115.7442,0.0819,71.9642],[115.7712,0.0776,71.3558],[115.7845,0.0719,25.7974],[115.7887,0.0677,32.112],[115.7954,0.07,33.6662],[115.7973,0.0738,56.6282],[115.7963,0.0885,23.6543],[115.7982,0.0966,36.8282],[115.8044,0.1065,60.4412],[115.8058,0.1141,41.6161],[115.8176,0.1326,40.0925],[115.8105,0.1439,52.227],[115.8025,0.1629,86.2484],[115.7989,0.1642,84.8745],[115.777,0.1491,101.1844],[115.7696,0.1491,100.7506],[115.7609,0.154,104.459],[115.7535,0.1491,116.783],[115.719,0.1479,118.8779],[115.6992,0.154,113.3584],[115.6856,0.1565,103.0465],[115.6745,0.1454,93.4057],[115.6523,0.1442,113.8373],[115.6152,0.1516,95.9684],[115.5782,0.1405,74.1851],[115.535,0.1392,50.0411],[115.5165,0.1343,40.1675],[115.5041,0.1355,84.9513],[115.4856,0.1343,84.4299],[115.4782,0.1405,143.7272],[115.472,0.138,264.1538],[115.4658,0.1244,180.31],[115.451,0.1071,184.8619],[115.451,0.0972,209.1763],[115.4535,0.0886,188.6677],[115.4424,0.0676,335.5596],[115.4436,0.0516,398.3201],[115.4411,0.0417,528.7438],[115.4378,0.0406,508.0804],[115.4439,0.0217,370.5095],[115.4586,0.0075,317.8118],[115.4719,-0.0109,158.2415],[115.4818,-0.0294,259.7298],[115.487,-0.0469,126.8985],[115.4965,-0.0403,74.6303],[115.5169,-0.0332,46.144],[115.5254,-0.0327,36.8797],[115.5581,-0.0389,66.9945],[115.5851,-0.0469,52.1524],[115.6069,-0.0469,20.2856],[115.6135,-0.045,17.964],[115.6235,-0.0379,23.7786]]]]}}