{"type":"Feature","properties":{"GID_3":"IDN.10.35.1_1","GID_0":"IDN","country":"Indonesia","GID_1":"IDN.10_1","province":"JawaTengah","NL_NAME_1":"NA","GID_2":"IDN.10.35_1","county":"Wonogiri","NL_NAME_2":"NA","city":"Baturetno","VARNAME_3":"NA","NL_NAME_3":"NA","TYPE_3":"Kecamatan","ENGTYPE_3":"Sub-district","CC_3":"3312090","HASC_3":"NA","name":"Baturetno.city"},
"geometry":{"type": "MultiPolygon","coordinates": [[[[110.9792,-7.9569,308.9004],[110.9866,-7.954,263.5342],[110.9875,-7.949,252.9451],[110.9915,-7.9454,226.0984],[110.9932,-7.9394,145.3756],[110.9912,-7.9381,147.9517],[110.9908,-7.9355,147.3906],[110.9879,-7.937,146.7749],[110.9856,-7.9351,147.3529],[110.9773,-7.9383,143.0188],[110.973,-7.9344,146.8739],[110.9716,-7.9364,141.6812],[110.973,-7.938,141.7428],[110.9717,-7.9387,141.7428],[110.968,-7.9357,140.7277],[110.9644,-7.9359,140.1908],[110.9632,-7.9327,145.7876],[110.9467,-7.9329,138.8],[110.9449,-7.9311,138.2625],[110.9451,-7.9273,137.3046],[110.944,-7.929,138.4532],[110.9447,-7.93,138.2625],[110.945,-7.9322,138.4656],[110.9444,-7.9329,138.4656],[110.9453,-7.9331,139.1688],[110.9433,-7.9355,144.0089],[110.9444,-7.9301,138.2625],[110.9426,-7.9289,138.4532],[110.9403,-7.9337,138.685],[110.9377,-7.9334,138.5644],[110.94,-7.9311,139.5921],[110.9401,-7.9277,138.0461],[110.9371,-7.9281,139.3681],[110.938,-7.9259,138.3029],[110.9366,-7.9239,137.6046],[110.9313,-7.93,147.0152],[110.9315,-7.9222,140.8582],[110.9346,-7.9201,136.8953],[110.9333,-7.9181,137.1255],[110.9292,-7.9208,141.9172],[110.9295,-7.9159,134.5],[110.9265,-7.9173,135.7976],[110.9252,-7.916,134.5],[110.9236,-7.9197,147.4854],[110.9233,-7.9179,135.182],[110.9215,-7.9186,148.4466],[110.922,-7.9164,135.182],[110.9189,-7.9132,134.9194],[110.9174,-7.9183,142.1419],[110.9168,-7.9163,136.8931],[110.9131,-7.9144,139.7338],[110.9145,-7.9102,136.3726],[110.911,-7.906,134.5],[110.91,-7.9077,134.5],[110.9123,-7.9102,134.5],[110.9106,-7.9127,134.9229],[110.9074,-7.9132,137.8329],[110.9059,-7.9094,134.5],[110.9031,-7.9127,134.9364],[110.9063,-7.9147,134.5],[110.9055,-7.9187,135.0306],[110.9105,-7.9178,139.0977],[110.9122,-7.9188,137.8019],[110.9103,-7.9198,135.0502],[110.9126,-7.9231,142.2666],[110.908,-7.9226,134.5],[110.9081,-7.9247,141.7705],[110.9064,-7.9259,138.6617],[110.9044,-7.9224,135.1373],[110.9022,-7.9228,135.0477],[110.8984,-7.9197,137.0739],[110.8976,-7.923,135.6913],[110.9014,-7.9264,141.2504],[110.8979,-7.9268,135.2935],[110.8999,-7.9289,136.2626],[110.9016,-7.9286,138.0182],[110.9012,-7.9302,134.5],[110.9029,-7.9297,134.5],[110.9027,-7.9312,134.5],[110.9046,-7.9302,135.5272],[110.9046,-7.9342,134.9401],[110.9077,-7.9317,134.5],[110.9083,-7.9291,140.5794],[110.9103,-7.929,137.6756],[110.9114,-7.9307,136.7787],[110.9173,-7.9306,137.1933],[110.9164,-7.9321,138.8548],[110.9103,-7.9337,135.416],[110.9094,-7.9362,137.9439],[110.9159,-7.9391,148.6987],[110.9151,-7.9407,134.5],[110.917,-7.9421,134.5],[110.9236,-7.9413,135.2367],[110.9231,-7.9448,144.0311],[110.9205,-7.9436,135.8254],[110.9156,-7.9457,138.2369],[110.9187,-7.9482,136.3966],[110.9169,-7.9494,134.5],[110.9174,-7.9527,134.5],[110.9124,-7.9422,136.0699],[110.9073,-7.9399,134.5],[110.9063,-7.9411,134.5],[110.911,-7.9468,134.5],[110.9116,-7.9509,137.7745],[110.9086,-7.9501,135.9324],[110.9089,-7.9534,134.5],[110.9103,-7.9537,140.3055],[110.9092,-7.9554,134.5],[110.9142,-7.9619,134.5],[110.9169,-7.9617,137.0713],[110.9155,-7.9637,142.9569],[110.9178,-7.9673,135.1511],[110.9204,-7.9678,134.5],[110.9196,-7.9643,140.2844],[110.9222,-7.9688,134.5],[110.9199,-7.9697,137.3118],[110.9205,-7.9723,135.7788],[110.9187,-7.9721,138.0437],[110.9184,-7.9686,134.5],[110.9166,-7.9682,135.2472],[110.9158,-7.9697,138.2088],[110.9151,-7.9662,135.243],[110.9105,-7.9647,137.7886],[110.9096,-7.9615,135.6228],[110.9074,-7.9623,137.8416],[110.9078,-7.96,134.5],[110.9052,-7.9603,136.4679],[110.906,-7.9572,136.0239],[110.9016,-7.9554,135.2485],[110.9038,-7.9526,134.5],[110.9025,-7.9526,137.7746],[110.9017,-7.9498,136.4243],[110.9033,-7.9492,134.5],[110.9027,-7.9462,134.5],[110.8998,-7.9463,139.5721],[110.8988,-7.9513,140.7367],[110.8975,-7.9506,137.3932],[110.8963,-7.953,138.3366],[110.8934,-7.9534,134.5],[110.8974,-7.9603,136.2228],[110.9013,-7.9637,139.6682],[110.9012,-7.9696,134.5],[110.9058,-7.9721,134.5],[110.8993,-7.9724,134.5],[110.8992,-7.9763,139.0193],[110.9018,-7.9792,137.9341],[110.9089,-7.9791,138.6543],[110.9034,-7.9818,137.9285],[110.8974,-7.9782,134.5],[110.8965,-7.98,135.066],[110.8941,-7.9797,135.6283],[110.898,-7.9832,138.5635],[110.8943,-7.9904,137.2753],[110.8972,-7.9923,138.2727],[110.8985,-7.9975,137.7151],[110.9042,-7.9984,138.2526],[110.9074,-8.0022,138.6245],[110.911,-8.0014,138.9323],[110.9152,-8.007,139.833],[110.9176,-8.0077,140.8104],[110.9185,-8.0056,140.9732],[110.9211,-8.0049,141.3343],[110.9221,-8.0076,141.0133],[110.9272,-8.0105,142.3008],[110.9378,-8.0139,145.546],[110.9416,-8.0089,172.2628],[110.9496,-8.0038,229.7242],[110.9591,-8.0012,389.6824],[110.959,-7.9988,438.6766],[110.9555,-7.9958,250.6318],[110.957,-7.9911,281.4275],[110.9602,-7.9907,288.2205],[110.9621,-7.9881,268.9159],[110.9631,-7.9909,282.6489],[110.965,-7.9879,231.8676],[110.9674,-7.9878,201.5338],[110.9684,-7.9914,352.6788],[110.9713,-7.99,310.6144],[110.9713,-7.9959,387.8359],[110.9773,-7.9898,246.708],[110.9788,-7.9859,274.471],[110.9785,-7.9799,316.1945],[110.9752,-7.9747,285.1165],[110.9692,-7.9709,230.1725],[110.9685,-7.9648,189.3961],[110.977,-7.963,211.7022],[110.9792,-7.9569,308.9004]]]]}}