{"type":"Feature","properties":{"GID_3":"IDN.27.1.4_1","GID_0":"IDN","country":"Indonesia","GID_1":"IDN.27_1","province":"SulawesiTengah","NL_NAME_1":"NA","GID_2":"IDN.27.1_1","county":"BanggaiKepulauan","NL_NAME_2":"NA","city":"Banggai","VARNAME_3":"NA","NL_NAME_3":"NA","TYPE_3":"Kecamatan","ENGTYPE_3":"Sub-district","CC_3":"7201020","HASC_3":"NA","name":"Banggai.city"},
"geometry":{"type": "MultiPolygon","coordinates": [[[[123.6124,-1.6451,24.0597],[123.612,-1.6451,24.0597],[123.6119,-1.6452,24.0597],[123.6124,-1.6451,24.0597]]],
[[[123.6048,-1.6459,163.7107],[123.6119,-1.6452,24.0597],[123.6054,-1.6358,73.914],[123.604,-1.6305,8.2806],[123.6067,-1.6303,20.8172],[123.6122,-1.6367,0.0],[123.6205,-1.6398,0.0],[123.6216,-1.6376,16.7607],[123.6196,-1.634,52.9947],[123.6215,-1.6291,71.8976],[123.6232,-1.6288,0.0],[123.6229,-1.6244,0.0],[123.6162,-1.6207,3.0146],[123.6137,-1.6162,106.3892],[123.615,-1.608,0.0],[123.613,-1.6077,15.4311],[123.6123,-1.6055,17.4588],[123.6028,-1.6056,97.5495],[123.6034,-1.6023,1.963],[123.5992,-1.6023,39.8444],[123.5978,-1.5974,0.0],[123.5896,-1.5941,13.1186],[123.5875,-1.5953,53.7237],[123.59,-1.5997,13.2372],[123.5882,-1.6017,13.6788],[123.5896,-1.6031,5.7799],[123.5917,-1.5986,15.2974],[123.5939,-1.6008,0.0],[123.5891,-1.6069,129.5307],[123.5838,-1.6035,6.4168],[123.578,-1.6103,7.4996],[123.5735,-1.6094,1.1957],[123.5597,-1.5988,30.0352],[123.5563,-1.589,6.401],[123.5576,-1.5864,33.906],[123.5568,-1.5815,10.4513],[123.5289,-1.5767,69.1985],[123.5224,-1.5697,119.1441],[123.5148,-1.5551,121.0568],[123.5069,-1.5501,140.1552],[123.4916,-1.5465,143.454],[123.4795,-1.5461,0.0],[123.4778,-1.5713,0.0],[123.4797,-1.5728,26.5736],[123.4787,-1.577,13.4691],[123.4799,-1.5836,0.0],[123.481,-1.5847,0.0],[123.4826,-1.5832,0.0],[123.4834,-1.5773,2.5823],[123.4854,-1.5755,11.1491],[123.4868,-1.5777,31.3386],[123.4925,-1.5797,3.7652],[123.4989,-1.5871,1.9184],[123.4995,-1.5917,1.3931],[123.498,-1.5959,0.0],[123.5006,-1.5972,4.1975],[123.4996,-1.5986,8.7588],[123.4994,-1.5969,4.1975],[123.4975,-1.5971,1.0505],[123.4972,-1.5987,0.4658],[123.4985,-1.599,0.4658],[123.4963,-1.6012,0.0],[123.4989,-1.6018,6.4766],[123.4973,-1.6042,2.7999],[123.4985,-1.6052,5.3074],[123.497,-1.605,5.3074],[123.4954,-1.6073,12.8133],[123.4908,-1.6047,7.7712],[123.4915,-1.6029,0.0],[123.4883,-1.6031,6.752],[123.4846,-1.6062,9.292],[123.4857,-1.6123,1.8438],[123.4981,-1.6152,58.4626],[123.5065,-1.6223,65.7587],[123.5116,-1.6244,58.6727],[123.5373,-1.629,208.8146],[123.5639,-1.6393,253.9513],[123.6048,-1.6459,163.7107]]]]}}