{"type":"Feature","properties":{"GID_2":"IDN.34.11_1","GID_0":"IDN","country":"Indonesia","GID_1":"IDN.34_1","province":"KalimantanTimur","NL_NAME_1":"NA","county":"PenajamPaserUtara","VARNAME_2":"NA","NL_NAME_2":"NA","TYPE_2":"Kabupaten","ENGTYPE_2":"Regency","CC_2":"6409","HASC_2":"ID.KM.PP","name":"Penajam_Paser_Utara.county"},
"geometry":{"type": "MultiPolygon","coordinates": [[[[116.4885,-1.5796,1.4836],[116.5195,-1.5904,0.7978],[116.5443,-1.5957,7.2628],[116.5522,-1.6056,4.7501],[116.5578,-1.6029,1.8834],[116.5607,-1.5941,5.6665],[116.5558,-1.5813,0.0],[116.5533,-1.553,0.5926],[116.5483,-1.5342,3.895],[116.5412,-1.5195,5.4385],[116.538,-1.5165,8.3563],[116.5327,-1.5156,0.0],[116.5303,-1.5114,0.8935],[116.53,-1.5079,0.6429],[116.5333,-1.4988,1.3922],[116.5353,-1.4751,10.9346],[116.5396,-1.4641,0.8715],[116.5487,-1.4538,4.4443],[116.5691,-1.4379,3.4498],[116.5871,-1.4262,3.4592],[116.6031,-1.4181,0.8852],[116.6277,-1.4081,2.5417],[116.6315,-1.4088,2.7245],[116.6507,-1.4043,4.1017],[116.6725,-1.3944,6.5665],[116.6905,-1.3899,1.9692],[116.701,-1.3839,4.5913],[116.7247,-1.3752,3.5903],[116.7379,-1.3711,2.3179],[116.7501,-1.3693,7.2226],[116.7653,-1.3561,6.4075],[116.7659,-1.35,0.0],[116.7621,-1.3357,2.6577],[116.7581,-1.3291,0.0],[116.7617,-1.3268,0.0],[116.7633,-1.3236,1.3425],[116.7633,-1.3138,2.8801],[116.7811,-1.2951,0.0],[116.7857,-1.2928,0.0],[116.7845,-1.2835,0.0],[116.7963,-1.2398,0.0],[116.7659,-1.2116,0.0],[116.7753,-1.1876,0.0],[116.7569,-1.1385,0.5],[116.7238,-1.1208,32.2693],[116.7162,-1.1098,0.5],[116.7315,-1.0861,0.5],[116.7268,-1.0756,0.5],[116.7297,-1.0665,0.5],[116.7395,-1.0738,0.5],[116.742,-1.071,15.4415],[116.7496,-1.0714,23.7803],[116.7595,-1.0756,56.2549],[116.7618,-1.071,62.5719],[116.7654,-1.0703,53.3915],[116.7709,-1.0601,41.9678],[116.7732,-1.0456,48.8145],[116.7753,-1.0415,70.3187],[116.7812,-1.0395,68.3098],[116.8005,-1.0494,86.4895],[116.8043,-1.0532,90.0443],[116.8062,-1.0581,83.8023],[116.8127,-1.0547,100.8217],[116.8161,-1.0566,87.2851],[116.8176,-1.0547,99.7185],[116.823,-1.0555,110.3682],[116.8256,-1.0524,101.5294],[116.8336,-1.0501,93.2435],[116.8371,-1.046,112.0158],[116.8375,-1.0386,112.7293],[116.8415,-1.0327,104.9203],[116.8397,-1.0289,127.7628],[116.8426,-1.0225,118.4976],[116.8523,-1.0145,91.7716],[116.872,-1.0084,85.0902],[116.874,-1.0067,97.8858],[116.8747,-0.9952,119.94],[116.8796,-0.9878,96.7324],[116.894,-0.975,91.1069],[116.921,-0.9626,91.3326],[116.9455,-0.9344,120.0532],[116.955,-0.9257,129.7211],[116.9406,-0.9076,109.5852],[116.9198,-0.8888,78.3657],[116.8989,-0.864,71.5865],[116.8848,-0.8514,68.1934],[116.8927,-0.8315,64.7205],[116.8597,-0.8183,77.2686],[116.8091,-0.8115,81.7274],[116.7685,-0.8115,131.3007],[116.7415,-0.8081,146.1523],[116.7145,-0.7979,386.5385],[116.6841,-0.8014,389.1703],[116.6673,-0.8115,404.9011],[116.6471,-0.8419,449.1263],[116.6301,-0.8824,424.8488],[116.6031,-0.879,419.9884],[116.5795,-0.8622,347.2248],[116.5632,-0.8483,349.6156],[116.5404,-0.8386,322.0492],[116.5239,-0.8387,411.5867],[116.516,-0.8421,601.8467],[116.5203,-0.8435,489.931],[116.4877,-0.8842,578.5708],[116.4771,-0.9201,606.0521],[116.4683,-0.9391,478.9571],[116.4611,-0.9497,647.4003],[116.4523,-0.955,421.5987],[116.4399,-0.9656,585.4469],[116.4386,-0.9708,590.0368],[116.4419,-0.9701,580.1487],[116.4419,-0.9849,274.3395],[116.4545,-1.0249,197.1758],[116.4541,-1.0435,250.3177],[116.4435,-1.0594,264.331],[116.4275,-1.0718,255.3577],[116.4169,-1.0913,436.7075],[116.4045,-1.1054,416.3121],[116.3763,-1.132,310.3466],[116.3709,-1.1444,291.9883],[116.3763,-1.1745,261.1204],[116.3779,-1.1993,163.8524],[116.3603,-1.2187,107.79],[116.3437,-1.2478,43.1109],[116.3355,-1.2842,56.3453],[116.3355,-1.3338,92.58],[116.3461,-1.3692,29.3331],[116.3549,-1.3904,16.7776],[116.356,-1.417,17.0847],[116.3638,-1.4701,39.6161],[116.3744,-1.5019,6.7408],[116.3797,-1.5267,6.6512],[116.3868,-1.5444,4.076],[116.3992,-1.5497,2.8128],[116.4169,-1.5532,2.4643],[116.4452,-1.5656,1.9977],[116.4885,-1.5796,1.4836]]]]}}