{"type":"Feature","properties":{"GID_2":"BRN.2.9_1","GID_0":"BRN","country":"Brunei","GID_1":"BRN.2_1","province":"BruneiandMuara","NL_NAME_1":"NA","county":"PengkalanBatu","VARNAME_2":"PangkalanBatu","NL_NAME_2":"NA","TYPE_2":"Mukim","ENGTYPE_2":"Mukim","CC_2":"NA","HASC_2":"BN.BM.PB","name":"Pengkalan_Batu.county"},
"geometry":{"type": "MultiPolygon","coordinates": [[[[114.8465,4.8569,7.5115],[114.8331,4.8536,4.706],[114.8192,4.8384,19.0875],[114.7991,4.839,52.889],[114.7989,4.8312,48.0064],[114.7809,4.7956,50.2631],[114.7809,4.7723,46.1337],[114.7791,4.7655,37.0598],[114.7795,4.7593,30.2366],[114.7838,4.7512,14.0727],[114.794,4.7402,10.1103],[114.7948,4.7464,8.5015],[114.8008,4.7525,12.4669],[114.8095,4.7552,64.1897],[114.8379,4.7579,42.8759],[114.8489,4.7672,17.2279],[114.8541,4.7768,9.9784],[114.864,4.8054,5.2047],[114.8683,4.8082,7.6897],[114.8657,4.8211,1.5],[114.8608,4.8215,7.2554],[114.8557,4.8261,12.2179],[114.852,4.8385,7.1679],[114.8431,4.8433,12.7258],[114.8433,4.8464,5.9289],[114.8498,4.8511,11.946],[114.8465,4.8569,7.5115]]]]}}