{"type":"Feature","properties":{"GID_3":"IDN.12.2.13_1","GID_0":"IDN","country":"Indonesia","GID_1":"IDN.12_1","province":"KalimantanBarat","NL_NAME_1":"NA","GID_2":"IDN.12.2_1","county":"KapuasHulu","NL_NAME_2":"NA","city":"Jongkong","VARNAME_3":"NA","NL_NAME_3":"NA","TYPE_3":"Kecamatan","ENGTYPE_3":"Sub-district","CC_3":"6108130","HASC_3":"NA","name":"Jongkong.city"},
"geometry":{"type": "MultiPolygon","coordinates": [[[[112.3213,0.8094,378.8525],[112.3214,0.8149,328.7649],[112.3185,0.8171,214.3153],[112.3124,0.8167,172.5617],[112.3076,0.815,196.5474],[112.2983,0.8075,183.807],[112.2782,0.7976,171.1309],[112.2616,0.7973,317.4398],[112.2438,0.7943,34.7887],[112.2444,0.7907,45.2685],[112.2428,0.7884,37.6523],[112.2343,0.7825,36.6903],[112.2319,0.7783,28.54],[112.2223,0.7545,33.7448],[112.2239,0.7329,34.3766],[112.2318,0.7112,36.816],[112.2398,0.6984,26.4911],[112.2463,0.6737,16.0],[112.2622,0.651,27.0162],[112.2683,0.6383,26.1388],[112.2682,0.6307,29.9269],[112.2623,0.6216,32.912],[112.2613,0.6173,132.961],[112.2767,0.5942,43.9966],[112.2769,0.57,40.6076],[112.2601,0.5442,46.6831],[112.2578,0.5304,58.7263],[112.2721,0.5358,49.7205],[112.3049,0.5399,34.8991],[112.3269,0.5568,39.3743],[112.3355,0.5543,39.2094],[112.349,0.5474,40.3945],[112.3896,0.542,80.5198],[112.4125,0.553,57.3511],[112.422,0.5636,52.5311],[112.4299,0.5668,48.6537],[112.4513,0.5543,69.67],[112.4588,0.5471,62.5213],[112.4621,0.5398,60.0114],[112.4674,0.5383,76.7202],[112.475,0.5618,62.2708],[112.4762,0.5735,51.9116],[112.4791,0.5792,55.0593],[112.4915,0.581,56.4157],[112.5046,0.5923,53.3786],[112.5119,0.6027,50.655],[112.516,0.6181,45.5773],[112.513,0.6232,49.1985],[112.5021,0.6311,44.4094],[112.4816,0.6519,34.1582],[112.4698,0.6568,21.9689],[112.4434,0.6627,25.3597],[112.4392,0.6787,43.5622],[112.4305,0.6862,37.519],[112.4226,0.688,43.4597],[112.3872,0.688,28.4121],[112.3784,0.6918,24.9083],[112.3678,0.7006,26.3654],[112.366,0.7054,26.0537],[112.3675,0.719,24.318],[112.3739,0.746,27.9419],[112.3804,0.761,35.7957],[112.381,0.7706,38.0165],[112.379,0.775,37.6968],[112.37,0.7832,286.6022],[112.3672,0.7938,289.499],[112.3613,0.8031,249.8745],[112.3559,0.8159,356.5687],[112.3486,0.8114,397.3705],[112.3425,0.8097,533.4014],[112.3319,0.8105,374.1682],[112.3232,0.8083,452.5574],[112.3213,0.8094,378.8525]]]]}}