{"type":"Feature","properties":{"GID_3":"IDN.28.10.6_1","GID_0":"IDN","country":"Indonesia","GID_1":"IDN.28_1","province":"SulawesiTenggara","NL_NAME_1":"NA","GID_2":"IDN.28.10_1","county":"Konawe","NL_NAME_2":"NA","city":"Bondoala","VARNAME_3":"NA","NL_NAME_3":"NA","TYPE_3":"Kecamatan","ENGTYPE_3":"Sub-district","CC_3":"7403101","HASC_3":"NA","name":"Bondoala.city"},
"geometry":{"type": "MultiPolygon","coordinates": [[[[122.4307,-3.9437,10.0684],[122.4307,-3.9404,9.8039],[122.4353,-3.936,9.9592],[122.4346,-3.9303,4.2908],[122.4372,-3.9292,5.6312],[122.4427,-3.935,6.0673],[122.4518,-3.9408,19.5662],[122.4686,-3.9188,4.1456],[122.4787,-3.9112,48.0976],[122.4524,-3.8438,3.1509],[122.4559,-3.8402,1.375],[122.4544,-3.8364,1.9521],[122.4472,-3.8335,2.2993],[122.4396,-3.8397,1.3068],[122.4321,-3.8383,10.2698],[122.4292,-3.8454,4.1028],[122.4235,-3.8485,2.8706],[122.4292,-3.8577,4.1686],[122.4269,-3.861,6.4065],[122.3853,-3.866,49.6057],[122.357,-3.8643,261.9373],[122.3437,-3.8752,376.9191],[122.3362,-3.8771,293.522],[122.335,-3.8758,294.5527],[122.3293,-3.8917,183.7754],[122.3371,-3.8938,303.9405],[122.3522,-3.9099,133.9911],[122.3572,-3.911,146.8057],[122.3617,-3.9158,66.7783],[122.3656,-3.9295,30.1652],[122.3734,-3.9372,124.9585],[122.378,-3.9396,132.2313],[122.3832,-3.9471,164.6264],[122.4109,-3.9618,63.5721],[122.4185,-3.9631,22.6216],[122.4239,-3.9601,43.8857],[122.4293,-3.9523,24.2821],[122.4313,-3.9477,35.6781],[122.4307,-3.9437,10.0684]]]]}}