{"type":"Feature","properties":{"GID_3":"IDN.9.11.34_1","GID_0":"IDN","country":"Indonesia","GID_1":"IDN.9_1","province":"JawaBarat","NL_NAME_1":"NA","GID_2":"IDN.9.11_1","county":"Garut","NL_NAME_2":"NA","city":"Selaawi","VARNAME_3":"NA","NL_NAME_3":"NA","TYPE_3":"Kecamatan","ENGTYPE_3":"Sub-district","CC_3":"3205300","HASC_3":"NA","name":"Selaawi.city"},
"geometry":{"type": "MultiPolygon","coordinates": [[[[108.0309,-7.0312,494.0298],[108.0354,-7.0351,464.0371],[108.0374,-7.0331,443.918],[108.04,-7.0363,498.866],[108.0409,-7.0332,479.5138],[108.0427,-7.0323,438.6913],[108.04,-7.0281,437.4387],[108.0424,-7.0231,432.5688],[108.0412,-7.0198,431.0597],[108.045,-7.0145,402.2071],[108.0495,-7.0138,409.6036],[108.0522,-7.0158,409.4166],[108.0569,-7.013,401.2761],[108.0543,-7.0099,400.4296],[108.0579,-7.0057,434.6116],[108.0605,-6.9952,402.6176],[108.0586,-6.9945,420.5742],[108.055,-6.9962,421.5735],[108.0479,-6.9927,488.2557],[108.0464,-6.9956,473.97],[108.0431,-6.9965,529.9642],[108.0378,-6.9949,565.9801],[108.0372,-6.9917,530.9426],[108.0305,-6.9916,568.4353],[108.0307,-6.9893,613.2928],[108.0288,-6.9876,604.8384],[108.0274,-6.9889,610.6082],[108.0254,-6.9874,619.6035],[108.0266,-6.9855,626.9885],[108.0238,-6.984,639.9639],[108.0233,-6.9819,652.8644],[108.0206,-6.9832,686.4172],[108.0181,-6.9805,699.3724],[108.0075,-6.9823,767.8636],[108.0044,-6.9809,804.6567],[108.0032,-6.983,855.3329],[108.0,-6.9836,856.9283],[107.9968,-6.9812,906.0513],[107.9907,-6.982,974.8495],[107.9784,-6.9728,1262.0176],[107.9766,-6.9694,1383.15],[107.9686,-6.9626,1486.3163],[107.9669,-6.9589,1580.9801],[107.9577,-6.9603,1577.4355],[107.9642,-6.976,1115.1151],[107.973,-6.9762,1229.2616],[107.9738,-6.9809,1187.0737],[107.9795,-6.989,1148.4987],[107.9776,-6.9958,989.4442],[107.9835,-6.9996,748.7914],[107.983,-7.0028,710.0864],[107.985,-7.0061,674.1772],[107.9826,-7.0093,623.5551],[107.9826,-7.0133,583.8727],[107.9857,-7.0195,560.0123],[107.9847,-7.0234,528.8739],[107.9877,-7.0267,516.6238],[107.9893,-7.0283,506.9506],[107.9912,-7.0274,525.0653],[107.9935,-7.024,534.2681],[107.9924,-7.0208,554.374],[107.9939,-7.0195,553.5266],[107.9971,-7.0213,531.4702],[107.9986,-7.02,551.1854],[107.9998,-7.023,544.4071],[108.0034,-7.023,540.2826],[108.0079,-7.0221,524.6161],[108.0124,-7.0165,536.5621],[108.0159,-7.0156,545.4727],[108.0284,-7.0256,501.7276],[108.0282,-7.027,501.6099],[108.032,-7.0267,489.0815],[108.0309,-7.0312,494.0298]]]]}}