{"type":"Feature","properties":{"GID_3":"IDN.23.8.10_1","GID_0":"IDN","country":"Indonesia","GID_1":"IDN.23_1","province":"Papua","NL_NAME_1":"NA","GID_2":"IDN.23.8_1","county":"Jayawijaya","NL_NAME_2":"NA","city":"Wollo","VARNAME_3":"NA","NL_NAME_3":"NA","TYPE_3":"Distrik","ENGTYPE_3":"District","CC_3":"9402221","HASC_3":"NA","name":"Wollo.city"},
"geometry":{"type": "MultiPolygon","coordinates": [[[[138.8276,-3.9018,1658.2495],[138.8372,-3.8983,1777.9734],[138.8848,-3.8633,2015.8501],[138.8945,-3.8596,1995.5081],[138.8999,-3.8427,2042.8583],[138.8981,-3.8228,2376.2717],[138.8999,-3.8107,2719.2192],[138.9017,-3.8035,2551.333],[138.9068,-3.7976,2419.2161],[138.8905,-3.7949,2477.7063],[138.8713,-3.7865,2471.8564],[138.8603,-3.7841,2179.2842],[138.8334,-3.7702,1889.4025],[138.8049,-3.7596,1493.2128],[138.7843,-3.8232,2398.729],[138.7966,-3.8294,2286.0569],[138.8189,-3.8465,1907.8199],[138.8192,-3.8499,1679.1467],[138.8132,-3.8549,1668.0542],[138.812,-3.8593,1667.7412],[138.8112,-3.8687,1704.6714],[138.8137,-3.8747,1661.5308],[138.8145,-3.8902,1664.4589],[138.8276,-3.9018,1658.2495]]]]}}