{"type":"Feature","properties":{"GID_3":"IDN.10.14.10_1","GID_0":"IDN","country":"Indonesia","GID_1":"IDN.10_1","province":"JawaTengah","NL_NAME_1":"NA","GID_2":"IDN.10.14_1","county":"Klaten","NL_NAME_2":"NA","city":"Karanganom","VARNAME_3":"NA","NL_NAME_3":"NA","TYPE_3":"Kecamatan","ENGTYPE_3":"Sub-district","CC_3":"3310200","HASC_3":"NA","name":"Karanganom.city"},
"geometry":{"type": "MultiPolygon","coordinates": [[[[110.6472,-7.6693,157.9341],[110.6596,-7.6677,148.9546],[110.6618,-7.6646,147.8679],[110.6679,-7.6641,143.0499],[110.6652,-7.658,147.7706],[110.6673,-7.6558,145.9377],[110.6645,-7.6514,150.9196],[110.6596,-7.6508,156.5546],[110.6571,-7.6462,167.0513],[110.6582,-7.6445,166.6598],[110.6533,-7.6393,176.1736],[110.6546,-7.6365,177.0196],[110.6437,-7.6276,198.6557],[110.6451,-7.6245,200.4308],[110.6405,-7.6216,211.6255],[110.6409,-7.6159,218.1144],[110.6311,-7.6128,246.7338],[110.6308,-7.6141,244.6074],[110.6273,-7.6135,253.7236],[110.6276,-7.6164,243.9629],[110.632,-7.6178,236.2513],[110.6288,-7.6235,234.2845],[110.6265,-7.6214,242.2018],[110.6271,-7.6194,245.7035],[110.6248,-7.6189,254.0324],[110.6257,-7.6175,251.324],[110.6181,-7.6145,274.2892],[110.6156,-7.6208,270.9548],[110.6227,-7.6293,238.3801],[110.6191,-7.6288,251.9447],[110.6159,-7.6263,257.6135],[110.6163,-7.6298,254.2915],[110.6137,-7.6295,258.7274],[110.6107,-7.6336,257.2272],[110.6075,-7.6345,261.6708],[110.6072,-7.6371,258.132],[110.6048,-7.6368,261.339],[110.604,-7.6391,260.7056],[110.5987,-7.6434,258.4224],[110.6025,-7.6487,240.9347],[110.6084,-7.6537,226.6431],[110.613,-7.655,214.3476],[110.6163,-7.6592,206.4606],[110.6177,-7.6577,207.1958],[110.619,-7.6597,204.5323],[110.6239,-7.6606,197.088],[110.6315,-7.6669,178.1281],[110.6341,-7.6606,186.5527],[110.6418,-7.6683,162.6219],[110.6472,-7.6693,157.9341]]]]}}