{"type":"Feature","properties":{"GID_3":"IDN.5.6.1_1","GID_0":"IDN","country":"Indonesia","GID_1":"IDN.5_1","province":"Bengkulu","NL_NAME_1":"NA","GID_2":"IDN.5.6_1","county":"Kepahiang","NL_NAME_2":"NA","city":"BermaniIlir","VARNAME_3":"NA","NL_NAME_3":"NA","TYPE_3":"Kecamatan","ENGTYPE_3":"Sub-district","CC_3":"1708020","HASC_3":"NA","name":"Bermani_Ilir.city"},
"geometry":{"type": "MultiPolygon","coordinates": [[[[102.7424,-3.7076,416.7246],[102.7465,-3.6884,457.0254],[102.7428,-3.6888,373.1022],[102.741,-3.6872,425.0009],[102.7255,-3.6847,407.7429],[102.7253,-3.6827,434.7146],[102.7157,-3.6783,460.1769],[102.7145,-3.6752,486.8118],[102.7172,-3.6728,497.075],[102.7156,-3.6657,529.0596],[102.7179,-3.6639,511.7098],[102.7199,-3.6507,610.4875],[102.7172,-3.6447,638.9279],[102.7116,-3.6391,731.4475],[102.7039,-3.6265,870.894],[102.7013,-3.6233,906.1903],[102.6953,-3.6224,916.938],[102.6915,-3.618,926.3808],[102.6886,-3.6171,922.8717],[102.6882,-3.6131,954.5039],[102.6809,-3.6088,1002.0505],[102.6749,-3.607,1065.7368],[102.6708,-3.6083,1010.7188],[102.6672,-3.6074,1057.3391],[102.665,-3.6155,928.7305],[102.6674,-3.6203,921.4838],[102.6667,-3.6282,782.1796],[102.6718,-3.6386,734.6368],[102.6712,-3.646,640.4427],[102.6735,-3.6477,668.0192],[102.674,-3.6527,639.1267],[102.6729,-3.6588,566.12],[102.6749,-3.6612,580.8717],[102.677,-3.673,530.3392],[102.6792,-3.6761,515.4204],[102.6787,-3.6796,419.2038],[102.6698,-3.6913,415.7106],[102.6676,-3.7,444.0638],[102.6712,-3.7053,418.5956],[102.6704,-3.7116,463.9661],[102.6717,-3.7147,482.3419],[102.667,-3.7234,650.8635],[102.667,-3.7275,651.528],[102.6758,-3.7319,648.4124],[102.6773,-3.737,606.4795],[102.6796,-3.7378999999999998,616.1196],[102.6796,-3.7423,597.4053],[102.6818,-3.7432,609.1899],[102.6829,-3.7501,574.6957],[102.6881,-3.754,510.6076],[102.6878,-3.7563,447.8051],[102.6907,-3.7622,414.8021],[102.7388,-3.7476,312.9988],[102.7376,-3.7218,369.2433],[102.7424,-3.7076,416.7246]]]]}}