{"type":"Feature","properties":{"GID_3":"IDN.32.8.2_1","GID_0":"IDN","country":"Indonesia","GID_1":"IDN.32_1","province":"SumateraUtara","NL_NAME_1":"NA","GID_2":"IDN.32.8_1","county":"KotaBinjai","NL_NAME_2":"NA","city":"BinjaiKota","VARNAME_3":"NA","NL_NAME_3":"NA","TYPE_3":"Kecamatan","ENGTYPE_3":"Sub-district","CC_3":"1276020","HASC_3":"NA","name":"Binjai_Kota.city"},
"geometry":{"type": "MultiPolygon","coordinates": [[[[98.4588,3.597,38.0955],[98.4609,3.5943,32.2107],[98.4573,3.5919,32.0261],[98.4612,3.5914,36.3237],[98.4618,3.594,32.2107],[98.4633,3.5935,33.7047],[98.4631,3.5903,38.4964],[98.4654,3.5911,33.783],[98.4655,3.5927,31.4862],[98.4723,3.5909,39.3164],[98.4765,3.5919,39.5712],[98.4763,3.5896,39.4856],[98.4785,3.5896,40.1152],[98.4788,3.5963,37.155],[98.4862,3.5957,34.4691],[98.4853,3.5975,33.0739],[98.4873,3.5999,32.8737],[98.4898,3.5987,34.8983],[98.4893,3.6039,31.331],[98.4911,3.6062,29.8654],[98.4927,3.6057,29.8654],[98.4937,3.6091,32.1362],[98.4919,3.6096,35.218],[98.494,3.6119,32.8739],[98.4939,3.6152,27.7486],[98.4918,3.6161,25.8113],[98.4916,3.613,29.7672],[98.4866,3.6092,30.1174],[98.4781,3.6086,33.0336],[98.4795,3.6034,30.4725],[98.4762,3.5992,29.1953],[98.4746,3.6021,32.3858],[98.4726,3.5998,31.1153],[98.4705,3.6,31.3537],[98.4728,3.6039,31.8091],[98.4707,3.6026,30.9967],[98.4675,3.6039,36.6822],[98.4663,3.6025,31.1773],[98.4679,3.5983,32.012],[98.4631,3.5995,31.6036],[98.4619,3.598,38.3853],[98.4609,3.6005,40.2478],[98.4588,3.597,38.0955]]]]}}