{"type":"Feature","properties":{"GID_2":"IDN.18.9_1","GID_0":"IDN","country":"Indonesia","GID_1":"IDN.18_1","province":"MalukuUtara","NL_NAME_1":"NA","county":"TidoreKepulauan","VARNAME_2":"NA","NL_NAME_2":"NA","TYPE_2":"Kota","ENGTYPE_2":"City","CC_2":"8272","HASC_2":"ID.MU.TK","name":"Tidore_Kepulauan.county"},
"geometry":{"type": "MultiPolygon","coordinates": [[[[127.7957,0.0126,175.4753],[127.8024,0.0215,292.4785],[127.8102,0.0181,351.7959],[127.8173,0.0319,261.5727],[127.8145,0.0382,330.1037],[127.8074,0.0424,449.5929],[127.806,0.048,426.4577],[127.8019,0.0491,317.1918],[127.7966,0.0537,230.6792],[127.7975,0.0562,213.2012],[127.7951,0.0613,189.0696],[127.7986,0.07,290.7034],[127.7953,0.0706,299.1108],[127.7942,0.0745,283.6726],[127.7969,0.0817,570.9989],[127.7926,0.0839,424.8338],[127.79,0.0875,417.3733],[127.7898,0.0932,408.6904],[127.7921,0.0993,568.1373],[127.7905,0.1087,543.8556],[127.7924,0.1174,666.1064],[127.7888,0.1256,505.2],[127.791,0.1351,675.2876],[127.7891,0.1407,552.2615],[127.7892,0.1498,623.5532],[127.7877,0.1546,556.0747],[127.7906,0.1589,548.8641],[127.7905,0.1624,512.2433],[127.794,0.1674,367.8048],[127.7956,0.1739,297.2355],[127.7982,0.1747,365.0888],[127.7986,0.1788,197.2361],[127.8025,0.1832,182.5889],[127.8048,0.1904,109.8979],[127.8095,0.1959,111.772],[127.8219,0.2013,131.7355],[127.8229,0.205,159.8875],[127.8216,0.2077,203.7021],[127.8237,0.2094,147.1061],[127.8169,0.2159,158.196],[127.8146,0.2209,159.4072],[127.8128,0.2214,180.5293],[127.8128,0.2297,257.2456],[127.8144,0.2305,270.7421],[127.8013,0.2368,222.7605],[127.7973,0.2485,239.227],[127.8048,0.2564,125.3334],[127.8073,0.2568,158.7523],[127.8116,0.2696,207.8385],[127.8154,0.2723,272.1065],[127.8195,0.2726,326.189],[127.8173,0.2796,377.2063],[127.8121,0.2843,291.1382],[127.8036,0.2969,294.7142],[127.802,0.301,386.3108],[127.8024,0.3072,280.2437],[127.7995,0.3109,303.8741],[127.7986,0.3174,361.323],[127.8019,0.331,318.0567],[127.8072,0.34,348.2115],[127.8007,0.3619,154.9977],[127.8014,0.3681,70.3334],[127.8065,0.3737,245.6527],[127.8034,0.3807,119.1592],[127.7997,0.3816,43.982],[127.7987,0.3855,103.3146],[127.7922,0.3886,370.6349],[127.7902,0.3879,392.1953],[127.7889,0.3905,281.4863],[127.791,0.3938,364.3669],[127.7901,0.3974,393.3389],[127.7751,0.4129,297.3133],[127.7723,0.4296,482.4582],[127.7723,0.4328,532.6443],[127.7747,0.4365,627.9792],[127.7743,0.444,680.6372],[127.7722,0.4466,661.2564],[127.7735,0.4484,659.3435],[127.7696,0.4501,646.7946],[127.7686,0.4543,668.6968],[127.7727,0.4586,630.1918],[127.776,0.4667,741.889],[127.7796,0.4679,683.7301],[127.7767,0.4705,692.632],[127.7771,0.4742,673.0706],[127.7754,0.4762,641.9105],[127.7795,0.4855,606.8819],[127.7845,0.4883,532.4312],[127.7868,0.4865,563.0281],[127.7931,0.4867,613.9279],[127.7956,0.4823,541.7194],[127.8003,0.481,510.6338],[127.8014,0.4849,504.8289],[127.806,0.4901,496.3642],[127.805,0.4965,512.974],[127.8064,0.5026,526.6344],[127.8036,0.5081,528.7201],[127.8061,0.5128,510.1845],[127.8116,0.5154,506.4872],[127.8128,0.5182,525.5115],[127.8123,0.5217,516.3417],[127.8066,0.5261,493.862],[127.8135,0.5325,477.5198],[127.8159,0.5372,378.7057],[127.8197,0.5376,328.5623],[127.8259,0.5424,208.5726],[127.8253,0.5507,241.9099],[127.8214,0.5565,217.6142],[127.8212,0.5605,219.074],[127.8232,0.5625,178.3947],[127.8228,0.5673,146.7796],[127.8302,0.5701,205.3299],[127.8316,0.5756,220.5735],[127.829,0.5772,196.7219],[127.8289,0.5803,212.8483],[127.8249,0.5828,185.34],[127.8207,0.5921,214.1274],[127.8102,0.5979,215.2626],[127.8111,0.6042,194.4969],[127.8089,0.61,195.2595],[127.81,0.6145,173.0126],[127.8068,0.6186,213.5236],[127.7978,0.6232,116.5643],[127.7966,0.6265,213.7793],[127.7919,0.6313,322.2411],[127.7909,0.6383,362.7192],[127.7925,0.6469,371.4259],[127.7879,0.6561,416.0945],[127.7882,0.6636,457.6351],[127.7854,0.6656,482.8801],[127.7822,0.6723,508.3735],[127.7809,0.6842,527.1929],[127.783,0.6923,452.0417],[127.768,0.7071,450.7087],[127.766,0.7216,430.234],[127.7673,0.7309,486.014],[127.7573,0.7425,280.1578],[127.7579,0.7506,194.8421],[127.7518,0.7572,345.8878],[127.7359,0.7558,526.2542],[127.7314,0.7592,529.8029],[127.728,0.7589,485.9359],[127.7204,0.762,435.1234],[127.7168,0.765,382.877],[127.7135,0.7614,336.2104],[127.7021,0.7625,231.9158],[127.7002,0.7603,211.7657],[127.7003,0.7563,157.8011],[127.6923,0.7563,108.7693],[127.6877,0.7586,112.3476],[127.6813,0.7591,64.5206],[127.6727,0.7712,30.2993],[127.6672,0.7677,19.2191],[127.6672,0.7705,25.4777],[127.6637,0.7716,18.3399],[127.663,0.7755,30.0606],[127.6609,0.7761,13.685],[127.6576,0.7758,15.9799],[127.6568,0.7731,12.8343],[127.6515,0.7761,16.5135],[127.651,0.7745,15.2403],[127.648,0.7741,15.6622],[127.648,0.7695,25.8637],[127.6385,0.7685,51.308],[127.6289,0.7773,9.6313],[127.6216,0.7784,11.9895],[127.621,0.782,14.4517],[127.6243,0.7861,11.6883],[127.6233,0.7875,8.2947],[127.621,0.7867,11.0914],[127.6183,0.7902,4.3705],[127.6153,0.7828,0.8586],[127.6106,0.7798,3.3624],[127.6025,0.7792,0.0],[127.5989,0.7727,0.0],[127.6005,0.7704,0.0],[127.6027,0.7714,2.4871],[127.6025,0.7684,0.0],[127.6056,0.7657,2.1881],[127.6033,0.7665,0.0],[127.6014,0.765,0.0],[127.6042,0.7641,4.8465],[127.6019,0.7613,0.5966],[127.6019,0.7575,2.0142],[127.5993,0.756,0.0],[127.5992,0.7498,2.6676],[127.5962,0.7508,0.0],[127.5963,0.755,0.9304],[127.6014,0.7588,0.0],[127.5978,0.7582,1.3556],[127.5969,0.7601,1.2133],[127.5884,0.7556,0.0],[127.5746,0.7537,1.5855],[127.5604,0.7413,1.9947],[127.5577,0.7409,0.0],[127.5473,0.7288,0.0],[127.5501,0.7206,0.0],[127.5479,0.7043,0.0],[127.552,0.6949,1.7886],[127.5512,0.6824,14.6168],[127.5455,0.6663,1.1706],[127.5455,0.6607,4.4744],[127.54,0.6547,4.5924],[127.5414,0.6435,0.0],[127.5393,0.6367,0.0],[127.541,0.6321,0.0],[127.5342,0.6232,4.5142],[127.5295,0.6129,0.0],[127.5368,0.574,2.266],[127.5349,0.5668,4.1503],[127.5277,0.5584,10.1146],[127.5269,0.5544,3.4406],[127.5344,0.5435,0.0],[127.5366,0.5427,5.8121],[127.5396,0.5331,0.0],[127.5436,0.5294,3.9194],[127.548,0.5285,0.0],[127.5585,0.5217,2.4106],[127.5619,0.5159,6.0062],[127.5647,0.4957,9.3029],[127.5681,0.4883,0.0],[127.5668,0.4784,7.1526],[127.57,0.4715,7.6965],[127.5681,0.4687,0.0],[127.5702,0.4583,5.6286],[127.5689,0.4547,14.1005],[127.5748,0.4506,4.1578],[127.5748,0.4487,3.8847],[127.5713,0.4471,1.6949],[127.5716,0.4457,8.6734],[127.5747,0.4458,7.5919],[127.5768,0.4438,0.0],[127.5731,0.4407,2.2493],[127.5749,0.439,1.4193],[127.5726,0.4355,0.0],[127.575,0.4325,7.4279],[127.5731,0.4285,2.7285],[127.5809,0.4287,0.0],[127.5815,0.4232,2.5676],[127.5856,0.4229,10.9233],[127.5819,0.4191,2.397],[127.5789,0.4184,3.2806],[127.5786,0.4148,2.2573],[127.5818,0.4139,7.707],[127.5849,0.4089,0.0],[127.5941,0.4078,5.4599],[127.5955,0.401,0.0],[127.6012,0.403,5.0974],[127.6029,0.3995,0.0],[127.609,0.397,0.0],[127.6116,0.3987,4.0892],[127.6143,0.3982,0.0],[127.6165,0.4005,7.9913],[127.6166,0.3973,6.5451],[127.6223,0.396,31.6252],[127.6228,0.3859,7.2156],[127.6215,0.3798,0.0],[127.618,0.3749,0.0],[127.6217,0.3603,0.0],[127.6347,0.3571,13.2059],[127.638,0.3589,12.4413],[127.6436,0.3572,17.529],[127.6459,0.3583,6.4707],[127.6487,0.3577,4.5002],[127.6519,0.3553,2.5562],[127.6573,0.3448,6.9012],[127.6613,0.3422,5.5129],[127.6653,0.3458,17.6784],[127.6754,0.3481,1.6163],[127.6768,0.35,5.1801],[127.6856,0.3483,1.2642],[127.6889,0.3499,5.4375],[127.6939,0.3453,0.0],[127.7095,0.3529,15.995],[127.7103,0.3504,0.0],[127.7166,0.3478,1.9082],[127.721,0.3423,2.4582],[127.734,0.3125,2.5692],[127.734,0.302,6.3008],[127.7278,0.2837,91.9642],[127.7236,0.2732,9.0575],[127.7159,0.2642,0.0],[127.7173,0.2566,15.0003],[127.7148,0.2424,0.0],[127.7085,0.2307,0.0],[127.7065,0.2223,0.0],[127.7085,0.216,0.0],[127.708,0.2107,0.0],[127.7002,0.1988,0.0],[127.7014,0.1953,74.0876],[127.696,0.1852,0.0],[127.6962,0.1718,3.9209],[127.6944,0.1676,55.6613],[127.696,0.1591,0.766],[127.6919,0.1461,0.0],[127.694,0.1402,0.0],[127.7004,0.1358,3.3057],[127.6992,0.1346,1.5684],[127.7018,0.1251,5.6188],[127.6997,0.1207,0.0],[127.6964,0.1185,27.0715],[127.6967,0.1158,5.4353],[127.6902,0.112,34.8379],[127.689,0.1087,0.0],[127.6899,0.104,0.0],[127.6846,0.0985,5.0224],[127.6879,0.0976,11.9764],[127.6913,0.1001,6.5813],[127.7046,0.1009,0.0],[127.7075,0.1039,15.6641],[127.7122,0.1026,0.0],[127.7137,0.1003,3.8331],[127.7117,0.0964,1.5893],[127.7136,0.0881,1.6125],[127.7167,0.0852,0.0],[127.7169,0.0783,0.0],[127.7209,0.0756,1.2786],[127.7218,0.0724,1.3037],[127.7206,0.0603,3.4322],[127.7175,0.0512,14.5563],[127.7149,0.0478,1.9046],[127.7166,0.0442,0.0],[127.7135,0.0412,1.9811],[127.711,0.0421,0.0],[127.7128,0.0398,0.9686],[127.7081,0.0278,0.0],[127.6993,0.0158,0.0],[127.6972,-0.0026,6.8495],[127.6994,-0.01,0.0],[127.7058,-0.0073,26.4943],[127.7102,-0.008,196.9487],[127.7109,0.0,163.4132],[127.7129,0.0032,101.971],[127.7178,0.0013,174.5607],[127.723,0.0017,98.9982],[127.7256,0.0073,91.1034],[127.7274,0.0032,29.1991],[127.7328,0.0048,71.6774],[127.7357,0.0097,150.1018],[127.7377,0.0186,250.8053],[127.7402,0.021,222.4306],[127.7476,0.0234,266.4538],[127.751,0.023,213.2371],[127.7539,0.02,284.2567],[127.7681,0.0255,328.4289],[127.7686,0.0082,270.7953],[127.7701,0.0041,221.1144],[127.7726,0.0033,305.5473],[127.7745,0.0048,296.3505],[127.7862,0.0056,79.6051],[127.792,0.012,131.907],[127.7957,0.0126,175.4753]]],
[[[127.6988,0.1003,0.0],[127.7,0.0991,0.0],[127.701,0.0997,0.0],[127.7009,0.1003,0.0],[127.6988,0.1003,0.0]]],
[[[127.6244,0.3552,0.0],[127.6214,0.357,17.6273],[127.6194,0.3522,0.0],[127.6227,0.3528,0.0],[127.6244,0.3552,0.0]]],
[[[127.6424,0.3573,14.0103],[127.6385,0.3577,3.0172],[127.6377,0.3553,0.0],[127.6418,0.3539,10.0559],[127.6457,0.3554,0.0],[127.645,0.3573,6.4707],[127.6434,0.3568,14.2873],[127.6424,0.3573,14.0103]]],
[[[127.6094,0.3878,4.718],[127.6084,0.3889,0.0],[127.6029,0.3881,2.7828],[127.6008,0.3838,1.8264],[127.603,0.3828,2.8174],[127.6089,0.3861,1.4626],[127.6094,0.3878,4.718]]],
[[[127.4799,0.713,0.0],[127.4797,0.7125,0.0],[127.4803,0.7123,0.0],[127.4806,0.7133,0.0],[127.4799,0.713,0.0]]],
[[[127.5953,0.7717,0.0],[127.5974,0.7711,1.168],[127.5967,0.7746,1.1397],[127.5948,0.7728,0.0],[127.5953,0.7717,0.0]]],
[[[127.5636,0.7824,0.0],[127.5646,0.7829,0.0],[127.5638,0.7843,0.0],[127.5625,0.783,0.0],[127.5636,0.7824,0.0]]],
[[[127.5906,0.3804,1.28],[127.5919,0.3793,1.491],[127.595,0.3806,7.3943],[127.5949,0.3839,3.0501],[127.591,0.382,4.513],[127.5906,0.3804,1.28]]],
[[[127.5887,0.3892,1.0589],[127.5893,0.3921,1.7784],[127.588,0.3929,1.7784],[127.5843,0.3888,0.0],[127.587,0.3874,2.3186],[127.5887,0.3892,1.0589]]],
[[[127.5821,0.3998,5.1686],[127.5789,0.3993,2.9061],[127.579,0.3965,1.2714],[127.584,0.3936,0.0],[127.5866,0.3988,0.0],[127.5821,0.3998,5.1686]]],
[[[127.4751,0.5847,0.0],[127.4774,0.5838,0.0],[127.4771,0.5874,0.0],[127.4744,0.5863,0.0],[127.4745,0.5808,0.0],[127.4763,0.5816,0.0],[127.4751,0.5847,0.0]]],
[[[127.4686,0.5959,0.0],[127.4692,0.5938,0.0],[127.4707,0.5939,0.0],[127.4727,0.5997,0.0],[127.4711,0.596,0.0],[127.4689,0.5982,0.0],[127.4686,0.5959,0.0]]],
[[[127.46,0.7123,0.0],[127.4605,0.7156,2.3389],[127.455,0.7224,57.167],[127.455,0.7316,25.2699],[127.4513,0.7361,10.8878],[127.4515,0.7406,0.0],[127.4485,0.7459,0.0],[127.4323,0.7477,3.3384],[127.43,0.75,6.1484],[127.4259,0.7492,0.0],[127.4212,0.7521,0.0],[127.4181,0.751,16.0167],[127.4171,0.7526,0.0],[127.4151,0.7523,0.0],[127.4149,0.7499,27.5424],[127.4089,0.748,17.5111],[127.4055,0.7513,12.0125],[127.4067,0.7563,0.0],[127.4056,0.759,0.0],[127.3992,0.7573,0.0],[127.3946,0.7518,16.7317],[127.3894,0.7522,0.0],[127.3894,0.7505,6.009],[127.385,0.7464,49.0259],[127.3869,0.7409,12.6874],[127.3843,0.7345,4.4109],[127.386,0.7314,5.8823],[127.3861,0.7238,5.664],[127.3804,0.715,3.0474],[127.3787,0.7056,1.7118],[127.3682,0.6936,10.1043],[127.3657,0.6838,0.9349],[127.362,0.6783,1.8032],[127.3667,0.647,0.0],[127.3785,0.6303,0.0],[127.3833,0.6266,0.0],[127.402,0.6219,0.0],[127.4128,0.6224,5.5695],[127.4287,0.6289,18.6472],[127.4301,0.6321,32.1311],[127.432,0.6324,9.5852],[127.4322,0.6361,10.8921],[127.44,0.6434,0.0],[127.4477,0.654,0.0],[127.4508,0.6648,7.1333],[127.4563,0.6726,0.0],[127.4567,0.6784,0.6701],[127.454,0.6821,3.4488],[127.4558,0.6876,0.0],[127.4575,0.7072,5.2151],[127.46,0.7123,0.0]]],
[[[127.4006,0.5669,3.2771],[127.4029,0.5688,32.8643],[127.4058,0.5678,7.3131],[127.4089,0.5731,5.4653],[127.4109,0.5736,0.0],[127.4107,0.581,0.0],[127.408,0.5846,10.0437],[127.402,0.5854,1.3004],[127.3992,0.5835,46.7168],[127.3981,0.5858,0.0],[127.395,0.5852,13.035],[127.3936,0.5867,0.0],[127.3857,0.5764,92.9031],[127.3849,0.5725,13.4187],[127.3817,0.5696,15.811],[127.3794,0.5627,0.0],[127.382,0.5583,0.0],[127.3828,0.5626,18.6941],[127.3853,0.5649,3.5202],[127.3915,0.5619,0.0],[127.3977,0.5638,45.3464],[127.4006,0.5669,3.2771]]],
[[[127.3795,0.7302,0.0],[127.3789,0.7357,0.7324],[127.374,0.7405,1.396],[127.3699,0.7413,10.7955],[127.3652,0.7392,11.9651],[127.3623,0.7323,5.6104],[127.3639,0.728,0.0],[127.37,0.7235,0.0],[127.3746,0.7247,0.6887],[127.3795,0.7302,0.0]]]]}}