{"type":"Feature","properties":{"GID_3":"IDN.10.3.7_1","GID_0":"IDN","country":"Indonesia","GID_1":"IDN.10_1","province":"JawaTengah","NL_NAME_1":"NA","GID_2":"IDN.10.3_1","county":"Batang","NL_NAME_2":"NA","city":"Kandeman","VARNAME_3":"NA","NL_NAME_3":"NA","TYPE_3":"Kecamatan","ENGTYPE_3":"Sub-district","CC_3":"3325101","HASC_3":"NA","name":"Kandeman.city"},
"geometry":{"type": "MultiPolygon","coordinates": [[[[109.7767,-6.9494,78.4634],[109.7759,-6.9445,86.6157],[109.7831,-6.9436,90.5381],[109.7865,-6.9378,77.1736],[109.797,-6.9399,69.3849],[109.8008,-6.9386,71.9064],[109.8033,-6.9293,42.1313],[109.8076,-6.9288,54.9906],[109.8076,-6.9241,46.3494],[109.8027,-6.9248,53.6998],[109.8016,-6.9232,30.1699],[109.7976,-6.9227,18.5061],[109.8014,-6.9202,7.7159],[109.8034,-6.9087,1.8654],[109.8066,-6.9084,1.7037],[109.8088,-6.9058,2.0912],[109.8096,-6.9067,2.8002],[109.8121,-6.9012,0.0],[109.806,-6.8981,0.5354],[109.7993,-6.8912,0.0],[109.7733,-6.8874,0.7225],[109.7557,-6.882,1.6648],[109.7518,-6.8918,1.0509],[109.7504,-6.9004,2.8553],[109.7628,-6.9014,4.8168],[109.7628,-6.9041,3.4108],[109.7577,-6.9055,3.7161],[109.7565,-6.9087,3.7877],[109.7521,-6.9091,3.842],[109.7524,-6.9106,4.1112],[109.7476,-6.9118,4.5648],[109.7457,-6.9141,7.1377],[109.7506,-6.9177,14.2743],[109.7499,-6.9194,14.3932],[109.7478,-6.9192,14.3398],[109.7438,-6.9305,45.3888],[109.738,-6.9322,27.1491],[109.7394,-6.9353,32.3719],[109.7388,-6.9389,35.7227],[109.7419,-6.9411,35.6418],[109.7405,-6.9424,39.7693],[109.7422,-6.944,40.1632],[109.7505,-6.9461,50.8339],[109.7518,-6.9505,49.9775],[109.7554,-6.952,57.9523],[109.7587,-6.9564,71.3236],[109.7584,-6.9584,75.0327],[109.7604,-6.959,80.4976],[109.7596,-6.9604,81.8982],[109.7615,-6.963,88.7667],[109.7701,-6.9653,100.4783],[109.7723,-6.9684,130.1903],[109.7756,-6.9696,151.1828],[109.7763,-6.9591,96.4662],[109.7751,-6.9566,104.2301],[109.7755,-6.9549,87.2059],[109.7781,-6.954,77.625],[109.7767,-6.9494,78.4634]]]]}}