{"type":"Feature","properties":{"GID_3":"IDN.32.15.15_1","GID_0":"IDN","country":"Indonesia","GID_1":"IDN.32_1","province":"SumateraUtara","NL_NAME_1":"NA","GID_2":"IDN.32.15_1","county":"Langkat","NL_NAME_2":"NA","city":"SawitSeberang","VARNAME_3":"NA","NL_NAME_3":"NA","TYPE_3":"Kecamatan","ENGTYPE_3":"Sub-district","CC_3":"1213100","HASC_3":"NA","name":"Sawit_Seberang.city"},
"geometry":{"type": "MultiPolygon","coordinates": [[[[98.2636,3.78,13.1],[98.2631,3.7844,17.9335],[98.2642,3.7851,17.9335],[98.2707,3.7831,20.3841],[98.2771,3.7839,12.5274],[98.2778,3.7798,21.3263],[98.2794,3.7795,16.6714],[98.2799,3.784,10.1653],[98.2781,3.7868,14.4045],[98.2808,3.7881,13.6205],[98.2807,3.7909,18.3117],[98.2867,3.7947,10.6368],[98.2915,3.8013,12.9803],[98.2959,3.803,15.8121],[98.2951,3.8052,13.2081],[98.2923,3.8056,12.2094],[98.2927,3.8068,12.2094],[98.2971,3.8076,11.9165],[98.2994,3.8109,14.576],[98.3054,3.813,12.8136],[98.3052,3.8168,15.6943],[98.3073,3.8203,10.9515],[98.3059,3.8229,9.845],[98.3165,3.8272,11.3871],[98.3196,3.8335,12.3832],[98.3242,3.8344,11.7837],[98.3235,3.8367,11.7077],[98.3189,3.8356,9.1594],[98.3197,3.8395,13.3608],[98.3257,3.8422,11.4476],[98.3273,3.8423,13.8849],[98.3288,3.8396,9.9511],[98.3302,3.8404,9.9511],[98.3306,3.8462,15.9087],[98.3283,3.8485,7.5373],[98.3314,3.8493,9.4884],[98.33,3.8525,17.7458],[98.334,3.8549,8.2425],[98.3367,3.852,16.3778],[98.3416,3.8523,13.3748],[98.3388,3.8561,8.7429],[98.3373,3.8622,11.1888],[98.3452,3.8628,8.5774],[98.3475,3.8594,7.8877],[98.3488,3.8657,23.4677],[98.3541,3.8728,19.34],[98.3479,3.8697,15.4885],[98.3433,3.8649,14.5406],[98.3343,3.8687,16.2291],[98.316,3.8576,50.3738],[98.3136,3.8583,53.41],[98.3098,3.8628999999999998,60.0844],[98.3024,3.8636,29.6593],[98.3004,3.8612,23.2531],[98.3033,3.8531,18.6863],[98.3029,3.85,32.8116],[98.2887,3.8289,50.7148],[98.2679,3.8523,70.6322],[98.2721,3.8565,74.6107],[98.2651,3.8644,42.0447],[98.2663,3.8696,30.3506],[98.263,3.8785,35.0433],[98.2614,3.8945,31.3494],[98.2565,3.9082,22.1454],[98.2528,3.905,13.0596],[98.2503,3.9125,16.2767],[98.2497,3.9106,14.5621],[98.2462,3.9108,17.0825],[98.2448,3.9147,15.3706],[98.2407,3.9106,12.8143],[98.2384,3.9128,14.5012],[98.2317,3.9135,14.567],[98.2301,3.9108,16.0335],[98.2286,3.9113,15.9713],[98.2266,3.9094,16.6695],[98.2291,3.906,17.6514],[98.2275,3.9005,29.808],[98.2232,3.8985,17.1632],[98.2205,3.9009,18.9745],[98.2158,3.897,17.2696],[98.2142,3.8986,19.4729],[98.213,3.8967,19.2461],[98.2147,3.8937,18.0837],[98.2097,3.893,20.703],[98.2056,3.8844,20.5442],[98.2017,3.8829,19.217],[98.2009,3.8789,18.9585],[98.2033,3.8778,20.2619],[98.2032,3.8751,24.7324],[98.2004,3.8742,19.5269],[98.1991,3.8754,19.5269],[98.1978,3.8723,20.671],[98.1965,3.8737,22.4049],[98.1944,3.8725,21.7108],[98.1927,3.8742,20.1159],[98.1909,3.8719,22.2201],[98.1867,3.8726,27.8523],[98.1854,3.8685,23.9764],[98.1836,3.8696,24.7385],[98.1821,3.8677,24.972],[98.1811,3.8699,22.8233],[98.1795,3.8654,24.7768],[98.1771,3.8666,20.9005],[98.1782,3.8656,20.6353],[98.1767,3.8631,24.38],[98.1733,3.8647,24.7152],[98.175,3.8585,23.6331],[98.1741,3.8546,25.7739],[98.1728,3.8547,24.2522],[98.1739,3.852,25.787],[98.1716,3.8504,26.1061],[98.1741,3.8454,31.8974],[98.1678,3.8441,28.2296],[98.1659,3.8403,27.4093],[98.1555,3.8328,35.732],[98.1503,3.8339,32.4395],[98.1511,3.8238,65.4822],[98.1541,3.8182,54.5926],[98.1546,3.807,97.4363],[98.1627,3.8016,77.2927],[98.169,3.7995,72.826],[98.1679,3.7915,77.2712],[98.1707,3.7875,89.4098],[98.1742,3.774,92.7194],[98.17,3.7664,115.6348],[98.169,3.7605,104.5027],[98.187,3.7323,68.1427],[98.1935,3.7282,42.6784],[98.1952,3.7308,38.4258],[98.2,3.7286,35.5731],[98.203,3.7295,36.6185],[98.2067,3.7345,32.1185],[98.2115,3.7318,30.2244],[98.2133,3.7323,30.2549],[98.2134,3.7393,32.4373],[98.2189,3.7438,27.7505],[98.2202,3.7483,24.4805],[98.2253,3.7511,25.4086],[98.2249,3.7539,26.3482],[98.2269,3.7549,25.3781],[98.2306,3.7521,21.5014],[98.2372,3.7576,19.0],[98.242,3.7561,19.8579],[98.2522,3.7653,18.0931],[98.2559,3.7665,19.8302],[98.2571,3.7715,18.0781],[98.2556,3.7753,15.235],[98.2582,3.7781,13.4855],[98.2628,3.7781,14.8996],[98.2636,3.78,13.1]]]]}}