{"type":"Feature","properties":{"GID_3":"IDN.4.2.2_1","GID_0":"IDN","country":"Indonesia","GID_1":"IDN.4_1","province":"Banten","NL_NAME_1":"NA","GID_2":"IDN.4.2_1","county":"KotaSerang","NL_NAME_2":"NA","city":"Curug","VARNAME_3":"NA","NL_NAME_3":"NA","TYPE_3":"Kecamatan","ENGTYPE_3":"Sub-district","CC_3":"3673010","HASC_3":"NA","name":"Curug.city"},
"geometry":{"type": "MultiPolygon","coordinates": [[[[106.1983,-6.2007,48.6088],[106.2002,-6.1982,45.6609],[106.2071,-6.1971,42.055],[106.2091,-6.1946,47.6347],[106.2077,-6.191,50.2842],[106.2056,-6.1903,48.1823],[106.2092,-6.1789,40.5689],[106.2016,-6.1663,32.6647],[106.2014,-6.1556,27.5362],[106.194,-6.1596,28.7716],[106.1909,-6.1683,36.8188],[106.1813,-6.1708,42.5846],[106.1791,-6.1546,39.5252],[106.1761,-6.1455,35.6648],[106.1731,-6.1487,33.173],[106.1666,-6.1506,43.0061],[106.1655,-6.1571,46.1763],[106.1569,-6.1644,54.6682],[106.1563,-6.1672,58.579],[106.1511,-6.1704,63.1037],[106.1507,-6.1734,75.7698],[106.1525,-6.1773,76.5887],[106.1484,-6.1792,81.0813],[106.1459,-6.1854,94.8251],[106.1428,-6.1856,92.3524],[106.1357,-6.1911,97.12],[106.1348,-6.1935,110.4204],[106.136,-6.2046,91.9628],[106.1406,-6.2074,99.982],[106.1561,-6.2095,91.2239],[106.1576,-6.2107,98.4759],[106.1575,-6.2143,92.4944],[106.1647,-6.2146,94.8147],[106.1679,-6.2131,83.159],[106.1678,-6.2187,86.0735],[106.1693,-6.2198,73.9773],[106.1797,-6.2156,64.3705],[106.1923,-6.2182,60.9286],[106.1926,-6.2167,58.374],[106.1972,-6.2176,51.0258],[106.1952,-6.2154,57.9328],[106.1925,-6.2055,57.7756],[106.1948,-6.2019,50.3563],[106.1983,-6.2007,48.6088]]]]}}