{"type":"Feature","properties":{"GID_3":"IDN.9.25.3_1","GID_0":"IDN","country":"Indonesia","GID_1":"IDN.9_1","province":"JawaBarat","NL_NAME_1":"NA","GID_2":"IDN.9.25_1","county":"Sumedang","NL_NAME_2":"NA","city":"Cimalaka","VARNAME_3":"NA","NL_NAME_3":"NA","TYPE_3":"Kecamatan","ENGTYPE_3":"Sub-district","CC_3":"3211160","HASC_3":"NA","name":"Cimalaka.city"},
"geometry":{"type": "MultiPolygon","coordinates": [[[[107.9718,-6.8195,472.0933],[107.9819,-6.8197,461.4901],[107.9852,-6.8178,452.499],[107.9855,-6.8155,433.559],[107.9887,-6.8161,416.9336],[107.9839,-6.8095,500.2626],[107.9808,-6.8098,494.7302],[107.9792,-6.8075,529.3107],[107.9792,-6.7977,671.5471],[107.9727,-6.7888,756.2962],[107.9733,-6.7741,1172.7045],[107.972,-6.771,1265.9709],[107.9671,-6.767,1430.5688],[107.9415,-6.7597,942.3694],[107.9354,-6.7599,923.7844],[107.9314,-6.7584,842.9765],[107.9268,-6.7601,782.9059],[107.9226,-6.7598,642.7048],[107.9149,-6.7678,514.9434],[107.9143,-6.7723,503.2542],[107.9048,-6.7898,517.0201],[107.9043,-6.8068,648.6984],[107.9182,-6.8116,582.995],[107.9259,-6.8117,583.3613],[107.9303,-6.819,548.6336],[107.937,-6.818,513.8825],[107.9389,-6.8216,504.1534],[107.9375,-6.8257,494.6213],[107.9385,-6.8279,488.7844],[107.9371,-6.8292,486.0169],[107.9379,-6.8388,431.3121],[107.9393,-6.8396,455.5845],[107.9417,-6.8389,432.3934],[107.9445,-6.8267,491.1084],[107.9512,-6.827,503.526],[107.9529,-6.8206,510.9507],[107.9606,-6.8221,502.6342],[107.9718,-6.8195,472.0933]]]]}}