{"type":"Feature","properties":{"GID_3":"IDN.11.31.10_1","GID_0":"IDN","country":"Indonesia","GID_1":"IDN.11_1","province":"JawaTimur","NL_NAME_1":"NA","GID_2":"IDN.11.31_1","county":"Sampang","NL_NAME_2":"NA","city":"Sampang","VARNAME_3":"NA","NL_NAME_3":"NA","TYPE_3":"Kecamatan","ENGTYPE_3":"Sub-district","CC_3":"3527030","HASC_3":"NA","name":"Sampang.city"},
"geometry":{"type": "MultiPolygon","coordinates": [[[[113.2066,-7.3071,1.5449],[113.2038,-7.3067,2.1553],[113.2022,-7.3099,0.0],[113.2138,-7.3146,0.0],[113.2204,-7.3141,3.0797],[113.2247,-7.311,0.2823],[113.219,-7.3083,5.7024],[113.2066,-7.3071,1.5449]]],
[[[113.2025,-7.2182,8.2134],[113.2025,-7.2223,2.0619],[113.2212,-7.2201,1.5478],[113.2625,-7.2247,0.0],[113.2689,-7.221,4.3421],[113.2721,-7.217,2.5119],[113.2718,-7.2139,4.2699],[113.2659,-7.2125,8.0209],[113.2661,-7.2085,28.6801],[113.2708,-7.2079,35.0392],[113.2722,-7.2097,18.7085],[113.282,-7.2084,31.6133],[113.2911,-7.2028,69.1977],[113.2924,-7.2003,61.4064],[113.2961,-7.1996,47.4267],[113.2964,-7.1956,31.1547],[113.2938,-7.1926,26.3406],[113.2947,-7.1903,23.5123],[113.2911,-7.1891,13.516],[113.2845,-7.1796,8.5866],[113.2848,-7.1744,10.5012],[113.2885,-7.171,18.5574],[113.2939,-7.1711,23.8796],[113.2954,-7.1689,24.8317],[113.2939,-7.1684,25.629],[113.2941,-7.1613,17.584],[113.2924,-7.1612,18.3732],[113.2916,-7.1573,22.3243],[113.2881,-7.1552,21.3078],[113.2911,-7.1537,20.9224],[113.2902,-7.1516,17.0906],[113.2842,-7.1447,27.7611],[113.2846,-7.1383,36.7623],[113.2756,-7.1391,38.7626],[113.2715,-7.1372,35.339],[113.2696,-7.1401,25.198],[113.2612,-7.14,26.7308],[113.2586,-7.1385,28.0391],[113.2546,-7.1322,15.2932],[113.2527,-7.1182,50.1385],[113.2547,-7.1156,77.9778],[113.2538,-7.113,90.5],[113.2445,-7.1169,35.734],[113.2366,-7.1174,44.0058],[113.2304,-7.112,74.4764],[113.2238,-7.1119,69.0541],[113.226,-7.1162,44.6824],[113.2269,-7.1251,22.4319],[113.2246,-7.1269,28.2589],[113.2269,-7.1301,25.0886],[113.2259,-7.1354,19.8667],[113.2285,-7.138,13.6678],[113.2273,-7.1413,14.306],[113.2285,-7.1437,18.4289],[113.2314,-7.1442,10.1177],[113.2318,-7.1527,8.4424],[113.2347,-7.1598,7.628],[113.2338,-7.1639,7.0535],[113.2378,-7.1703,9.7292],[113.2295,-7.1723,18.1863],[113.2217,-7.1774,22.064],[113.2272,-7.184,9.9862],[113.2233,-7.1872,8.6779],[113.2205,-7.1951,6.1997],[113.2122,-7.1969,11.7335],[113.2114,-7.2016,20.3774],[113.2084,-7.203,32.152],[113.2084,-7.2067,29.404],[113.2104,-7.2075,28.6717],[113.2102,-7.2159,8.2689],[113.2025,-7.2182,8.2134]]]]}}