{"type":"Feature","properties":{"GID_3":"IDN.7.1.4_1","GID_0":"IDN","country":"Indonesia","GID_1":"IDN.7_1","province":"JakartaRaya","NL_NAME_1":"NA","GID_2":"IDN.7.1_1","county":"JakartaBarat","NL_NAME_2":"NA","city":"Kebonjeruk","VARNAME_3":"NA","NL_NAME_3":"NA","TYPE_3":"Kecamatan","ENGTYPE_3":"Sub-district","CC_3":"3174020","HASC_3":"NA","name":"Kebonjeruk.city"},
"geometry":{"type": "MultiPolygon","coordinates": [[[[106.7827,-6.2026,15.4193],[106.7821,-6.1942,12.2041],[106.7835,-6.1869,6.1904],[106.7798,-6.1802,5.8069],[106.7801,-6.165,6.1971],[106.7699,-6.1613,5.9434],[106.7677,-6.1579,4.8193],[106.7666,-6.1605,4.6317],[106.7594,-6.1592,3.8936],[106.7567,-6.1648,5.006],[106.7486,-6.1733,6.2508],[106.7477,-6.1777,7.2638],[106.7501,-6.1806,8.1948],[106.7545,-6.18,7.4307],[106.7577,-6.183,7.1886],[106.7567,-6.1864,9.7893],[106.7583,-6.187,7.5651],[106.7586,-6.1895,8.2976],[106.7571,-6.1903,8.0476],[106.757,-6.1931,10.8631],[106.7624,-6.1971,11.1414],[106.7644,-6.2028,9.6814],[106.7633,-6.2061,9.548],[106.7662,-6.2113,11.5451],[106.7627,-6.2161,18.8885],[106.7653,-6.2184,15.232],[106.767,-6.2252,15.1134],[106.7785,-6.2248,22.2868],[106.7784,-6.2179,17.6392],[106.7771,-6.2161,19.0866],[106.7777,-6.2136,19.7976],[106.7835,-6.2124,16.8399],[106.7827,-6.2026,15.4193]]]]}}