{"type":"Feature","properties":{"GID_2":"IDN.10.30_1","GID_0":"IDN","country":"Indonesia","GID_1":"IDN.10_1","province":"JawaTengah","NL_NAME_1":"NA","county":"Sukoharjo","VARNAME_2":"NA","NL_NAME_2":"NA","TYPE_2":"Kabupaten","ENGTYPE_2":"Regency","CC_2":"3311","HASC_2":"ID.JT.SH","name":"Sukoharjo.county"},
"geometry":{"type": "MultiPolygon","coordinates": [[[[110.8572,-7.7878,119.8925],[110.8547,-7.7847,118.9745],[110.8582,-7.7802,114.6961],[110.8568,-7.776,114.3456],[110.8579,-7.7708,113.6829],[110.8598,-7.7662,106.7649],[110.8627,-7.7652,104.6806],[110.8602,-7.7592,103.7354],[110.8636,-7.7571,102.9792],[110.8638,-7.7529,105.3066],[110.866,-7.754,104.0099],[110.87,-7.7503,108.017],[110.8734,-7.7498,105.383],[110.8765,-7.7522,105.2466],[110.8782,-7.7518,105.2466],[110.8763,-7.7473,108.6084],[110.8772,-7.7463,105.0177],[110.883,-7.7498,106.4555],[110.8835,-7.7551,108.414],[110.8875,-7.7519,105.4033],[110.8949,-7.7506,107.5493],[110.904,-7.7527,110.9304],[110.906,-7.7555,110.1923],[110.9104,-7.7557,112.6386],[110.9124,-7.759,112.64],[110.9165,-7.7606,119.1534],[110.9184,-7.7652,111.5311],[110.9235,-7.7705,127.1512],[110.9293,-7.7709,115.7678],[110.932,-7.7775,112.3439],[110.9344,-7.7767,110.6939],[110.9349,-7.7797,116.5338],[110.9368,-7.7796,115.0119],[110.9406,-7.768,145.4644],[110.9399,-7.7466,171.4675],[110.9452,-7.7125,196.0943],[110.9478,-7.7086,193.3492],[110.9493,-7.6953,191.3686],[110.9537,-7.6832,186.4635],[110.9576,-7.6844,187.87],[110.9582,-7.6827,211.2504],[110.9582,-7.684,187.87],[110.9602,-7.6842,202.2144],[110.9584,-7.6815,211.2504],[110.9532,-7.6809,205.7953],[110.9477,-7.6699,190.8044],[110.9469,-7.6592,188.8032],[110.9483,-7.6553,183.8584],[110.9465,-7.6532,173.5928],[110.9446,-7.641,165.4834],[110.9423,-7.6376,146.836],[110.9447,-7.6364,151.7083],[110.9474,-7.6293,164.2317],[110.9479,-7.6236,152.2565],[110.9454,-7.6196,152.3883],[110.9467,-7.6183,156.7787],[110.9364,-7.6175,147.7395],[110.9163,-7.6126,130.3273],[110.9046,-7.6142,123.0953],[110.9123,-7.5842,119.0484],[110.8684,-7.5667,95.5772],[110.8677,-7.5683,93.7855],[110.861,-7.5671,90.0181],[110.8583,-7.5706,85.7039],[110.8546,-7.5699,87.204],[110.8543,-7.5748,90.04],[110.8469,-7.5729,86.295],[110.846,-7.5765,89.6423],[110.8433,-7.5777,90.02],[110.8411,-7.5821,88.833],[110.84,-7.5903,85.7994],[110.8369,-7.5906,91.1395],[110.8329,-7.5949,89.3253],[110.8279,-7.5928,91.2526],[110.8216,-7.5952,91.1243],[110.8185,-7.5944,91.32],[110.8168,-7.5918,91.4113],[110.8177,-7.5889,92.1176],[110.8097,-7.5831,93.3467],[110.8093,-7.581,94.4888],[110.8066,-7.5796,94.7689],[110.8047,-7.5738,95.7243],[110.8018,-7.5715,97.3399],[110.7934,-7.5722,98.594],[110.7929,-7.5712,100.3615],[110.7925,-7.5735,99.4393],[110.7825,-7.5758,104.1551],[110.7841,-7.5642,101.8234],[110.7782,-7.5605,105.6362],[110.7786,-7.5543,107.9525],[110.7691,-7.5514,110.7508],[110.7707,-7.545,112.425],[110.7629,-7.5419,117.0221],[110.7639,-7.5438,115.9511],[110.7623,-7.5434,116.9009],[110.7618,-7.5471,114.4735],[110.7598,-7.5474,115.1082],[110.7589,-7.5499,112.7166],[110.7551,-7.5461,115.5796],[110.7486,-7.5441,121.9001],[110.7485,-7.5417,123.2182],[110.7374,-7.5395,128.0731],[110.7377,-7.5382999999999996,128.0731],[110.7309,-7.5392,134.2094],[110.7255,-7.538,138.5027],[110.7168,-7.5428,145.4435],[110.7134,-7.5416,145.2814],[110.7116,-7.5479,142.7164],[110.7218,-7.5502,135.3657],[110.7264,-7.5538,137.843],[110.7217,-7.5596,140.4253],[110.72,-7.5589,138.2493],[110.719,-7.5606,135.8843],[110.7215,-7.5659,137.6809],[110.7157,-7.5754,133.7466],[110.7148,-7.5739,133.0751],[110.7124,-7.5759,134.1735],[110.7154,-7.5786,131.8485],[110.7131,-7.5844,135.849],[110.7027,-7.5935,142.8249],[110.7177,-7.5974,132.2954],[110.7206,-7.5949,131.6295],[110.7258,-7.5971,128.7886],[110.7292,-7.5962,125.7591],[110.732,-7.5999,125.1355],[110.7394,-7.5979,118.8656],[110.7418,-7.6002,120.352],[110.7436,-7.599,118.9808],[110.7471,-7.6039,115.8974],[110.7423,-7.6099,112.8955],[110.7458,-7.6113,110.8694],[110.7449,-7.6164,109.0891],[110.7465,-7.6177,109.0891],[110.7505,-7.616,106.5689],[110.7566,-7.6189,106.897],[110.7579,-7.6173,106.1638],[110.7612,-7.6199,103.4856],[110.7646,-7.6198,103.4498],[110.7669,-7.6228,103.5871],[110.7664,-7.6257,101.8269],[110.7684,-7.6267,100.471],[110.7635,-7.636,98.5652],[110.7726,-7.6402,94.3632],[110.777,-7.633,98.2168],[110.7777,-7.6351,96.3657],[110.7808,-7.6351,95.6873],[110.7818,-7.6379,94.4374],[110.7876,-7.642,93.9576],[110.7956,-7.6434,93.882],[110.798,-7.6413,93.2838],[110.7998,-7.6427,93.0846],[110.7914,-7.6475,90.7202],[110.7941,-7.649,92.4509],[110.7939,-7.6509,93.8455],[110.7918,-7.6516,92.1726],[110.7943,-7.6552,96.1271],[110.7938,-7.6571,93.4246],[110.7901,-7.6556,94.7064],[110.7864,-7.6561,95.5145],[110.7863,-7.6575,95.6543],[110.7902,-7.6592,95.4344],[110.7901,-7.6631,92.5056],[110.7856,-7.6612,94.8109],[110.7811,-7.6621,94.271],[110.7778,-7.6648,95.0795],[110.7792,-7.667,95.274],[110.7781,-7.6717,91.8792],[110.7805,-7.6731,96.7526],[110.7788,-7.6746,87.5],[110.7778,-7.6733,88.5544],[110.7773,-7.6766,91.648],[110.7816,-7.6788,96.7699],[110.7814,-7.6812,95.8965],[110.776,-7.6787,95.8738],[110.7761,-7.6824,94.0965],[110.7685,-7.6841,97.8043],[110.7705,-7.6871,94.7137],[110.7698,-7.6889,96.235],[110.7676,-7.6878,92.6448],[110.7672,-7.6894,93.9395],[110.7742,-7.6934,94.4634],[110.7684,-7.6974,99.5852],[110.7695,-7.7003,93.2699],[110.7674,-7.7008,94.9088],[110.7692,-7.7026,94.7485],[110.768,-7.7048,97.4472],[110.7693,-7.7103,94.0241],[110.7723,-7.7126,94.5268],[110.7709,-7.7139,94.1705],[110.7705,-7.7121,95.0334],[110.7693,-7.7129,96.3672],[110.7703,-7.7169,95.8112],[110.7684,-7.7156,96.9337],[110.7671,-7.7168,97.6141],[110.7666,-7.7153,95.8087],[110.7647,-7.7166,93.9222],[110.7636,-7.7198,97.4721],[110.766,-7.7205,97.2868],[110.7619,-7.7272,97.5249],[110.7597,-7.7276,98.1302],[110.7593,-7.7325,96.9811],[110.7576,-7.7322,98.7003],[110.7588,-7.7343,98.7388],[110.7549,-7.7388,95.6234],[110.7511,-7.7404,98.6248],[110.7501,-7.743,97.9959],[110.7514,-7.7441,96.4458],[110.7493,-7.7444,97.9959],[110.7416,-7.7552,99.9607],[110.7431,-7.7565,100.3473],[110.7397,-7.7574,97.0644],[110.7431,-7.758,98.4981],[110.7422,-7.7611,100.5379],[110.7373,-7.7602,100.1907],[110.7349,-7.7626,100.3684],[110.7302,-7.7625,97.0721],[110.7285,-7.7671,98.8238],[110.7296,-7.7689,101.7325],[110.7288,-7.7709,101.328],[110.7269,-7.7704,101.3498],[110.725,-7.7772,100.9897],[110.7221,-7.7772,101.1752],[110.7211,-7.7834,98.2782],[110.7191,-7.7835,98.291],[110.715,-7.7898,104.0246],[110.7124,-7.7901,102.2453],[110.7118,-7.7918,111.7549],[110.7164,-7.7915,119.186],[110.7239,-7.7944,125.0334],[110.7286,-7.7978,107.6458],[110.7286,-7.8005,123.0527],[110.7328,-7.8012,118.3788],[110.7423,-7.8067,118.5969],[110.7426,-7.8129,111.9896],[110.7454,-7.8184,124.284],[110.7515,-7.8198,114.7099],[110.7517,-7.8239,119.3244],[110.7577,-7.8277,137.8831],[110.7634,-7.8241,130.4621],[110.7641,-7.8191,128.714],[110.7627,-7.8157,113.0892],[110.7653,-7.8134,132.2942],[110.7644,-7.8099,113.0948],[110.7722,-7.8085,130.0506],[110.7751,-7.811,132.2878],[110.7754,-7.8138,148.6519],[110.7781,-7.8154,193.7079],[110.7798,-7.8139,209.2899],[110.7853,-7.8169,243.5246],[110.7859,-7.8137,232.8991],[110.7827,-7.8087,181.9502],[110.7852,-7.7999,134.8432],[110.7874,-7.7978,169.8056],[110.7936,-7.7963,228.1945],[110.7934,-7.7947,231.0085],[110.7962,-7.7961,269.2499],[110.7989,-7.7943,286.3171],[110.8013,-7.7949,288.9765],[110.8013,-7.7922,300.7414],[110.8064,-7.7909,301.4258],[110.8099,-7.7911,304.2557],[110.8108,-7.7925,311.175],[110.8118,-7.7914,311.175],[110.8147,-7.7941,327.8383],[110.8258,-7.7946,371.5103],[110.8271,-7.7973,412.2085],[110.833,-7.7954,424.3124],[110.8377,-7.7975,515.2381],[110.8397,-7.8013,589.7227],[110.8407,-7.7996,628.011],[110.8417,-7.8004,626.7648],[110.8408,-7.8054,533.8993],[110.8455,-7.8128,580.1312],[110.8497,-7.8152,540.6684],[110.8528,-7.8131,404.0432],[110.8536,-7.814,404.0432],[110.857,-7.8114,215.261],[110.8558,-7.8014,148.8109],[110.8601,-7.7962,125.665],[110.8572,-7.7878,119.8925]]]]}}