{"type":"Feature","properties":{"GID_3":"IDN.28.4.19_1","GID_0":"IDN","country":"Indonesia","GID_1":"IDN.28_1","province":"SulawesiTenggara","NL_NAME_1":"NA","GID_2":"IDN.28.4_1","county":"Buton","NL_NAME_2":"NA","city":"TalagaRaya","VARNAME_3":"NA","NL_NAME_3":"NA","TYPE_3":"Kecamatan","ENGTYPE_3":"Sub-district","CC_3":"7401151","HASC_3":"NA","name":"Talaga_Raya.city"},
"geometry":{"type": "MultiPolygon","coordinates": [[[[122.0579,-5.4924,2.931],[122.0478,-5.4901,1.7176],[122.0358,-5.5003,13.8003],[122.0307,-5.5014,1.9765],[122.0255,-5.5052,17.2332],[122.0174,-5.507,13.6825],[122.0127,-5.5132,3.9401],[121.993,-5.5227,1.0267],[122.0013,-5.5231,0.0],[122.0149,-5.519,10.2539],[122.0288,-5.5188,7.514],[122.0395,-5.5101,8.7952],[122.0519,-5.5037,2.1389],[122.058,-5.4987,2.9393],[122.0632,-5.4912,0.0],[122.0579,-5.4924,2.931]]],
[[[122.092,-5.4855,0.0],[122.087,-5.4741,0.0],[122.0737,-5.4733,0.7997],[122.0732,-5.4771,1.7905],[122.0754,-5.4822,7.9078],[122.0706,-5.4873,1.04],[122.0778,-5.4873,1.0382],[122.0818,-5.4933,0.0],[122.0855,-5.4941,9.3382],[122.092,-5.4855,0.0]]],
[[[122.0376,-5.468,0.0],[122.0436,-5.4621,16.6007],[122.0499,-5.4607,0.0],[122.0466,-5.4547,8.46],[122.0434,-5.4379,22.9115],[122.0461,-5.4284,0.0],[122.045,-5.4252,2.7127],[122.0432,-5.4247,73.3492],[122.046,-5.422,0.0],[122.0437,-5.4157,13.7825],[122.0484,-5.4144,18.5315],[122.0446,-5.4013,8.7151],[121.9549,-5.4047,49.3411],[121.9528,-5.4175,49.9977],[121.9527,-5.4564,52.0477],[121.9501,-5.4675,63.2569],[121.9462,-5.4737,0.0],[121.9451,-5.4787,41.3814],[121.9457,-5.4832,1.5422],[121.9516,-5.4853,0.9605],[121.9475,-5.493,0.7805],[121.958,-5.4957,0.0],[121.9579,-5.4938,0.0],[121.9535,-5.4909,0.0],[121.9534,-5.4837,0.0],[121.9547,-5.4806,6.4299],[121.9606,-5.4774,5.7268],[121.969,-5.4774,2.1468],[121.9712,-5.4757999999999996,2.8571],[121.9786,-5.4766,0.0],[121.9893,-5.4728,8.0141],[121.9924,-5.4746,0.0],[121.995,-5.4735,0.0],[121.9969,-5.4669,1.3263],[122.0031,-5.4689,2.8924],[122.0054,-5.4674,6.557],[122.0093,-5.4676,2.8922],[122.0111,-5.4687,5.8264],[122.0107,-5.4722,0.0],[122.0147,-5.4763,0.0],[122.0208,-5.474,17.2979],[122.032,-5.4747,0.0],[122.0376,-5.468,0.0]]],
[[[121.9355,-5.4937,2.1489],[121.9351,-5.495,0.0],[121.9352,-5.4951,0.0],[121.9367,-5.4932,2.1489],[121.9355,-5.4937,2.1489]]],
[[[121.9387,-5.4927,0.0],[121.9385,-5.4942,0.0],[121.9387,-5.4943,0.0],[121.9398,-5.493,0.0],[121.9387,-5.4927,0.0]]],
[[[121.9403,-5.491,0.602],[121.9414,-5.4896,0.0],[121.94,-5.4854,1.7755],[121.9361,-5.4868,0.0],[121.9389,-5.4884,3.791],[121.9403,-5.491,0.602]]]]}}