{"type":"Feature","properties":{"GID_3":"IDN.33.1.7_1","GID_0":"IDN","country":"Indonesia","GID_1":"IDN.33_1","province":"Yogyakarta","NL_NAME_1":"NA","GID_2":"IDN.33.1_1","county":"Bantul","NL_NAME_2":"NA","city":"Kasihan","VARNAME_3":"NA","NL_NAME_3":"NA","TYPE_3":"Kecamatan","ENGTYPE_3":"Sub-district","CC_3":"3402150","HASC_3":"NA","name":"Kasihan.city"},
"geometry":{"type": "MultiPolygon","coordinates": [[[[110.351,-7.8194,87.3875],[110.3524,-7.8162,90.0406],[110.3515,-7.8135,91.1791],[110.3458,-7.8125,93.186],[110.3446,-7.8073,96.7798],[110.3482,-7.7999,104.571],[110.3483,-7.7951,106.9987],[110.3499,-7.7941,109.549],[110.3486,-7.7935,108.6796],[110.3512,-7.7813,118.9906],[110.351,-7.7679,132.7445],[110.3488,-7.7703,125.2449],[110.3477,-7.7804,120.8404],[110.3456,-7.7827,113.8537],[110.3464,-7.7852,114.1767],[110.344,-7.7912,107.1035],[110.3392,-7.7924,100.4569],[110.338,-7.7977,94.7491],[110.3334,-7.7979,98.6183],[110.3314,-7.8001,96.9225],[110.3323,-7.8032,95.3583],[110.3301,-7.8048,94.2875],[110.3305,-7.8068,90.5766],[110.3275,-7.8047,95.846],[110.3251,-7.8057,96.6058],[110.3208,-7.8044,93.621],[110.3191,-7.8073,90.5992],[110.316,-7.8052,91.7088],[110.3142,-7.8188,89.2475],[110.317,-7.8199,96.1895],[110.3164,-7.8237,82.9172],[110.3114,-7.8181,98.2314],[110.3071,-7.8221,122.0601],[110.3064,-7.8283,87.1284],[110.3035,-7.8252,96.8287],[110.3025,-7.8272,91.8952],[110.2976,-7.8272,98.0673],[110.2982,-7.8305,100.048],[110.2993,-7.8304,100.048],[110.2985,-7.8323,97.9637],[110.2951,-7.8306,107.2336],[110.2928,-7.8339,102.5806],[110.2851,-7.8331,150.0807],[110.2846,-7.8397,117.174],[110.2805,-7.847,59.4091],[110.2846,-7.8483,123.8063],[110.2881,-7.8473,130.2249],[110.2907,-7.8508,123.8114],[110.2845,-7.851,121.9379],[110.2864,-7.8566,94.0896],[110.2915,-7.8582,116.6309],[110.2975,-7.8518,134.3076],[110.3019,-7.8534,149.9972],[110.3048,-7.8515,135.9959],[110.3081,-7.8535,129.7051],[110.3182,-7.8553,119.2046],[110.3188,-7.8599,73.7828],[110.3243,-7.8613,59.0825],[110.3281,-7.8588,58.4526],[110.3288,-7.8533,62.8719],[110.3267,-7.8493,63.3281],[110.3245,-7.8513,71.711],[110.322,-7.8499,72.5275],[110.322,-7.8468,63.8435],[110.3253,-7.8486,63.3281],[110.3294,-7.8481,64.806],[110.3295,-7.8504,67.4748],[110.332,-7.8497,66.3769],[110.3319,-7.8467,63.2552],[110.336,-7.8494,70.5834],[110.3357,-7.8509,67.367],[110.3386,-7.8476,68.1537],[110.3439,-7.85,67.4361],[110.3474,-7.8419,71.4539],[110.3489,-7.8406,71.932],[110.3504,-7.8419,70.863],[110.3511,-7.8383,73.081],[110.3497,-7.8356,76.2188],[110.3528,-7.8329,78.9293],[110.3513,-7.8248,83.9819],[110.3526,-7.8235,83.0366],[110.351,-7.8194,87.3875]]]]}}