{"type":"Feature","properties":{"GID_3":"IDN.23.15.3_1","GID_0":"IDN","country":"Indonesia","GID_1":"IDN.23_1","province":"Papua","NL_NAME_1":"NA","GID_2":"IDN.23.15_1","county":"Mappi","NL_NAME_2":"NA","city":"Edera","VARNAME_3":"NA","NL_NAME_3":"NA","TYPE_3":"Distrik","ENGTYPE_3":"District","CC_3":"9414020","HASC_3":"NA","name":"Edera.city"},
"geometry":{"type": "MultiPolygon","coordinates": [[[[139.7001,-6.9724,46.1142],[139.7084,-6.9564,45.2065],[139.7084,-6.9493,44.9578],[139.7197,-6.9475,44.258],[139.7612,-6.9523,40.7822],[139.7778,-6.9469,10.9892],[139.7855,-6.9469,41.7767],[139.8062,-6.957,30.1599],[139.8195,-6.9663,15.2901],[139.8309,-6.9524,13.8169],[139.8318,-6.9492,8.1485],[139.8298,-6.9451,12.6592],[139.8229,-6.9364,7.6283],[139.8236,-6.9202,36.0175],[139.8267,-6.9181,32.637],[139.7797,-6.9029,27.6468],[139.7666,-6.8943,48.0052],[139.735,-6.8865,48.3735],[139.7267,-6.8824,52.464],[139.7066,-6.8675,46.6081],[139.6967,-6.8661,50.3117],[139.7107,-6.8496,42.2176],[139.7128,-6.8402,46.9297],[139.7256,-6.8283,51.8807],[139.7424,-6.8172,45.8114],[139.7595,-6.8026,12.392],[139.7614,-6.7978,4.5268],[139.7614,-6.7885,9.961],[139.7636,-6.7855,3.7039],[139.7625,-6.7799,4.9168],[139.7584,-6.7724,48.2523],[139.7469,-6.7579,33.5557],[139.7282,-6.743,43.9303],[139.7022,-6.7281,52.7352],[139.6869,-6.7169,51.7381],[139.6537,-6.7031,28.1411],[139.6448,-6.6957,38.9911],[139.6388,-6.6935,36.347],[139.6344,-6.6938,31.4354],[139.6308,-6.6916,12.9267],[139.6208,-6.6941,14.6784],[139.6068,-6.6854,20.8548],[139.5969,-6.6848,6.2864],[139.5824,-6.6929,16.8196],[139.5713,-6.7063,12.8146],[139.5649,-6.7087,1.5],[139.5643,-6.7011,11.0981],[139.5731,-6.6895,24.7664],[139.5719,-6.683,13.2537],[139.5626,-6.6836,7.7491],[139.5533,-6.6865,11.3735],[139.5451,-6.6912,7.2927],[139.5387,-6.6982,23.2062],[139.5294,-6.6964,25.877],[139.5236,-6.683,3.3718],[139.5189,-6.6784,3.7039],[139.5131,-6.6813,5.9608],[139.5102,-6.6895,1.5],[139.5108,-6.6982,12.7568],[139.5078,-6.7075,1.5],[139.5026,-6.7133,21.45],[139.5061,-6.7203,5.4425],[139.5137,-6.7226,1.5],[139.5207,-6.718,25.9257],[139.5276,-6.7162,23.4273],[139.5329,-6.7215,17.1678],[139.5329,-6.7279,23.9995],[139.5218,-6.7366,4.6654],[139.5143,-6.7512,20.1264],[139.5067,-6.75,18.3812],[139.5003,-6.7454,14.6618],[139.4962,-6.7238,15.0704],[139.4863,-6.7226,16.4792],[139.4834,-6.7308,1.5],[139.4851,-6.7378,17.8606],[139.491,-6.7454,11.0779],[139.491,-6.7523,1.5],[139.4875,-6.7576,16.0781],[139.4799,-6.7617,4.1488],[139.4816,-6.7675,24.4988],[139.4863,-6.771,1.5],[139.4974,-6.7704,9.117],[139.5043,-6.7739,19.2122],[139.5078,-6.7815,20.1131],[139.5043,-6.7873,5.1369],[139.4962,-6.7902,21.5375],[139.4816,-6.7914,5.9569],[139.4747,-6.8158,16.0185],[139.4688,-6.8222,1.5],[139.4665,-6.8397,9.1189],[139.4624,-6.8467,6.6465],[139.456,-6.8496,9.4322],[139.442,-6.8432,15.3626],[139.4339,-6.842,6.5623],[139.4257,-6.8455,8.0945],[139.4199,-6.8461,4.9016],[139.4153,-6.828,9.5894],[139.4281,-6.8222,9.3049],[139.4327,-6.8176,11.2447],[139.4298,-6.8123,13.7163],[139.4147,-6.803,9.2774],[139.4065,-6.8013,5.5538],[139.3978,-6.8146,11.2688],[139.3914,-6.8205,3.8307],[139.3931,-6.8275,4.4503],[139.4083,-6.8368,9.6894],[139.4124,-6.8443,1.5],[139.4094,-6.8508,5.1325],[139.3966,-6.8589,14.8669],[139.3937,-6.8671,1.5],[139.4112,-6.8839,3.778],[139.4176,-6.8851,10.0931],[139.4234,-6.8892,13.4997],[139.4217,-6.9014,16.4549],[139.4019,-6.902,1.5],[139.3925,-6.9055,1.5],[139.3832,-6.9061,1.5],[139.3698,-6.9014,8.5591],[139.3634,-6.9072,21.9348],[139.364,-6.9177,22.4707],[139.3605,-6.9288,14.6372],[139.35,-6.9294,9.6992],[139.3436,-6.9253,16.8087],[139.3401,-6.9055,6.8033],[139.3308,-6.8973,9.4357],[139.3227,-6.8927,6.4923],[139.3227,-6.8834,7.9753],[139.3308,-6.8764,25.0366],[139.3294,-6.8678,2.695],[139.3181,-6.8622,5.2146],[139.3061,-6.8615,19.4051],[139.2983,-6.8559,2.3307],[139.2877,-6.8587,1.0],[139.2814,-6.8686,14.054],[139.2786,-6.8798,12.8314],[139.2828,-6.8918,20.6755],[139.2807,-6.8996,1.0],[139.2151,-6.9144,8.7111],[139.2172,-6.932,1.0],[139.2179,-6.9708,7.9931],[139.2236,-6.987,1.0],[139.2257,-7.0033,1.0],[139.2158,-7.0152,1.9032],[139.2186,-7.0251,11.5623],[139.2285,-7.0209,1.0],[139.2348,-7.0145,1.0],[139.2757,-7.0251,1.0],[139.2856,-7.0378,1.0],[139.3025,-7.0442,3.2276],[139.3124,-7.0505,0.5],[139.3392,-7.0463,0.5],[139.3484,-7.0491,6.993],[139.3822,-7.1119,0.5],[139.3766,-7.1245,0.5],[139.3681,-7.1358,0.5],[139.3561,-7.1499,0.5],[139.3448,-7.1598,0.5],[139.3385,-7.1746,3.7254],[139.347,-7.1859,0.5],[139.3582,-7.1958,0.5],[139.3745,-7.2056,0.5],[139.3879,-7.2113,0.5],[139.4203,-7.2078,0.5],[139.4309,-7.2127,0.5],[139.4288,-7.2226,0.5],[139.4161,-7.2254,0.5],[139.3865,-7.224,0.5],[139.3738,-7.2261,0.5],[139.3611,-7.2303,0.5],[139.354,-7.2275,0.5],[139.3427,-7.2176,0.5],[139.3131,-7.2078,0.5],[139.299,-7.2099,0.5],[139.2764,-7.2197,0.5],[139.2694,-7.2169,0.5],[139.263,-7.1676,0.0],[139.2602,-7.1563,0.0],[139.2532,-7.1471,0.0],[139.2398,-7.1415,0.0],[139.2207,-7.1436,0.0],[139.2116,-7.1513,0.0],[139.1996,-7.1669,0.0],[139.1946,-7.1901,0.0],[139.1862,-7.2127,0.0],[139.1735,-7.2212,0.0],[139.0959,-7.2176,0.0],[139.0677,-7.2205,0.0],[139.0332,-7.2141,0.0],[139.0127,-7.2014,0.0],[138.9626,-7.1894,0.0],[138.8921,-7.1937,0.0],[138.8382,-7.203,0.0],[138.8325,-7.2065,13.1171],[138.7928,-7.2082,10.4062],[138.7917,-7.2096,15.6295],[138.7903,-7.2082,12.0908],[138.7641,-7.2082,12.5465],[138.7629,-7.2097,9.4497],[138.7623,-7.2082,5.8576],[138.7131,-7.203,13.2568],[138.6774,-7.1956,4.043],[138.6731,-7.1979,3.6184],[138.6692,-7.2041,4.0511],[138.6671,-7.2085,2.5646],[138.6673,-7.2142,0.456],[139.8287,-7.4539,41.8546],[139.8439,-7.4117,50.5726],[139.8448,-7.3986,39.4885],[139.8326,-7.3061,23.4932],[139.843,-7.2223,15.9952],[139.8457,-7.1743,18.437],[139.8553,-7.1472,17.7856],[139.857,-7.1132,13.1737],[139.8639,-7.1055,1.5],[139.8519,-7.0981,10.3008],[139.8382,-7.094,1.5],[139.8187,-7.0845,1.0],[139.8092,-7.0821,1.0],[139.8027,-7.0821,1.0],[139.7938,-7.0863,1.0],[139.7929,-7.0883,1.0],[139.792,-7.078,10.0381],[139.7867,-7.0738,17.4603],[139.7748,-7.0756,19.104],[139.7736,-7.0726,16.2041],[139.7778,-7.0685,2.7491],[139.7837,-7.0685,20.2519],[139.789,-7.0655,4.8881],[139.792,-7.0584,5.663],[139.7926,-7.0519,13.5391],[139.7855,-7.0418,19.9038],[139.7863,-7.0386,15.9018],[139.7807,-7.0459,17.792],[139.776,-7.0454,17.9553],[139.7712,-7.0394,14.8918],[139.7635,-7.0365,2.8173],[139.7546,-7.0347,3.3651],[139.7481,-7.0353,3.4164],[139.7398,-7.0365,3.6635],[139.7268,-7.0465,4.4049],[139.7185,-7.0507,8.572],[139.6878,-7.0497,36.2035],[139.6859,-7.0436,31.9948],[139.696,-7.0222,31.9599],[139.6948,-7.005,37.4607],[139.6887,-6.9965,15.7142],[139.69,-6.9861,37.7062],[139.7001,-6.9724,46.1142]]]]}}