{"type":"Feature","properties":{"GID_3":"IDN.13.3.2_1","GID_0":"IDN","country":"Indonesia","GID_1":"IDN.13_1","province":"KalimantanSelatan","NL_NAME_1":"NA","GID_2":"IDN.13.3_1","county":"Banjar","NL_NAME_2":"NA","city":"Aranio","VARNAME_3":"NA","NL_NAME_3":"NA","TYPE_3":"Kecamatan","ENGTYPE_3":"Sub-district","CC_3":"6303080","HASC_3":"NA","name":"Aranio.city"},
"geometry":{"type": "MultiPolygon","coordinates": [[[[115.1221,-3.6343,691.4033],[115.1496,-3.635,564.616],[115.1535,-3.6338,587.5614],[115.1717,-3.6202,474.5866],[115.1884,-3.6102,375.7744],[115.197,-3.6078,339.7747],[115.2193,-3.6076,345.0407],[115.2371,-3.6036,263.8165],[115.2445,-3.5978,221.5804],[115.2597,-3.5897,226.8695],[115.2658,-3.5801,240.5499],[115.2716,-3.5811,197.5496],[115.2693,-3.5776,285.4618],[115.2735,-3.5723,227.6321],[115.2964,-3.5624,188.3073],[115.3114,-3.5497,124.3048],[115.3181,-3.5316,206.8835],[115.3256,-3.5202,267.9755],[115.3337,-3.5138,571.8486],[115.3426,-3.5097,459.1332],[115.3494,-3.5086,504.1753],[115.3607,-3.5097,320.8624],[115.3735,-3.5083,307.5102],[115.3908,-3.5017,361.1893],[115.3878,-3.4909,257.4906],[115.3803,-3.4772,775.1371],[115.399,-3.4633,1116.2244],[115.402,-3.4581,997.0909],[115.41,-3.4527,1017.8282],[115.4103,-3.4501,966.6155],[115.4024,-3.4455,639.9478],[115.3933,-3.443,507.4871],[115.3903,-3.4358,566.2856],[115.3981,-3.3924,602.639],[115.3985,-3.3818,553.5366],[115.3956,-3.3774,588.6738],[115.3959,-3.3755,524.5838],[115.3869,-3.3754,444.4995],[115.3723,-3.3803,203.6771],[115.3552,-3.3837,425.7567],[115.3389,-3.3849,314.6666],[115.3241,-3.3805,208.4901],[115.2911,-3.3657,148.5907],[115.2819,-3.3664,155.2977],[115.2726,-3.3705,154.6314],[115.2443,-3.3725,217.3282],[115.2352,-3.3692,152.9671],[115.2261,-3.3628,137.2561],[115.2174,-3.3604,108.7665],[115.2105,-3.3632,134.387],[115.1991,-3.3735,136.4888],[115.187,-3.3802,127.2849],[115.1763,-3.3837,120.9769],[115.1603,-3.382,189.7166],[115.1489,-3.385,226.1951],[115.134,-3.383,190.6951],[115.1214,-3.3863,221.9642],[115.1276,-3.396,351.5152],[115.1297,-3.4057,130.973],[115.1241,-3.4166,106.2548],[115.1121,-3.4249,166.8901],[115.0999,-3.4281,168.0625],[115.0942,-3.4251,199.7725],[115.0862,-3.4244,245.8937],[115.0746,-3.4301,168.5613],[115.0634,-3.4426,361.9835],[115.0475,-3.4711,410.9456],[115.0371,-3.4827,78.4587],[115.0152,-3.4909,34.7087],[115.005,-3.4997,39.6594],[115.0012,-3.5103,32.9686],[115.0102,-3.5363,116.782],[115.002,-3.5534,236.9135],[115.0041,-3.5929,81.8137],[115.0003,-3.6047,306.2546],[114.9924,-3.6194,166.322],[114.9686,-3.6336,158.9061],[114.9682,-3.6389,219.0885],[114.9446,-3.6677,435.1652],[114.9353,-3.6879,412.8816],[114.9345,-3.7022,399.6746],[114.9368,-3.7226,632.8256],[114.9438,-3.729,808.4344],[114.9503,-3.7306,846.3508],[114.9568,-3.7307,643.9905],[114.9655,-3.7275,569.6133],[114.9772,-3.7123,905.1691],[114.9834,-3.7001,530.6331],[114.9989,-3.7028,902.9318],[115.0117,-3.693,706.463],[115.0322,-3.687,1147.2063],[115.0835,-3.6683,630.4802],[115.0899,-3.6643,735.8859],[115.1059,-3.6457,965.9449],[115.1221,-3.6343,691.4033]]]]}}