{"type":"Feature","properties":{"featurecla":"River","scalerank":6,"rivernum":216,"dissolve":"216River","name":"Barito1","name_alt":null,"note":null,"min_zoom":5.0,"strokeweig":0.2,"name_en":"Barito","min_label":6.0},
"geometry":{"type": "LineString","coordinates": [[114.658935546875,0.22894928593162,236.748],[114.666259765625,0.216913153119108,218.2391],[114.672119140625,0.20941803593162,208.4066],[114.67509765624999,0.201532293744108,230.0841],[114.673095703125,0.188006903119117,238.965],[114.66845703125,0.17938873905662,301.1732],[114.659423828125,0.167987371869117,350.668],[114.649658203125,0.158075262494108,327.5737],[114.64208984375,0.153827215619117,385.5831],[114.600830078125,0.153827215619117,394.5943],[114.59589843750001,0.15082428593162,329.2401],[114.59003906250001,0.14398834843162,283.7727],[114.58193359375002,0.13703034061912,261.3879],[114.570068359375,0.13336823124412,320.0632],[114.570556640625,0.135858465619108,362.5405],[114.54345703125,0.14704010624412,321.072],[114.52822265625002,0.159930731244117,425.0756],[114.51210937500002,0.17743561405662,516.1296],[114.49453125000002,0.18317291874412,505.263],[114.47646484375002,0.17206452030662,487.396],[114.4599609375,0.15607330936912,465.481],[114.447265625,0.14704010624412,532.0363],[114.43447265625002,0.15045807499412,468.7778],[114.3857421875,0.17059967655662,492.0303],[114.376220703125,0.178338934369108,677.1675],[114.35400390625,0.176874090619108,261.6757],[114.31005859375,0.167499090619117,359.6069],[114.28847656250002,0.16705963749412,339.3822],[114.278564453125,0.16583893436912,368.9305],[114.2685546875,0.161249090619108,317.0157],[114.264404296875,0.15570709843162,144.8838],[114.2548828125,0.13727448124412,173.8717],[114.244384765625,0.124139715619108,264.2988],[114.23828125,0.104852606244108,240.2639],[114.22939453125002,0.087762762494108,381.0525],[114.2138671875,0.085565496869108,355.1108],[114.2099609375,0.09210846561912,369.5363],[114.20810546875003,0.113641668744108,435.5201],[114.20644531250002,0.11908600468162,361.4066],[114.193359375,0.120233465619108,389.3489],[114.186279296875,0.11273834843162,436.0222],[114.181640625,0.103290106244117,382.6537],[114.17597656250001,0.09857819218162,451.5049],[114.17138671875,0.08673737186912,424.163],[114.1767578125,0.060077215619117,291.5803],[114.18603515625,0.03217194218162,478.1968],[114.193359375,0.01666901249412,377.3408],[114.22412109375,0.00018952030662,479.8481],[114.26318359375,-0.01116301875588,304.5162],[114.294921875,-0.02910735469338,209.5683],[114.30322265625,-0.065264581255889,133.8566],[114.296875,-0.08977630000588,137.715],[114.28662109375,-0.11370208125588,223.1711],[114.271875,-0.13469817500588,331.1396],[114.25205078125003,-0.15032317500588,311.5714],[114.2265625,-0.15935637813088,276.3524],[114.1728515625,-0.16863372188088,492.0676],[114.14785156250002,-0.18035247188088,368.9195],[114.114501953125,-0.20720794063088,248.8747],[114.084375,-0.242510675005889,323.5352],[114.070556640625,-0.28215911250588,556.9003],[114.0869140625,-0.32219817500588,228.3016],[114.08964843749999,-0.33904387813088,140.6871],[114.06240234375002,-0.40105559688088,84.0696],[114.06162109375003,-0.42156340938088,92.0165],[114.06650390625003,-0.441924737505886,109.8593],[114.07558593750002,-0.457549737505886,106.9513],[114.0869140625,-0.46379973750588,97.931],[114.10107421875,-0.46941497188088,148.6819],[114.11328125,-0.482745050005889,90.1686],[114.13193359375003,-0.51091887813088,69.4391],[114.15380859375,-0.53142669063088,77.5805],[114.20498046875002,-0.56585051875588,107.0172],[114.2275390625,-0.58660247188088,60.2814],[114.239013671875,-0.60198333125588,129.4357],[114.242919921875,-0.61345794063088,97.9299],[114.24169921875,-0.65154387813088,63.6556],[114.25058593750003,-0.65935637813088,63.7637],[114.32099609375001,-0.69060637813088,67.4543],[114.333984375,-0.699737237505886,52.8695],[114.35791015625,-0.723174737505886,48.6936],[114.3671875,-0.738799737505886,31.0],[114.37490234375002,-0.745147393755886,41.5423],[114.3857421875,-0.743682550005886,49.4134],[114.39072265625003,-0.73723723750588,65.3513],[114.38916015625,-0.72893645625588,60.0491],[114.37841796875,-0.709502862505886,30.0],[114.41103515625002,-0.712920831255886,47.5236],[114.468017578125,-0.727373956255889,51.3562],[114.50185546875002,-0.73064544063088,46.7811],[114.4990234375,-0.726104425005886,54.9941],[114.49560546875,-0.723174737505886,44.3432],[114.509033203125,-0.71721770625588,45.6225],[114.577880859375,-0.71453215938088,47.421],[114.58544921875,-0.711748956255889,50.4642],[114.58388671875002,-0.685577081255886,47.9386],[114.58964843749999,-0.67766692500588,43.7212],[114.60009765625,-0.67131926875588,49.2968],[114.60498046875,-0.66179778438088,42.2329],[114.583251953125,-0.62737395625588,40.9954],[114.58759765625001,-0.617510675005889,32.999],[114.60117187500003,-0.617022393755889,26.5],[114.617919921875,-0.62761809688088,45.2648],[114.62265625000003,-0.618487237505889,48.0848],[114.62763671875001,-0.616729425005886,37.1877],[114.63906250000002,-0.620147393755886,48.3983],[114.638671875,-0.62224700313088,49.1716],[114.63906250000002,-0.626495050005886,38.2671],[114.64111328125,-0.63128020625588,38.781],[114.645263671875,-0.633819268755886,42.4918],[114.65048828125003,-0.63347747188088,38.9132],[114.65595703125001,-0.628741143755889,46.9122],[114.686279296875,-0.62127044063088,54.0966],[114.69716796875002,-0.620147393755886,57.7624],[114.70263671875,-0.622393487505889,41.5548],[114.71142578125,-0.631670831255889,56.9428],[114.71728515625,-0.633819268755886,45.3159],[114.72324218750003,-0.631670831255889,42.9898],[114.72910156250003,-0.626983331255886,56.445],[114.7333984375,-0.622393487505889,50.0598],[114.734619140625,-0.620147393755886,41.4624],[114.766357421875,-0.618682550005886,64.9777],[114.78066406250002,-0.620635675005886,50.7568],[114.79160156250003,-0.61956145625588,46.132],[114.796630859375,-0.620147393755886,41.3377],[114.79794921875003,-0.62420012813088,27.9222],[114.796630859375,-0.631377862505886,89.1232],[114.79599609375003,-0.638213800005886,75.2846],[114.80009765624999,-0.64128997188088,70.7492],[114.8125,-0.64275481563088,54.1754],[114.81669921874999,-0.64739348750588,150.8993],[114.81435546875002,-0.65496184688088,118.3956],[114.806640625,-0.66545989375588,42.6375],[114.802978515625,-0.675127862505889,89.3576],[114.80810546875,-0.68181731563088,87.3293],[114.82333984375003,-0.68962981563088,70.9528],[114.836669921875,-0.69890715938088,56.434],[114.84736328125001,-0.708526300005886,65.7174],[114.85488281250002,-0.721514581255889,47.7835],[114.85751953125003,-0.740264581255886,56.1579],[114.861083984375,-0.746905206255889,45.3198],[114.869873046875,-0.74895598750588,60.76],[114.88037109375,-0.75017669063088,37.7125],[114.88916015625,-0.753936456255886,41.47],[114.89414062500003,-0.76287200313088,56.7613],[114.89316406250003,-0.781084893755889,38.205],[114.89902343750003,-0.79143645625588,38.9085],[114.90869140625,-0.794756768755889,41.3739],[114.91552734375,-0.79021575313088,17.5],[114.919189453125,-0.78972747188088,44.3236],[114.919677734375,-0.80510833125588,17.0],[114.914794921875,-0.81414153438088,38.7766],[114.90673828125,-0.82537200313088,43.5072],[114.90439453125003,-0.83513762813088,30.1739],[114.935791015625,-0.84832122188088,44.4149],[114.932373046875,-0.867705987505886,38.6192],[114.91982421875002,-0.886748956255886,54.4382],[114.91269531250003,-0.89446380000588,26.1819],[114.9111328125,-0.908721612505886,45.1788],[114.91416015625003,-0.919952081255886,49.6404],[114.92148437500003,-0.92717864375588,44.845],[114.93320312500003,-0.929229425005886,23.2628],[114.9091796875,-0.957061456255886,18.7848],[114.837158203125,-0.96135833125588,35.5718],[114.817138671875,-0.99065520625588,12.0],[114.81904296875001,-1.01116301875588,26.0915],[114.82929687500001,-1.028155206255889,12.0],[114.85751953125003,-1.05901458125588,13.4969],[114.889404296875,-1.114580987505889,24.6065],[114.892822265625,-1.1284481750058859,26.9664],[114.884033203125,-1.14202239375588,47.2231],[114.83759765625001,-1.1831356750058859,35.3559],[114.80341796875001,-1.237139581255889,10.0],[114.78330078125003,-1.254717706255889,10.0],[114.77724609375002,-1.26555755000588,32.9454],[114.782958984375,-1.27800872188088,35.9172],[114.79843750000003,-1.28508880000588,30.364],[114.813232421875,-1.28020598750588,22.9318],[114.83759765625001,-1.257647393755889,9.5],[114.841796875,-1.27605559688088,31.9921],[114.833984375,-1.31292083125588,29.8572],[114.841064453125,-1.319659112505889,32.2253],[114.88193359375003,-1.319659112505889,27.4241],[114.89443359375002,-1.325518487505889,8.5],[114.8896484375,-1.33855559688088,26.9401],[114.87177734375001,-1.360674737505889,24.3955],[114.868896484375,-1.3745419250058859,19.6853],[114.870361328125,-1.380205987505889,21.804],[114.87568359375001,-1.38445403438088,25.0789],[114.88535156250003,-1.39470794063088,17.195],[114.890625,-1.3989559875058859,26.5304],[114.90185546875,-1.410967706255889,17.6066],[114.90927734375003,-1.42327239375588,7.0],[114.90244140625003,-1.42888762813088,7.0],[114.88818359375,-1.436358331255889,21.3224],[114.881591796875,-1.4536434875058859,22.6905],[114.877197265625,-1.53679778438088,22.0116],[114.87265625000003,-1.557452081255889,15.0806],[114.86123046875002,-1.56609465938088,15.412]]}}