{"type":"Feature","properties":{"GID_3":"IDN.10.1.12_1","GID_0":"IDN","country":"Indonesia","GID_1":"IDN.10_1","province":"JawaTengah","NL_NAME_1":"NA","GID_2":"IDN.10.1_1","county":"Banjarnegara","NL_NAME_2":"NA","city":"Pejawaran","VARNAME_3":"NA","NL_NAME_3":"NA","TYPE_3":"Kecamatan","ENGTYPE_3":"Sub-district","CC_3":"3304150","HASC_3":"NA","name":"Pejawaran.city"},
"geometry":{"type": "MultiPolygon","coordinates": [[[[109.7988,-7.2816,1188.8845],[109.8025,-7.2822,1233.8085],[109.8074,-7.2764,1233.824],[109.81,-7.2695,1171.2159],[109.8084,-7.2674,1160.3019],[109.8162,-7.2649,1211.5135],[109.8195,-7.2693,1219.692],[109.8259,-7.2717,1146.6821],[109.8266,-7.2655,1231.6654],[109.8299,-7.2619,1223.1111],[109.8378,-7.2608,1298.6343],[109.8436,-7.2713,1162.42],[109.8505,-7.2548,1247.1903],[109.8497,-7.2513,1265.5082],[109.8526,-7.2509,1270.552],[109.8548,-7.241,1437.4659],[109.8617,-7.2328,1629.5701],[109.8644,-7.2304,1619.2534],[109.8676,-7.2305,1621.7363],[109.87,-7.2269,1695.4126],[109.8696,-7.2219,1750.447],[109.8664,-7.2204,1656.0713],[109.8636,-7.2154,1682.9524],[109.8601,-7.2172,1639.2557],[109.8553,-7.2167,1596.1072],[109.8496,-7.2266,1565.2729],[109.8474,-7.2348,1484.696],[109.8384,-7.2397,1422.592],[109.8407,-7.2351,1422.1836],[109.8416,-7.2276,1467.6046],[109.8347,-7.2283,1540.3293],[109.8342,-7.2226,1615.6143],[109.8295,-7.2203,1541.0243],[109.8178,-7.2207,1534.0372],[109.8165,-7.2252,1453.9891],[109.8086,-7.2288,1384.2369],[109.8074,-7.2351,1311.0853],[109.801,-7.2325,1376.9679],[109.7978,-7.2357,1265.1444],[109.7919,-7.2343,1284.3348],[109.7908,-7.231,1277.3228],[109.7934,-7.2272,1267.718],[109.7957,-7.2264,1287.4553],[109.7966,-7.2243,1392.9783],[109.7982,-7.2254,1410.1255],[109.8007,-7.2236,1396.926],[109.8028,-7.2186,1461.4989],[109.8024,-7.2145,1461.1669],[109.8048,-7.2117,1510.5896],[109.8085,-7.2015,1559.2517],[109.8069,-7.1993,1598.2885],[109.8025,-7.2023,1526.7776],[109.7981,-7.2025,1492.5381],[109.7954,-7.2062,1470.8138],[109.7924,-7.2045,1458.9404],[109.7905,-7.2067,1422.4462],[109.7826,-7.2097,1359.699],[109.7819,-7.2128,1353.7012],[109.7788,-7.2161,1347.0287],[109.7801,-7.2181,1335.8252],[109.7774,-7.2224,1313.8024],[109.7783,-7.226,1306.382],[109.7757,-7.2263,1289.7057],[109.7757,-7.2281,1314.7081],[109.7713,-7.2291,1244.9884],[109.7675,-7.2327,1160.9315],[109.7685,-7.2342,1145.7765],[109.7661,-7.2395,1116.7944],[109.7668,-7.2446,1069.3334],[109.765,-7.246,1165.6934],[109.7661,-7.2486,1042.9504],[109.7646,-7.2506,1095.2906],[109.7682,-7.2546,991.7351],[109.7685,-7.2586,982.8311],[109.7658,-7.2649,993.6265],[109.7686,-7.2675,942.3576],[109.7702,-7.2735,911.9228],[109.7756,-7.2762,868.8694],[109.7754,-7.2786,1001.4144],[109.7792,-7.2736,879.4058],[109.7853,-7.2729,924.6127],[109.7864,-7.2778,961.6569],[109.7895,-7.2801,1025.2928],[109.7975,-7.2804,1221.4966],[109.7988,-7.2816,1188.8845]]]]}}