{"type":"Feature","properties":{"GID_3":"IDN.9.21.10_1","GID_0":"IDN","country":"Indonesia","GID_1":"IDN.9_1","province":"JawaBarat","NL_NAME_1":"NA","GID_2":"IDN.9.21_1","county":"Majalengka","NL_NAME_2":"NA","city":"Kadipaten","VARNAME_3":"NA","NL_NAME_3":"NA","TYPE_3":"Kecamatan","ENGTYPE_3":"Sub-district","CC_3":"3210170","HASC_3":"NA","name":"Kadipaten.city"},
"geometry":{"type": "MultiPolygon","coordinates": [[[[108.1876,-6.7884,54.9355],[108.1924,-6.7888,56.6701],[108.2023,-6.7862,51.1566],[108.2006,-6.7824,48.3413],[108.2018,-6.7775,45.6528],[108.2001,-6.7724,49.3612],[108.1978,-6.7726,41.6905],[108.1992,-6.7684,45.1045],[108.1973,-6.767,45.2523],[108.1976,-6.7636,50.5306],[108.1955,-6.7631,51.5065],[108.1962,-6.7613,46.0521],[108.1922,-6.7604,41.326],[108.1726,-6.7664,39.7633],[108.1687,-6.7627,37.9693],[108.1693,-6.76,36.3223],[108.1725,-6.7612,36.0304],[108.1727,-6.758,34.2491],[108.1743,-6.7584,34.2491],[108.1813,-6.7534,31.4558],[108.1854,-6.7545,34.4483],[108.1858,-6.7534,34.4483],[108.1845,-6.7505,34.1397],[108.1866,-6.7475,31.5027],[108.1819,-6.7322,29.1927],[108.1853,-6.7256,25.5817],[108.1807,-6.7192,24.7241],[108.1781,-6.7185,25.6665],[108.1748,-6.7219,25.043],[108.1736,-6.7333,24.9566],[108.172,-6.7349,25.8053],[108.1678,-6.7332,29.6141],[108.1649,-6.724,28.9603],[108.1623,-6.7243,28.2526],[108.1637,-6.7293,27.3946],[108.1568,-6.7408,30.6435],[108.1518,-6.7449,36.6524],[108.1514,-6.7481,31.5215],[108.1532,-6.7513,33.0208],[108.149,-6.7541,34.6949],[108.1488,-6.7583,31.4944],[108.1541,-6.7623,31.9314],[108.1596,-6.7589,33.2713],[108.1643,-6.7614,36.5754],[108.1636,-6.7739,33.9976],[108.1693,-6.7824,33.5654],[108.1698,-6.7895,49.4531],[108.1726,-6.7915,55.1381],[108.1795,-6.7914,56.1051],[108.1876,-6.7884,54.9355]]]]}}