{"type":"Feature","properties":{"GID_3":"IDN.34.5.7_1","GID_0":"IDN","country":"Indonesia","GID_1":"IDN.34_1","province":"KalimantanTimur","NL_NAME_1":"NA","GID_2":"IDN.34.5_1","county":"KutaiBarat","NL_NAME_2":"NA","city":"LinggangBigung","VARNAME_3":"NA","NL_NAME_3":"NA","TYPE_3":"Kecamatan","ENGTYPE_3":"Sub-district","CC_3":"6402071","HASC_3":"NA","name":"Linggang_Bigung.city"},
"geometry":{"type": "MultiPolygon","coordinates": [[[[115.5865,-0.1906,268.9495],[115.5966,-0.1897,244.9697],[115.6119,-0.1744,183.218],[115.6399,-0.1727,153.811],[115.6465,-0.1709,127.4104],[115.6626,-0.1578,128.3305],[115.667,-0.1521,109.1682],[115.6688,-0.1416,139.5888],[115.667,-0.1359,90.1738],[115.6618,-0.1329,87.4085],[115.6587,-0.1281,98.0425],[115.657,-0.1193,116.1684],[115.6501,-0.1066,85.7093],[115.6396,-0.1094,41.0175],[115.6301,-0.1098,38.6966],[115.6108,-0.1153,52.3181],[115.5988,-0.1142,105.6332],[115.5919,-0.1178,102.3064],[115.5308,-0.1236,288.9913],[115.5162,-0.1167,273.1927],[115.4954,-0.0992,366.6569],[115.4889,-0.0901,211.4859],[115.4856,-0.0661,56.7804],[115.4885,-0.0534,125.9376],[115.4818,-0.0294,259.7298],[115.4676,-0.0038,340.4506],[115.4586,0.0075,317.8118],[115.4439,0.0217,370.5095],[115.4378,0.0406,508.0804],[115.4152,0.033,349.1315],[115.4152,0.0256,320.0308],[115.4053,0.0207,392.0317],[115.3954,0.0195,525.7263],[115.388,0.0219,567.9997],[115.3819,0.0244,624.8627],[115.3769,0.0318,696.4712],[115.3745,0.0318,725.927],[115.3522,0.0071,507.9725],[115.3485,-0.0028,521.8617],[115.3362,-0.0163,566.8384],[115.3238,-0.0398,735.6559],[115.3102,-0.0472,465.7366],[115.3023,-0.0496,711.2776],[115.3042,-0.0619,518.3181],[115.3124,-0.0719,366.7995],[115.3328,-0.0841,351.7098],[115.3565,-0.0931,146.6874],[115.3614,-0.1054,176.0657],[115.3687,-0.1151,86.5276],[115.385,-0.1217,84.2648],[115.4144,-0.1404,130.1738],[115.4568,-0.1861,73.6231],[115.4804,-0.2081,205.6133],[115.4992,-0.2114,277.2859],[115.5057,-0.2089,265.0927],[115.5155,-0.2024,314.6078],[115.5229,-0.2,372.0999],[115.5343,-0.1886,423.8502],[115.5375,-0.1828,467.4236],[115.5422,-0.1892,410.2448],[115.5489,-0.1919,433.3352],[115.5865,-0.1906,268.9495]]]]}}