{"type":"Feature","properties":{"GID_3":"IDN.11.9.14_1","GID_0":"IDN","country":"Indonesia","GID_1":"IDN.11_1","province":"JawaTimur","NL_NAME_1":"NA","GID_2":"IDN.11.9_1","county":"Jombang","NL_NAME_2":"NA","city":"Ngusikan","VARNAME_3":"NA","NL_NAME_3":"NA","TYPE_3":"Kecamatan","ENGTYPE_3":"Sub-district","CC_3":"3517171","HASC_3":"NA","name":"Ngusikan.city"},
"geometry":{"type": "MultiPolygon","coordinates": [[[[112.3221,-7.4493,22.1296],[112.3244,-7.457,23.8114],[112.3283,-7.4571,22.0241],[112.3329,-7.4539,21.7601],[112.3343,-7.447,25.149],[112.3379,-7.4474,26.3528],[112.3408,-7.4407,24.3421],[112.346,-7.4415,25.0103],[112.3476,-7.437,24.2352],[112.3412,-7.4361,24.6389],[112.3447,-7.4216,32.5288],[112.3464,-7.4201,28.5059],[112.3492,-7.4209,26.966],[112.3467,-7.4159,27.7526],[112.3471,-7.4101,27.8844],[112.3455,-7.4096,28.6741],[112.3483,-7.3987,35.727],[112.3371,-7.3805,68.8346],[112.3352,-7.3702,110.2936],[112.337,-7.3613,77.5635],[112.3447,-7.3535,92.4115],[112.3432,-7.3489,64.4706],[112.3412,-7.3484,66.0999],[112.3448,-7.3475,68.0745],[112.344,-7.3461,74.1474],[112.3457,-7.345,55.3156],[112.3442,-7.3446,74.1474],[112.3355,-7.3457,83.9189],[112.336,-7.347,67.2103],[112.3383,-7.3466,73.3237],[112.3375,-7.3507,72.9357],[112.3354,-7.3495,63.9898],[112.3296,-7.3516,71.6811],[112.3293,-7.3477,55.2938],[112.3281,-7.348,63.5279],[112.3289,-7.3459,62.1083],[112.3343,-7.347,62.6733],[112.335,-7.3459,78.1491],[112.3331,-7.3438,76.1204],[112.3302,-7.3438,73.9844],[112.2896,-7.3589,93.3866],[112.2736,-7.3572,88.6148],[112.2735,-7.3603,77.0389],[112.2705,-7.3645,82.1149],[112.2707,-7.3682,88.8781],[112.28,-7.3839,88.3959],[112.2797,-7.3893,68.0793],[112.2822,-7.3873,96.0114],[112.2809,-7.3863,80.9181],[112.283,-7.3833,101.0215],[112.2852,-7.3828,132.1695],[112.2871,-7.3838,108.7749],[112.2859,-7.3857,100.529],[112.2885,-7.3873,112.68],[112.2917,-7.3883,97.9298],[112.2936,-7.3865,147.6833],[112.2942,-7.3905,105.3672],[112.2984,-7.3926,95.7795],[112.2996,-7.3966,63.9483],[112.3005,-7.3934,76.8519],[112.3053,-7.3942,72.3139],[112.3112,-7.398,60.1354],[112.3147,-7.3952,61.1479],[112.3184,-7.3959,53.0778],[112.3183,-7.4007,42.829],[112.3148,-7.4043,44.2009],[112.3158,-7.4065,40.8786],[112.3137,-7.4187,28.037],[112.3182,-7.4182,28.4951],[112.3174,-7.4201,27.4241],[112.3243,-7.4209,25.8339],[112.3244,-7.4298,25.6117],[112.328,-7.4301,24.0015],[112.3269,-7.4347,24.3509],[112.3223,-7.434,24.7007],[112.3219,-7.4353,25.407],[112.3195,-7.4461,24.3995],[112.3221,-7.4493,22.1296]]]]}}