{"type":"Feature","properties":{"GID_3":"IDN.10.12.4_1","GID_0":"IDN","country":"Indonesia","GID_1":"IDN.10_1","province":"JawaTengah","NL_NAME_1":"NA","GID_2":"IDN.10.12_1","county":"Kebumen","NL_NAME_2":"NA","city":"Ayah","VARNAME_3":"NA","NL_NAME_3":"NA","TYPE_3":"Kecamatan","ENGTYPE_3":"Sub-district","CC_3":"3305010","HASC_3":"NA","name":"Ayah.city"},
"geometry":{"type": "MultiPolygon","coordinates": [[[[109.4508,-7.7562,148.625],[109.4525,-7.7433,213.4462],[109.4483,-7.7402,205.5188],[109.4469,-7.7343,226.6944],[109.4453,-7.734,245.3286],[109.4402,-7.7234,316.0964],[109.4431,-7.72,341.3517],[109.4505,-7.7205,225.7463],[109.4517,-7.7182,225.5843],[109.4565,-7.7155,296.8005],[109.4547,-7.71,319.2548],[109.4592,-7.7055,332.1906],[109.4556,-7.6975,342.0452],[109.4514,-7.6964,331.0505],[109.448,-7.6839,335.5158],[109.4572,-7.6789,346.485],[109.4507,-7.6772,335.7263],[109.4436,-7.6687,204.3079],[109.4329,-7.6661,39.5749],[109.4289,-7.6665,16.1623],[109.4211,-7.6645,8.9914],[109.4215,-7.6631,8.9914],[109.4119,-7.6616,7.4515],[109.4127,-7.6577,3.5288],[109.4112,-7.654,1.7792],[109.4159,-7.6506,2.762],[109.4165,-7.6435,8.6814],[109.4156,-7.6444,8.6814],[109.4147,-7.648,4.8952],[109.4079,-7.6491,7.6365],[109.4071,-7.6513,1.7017],[109.4051,-7.6481,3.2369],[109.4041,-7.6515,1.7939],[109.4022,-7.6498,1.6945],[109.4033,-7.6467,5.6266],[109.4017,-7.6464,2.5464],[109.3991,-7.6494,3.1683],[109.3961,-7.647,5.7429],[109.3945,-7.6481,11.1858],[109.3921,-7.6472,3.532],[109.3926,-7.6447,2.7316],[109.3908,-7.6443,6.8682],[109.389,-7.6458,1.416],[109.39,-7.6498,8.4179],[109.3869,-7.6514,8.5651],[109.3848,-7.6506,4.5494],[109.3835,-7.6531,8.2103],[109.3895,-7.6581,6.4092],[109.3831,-7.6652,2.5457],[109.3854,-7.6707,2.2976],[109.39,-7.6688,7.4669],[109.3917,-7.6693,11.8091],[109.3917,-7.6723,7.2496],[109.3866,-7.6731,1.8824],[109.3875,-7.6807,1.2734],[109.3796,-7.6867,8.2788],[109.3845,-7.6909,4.1521],[109.3862,-7.6875,1.5208],[109.3876,-7.6876,2.6367],[109.3955,-7.6965,2.0118],[109.3952,-7.6986,3.3698],[109.3906,-7.7021,4.6321],[109.3875,-7.7147,1.7436],[109.3884,-7.72,2.4421],[109.3942,-7.7213,0.0],[109.392,-7.7257,0.0],[109.3937,-7.7281,29.9168],[109.3913,-7.7297,36.2809],[109.3896,-7.7356,69.718],[109.3876,-7.7363,0.0],[109.3881,-7.7456,0.0],[109.3863,-7.751,0.0],[109.3877,-7.7556,5.5013],[109.3915,-7.7546,3.9504],[109.3943,-7.7575,3.8999],[109.3969,-7.7571,29.9431],[109.398,-7.7637,1.2544],[109.4001,-7.7626,66.2199],[109.4092,-7.7659,68.2151],[109.4128,-7.7703,0.0],[109.4105,-7.7749,1.4407],[109.4121,-7.7764,0.0],[109.4167,-7.7712,21.4544],[109.4209,-7.7704,10.2443],[109.4306,-7.7723,12.9386],[109.4344,-7.7758,0.3807],[109.4343,-7.7742,25.6353],[109.437,-7.7723,9.2926],[109.4361,-7.7699,4.519],[109.4375,-7.7676,4.2714],[109.4408,-7.7663,0.0],[109.4443,-7.7683,0.0],[109.4491,-7.7653,70.8813],[109.4515,-7.7663,0.0],[109.4535,-7.7633,42.3327],[109.4508,-7.7562,148.625]]],
[[[109.4174,-7.6427,10.1857],[109.4171,-7.6432,8.6814],[109.4177,-7.6425,6.496],[109.4182,-7.6404,11.0313],[109.4177,-7.6405,11.0313],[109.4174,-7.6427,10.1857]]],
[[[109.419,-7.6386,17.2368],[109.4186,-7.6393,17.2368],[109.4187,-7.6398,11.0313],[109.4194,-7.6384,17.2368],[109.419,-7.6386,17.2368]]]]}}