{"type":"Feature","properties":{"GID_3":"IDN.1.20.14_1","GID_0":"IDN","country":"Indonesia","GID_1":"IDN.1_1","province":"Aceh","NL_NAME_1":"NA","GID_2":"IDN.1.20_1","county":"Pidie","NL_NAME_2":"NA","city":"MutiaraTimur","VARNAME_3":"NA","NL_NAME_3":"NA","TYPE_3":"Kecamatan","ENGTYPE_3":"Sub-district","CC_3":"1109081","HASC_3":"NA","name":"Mutiara_Timur.city"},
"geometry":{"type": "MultiPolygon","coordinates": [[[[95.9796,5.2253,53.6152],[95.9923,5.2264,33.8838],[95.9979,5.221,31.3343],[96.0032,5.2241,39.0879],[96.0039,5.2265,84.5459],[96.0007,5.2389,23.4709],[96.0052,5.2472,21.0584],[96.0047,5.2505,20.1568],[96.0003,5.2517,21.7431],[95.9996,5.2548,24.0568],[96.0017,5.2583,15.3167],[96.0089,5.2596,23.0177],[96.0085,5.2622,20.8736],[96.01,5.2639,16.1972],[96.0087,5.2695,14.963],[96.0124,5.2745,13.7458],[96.017,5.292,8.7502],[96.018,5.2942,7.8875],[96.0197,5.2943,7.8576],[96.02,5.2971,8.4749],[96.0182,5.2984,7.2645],[96.0105,5.3006,15.6472],[96.0085,5.2949,11.6308],[96.0043,5.2947,15.5389],[96.0075,5.2892,15.0019],[96.0,5.2909,18.7684],[96.0002,5.2868,16.7373],[96.0036,5.2869,18.0172],[96.0014,5.2845,20.5723],[95.9968,5.2827,17.0569],[95.9926,5.284,17.1155],[95.9876,5.2778,17.4021],[95.9806,5.2747,19.3833],[95.9737,5.2755,14.9507],[95.9725,5.2704,18.1988],[95.9674,5.2697,18.202],[95.962,5.262,26.3586],[95.9618,5.2578,20.7264],[95.9647,5.2594,22.13],[95.9653,5.2582,22.6797],[95.9623,5.255,28.397],[95.9639,5.2507,25.4771],[95.9591,5.2469,31.588],[95.9608,5.2351,41.4883],[95.9575,5.2311,37.7871],[95.9576,5.2278,48.6415],[95.9675,5.2296,68.6352],[95.9774,5.2278,49.3725],[95.9796,5.2253,53.6152]]]]}}