{"type":"Feature","properties":{"GID_3":"IDN.21.6.16_1","GID_0":"IDN","country":"Indonesia","GID_1":"IDN.21_1","province":"NusaTenggaraTimur","NL_NAME_1":"NA","GID_2":"IDN.21.6_1","county":"Kupang","NL_NAME_2":"NA","city":"KupangBarat","VARNAME_3":"NA","NL_NAME_3":"NA","TYPE_3":"Kecamatan","ENGTYPE_3":"Sub-district","CC_3":"5303110","HASC_3":"NA","name":"Kupang_Barat.city"},
"geometry":{"type": "MultiPolygon","coordinates": [[[[123.5298,-10.3302,2.1548],[123.5459,-10.3277,7.9648],[123.5493,-10.3311,0.45],[123.5542,-10.333,0.0],[123.5646,-10.3325,2.8948],[123.5632,-10.3219,15.9838],[123.5659,-10.3138,24.8456],[123.5677,-10.3126,38.9387],[123.5618,-10.3048,31.8845],[123.5652,-10.3055,36.2641],[123.5696,-10.3023,41.3503],[123.5737,-10.3043,49.3082],[123.5771,-10.2984,58.3922],[123.5839,-10.2961,63.894],[123.5836,-10.2913,68.5612],[123.5855,-10.2888,73.6684],[123.5838,-10.2743,141.1785],[123.5804,-10.2617,262.5207],[123.5744,-10.2501,230.0331],[123.5707,-10.2465,232.061],[123.5785,-10.2243,208.8613],[123.5755,-10.2251,231.5731],[123.5741,-10.2171,188.0345],[123.572,-10.218,202.0237],[123.57,-10.224,203.6592],[123.5661,-10.2264,220.7199],[123.5569,-10.2275,173.2654],[123.5525,-10.2204,133.7751],[123.5484,-10.2186,108.4277],[123.5479,-10.2159,97.916],[123.5342,-10.2083,75.8975],[123.5312,-10.2112,44.6929],[123.5284,-10.2098,18.427],[123.528,-10.2144,22.6657],[123.5255,-10.2176,20.6726],[123.5234,-10.2173,1.0958],[123.5232,-10.2157,0.0],[123.5225,-10.2162,0.0],[123.5229,-10.2182,3.6807],[123.5196,-10.2193,1.1306],[123.5186,-10.2176,0.0],[123.5186,-10.2197,14.3581],[123.4888,-10.2241,0.5865],[123.4891,-10.2489,1.0449],[123.501,-10.2738,17.6316],[123.4977,-10.2763,2.2828],[123.4966,-10.2829,10.0771],[123.4905,-10.2888,8.1891],[123.4943,-10.2934,6.4329],[123.4917,-10.2932,3.8631],[123.4924,-10.2944,6.4329],[123.4897,-10.296,2.795],[123.4879,-10.2945,0.0],[123.4855,-10.2962,0.0],[123.4853,-10.2977,2.4048],[123.4872,-10.2986,5.5201],[123.4817,-10.3035,0.0],[123.4808,-10.3085,1.1964],[123.4764,-10.3167,3.7621],[123.4674,-10.3216,3.5519],[123.4632,-10.326,0.0],[123.4622,-10.3313,1.4735],[123.465,-10.3392,4.7336],[123.4561,-10.3481,18.5653],[123.456,-10.3537,12.9258],[123.4585,-10.3574,4.5468],[123.4651,-10.3603,0.6687],[123.486,-10.3558,3.4109],[123.4924,-10.352,0.0],[123.4923,-10.3483,3.4969],[123.4943,-10.3501,0.0],[123.4992,-10.3464,4.1119],[123.5145,-10.3403,3.6534],[123.5298,-10.3302,2.1548]]]]}}