{"type":"Feature","properties":{"GID_2":"IDN.11.5_1","GID_0":"IDN","country":"Indonesia","GID_1":"IDN.11_1","province":"JawaTimur","NL_NAME_1":"NA","county":"Bojonegoro","VARNAME_2":"NA","NL_NAME_2":"NA","TYPE_2":"Kabupaten","ENGTYPE_2":"Regency","CC_2":"3522","HASC_2":"ID.JI.BJ","name":"Bojonegoro.county"},
"geometry":{"type": "MultiPolygon","coordinates": [[[[111.797,-7.4613,836.2872],[111.8004,-7.4611,794.045],[111.8058,-7.4539,759.2307],[111.8145,-7.451,502.1965],[111.821,-7.4395,365.5955],[111.8446,-7.4398,301.1624],[111.8616,-7.4359,293.0647],[111.8679,-7.4393,309.3865],[111.8776,-7.441,289.4602],[111.8824,-7.4374,311.2955],[111.8939,-7.4377,282.8602],[111.9054,-7.4333,333.8622],[111.923,-7.4355,378.1712],[111.9346,-7.4404,361.3018],[111.9404,-7.4401,321.8834],[111.9589,-7.4276,315.5482],[111.9572,-7.425,304.7077],[111.9577,-7.4183,275.9195],[111.9464,-7.4112,211.2962],[111.9424,-7.411,181.0449],[111.9415,-7.4092,166.858],[111.9432,-7.4091,163.4894],[111.9424,-7.4073,165.7862],[111.9437,-7.4061,166.5478],[111.9507,-7.4074,197.6609],[111.958,-7.4132999999999996,285.418],[111.9634,-7.4089,168.1666],[111.9678,-7.4085,191.2806],[111.9713,-7.405,233.6257],[111.9772,-7.4047,243.446],[111.9784,-7.4068,280.6259],[111.984,-7.4074,350.5349],[111.9987,-7.4034,286.2654],[112.0125,-7.4057,263.7735],[112.0197,-7.4098,285.2886],[112.0202,-7.3999,193.46],[112.0242,-7.3956,217.8929],[112.0282,-7.3971,204.5583],[112.0298,-7.4002,203.3561],[112.0352,-7.4018,184.2477],[112.0479,-7.3996,184.3571],[112.0463,-7.3938,213.0651],[112.0698,-7.3967,209.9063],[112.0713,-7.3914,170.543],[112.0754,-7.3879,171.507],[112.0756,-7.384,168.6711],[112.0802,-7.384,171.8231],[112.0815,-7.3825,173.0655],[112.0861,-7.3759,126.7578],[112.086,-7.3694,114.0089],[112.0893,-7.3685,104.5468],[112.0879,-7.3634,102.2806],[112.0894,-7.3616,94.0345],[112.089,-7.3585,92.8619],[112.0845,-7.3566,87.5112],[112.0849,-7.3543,81.1901],[112.0861,-7.3545,81.1901],[112.085,-7.3503,84.9646],[112.0798,-7.3468,76.882],[112.0767,-7.3409,72.8581],[112.0767,-7.3366,74.6836],[112.0726,-7.3335,70.2891],[112.0748,-7.3253,65.2525],[112.0783,-7.3242,62.5373],[112.0771,-7.3133,61.6354],[112.0797,-7.3134,66.1269],[112.0841,-7.3057,59.8117],[112.0858,-7.3078,59.0424],[112.09,-7.304,56.6705],[112.0873,-7.3029,54.1201],[112.09,-7.2981,52.6416],[112.0853,-7.2884,49.7516],[112.089,-7.287,47.0493],[112.0862,-7.2835,47.0715],[112.0912,-7.2822,48.0942],[112.0901,-7.2783,51.0965],[112.0932,-7.2731,57.0751],[112.0919,-7.2721,47.5253],[112.0944,-7.2693,44.0662],[112.0922,-7.2667,40.9608],[112.0876,-7.267,38.7229],[112.0869,-7.2622,41.035],[112.0853,-7.2624,41.7152],[112.0844,-7.2596,42.7707],[112.0853,-7.2574,40.2027],[112.0839,-7.255,38.0122],[112.0881,-7.253,37.0955],[112.0839,-7.25,40.2451],[112.0869,-7.2472,38.8604],[112.0856,-7.2446,36.545],[112.0871,-7.2444,36.9992],[112.087,-7.2424,35.2998],[112.085,-7.2424,38.3116],[112.0873,-7.2417,35.2998],[112.0876,-7.239,34.3808],[112.0895,-7.2389,37.6713],[112.0883,-7.2377,35.3923],[112.0891,-7.2307,36.2925],[112.0871,-7.2297,35.0704],[112.0895,-7.2294,34.292],[112.0913,-7.2256,34.076],[112.0933,-7.2248,35.6577],[112.0926,-7.223,34.5014],[112.0966,-7.2284,29.4134],[112.1069,-7.2236,27.301],[112.1061,-7.2208,31.3997],[112.1092,-7.2206,32.3516],[112.1099,-7.2185,33.4535],[112.113,-7.2172,31.1218],[112.1138,-7.2131,29.2575],[112.1184,-7.2121,26.022],[112.1171,-7.2071,23.1619],[112.1211,-7.2056,27.1739],[112.1192,-7.2045,22.0386],[112.1207,-7.2042,23.6031],[112.1202,-7.1987,24.481],[112.1234,-7.193,22.3296],[112.1224,-7.1879,19.5988],[112.1263,-7.1834,24.1894],[112.13,-7.1837,17.4018],[112.133,-7.1753,21.1347],[112.1341,-7.1757,14.4824],[112.1366,-7.1649,14.5044],[112.1409,-7.1631,13.056],[112.1409,-7.1614,14.4397],[112.1428,-7.1617,14.0704],[112.143,-7.1575,15.458],[112.1513,-7.1582,12.2441],[112.1517,-7.1507,11.4305],[112.1545,-7.1509,11.3374],[112.1576,-7.1421,21.8812],[112.1601,-7.1417,21.0075],[112.162,-7.1197,17.4488],[112.1656,-7.1185,16.9298],[112.1658,-7.1171,12.9899],[112.164,-7.1151,10.4228],[112.1601,-7.1159,9.0248],[112.1545,-7.1197,16.6048],[112.1533,-7.1166,11.7975],[112.1545,-7.1101,8.0],[112.1461,-7.107,8.0],[112.1469,-7.1051,10.501],[112.1518,-7.1032,8.3414],[112.1506,-7.1007,8.0],[112.1419,-7.1047,9.4126],[112.1302,-7.0968,8.0],[112.1273,-7.0986,8.8504],[112.1268,-7.1068,8.5158],[112.1225,-7.1082,9.6829],[112.1193,-7.1038,12.6427],[112.1176,-7.0965,12.1404],[112.1237,-7.0923,8.3919],[112.125,-7.09,9.4724],[112.1242,-7.0879,11.7378],[112.1155,-7.0897,11.4056],[112.1077,-7.0864,8.5],[112.1009,-7.0886,10.8438],[112.0856,-7.0856,8.5],[112.0841,-7.0812,9.8158],[112.0843,-7.068,12.899],[112.0824,-7.0654,10.2403],[112.0649,-7.0724,8.5],[112.0549,-7.0726,14.5489],[112.0513,-7.077,8.5],[112.0483,-7.0769,10.2415],[112.0415,-7.0821,12.4338],[112.0394,-7.0807,12.4298],[112.0398,-7.0784,10.0],[112.0467,-7.0754,11.4236],[112.0446,-7.0717,16.1305],[112.0423,-7.0704,10.5575],[112.0391,-7.071,8.5],[112.0348,-7.0772,11.5056],[112.0308,-7.0788,9.8047],[112.0276,-7.0706,9.548],[112.0232,-7.0677,10.3538],[112.0199,-7.0674,10.4098],[112.016,-7.0694,11.2372],[112.0154,-7.073,8.5],[112.0207,-7.0837,12.6076],[112.0201,-7.0886,12.1622],[112.0154,-7.0927,9.6911],[112.0101,-7.0942,10.2898],[112.0073,-7.0931,9.7559],[112.0054,-7.0946,10.2884],[112.0144,-7.1017,11.5745],[112.0133,-7.1036,9.7138],[112.0062,-7.1051,11.2477],[112.0034,-7.1082,10.6072],[112.0056,-7.1164,9.9191],[112.0108,-7.125,12.0593],[112.0104,-7.1303,10.764],[112.0063,-7.1315,13.0485],[112.0,-7.1257,10.072],[111.9975,-7.1215,11.5517],[111.9985,-7.1155,11.9138],[111.995,-7.1146,10.2755],[111.9937,-7.1276,18.3885],[111.9863,-7.1388,12.3786],[111.9837,-7.1488,9.0],[111.9827,-7.1549,13.3591],[111.9846,-7.1614,13.6649],[111.9836,-7.164,10.598],[111.9796,-7.1649,12.7018],[111.9772,-7.1617,15.7954],[111.9797,-7.1506,12.4748],[111.9767,-7.1436,16.0856],[111.9697,-7.1378,12.9581],[111.9632,-7.1372,9.0],[111.9549,-7.1322,11.3857],[111.9513,-7.1332,16.7571],[111.9426,-7.1547,16.2982],[111.9359,-7.1599,12.692],[111.9326,-7.16,11.7034],[111.9308,-7.1588,12.9679],[111.9302,-7.1543,10.2112],[111.9324,-7.1418,15.3075],[111.9313,-7.1335,14.2365],[111.9215,-7.1319,9.5],[111.9178,-7.1331,16.4743],[111.9122,-7.138,14.421],[111.9072,-7.138,13.3577],[111.899,-7.1366,14.4424],[111.8971,-7.1302,18.4115],[111.8937,-7.1285,37.6664],[111.8844,-7.1281,19.5526],[111.8827,-7.1269,20.4768],[111.8818,-7.1317,23.7387],[111.8791,-7.1326,20.8055],[111.8768,-7.1312,27.4443],[111.8768,-7.1328,16.165],[111.8678,-7.1264,16.7962],[111.8666,-7.1269,16.7962],[111.8683,-7.1289,17.1073],[111.8664,-7.129,16.7168],[111.8647,-7.1242,28.7756],[111.8631,-7.1288,20.942],[111.8601,-7.1302,17.6146],[111.8613,-7.1292,21.0585],[111.8592,-7.1281,17.8816],[111.8599,-7.1239,19.523],[111.858,-7.1237,19.523],[111.8566,-7.1258,19.2986],[111.8549,-7.1216,20.0352],[111.8563,-7.1148,18.6244],[111.8544,-7.1149,20.4469],[111.8387,-7.1041,29.9661],[111.8333,-7.0994,43.8127],[111.8339,-7.0979,40.2959],[111.8306,-7.0959,39.711],[111.8297,-7.0922,41.2019],[111.8261,-7.0907,47.2053],[111.8255,-7.0875,54.1663],[111.8183,-7.087,59.1396],[111.8142,-7.092,48.2261],[111.8153,-7.0858,54.9473],[111.8087,-7.0858,51.2783],[111.8077,-7.0877,40.749],[111.8066,-7.0872,40.749],[111.8075,-7.0856,51.7947],[111.8016,-7.0852,45.5039],[111.7975,-7.0869,56.2898],[111.7963,-7.0826,46.7133],[111.7858,-7.0793,47.373],[111.7789,-7.0805,53.6009],[111.7776,-7.0824,63.2131],[111.7367,-7.0849,187.4305],[111.7145,-7.082,220.2629],[111.7105,-7.0769,230.1759],[111.704,-7.0754,230.3176],[111.6975,-7.0656,245.978],[111.695,-7.0663,196.5143],[111.6923,-7.0635,189.0526],[111.6948,-7.0541,182.1493],[111.6924,-7.0549,210.817],[111.6902,-7.0528,178.8328],[111.6872,-7.0539,198.6841],[111.6768,-7.0486,222.9367],[111.6741,-7.0499,244.8925],[111.6747,-7.0454,187.3906],[111.673,-7.0448,187.3906],[111.6718,-7.0406,172.5347],[111.6601,-7.0392,177.2918],[111.6558,-7.0262,164.4399],[111.6575,-7.0143,169.234],[111.6539,-7.0102,151.0694],[111.6526,-7.0002,144.6315],[111.6467,-6.9967,169.3573],[111.6384,-6.9957,163.578],[111.6285,-6.9919,228.9523],[111.6243,-6.9897,177.4467],[111.622,-6.9863,161.889],[111.6221,-6.9892,163.9606],[111.6171,-6.9946,235.6492],[111.615,-7.0024,183.5651],[111.6154,-7.0072,167.6208],[111.613,-7.0107,99.8017],[111.6152,-7.0169,92.4518],[111.6133,-7.0246,85.8939],[111.616,-7.0322,85.2222],[111.6134,-7.035,89.591],[111.6141,-7.0375,93.2966],[111.6163,-7.0375,84.3118],[111.6165,-7.0408,102.5717],[111.6186,-7.0401,86.9466],[111.6173,-7.0431,81.517],[111.6194,-7.0468,83.2214],[111.6173,-7.0472,74.4975],[111.618,-7.0501,74.0679],[111.6223,-7.0507,73.7636],[111.6217,-7.0534,68.9301],[111.6253,-7.0529,72.9896],[111.6259,-7.0548,57.9298],[111.6275,-7.0539,86.5057],[111.6275,-7.0554,83.2239],[111.6249,-7.0561,69.4028],[111.625,-7.0593,79.7522],[111.6298,-7.0593,76.9147],[111.628,-7.0621,61.3146],[111.6284,-7.0669,62.9515],[111.6256,-7.0709,55.4364],[111.6282,-7.0754,53.7436],[111.6258,-7.0728,56.4564],[111.6246,-7.0755,51.9079],[111.624,-7.0739,51.5393],[111.6216,-7.0755,49.0828],[111.619,-7.0735,52.9486],[111.6144,-7.0786,50.241],[111.6163,-7.0823,43.7644],[111.6125,-7.0822,46.5565],[111.6126,-7.0842,44.0141],[111.6143,-7.085,40.581],[111.6129,-7.0873,41.5832],[111.615,-7.0908,42.5566],[111.6148,-7.0961,41.7375],[111.6168,-7.0976,38.8663],[111.6138,-7.0989,40.5384],[111.618,-7.1068,36.4911],[111.6218,-7.1086,41.4917],[111.6203,-7.1103,40.8279],[111.6133,-7.1107,38.5383],[111.6124,-7.1147,36.469],[111.6153,-7.1167,36.3759],[111.6128,-7.1203,36.1898],[111.6135,-7.1226,35.2564],[111.6115,-7.1214,33.6281],[111.6116,-7.1255,35.2852],[111.6075,-7.1267,31.5871],[111.6076,-7.1285,30.5412],[111.6062,-7.1277,32.4801],[111.6072,-7.1313,32.4868],[111.6092,-7.1322,29.8665],[111.6077,-7.1371,31.5422],[111.6111,-7.1355,30.9213],[111.6098,-7.1382,31.4938],[111.6121,-7.1384,31.6403],[111.6118,-7.1407,31.0325],[111.6089,-7.1395,30.2913],[111.6106,-7.1433,30.5983],[111.6082,-7.1421,29.3962],[111.6058,-7.1433,28.807],[111.607,-7.1468,21.6703],[111.6013,-7.1446,24.051],[111.5985,-7.1454,29.6763],[111.5986,-7.1552,27.4004],[111.5896,-7.1622,23.0356],[111.5851,-7.1692,22.4525],[111.5837,-7.1754,20.5],[111.5873,-7.1855,20.5],[111.5758,-7.1883,25.058],[111.5681,-7.186,26.8463],[111.566,-7.1871,26.1745],[111.5639,-7.1906,31.5641],[111.5692,-7.1989,21.0],[111.5659,-7.2075,25.4121],[111.5589,-7.2062,25.1601],[111.555,-7.2017,22.0],[111.549,-7.2053,23.9759],[111.5433,-7.2136,27.2916],[111.5367,-7.2158,32.6859],[111.5368,-7.2183,33.3231],[111.5432,-7.2242,30.8671],[111.5423,-7.2272,26.0374],[111.5281,-7.2273,30.1755],[111.5224,-7.2372,25.6368],[111.5134,-7.2389,24.5],[111.5017,-7.2485,27.76],[111.48779999999999,-7.2431,31.076],[111.4855,-7.2509,35.8235],[111.491,-7.2582,27.6226],[111.4899,-7.2607,29.7157],[111.4867,-7.2608,27.3799],[111.4772,-7.252,28.4363],[111.474,-7.2541,27.8156],[111.4691,-7.2623,41.866],[111.4655,-7.2633,33.4109],[111.4601,-7.2618,28.877],[111.4556,-7.2581,32.4342],[111.4564,-7.2497,36.1483],[111.4517,-7.2481,29.0755],[111.4514,-7.2742,41.7114],[111.4474,-7.2756,32.4163],[111.4425,-7.2674,48.3396],[111.4385,-7.269,30.3232],[111.4391,-7.2738,33.5585],[111.4444,-7.2786,39.3534],[111.4423,-7.2835,40.864],[111.4422,-7.2888,39.3118],[111.4376,-7.293,29.5],[111.4301,-7.3044,31.0794],[111.4246,-7.3071,35.9392],[111.4237,-7.3103,37.7662],[111.426,-7.3127,41.6561],[111.434,-7.3151,35.4685],[111.4413,-7.3154,35.9957],[111.4474,-7.3135,37.3322],[111.4577,-7.322,32.2327],[111.4574,-7.3245,34.5093],[111.4494,-7.3306,36.0574],[111.4462,-7.3374,48.3146],[111.4508,-7.3405,41.8576],[111.4602,-7.3409,37.6467],[111.4628,-7.3452,34.9134],[111.4593,-7.3466,40.7312],[111.4525,-7.3431,40.3641],[111.4457,-7.3452,35.3504],[111.4418,-7.3501,45.746],[111.4444,-7.361,41.193],[111.4469,-7.3607,38.1098],[111.4501,-7.3552,51.0661],[111.4573,-7.352,38.0738],[111.4622,-7.3571,36.5514],[111.4618,-7.3623,36.1481],[111.4672,-7.3619,59.9604],[111.4665,-7.3599,57.0316],[111.4721,-7.3574,69.1413],[111.4758,-7.3596,80.7852],[111.4852,-7.3582,79.1021],[111.5014,-7.3633,129.8384],[111.5059,-7.3617,125.2275],[111.5135,-7.3629,125.988],[111.5194,-7.3661,138.3889],[111.5235,-7.3715,149.9968],[111.5279,-7.3722,150.9967],[111.5404,-7.3694,169.8787],[111.543,-7.3665,146.004],[111.5597,-7.3635,164.8868],[111.5613,-7.3584,162.3357],[111.5632,-7.3576,157.5787],[111.5665,-7.3599,143.8398],[111.5671,-7.3553,153.2323],[111.5749,-7.3486,209.7421],[111.5801,-7.3547,163.9096],[111.5835,-7.3529,168.3483],[111.5917,-7.3571,168.7193],[111.5927,-7.3591,166.0947],[111.5962,-7.3589,170.6819],[111.6049,-7.3636,165.185],[111.6101,-7.3678,161.7041],[111.6113,-7.3706,169.0963],[111.6138,-7.3698,176.7582],[111.615,-7.3714,165.6708],[111.6144,-7.3758,151.4732],[111.6163,-7.3794,169.7839],[111.6235,-7.3822,140.8262],[111.628,-7.3879,129.6899],[111.6547,-7.3991,143.7928],[111.6845,-7.4166,201.334],[111.7109,-7.4366,139.9685],[111.7162,-7.4429,150.0981],[111.7267,-7.4486,163.55],[111.7373,-7.4509,209.8736],[111.7459,-7.4548,223.2982],[111.7633,-7.4668,287.744],[111.7705,-7.4696,316.2242],[111.797,-7.4613,836.2872]]]]}}