{"type":"Feature","properties":{"GID_3":"IDN.20.10.5_1","GID_0":"IDN","country":"Indonesia","GID_1":"IDN.20_1","province":"NusaTenggaraBarat","NL_NAME_1":"NA","GID_2":"IDN.20.10_1","county":"Sumbawa","NL_NAME_2":"NA","city":"Empang","VARNAME_3":"NA","NL_NAME_3":"NA","TYPE_3":"Kecamatan","ENGTYPE_3":"Sub-district","CC_3":"5204140","HASC_3":"NA","name":"Empang.city"},
"geometry":{"type": "MultiPolygon","coordinates": [[[[117.9576,-8.9056,0.0],[117.958,-8.9047,0.0],[117.9569,-8.9036,38.2683],[117.9576,-8.9065,0.0],[117.9576,-8.9056,0.0]]],
[[[117.9828,-8.7475,2.698],[117.9547,-8.7481,1.7426],[117.9496,-8.7461,8.3803],[117.9468,-8.7477,3.7875],[117.9448,-8.7465,1.5937],[117.9432,-8.7475,2.4937],[117.9395,-8.7437,2.9358],[117.9271,-8.7395,7.6593],[117.9198,-8.75,21.3384],[117.9095,-8.759,66.2363],[117.9122,-8.768,26.2547],[117.9052,-8.7839,28.8521],[117.9049,-8.8041,204.6404],[117.9,-8.8177,85.637],[117.9035,-8.8231,83.5106],[117.9069,-8.8249,90.1147],[117.907,-8.8281,110.5798],[117.9095,-8.8281,103.4594],[117.9128,-8.8319,115.1015],[117.9109,-8.8328,123.0974],[117.9108,-8.8368,138.4221],[117.9057,-8.8426,178.8651],[117.9014,-8.8449,178.7946],[117.8979,-8.8542,241.3318],[117.8967,-8.8623,298.455],[117.8981,-8.8777,262.5334],[117.8943,-8.884,352.1476],[117.8925,-8.8908,428.9404],[117.8953,-8.9005,287.9249],[117.8986,-8.9018,159.7861],[117.9006,-8.9061,127.9306],[117.8996,-8.9143,74.0747],[117.9025,-8.9199,0.0],[117.9079,-8.9193,34.3195],[117.9096,-8.9206,8.3373],[117.9125,-8.9185,5.126],[117.9183,-8.9186,3.0044],[117.9233,-8.9165,0.0],[117.9249,-8.9103,0.0],[117.9352,-8.8991,4.0687],[117.9428,-8.8998,3.9311],[117.9474,-8.9058,3.1029],[117.9503,-8.9069,0.0],[117.9544,-8.906,25.3626],[117.9578,-8.9013,0.0],[117.9614,-8.8992,12.7464],[117.9658,-8.9013,0.0],[117.972,-8.8973,13.0146],[117.9808,-8.8948,0.0],[117.9827,-8.8929,22.7757],[117.9893,-8.8738,6.0863],[117.9994,-8.8649,0.0],[118.0034,-8.8573,1.934],[118.0075,-8.8543,13.1712],[118.0104,-8.8546,0.0],[118.0147,-8.8524,12.6543],[118.021,-8.8564,0.0],[118.0274,-8.8521,6.1683],[118.0298,-8.8554,14.7839],[118.0346,-8.855,1.6994],[118.0371,-8.8577,2.8594],[118.039,-8.8576,11.9533],[118.0444,-8.8558,8.9685],[118.0598,-8.8456,24.9885],[118.0703,-8.8412,25.9416],[118.0773,-8.8401,3.1521],[118.0803,-8.8406,0.0],[118.0889,-8.8463,4.1436],[118.0865,-8.8414,6.667],[118.0892,-8.8406,12.4721],[118.0899,-8.8367,21.7953],[118.099,-8.8247,54.2499],[118.1024,-8.8175,67.2155],[118.1101,-8.8147,105.7975],[118.1112,-8.8106,118.7231],[118.114,-8.8113,134.5334],[118.1168,-8.8052,132.5279],[118.1171,-8.8006,169.6316],[118.1201,-8.7947,223.7148],[118.1184,-8.7924,231.7718],[118.1203,-8.7917,243.4095],[118.1204,-8.789,258.902],[118.1247,-8.7849,281.2295],[118.1234,-8.7809,304.7654],[118.1285,-8.7769,265.565],[118.1269,-8.7737,265.058],[118.1289,-8.7651,274.567],[118.1332,-8.7635,278.3909],[118.1338,-8.7579,275.7866],[118.1302,-8.7517,315.9702],[118.1386,-8.7335,550.3348],[118.143,-8.7186,640.0266],[118.1415,-8.7144,636.6343],[118.1359,-8.709,750.5665],[118.125,-8.7124,546.7435],[118.0962,-8.7061,324.638],[118.0966,-8.7077,340.7332],[118.0762,-8.7137,188.6872],[118.0728,-8.7161,175.1094],[118.0679,-8.7157,141.2441],[118.0598,-8.7224,72.985],[118.0513,-8.7254,48.4108],[118.0497,-8.7292,38.4081],[118.0455,-8.7281,29.1016],[118.0358,-8.7346,21.7972],[118.0284,-8.76,75.78],[118.0151,-8.7544,22.0939],[118.0171,-8.7498,24.494],[118.0135,-8.7478,9.5915],[117.9982,-8.7476,8.8942],[117.9935,-8.7445,9.6982],[117.991,-8.7448,6.8881],[117.9895,-8.7468,7.6623],[117.9828,-8.7475,2.698]]]]}}