{"type":"Feature","properties":{"GID_2":"IDN.25.2_1","GID_0":"IDN","country":"Indonesia","GID_1":"IDN.25_1","province":"SulawesiBarat","NL_NAME_1":"NA","county":"Mamasa","VARNAME_2":"NA","NL_NAME_2":"NA","TYPE_2":"Kabupaten","ENGTYPE_2":"Regency","CC_2":"7603","HASC_2":"ID.SR.MA","name":"Mamasa.county"},
"geometry":{"type": "MultiPolygon","coordinates": [[[[119.4389,-3.3006,1072.5735],[119.4348,-3.2946,1160.9548],[119.4368,-3.2886,1228.4111],[119.4361,-3.2776,1334.9915],[119.4306,-3.2632,1489.8837],[119.4223,-3.2526,1477.6539],[119.4212,-3.249,1535.9915],[119.4004,-3.2388,1714.1942],[119.3908,-3.2324,1553.6776],[119.3745,-3.2142,1263.5298],[119.3704,-3.2014,1131.6482],[119.3715,-3.1971,1047.4558],[119.3831,-3.1957,1213.7236],[119.3945,-3.1979,1398.563],[119.3993,-3.1921,1395.2672],[119.4093,-3.1847,1469.4023],[119.4237,-3.1784,1771.1757],[119.4301,-3.1725,1834.0896],[119.4386,-3.1836,1710.6082],[119.4471,-3.1844,1604.9929],[119.4585,-3.1823,1643.4338],[119.4639,-3.1886,1891.2227],[119.4756,-3.1911,1867.2311],[119.4838,-3.1878,1875.246],[119.4896,-3.1827,1706.7213],[119.5156,-3.1717,1844.6471],[119.5162,-3.1663,1892.3392],[119.5255,-3.1513,2025.2386],[119.5362,-3.1393,2211.9683],[119.5451,-3.1386,1940.3052],[119.5587,-3.1345,1722.4371],[119.5629,-3.1305,1602.9031],[119.567,-3.1295,1636.3723],[119.5719,-3.1314,1657.3265],[119.5796,-3.1309,1610.2876],[119.5867,-3.1252,1274.7155],[119.5978,-3.1279,1010.1417],[119.6066,-3.1192,549.9957],[119.6099,-3.1202,495.8031],[119.6144,-3.1246,500.0166],[119.6222,-3.1269,463.0491],[119.6267,-3.126,391.3775],[119.6307,-3.1284,440.431],[119.6328,-3.1272,334.2951],[119.635,-3.129,308.5323],[119.6365,-3.128,311.0415],[119.6316,-3.1246,417.2514],[119.6321,-3.1096,370.5988],[119.6278,-3.1024,368.8457],[119.6274,-3.0967,370.2197],[119.621,-3.088,376.5208],[119.619,-3.0792,360.2055],[119.6107,-3.0738,382.8721],[119.6069,-3.0666,380.3372],[119.6,-3.066,380.3978],[119.5948,-3.0633,454.4275],[119.5939,-3.0581,381.0357],[119.5866,-3.0484,467.6638],[119.5881,-3.0448,412.1901],[119.5853,-3.0413,459.2737],[119.5852,-3.0355,415.5221],[119.5802,-3.0349,514.8117],[119.5787,-3.031,447.4246],[119.5797,-3.0281,456.7869],[119.5765,-3.0263,469.8994],[119.577,-3.0183,452.4684],[119.575,-3.0124,458.123],[119.5717,-3.0051,470.467],[119.5685,-3.0038,495.3023],[119.5682,-3.0003,588.1104],[119.5655,-2.9972,518.9462],[119.5656,-2.9887,545.6946],[119.5692,-2.974,671.1112],[119.5721,-2.9721,720.744],[119.573,-2.9668,820.2627],[119.5752,-2.9643,847.8809],[119.5767,-2.9511,1316.5631],[119.5735,-2.9456,1479.2104],[119.5731,-2.9418,1561.9871],[119.569,-2.9362,1491.4204],[119.5687,-2.9265,1558.3386],[119.5566,-2.9208,1399.9518],[119.5543,-2.9134,1122.6768],[119.5548,-2.9035,1228.0905],[119.5507,-2.8978,1444.7231],[119.556,-2.8854,1708.5487],[119.563,-2.8801,1809.4012],[119.5688,-2.8704,2273.8994],[119.5679,-2.858,2291.5046],[119.5632,-2.8545,2280.7434],[119.5614,-2.8508,2139.5752],[119.5625,-2.8341,1889.3733],[119.5667,-2.8216,1915.5913],[119.5629,-2.817,1933.3483],[119.5615,-2.8121,1964.9208],[119.5651,-2.8064,1565.3513],[119.5732,-2.7752,2431.1567],[119.5757,-2.7708,2371.2371],[119.5845,-2.7646,2362.2407],[119.5844,-2.7625,2446.1604],[119.5788,-2.7582,2457.3071],[119.5779,-2.7553,2409.6018],[119.5786,-2.7515,2434.7695],[119.5835,-2.7501,2565.2148],[119.5834,-2.7476,2560.5352],[119.573,-2.7417,2317.8796],[119.5696,-2.7416,2437.4736],[119.5681,-2.7382,2242.562],[119.5693,-2.7323,2259.3452],[119.5528,-2.7285,2490.4585],[119.5428,-2.733,2500.6577],[119.5405,-2.736,2552.155],[119.5298,-2.7386,2563.3096],[119.5268,-2.742,2609.0896],[119.5094,-2.7389,2358.0466],[119.5007,-2.7426,2287.0942],[119.4942,-2.7395,2441.1931],[119.4849,-2.7405,2380.1326],[119.4789,-2.7463,2437.1431],[119.4797,-2.7501,2286.8323],[119.4579,-2.7622,2045.2063],[119.4477,-2.7676,2396.6577],[119.441,-2.7676,2336.1311],[119.4219,-2.7806,1948.6877],[119.4096,-2.7818,2072.7703],[119.3963,-2.7723,2642.4187],[119.3947,-2.769,2641.3877],[119.3896,-2.7676,2553.3867],[119.3769,-2.7469,2841.9321],[119.3684,-2.7481,2963.7532],[119.3493,-2.7441,2661.0591],[119.3353,-2.7357,2179.7112],[119.3317,-2.7352,2070.8276],[119.3279,-2.7371,1885.2113],[119.3149,-2.7304,1557.0374],[119.3102,-2.731,1362.5833],[119.3051,-2.729,1251.1285],[119.3024,-2.7228,1541.1902],[119.3025,-2.7167,1686.4183],[119.2982,-2.7084,1872.4147],[119.2847,-2.7073,1658.5735],[119.2735,-2.7099,1619.5858],[119.2699,-2.7081,1503.0872],[119.2636,-2.7111,1352.3616],[119.2539,-2.7129,1330.7885],[119.2507,-2.7109,1300.6832],[119.2413,-2.7134,1371.0979],[119.232,-2.7124,1452.5388],[119.2186,-2.6994,610.1997],[119.2184,-2.6914,451.1507],[119.2095,-2.6839,204.4077],[119.2074,-2.6777,336.7903],[119.2007,-2.6691,148.6057],[119.192,-2.6619,165.1895],[119.1826,-2.6599,234.1948],[119.1783,-2.6626,251.5117],[119.1729,-2.6604,223.9289],[119.1654,-2.6619,184.6485],[119.1612,-2.6709,266.1065],[119.152,-2.6718,336.3413],[119.1495,-2.6693,244.0205],[119.1434,-2.6685,170.4556],[119.1411,-2.6662,146.7816],[119.1386,-2.6617,140.8829],[119.1397,-2.659,177.7528],[119.1385,-2.6548,135.8518],[119.1308,-2.6587,124.8093],[119.1255,-2.659,142.0468],[119.1219,-2.6573,169.6299],[119.1212,-2.6596,210.2399],[119.118,-2.6597,249.6277],[119.117,-2.6623,183.9339],[119.112,-2.6635,231.9296],[119.1015,-2.6705,218.9392],[119.097,-2.6792,522.9311],[119.0912,-2.6837,685.5148],[119.0902,-2.6863,666.3328],[119.0856,-2.6881,584.8845],[119.0829,-2.6922,557.3923],[119.0808,-2.7024,648.8674],[119.0762,-2.7002,627.9537],[119.0696,-2.7017,818.0444],[119.0638,-2.7052,869.6925],[119.0612,-2.7046,803.6339],[119.0451,-2.7361,1548.8057],[119.0423,-2.739,1540.2177],[119.0424,-2.7442,1383.7522],[119.0398,-2.7474,1273.4255],[119.0397,-2.7514,1429.3527],[119.0286,-2.7495,1306.4487],[119.0246,-2.7504,1480.6859],[119.0239,-2.7581,1456.5208],[119.0184,-2.7631,1281.2012],[119.0193,-2.7669,1253.149],[119.013,-2.7751,1312.0038],[119.0134,-2.779,1242.5492],[119.0168,-2.7822,1183.3425],[119.016,-2.7851,1162.3394],[119.0211,-2.7969,1199.7856],[119.0204,-2.7994,1271.8357],[119.0239,-2.8016,1161.7559],[119.0251,-2.8061,1114.364],[119.0211,-2.8129,898.8702],[119.0227,-2.8166,622.8195],[119.023,-2.826,630.3079],[119.0216,-2.8399,697.9669],[119.0156,-2.8525,765.0301],[119.0108,-2.854,916.8116],[119.0154,-2.8631,1070.7708],[119.0138,-2.8709,1218.865],[119.0204,-2.8763,1314.1931],[119.0252,-2.8841,1347.5148],[119.0226,-2.8948,1417.3303],[119.0248,-2.9094,1279.7371],[119.0313,-2.9205,1292.3577],[119.0337,-2.9287,1328.1597],[119.0291,-2.9342,1358.9341],[119.0291,-2.9446,1476.1917],[119.0267,-2.9508,1535.1123],[119.0257,-2.9606,1590.5295],[119.0289,-2.9654,1472.1244],[119.0467,-2.9755,949.6721],[119.0522,-2.9804,937.1061],[119.0676,-2.9869,512.2014],[119.0691,-2.988,530.9885],[119.0695,-2.9939,598.3422],[119.0734,-2.9958,701.9733],[119.0762,-2.9953,771.7612],[119.095,-2.9999,628.4905],[119.0967,-3.0035,563.8196],[119.0939,-3.0072,487.2491],[119.09,-3.0078,581.8951],[119.0823,-3.0128,692.7086],[119.0833,-3.0281,561.8647],[119.0786,-3.0309,398.9187],[119.0755,-3.0394,370.2781],[119.0595,-3.0497,393.0934],[119.0589,-3.0563,296.5932],[119.0635,-3.0609,408.695],[119.0658,-3.0684,356.3806],[119.0625,-3.074,312.2693],[119.0669,-3.078,352.6104],[119.0671,-3.0805,326.9365],[119.0639,-3.086,224.1575],[119.0662,-3.0861,329.9976],[119.069,-3.0892,254.0696],[119.0671,-3.0985,228.1546],[119.0689,-3.1008,389.1947],[119.0667,-3.1038,211.3782],[119.0667,-3.1081,218.4774],[119.0706,-3.1071,194.9142],[119.0748,-3.1123,182.2159],[119.0812,-3.1131,321.0798],[119.0891,-3.1044,339.1271],[119.0979,-3.1054,451.0589],[119.1068,-3.0978,559.0936],[119.108,-3.0944,584.2738],[119.1124,-3.0927,592.435],[119.123,-3.0941,768.5076],[119.1317,-3.0982,888.1655],[119.1345,-3.1057,826.4158],[119.148,-3.1173,855.3646],[119.1611,-3.1129,890.593],[119.1694,-3.1055,772.9143],[119.1767,-3.1053,899.6129],[119.1809,-3.0988,753.1311],[119.1888,-3.0919,589.5554],[119.2105,-3.0789,971.6736],[119.2141,-3.074,1061.9564],[119.2238,-3.0724,1069.1721],[119.2239,-3.0876,688.4518],[119.2264,-3.0932,531.6722],[119.2538,-3.1265,653.7591],[119.2522,-3.1438,832.9914],[119.2562,-3.1658,1007.5568],[119.2647,-3.1765,1305.3105],[119.2798,-3.1854,1229.2461],[119.2889,-3.2013,1096.6301],[119.2895,-3.2122,1018.9076],[119.2928,-3.2226,998.23],[119.2895,-3.2325,793.8138],[119.2906,-3.2397,647.729],[119.2952,-3.2527,544.4862],[119.3015,-3.2575,696.9871],[119.3043,-3.2632,917.0032],[119.3118,-3.2641,1118.781],[119.3168,-3.2668,1239.811],[119.3234,-3.2742,873.317],[119.3364,-3.2804,1079.062],[119.3453,-3.289,1336.438],[119.352,-3.2892,1303.593],[119.3604,-3.2931,1218.0706],[119.3686,-3.2937,1063.1672],[119.3848,-3.3023,941.7722],[119.4016,-3.3064,925.5027],[119.4119,-3.3197,1310.5245],[119.4229,-3.3182,888.9214],[119.4327,-3.3227,1081.0962],[119.4321,-3.3248,1068.3376],[119.4356,-3.3312,1101.832],[119.438,-3.3323,1121.1077],[119.4381,-3.3348,1229.2002],[119.4408,-3.3361,1116.4377],[119.4402,-3.3383,1154.4531],[119.4429,-3.3375,1081.33],[119.4452,-3.3321,1036.166],[119.4343,-3.3159,836.3293],[119.4346,-3.3139,804.3774],[119.438,-3.3112,880.8431],[119.4396,-3.3054,970.5574],[119.4389,-3.3006,1072.5735]]]]}}