{"type":"Feature","properties":{"GID_3":"IDN.2.3.2_1","GID_0":"IDN","country":"Indonesia","GID_1":"IDN.2_1","province":"Bali","NL_NAME_1":"NA","GID_2":"IDN.2.3_1","county":"Buleleng","NL_NAME_2":"NA","city":"Buleleng","VARNAME_3":"NA","NL_NAME_3":"NA","TYPE_3":"Kecamatan","ENGTYPE_3":"Sub-district","CC_3":"5108060","HASC_3":"NA","name":"Buleleng.city"},
"geometry":{"type": "MultiPolygon","coordinates": [[[[115.027,-8.1671,9.0089],[115.029,-8.1695,6.5631],[115.0358,-8.1644,25.9139],[115.0393,-8.1644,46.8044],[115.04,-8.1661,50.0287],[115.0448,-8.1622,36.6149],[115.0479,-8.1626,39.3165],[115.0501,-8.1654,59.2622],[115.0567,-8.1609,53.756],[115.0567,-8.1568,35.6725],[115.0616,-8.1555,38.2636],[115.0596,-8.1525,30.3694],[115.0642,-8.1463,31.0725],[115.0616,-8.1419,15.8638],[115.0623,-8.1397,15.6576],[115.0719,-8.1353,29.6756],[115.0744,-8.1313,34.4924],[115.0835,-8.1312,46.1838],[115.0881,-8.1296,52.8618],[115.0907,-8.1302,58.5636],[115.0963,-8.1376,85.0062],[115.097,-8.1352,90.5509],[115.1051,-8.133,85.811],[115.1083,-8.1375,102.6305],[115.1066,-8.1403,116.7293],[115.1097,-8.1462,134.8247],[115.1125,-8.1483,146.7643],[115.119,-8.1474,144.8242],[115.1207,-8.1514,170.9249],[115.125,-8.1541,208.1272],[115.1269,-8.1508,178.7067],[115.125,-8.1496,183.5],[115.1255,-8.1444,147.4383],[115.1284,-8.1438,157.3464],[115.1403,-8.1524,222.454],[115.1406,-8.155,229.2578],[115.1448,-8.1538,255.1145],[115.1482,-8.1628,302.767],[115.1564,-8.1618,281.7739],[115.1572,-8.154,226.7059],[115.1546,-8.1481,214.7789],[115.1552,-8.1436,197.9794],[115.1525,-8.1437,192.7684],[115.1509,-8.1408,177.7093],[115.1522,-8.1405,177.7093],[115.1502,-8.1331,150.1936],[115.1482,-8.134,152.6342],[115.146,-8.1292,127.6188],[115.1398,-8.1258,123.3516],[115.1385,-8.1195,102.2747],[115.1346,-8.1152,89.9891],[115.1274,-8.1139,65.8055],[115.1249,-8.1061,41.886],[115.1225,-8.1051,45.3717],[115.1205,-8.0999,34.7156],[115.1202,-8.0928,19.9034],[115.1167,-8.0873,11.7354],[115.1178,-8.0831,8.8551],[115.1168,-8.0815,3.3565],[115.0943,-8.1012,1.1313],[115.0851,-8.1047,5.8952],[115.0778,-8.1098,4.9073],[115.0732,-8.1166,6.3548],[115.0652,-8.1216,3.5337],[115.0584,-8.1321,5.9833],[115.0513,-8.1382,0.9933],[115.0487,-8.144,3.2212],[115.0282,-8.1549,1.0849],[115.0242,-8.1618,4.044],[115.027,-8.1671,9.0089]]]]}}