{"type":"Feature","properties":{"GID_3":"IDN.11.2.22_1","GID_0":"IDN","country":"Indonesia","GID_1":"IDN.11_1","province":"JawaTimur","NL_NAME_1":"NA","GID_2":"IDN.11.2_1","county":"Banyuwangi","NL_NAME_2":"NA","city":"Tegaldlimo","VARNAME_3":"NA","NL_NAME_3":"NA","TYPE_3":"Kecamatan","ENGTYPE_3":"Sub-district","CC_3":"3510040","HASC_3":"NA","name":"Tegaldlimo.city"},
"geometry":{"type": "MultiPolygon","coordinates": [[[[114.3666,-8.5374,4.4057],[114.3568,-8.5352,1.6196],[114.353,-8.5322,7.1829],[114.348,-8.5187,10.3667],[114.3492,-8.5140999999999991,2.3756],[114.3371,-8.5122,9.5363],[114.3386,-8.496,13.8798],[114.3352,-8.4896,15.5804],[114.3298,-8.4909,16.7078],[114.3205,-8.4862,17.8147],[114.3119,-8.4842,20.0048],[114.3058,-8.4851,25.7199],[114.3029,-8.483,27.357],[114.3026,-8.4808,24.2073],[114.295,-8.478,24.2702],[114.282,-8.4841,31.4908],[114.2793,-8.4888,34.1674],[114.2757,-8.4872,34.6427],[114.2785,-8.497,42.2506],[114.278,-8.5032,36.4034],[114.2768,-8.5071,34.8962],[114.2683,-8.507,36.1381],[114.2673,-8.5307,27.2775],[114.273,-8.5328,26.8147],[114.2727,-8.5398,22.7342],[114.2768,-8.5511,21.0454],[114.2749,-8.5607,12.9669],[114.2798,-8.5667,11.5711],[114.2794,-8.5689,12.0717],[114.2833,-8.5701,9.4635],[114.2832,-8.5723,10.7002],[114.2863,-8.5743,14.6535],[114.2899,-8.5811,10.3379],[114.2891,-8.5838,11.3001],[114.291,-8.5877,15.042],[114.2884,-8.5922,2.542],[114.2884,-8.5963,10.008],[114.2913,-8.5999,7.8735],[114.2894,-8.6012,6.204],[114.2916,-8.6038,8.8465],[114.2928,-8.6145,14.5886],[114.3201,-8.6247,0.0],[114.3455,-8.6421,4.2715],[114.3637,-8.6613,1.262],[114.3732,-8.678,23.7869],[114.3733,-8.6835,13.8956],[114.375,-8.6862,20.2119],[114.3745,-8.6907,0.0],[114.3775,-8.6991,6.6763],[114.3718,-8.7176,10.2796],[114.3624,-8.7261,12.721],[114.3442,-8.7336,13.3929],[114.3421,-8.7379,5.6408],[114.3443,-8.7424,14.3343],[114.3697,-8.7507,3.9281],[114.3712,-8.7494,17.2856],[114.3812,-8.749,12.5712],[114.3906,-8.7522,7.1708],[114.4009,-8.7529,8.7521],[114.4187,-8.7492,17.7388],[114.4288,-8.7518,2.7512],[114.4455,-8.7528,11.5151],[114.478,-8.7605,11.0313],[114.4942,-8.7709,18.3618],[114.5051,-8.7755,8.2825],[114.5328,-8.7803,5.1838],[114.539,-8.7802,3.0031],[114.5695,-8.7726,12.1854],[114.5876,-8.7625,12.44],[114.5955,-8.7513,0.0],[114.5958,-8.7409,11.2671],[114.604,-8.7243,7.8652],[114.6048,-8.7158,17.3267],[114.5978,-8.7053,19.8747],[114.5955,-8.6975,3.4655],[114.5894,-8.6879,4.8378],[114.5868,-8.6869,20.2945],[114.5763,-8.6733,5.2017],[114.5693,-8.66,25.146],[114.5617,-8.6558,0.0],[114.5605,-8.6575,9.0295],[114.5543,-8.6568,19.842],[114.5483,-8.6591,2.5334],[114.543,-8.6591,7.5827],[114.5367,-8.6563,40.2073],[114.5305,-8.6559,4.6422],[114.5241,-8.6517,42.86],[114.5146,-8.6502,9.6174],[114.5069,-8.6406,7.4343],[114.5055,-8.6359,7.4608],[114.4964,-8.6347,47.7734],[114.4916,-8.6323,28.8865],[114.4809,-8.618,48.1792],[114.4727,-8.6177,0.0],[114.4653,-8.625,6.839],[114.4647,-8.629,0.0],[114.4579,-8.6385,9.3854],[114.4482,-8.639,16.127],[114.4392,-8.6306,18.3909],[114.4386,-8.6228,2.5187],[114.4325,-8.613,0.0],[114.4231,-8.6047,21.7823],[114.4184,-8.5857,0.0],[114.4079,-8.5691,0.0],[114.4081,-8.5562,0.0],[114.4022,-8.5454,11.8375],[114.4015,-8.5409,0.0],[114.4037,-8.5269,4.0327],[114.4093,-8.5186,21.0363],[114.4094,-8.5098,19.3433],[114.4045,-8.5007,19.4462],[114.3997,-8.4985,12.3202],[114.3975,-8.4951,6.2629],[114.3964,-8.487,14.1572],[114.3991,-8.4593,6.4999],[114.3914,-8.4494,0.0],[114.3857,-8.4467,43.229],[114.3831,-8.4474,26.7565],[114.3825,-8.4517,0.0],[114.3856,-8.4614,6.8031],[114.3881,-8.4814,0.0],[114.3849,-8.4924,11.9293],[114.3852,-8.5067,8.7045],[114.3757,-8.5329,1.1296],[114.3721,-8.5359,3.4451],[114.3666,-8.5374,4.4057]]]]}}