{"type":"Feature","properties":{"GID_3":"IDN.5.8.2_1","GID_0":"IDN","country":"Indonesia","GID_1":"IDN.5_1","province":"Bengkulu","NL_NAME_1":"NA","GID_2":"IDN.5.8_1","county":"Mukomuko","NL_NAME_2":"NA","city":"AirManjunto","VARNAME_3":"NA","NL_NAME_3":"NA","TYPE_3":"Kecamatan","ENGTYPE_3":"Sub-district","CC_3":"1706051","HASC_3":"NA","name":"Air_Manjunto.city"},
"geometry":{"type": "MultiPolygon","coordinates": [[[[101.1672,-2.5257,18.8378],[101.1687,-2.5278,20.872],[101.1752,-2.5285,18.9331],[101.1777,-2.5316,20.0485],[101.1787,-2.5265,26.8948],[101.1845,-2.5261,26.1528],[101.1848,-2.5243,29.9737],[101.1814,-2.5223,32.7658],[101.1811,-2.5195,29.7799],[101.1842,-2.5184,32.0088],[101.1843,-2.5145,34.1318],[101.1928,-2.5136,27.1607],[101.1988,-2.5099,43.3004],[101.2167,-2.4849,66.0781],[101.2161,-2.4797,62.8519],[101.2084,-2.472,43.4534],[101.1865,-2.465,31.7154],[101.1705,-2.4563,24.4737],[101.1689,-2.448,21.4234],[101.1668,-2.4515,19.4843],[101.1689,-2.4587,24.5905],[101.1525,-2.4614,18.1765],[101.1528,-2.4603,18.5947],[101.1483,-2.4614,16.1496],[101.1477,-2.46,16.6211],[101.1393,-2.4621,18.4381],[101.1279,-2.4616,19.2678],[101.1252,-2.4648,12.6114],[101.1262,-2.4723,13.1534],[101.1239,-2.4758,11.9567],[101.1274,-2.4868,17.5882],[101.1315,-2.4914,12.533],[101.1353,-2.5001,11.829],[101.1358,-2.5098,12.5687],[101.1398,-2.5174,11.7907],[101.1386,-2.527,14.7487],[101.1402,-2.5317,11.5],[101.1442,-2.5299,17.1903],[101.146,-2.5319,17.2691],[101.1588,-2.5318,12.2202],[101.1672,-2.5257,18.8378]]]]}}