{"type":"Feature","properties":{"GID_3":"IDN.9.24.22_1","GID_0":"IDN","country":"Indonesia","GID_1":"IDN.9_1","province":"JawaBarat","NL_NAME_1":"NA","GID_2":"IDN.9.24_1","county":"Sukabumi","NL_NAME_2":"NA","city":"GegerBitung","VARNAME_3":"NA","NL_NAME_3":"NA","TYPE_3":"Kecamatan","ENGTYPE_3":"Sub-district","CC_3":"3202160","HASC_3":"NA","name":"Geger_Bitung.city"},
"geometry":{"type": "MultiPolygon","coordinates": [[[[107.0431,-6.997,803.9597],[107.0381,-6.9893,720.8459],[107.033,-6.9872,680.7247],[107.0341,-6.9851,670.3578],[107.0323,-6.9812,651.6381],[107.0334,-6.9764,641.9396],[107.0368,-6.9748,647.0689],[107.0373,-6.9694,613.0639],[107.0411,-6.9653,611.2986],[107.0424,-6.9609,590.7653],[107.0333,-6.9596,587.012],[107.0327,-6.9582,579.796],[107.0311,-6.9595,578.5741],[107.0293,-6.9579,596.4196],[107.0299,-6.9567,596.4196],[107.022,-6.9505,566.3668],[107.0192,-6.9508,570.4721],[107.0171,-6.9542,564.0694],[107.0146,-6.9544,566.5062],[107.012,-6.9522,563.5513],[107.0116,-6.9541,561.6366],[107.01,-6.9542,561.6366],[107.0098,-6.9515,561.5366],[107.0079,-6.9502,560.1373],[107.009,-6.9494,559.5726],[107.005,-6.9445,560.0809],[107.0031,-6.9469,577.5519],[107.0015,-6.9461,562.7333],[106.9968,-6.9492,569.7433],[106.9943,-6.948,560.1505],[106.9934,-6.9501,608.8734],[106.9861,-6.9504,556.5587],[106.985,-6.9531,555.1725],[106.9774,-6.9543,543.9763],[106.9752,-6.9567,547.101],[106.974,-6.9558,542.3687],[106.9712,-6.957,541.684],[106.9711,-6.9584,544.0681],[106.9638,-6.9591,528.3328],[106.964,-6.9609,527.6256],[106.9601,-6.9634,540.2178],[106.9588,-6.9671,523.4662],[106.9564,-6.9671,524.1519],[106.9555,-6.9653,516.7007],[106.9534,-6.9685,516.8205],[106.959,-6.9709,520.3392],[106.9624,-6.97,550.6437],[106.9707,-6.9713,610.3442],[106.9728,-6.9743,595.3737],[106.9712,-6.9808,569.6991],[106.9724,-6.9812,569.6991],[106.9725,-6.9795,571.8014],[106.9758,-6.9803,568.2731],[106.9754,-6.9825,581.9829],[106.9773,-6.9832,592.707],[106.9761,-6.9886,636.1625],[106.9771,-6.9938,749.7947],[106.9708,-7.0001,845.2241],[106.9769,-7.0059,928.747],[106.9748,-7.0135,980.3971],[106.9846,-7.0144,1042.1915],[106.9906,-7.0187,1047.0236],[106.9949,-7.0285,1025.6208],[107.0017,-7.0306,1106.1476],[107.0075,-7.0367,1116.7151],[107.0121,-7.0356,1163.3739],[107.0225,-7.0373,1317.3699],[107.0282,-7.0445,1170.7212],[107.0388,-7.0434,1221.0359],[107.0394,-7.0374,1185.261],[107.0475,-7.0315,1230.9752],[107.0429,-7.0232,1257.6619],[107.0458,-7.0222,1179.8782],[107.049,-7.0178,1033.0459],[107.0494,-7.0147,1037.1984],[107.0471,-7.0116,1016.5767],[107.0497,-7.0048,858.8309],[107.0455,-7.0022,813.4125],[107.0431,-6.997,803.9597]]]]}}