{"type":"Feature","properties":{"GID_3":"IDN.11.7.12_1","GID_0":"IDN","country":"Indonesia","GID_1":"IDN.11_1","province":"JawaTimur","NL_NAME_1":"NA","GID_2":"IDN.11.7_1","county":"Gresik","NL_NAME_2":"NA","city":"Menganti","VARNAME_3":"NA","NL_NAME_3":"NA","TYPE_3":"Kecamatan","ENGTYPE_3":"Sub-district","CC_3":"3525040","HASC_3":"NA","name":"Menganti.city"},
"geometry":{"type": "MultiPolygon","coordinates": [[[[112.5923,-7.2347,6.8485],[112.5815,-7.2368,8.6357],[112.5714,-7.2364,6.9257],[112.5682,-7.2382,6.6036],[112.5609,-7.2482,5.9221],[112.5405,-7.2636,8.1229],[112.5324,-7.2679,8.6971],[112.5186,-7.2683,11.304],[112.5253,-7.284,9.7676],[112.533,-7.2937,10.1028],[112.5566,-7.3024,10.8635],[112.5579,-7.3065,13.02],[112.5631,-7.3119,16.0771],[112.5881,-7.3168,15.0087],[112.5979,-7.311,12.5928],[112.6155,-7.3132,8.9361],[112.6294,-7.3116,7.7481],[112.6287,-7.3013,18.6863],[112.6262,-7.3001,22.2727],[112.6287,-7.2896,31.8128],[112.6267,-7.2829,30.031],[112.6282,-7.2787,33.9874],[112.6264,-7.2772,25.7356],[112.6314,-7.2747,22.6924],[112.6323,-7.2617,20.9435],[112.6293,-7.2597,20.5007],[112.6262,-7.2613,20.4706],[112.6172,-7.2575,17.9561],[112.6179,-7.2527,15.3218],[112.6142,-7.2524,13.1098],[112.6146,-7.2482,10.4527],[112.6065,-7.2486,13.0238],[112.602,-7.2465,12.1246],[112.6065,-7.2404,4.6079],[112.6039,-7.2372,7.0328],[112.6046,-7.2333,3.5698],[112.5923,-7.2347,6.8485]]]]}}