{"type":"Feature","properties":{"GID_3":"IDN.10.5.14_1","GID_0":"IDN","country":"Indonesia","GID_1":"IDN.10_1","province":"JawaTengah","NL_NAME_1":"NA","GID_2":"IDN.10.5_1","county":"Boyolali","NL_NAME_2":"NA","city":"Sambi","VARNAME_3":"NA","NL_NAME_3":"NA","TYPE_3":"Kecamatan","ENGTYPE_3":"Sub-district","CC_3":"3309100","HASC_3":"NA","name":"Sambi.city"},
"geometry":{"type": "MultiPolygon","coordinates": [[[[110.7042,-7.5198,151.8866],[110.7071,-7.5207,148.1303],[110.7084,-7.5189,150.4182],[110.7109,-7.5195,152.5079],[110.7137,-7.5121,164.088],[110.719,-7.5107,141.9818],[110.7187,-7.5088,140.5],[110.7224,-7.5045,140.5],[110.7234,-7.4986,140.5],[110.7258,-7.499,140.5],[110.7264,-7.4976,140.696],[110.7266,-7.4925,143.9683],[110.73,-7.4928,148.7357],[110.73,-7.4909,155.2726],[110.7253,-7.4897,147.0485],[110.7242,-7.4869,159.9665],[110.7252,-7.4841,160.2101],[110.7274,-7.4864,155.2473],[110.7283,-7.485,159.3767],[110.7273,-7.4731,156.7449],[110.7207,-7.4655,183.1541],[110.72,-7.4667,182.0753],[110.7164,-7.4654,182.6405],[110.715,-7.4624,187.6464],[110.7062,-7.4596,183.5774],[110.7045,-7.4563,174.2303],[110.7013,-7.4563,173.8824],[110.6978,-7.4615,175.5591],[110.6956,-7.4593,176.6034],[110.693,-7.4605,175.6893],[110.6852,-7.4512,179.559],[110.6827,-7.4577,197.2338],[110.6764,-7.4574,233.6774],[110.6744,-7.4613,247.6792],[110.6722,-7.4608,248.034],[110.6708,-7.4585,254.6985],[110.6684,-7.4594,232.0738],[110.6659,-7.457,250.6948],[110.6735,-7.4396,195.6902],[110.6656,-7.4385,209.5876],[110.6572,-7.4397,216.4606],[110.6557,-7.4433,224.6055],[110.6454,-7.4469,247.3014],[110.6488,-7.4479,241.6935],[110.6452,-7.4518,254.5756],[110.6322,-7.4577,333.6357],[110.6294,-7.4648,386.174],[110.6339,-7.4672,375.2357],[110.6364,-7.4713,365.9262],[110.6392,-7.4724,362.0816],[110.6407,-7.47,353.596],[110.6506,-7.4707,319.4743],[110.6615,-7.4747,268.3069],[110.6554,-7.4805,291.9123],[110.6542,-7.4845,291.2847],[110.6547,-7.4868,273.2588],[110.6582,-7.4878,266.7419],[110.6604,-7.4964,224.5737],[110.668,-7.4996,213.9536],[110.6712,-7.5043,184.3217],[110.6752,-7.5042,177.7701],[110.6749,-7.5068,170.8279],[110.6763,-7.5065,170.8279],[110.6766,-7.5079,170.8279],[110.6793,-7.5064,165.2679],[110.6822,-7.509,168.1281],[110.6835,-7.5072,163.3026],[110.6847,-7.5081,171.1653],[110.6866,-7.5066,160.6294],[110.6919,-7.5093,159.8086],[110.6936,-7.5076,160.5386],[110.6955,-7.5089,157.5641],[110.6969,-7.5078,160.3841],[110.697,-7.5123,152.7299],[110.6998,-7.5125,158.0774],[110.699,-7.5146,153.2309],[110.7014,-7.5145,151.0694],[110.702,-7.5124,153.736],[110.7041,-7.5136,151.8913],[110.7032,-7.5156,153.4044],[110.7066,-7.5162,154.4472],[110.7037,-7.5176,152.6947],[110.7042,-7.5198,151.8866]]]]}}