{"type":"Feature","properties":{"GID_3":"IDN.8.3.2_1","GID_0":"IDN","country":"Indonesia","GID_1":"IDN.8_1","province":"Jambi","NL_NAME_1":"NA","GID_2":"IDN.8.3_1","county":"Jambi","NL_NAME_2":"NA","city":"JambiSelatan","VARNAME_3":"NA","NL_NAME_3":"NA","TYPE_3":"Kecamatan","ENGTYPE_3":"Sub-district","CC_3":"1571020","HASC_3":"NA","name":"Jambi_Selatan.city"},
"geometry":{"type": "MultiPolygon","coordinates": [[[[103.6544,-1.6549,21.4413],[103.6549,-1.6517,15.6888],[103.6578,-1.652,20.1887],[103.6602,-1.6498,13.8352],[103.6586,-1.6441,17.3511],[103.6636,-1.6427,17.1831],[103.6659,-1.6399,16.764],[103.6701,-1.6405,16.8883],[103.6692,-1.6328,24.954],[103.6747,-1.629,19.6621],[103.6765,-1.6217,13.2636],[103.6808,-1.6163,10.7606],[103.6775,-1.6129,15.1134],[103.6669,-1.6086,15.3406],[103.6641,-1.6059,14.1324],[103.6596,-1.6093,19.8177],[103.6576,-1.6089,18.2122],[103.6566,-1.6118,18.0774],[103.6486,-1.6075,20.1016],[103.6473,-1.6085,19.6536],[103.6492,-1.6106,21.6539],[103.6432,-1.611,12.1332],[103.6392,-1.604,14.4405],[103.6376,-1.608,11.5688],[103.6332,-1.6083,17.1012],[103.6297,-1.6077,23.094],[103.6255,-1.6026,19.4636],[103.6231,-1.6019,16.9708],[103.6192,-1.6093,20.225],[103.6235,-1.6164,21.5493],[103.6217,-1.618,25.1303],[103.6244,-1.6202,28.1888],[103.6217,-1.624,32.5915],[103.6239,-1.6252,29.1663],[103.6222,-1.6283,34.1208],[103.6251,-1.6296,29.8116],[103.6234,-1.6358,28.7945],[103.6247,-1.6379,25.3224],[103.623,-1.6387,23.1509],[103.6213,-1.6441,26.2278],[103.6206,-1.6502,35.6284],[103.6227,-1.6507,29.916],[103.6196,-1.6605,41.1784],[103.6267,-1.6644,38.1777],[103.6279,-1.6564,26.5698],[103.6309,-1.6533,24.1951],[103.6323,-1.656,25.4415],[103.6398,-1.6551,22.2506],[103.6408,-1.6566,21.4982],[103.6439,-1.6552,19.3336],[103.6483,-1.6571,25.4056],[103.6544,-1.6549,21.4413]]]]}}