{"type":"Feature","properties":{"GID_3":"IDN.11.38.1_1","GID_0":"IDN","country":"Indonesia","GID_1":"IDN.11_1","province":"JawaTimur","NL_NAME_1":"NA","GID_2":"IDN.11.38_1","county":"Tulungagung","NL_NAME_2":"NA","city":"Bandung","VARNAME_3":"NA","NL_NAME_3":"NA","TYPE_3":"Kecamatan","ENGTYPE_3":"Sub-district","CC_3":"3504020","HASC_3":"NA","name":"Bandung.city"},
"geometry":{"type": "MultiPolygon","coordinates": [[[[111.7277,-8.2059,108.3186],[111.7287,-8.2074,134.3501],[111.7331,-8.2047,208.6025],[111.7333,-8.1952,142.0116],[111.7483,-8.1947,318.0258],[111.742,-8.1908,105.5276],[111.7413,-8.1883,104.6383],[111.743,-8.1881,104.4494],[111.7431,-8.1854,102.1181],[111.7469,-8.1821,100.5828],[111.7467,-8.1805,96.812],[111.75,-8.1788,97.6063],[111.7501,-8.1755,98.5743],[111.7542,-8.1744,96.2144],[111.7579,-8.1759,99.2764],[111.7641,-8.1745,95.7738],[111.7763,-8.1754,89.5078],[111.7776,-8.1758,89.5078],[111.7775,-8.178,85.1354],[111.7811,-8.1774,89.6634],[111.7839,-8.1795,87.4216],[111.7869,-8.1786,89.0939],[111.7883,-8.1837,85.0711],[111.7842,-8.1835,84.1884],[111.7842,-8.1851,83.5534],[111.7884,-8.1876,84.9177],[111.7897,-8.196,83.4993],[111.7959,-8.1967,82.7485],[111.8001,-8.2014,81.5073],[111.8077,-8.2025,80.7211],[111.8093,-8.1993,80.6744],[111.8187,-8.1923,86.312],[111.7986,-8.1889,84.7387],[111.7995,-8.1826,83.5012],[111.7964,-8.1667,87.2737],[111.7978,-8.156,88.362799999999993],[111.7993,-8.1561,86.0293],[111.7998,-8.1521,88.6708],[111.8136,-8.1532,85.6523],[111.8054,-8.1472,86.1959],[111.8077,-8.1371,88.5789],[111.771,-8.138,94.1812],[111.771,-8.1394,94.1812],[111.7608,-8.1412,190.8871],[111.7532,-8.1468,360.656],[111.7493,-8.1455,339.5962],[111.7448,-8.1387,265.7792],[111.7421,-8.1388,258.5237],[111.7361,-8.1427,301.5924],[111.7336,-8.1422,308.5258],[111.7288,-8.153,379.3431],[111.7222,-8.159,466.9518],[111.7171,-8.1746,372.1026],[111.7114,-8.1791,353.2027],[111.7193,-8.1872,249.6842],[111.7169,-8.1911,267.5224],[111.7228,-8.1935,127.6933],[111.7235,-8.1975,143.7454],[111.7213,-8.1979,161.3369],[111.721,-8.1997,163.7284],[111.7285,-8.2005,106.3773],[111.7286,-8.2028,105.9206],[111.7268,-8.2043,105.4809],[111.7277,-8.2059,108.3186]]]]}}