{"type":"Feature","properties":{"GID_2":"IDN.21.4_1","GID_0":"IDN","country":"Indonesia","GID_1":"IDN.21_1","province":"NusaTenggaraTimur","NL_NAME_1":"NA","county":"FloresTimur","VARNAME_2":"NA","NL_NAME_2":"NA","TYPE_2":"Kabupaten","ENGTYPE_2":"Regency","CC_2":"5309","HASC_2":"ID.NT.FT","name":"Flores_Timur.county"},
"geometry":{"type": "MultiPolygon","coordinates": [[[[122.7523,-8.6048,2.7301],[122.7715,-8.6087,0.0],[122.7727,-8.6124,0.0],[122.7784,-8.6105,29.6062],[122.78,-8.6127,0.0],[122.7833,-8.6071,11.8046],[122.7938,-8.6018,8.9896],[122.7966,-8.6011,48.9661],[122.8017,-8.6027,7.6945],[122.8051,-8.5987,4.8808],[122.8106,-8.5962,17.9942],[122.8169,-8.5977,11.8136],[122.8322,-8.5887,6.081],[122.8315,-8.5839,29.3502],[122.8417,-8.5718,10.9373],[122.8412,-8.5695,34.8852],[122.8445,-8.563,0.0],[122.8422,-8.56,4.3219],[122.8431,-8.5557,0.0],[122.8417,-8.5532,22.6244],[122.8435,-8.5469,0.0],[122.8381,-8.5296,1.4911],[122.8325,-8.5213,10.2242],[122.8322,-8.518,7.3583],[122.8266,-8.5158,0.0],[122.8217,-8.5091,0.0],[122.8126,-8.5012,0.0],[122.7996,-8.4951,3.7198],[122.7965,-8.4869,9.5248],[122.7902,-8.4843,4.8745],[122.7909,-8.4812,0.0],[122.7883,-8.4788,51.8322],[122.7846,-8.4619,0.0],[122.7788,-8.4572,4.6573],[122.7796,-8.4512,9.2103],[122.7865,-8.447,4.4342],[122.7869,-8.4393,0.6993],[122.7837,-8.4353,1.5274],[122.7836,-8.4328,2.0528],[122.788,-8.4264,2.3256],[122.7833,-8.4245,0.0],[122.7832,-8.4228,7.6287],[122.7854,-8.4216,2.4148],[122.7905,-8.4228,3.6233],[122.7976,-8.4221,2.4163],[122.8023,-8.4248,0.0],[122.8066,-8.4229,35.9628],[122.8067,-8.4243,0.0],[122.8115,-8.4256,25.0153],[122.8088,-8.4299,7.3614],[122.8091,-8.432,0.0],[122.8128,-8.4321,18.9419],[122.8145,-8.4337,2.1622],[122.8171,-8.4323,5.3857],[122.8163,-8.4292,6.1783],[122.8253,-8.4291,13.0898],[122.8312,-8.4347,5.4031],[122.8282,-8.4364,3.6442],[122.8287,-8.4381,0.0],[122.8405,-8.4415,0.9636],[122.8442,-8.4449,1.6044],[122.8479,-8.4456,6.4006],[122.8602,-8.4527,8.3915],[122.868,-8.4528,11.4792],[122.8724,-8.4549,0.0],[122.8876,-8.4486,0.0],[122.8901,-8.4454,0.856],[122.8892,-8.4405,15.5366],[122.8916,-8.4357,0.0],[122.8932,-8.4204,18.9747],[122.8902,-8.4098,6.4616],[122.8902,-8.4031,3.1114],[122.8822,-8.398,19.1366],[122.8812,-8.394,31.603],[122.8835,-8.3903,3.0547],[122.8784,-8.3844,13.3584],[122.8843,-8.3744,7.925],[122.8848,-8.3705,37.3641],[122.8868,-8.3682,2.1521],[122.8926,-8.3671,7.319],[122.8911,-8.3642,23.5973],[122.8934,-8.3635,13.7166],[122.9021,-8.3472,15.8194],[122.91,-8.3435,14.221],[122.9081,-8.3394,2.4806],[122.9102,-8.3377,12.0561],[122.9127,-8.3381,0.0],[122.9138,-8.3364,2.0657],[122.9138,-8.3285,1.8542],[122.9291,-8.328,0.0],[122.9327,-8.3349,4.1663],[122.9396,-8.3367,5.9984],[122.9552,-8.3483,0.0],[122.9645,-8.3519,2.4826],[122.9731,-8.3472,10.7495],[122.9772,-8.3483,0.0],[122.9829,-8.3472,0.0],[122.9851,-8.3442,5.8213],[122.99,-8.342,5.8608],[122.992,-8.3369,3.2187],[123.0017,-8.3328,4.9854],[123.0207,-8.3154,3.0974],[123.0211,-8.3066,8.1988],[123.0184,-8.2984,0.6366],[123.0196,-8.2887,0.0],[123.0184,-8.2814,1.2747],[123.0099,-8.2751,0.0],[123.0084,-8.2757,3.1865],[123.0075,-8.2733,2.2245],[122.9976,-8.2696,8.4445],[122.9921,-8.2617,3.2028],[122.9897,-8.2538,5.3847],[122.983,-8.2511,0.0],[122.9812,-8.2446,15.7217],[122.9847,-8.2373,0.0],[122.9781,-8.222,0.0],[122.9796,-8.2151,12.1619],[122.9778,-8.2122,5.164],[122.9696,-8.2075,6.3009],[122.9675,-8.2032,4.3299],[122.9646,-8.2024,6.4693],[122.9645,-8.199,7.2714],[122.9622,-8.1967,5.0056],[122.96,-8.1954,1.1214],[122.9568,-8.1963,9.6821],[122.9591,-8.194,12.1296],[122.9638,-8.1942,3.1171],[122.9688,-8.1862,0.0],[122.9684,-8.182,1.3309],[122.9715,-8.1742,12.2634],[122.9719,-8.162,1.6609],[122.9732,-8.1606,7.8829],[122.9721,-8.1515,2.2923],[122.9736,-8.1502,6.1262],[122.972,-8.1501,6.1262],[122.9736,-8.1422,13.8315],[122.9722,-8.1329,0.0],[122.9672,-8.1281,1.0263],[122.9619,-8.128,20.4005],[122.955,-8.1206,18.9528],[122.9418,-8.1158,2.2708],[122.9408,-8.1125,7.3761],[122.9353,-8.1087,2.9592],[122.9166,-8.1021,5.4138],[122.9072,-8.095,25.5677],[122.8993,-8.0917,66.7],[122.8962,-8.0879,0.0],[122.8915,-8.0872,56.4511],[122.8878,-8.083,24.9708],[122.8855,-8.0762,0.0],[122.8699,-8.0683,60.7204],[122.8666,-8.0634,6.0762],[122.8507,-8.075,38.4806],[122.8443,-8.0702,16.0745],[122.842,-8.0735,0.0],[122.8461,-8.0765,0.0],[122.8457,-8.0791,0.8446],[122.839,-8.0818,8.2839],[122.8307,-8.0964,7.8572],[122.8179,-8.0955,4.1978],[122.8166,-8.0966,29.0237],[122.8145,-8.0952,0.0],[122.8101,-8.0997,21.2556],[122.8025,-8.1012,0.0],[122.8037,-8.103,19.3589],[122.803,-8.1049,1.7277],[122.7971,-8.109,6.7181],[122.7907,-8.1059,0.0],[122.7895,-8.1035,0.0],[122.7861,-8.107,5.2275],[122.7827,-8.1079,0.0],[122.7807,-8.112,55.5883],[122.7818,-8.1207,18.0775],[122.7783,-8.1362,0.0],[122.7824,-8.1405,4.0043],[122.7849,-8.1503,9.5029],[122.7824,-8.1518,3.9567],[122.7816,-8.1569,21.6604],[122.7762,-8.1641,0.0],[122.7618,-8.1781,0.0],[122.7595,-8.1942,0.0],[122.7511,-8.1976,0.0],[122.7467,-8.2039,8.6641],[122.7404,-8.2077,0.0],[122.7322,-8.2156,4.8166],[122.73,-8.2204,15.8557],[122.7308,-8.2248,0.0],[122.734,-8.228,0.0],[122.7417,-8.2289,10.321],[122.7501,-8.2261,20.0949],[122.7556,-8.2301,0.0],[122.7624,-8.225,0.0],[122.7668,-8.2264,1.2427],[122.7697,-8.2318,0.0],[122.7756,-8.2312,23.7283],[122.7815,-8.2356,2.0843],[122.784,-8.2343,12.6018],[122.7878,-8.2355,0.0],[122.7924,-8.2259,13.7474],[122.7972,-8.2236,4.2381],[122.7971,-8.2149,8.8865],[122.7994,-8.2075,5.8036],[122.8091,-8.1983,3.5804],[122.8193,-8.1948,0.0],[122.8203,-8.1911,12.9035],[122.8228,-8.1949,0.0],[122.8333,-8.193,0.0],[122.8379,-8.1882,4.3702],[122.8414,-8.188,0.0],[122.8454,-8.1849,0.0],[122.8471,-8.1813,1.477],[122.8475,-8.1862,0.0],[122.8499,-8.1887,0.0],[122.8557,-8.188,0.0],[122.8625,-8.1824,2.9933],[122.863,-8.1791,1.5428],[122.8661,-8.1762,3.4678],[122.8715,-8.1801,0.0],[122.8763,-8.1786,1.617],[122.8821,-8.1807,3.0788],[122.8836,-8.177,4.0804],[122.8865,-8.1753,3.1242],[122.8909,-8.1753,3.2689],[122.8972,-8.179,5.6478],[122.9008,-8.1759,6.6412],[122.9013,-8.1798,0.0],[122.9139,-8.1886,1.4043],[122.9184,-8.1939,2.1697],[122.9225,-8.1951,0.0],[122.9237,-8.1932,2.0966],[122.9248,-8.1946,0.0],[122.9254,-8.192,3.382],[122.9319,-8.1953,0.6938],[122.9377,-8.1926,6.3993],[122.9392,-8.1936,17.2769],[122.9396,-8.1999,20.7862],[122.9351,-8.2034,8.819],[122.9346,-8.2024,0.0],[122.9244,-8.2043,0.0],[122.9191,-8.208,8.0101],[122.9123,-8.2175,16.1163],[122.9084,-8.2249,2.3035],[122.9079,-8.2368,0.0],[122.9029,-8.243,0.0],[122.9003,-8.2509,5.9223],[122.8949,-8.2566,20.8586],[122.8934,-8.277,0.0],[122.8867,-8.2819,3.3941],[122.8845,-8.2868,3.171],[122.8819,-8.2889,7.0147],[122.8721,-8.2937,5.852],[122.8511,-8.2902,5.0968],[122.8464,-8.2925,1.8748],[122.842,-8.292,0.0],[122.8349,-8.2964,40.4952],[122.8336,-8.2945,2.0174],[122.827,-8.2928,0.0],[122.8172,-8.2992,0.0],[122.8111,-8.2979,0.0],[122.8059,-8.3054,2.5854],[122.8023,-8.3066,4.6672],[122.7987,-8.3115,1.528],[122.793,-8.3131,11.3058],[122.789,-8.3166,10.0548],[122.7815,-8.3325,9.9933],[122.7743,-8.3423,26.7676],[122.7729,-8.3499,74.4459],[122.7694,-8.3538,0.0],[122.7678,-8.3611,0.0],[122.7659,-8.3632,9.7885],[122.7602,-8.3637,5.3916],[122.747,-8.3584,7.2745],[122.7356,-8.3578,0.0],[122.7277,-8.3606,4.2922],[122.7239,-8.3603,1.5645],[122.7178,-8.3658,0.0],[122.7129,-8.3665,0.0],[122.7056,-8.3742,0.4133],[122.7014,-8.3745,0.0],[122.6956,-8.3775,0.0],[122.6887,-8.3781,1.4321],[122.6856,-8.3829,0.0],[122.6822,-8.3833,0.0],[122.6835,-8.3861,28.7946],[122.6824,-8.3956,245.0042],[122.6841,-8.3998,467.1207],[122.6825,-8.4069,403.7318],[122.6765,-8.4133,600.0615],[122.6781,-8.4194,779.7646],[122.6838,-8.4218,653.2784],[122.6847,-8.4387,574.3317],[122.6791,-8.4553,724.4029],[122.6734,-8.4597,816.324],[122.6777,-8.4626,855.0795],[122.6765,-8.467,782.822],[122.6821,-8.4736,930.9531],[122.6869,-8.4847,1028.7974],[122.6799,-8.497,1019.9398],[122.6805,-8.5003,979.8987],[122.6742,-8.5028,747.7776],[122.671,-8.5126,603.1843],[122.6648,-8.5197,602.267],[122.6665,-8.5258,687.0408],[122.664,-8.5322,698.9205],[122.6634,-8.5477,990.9724],[122.6592,-8.5527,1078.2695],[122.6585,-8.5605,1166.8704],[122.6557,-8.5623,1143.1162],[122.6561,-8.5692,1267.7222],[122.6519,-8.5818,878.01],[122.6515,-8.5989,347.5626],[122.6492,-8.6043,401.4764],[122.6514,-8.6072,319.4723],[122.6489,-8.6152,222.1972],[122.6499,-8.6202,311.6417],[122.6484,-8.6276,289.563],[122.6542,-8.6371,5.319],[122.6643,-8.6262,24.4918],[122.6774,-8.6221,3.2141],[122.6965,-8.6269,1.7818],[122.6977,-8.6231,49.4124],[122.7017,-8.6232,0.0],[122.7183,-8.6292,1.905],[122.7207,-8.634,8.1867],[122.7256,-8.6334,1.6646],[122.7279,-8.632,0.0],[122.7282,-8.6267,0.0],[122.7258,-8.6253,16.2627],[122.7267,-8.6201,48.044],[122.7318,-8.6109,4.4067],[122.7387,-8.608,0.0],[122.7473,-8.6077,11.4565],[122.7523,-8.6048,2.7301]]],
[[[122.844,-8.6033,0.0],[122.8462,-8.6047,0.0],[122.8468,-8.6039,0.0],[122.8457,-8.6023,3.2115],[122.844,-8.6033,0.0]]],
[[[122.9509,-8.5618,15.6994],[122.9534,-8.5526,3.5524],[122.9701,-8.534,0.3235],[122.9761,-8.5149,0.0],[122.9835,-8.5066,0.5078],[122.9913,-8.5029,1.5292],[122.9977,-8.4954,22.1077],[123.0034,-8.4936,1.5324],[123.0066,-8.488,22.3419],[123.018,-8.4811,2.5433],[123.0219,-8.4765,0.0],[123.0284,-8.4772,13.1654],[123.0346,-8.4811,2.0135],[123.0401,-8.4879,21.646],[123.0501,-8.492,2.3855],[123.0535,-8.4904,16.2592],[123.0573,-8.4918,0.0],[123.0602,-8.4906,51.3519],[123.0654,-8.4915,0.0],[123.0684,-8.4892,65.4295],[123.0738,-8.4881,0.0],[123.0784,-8.4888,6.6147],[123.0842,-8.4837,13.6628],[123.0975,-8.4778,0.0],[123.099,-8.4752,11.2536],[123.1027,-8.4741,23.1972],[123.1042,-8.472,14.2763],[123.1165,-8.4674,4.081],[123.1295,-8.4657,4.4709],[123.1329,-8.4667,0.0],[123.141,-8.464,1.3876],[123.1432,-8.4619,2.6395],[123.1484,-8.4616,1.5161],[123.1518,-8.4533,0.0],[123.1653,-8.4459,25.3684],[123.1681,-8.4413,0.0],[123.1667,-8.4389,84.4415],[123.1682,-8.4359,0.0],[123.1656,-8.4354,4.5068],[123.1641,-8.4314,4.0414],[123.1609,-8.4307,5.3919],[123.1588,-8.4273,1.2977],[123.1565,-8.4278,8.4646],[123.1515,-8.4237,0.8008],[123.1426,-8.423,6.1878],[123.1308,-8.4274,0.0],[123.1285,-8.4306,3.8619],[123.1163,-8.4359,0.9068],[123.1089,-8.4331,2.554],[123.0927,-8.4338,0.8035],[123.0921,-8.4372,5.9239],[123.0901,-8.433,0.0],[123.0763,-8.4344,0.0],[123.0678,-8.433,3.62],[123.0551,-8.4354,6.4415],[123.0468,-8.4337,5.0464],[123.0373,-8.4355,1.0733],[123.0319,-8.4431,16.4776],[123.0249,-8.4456,0.0],[123.0214,-8.4487,5.4772],[123.0134,-8.4476,0.0],[123.0098,-8.4432,0.805],[123.0042,-8.4423,7.5065],[122.9956,-8.4347,31.3956],[122.9933,-8.4345,0.0],[122.9901,-8.438,40.9052],[122.9843,-8.4352,3.3279],[122.9767,-8.436,0.573],[122.9702,-8.4435,18.259],[122.9651,-8.4452,0.0],[122.9526,-8.4602,6.7045],[122.952,-8.4713,27.6794],[122.9497,-8.4748,21.3402],[122.9505,-8.4775,27.6426],[122.9486,-8.481,9.2248],[122.9487,-8.4861,13.5019],[122.9454,-8.4932,26.7026],[122.921,-8.501,3.551],[122.9169,-8.5043,0.0],[122.9016,-8.5111,0.0],[122.8848,-8.5245,0.0],[122.8817,-8.5307,3.3711],[122.8806,-8.538,1.0839],[122.8798,-8.5486,4.8848],[122.8811,-8.5554,0.9936],[122.8759,-8.5602,0.0],[122.8718,-8.5696,29.2616],[122.8705,-8.5851,3.7282],[122.8821,-8.5955,2.9856],[122.8839,-8.6017,4.2613],[122.8831,-8.6035,0.0],[122.8863,-8.6094,17.3085],[122.8915,-8.6112,4.6968],[122.9034,-8.609,6.52],[122.9072,-8.6095,45.5011],[122.9084,-8.6114,0.0],[122.9115,-8.6112,32.0223],[122.9251,-8.6046,0.0],[122.9413,-8.5899,0.0],[122.9452,-8.579,8.1178],[122.9485,-8.5758,11.2696],[122.9507,-8.5682,13.4747],[122.9536,-8.5669,0.6418],[122.9509,-8.5618,15.6994]]],
[[[122.8043,-8.4487,6.7467],[122.8013,-8.4462,0.0],[122.7954,-8.4474,2.1512],[122.7934,-8.4516,11.7863],[122.7943,-8.4558,2.4584],[122.797,-8.4578,31.2717],[122.8021,-8.4565,0.0],[122.8043,-8.4528,22.0992],[122.8043,-8.4487,6.7467]]],
[[[123.0246,-8.4028,30.4657],[123.0281,-8.3999,2.0698],[123.0389,-8.401,4.0575],[123.0401,-8.3998,0.5014],[123.0423,-8.4015,0.0],[123.0452,-8.3993,11.1354],[123.0479,-8.4016,0.0],[123.0534,-8.3983,2.1164],[123.0559,-8.3998,1.1909],[123.0568,-8.4036,2.1372],[123.0587,-8.4043,3.2269],[123.0603,-8.4017,1.8389],[123.0618,-8.4022,1.8389],[123.0605,-8.406,6.4873],[123.0641,-8.4117,0.0],[123.0697,-8.4117,0.433],[123.0789,-8.402,2.885],[123.0891,-8.4046,0.0],[123.1023,-8.4019,3.4008],[123.1092,-8.4028,4.5731],[123.1178,-8.3958,12.0852],[123.1234,-8.3946,0.0],[123.1291,-8.3908,5.9236],[123.1487,-8.3918,0.0],[123.1562,-8.3893,9.0195],[123.167,-8.3916,0.0],[123.1716,-8.3875,2.5862],[123.179,-8.3852,0.9309],[123.2175,-8.3873,3.0115],[123.2205,-8.3918,0.741],[123.225,-8.392,11.0776],[123.2303,-8.3964,0.0],[123.2354,-8.3949,1.7695],[123.2386,-8.3961,3.4041],[123.2413,-8.3933,5.7109],[123.2521,-8.3956,4.2335],[123.2606,-8.3958,5.703],[123.2685,-8.3937,3.4885],[123.2762,-8.3954,4.1013],[123.2804,-8.3918,16.7796],[123.2863,-8.3922,1.1057],[123.2867,-8.3909,12.4978],[123.2946,-8.3882,0.0],[123.2946,-8.3861,17.6172],[123.2973,-8.3844,2.2011],[123.2975,-8.3747,3.7266],[123.3077,-8.3604,0.0],[123.3077,-8.3509,0.0],[123.3033,-8.3273,0.0],[123.3051,-8.2963,9.1672],[123.3082,-8.2936,1.5645],[123.3136,-8.2936,1.3631],[123.3233,-8.2848,4.4777],[123.3237,-8.2794,0.5781],[123.3318,-8.2747,2.9068],[123.3338,-8.2643,4.8329],[123.3268,-8.2594,0.0],[123.3229,-8.2546,0.0],[123.3216,-8.2577,1.7132],[123.314,-8.2563,1.0583],[123.313,-8.2542,0.0],[123.3074,-8.2531,5.7973],[123.3011,-8.2463,4.2787],[123.2896,-8.2507,5.5235],[123.2805,-8.2479,1.1685],[123.2792,-8.2438,0.6341],[123.2767,-8.2485,2.1702],[123.2774,-8.2501,2.9061],[123.276,-8.2505,4.7673],[123.2654,-8.2446,12.3766],[123.2654,-8.2409,3.4432],[123.2605,-8.2378,0.0],[123.2558,-8.2404,2.6864],[123.2558,-8.2353,0.0],[123.2535,-8.2323,12.847],[123.2432,-8.2255,0.0],[123.2419,-8.228,14.3887],[123.2315,-8.2288,6.1759],[123.2305,-8.2312,0.0],[123.2273,-8.2327,11.888],[123.2279,-8.2398,35.8873],[123.2206,-8.244,2.7314],[123.216,-8.2432,7.2636],[123.2122,-8.239,1.2454],[123.2119,-8.2344,5.6421],[123.2137,-8.2316,1.2516],[123.2102,-8.2241,0.0],[123.2039,-8.2265,18.079],[123.1961,-8.2248,29.7958],[123.1923,-8.2338,24.4448],[123.188,-8.2368,5.6657],[123.1848,-8.2359,0.0],[123.1818,-8.2405,6.9333],[123.1792,-8.2387,5.1957],[123.1603,-8.2414,4.2901],[123.1583,-8.2387,1.3674],[123.1563,-8.2398,5.6868],[123.1538,-8.2386,3.6791],[123.1523,-8.2346,21.1406],[123.1489,-8.2322,0.0],[123.142,-8.2338,2.049],[123.1423,-8.2394,0.0],[123.1331,-8.2416,26.871],[123.1313,-8.2451,7.1451],[123.1268,-8.2459,2.2545],[123.1225,-8.2502,6.699],[123.1212,-8.2537,4.9806],[123.119,-8.2541,0.0],[123.1092,-8.2652,7.5957],[123.1038,-8.2667,6.2691],[123.0993,-8.2709,0.0],[123.0895,-8.2758,5.8728],[123.0796,-8.2757,4.0232],[123.077,-8.2789,2.1184],[123.0606,-8.2893,4.0664],[123.0581,-8.2934,3.3539],[123.0454,-8.2985,2.5073],[123.0411,-8.3049,4.0339],[123.0333,-8.3073,0.0],[123.0284,-8.3121,2.4572],[123.0275,-8.3193,16.5428],[123.0199,-8.3252,2.9509],[123.021,-8.328,2.7412],[123.0177,-8.3317,10.4235],[123.0171,-8.335,44.6698],[123.0102,-8.339,0.9375],[123.0111,-8.3434,20.5872],[123.009,-8.3499,43.6875],[123.0058,-8.3567,10.7952],[123.0032,-8.3576,4.2163],[123.0017,-8.3644,5.7866],[122.999,-8.3681,13.2238],[123.0018,-8.38,27.0327],[122.9997,-8.3834,21.608],[123.0021,-8.3899,10.7504],[122.9968,-8.4009,22.5554],[123.0007,-8.4101,12.4144],[123.006,-8.4127,14.7709],[123.0105,-8.4106,19.8727],[123.0189,-8.4025,15.4798],[123.0232,-8.4041,2.2029],[123.0246,-8.4028,30.4657]]],
[[[123.3303,-8.2544,5.5555],[123.3322,-8.2562,0.3503],[123.3332,-8.2552,0.3503],[123.3321,-8.2522,1.2006],[123.3281,-8.2488,0.0],[123.3284,-8.2533,1.5202],[123.3303,-8.2544,5.5555]]],
[[[123.3338,-8.2537,1.3828],[123.3364,-8.2564,0.0],[123.3394,-8.2547,0.959],[123.3393,-8.2508,1.9944],[123.3355,-8.246,0.0],[123.3336,-8.2464,0.4968],[123.3322,-8.2493,1.8409],[123.3338,-8.2537,1.3828]]],
[[[122.9523,-8.3513,0.0],[122.9526,-8.3521,0.0],[122.9528,-8.3504,1.5123],[122.952,-8.3507,1.5123],[122.9523,-8.3513,0.0]]]]}}