{"type":"Feature","properties":{"GID_3":"IDN.29.5.12_1","GID_0":"IDN","country":"Indonesia","GID_1":"IDN.29_1","province":"SulawesiUtara","NL_NAME_1":"NA","GID_2":"IDN.29.5_1","county":"BolaangMongondow","NL_NAME_2":"NA","city":"Sangtombolang","VARNAME_3":"NA","NL_NAME_3":"NA","TYPE_3":"Kecamatan","ENGTYPE_3":"Sub-district","CC_3":"7101120","HASC_3":"NA","name":"Sangtombolang.city"},
"geometry":{"type": "MultiPolygon","coordinates": [[[[123.7206,0.5326,1502.1292],[123.7212,0.5259,1530.2699],[123.7345,0.5409,1438.9182],[123.7659,0.5586,1304.2003],[123.7682,0.5631,1250.0507],[123.782,0.5666,1187.0898],[123.7883,0.5747,1055.7761],[123.7975,0.5802,918.3329],[123.8046,0.588,907.3298],[123.8044,0.594,886.3873],[123.8083,0.6058,892.5741],[123.8159,0.6082,884.2241],[123.8136,0.6119,913.3087],[123.816,0.6141,908.7905],[123.8139,0.6189,893.5666],[123.8198,0.6174,902.8024],[123.8235,0.6193,871.9323],[123.8252,0.6262,1004.4828],[123.8319,0.633,1175.5477],[123.836,0.6422,1078.8811],[123.8476,0.6443,1030.5822],[123.8567,0.6611,1109.1047],[123.8618,0.6611,1094.1494],[123.8617,0.6682,1046.6804],[123.8636,0.6721,997.4032],[123.875,0.6811,949.1885],[123.8797,0.6872,829.4478],[123.881,0.7003,677.4576],[123.8795,0.7105,442.8147],[123.8827,0.717,483.0864],[123.8903,0.7242,288.1192],[123.8949,0.7265,256.9269],[123.9011,0.7419,188.4146],[123.9049,0.7477,185.6545],[123.9086,0.766,88.4916],[123.9108,0.768,67.8147],[123.9186,0.7697,47.0579],[123.915,0.7777,35.7839],[123.908,0.7812,74.264],[123.9087,0.7836,28.664],[123.9067,0.7913,27.7391],[123.905,0.7915,29.3497],[123.9028,0.7883,85.1504],[123.89,0.7978,15.2525],[123.8925,0.8008,13.5394],[123.8917,0.805,11.7579],[123.8935,0.8107,14.6465],[123.8975,0.812,12.8083],[123.8976,0.8163,8.6221],[123.8939,0.8168,8.4156],[123.8948,0.8211,6.8586],[123.9024,0.8321,7.8144],[123.9035,0.8365,11.1572],[123.9023,0.8379,10.9209],[123.8979,0.8363,9.9262],[123.8997,0.8388,4.2922],[123.8975,0.8418,2.3145],[123.8979,0.8437,4.2279],[123.8744,0.8384,10.1482],[123.858,0.8401,61.0127],[123.8495,0.8448,25.9289],[123.8472,0.8448,4.0599],[123.8455,0.8413,0.8939],[123.8407,0.8401,2.0363],[123.8271,0.8405,0.0],[123.8252,0.8416,7.2484],[123.8253,0.8446,13.2706],[123.8187,0.842,37.1216],[123.8163,0.8441,0.0],[123.8118,0.8449,11.6922],[123.8067,0.8502,57.3626],[123.7916,0.8555,0.0],[123.791,0.8542,11.9285],[123.793,0.8538,24.8703],[123.7951,0.8494,2.1782],[123.8037,0.8417,0.0],[123.804,0.8372,1.0725],[123.8021,0.8348,6.6391],[123.7971,0.8329,35.437],[123.7901,0.833,3.2121],[123.7886,0.8301,6.701],[123.7855,0.8299,8.0674],[123.7814,0.8314,7.0417],[123.7801,0.8353,17.4984],[123.7777,0.8362,26.2365],[123.7756,0.8403,27.1334],[123.7693,0.8376,9.2235],[123.7628,0.8468,0.0],[123.7616,0.852,24.7398],[123.7569,0.855,23.5359],[123.7548,0.8531,7.1366],[123.7585,0.8487,6.0601],[123.7581,0.8449,1.2011],[123.7653,0.8378,8.7217],[123.7633,0.8374,0.0],[123.7613,0.8336,7.5523],[123.7594,0.8349,0.0],[123.7561,0.8311,13.0887],[123.7534,0.832,3.5493],[123.7525,0.8307,3.5493],[123.7456,0.8352,5.4837],[123.7472,0.8376,0.7741],[123.7467,0.8433,0.0],[123.7453,0.8439,0.0],[123.7449,0.8418,3.8297],[123.741,0.8422,8.3383],[123.7401,0.8456,9.9622],[123.7432,0.8501,24.2249],[123.7411,0.8539,0.0],[123.7406,0.851,3.2939],[123.7366,0.8489,16.2671],[123.736,0.8657,0.0],[123.7323,0.8656,0.0],[123.7306,0.862,24.0701],[123.726,0.8633,22.6866],[123.727,0.8658,0.0],[123.7182,0.867,19.9014],[123.7168,0.8715,3.7475],[123.713,0.874,0.0],[123.7069,0.8716,4.967],[123.7081,0.8697,0.0],[123.7074,0.863,0.0],[123.7088,0.8618,4.4501],[123.7066,0.8607,1.347],[123.7069,0.8581,6.457],[123.6995,0.858,20.0009],[123.6992,0.8603,8.0732],[123.6967,0.8614,5.434],[123.6908,0.8598,175.0253],[123.6896,0.858,193.7658],[123.6866,0.8471,177.2253],[123.6882,0.8367,464.3561],[123.6851,0.8263,78.6049],[123.6805,0.8204,28.9736],[123.676,0.8188,43.1124],[123.6818,0.8153,29.0264],[123.6794,0.8122,41.8944],[123.6837,0.8112,44.3238],[123.6834,0.8076,66.2591],[123.6865,0.8038,49.8806],[123.6863,0.7997,27.6031],[123.6888,0.7993,32.943],[123.6886,0.7942,44.6865],[123.6932,0.7883,45.7565],[123.6922,0.784,62.5507],[123.6943,0.7816,58.025],[123.6939,0.7784,80.8145],[123.7021,0.769,110.7088],[123.7024,0.7624,80.3136],[123.7075,0.7625,102.4506],[123.71,0.76,183.442],[123.7083,0.7511,151.2196],[123.7044,0.7484,143.5549],[123.7026,0.7449,130.4934],[123.7027,0.7426,106.8652],[123.7062,0.7401,141.8959],[123.7038,0.7394,115.2306],[123.6997,0.7327,164.3595],[123.7074,0.731,114.3829],[123.7138,0.725,134.5623],[123.7183,0.7252,154.8871],[123.7222,0.713,126.2003],[123.7284,0.7105,131.1495],[123.7261,0.7057,146.3831],[123.7292,0.6951,220.9752],[123.7351,0.6917,261.3958],[123.7406,0.6846,198.6042],[123.7401,0.6776,247.6097],[123.7375,0.6713,277.8808],[123.7318,0.6679,307.0595],[123.7306,0.6637,304.0717],[123.7292,0.6633,304.0717],[123.7297,0.6611,315.1133],[123.7281,0.6589,303.7551],[123.7304,0.6582,313.822],[123.7294,0.6557,313.0965],[123.7314,0.6536,329.2886],[123.7294,0.6512,328.1797],[123.7304,0.6478,324.8225],[123.7279,0.6487,337.3438],[123.7255,0.6437,344.9636],[123.7257,0.6379,397.3606],[123.7171,0.6358,406.2387],[123.7157,0.6319,423.4316],[123.7084,0.6246,519.0729],[123.7067,0.619,551.7944],[123.6984,0.6126,626.1146],[123.6921,0.6112,666.1704],[123.6781,0.6108,718.303],[123.6664,0.6171,816.9696],[123.6537,0.6135,1161.0092],[123.6427,0.608,1240.1638],[123.6334,0.6007,1386.3654],[123.6343,0.588,1169.5138],[123.6417,0.5816,1429.2433],[123.6437,0.5735,1593.4612],[123.6492,0.5726,1572.5122],[123.6601,0.5666,1344.6276],[123.6742,0.5658,1317.7585],[123.6836,0.5626,1331.9346],[123.704,0.5665,1328.9767],[123.7102,0.5705,1383.4856],[123.7112,0.5661,1372.3082],[123.7144,0.5624,1341.4603],[123.7136,0.5475,1392.4771],[123.7174,0.5366,1463.1569],[123.7206,0.5326,1502.1292]]],
[[[123.8298,0.8422,0.0],[123.8301,0.8419,0.9454],[123.8294,0.8428,0.0],[123.8294,0.8425,0.0],[123.8298,0.8422,0.0]]],
[[[123.7896,0.8806,3.6538],[123.787,0.882,10.6407],[123.7875,0.8769,0.0],[123.7891,0.8756,0.0],[123.7909,0.8789,0.0],[123.7896,0.8806,3.6538]]],
[[[123.8106,0.8636,0.0],[123.8095,0.8632,0.0],[123.8102,0.8608,0.0],[123.8119,0.8614,0.0],[123.8106,0.8636,0.0]]],
[[[123.8032,0.8677,0.0],[123.805,0.8694,0.0],[123.8028,0.8712,0.0],[123.8021,0.87,0.0],[123.8032,0.8677,0.0]]],
[[[123.7931,0.8778,0.0],[123.7935,0.8776,0.0],[123.7937,0.8781,0.0],[123.7934,0.8781,0.0],[123.7931,0.8778,0.0]]]]}}