{"type":"Feature","properties":{"GID_3":"IDN.32.32.3_1","GID_0":"IDN","country":"Indonesia","GID_1":"IDN.32_1","province":"SumateraUtara","NL_NAME_1":"NA","GID_2":"IDN.32.32_1","county":"TapanuliUtara","NL_NAME_2":"NA","city":"Muara","VARNAME_3":"NA","NL_NAME_3":"NA","TYPE_3":"Kecamatan","ENGTYPE_3":"Sub-district","CC_3":"1205180","HASC_3":"NA","name":"Muara.city"},
"geometry":{"type": "MultiPolygon","coordinates": [[[[98.9549,2.2665,1447.6166],[98.9502,2.265,1433.9252],[98.9544,2.2618,1442.4668],[98.964,2.2617,1453.9637],[98.9814,2.2564,1423.4717],[98.9826,2.259,1424.6029],[98.9865,2.259,1422.0343],[99.0024,2.2537,1403.6797],[99.0053,2.2684,1385.1038],[98.9993,2.2812,1408.1504],[98.9936,2.3047,1336.7405],[98.9871,2.347,901.0],[98.9832,2.3487,901.0],[98.9809,2.3473,901.0],[98.9784,2.3384,901.0],[98.9758,2.3391,901.0],[98.9716,2.3411,901.0],[98.9683,2.3478,901.0],[98.9674,2.3426,901.0],[98.9601,2.3548,901.0],[98.9596,2.3506,901.0],[98.956,2.3498,901.0],[98.9541,2.3532,901.0],[98.9483,2.3533,901.0],[98.9448,2.3597,901.0],[98.9346,2.3573,901.0],[98.932,2.354,901.0],[98.9263,2.3547,913.5243],[98.9167,2.3515,901.0],[98.9154,2.3492,909.4958],[98.9117,2.349,901.0],[98.9103,2.3413,909.3177],[98.905,2.3344,907.0357],[98.8951,2.339,901.0],[98.8926,2.3413,911.4119],[98.8932,2.3434,901.0],[98.8883,2.3478,901.0],[98.8812,2.3445,901.0],[98.8783,2.3448,901.0],[98.8742,2.3417,901.0],[98.8691,2.3455,901.0],[98.8699,2.3494,901.0],[98.864,2.3508,901.0],[98.8597,2.3491,905.1547],[98.86,2.3448,1094.1105],[98.8565,2.3388,901.0],[98.859,2.3342,1223.6931],[98.8584,2.3317,1350.6229],[98.8663,2.3348,1223.1628],[98.874,2.3322,1027.583],[98.886,2.3358,949.1354],[98.8897,2.3285,1042.6072],[98.8932,2.3257,984.7104],[98.9,2.327,997.4816],[98.9241,2.324,1017.0979],[98.9284,2.3264,946.8992],[98.9327,2.3224,990.7463],[98.9378,2.3239,979.2703],[98.9402,2.32,1029.1965],[98.9539,2.3213,1318.0201],[98.9587,2.3123,1555.1436],[98.9583,2.3101,1546.4595],[98.9643,2.301,1557.8832],[98.971,2.298,1539.4613],[98.9683,2.2831,1482.0304],[98.9727,2.275,1462.2551],[98.9724,2.2725,1459.9722],[98.9646,2.2744,1468.8093],[98.9647,2.2707,1462.7744],[98.9549,2.2665,1447.6166]]],
[[[98.8885,2.3539,901.0],[98.8922,2.3491,904.7034],[98.9006,2.3466,901.0],[98.9112,2.3536,901.0],[98.9103,2.3574,917.2334],[98.9079,2.358,963.4476],[98.9107,2.3603,901.0],[98.9105,2.3626,952.7821],[98.9073,2.3632,985.6989],[98.9052,2.3656,911.4576],[98.9033,2.3723,901.0],[98.9039,2.3785,901.0],[98.9016,2.3823,905.1255],[98.8965,2.382,944.8428],[98.8946,2.3801,948.3171],[98.8945,2.3686,955.0305],[98.8859,2.3673,920.9427],[98.884,2.3599,928.7351],[98.8885,2.3578,966.4847],[98.8885,2.3539,901.0]]]]}}