{"type":"Feature","properties":{"GID_3":"IDN.10.9.3_1","GID_0":"IDN","country":"Indonesia","GID_1":"IDN.10_1","province":"JawaTengah","NL_NAME_1":"NA","GID_2":"IDN.10.9_1","county":"Grobogan","NL_NAME_2":"NA","city":"Geyer","VARNAME_3":"NA","NL_NAME_3":"NA","TYPE_3":"Kecamatan","ENGTYPE_3":"Sub-district","CC_3":"3315050","HASC_3":"NA","name":"Geyer.city"},
"geometry":{"type": "MultiPolygon","coordinates": [[[[110.9202,-7.28,107.8508],[110.9222,-7.2696,92.535],[110.9252,-7.275,94.3918],[110.9288,-7.2776,98.4397],[110.9319,-7.2761,107.0023],[110.9385,-7.2778,130.9372],[110.945,-7.2772,132.59],[110.9479,-7.2813,135.2864],[110.9548,-7.2827,127.568],[110.9578,-7.2819,127.4566],[110.9636,-7.276,132.9846],[110.9687,-7.2755,135.5596],[110.971,-7.2776,139.0352],[110.9773,-7.2762,158.7259],[110.9782,-7.2774,145.7468],[110.9824,-7.2772,136.6917],[110.9854,-7.2764,143.6814],[110.9864,-7.2744,151.1481],[110.995,-7.2739,154.7083],[110.9965,-7.2675,141.9902],[111.0056,-7.2661,134.2675],[111.0073,-7.2609,151.7032],[111.013,-7.2621,154.7929],[111.0181,-7.2589,155.0287],[111.0205,-7.2607,164.6341],[111.0234,-7.2582,158.6164],[111.0301,-7.2569,163.8366],[111.032,-7.2505,135.1649],[111.0387,-7.2464,143.2494],[111.0409,-7.2423,137.3822],[111.0394,-7.2382,125.9477],[111.04,-7.2328,121.6265],[111.0386,-7.2315,118.7901],[111.041,-7.2257999999999996,132.8727],[111.0353,-7.2221,119.8634],[111.0359,-7.2183,122.3779],[111.0347,-7.2165,115.9409],[111.0382,-7.2111,116.1961],[111.0341,-7.2057,127.8071],[111.0389,-7.1997,105.0961],[111.0371,-7.1904,109.9439],[111.0388,-7.1894,94.5851],[111.0398,-7.184,115.1217],[111.0345,-7.1819,110.762],[111.0344,-7.1793,118.5808],[111.0324,-7.1783,113.4752],[111.0278,-7.1796,82.4036],[111.0245,-7.1837,69.0651],[111.0201,-7.1845,79.2857],[111.0201,-7.1818,86.4149],[111.0223,-7.18,84.2393],[111.0219,-7.1742,157.9823],[111.0047,-7.1736,51.2182],[111.0047,-7.1757,50.0638],[111.0015,-7.1768,54.7113],[110.9979,-7.1813,64.1505],[110.9956,-7.1803,58.2642],[110.993,-7.1828,65.1279],[110.9865,-7.1816,77.2211],[110.9806,-7.1853,96.1307],[110.979,-7.1894,84.4622],[110.976,-7.1896,111.6455],[110.9727,-7.1866,97.5558],[110.9699,-7.1866,97.3819],[110.9646,-7.1915,149.9324],[110.9465,-7.1989,92.3792],[110.9351,-7.1938,132.9543],[110.9348,-7.2,70.451],[110.9305,-7.2028,70.2163],[110.9177,-7.2032,83.7562],[110.913,-7.2049,85.729],[110.8981,-7.1931,75.6736],[110.8898,-7.1945,81.5902],[110.8872,-7.1921,81.0452],[110.8804,-7.193,75.2222],[110.8722,-7.1891,80.7514],[110.866,-7.1897,68.8334],[110.8555,-7.1868,91.3291],[110.8508,-7.1885,33.7785],[110.8442,-7.185,34.0765],[110.8369,-7.1896,33.8108],[110.8364,-7.1867,42.0738],[110.8396,-7.1842,44.5679],[110.8356,-7.1811,31.1979],[110.8355,-7.1777,33.1043],[110.8309,-7.179,44.607],[110.8233,-7.177,38.5983],[110.822,-7.1827,39.3739],[110.8239,-7.188,48.6285],[110.822,-7.1894,44.6205],[110.8234,-7.1906,47.6925],[110.8207,-7.1939,45.9323],[110.822,-7.1968,46.688],[110.8212,-7.206,64.1933],[110.8185,-7.211,67.3933],[110.8194,-7.2152,63.3274],[110.8249,-7.2114,63.7401],[110.8275,-7.2022,60.1887],[110.8333,-7.1979,54.1307],[110.8446,-7.2004,34.4757],[110.8458,-7.2028,34.3702],[110.8493,-7.2015,38.639],[110.8586,-7.2123,49.4277],[110.8584,-7.2158,64.1109],[110.8548,-7.2155,38.9535],[110.8527,-7.2173,35.9843],[110.8466,-7.2144,43.6114],[110.844,-7.2154,46.5639],[110.8433,-7.2191,46.2792],[110.8382,-7.2211,65.1478],[110.8336,-7.2301,99.2592],[110.8278,-7.2367,81.0576],[110.828,-7.2483,87.5],[110.8349,-7.2524,87.5],[110.8344,-7.2542,87.5],[110.8358,-7.2544,94.9908],[110.8368,-7.2583,87.5],[110.8441,-7.2627,81.3385],[110.8455,-7.2679,88.7601],[110.8503,-7.2656,95.8216],[110.8532,-7.2659,98.2791],[110.847,-7.2687,87.5],[110.8487,-7.2698,87.5],[110.8494,-7.2684,88.5056],[110.854,-7.2679,100.8774],[110.852,-7.2699,87.5],[110.8554,-7.2695,107.897],[110.8578,-7.2711,134.8043],[110.8675,-7.2652,101.7247],[110.8712,-7.2692,113.7557],[110.8697,-7.2731,92.6403],[110.877,-7.2773,113.0715],[110.877,-7.2751,114.7935],[110.8788,-7.2742,103.3375],[110.8892,-7.2727,92.7683],[110.9008,-7.2759,76.0425],[110.9007,-7.282,79.4438],[110.9045,-7.2832,83.6812],[110.9105,-7.2811,85.6537],[110.9177,-7.282,96.0487],[110.9202,-7.28,107.8508]]]]}}