{"type":"Feature","properties":{"GID_3":"IDN.17.5.2_1","GID_0":"IDN","country":"Indonesia","GID_1":"IDN.17_1","province":"Lampung","NL_NAME_1":"NA","GID_2":"IDN.17.5_1","county":"LampungTimur","NL_NAME_2":"NA","city":"BatanghariNuban","VARNAME_3":"NA","NL_NAME_3":"NA","TYPE_3":"Kecamatan","ENGTYPE_3":"Sub-district","CC_3":"1804092","HASC_3":"NA","name":"Batanghari_Nuban.city"},
"geometry":{"type": "MultiPolygon","coordinates": [[[[105.4707,-5.0858,43.3021],[105.471,-5.0806,55.36],[105.4696,-5.0787,57.4439],[105.4801,-5.0783,47.0514],[105.479,-5.0737,47.9211],[105.4727,-5.0665,54.6319],[105.4727,-5.0642,49.4917],[105.4747,-5.0625,50.785],[105.4776,-5.0631,46.0117],[105.4775,-5.0608,46.3339],[105.4799,-5.058,47.3767],[105.4791,-5.0557,31.7773],[105.4758,-5.0576,44.1204],[105.4783,-5.0489,38.8919],[105.4801,-5.0487,41.4438],[105.4792,-5.0417,32.8966],[105.4821,-5.037,31.7126],[105.4813,-5.035,27.4593],[105.4778,-5.0338,24.8749],[105.4807,-5.0263,29.6915],[105.474,-5.0157,27.835],[105.4652,-5.0153,34.6383],[105.4632,-5.0124,35.2755],[105.4545,-5.0084,21.9172],[105.4467,-5.0071,20.866],[105.4402,-5.0089,22.5737],[105.4342,-5.0127,32.251],[105.4312,-5.0166,31.3157],[105.428,-5.0119,32.8447],[105.4234,-5.0108,33.6394],[105.4043,-5.0174,38.9212],[105.4042,-5.011,38.5306],[105.414,-5.0069,39.5422],[105.4072,-4.9983,28.5843],[105.4151,-4.9899,27.4022],[105.4152,-4.9857,27.1601],[105.4064,-4.9879,26.4217],[105.3943,-4.9937,34.9044],[105.3957,-4.9858,24.2792],[105.4012,-4.9818,25.9677],[105.4056,-4.9716,30.7763],[105.4027,-4.9704,35.8543],[105.3981,-4.9707,35.268],[105.3951,-4.9687,33.2611],[105.3866,-4.9677,35.4364],[105.3765,-4.9739,35.1688],[105.3616,-4.973,37.363],[105.3564,-4.9677,35.6662],[105.3545,-4.9706,36.9636],[105.3494,-4.9698,37.5759],[105.349,-4.9648,34.9647],[105.3454,-4.9642,39.1992],[105.3399,-4.9723,47.2603],[105.3336,-4.9762,40.6686],[105.3277,-4.9865,48.4797],[105.3231,-5.0067,41.1589],[105.3329,-5.0072,45.7455],[105.3331,-5.0113,46.3503],[105.3373,-5.012,36.3042],[105.3397,-5.0089,38.8809],[105.3439,-5.0072,33.8717],[105.3445,-5.0087,39.6661],[105.3541,-5.0088,38.596],[105.3529,-5.0138,45.2657],[105.363,-5.0119,37.2225],[105.3629,-5.0222,41.7286],[105.3647,-5.026,35.4657],[105.3761,-5.0265,38.233],[105.3779,-5.0385,46.3494],[105.391,-5.0399,36.8192],[105.3916,-5.0412,36.8192],[105.3937,-5.0391,33.6737],[105.3934,-5.0358,33.8992],[105.3953,-5.0358,32.5248],[105.4134,-5.0452,39.2173],[105.4094,-5.0492,37.991],[105.4086,-5.0514,43.8627],[105.41,-5.053,40.6376],[105.4052,-5.0562,46.465],[105.4073,-5.0576,45.6045],[105.4083,-5.0567,45.6045],[105.4108,-5.0582,49.7187],[105.416,-5.0545,36.2673],[105.4213,-5.0531,25.1227],[105.4252,-5.05,26.0921],[105.4263,-5.047,25.0616],[105.4299,-5.0496,34.8031],[105.4341,-5.048,36.9148],[105.4296,-5.0642,45.38],[105.416,-5.0758,36.8983],[105.4148,-5.0792,36.9174],[105.4159,-5.0865,38.4306],[105.4207,-5.099,55.5845],[105.4268,-5.0975,71.656],[105.4382,-5.0828,67.7065],[105.4399,-5.0963,121.5888],[105.4568,-5.0928,67.0351],[105.4565,-5.089,65.3629],[105.4715,-5.0875,40.2555],[105.4707,-5.0858,43.3021]]]]}}