{"type":"Feature","properties":{"GID_3":"IDN.18.3.4_1","GID_0":"IDN","country":"Indonesia","GID_1":"IDN.18_1","province":"MalukuUtara","NL_NAME_1":"NA","GID_2":"IDN.18.3_1","county":"HalmaheraTengah","NL_NAME_2":"NA","city":"PulauGebe","VARNAME_3":"NA","NL_NAME_3":"NA","TYPE_3":"Kecamatan","ENGTYPE_3":"Sub-district","CC_3":"8202041","HASC_3":"NA","name":"Pulau_Gebe.city"},
"geometry":{"type": "MultiPolygon","coordinates": [[[[129.5599,-0.1523,0.0],[129.5466,-0.1296,2.446],[129.5352,-0.1229,0.0],[129.5325,-0.1189,0.0],[129.512,-0.1079,0.0],[129.5054,-0.101,0.0],[129.4729,-0.0867,7.8282],[129.4696,-0.0827,7.7656],[129.4661,-0.0743,0.0],[129.4601,-0.0672,0.0],[129.434,-0.0537,3.3834],[129.4128,-0.0249,0.0],[129.4014,-0.0132,20.4768],[129.3552,0.0122,3.9883],[129.3379,0.0256,0.0],[129.3139,0.0355,0.0],[129.2867,0.051,0.0],[129.28,0.0482,20.2752],[129.2793,0.0429,52.117],[129.2878,0.0298,10.967],[129.2903,0.0284,0.0],[129.297,0.0312,9.2043],[129.3111,0.0259,0.0],[129.3298,0.0228,17.2903],[129.3415,0.0143,20.8799],[129.3475,0.0055,10.6335],[129.3541,0.0025,4.8862],[129.36,-0.0037,0.0],[129.3598,-0.0024,8.3361],[129.3627,-0.0032,0.0],[129.3727,-0.0196,0.0],[129.3747,-0.0202,1.0418],[129.3818,-0.0306,15.4389],[129.3811,-0.0363,0.0],[129.3849,-0.0419,8.3072],[129.382,-0.0524,6.2227],[129.3879,-0.0606,2.911],[129.3822,-0.0662,0.0],[129.3818,-0.0715,11.5751],[129.3831,-0.0729,11.5751],[129.3924,-0.0746,0.0],[129.398,-0.0719,4.5021],[129.4016,-0.0721,3.2255],[129.4022,-0.0707,18.9199],[129.4145,-0.0713,0.0],[129.4264,-0.0758,3.741],[129.4328,-0.0836,1.7173],[129.4385,-0.0873,3.6157],[129.4397,-0.0863,4.9294],[129.4407,-0.0883,0.0],[129.4546,-0.0922,0.0],[129.4567,-0.0891,12.3861],[129.4613,-0.0923,1.7339],[129.4603,-0.0937,6.0262],[129.4616,-0.0979,3.5701],[129.4734,-0.1101,8.659],[129.4798,-0.1245,0.0],[129.4794,-0.1256,3.5206],[129.4779,-0.1241,0.0],[129.4739,-0.1279,0.9726],[129.4695,-0.1395,0.0],[129.4763,-0.1432,0.0],[129.4805,-0.1404,10.3832],[129.4856,-0.1419,7.4093],[129.4881,-0.1471,0.0],[129.4933,-0.1499,3.6788],[129.4973,-0.1502,10.3342],[129.4998,-0.1539,42.153],[129.4989,-0.1549,0.0],[129.5027,-0.158,0.0],[129.5078,-0.1609,36.0871],[129.516,-0.1623,24.5197],[129.512,-0.1659,5.564],[129.5128,-0.1692,1.0512],[129.5091,-0.172,5.0795],[129.5077,-0.1763,19.2431],[129.513,-0.1843,10.1696],[129.5195,-0.1859,8.0494],[129.521,-0.1996,0.0],[129.5311,-0.2068,2.3748],[129.5369,-0.2135,0.0],[129.5468,-0.2144,13.2671],[129.5508,-0.2101,0.0],[129.5475,-0.1992,38.1018],[129.5577,-0.2091,13.8414],[129.5634,-0.2125,1.2822],[129.5637,-0.2097,6.1497],[129.5606,-0.206,1.9518],[129.5598,-0.202,0.0],[129.5617,-0.1981,0.0],[129.5643,-0.1972,4.821],[129.5729,-0.2002,0.0],[129.5754,-0.199,0.0],[129.5733,-0.1794,0.0],[129.5599,-0.1523,0.0]]],
[[[129.4217,-0.0791,0.0],[129.4208,-0.0784,0.0],[129.4188,-0.0816,24.1409],[129.413,-0.0845,3.9555],[129.4105,-0.0919,14.5129],[129.4161,-0.1027,7.7823],[129.4324,-0.1181,0.0],[129.4346,-0.1161,8.7271],[129.4338,-0.105,0.0],[129.4355,-0.0999,0.0],[129.4334,-0.0975,1.4671],[129.432,-0.0907,0.0],[129.4279,-0.0877,0.0],[129.4268,-0.0898,2.5265],[129.4303,-0.0936,5.8539],[129.4261,-0.1018,6.3627],[129.4222,-0.1019,7.4541],[129.4235,-0.0993,0.0],[129.4214,-0.0966,0.0],[129.424,-0.0969,0.0],[129.4255,-0.0953,0.9731],[129.4267,-0.088,5.7851],[129.4237,-0.0856,1.4578],[129.4217,-0.0791,0.0]]],
[[[129.6355,-0.0746,0.0],[129.6355,-0.0754,0.0],[129.636,-0.0754,0.0],[129.6361,-0.075,0.0],[129.6355,-0.0746,0.0]]],
[[[129.6339,-0.0753,0.0],[129.6341,-0.0743,0.0],[129.6325,-0.0746,0.0],[129.6326,-0.0756,0.0],[129.6339,-0.0753,0.0]]],
[[[129.6322,-0.0732,0.0],[129.6312,-0.0744,0.0],[129.6312,-0.075,0.0],[129.6338,-0.0725,0.0],[129.6322,-0.0732,0.0]]],
[[[129.6337,-0.0343,0.0],[129.6032,-0.0044,0.0],[129.5931,-0.0016,5.2224],[129.5844,-0.0088,1.3791],[129.5835,-0.0125,12.3514],[129.5847,-0.0323,0.0],[129.5875,-0.0447,22.7872],[129.5972,-0.056,1.7891],[129.6078,-0.0648,0.0],[129.6148,-0.0684,0.0],[129.6198,-0.0685,0.0],[129.6254,-0.0715,0.0],[129.6299,-0.0697,0.0],[129.6287,-0.0674,0.0],[129.6257,-0.0694,0.0],[129.6239,-0.0669,0.0],[129.6195,-0.0657,3.0889],[129.6265,-0.0655,5.2055],[129.6233,-0.0618,0.0],[129.6234,-0.0583,0.0],[129.6321,-0.0585,0.0],[129.6321,-0.0568,0.677],[129.6353,-0.0557,0.0],[129.6271,-0.0517,7.5705],[129.6268,-0.048,0.0],[129.6199,-0.0456,4.1328],[129.6153,-0.0405,10.9118],[129.6162,-0.037,2.7564],[129.6193,-0.0357,7.5192],[129.6222,-0.0373,7.8737],[129.6253,-0.0365,3.0648],[129.625,-0.038,0.0],[129.6264,-0.0381,0.0],[129.6257,-0.0347,0.9741],[129.6238,-0.0343,4.4848],[129.6255,-0.0314,3.543],[129.6284,-0.0388,0.0],[129.6317,-0.0413,3.9126],[129.6278,-0.0399,0.0],[129.627,-0.0434,0.7506],[129.6306,-0.0428,0.563],[129.6296,-0.0449,1.7865],[129.6311,-0.048,0.0],[129.6418,-0.054,0.0],[129.6465,-0.0586,0.0],[129.6467,-0.0653,0.8362],[129.6434,-0.0679,2.0953],[129.6407,-0.0672,0.0],[129.6419,-0.0698,1.8988],[129.6495,-0.072,0.0],[129.6537,-0.0708,0.0],[129.6564,-0.0668,0.0],[129.6575,-0.0591,0.0],[129.6537,-0.0478,0.0],[129.6337,-0.0343,0.0]]],
[[[129.6275,0.0064,0.0],[129.6377,0.0097,2.066],[129.6384,0.0114,13.4139],[129.636,0.0179,4.0886],[129.6287,0.0237,2.1826],[129.6245,0.0209,15.0731],[129.6275,0.0064,0.0]]]]}}