{"type":"Feature","properties":{"GID_3":"IDN.9.26.29_1","GID_0":"IDN","country":"Indonesia","GID_1":"IDN.9_1","province":"JawaBarat","NL_NAME_1":"NA","GID_2":"IDN.9.26_1","county":"Tasikmalaya","NL_NAME_2":"NA","city":"Salopa","VARNAME_3":"NA","NL_NAME_3":"NA","TYPE_3":"Kecamatan","ENGTYPE_3":"Sub-district","CC_3":"3206140","HASC_3":"NA","name":"Salopa.city"},
"geometry":{"type": "MultiPolygon","coordinates": [[[[108.2872,-7.5587,278.5652],[108.2909,-7.5584,233.9146],[108.2916,-7.5568,213.9992],[108.2949,-7.5561,211.8566],[108.2952,-7.5543,222.8162],[108.2978,-7.5541,207.6359],[108.3,-7.5467,236.3463],[108.305,-7.5484,259.9845],[108.3104,-7.5481,297.3616],[108.321,-7.5543,375.1975],[108.3246,-7.5538,395.4657],[108.3278,-7.5513,431.7095],[108.3277,-7.5484,481.3042],[108.3298,-7.5464,475.6289],[108.3283,-7.5459,593.5218],[108.3302,-7.5449,480.0603],[108.3344,-7.5299,713.0212],[108.3365,-7.5283,735.0675],[108.3339,-7.524,833.9595],[108.3338,-7.5111,766.4135],[108.3366,-7.5075,841.8393],[108.3516,-7.5005,783.1719],[108.3511,-7.4943,1033.1802],[108.3522,-7.4929,991.3651],[108.3469,-7.4903,826.3748],[108.3426,-7.4826,782.5419],[108.3376,-7.481,835.0372],[108.3365,-7.4765,931.8081],[108.3336,-7.4729,826.3906],[108.3313,-7.4728,802.8192],[108.3252,-7.4769,860.92],[108.3196,-7.4711,828.0432],[108.3149,-7.4732,731.5394],[108.307,-7.4729,740.6332],[108.3055,-7.4709,716.0859],[108.3021,-7.4717,682.2538],[108.2957,-7.4668,589.9745],[108.2914,-7.4657,497.0411],[108.2941,-7.4615,485.6818],[108.2913,-7.4582,592.17],[108.2915,-7.4502,472.1234],[108.2893,-7.4442,525.9439],[108.2757,-7.4313,435.8427],[108.2752,-7.4278,424.8654],[108.2722,-7.4255,417.4863],[108.2713,-7.4317,356.2265],[108.2668,-7.4342,345.5302],[108.2665,-7.4373,329.7297],[108.2633,-7.4412,324.5154],[108.263,-7.4495,313.4329],[108.2597,-7.4527,287.5634],[108.2597,-7.4554,311.7008],[108.2636,-7.4584,309.9521],[108.2689,-7.4587,315.0294],[108.2686,-7.4616,372.5577],[108.2709,-7.4632,396.9893],[108.2732,-7.4636,435.5714],[108.2734,-7.4602,355.7778],[108.2776,-7.4614,363.1764],[108.278,-7.473,524.8075],[108.2755,-7.4776,560.7099],[108.2682,-7.4785,589.2864],[108.2636,-7.4814,573.156],[108.2592,-7.4726,443.4287],[108.2486,-7.4728,464.3159],[108.2462,-7.4765,560.4258],[108.244,-7.4756,507.0069],[108.2397,-7.4819,478.0927],[108.2348,-7.483,430.3939],[108.2309,-7.4888,370.0078],[108.2241,-7.4921,317.5967],[108.2187,-7.4916,225.1066],[108.2162,-7.4946,210.9747],[108.2222,-7.4959,229.3496],[108.2227,-7.4973,240.9878],[108.2279,-7.4966,269.8089],[108.2318,-7.4992,303.6639],[108.2344,-7.5113,442.1528],[108.2322,-7.5168,384.9662],[108.2343,-7.5191,357.0383],[108.2373,-7.5203,365.5921],[108.251,-7.515,439.4747],[108.2485,-7.525,353.4478],[108.2499,-7.5281,377.4669],[108.2539,-7.5292,363.4901],[108.2552,-7.5407,271.1349],[108.2651,-7.5476,338.9327],[108.2703,-7.5553,285.2916],[108.2751,-7.5583,275.1037],[108.2746,-7.5621,280.5751],[108.2795,-7.5621,294.1046],[108.2872,-7.5587,278.5652]]]]}}