{"type":"Feature","properties":{"GID_3":"IDN.28.6.10_1","GID_0":"IDN","country":"Indonesia","GID_1":"IDN.28_1","province":"SulawesiTenggara","NL_NAME_1":"NA","GID_2":"IDN.28.6_1","county":"KolakaUtara","NL_NAME_2":"NA","city":"Porehu","VARNAME_3":"NA","NL_NAME_3":"NA","TYPE_3":"Kecamatan","ENGTYPE_3":"Sub-district","CC_3":"7408061","HASC_3":"NA","name":"Porehu.city"},
"geometry":{"type": "MultiPolygon","coordinates": [[[[121.187,-3.0833,890.2904],[121.2031,-3.0837,1176.7189],[121.2493,-3.0791,1020.8658],[121.2826,-3.0794,808.797],[121.3159,-3.0847,329.8084],[121.3517,-3.0854,857.0544],[121.3662,-3.0835,1051.8224],[121.3843,-3.0756,1688.8707],[121.3817,-3.0709,1569.4825],[121.3668,-3.0595,1477.6111],[121.3613,-3.0521,1506.4231],[121.3606,-3.044,1290.4614],[121.3629,-3.0256,1109.7085],[121.3687,-3.0152,950.075],[121.3699,-3.0099,948.6635],[121.3578,-2.9747,548.1643],[121.3496,-2.9701,579.4402],[121.3387,-2.9502,515.5051],[121.3288,-2.9386,578.0455],[121.329,-2.9352,625.9016],[121.3369,-2.925,627.4592],[121.3553,-2.9079,957.1851],[121.3577,-2.9039,1055.2748],[121.3577,-2.8993,1154.3469],[121.3535,-2.8859,1113.8318],[121.3405,-2.8597,601.2982],[121.3326,-2.834,634.9199],[121.3187,-2.8077,1015.4169],[121.3081,-2.8056,729.0183],[121.2954,-2.8071,737.1343],[121.2805,-2.8186,863.1571],[121.2445,-2.8244,515.9297],[121.2357,-2.8282,187.3655],[121.2307,-2.8376,134.6665],[121.2332,-2.8422,109.8923],[121.2291,-2.8447,116.0931],[121.2247,-2.8449,111.3179],[121.2208,-2.8431,106.7757],[121.2238,-2.8493,121.4026],[121.2212,-2.8508,112.4933],[121.2233,-2.8536,127.7359],[121.2222,-2.8566,112.8779],[121.22,-2.8585,121.9076],[121.2183,-2.8565,135.8638],[121.2196,-2.8549,129.6725],[121.2173,-2.854,122.7872],[121.2147,-2.8554,127.0747],[121.2144,-2.8581,119.7751],[121.2115,-2.8576,131.4806],[121.2048,-2.8713,267.9843],[121.2038,-2.8897,222.0348],[121.2019,-2.8972,245.8202],[121.191,-2.9318,407.1114],[121.1818,-2.9495,525.1086],[121.1784,-2.9687,672.1822],[121.1551,-2.9649,806.8149],[121.1603,-2.9739,756.6675],[121.1621,-2.9816,789.91],[121.1546,-2.9853,696.808],[121.1462,-2.9857,634.4755],[121.1304,-2.9831,506.5977],[121.1041,-2.984,291.3134],[121.1029,-2.9923,195.0135],[121.1048,-3.0097,99.3658],[121.1024,-3.0252,45.9405],[121.104,-3.0315,65.8696],[121.1169,-3.0328,278.4112],[121.1184,-3.0348,243.4763],[121.1184,-3.0377,273.9872],[121.1148,-3.0409,156.1438],[121.1096,-3.0508,37.9294],[121.1199,-3.0496,95.9209],[121.1315,-3.0521,350.4991],[121.133,-3.0608,519.6155],[121.13,-3.0636,477.6053],[121.1312,-3.0701,365.7896],[121.1525,-3.0797,234.2192],[121.1596,-3.0821,377.376],[121.187,-3.0833,890.2904]]]]}}