{"type":"Feature","properties":{"GID_2":"IDN.34.2_1","GID_0":"IDN","country":"Indonesia","GID_1":"IDN.34_1","province":"KalimantanTimur","NL_NAME_1":"NA","county":"Berau","VARNAME_2":"NA","NL_NAME_2":"NA","TYPE_2":"Kabupaten","ENGTYPE_2":"Regency","CC_2":"6405","HASC_2":"ID.KM.BE","name":"Berau.county"},
"geometry":{"type": "MultiPolygon","coordinates": [[[[118.9883,1.7833,0.0],[118.9865,1.7829,0.0],[118.985,1.7812,0.0],[118.9881,1.781,0.0],[118.9883,1.7833,0.0]]],
[[[118.9219,1.7883,0.0],[118.9201,1.7918,0.0],[118.9181,1.7915,0.0],[118.9181,1.7879,0.0],[118.9203,1.7862,0.0],[118.9219,1.7883,0.0]]],
[[[118.9448,1.5708,0.0],[118.9401,1.5691,0.0],[118.9382,1.5651,0.0],[118.9402,1.5649,0.0],[118.9443,1.5679,0.0],[118.9448,1.5708,0.0]]],
[[[118.9572,1.7613,0.0],[118.9541,1.7616,0.0],[118.9603,1.758,0.0],[118.96,1.7598,0.0],[118.9572,1.7613,0.0]]],
[[[118.9508,1.7656,0.0],[118.9502,1.7674,0.0],[118.9489,1.7675,0.0],[118.9493,1.766,0.0],[118.9508,1.7656,0.0]]],
[[[118.9294,1.7799,0.0],[118.9335,1.774,0.0],[118.9448,1.7709,0.0],[118.9315,1.7812,0.0],[118.9294,1.7799,0.0]]],
[[[118.3927,1.4275,0.0],[118.3926,1.4256,0.0],[118.3949,1.4259,5.3244],[118.3948,1.4269,5.3244],[118.3927,1.4275,0.0]]],
[[[118.4265,1.4001999999999999,0.0],[118.4268,1.401,0.0],[118.4262,1.4013,0.0],[118.4258,1.4006,0.0],[118.4265,1.4001999999999999,0.0]]],
[[[118.4237,1.4059,1.4834],[118.4221,1.4058,1.4834],[118.4215,1.4044,4.2969],[118.4244,1.4044,0.0],[118.4237,1.4059,1.4834]]],
[[[118.3838,1.4999,0.686],[118.3836,1.4974,2.4223],[118.3856,1.4972,4.2371],[118.3858,1.5005,0.0],[118.3838,1.4999,0.686]]],
[[[118.9021,1.5295,0.0],[118.8976,1.5242,0.0],[118.8978,1.5221,0.0],[118.9048,1.5284,0.0],[118.9046,1.5302,0.0],[118.9021,1.5295,0.0]]],
[[[118.623,1.5295,0.0],[118.6274,1.5293,0.0],[118.6279,1.5313,0.0],[118.6211,1.5312,0.0],[118.6211,1.5298,0.0],[118.623,1.5295,0.0]]],
[[[118.4695,1.4652,0.4982],[118.4681,1.4669,1.0773],[118.4639,1.4657,0.0],[118.4647,1.4639,0.2846],[118.4626,1.4629,1.6602],[118.4579,1.4628,1.7689],[118.4613,1.4571,3.3996],[118.4612,1.451,1.2949],[118.4631,1.4505,1.2949],[118.464,1.4529,2.9893],[118.4664,1.4509,1.1021],[118.4685,1.454,4.5063],[118.4717,1.4537,11.7718],[118.4696,1.4623,0.0],[118.4666,1.4635,3.0267],[118.469,1.4629,3.3038],[118.4695,1.4652,0.4982]]],
[[[118.8379,1.1153,0.503],[118.8444,1.1133,1.2277],[118.8469,1.1145,0.0],[118.8456,1.1189,0.0],[118.8403,1.1211,0.0],[118.8371,1.1197,2.419],[118.836,1.1168,7.4479],[118.8379,1.1153,0.503]]],
[[[118.559,1.3738,0.0],[118.5543,1.3752,2.1927],[118.5544,1.3712,3.4795],[118.5582,1.3704,0.0],[118.5608,1.3725,2.367],[118.559,1.3738,0.0]]],
[[[118.4637,1.3767,5.987],[118.462,1.375,3.0368],[118.4627,1.3726,1.3932],[118.4647,1.3748,9.2307],[118.4637,1.3767,5.987]]],
[[[118.4919,1.3728,0.0],[118.4911,1.3728,0.0],[118.4901,1.3708,1.4469],[118.4921,1.3714,0.0],[118.4919,1.3728,0.0]]],
[[[118.5271,1.3655,0.0],[118.5245,1.3685,8.9102],[118.5221,1.3681,5.6262],[118.5173,1.3623,0.0],[118.519,1.3612,0.0],[118.5271,1.3655,0.0]]],
[[[118.551,1.3663,0.0],[118.5498,1.3635,0.5616],[118.5533,1.363,3.722],[118.5529,1.3665,2.0573],[118.551,1.3663,0.0]]],
[[[118.5563,1.364,1.2112],[118.5582,1.366,0.5436],[118.5546,1.3672,0.0],[118.5541,1.3634,2.5384],[118.5563,1.364,1.2112]]],
[[[118.5439,1.3679,0.7985],[118.5428,1.3659,0.0],[118.5433,1.3643,0.0],[118.5453,1.3655,6.3315],[118.5439,1.3679,0.7985]]],
[[[118.4426,1.3785,0.0],[118.4421,1.3792,0.0],[118.4413,1.3784,0.0],[118.4421,1.378,0.0],[118.4426,1.3785,0.0]]],
[[[118.4367,1.381,0.0],[118.4358,1.3817,0.0],[118.4353,1.3816,0.0],[118.4357,1.3805,0.0],[118.4367,1.381,0.0]]],
[[[118.4483,1.3986,0.5976],[118.4496,1.3994,0.0],[118.4468,1.3996,2.133],[118.4454,1.398,0.8826],[118.446,1.3975,0.8826],[118.4483,1.3986,0.5976]]],
[[[118.5335,1.3854,0.0],[118.5325,1.3862,0.0],[118.532,1.384,0.0],[118.5331,1.3839,0.0],[118.5335,1.3854,0.0]]],
[[[118.4529,1.3867,2.4714],[118.4534,1.3871,0.0],[118.453,1.3875,0.0],[118.4527,1.3868,2.4714],[118.4529,1.3867,2.4714]]],
[[[118.5398,1.3924,2.0771],[118.5339,1.3927,1.4589],[118.5319,1.3968,0.535],[118.5288,1.3952,0.7034],[118.5324,1.3877,0.8709],[118.536,1.3874,0.6578],[118.5393,1.3895,8.1524],[118.5428,1.396,0.6814],[118.5398,1.3924,2.0771]]],
[[[118.4511,1.3929,0.4798],[118.448,1.3976,0.5976],[118.4453,1.3947,4.484],[118.4386,1.3946,1.003],[118.4402,1.3848,0.0],[118.4422,1.3816,0.0],[118.4446,1.3802,0.0],[118.4521,1.386,2.4714],[118.4511,1.3929,0.4798]]],
[[[118.4799,1.4541,0.0],[118.476,1.4528,3.8145],[118.4773,1.456,4.2097],[118.4739,1.4604,12.4683],[118.4723,1.4584,0.8232],[118.4732,1.4542,4.6037],[118.4721,1.4534,11.7718],[118.4688,1.4534,4.905],[118.4667,1.4501,1.9086],[118.4671,1.4475,0.5641],[118.4697,1.4476,5.3858],[118.4692,1.4458,0.0],[118.4726,1.4462,1.707],[118.4674,1.4421,3.3997],[118.4662,1.4393,2.3769],[118.4697,1.4399,1.5345],[118.472,1.4383,0.0],[118.4744,1.4401,0.0],[118.478,1.4389,3.6394],[118.4815,1.4315,0.2482],[118.4779,1.429,1.5094],[118.4741,1.4308,0.0],[118.4735,1.4274,0.7186],[118.469,1.428,0.5835],[118.4663,1.425,4.4379],[118.4686,1.4129,1.1913],[118.4735,1.4016,0.0],[118.4811,1.3943,1.4318],[118.4803,1.3931,1.6566],[118.4819,1.3908,2.5622],[118.4841,1.391,7.5571],[118.4843,1.3886,0.0],[118.4873,1.3892,3.2565],[118.4881,1.3869,0.0],[118.4953,1.3856,3.0007],[118.5006,1.3808,3.3472],[118.5047,1.3804,0.0],[118.5109,1.3829,2.5741],[118.5113,1.3843,6.4986],[118.5135,1.3828,1.6501],[118.5146,1.3854,5.0041],[118.5158,1.3847,0.0],[118.5177,1.3865,4.0867],[118.5216,1.385,0.0],[118.53,1.386,0.0],[118.5285,1.3921,0.0],[118.5225,1.3943,0.0],[118.5209,1.392,14.1278],[118.5193,1.3948,0.0],[118.5165,1.3959,8.3683],[118.5159,1.4048,2.0366],[118.5133,1.4066,3.0078],[118.5099,1.4059,12.7945],[118.5099,1.4113,0.453],[118.5073,1.4101,1.3109],[118.5065,1.4051,14.0037],[118.505,1.4118,0.0],[118.4971,1.4092,2.1219],[118.5022,1.4155,0.0],[118.4983,1.4154,5.335],[118.4966,1.4195,0.0],[118.4929,1.4209,0.8805],[118.4949,1.4227,0.0],[118.4926,1.4252,0.0],[118.4959,1.4248,0.0],[118.4975,1.4284,0.8603],[118.4916,1.4369,4.3588],[118.4873,1.4356,4.1129],[118.4898,1.4371,5.016],[118.4888,1.4386,5.016],[118.499,1.441,0.0],[118.4965,1.4415,1.136],[118.4965,1.4438,0.0],[118.4923,1.4428,2.0877],[118.4934,1.4441,0.0],[118.4919,1.4447,0.5011],[118.4881,1.4413,2.3591],[118.4922,1.4478,0.0],[118.4914,1.4487,0.2167],[118.489,1.4454,1.4037],[118.4865,1.4448,2.1203],[118.4839,1.4403,2.6505],[118.4795,1.4457,6.8792],[118.4835,1.4475,5.5555],[118.4839,1.4505,0.0],[118.4802,1.4486,0.687],[118.481,1.4469,2.5248],[118.4796,1.4485,5.3587],[118.4758,1.4476,3.9064],[118.479,1.4488,0.0],[118.4782,1.4499,0.0],[118.4813,1.4519,0.7079],[118.4799,1.4541,0.0]]],
[[[117.8193,2.0928,3.4045],[117.8308,2.0968,1.4431],[117.8271,2.1061,1.0034],[117.8123,2.1103,1.0],[117.7956,2.1097,0.666],[117.7905,2.0994,3.0732],[117.7882,2.0978,0.0],[117.7844,2.0963,5.382],[117.7762,2.0967,3.666],[117.7785,2.092,1.7561],[117.7783,2.0832,2.6503],[117.7801,2.0799,2.6536],[117.7795,2.0724,4.749],[117.775,2.0727,3.5288],[117.7738,2.0692,8.7004],[117.7688,2.0651,2.6253],[117.7665,2.0658,3.74],[117.7627,2.0713,12.4999],[117.7566,2.072,8.7563],[117.7545,2.0654,4.498],[117.752,2.0635,3.216],[117.7529,2.0567,2.4674],[117.7568,2.0544,2.7571],[117.761,2.0543,1.5459],[117.7645,2.0498,0.5],[117.7664,2.0507,3.468],[117.7684,2.0555,10.1521],[117.7708,2.0554,2.4524],[117.7741,2.048,0.5],[117.7804,2.0525,2.7765],[117.7843,2.0512,3.9558],[117.7871,2.0467,0.5],[117.7881,2.0359,3.7666],[117.7973,2.0411,2.4294],[117.8015,2.0419,0.0],[117.8056,2.0486,4.9187],[117.8051,2.057,1.2208],[117.8129,2.0589,8.1616],[117.8192,2.0646,7.1226],[117.8231,2.0716,2.459],[117.8227,2.0784,5.7122],[117.8189,2.0803,3.7471],[117.8143,2.0801,1.7988],[117.813,2.0751,4.3532],[117.8081,2.0735,6.6486],[117.8028,2.0749,1.5],[117.7994,2.0795,4.4183],[117.7939,2.0787,1.7622],[117.7924,2.0749,3.5809],[117.7948,2.0696,2.6962],[117.7949,2.0674,3.4733],[117.7928,2.0612,6.1366],[117.7868,2.0579,5.7743],[117.7835,2.0592,6.1721],[117.7819,2.062,8.3849],[117.786,2.0585,7.9724],[117.7916,2.0607,5.1561],[117.7947,2.0685,3.4733],[117.7922,2.0735,3.5774],[117.7919,2.0768,3.8457],[117.7929,2.0787,1.7622],[117.7951,2.08,2.172],[117.8005,2.0799,4.4183],[117.8023,2.0763,4.2132],[117.8057,2.0744,3.4157],[117.8124,2.0754,3.3069],[117.8135,2.0795,1.7988],[117.8116,2.082,2.3903],[117.8097,2.0834,2.3087],[117.8077,2.0802,5.0142],[117.8092,2.084,0.0],[117.8029,2.0845,5.2535],[117.8016,2.0855,3.7072],[117.8019,2.088,5.6153],[117.8064,2.0903,6.5214],[117.8064,2.0889,6.5214],[117.8019,2.0872,5.6153],[117.8037,2.0849,5.2535],[117.8091,2.0846,0.0],[117.8098,2.0884,1.9926],[117.8193,2.0928,3.4045]],
[[117.8064,2.0903,6.5214],[117.8029,2.0941,4.9],[117.8007,2.0887,5.6153],[117.8014,2.093,3.9601],[117.8022,2.0942,1.776],[117.8046,2.0942,4.9],[117.8064,2.091,6.2536],[117.8064,2.0903,6.5214]]],
[[[118.8356,1.0567,9.4385],[118.8366,1.058,0.0],[118.8328,1.0617,24.1377],[118.8325,1.0647,12.0586],[118.8372,1.0713,13.1763],[118.8324,1.0769,10.4161],[118.8279,1.0881,0.0],[118.8279,1.0939,1.0139],[118.8305,1.0984,5.5521],[118.8063,1.1158,0.0],[118.8065,1.1126,0.0],[118.8044,1.1116,16.7697],[118.7977,1.1148,37.4203],[118.7957,1.1169,27.090699999999998],[118.7973,1.1237,10.7706],[118.7932,1.1223,0.0],[118.7911,1.1256,0.0],[118.7875,1.1261,3.6416],[118.7771,1.1336,5.1891],[118.7774,1.1375,5.3757],[118.7798,1.1372,3.4987],[118.78,1.1406,12.4544],[118.7853,1.1348,1.4802],[118.7886,1.1345,0.0],[118.7865,1.1312,0.5933],[118.7946,1.1272,0.0],[118.7917,1.1317,3.7752],[118.795,1.1313,0.0],[118.7906,1.1372,0.0],[118.788,1.1363,12.5122],[118.7751,1.1556,0.0],[118.773,1.154,13.0475],[118.7754,1.1474,4.372],[118.7716,1.151,0.0],[118.7682,1.1503,8.098],[118.7629,1.1525,0.0],[118.7572,1.1512,0.0],[118.7584,1.1464,8.519],[118.7557,1.1482,3.4262],[118.7544,1.1522,0.0],[118.7518,1.1501,7.1043],[118.75,1.1517,2.0388],[118.7495,1.1493,9.8286],[118.7464,1.1504,1.8691],[118.7446,1.1491,0.0],[118.7458,1.147,1.7049],[118.7444,1.1467,4.6177],[118.7426,1.1503,4.4814],[118.7407,1.1509,3.1047],[118.7407,1.1535,1.688],[118.7379,1.1503,8.895],[118.7364,1.1526,10.6255],[118.7347,1.1517,26.3124],[118.7348,1.1553,16.6971],[118.7313,1.1534,27.3835],[118.7277,1.1555,0.0],[118.7213,1.1544,3.812],[118.7276,1.159,29.1916],[118.7311,1.1575,9.0046],[118.7334,1.1589,23.2211],[118.7334,1.1567,0.0],[118.7369,1.1578,6.8639],[118.7381,1.1613,3.5388],[118.7404,1.159,6.58],[118.7447,1.1597,8.7546],[118.7476,1.1577,3.6619],[118.7571,1.1627,4.6038],[118.758,1.1605,11.6678],[118.7624,1.1602,0.0],[118.7649,1.1621,0.3719],[118.7651,1.1656,3.6921],[118.7691,1.1663,1.0844],[118.7694,1.1848,3.9749],[118.7676,1.1951,7.319],[118.7617,1.2039,0.0],[118.7514,1.2148,0.6835],[118.7238,1.2355,0.0],[118.7115,1.2519,9.0655],[118.7043,1.2545,0.0],[118.6969,1.2624,0.0],[118.691,1.2636,5.7515],[118.689,1.2626,0.2611],[118.6866,1.2574,3.0943],[118.6885,1.2526,8.3934],[118.6826,1.2551,23.1321],[118.6849,1.2602,19.2918],[118.6869,1.2598,4.7874],[118.6884,1.2638,2.2772],[118.6872,1.2659,2.664],[118.6824,1.2678,2.2332],[118.672,1.2775,2.1355],[118.6656,1.2776,5.0817],[118.6584,1.2823,7.3485],[118.6446,1.2996,2.6894],[118.6171,1.3161,3.253],[118.6107,1.3233,1.8842],[118.6061,1.3238,1.1293],[118.5864,1.347,6.5914],[118.5817,1.3489,3.0557],[118.5776,1.3542,1.7907],[118.5729,1.3551,10.3797],[118.5715,1.3582,7.5416],[118.5679,1.3587,16.9666],[118.5631,1.3633,1.9507],[118.5539,1.3618,11.6965],[118.5496,1.3566,4.6262],[118.5493,1.3508,5.1134],[118.5484,1.3603,4.6454],[118.5452,1.3605,0.0],[118.5467,1.3583,12.4883],[118.5402,1.3617,8.9936],[118.5365,1.3615,4.505],[118.5354,1.3594,17.7666],[118.5315,1.3585,12.932],[118.531,1.3559,11.5499],[118.5306,1.3573,7.258],[118.5329,1.3629,2.3385],[118.5298,1.3629,4.2187],[118.529,1.3609,4.8272],[118.5269,1.3616,2.4534],[118.5259,1.3574,6.6451],[118.5251,1.361,2.4534],[118.521,1.3606,3.8192],[118.5162,1.3567,5.3376],[118.5149,1.353,7.599],[118.5155,1.3573,12.0474],[118.5171,1.3601,2.3674],[118.5167,1.362,12.815],[118.5067,1.3626,7.3948],[118.5168,1.3656,4.7388],[118.5173,1.3699,8.7515],[118.5133,1.3694,6.5374],[118.5174,1.3728,2.7605],[118.517,1.3749,4.4107],[118.5105,1.3761,2.0348],[118.5,1.3738,0.0],[118.4965,1.371,3.6966],[118.4976,1.367,1.1054],[118.4967,1.3655,1.1054],[118.4948,1.3687,1.4643],[118.49,1.3697,4.4721],[118.4887,1.3658,2.231],[118.491,1.3632,1.7833],[118.4898,1.362,6.9585],[118.4873,1.364,0.778],[118.4872,1.3618,6.1647],[118.4887,1.3611,6.9585],[118.4871,1.3608,6.1647],[118.4842,1.3649,0.0],[118.4764,1.3648,10.5608],[118.4815,1.3654,6.7354],[118.4844,1.3706,5.1678],[118.4885,1.3729,2.1976],[118.4896,1.3753,11.3744],[118.489,1.3792,3.2149],[118.4852,1.3822,0.0],[118.4803,1.3827,4.4461],[118.4804,1.3849,2.2232],[118.4784,1.3818,6.7167],[118.4754,1.3836,1.7343],[118.4743,1.3827,1.7343],[118.4715,1.3772,5.9011],[118.4702,1.3794,2.0745],[118.4678,1.3779,9.8649],[118.4634,1.3678,5.3916],[118.4659,1.3607,13.2697],[118.4627,1.3626,1.8025],[118.462,1.3586,8.8014],[118.4614,1.3649,0.0],[118.4548,1.3697,12.1097],[118.4583,1.3687,0.0],[118.4605,1.3702,3.0897],[118.4607,1.3764,9.6579],[118.468,1.3846,0.0],[118.4688,1.3925,6.4849],[118.4703,1.3943,1.2589],[118.4682,1.3953,8.5368],[118.465,1.3939,9.8751],[118.4647,1.3967,8.8801],[118.46,1.3994,0.5411],[118.4553,1.387,6.99],[118.4503,1.3819,4.888],[118.4496,1.3765,11.2338],[118.4484,1.3784,3.3119],[118.4468,1.3747,7.938],[118.4464,1.3766,10.0509],[118.4477,1.3785,3.3119],[118.4464,1.3795,0.9651],[118.4433,1.3766,2.8724],[118.4452,1.3751,4.8204],[118.4446,1.3718,9.6816],[118.4449,1.3742,4.8204],[118.4417,1.3759,1.3326],[118.4406,1.3786,5.4919],[118.4353,1.3794,3.6171],[118.4315,1.3826,2.0704],[118.4337,1.3842,5.4109],[118.4352,1.389,3.7549],[118.433,1.3989,0.0],[118.4299,1.3995,1.2001],[118.4193,1.3933,4.6888],[118.4108,1.3992,0.0],[118.4085,1.397,8.9924],[118.4099,1.4001999999999999,0.0],[118.4069,1.3994,14.2326],[118.4081,1.4015,3.8823],[118.4072,1.4036,14.9535],[118.4021,1.4047,6.2333],[118.4066,1.4051,3.0928],[118.4134,1.4014,0.0],[118.419,1.4024,5.8774],[118.42,1.4061,12.6479],[118.4154,1.4073,2.3187],[118.4153,1.4092,8.14],[118.4199,1.4078,4.9708],[118.4291,1.413,2.5085],[118.4284,1.4161,1.5013],[118.4303,1.4229,13.2198],[118.4293,1.4256,2.7676],[118.4252,1.4285,1.6144],[118.4162,1.4271,2.3058],[118.4173,1.4289,5.3433],[118.4233,1.4308,2.6894],[118.4241,1.4329,2.5253],[118.4224,1.4342,0.0],[118.4193,1.4336,4.3069],[118.4018,1.4239,2.1331],[118.3979,1.4249,8.7608],[118.3896,1.4227,8.4118],[118.3858,1.4235,4.5344],[118.3841,1.4256,7.7474],[118.3866,1.4243,3.8727],[118.3889,1.4257,5.0005],[118.3882,1.4298,0.0],[118.3865,1.4299,3.5125],[118.3801,1.426,3.5334],[118.3791,1.4232,5.6207],[118.379,1.4262,3.5334],[118.3749,1.4241,0.0],[118.3841,1.4314,4.8735],[118.3843,1.433,10.5534],[118.3822,1.4324,5.5835],[118.384,1.4341,4.5918],[118.3977,1.4354,0.0],[118.4052,1.4385,2.4367],[118.4058,1.4372,13.6414],[118.4096,1.4373,11.6856],[118.4139,1.4385,0.0],[118.4167,1.4413,1.9738],[118.4206,1.4487,0.6477],[118.4182,1.4596,0.0],[118.4173,1.4607,0.7292],[118.4126,1.4599,1.729],[118.4083,1.4562,11.1307],[118.411,1.4611,5.2832],[118.4104,1.4636,4.6111],[118.4125,1.4643,3.4505],[118.4144,1.4724,0.0],[118.4097,1.4867,2.1068],[118.4074,1.4869,0.991],[118.406,1.4831,3.1928],[118.4023,1.4835,1.62],[118.4013,1.4805,0.0],[118.3993,1.4813,3.1977],[118.4002,1.4846,0.4282],[118.3978,1.4838,0.5899],[118.3977,1.4857,0.0],[118.3947,1.4873,0.1732],[118.3866,1.4809,19.5308],[118.387,1.4873,0.538],[118.3826,1.4837,1.7128],[118.3823,1.4807,2.6093],[118.3761,1.483,5.217],[118.3739,1.4867,1.3232],[118.3777,1.4903,2.4267],[118.3802,1.4896,2.2662],[118.3879,1.4928,0.0],[118.3872,1.4955,0.0],[118.3841,1.4968,8.8161],[118.3788,1.4942,4.4331],[118.3754,1.499,1.6492],[118.3756,1.5013,4.7473],[118.3685,1.5007,8.5025],[118.3675,1.5027,4.0859],[118.3687,1.5049,0.0],[118.3672,1.506,1.4705],[118.3571,1.5053,16.1433],[118.353,1.509,0.0],[118.3419,1.5132,5.4531],[118.3116,1.5304,6.7558],[118.3055,1.531,3.4737],[118.2992,1.5295,6.0729],[118.3032,1.5341,0.5622],[118.302,1.5364,4.0773],[118.2951,1.541,3.0677],[118.2876,1.5428,7.6191],[118.2858,1.5453,13.9072],[118.2761,1.5434,13.0704],[118.2739,1.5498,2.9562],[118.2616,1.5537,4.3934],[118.2581,1.5564,1.3004],[118.2467,1.5583,9.9779],[118.2463,1.5616,4.1784],[118.2288,1.5727,0.0],[118.2103,1.589,0.0],[118.2058,1.5898,3.537],[118.2033,1.5931,0.9334],[118.1799,1.6061,3.2299],[118.1754,1.6105,3.1883],[118.1715,1.6194,2.2618],[118.1652,1.625,26.3803],[118.147,1.632,58.9416],[118.137,1.6327,22.5359],[118.1319,1.6356,8.3053],[118.1073,1.66,5.7463],[118.0916,1.6836,2.4754],[118.0872,1.6886,3.5053],[118.0813,1.6911,1.6656],[118.079,1.6995,17.4881],[118.0727,1.709,0.0],[118.062,1.7171,0.0],[118.0529,1.7296,17.9546],[118.0521,1.7355,7.6974],[118.053,1.737,7.6974],[118.0573,1.7378,0.0],[118.0622,1.7437,0.0],[118.0647,1.7495,0.0],[118.0659,1.7587,13.8865],[118.062,1.7692,0.0],[118.0481,1.7834,0.5189],[118.0381,1.7872,0.0],[118.0252,1.7806,0.0],[118.0233,1.7821,0.0],[118.0103,1.7829,7.9822],[117.9884,1.7896,7.9109],[117.986,1.7888,2.8104],[117.9734,1.7923,4.3311],[117.9667,1.7894,11.397],[117.9655,1.792,5.322],[117.96,1.7943,8.6235],[117.9376,1.8005,8.767],[117.934,1.8036,15.8244],[117.9283,1.8053,10.5586],[117.9211,1.8126,9.6212],[117.9177,1.8125,15.5614],[117.9061,1.8275,0.0],[117.9019,1.836,4.7422],[117.8979,1.8372,0.0],[117.8904,1.854,7.5804],[117.8876,1.8562,0.859],[117.8904,1.8655,9.7368],[117.8898,1.8728,0.0],[117.8709,1.881,3.9528],[117.8593,1.8822,13.2366],[117.8519,1.8914,5.8389],[117.8491,1.8928,7.5926],[117.844,1.891,10.599],[117.8455,1.8955,3.5601],[117.839,1.9055,3.546],[117.8331,1.91,10.6698],[117.8321,1.9212,6.6781],[117.8284,1.9238,4.7523],[117.8246,1.9371,7.4587],[117.825,1.9397,6.8091],[117.8269,1.9402,2.0],[117.8261,1.9486,2.6676],[117.8222,1.9494,7.1912],[117.8177,1.9472,4.2813],[117.8157,1.9488,7.2064],[117.8184,1.9526,3.4515],[117.8166,1.9551,5.7488],[117.8183,1.9605,4.2513],[117.8208,1.9612,3.78],[117.8203,1.9656,4.7593],[117.815,1.9705,8.1141],[117.8157,1.9745,7.8834],[117.8136,1.9803,4.5026],[117.8076,1.9832,44.8776],[117.8064,1.9847,39.0828],[117.8073,1.9874,7.942],[117.809,1.9885,9.9702],[117.8202,1.9871,11.1402],[117.8192,1.9959,3.9269],[117.8234,2.0023,8.0454],[117.8242,2.0099,14.0461],[117.7897,2.0137,10.8059],[117.7853,2.0132,5.0337],[117.7841,2.0116,0.0],[117.7669,2.013,4.0262],[117.744,2.0301,14.1566],[117.7416,2.0432,5.2827],[117.7397,2.045,8.836],[117.7248,2.0301,8.7951],[117.7163,2.026,2.1449],[117.7084,2.0274,6.7142],[117.7013,2.036,12.6506],[117.7006,2.0424,6.2756],[117.6956,2.0504,9.9641],[117.696,2.0545,0.0],[117.6988,2.0578,0.0],[117.7055,2.0597,4.106],[117.7189,2.0598,2.348],[117.7187,2.0653,11.4911],[117.7111,2.0736,12.8569],[117.71,2.0789,5.1622],[117.713,2.0822,5.0567],[117.7261,2.0827,5.6002],[117.7194,2.1045,5.249],[117.7229,2.12,0.0],[117.7233,2.1381,0.0],[117.7187,2.1497,7.6196],[117.7059,2.1635,7.7665],[117.7009,2.1669,8.6687],[117.6815,2.1718,5.9132],[117.6829,2.1781,0.0],[117.6874,2.1803,0.0],[117.7024,2.1816,0.0],[117.7201,2.188,1.1947],[117.7413,2.1918,0.0],[117.7904,2.189,0.0],[117.8023,2.1978,2.6153],[117.8163,2.2013,0.0],[117.8383,2.1989,4.5484],[117.8689,2.1989,4.1837],[117.8934,2.1947,0.0],[117.8956,2.1958,0.0],[117.8984,2.2067,0.0],[117.9047,2.2098,0.0],[117.9083,2.2088,1.0312],[117.9201,2.1975,2.1989],[117.9329,2.1803,0.0],[117.9438,2.1802,0.0],[117.9629,2.1876,2.854],[117.9807,2.1892,0.0],[117.9909,2.1948,0.0],[118.0189,2.196,0.0],[118.0359,2.2106,0.0],[118.0489,2.2246,1.065],[118.0547,2.2282,0.0],[118.0598,2.2361,7.5677],[118.0634,2.2379,0.0],[118.0648,2.2431,3.0752],[118.0734,2.2455,0.0],[118.0782,2.2495,2.2128],[118.0779,2.2534,11.915],[118.0742,2.2563,3.9443],[118.0763,2.2566,3.6257],[118.0776,2.2602,1.5901],[118.0858,2.2654,0.0],[118.0933,2.2741,0.0],[118.0971,2.2812,0.0],[118.0975,2.2862,0.0],[118.0962,2.2889,2.9308],[118.0933,2.2903,2.4503],[118.0906,2.2897,2.9557],[118.0901,2.2839,8.0473],[118.0868,2.2879,7.1698],[118.0843,2.2825,5.6871],[118.0813,2.2827,5.6448],[118.0832,2.2833,5.6871],[118.0889,2.297,0.0],[118.0934,2.299,0.0],[118.094,2.3077,6.8932],[118.0852,2.3242,8.8439],[118.0779,2.3253,0.0],[118.0744,2.3366,7.94],[118.0718,2.3372,0.0],[118.0699,2.3338,6.9688],[118.0646,2.3478,3.7242],[118.0668,2.3507,0.0],[118.0662,2.3544,2.0717],[118.0546,2.3642,4.8101],[118.0452,2.3767,5.8398],[118.0414,2.3755,4.3844],[118.038,2.3711,0.0],[118.0411,2.3628,10.4244],[118.0383,2.3623,4.9438],[118.0349,2.3579,19.6561],[118.0304,2.3561,17.221],[118.0221,2.3586,11.8282],[118.0214,2.3609,0.0],[118.023,2.3652,0.0],[118.0219,2.3676,7.2616],[118.0128,2.3628,12.5629],[118.0085,2.3628,6.866],[118.0015,2.3666,9.7225],[118.0009,2.3681,3.4259],[118.0079,2.3645,9.3297],[118.0132,2.364,8.8125],[118.0166,2.3693,9.4271],[118.0086,2.37,7.179],[118.0025,2.3748,2.8639],[117.999,2.3748,4.0702],[117.9956,2.3699,3.552],[117.9913,2.3717,3.8939],[117.9851,2.3711,3.3907],[117.9844,2.3747,8.369],[117.9861,2.3734,5.8559],[117.9857,2.3713,3.3907],[117.9908,2.3723,5.9056],[117.9948,2.3706,3.0601],[117.9977,2.375,1.8678],[118.001,2.3757,5.2771],[118.003,2.3754,2.8639],[118.0095,2.3703,7.179],[118.0177,2.3718,2.8712],[118.0115,2.3776,5.615],[118.0155,2.3772,0.0],[118.0155,2.3803,3.8695],[118.013,2.3808,6.3365],[118.0184,2.385,0.0],[118.0198,2.3895,0.0],[118.0081,2.4039,7.9056],[117.9962,2.4142,6.1367],[117.9956,2.4192,12.8271],[117.9918,2.4191,14.1547],[117.9939,2.4207,9.1593],[118.0003,2.4213,0.0],[117.9983,2.4327,0.0],[117.988,2.4341,2.3104],[117.9793,2.4265,5.7105],[117.9708,2.4246,16.8284],[117.9646,2.4273,26.6756],[117.9587,2.4269,27.8595],[117.9558,2.4156,14.2549],[117.9346,2.4036,30.0545],[117.933,2.3978,28.2141],[117.9356,2.3902,26.7324],[117.9327,2.3841,57.6193],[117.9197,2.3929,53.265],[117.9067,2.3979,50.6226],[117.8928,2.3984,58.1196],[117.8638,2.3929,80.5239],[117.84,2.3742,108.5101],[117.8223,2.3519,118.6728],[117.8244,2.3482,128.3316],[117.8214,2.3451,128.0101],[117.8215,2.3407,129.1805],[117.8116,2.3264,134.6356],[117.7916,2.3251,142.4799],[117.7854,2.3301,149.9149],[117.7711,2.3301,139.9442],[117.769,2.3336,148.8686],[117.7645,2.3325,151.0398],[117.759,2.3339,143.8673],[117.7561,2.328,150.9019],[117.7469,2.3268,124.4251],[117.7443,2.334,167.8293],[117.7391,2.3382,155.1355],[117.7212,2.3463,177.2892],[117.718,2.3547,120.4187],[117.7189,2.3559,156.6382],[117.7151,2.3574,104.3631],[117.7167,2.3619,169.8394],[117.7152,2.3695,173.2903],[117.7125,2.371,147.9358],[117.7086,2.3916,145.9831],[117.7057,2.3969,141.751],[117.6962,2.4051,111.6421],[117.6879,2.4063,131.0114],[117.6765,2.4258,155.4294],[117.6697,2.4481,148.4599],[117.6542,2.462,160.5623],[117.6389,2.4799,122.43],[117.6276,2.5044,141.394],[117.6088,2.5227,150.0089],[117.588,2.5175,104.3086],[117.572,2.5016,119.1418],[117.5647,2.5058,118.1269],[117.5573,2.5147,110.4096],[117.547,2.5169,116.054],[117.5396,2.5214,109.0763],[117.4986,2.523,132.3922],[117.4949,2.5324,165.0114],[117.4794,2.5413,174.5909],[117.4601,2.5473,193.4389],[117.4444,2.563,173.1324],[117.4335,2.5787,132.0611],[117.4257,2.5865,116.3329],[117.4141,2.5981,123.9043],[117.4008,2.6066,383.0292],[117.3863,2.5981,119.478],[117.3629,2.599,164.5617],[117.3368,2.6046,205.6973],[117.3032,2.6046,149.4397],[117.2789,2.5972,397.1408],[117.2584,2.5822,308.1584],[117.2435,2.5766,350.7968],[117.2006,2.5841,139.4319],[117.1651,2.5878,168.8949],[117.1465,2.5953,119.5526],[117.1122,2.5993,98.1042],[117.0939,2.598,70.5136],[117.07,2.5907,61.2217],[117.0613,2.5813,96.721],[117.0396,2.5415,180.8148],[117.0338,2.5277,387.8786],[117.0237,2.5212,117.8458],[116.994,2.5176,98.4291],[116.9418,2.5074,107.2887],[116.9159,2.4901,88.526],[116.8939,2.4785,774.6681],[116.8643,2.4716,183.5137],[116.8458,2.4606,71.5273],[116.8325,2.4281,69.2722],[116.8226,2.3986,272.809],[116.8081,2.3829,385.3895],[116.796,2.3789,333.6956],[116.7855,2.387,249.2866],[116.7751,2.4391,121.6445],[116.7398,2.5272,144.3527],[116.7328,2.5295,158.0095],[116.7282,2.529,153.8684],[116.7125,2.5174,173.2051],[116.6331,2.4484,407.2094],[116.6285,2.4287,339.6226],[116.6181,2.4171,367.5949],[116.6071,2.4177,500.4682],[116.5763,2.4362,492.6719],[116.57,2.4432,947.1284],[116.5679,2.4513,1175.58],[116.5646,2.4527,987.3002],[116.5507,2.4551,517.4243],[116.5448,2.4544,490.8014],[116.5349,2.4479,801.9727],[116.5246,2.4472,936.1656],[116.5062,2.4551,1150.1088],[116.5002,2.4568,1381.843],[116.4962,2.4558,1699.2727],[116.4911,2.4445,1846.6924],[116.4935,2.4387,1810.3772],[116.4928,2.4307,1841.6427],[116.4964,2.4068,1522.9026],[116.4955,2.4029,1615.8939],[116.4901,2.4013,1451.6788],[116.4882,2.3974,1393.4329],[116.4903,2.3896,1306.3433],[116.4964,2.3833,1102.4075],[116.5006,2.3819,1111.3132],[116.5021,2.3789,1076.6809],[116.5029,2.3742,1080.5347],[116.4983,2.3572,1021.0026],[116.5058,2.3479,1122.167],[116.4996,2.3424,1045.072],[116.4974,2.3354,1110.571],[116.4883,2.328,1152.8312],[116.4852,2.3223,1208.3999],[116.476,2.3166,931.2747],[116.4747,2.3019,1107.8833],[116.477,2.2994,1098.1217],[116.4781,2.2936,944.5462],[116.4759,2.2887,894.3864],[116.4714,2.2846,774.7098],[116.4656,2.2833,747.337],[116.4613,2.2795,731.4149],[116.4573,2.2793,732.8929],[116.4546,2.2831,834.2733],[116.445,2.2866,737.4627],[116.428,2.2891,864.463],[116.4201,2.3016,804.4563],[116.417,2.3039,986.32],[116.4091,2.3016,949.4602],[116.4009,2.2965,1064.8168],[116.3912,2.2975,1318.615],[116.3513,2.2918,1446.6321],[116.3437,2.2888,1488.6522],[116.3345,2.2893,1744.1741],[116.3304,2.2847,1787.6193],[116.3192,2.2776,1857.5145],[116.311,2.2668,1807.0193],[116.3034,2.2602,1756.775],[116.2952,2.2388,1714.6155],[116.2896,2.2352,1695.5139],[116.3004,2.2128,1431.9792],[116.3202,2.1947,1313.9877],[116.3407,2.1828,1227.9504],[116.3502,2.1662,1093.6675],[116.3328,2.1488,995.5508],[116.3217,2.1338,1231.6462],[116.3107,2.122,1075.4775],[116.2925,2.1243,1176.3569],[116.2925,2.1054,1145.1199],[116.2767,2.1046,1325.8423],[116.259,2.1086,1156.4241],[116.2216,2.0951,1331.168],[116.2216,2.0796,1305.2328],[116.2178,2.0633,1283.8254],[116.2259,2.0551,1508.5427],[116.2309,2.0446,1144.7969],[116.2298,2.0134,1382.8193],[116.2194,2.0024,1294.6597],[116.201,1.992,1451.6968],[116.1954,1.9858,1466.4015],[116.1942,1.9728,1592.708],[116.1964,1.9519,1555.9331],[116.1893,1.9366,1439.6282],[116.1749,1.8973,1661.2214],[116.1772,1.8825,1593.0508],[116.1767,1.8662,1814.7253],[116.1857,1.8448,1619.8865],[116.1845,1.8406,1787.9662],[116.2082,1.8392,1802.3491],[116.2173,1.8451,1906.3865],[116.2291,1.8438,1733.7615],[116.2407,1.8334,1522.2137],[116.2591,1.8288,1307.4982],[116.2996,1.8267,1196.8577],[116.3089,1.8316,1339.9297],[116.3157,1.8291,1210.3446],[116.3271,1.8178,1323.6477],[116.3391,1.8138,1413.8464],[116.3447,1.8102,1493.379],[116.3494,1.8032,1606.0642],[116.35,1.7802,1338.8021],[116.3557,1.772,1408.8389],[116.3547,1.762,1383.5609],[116.3589,1.7584,1477.8918],[116.365,1.7566,1448.9358],[116.3734,1.7608,1438.6854],[116.3833,1.7621,1416.9005],[116.3925,1.7554,1657.4052],[116.3968,1.7494,1534.3182],[116.3973,1.7359,1521.5081],[116.3957,1.7285,1657.0808],[116.3986,1.7208,1640.0664],[116.4261,1.7076,1560.6636],[116.4349,1.72,1124.2797],[116.4437,1.7244,1300.3502],[116.4537,1.7222,1341.3138],[116.4765,1.7247,1728.9143],[116.5042,1.6757,1509.9351],[116.5313,1.6632,1556.2357],[116.5421,1.6287,1637.5894],[116.5341,1.6121,1839.8225],[116.5341,1.5994,1639.8711],[116.5442,1.5887,1438.8926],[116.556,1.5862,1519.6558],[116.5757,1.592,1288.6802],[116.6031,1.6114,1027.114],[116.7234,1.617,395.5061],[116.7565,1.6218,738.7659],[116.797,1.58,485.86],[116.8601,1.5943,927.9286],[116.9239,1.5797,835.7888],[116.9352,1.561,593.3394],[116.9891,1.5336,398.1219],[116.9862,1.4965,586.2767],[116.9908,1.4761,604.5989],[116.9713,1.4421,480.6481],[116.9631,1.4177,418.5318],[116.9891,1.4092,690.1411],[116.9981,1.3899,371.791],[116.9925,1.3723,284.4709],[116.9902,1.3531,256.9341],[117.006,1.3469,409.814],[117.0343,1.3542,239.453],[117.0819,1.3502,208.3712],[117.1,1.351,139.583],[117.1119,1.3726,215.1598],[117.1209,1.3644,210.9211],[117.1286,1.3444,243.1454],[117.1485,1.3242,109.8957],[117.163,1.3055,132.9274],[117.1931,1.3166,115.7164],[117.2581,1.3629,143.3138],[117.2828,1.3613,525.2922],[117.2959,1.3679,418.3922],[117.3188,1.3876,683.6287],[117.3369,1.4371,562.5065],[117.3435,1.4761,661.4891],[117.338,1.4979,470.5679],[117.3281,1.5144,392.5547],[117.3287,1.5286,553.9609],[117.3355,1.5489,378.8067],[117.3484,1.5598,574.164],[117.3615,1.5631,450.7052],[117.3715,1.575,282.3816],[117.3846,1.6046,263.5551],[117.3956,1.6075,458.6437],[117.4098,1.5966,845.748],[117.4322,1.5892,620.4182],[117.4407,1.5815,362.8102],[117.4494,1.5614,385.8393],[117.4599,1.5434,370.1588],[117.4845,1.5237,466.0577],[117.4911,1.5139,477.7202],[117.5033,1.5111,494.5864],[117.5224,1.5155,573.0995],[117.5354,1.527,407.9649],[117.5403,1.5729,528.9518],[117.5404,1.5951,467.3761],[117.5528,1.6123,376.3996],[117.5745,1.6255,274.1723],[117.5944,1.6205,373.8489],[117.6125,1.6139,242.6352],[117.624,1.6025,295.0404],[117.6375,1.598,337.4177],[117.647,1.5984,322.3923],[117.6712,1.6207,375.646],[117.683,1.6493,372.1456],[117.6937,1.6658,586.5232],[117.6973,1.6797,677.3962],[117.7064,1.6856,527.9528],[117.7183,1.6804,384.4745],[117.7183,1.6525,554.5714],[117.7138,1.6081,610.4766],[117.7493,1.6002,412.8995],[117.7673,1.5881,363.0468],[117.7744,1.5785,440.9544],[117.7878,1.5742,559.5989],[117.7954,1.5787,652.2596],[117.7955,1.5991,778.8461],[117.8052,1.6148,692.9888],[117.8153,1.6266,541.745],[117.8299,1.6247,572.9959],[117.8364,1.6066,557.8216],[117.8365,1.5874,400.5199],[117.8413,1.5688,420.1266],[117.8556,1.5533,368.1253],[117.9053,1.5098,398.2668],[117.9135,1.4935,308.1345],[117.9136,1.4654,217.4573],[117.9086,1.4261,269.4192],[117.9037,1.4048,223.4455],[117.8944,1.3833,352.2664],[117.8594,1.3638,257.7751],[117.8569,1.3588,277.0595],[117.8546,1.345,537.364],[117.882,1.3207,688.399],[117.925,1.2916,280.9597],[117.9463,1.2883,214.6119],[117.9594,1.2801,196.1633],[118.0136,1.2276,173.2736],[118.0333,1.1882,232.8535],[118.0489,1.1822,201.5379],[118.1251,1.1653,361.1519],[118.1588,1.1685,325.5221],[118.176,1.1817,189.2783],[118.2069,1.2016,163.6484],[118.2069,1.2127,162.7278],[118.1973,1.226,190.8602],[118.1957,1.2473,252.017],[118.1997,1.259,287.0493],[118.2117,1.2606,269.1404],[118.2284,1.2542,253.3703],[118.2859,1.2047,308.1599],[118.3081,1.2056,291.9838],[118.322,1.1981,325.9012],[118.3327,1.1897,334.5125],[118.3507,1.1858,259.6639],[118.3572,1.1923,261.1374],[118.3704,1.253,263.5224],[118.3802,1.2744,280.8337],[118.3917,1.2809,259.045],[118.4032,1.2809,268.9257],[118.4109,1.2685,220.2714],[118.4114,1.2596,259.6838],[118.4212,1.253,264.063],[118.4327,1.2547,257.7665],[118.4442,1.2727,273.939],[118.4606,1.2777,284.9095],[118.4856,1.2633,268.8701],[118.5057,1.2342,221.1823],[118.516,1.2239,182.2687],[118.5331,1.2138,263.1649],[118.5459,1.2186,216.8588],[118.5541,1.2268,194.3898],[118.5557,1.2416,276.4855],[118.5607,1.2498,266.737],[118.5787,1.2448,209.1692],[118.5853,1.2317,206.7178],[118.5902,1.212,184.4892],[118.5803,1.1366,74.0552],[118.5846,1.1132,80.4199],[118.6067,1.0962,125.8518],[118.6329,1.0907,144.0846],[118.6527,1.0956,266.0798],[118.6684,1.1017,297.7542],[118.7099,1.1021,501.4726],[118.7427,1.107,603.5814],[118.7591,1.107,519.4589],[118.769,1.1038,629.3915],[118.7805,1.0824,611.4547],[118.7917,1.0209,376.4554],[118.797,1.0085,271.6863],[118.8056,1.0039,286.0185],[118.828,1.0103,272.2935],[118.8544,1.0105,273.6149],[118.8701,1.0156,434.5179],[118.892,1.0283,436.7242],[118.9068,1.0251,317.7458],[118.9207,1.0165,221.5559],[118.9412,1.0087,223.0689],[118.9658,1.0104,41.9582],[118.9774,1.0169,30.8224],[118.9847,1.0301,0.0],[118.9798,1.0385,1.0214],[118.9724,1.0358,0.0],[118.9657,1.0376,0.0],[118.9585,1.0442,0.0],[118.9539,1.051,0.0],[118.9489,1.0536,0.0],[118.9454,1.059,0.0],[118.9327,1.0588,0.0],[118.9179,1.0649,9.5615],[118.8715,1.0675,0.0],[118.8688,1.0659,24.0142],[118.8599,1.0529,0.0],[118.8513,1.0473,0.0],[118.8455,1.0469,6.3083],[118.8399,1.0491,0.0],[118.8354,1.0536,8.765],[118.8356,1.0567,9.4385]]],
[[[118.8956,1.8054,0.0],[118.8904,1.8082,0.0],[118.8927,1.8038,0.0],[118.8951,1.804,0.0],[118.8956,1.8054,0.0]]],
[[[118.8097,1.9432,0.0],[118.8085,1.9441,0.0],[118.8077,1.9405,0.0],[118.8091,1.9411,0.0],[118.8097,1.9432,0.0]]],
[[[117.8719,1.9409,7.1762],[117.8704,1.9468,13.9499],[117.8742,1.958,3.0601],[117.8761,1.9724,0.0],[117.8706,1.9705,0.0],[117.8574,1.9586,14.588],[117.8466,1.9564,5.2801],[117.844,1.9495,4.4342],[117.8384,1.9505,8.2561],[117.8374,1.9539,4.6338],[117.8298,1.9529,7.1197],[117.8276,1.9561,4.6458],[117.8238,1.957,9.2793],[117.822,1.9601,9.6153],[117.8185,1.9589,2.3591],[117.8176,1.9555,4.2811],[117.8194,1.9526,5.4921],[117.8171,1.9486,6.9025],[117.822,1.9506,4.7909],[117.8276,1.9493,8.3157],[117.8276,1.9396,10.4249],[117.8265,1.9358,4.0106],[117.831,1.9241,1.5],[117.8324,1.9233,1.0],[117.8382,1.9287,9.2634],[117.8359,1.9253,10.9419],[117.8336,1.9238,9.7759],[117.8379,1.9236,7.5404],[117.8499,1.9316,7.8213],[117.841,1.9243,5.0913],[117.8346,1.9221,4.0449],[117.836,1.9117,3.5369],[117.8425,1.9063,0.5],[117.8429,1.913,18.7009],[117.8481,1.92,10.6343],[117.8461,1.9146,11.6501],[117.8438,1.9133,18.7009],[117.8433,1.9078,3.7913],[117.845,1.903,3.2396],[117.8467,1.9,0.5],[117.8537,1.8964,0.5],[117.8549,1.8999,7.5719],[117.8536,1.9037,18.2341],[117.857,1.9079,10.7093],[117.8542,1.9039,15.7032],[117.8554,1.8992,7.5719],[117.8547,1.8956,7.0572],[117.8599,1.8928,0.0],[117.8703,1.9057,8.1172],[117.8713,1.9312,0.9694],[117.8703,1.9382,16.1095],[117.8719,1.9409,7.1762]]],
[[[118.805,1.9568,0.0],[118.8036,1.9616,0.0],[118.802,1.9572,0.0],[118.8041,1.9548,0.0],[118.805,1.9568,0.0]]],
[[[118.8233,1.9701,0.0],[118.8175,1.9635,0.0],[118.8166,1.9576,0.0],[118.8245,1.961,0.0],[118.8303,1.9725,0.0],[118.8233,1.9701,0.0]]],
[[[117.8551,1.9783,11.4296],[117.8458,1.989,12.8572],[117.8447,1.9951,5.2662],[117.8385,2.0063,7.6706],[117.8322,2.0096,12.3978],[117.828,2.0094,12.9526],[117.8258,2.0075,13.0888],[117.8242,2.0008,4.0282],[117.8206,1.9965,3.9269],[117.8209,1.9867,8.7623],[117.8181,1.9856,6.8644],[117.8112,1.9877,9.376],[117.8073,1.9864,5.8497],[117.808,1.9837,44.8776],[117.8137,1.9815,2.6039],[117.8156,1.9758,5.5842],[117.8202,1.9716,10.3905],[117.8159,1.974,7.8834],[117.8158,1.9706,3.9236],[117.8209,1.9657,4.7593],[117.8214,1.9616,3.2378],[117.8244,1.9577,7.4642],[117.8282,1.9565,4.6458],[117.831,1.9536,7.1197],[117.8378,1.9545,7.0136],[117.8391,1.9513,8.2561],[117.8433,1.9505,3.421],[117.8435,1.9524,11.7561],[117.8401,1.9549,9.0846],[117.8402,1.9592,10.6656],[117.841,1.9598,10.6656],[117.8413,1.9542,9.0846],[117.8434,1.9535,11.7561],[117.8465,1.958,7.8802],[117.8586,1.9614,1.6027],[117.8625,1.9668,0.0],[117.8551,1.9783,11.4296]]],
[[[117.8825,2.0535,16.1979],[117.8818,2.0559,10.8137],[117.8784,2.0563,5.2131],[117.8763,2.0532,9.2211],[117.8731,2.0536,4.8224],[117.8732,2.0505,4.6646],[117.8702,2.0465,4.7441],[117.8707,2.0411,8.5474],[117.8679,2.0412,11.0135],[117.8658,2.0449,14.6063],[117.864,2.0444,3.4884],[117.8641,2.0369,2.6992],[117.862,2.034,5.2076],[117.8524,2.0379,7.7424],[117.8444,2.0381,11.0203],[117.8438,2.0292,0.0],[117.845,2.0255,3.4349],[117.8593,2.0241,3.4566],[117.8785,2.0358,11.2941],[117.889,2.0361,0.0],[117.8877,2.0392,0.0],[117.8845,2.0394,15.503],[117.8835,2.0419,7.2985],[117.8809,2.0432,17.0785],[117.8832,2.0427,5.3382],[117.8845,2.0449,11.9963],[117.8825,2.0535,16.1979]]],
[[[118.3966,2.0853,0.0],[118.3992,2.082,0.0],[118.4021,2.083,0.0],[118.397,2.0867,2.0106],[118.3966,2.0853,0.0]]],
[[[117.875,2.0708,3.6322],[117.8479,2.0812,10.5166],[117.8409,2.0863,9.8375],[117.833,2.0953,2.5782],[117.8268,2.0953,10.5999],[117.8118,2.0891,4.5327],[117.8102,2.0862,3.38],[117.8127,2.0814,2.3903],[117.8192,2.0811,2.1863],[117.8226,2.0795,6.0394],[117.8244,2.0749,3.5395],[117.8241,2.0721,1.539],[117.8213,2.0664,14.1283],[117.816,2.0599,7.8735],[117.8054,2.0557,1.2208],[117.8066,2.0482,4.9187],[117.803,2.041,6.3721],[117.8034,2.0362,7.8132],[117.8011,2.0272,10.8777],[117.8054,2.0259,3.9574],[117.8119,2.0293,3.5716],[117.826,2.0325,0.0],[117.8427,2.0419,0.0],[117.8433,2.0513,2.37],[117.8249,2.0538,3.3094],[117.8224,2.0526,1.1763],[117.8226,2.0532,1.1763],[117.8238,2.0538,3.3094],[117.8261,2.0544,0.0],[117.8238,2.0565,4.7114],[117.8243,2.0579,5.1303],[117.8287,2.0544,7.9858],[117.8396,2.0573,13.5723],[117.835,2.061,3.5678],[117.8345,2.0628,2.2118],[117.8358,2.0714,3.7861],[117.8339,2.0737,8.6789],[117.8327,2.0732,7.9162],[117.8378,2.0772,5.9464],[117.8374,2.0759,5.759],[117.8347,2.0741,4.9524],[117.8363,2.0709,3.7861],[117.8351,2.0628,2.2118],[117.8407,2.0573,3.2435],[117.8349,2.0553,8.9641],[117.8349,2.0539,8.9641],[117.8434,2.0532,0.0],[117.8444,2.0552,2.3598],[117.8437,2.0644,12.2901],[117.8402,2.065,11.1324],[117.8387,2.0662,8.867],[117.8405,2.0712,4.6635],[117.8401,2.0656,9.3073],[117.8443,2.0649,3.5638],[117.8507,2.0703,5.5414],[117.8526,2.0684,2.2155],[117.8525,2.0673,2.2155],[117.8508,2.0695,5.5414],[117.8448,2.0644,3.5638],[117.8467,2.0473,6.0526],[117.8457,2.0397,0.0],[117.8555,2.0379,1.1657],[117.8588,2.0353,9.8614],[117.8627,2.0355,2.6992],[117.8632,2.0453,3.4884],[117.8662,2.0459,5.7084],[117.8683,2.0418,11.0135],[117.8704,2.0418,5.4138],[117.8694,2.0469,4.7441],[117.8722,2.0499,6.5592],[117.8725,2.0541,1.0974],[117.8758,2.0536,9.2211],[117.8783,2.0569,5.2131],[117.8829,2.056,10.8137],[117.8853,2.0459,5.4131],[117.8847,2.0405,7.2985],[117.892,2.038,0.0],[117.9026,2.0417,2.8606],[117.9062,2.04,0.0],[117.9107,2.0452,0.0],[117.911,2.051,6.1323],[117.9097,2.0534,8.3966],[117.9057,2.0561,1.6833],[117.8989,2.0559,5.6294],[117.875,2.0708,3.6322]]],
[[[118.131,2.3327,5.8044],[118.128,2.3313,0.5219],[118.1294,2.3291,0.0],[118.133,2.3287,0.0],[118.133,2.3305,2.0887],[118.131,2.3327,5.8044]]],
[[[118.2004,2.3652,0.0],[118.2028,2.3586,0.0],[118.2133,2.347,0.0],[118.2173,2.3529,6.9292],[118.2179,2.3565,13.9323],[118.1995,2.3818,7.8125],[118.1948,2.3793,9.8194],[118.1934,2.376,0.0],[118.2004,2.3652,0.0]]],
[[[118.6,2.2519,0.0],[118.6021,2.2521,0.0],[118.6007,2.255,0.0],[118.594,2.2568,0.0],[118.5952,2.253,0.0],[118.6,2.2519,0.0]]],
[[[118.5896,2.2593,0.0],[118.5891,2.2571,0.0],[118.5921,2.2558,0.0],[118.5917,2.2579,0.0],[118.5896,2.2593,0.0]]],
[[[118.2391,2.2836,0.8789],[118.2433,2.2798,0.0],[118.2476,2.2838,0.0],[118.2421,2.2851,6.8265],[118.2391,2.2836,0.8789]]],
[[[118.3233,2.1347,0.0],[118.3279,2.1296,0.0],[118.3299,2.1288,0.0],[118.3324,2.1302,0.0],[118.3308,2.1388,2.0991],[118.3243,2.1382,0.892],[118.3233,2.1347,0.0]]],
[[[117.779,2.0758,3.9679],[117.7794,2.0794,3.2647],[117.7776,2.0836,2.586],[117.778,2.092,2.5983],[117.7755,2.0963,1.2493],[117.7713,2.099,1.0785],[117.7637,2.0985,1.8363],[117.7545,2.0948,1.5231],[117.7368,2.0841,0.0],[117.7292,2.0841,4.5798],[117.7242,2.0796,6.1638],[117.7128,2.079,5.5908],[117.7124,2.0759,8.1172],[117.7196,2.0691,0.0],[117.722,2.0612,2.4833],[117.7179,2.0552,4.804],[117.7076,2.0524,0.0],[117.7055,2.0503,0.0],[117.7149,2.0321,2.008],[117.7193,2.0358,4.7687],[117.7249,2.0475,4.2732],[117.7328,2.0521,5.2817],[117.7384,2.0527,2.4935],[117.7443,2.0508,0.0],[117.7494,2.0464,3.3949],[117.7553,2.0316,0.0],[117.7607,2.0258,0.9477],[117.7696,2.022,0.0],[117.7847,2.022,0.0],[117.798,2.0281,5.3407],[117.801,2.0398,0.0],[117.7994,2.0405,3.9868],[117.7923,2.0356,1.348],[117.7881,2.0348,7.1665],[117.7858,2.0383,11.8807],[117.7859,2.047,1.0],[117.7833,2.0505,0.625],[117.7799,2.0509,0.8927],[117.7761,2.0473,1.731],[117.7732,2.0472,4.0696],[117.7696,2.0546,0.5],[117.7669,2.0498,1.4759],[117.7639,2.049,0.5],[117.7609,2.0533,3.4932],[117.7573,2.053,2.647],[117.7522,2.0562,2.4674],[117.7513,2.0606,1.0],[117.7512,2.0635,3.8003],[117.7545,2.0665,13.3235],[117.7558,2.0711,8.7563],[117.7571,2.073,2.141],[117.7611,2.0732,8.5229],[117.7641,2.071,2.3825],[117.7665,2.0667,3.74],[117.769,2.066,7.1567],[117.7735,2.0698,8.7004],[117.7744,2.0731,3.5288],[117.7792,2.0733,4.749],[117.779,2.0758,3.9679]]],
[[[117.774,2.1028,6.5759],[117.7823,2.0989,4.0404],[117.7869,2.0996,1.1954],[117.7888,2.1023,1.0476],[117.7892,2.1093,2.889],[117.7758,2.1201,1.0],[117.767,2.1183,2.0616],[117.7704,2.1066,0.9932],[117.774,2.1028,6.5759]]],
[[[117.8041,2.1553,0.6633],[117.8038,2.1651,1.1205],[117.8011,2.1779,0.6213],[117.7965,2.1804,9.6182],[117.7845,2.1821,0.0],[117.7805,2.182,6.755],[117.7758,2.1714,6.7955],[117.7679,2.1647,10.7513],[117.7609,2.165,10.4866],[117.7515,2.1691,3.151],[117.7394,2.1692,5.0267],[117.7312,2.1681,9.0037],[117.721,2.1636,12.1573],[117.7139,2.1629,0.9633],[117.7193,2.154,0.0],[117.7237,2.1505,2.371],[117.7279,2.1396,0.0],[117.7294,2.1255,4.8792],[117.7263,2.103,0.0],[117.7301,2.0893,0.0],[117.7324,2.0868,0.0],[117.735,2.0863,0.0],[117.7496,2.0984,0.0],[117.7645,2.1036,0.0],[117.7711,2.1038,2.8497],[117.7662,2.1177,2.0616],[117.7618,2.1119,4.7506],[117.7556,2.1117,3.4357],[117.7547,2.1182,2.1414],[117.7503,2.1241,2.7356],[117.7433,2.1273,1.952],[117.7433,2.1232,7.1],[117.7396,2.1187,2.7386],[117.7395,2.12,2.0155],[117.7431,2.1241,2.6871],[117.739,2.1252,3.1921],[117.7382,2.127,6.2991],[117.7417,2.1254,4.4038],[117.7429,2.1284,8.5758],[117.7468,2.1301,0.0],[117.7513,2.1408,2.6555],[117.7506,2.1453,2.991],[117.7521,2.1406,2.6555],[117.7463,2.128,0.0],[117.7472,2.1261,0.0],[117.7536,2.1232,0.0],[117.7589,2.1133,0.0],[117.7615,2.1137,0.0],[117.7647,2.1193,1.895],[117.7745,2.1223,1.5214],[117.7796,2.121,0.0],[117.7879,2.1132,0.0],[117.7909,2.1133,0.0],[117.8024,2.1207,1.7563],[117.8016,2.1269,1.8841],[117.8041,2.1553,0.6633]]],
[[[117.8749,2.0824,0.764],[117.8908,2.0794,0.0],[117.9019,2.08,0.0],[117.9106,2.084,5.5766],[117.9144,2.0888,0.0],[117.9045,2.0953,8.5121],[117.898,2.1035,4.8673],[117.8992,2.125,13.5245],[117.8802,2.1394,0.375],[117.8645,2.1454,1.2208],[117.8608,2.143,0.5],[117.8527,2.1301,8.7647],[117.8388,2.1225,0.4925],[117.8333,2.1167,1.125],[117.8292,2.1146,0.0],[117.8517,2.0939,0.0],[117.8642,2.0861,0.0],[117.8749,2.0824,0.764]]],
[[[117.7669,2.1655,5.1132],[117.7745,2.1723,0.0],[117.7768,2.1805,0.0],[117.7526,2.1844,7.9508],[117.7304,2.1818,12.3857],[117.7084,2.171,6.3466],[117.7075,2.1691,0.0],[117.7171,2.1644,1.4941],[117.7248,2.1663,3.6979],[117.7335,2.1711,0.0],[117.7489,2.171,3.2723],[117.7669,2.1655,5.1132]]],
[[[118.536,2.1598,36.838],[118.5204,2.1605,30.5546],[118.5129,2.1568,33.9857],[118.5043,2.1345,0.0],[118.5191,2.1385,0.0],[118.5386,2.1351,0.0],[118.5576,2.1175,0.0],[118.5622,2.1152,0.0],[118.5606,2.1234,55.1594],[118.5394,2.1505,8.425],[118.536,2.1598,36.838]]],
[[[117.8895,2.1541,6.0816],[117.877,2.1527,8.6456],[117.8686,2.1537,7.439],[117.846,2.1663,2.007],[117.842,2.1696,1.4183],[117.8382,2.1775,13.9172],[117.8282,2.1834,12.0223],[117.8264,2.1911,9.3993],[117.8119,2.1911,9.1652],[117.8014,2.183,4.9321],[117.8076,2.1697,0.0],[117.8097,2.128,1.8812],[117.8106,2.1229,0.0],[117.8128,2.1207,0.0],[117.8297,2.1173,0.642],[117.8409,2.1268,0.0],[117.8522,2.1325,0.0],[117.8597,2.1455,4.2472],[117.8666,2.1478,0.0],[117.8803,2.1426,0.0],[117.8935,2.1341,0.471],[117.9005,2.1276,0.0],[117.9048,2.1177,0.0],[117.9014,2.1073,0.0],[117.9082,2.0993,4.3134],[117.9131,2.0985,0.0],[117.9177,2.1001,1.276],[117.9235,2.1035,0.0],[117.924,2.107,9.3355],[117.9262,2.1044,0.0],[117.9347,2.1071,0.0],[117.9484,2.1139,6.2016],[117.9567,2.1198,6.2509],[117.9573,2.1232,0.0],[117.955,2.1247,10.8378],[117.9408,2.1176,7.0436],[117.9492,2.123,1.0],[117.9557,2.1256,7.0563],[117.9561,2.1289,11.2142],[117.9466,2.135,4.1297],[117.9192,2.1407,5.9338],[117.8895,2.1541,6.0816]]],
[[[117.882,2.1565,2.5108],[117.8826,2.1586,11.451],[117.8776,2.1584,20.5292],[117.8722,2.1554,4.3402],[117.8796,2.1539,2.5514],[117.882,2.1565,2.5108]]],
[[[117.8835,2.1679,4.7358],[117.8818,2.1754,5.219],[117.8652,2.1833,2.5838],[117.8415,2.1901,8.6279],[117.828,2.1903,1.9207],[117.8297,2.1834,9.743],[117.8385,2.1794,2.4871],[117.8454,2.169,8.5328],[117.8538,2.1656,4.5857],[117.8664,2.1573,2.6379],[117.8834,2.1606,2.2554],[117.8844,2.1625,5.2651],[117.8835,2.1679,4.7358]]],
[[[117.8917,2.186,5.1508],[117.8899,2.1884,12.0475],[117.8849,2.1894,7.2772],[117.8695,2.1879,0.0],[117.8709,2.1857,0.0],[117.8839,2.1784,0.0],[117.8921,2.1682,0.0],[117.8967,2.1665,0.0],[117.8968,2.1702,5.6565],[117.8923,2.1802,9.2821],[117.8917,2.186,5.1508]]],
[[[117.9116,2.1594,0.0],[117.9162,2.1562,0.0],[117.9205,2.1583,0.0],[117.9255,2.1657,1.96],[117.9268,2.1737,6.0626],[117.9182,2.1897,3.6591],[117.904,2.206,3.0612],[117.9017,2.2036,5.0655],[117.8987,2.1941,2.5566],[117.8927,2.189,0.0],[117.9032,2.168,0.0],[117.9116,2.1594,0.0]]],
[[[118.5796,2.2334,19.9954],[118.5749,2.2398,42.7593],[118.5695,2.2525,35.7941],[118.5667,2.2599,35.935],[118.567,2.2663,19.6078],[118.5638,2.2733,54.0234],[118.5654,2.2809,0.0],[118.5648,2.2886,17.1654],[118.567,2.2924,0.0],[118.567,2.3007,18.744],[118.5689,2.3032,6.5541],[118.5724,2.3032,0.0],[118.5772,2.2997,1.7488],[118.5844,2.2857,0.0],[118.5895,2.2806,6.7528],[118.5939,2.2726,0.0],[118.6003,2.2697,0.0],[118.6098,2.2621,0.0],[118.6161,2.2601,0.0],[118.6208,2.2519,0.0],[118.6322,2.2483,0.0],[118.6357,2.2458,0.0],[118.6367,2.2499,5.5306],[118.6338,2.2547,18.332],[118.6224,2.2595,16.4492],[118.6076,2.2691,26.5406],[118.6034,2.2748,37.6336],[118.5962,2.2802,37.8212],[118.5829,2.2991,13.6513],[118.5721,2.3099,45.3493],[118.5699,2.3102,40.878],[118.5623,2.3026,11.9928],[118.5616,2.2886,0.0],[118.5588,2.2787,0.0],[118.5597,2.2736,0.0],[118.5629,2.2685,26.5087],[118.5613,2.2478,0.0],[118.566,2.2347,0.0],[118.5768,2.2245,5.3543],[118.5834,2.2114,0.0],[118.5904,2.205,0.0],[118.597,2.1936,0.0],[118.6046,2.1878,0.0],[118.6081,2.1875,0.0],[118.603,2.1936,6.5729],[118.6037,2.1961,2.8549],[118.6056,2.1932,0.5223],[118.611,2.1907,0.9563],[118.6132,2.1849,0.0],[118.6182,2.1802,0.0],[118.6265,2.1798,2.6877],[118.6331,2.1744,0.0],[118.642,2.1715,0.0],[118.6467,2.168,0.0],[118.6493,2.1626,0.0],[118.6518,2.161,0.0],[118.6518,2.1655,7.4457],[118.6489,2.1702,16.6577],[118.635,2.1804,37.2987],[118.623,2.1865,21.46],[118.6097,2.2006,8.874],[118.6056,2.2076,2.6572],[118.5983,2.2095,39.8529],[118.5894,2.2162,18.0512],[118.5796,2.2334,19.9954]]]]}}