{"type":"Feature","properties":{"GID_3":"IDN.13.13.5_1","GID_0":"IDN","country":"Indonesia","GID_1":"IDN.13_1","province":"KalimantanSelatan","NL_NAME_1":"NA","GID_2":"IDN.13.13_1","county":"Tapin","NL_NAME_2":"NA","city":"CandiLarasUtara","VARNAME_3":"NA","NL_NAME_3":"NA","TYPE_3":"Kecamatan","ENGTYPE_3":"Sub-district","CC_3":"6305100","HASC_3":"NA","name":"Candi_Laras_Utara.city"},
"geometry":{"type": "MultiPolygon","coordinates": [[[[114.8142,-2.9312,4.2263],[114.8024,-2.941,1.8799],[114.8044,-2.9683,1.5548],[114.8086,-2.9745,2.3005],[114.8072,-2.9778,1.7834],[114.8151,-2.99,1.965],[114.8148,-3.0071,2.485],[114.8241,-3.0111,3.8645],[114.8274,-3.0148,3.417],[114.9214,-2.9754,2.329],[114.9307,-2.8837,7.3711],[114.935,-2.8812,0.0],[114.935,-2.8795,0.0],[114.8882,-2.8591,2.3777],[114.8908,-2.8531,2.1758],[114.9155,-2.82,2.0054],[114.929,-2.8191,2.0903],[114.9324,-2.8149,2.1636],[114.946,-2.8081,3.7449],[114.9741,-2.7894,4.2108],[115.015,-2.7719,4.9465],[114.9973,-2.7563,3.0949],[114.9803,-2.7346,2.2863],[114.9665,-2.7053,3.0587],[114.8606,-2.5214,0.5],[114.8616,-2.5241,2.4904],[114.8541,-2.5452,3.6127],[114.8042,-2.7423,4.4063],[114.8116,-2.8069,5.7983],[114.8403,-2.8707,4.7382],[114.8142,-2.9312,4.2263]]]]}}