{"type":"Feature","properties":{"GID_3":"IDN.26.24.5_1","GID_0":"IDN","country":"Indonesia","GID_1":"IDN.26_1","province":"SulawesiSelatan","NL_NAME_1":"NA","GID_2":"IDN.26.24_1","county":"Wajo","NL_NAME_2":"NA","city":"Gilireng","VARNAME_3":"NA","NL_NAME_3":"NA","TYPE_3":"Kecamatan","ENGTYPE_3":"Sub-district","CC_3":"7313101","HASC_3":"NA","name":"Gilireng.city"},
"geometry":{"type": "MultiPolygon","coordinates": [[[[120.1765,-3.965,37.1384],[120.1799,-3.9678,37.8419],[120.1846,-3.9671,33.6946],[120.1875,-3.969,23.0101],[120.1914,-3.9657,17.7538],[120.1953,-3.9682,27.4345],[120.1999,-3.9677,16.5115],[120.2,-3.9697,18.3621],[120.2029,-3.9704,16.8898],[120.204,-3.973,27.3454],[120.2045,-3.9642,18.2828],[120.2018,-3.9554,18.6985],[120.2117,-3.9429,47.5596],[120.2087,-3.9334,64.5692],[120.2138,-3.9166,104.538],[120.2434,-3.9143,84.0157],[120.2591,-3.9087,53.8803],[120.2523,-3.9004,85.9304],[120.2569,-3.8853,54.5466],[120.2511,-3.8764,47.614],[120.2499,-3.8709,45.9901],[120.2547,-3.8653,20.4053],[120.2562,-3.8602,27.4908],[120.2672,-3.8589,28.8079],[120.2654,-3.854,21.4164],[120.2568,-3.8482,28.7183],[120.2537,-3.8412,21.96],[120.2484,-3.8389,43.0406],[120.2454,-3.8339,35.0535],[120.2482,-3.8299,76.7493],[120.2458,-3.8179,75.5175],[120.2476,-3.8112,86.4575],[120.2457,-3.8055,104.9642],[120.2462,-3.8001,120.6831],[120.2414,-3.7969,115.1231],[120.2323,-3.7961,248.6237],[120.2264,-3.7997,218.9212],[120.223,-3.8058,165.0506],[120.2094,-3.8121,157.674],[120.2012,-3.8105,135.9094],[120.1984,-3.8048,124.1311],[120.1937,-3.8009,139.101],[120.1953,-3.7991,125.9191],[120.1934,-3.7976,122.8227],[120.1903,-3.7981,142.9964],[120.1876,-3.7944,139.4757],[120.184,-3.7969,159.1259],[120.1812,-3.7943,150.6663],[120.1736,-3.797,122.6292],[120.1697,-3.7953,108.6953],[120.1666,-3.7973,140.4992],[120.1682,-3.7999,104.8162],[120.1709,-3.7981,81.6262],[120.1734,-3.8024,86.318],[120.1683,-3.8077,85.0034],[120.1619,-3.8074,124.5566],[120.1613,-3.8105,89.3888],[120.166,-3.8156,94.7831],[120.1686,-3.8141,85.8706],[120.1709,-3.8148,87.7313],[120.17529999999999,-3.8194,104.1567],[120.1758,-3.8229,70.2554],[120.1719,-3.8223,82.9429],[120.1711,-3.8194,77.0061],[120.1677,-3.8197,72.5364],[120.1643,-3.823,61.109],[120.1616,-3.8201,61.5428],[120.1607,-3.8213,78.0729],[120.1625,-3.8231,64.179],[120.1611,-3.8269,71.2959],[120.1581,-3.8269,58.3669],[120.1575,-3.823,61.8373],[120.1555,-3.8233,65.2359],[120.1544,-3.8261,106.0555],[120.1572,-3.8288,74.8557],[120.159,-3.8361,51.7603],[120.1618,-3.8362,54.7181],[120.1634,-3.838,44.7844],[120.1605,-3.8424,58.6318],[120.1641,-3.8441,44.0332],[120.1676,-3.8494,41.5245],[120.1578,-3.8615,42.2215],[120.1469,-3.8694,98.4615],[120.1425,-3.8701,122.9267],[120.1348,-3.8679,127.877],[120.1356,-3.8778,65.9315],[120.1409,-3.8886,45.3925],[120.14,-3.9227,61.7045],[120.1324,-3.9228,59.8381],[120.1265,-3.9272,121.5604],[120.1211,-3.9273,141.2948],[120.1124,-3.9404,75.6056],[120.1031,-3.9503,84.2818],[120.1039,-3.9632,77.3878],[120.1201,-3.9795,54.1411],[120.1399,-3.9718,38.6182],[120.1497,-3.9736,38.4964],[120.1576,-3.9697,29.3548],[120.1653,-3.9693,23.9334],[120.1765,-3.965,37.1384]]]]}}