{"type":"Feature","properties":{"GID_3":"IDN.29.7.3_1","GID_0":"IDN","country":"Indonesia","GID_1":"IDN.29_1","province":"SulawesiUtara","NL_NAME_1":"NA","GID_2":"IDN.29.7_1","county":"KepulauanTalaud","NL_NAME_2":"NA","city":"Beo","VARNAME_3":"NA","NL_NAME_3":"NA","TYPE_3":"Kecamatan","ENGTYPE_3":"Sub-district","CC_3":"7104040","HASC_3":"NA","name":"Beo.city"},
"geometry":{"type": "MultiPolygon","coordinates": [[[[126.7859,4.193,145.0188],[126.806,4.1923,54.8685],[126.812,4.1995,86.9347],[126.8261,4.2272,60.7924],[126.8319,4.2548,23.5008],[126.8307,4.2637,71.9981],[126.8194,4.2877,175.7277],[126.8195,4.2938,287.9083],[126.8174,4.2948,243.3351],[126.8138,4.3016,306.0545],[126.7874,4.2721,128.9845],[126.7736,4.2504,0.0],[126.7813,4.2488,5.2343],[126.7906,4.2397,2.9126],[126.7934,4.235,10.8871],[126.7925,4.2301,2.8805],[126.7884,4.2263,0.0],[126.7908,4.2199,3.5182],[126.7902,4.2104,19.2785],[126.7729,4.1971,6.9701],[126.7698,4.1923,0.0],[126.7859,4.193,145.0188]]]]}}