{"type":"Feature","properties":{"GID_3":"IDN.24.11.14_1","GID_0":"IDN","country":"Indonesia","GID_1":"IDN.24_1","province":"Riau","NL_NAME_1":"NA","GID_2":"IDN.24.11_1","county":"RokanHulu","NL_NAME_2":"NA","city":"Tambusai","VARNAME_3":"NA","NL_NAME_3":"NA","TYPE_3":"Kecamatan","ENGTYPE_3":"Sub-district","CC_3":"1407050","HASC_3":"NA","name":"Tambusai.city"},
"geometry":{"type": "MultiPolygon","coordinates": [[[[100.2181,0.9818,90.3523],[100.2289,0.9798,84.9928],[100.2392,0.9816,76.2107],[100.2696,0.9941,78.5796],[100.2792,1.0005,70.5622],[100.2872,1.0004,75.8667],[100.2911,1.0037,65.873],[100.2952,1.0134,67.6232],[100.2977,1.0143,68.6661],[100.3063,1.025,61.0884],[100.3121,1.0291,64.2972],[100.3207,1.0301,62.4743],[100.3343,1.029,56.3938],[100.3439,1.0325,57.1694],[100.3501,1.0325,54.1906],[100.3815,1.0424,67.9278],[100.3865,1.0373,67.3767],[100.3898,1.0368,58.1232],[100.3932,1.0308,64.5416],[100.3932,1.0248,58.9404],[100.3947,1.0236,49.9927],[100.3975,1.0265,53.8837],[100.3996,1.0346,62.9415],[100.4016,1.0346,59.998],[100.4029,1.0267,54.1888],[100.4089,1.0232,48.8303],[100.4155,1.0226,50.2468],[100.4169,1.0252,55.2666],[100.4159,1.0333,50.9445],[100.4174,1.0335,59.8304],[100.4366,1.1394,41.7676],[100.4242,1.1372,47.8219],[100.4146,1.1404,42.1044],[100.4037,1.1468,48.7766],[100.3979,1.1531,49.4111],[100.3922,1.1628,54.3323],[100.385,1.1671,53.1102],[100.3611,1.1741,55.9056],[100.3338,1.179,57.4562],[100.3106,1.1904,54.4197],[100.292,1.2031,52.9566],[100.2897,1.1985,51.6508],[100.2794,1.1911,52.7469],[100.2732,1.1897,56.8257],[100.2628,1.1928,65.9933],[100.2591,1.198,70.9569],[100.2588,1.2019,71.2063],[100.2621,1.2094,69.5305],[100.2521,1.2262,70.3993],[100.2346,1.233,72.337],[100.2312,1.2566,50.6456],[100.2274,1.2588,65.2233],[100.2225,1.2518,61.9881],[100.2121,1.2512,56.6035],[100.2083,1.249,73.0795],[100.2079,1.2398,75.4475],[100.1964,1.2291,70.5621],[100.1898,1.2168,100.0869],[100.1864,1.2138,97.6331],[100.1798,1.2129,107.951],[100.1747,1.2046,103.6282],[100.1692,1.2015,112.3982],[100.1679,1.1976,114.3002],[100.1322,1.1798,100.2437],[100.1357,1.1677,89.967],[100.142,1.1608,89.9955],[100.1582,1.1536,80.8876],[100.1617,1.1494,73.8788],[100.1661,1.1342,72.0564],[100.1727,1.1335,74.8618],[100.1776,1.1267,77.1293],[100.1797,1.1267,79.0178],[100.1812,1.1247,71.3694],[100.1833,1.1253,67.9083],[100.184,1.1239,67.9083],[100.1829,1.1207,72.9845],[100.1803,1.12,71.1132],[100.1791,1.1175,70.9301],[100.1704,1.1227,72.5836],[100.1601,1.1203,72.1967],[100.1482,1.1218,74.0812],[100.1479,1.1191,76.1572],[100.1418,1.1172,90.0492],[100.1347,1.1121,92.4297],[100.1285,1.1043,94.9825],[100.1232,1.0941,98.5293],[100.1215,1.082,80.8199],[100.1226,1.0774,82.9801],[100.1209,1.0737,89.3493],[100.1212,1.068,75.6552],[100.1258,1.0585,61.3007],[100.1293,1.0551,67.6221],[100.1382,1.0613,61.2936],[100.1402,1.0608,62.3664],[100.1413,1.0581,63.9822],[100.1389,1.0369,111.0004],[100.1323,1.0203,98.7874],[100.1374,1.0145,87.0712],[100.1474,1.0118,81.5084],[100.1625,1.0022,78.6025],[100.1594,0.9957,75.593],[100.1557,0.992,85.3191],[100.1476,0.988,75.7757],[100.1458,0.9852,78.4878],[100.1435,0.986,76.688],[100.1408,0.9844,82.3661],[100.1394,0.9815,84.7687],[100.1416,0.9785,82.7455],[100.1475,0.9755,91.4451],[100.1465,0.9722,92.8558],[100.1479,0.9658,90.9298],[100.1446,0.9616,94.573],[100.1439,0.9544,97.6133],[100.1332,0.9497,96.8873],[100.1314,0.9465,100.2289],[100.1512,0.9482,91.2808],[100.1536,0.9577,96.1065],[100.1639,0.9609,100.4064],[100.1743,0.9713,87.5278],[100.181,0.9742,89.2924],[100.1869,0.9736,83.1352],[100.1957,0.9673,86.8008],[100.1987,0.9684,82.0557],[100.2105,0.9824,87.4982],[100.2181,0.9818,90.3523]]],
[[[100.1007,1.0872,86.5298],[100.1043,1.086,80.7578],[100.1054,1.0839,84.3984],[100.106,1.0758,93.8909],[100.1078,1.0724,88.9924],[100.1102,1.0903,85.3804],[100.1143,1.0934,92.7445],[100.1176,1.1012,105.0498],[100.1108,1.0952,104.502],[100.1011,1.0909,88.7675],[100.1007,1.0872,86.5298]]]]}}