{"type":"Feature","properties":{"GID_3":"IDN.10.24.6_1","GID_0":"IDN","country":"Indonesia","GID_1":"IDN.10_1","province":"JawaTengah","NL_NAME_1":"NA","GID_2":"IDN.10.24_1","county":"Purbalingga","NL_NAME_2":"NA","city":"Karanganyar","VARNAME_3":"NA","NL_NAME_3":"NA","TYPE_3":"Kecamatan","ENGTYPE_3":"Sub-district","CC_3":"3303140","HASC_3":"NA","name":"Karanganyar.city"},
"geometry":{"type": "MultiPolygon","coordinates": [[[[109.411,-7.3491,62.426],[109.4225,-7.3475,81.6472],[109.4245,-7.3489,67.8812],[109.429,-7.3483,69.3483],[109.4344,-7.3515,117.7536],[109.4357,-7.3506,71.8239],[109.4352,-7.347,73.3398],[109.4313,-7.3433,112.9258],[109.4278,-7.3325,99.0591],[109.4259,-7.3312,105.3495],[109.4259,-7.3266,112.6624],[109.429,-7.3179,140.8899],[109.418,-7.3156,118.5249],[109.4186,-7.3118,127.2757],[109.4211,-7.3126,128.2781],[109.4219,-7.3113,134.4664],[109.4225,-7.3034,154.322],[109.4215,-7.3012,155.0352],[109.4194,-7.3008,160.9204],[109.4214,-7.2892,183.094],[109.4194,-7.2844,201.4448],[109.4208,-7.281,211.866],[109.4191,-7.2737,236.9917],[109.4138,-7.2688,270.5471],[109.4107,-7.2696,304.1623],[109.404,-7.2671,244.5012],[109.4078,-7.2589,362.349],[109.4082,-7.2517,634.5942],[109.3997,-7.2509,689.5629],[109.3919,-7.2538,329.2559],[109.3897,-7.2621,262.9405],[109.387,-7.2618,266.6699],[109.3821,-7.2645,218.982],[109.3787,-7.2692,204.6232],[109.3841,-7.2815,163.1624],[109.3843,-7.2974,125.569],[109.3883,-7.2984,168.0705],[109.3892,-7.3015,153.0844],[109.3921,-7.3025,146.2372],[109.3957,-7.3116,120.7698],[109.3967,-7.3238,163.4507],[109.4,-7.3253,146.2276],[109.3991,-7.3297,112.926],[109.4036,-7.3313,108.6656],[109.405,-7.341,169.4827],[109.4094,-7.3492,62.426],[109.411,-7.3491,62.426]]]]}}