{"type":"Feature","properties":{"GID_2":"IDN.18.8_1","GID_0":"IDN","country":"Indonesia","GID_1":"IDN.18_1","province":"MalukuUtara","NL_NAME_1":"NA","county":"Ternate","VARNAME_2":"NA","NL_NAME_2":"NA","TYPE_2":"Kota","ENGTYPE_2":"City","CC_2":"8271","HASC_2":"ID.MU.TE","name":"Ternate.county"},
"geometry":{"type": "MultiPolygon","coordinates": [[[[127.4394,0.4515,0.0],[127.437,0.4553,12.6457],[127.4354,0.4547,12.6457],[127.4335,0.4631,1.4067],[127.4252,0.4722,0.0],[127.4206,0.474,15.4523],[127.4186,0.4792,0.0],[127.406,0.4809,0.0],[127.3963,0.4766,13.0792],[127.3941,0.4771,0.0],[127.3863,0.4715,6.5938],[127.3817,0.4545,7.0896],[127.3835,0.4472,0.0],[127.3881,0.4398,7.0007],[127.3915,0.4389,11.0874],[127.3911,0.4406,12.9238],[127.3972,0.4341,5.1555],[127.4049,0.4326,6.2637],[127.4145,0.434,25.0765],[127.4201,0.4328,1.8767],[127.4266,0.4357,6.4825],[127.4288,0.4397,30.1251],[127.4312,0.4408,0.0],[127.4309,0.4422,13.6743],[127.4332,0.4429,1.2516],[127.4327,0.4459,46.1993],[127.4393,0.4474,0.0],[127.4394,0.4515,0.0]]],
[[[127.3654,0.8469,11.9485],[127.3528,0.8541,0.0],[127.3406,0.8639,0.0],[127.3357,0.8624,3.3307],[127.327,0.8676,2.5888],[127.3224,0.8659,2.117],[127.3204,0.8622,8.1795],[127.3185,0.8639,0.0],[127.3183,0.8534,35.0938],[127.3135,0.8476,0.0],[127.3022,0.8412,4.6029],[127.3002,0.8317,22.5614],[127.2954,0.8246,4.4393],[127.2938,0.8179,6.038],[127.2936,0.8084,12.8723],[127.2951,0.8045,28.6349],[127.2927,0.7976,0.0],[127.294,0.791,2.7076],[127.2981,0.7866,26.2815],[127.2981,0.784,14.0916],[127.3019,0.7783,15.4823],[127.3037,0.7693,4.2896],[127.3145,0.756,0.0],[127.3161,0.7574,9.3326],[127.3236,0.7545,0.7788],[127.3308,0.7552,0.0],[127.3381,0.7532,0.0],[127.3521,0.7595,25.8073],[127.3696,0.7598,0.5558],[127.3767,0.764,0.0],[127.3755,0.7644,0.0],[127.3775,0.7661,0.0],[127.3799,0.7744,4.247],[127.3817,0.7735,0.0],[127.3865,0.777,0.0],[127.3877,0.7804,0.0],[127.3879,0.779,0.0],[127.3888,0.781,0.0],[127.3886,0.7852,2.1269],[127.3912,0.7893,3.3972],[127.3907,0.794,1.8488],[127.3864,0.8007,2.54],[127.3879,0.8012,0.0],[127.3871,0.8046,2.4277],[127.3902,0.8169,0.9133],[127.3886,0.8289,1.0969],[127.3859,0.8339,0.0],[127.3795,0.8393,0.0],[127.3654,0.8469,11.9485]]],
[[[127.3891,0.785,2.1269],[127.3891,0.7849,2.1269],[127.3893,0.785,2.1269],[127.3891,0.785,2.1269]]],
[[[127.3883,0.8085,0.0],[127.3881,0.8084,0.0],[127.3884,0.8083,0.0],[127.3884,0.8085,0.0],[127.3883,0.8085,0.0]]],
[[[127.378,0.7671,0.0],[127.3781,0.767,0.0],[127.3784,0.7678,0.0],[127.3784,0.7678,0.0],[127.378,0.7671,0.0]]],
[[[127.3785,0.768,0.0],[127.3785,0.7684,0.0],[127.3784,0.768,0.0],[127.3785,0.768,0.0]]],
[[[127.313,0.8844,0.0],[127.317,0.8814,10.8259],[127.3212,0.8821,51.8725],[127.3288,0.8873,9.4876],[127.3314,0.892,11.8287],[127.3294,0.9017,53.0358],[127.3219,0.9075,8.2092],[127.3171,0.9088,0.0],[127.3169,0.9117,4.992],[127.3149,0.9135,20.0033],[127.3108,0.909,0.0],[127.3104,0.9045,16.8023],[127.3054,0.9028,4.7522],[127.3028,0.8977,0.0],[127.3055,0.8962,106.7448],[127.3071,0.8906,30.768],[127.313,0.8844,0.0]]],
[[[127.3104,0.9126,0.0],[127.3103,0.9136,0.0],[127.309,0.9128,-0.0054],[127.3096,0.9123,0.0],[127.3104,0.9126,0.0]]],
[[[126.1479,0.9634,24.0834],[126.1464,0.9644,20.4234],[126.1488,0.9663,21.2476],[126.1448,0.9716,18.4376],[126.1494,0.9726,17.8989],[126.1542,0.969,0.0],[126.1563,0.9737,6.8489],[126.1546,0.9771,0.0],[126.1521,0.9766,16.991],[126.1344,0.9816,21.9865],[126.1273,0.9807,0.0],[126.1292,0.9752,0.0],[126.1369,0.9716,3.948],[126.1418,0.9623,9.9463],[126.145,0.962,4.3098],[126.1535,0.9563,6.878],[126.162,0.9578,0.0],[126.1615,0.9611,0.0],[126.1564,0.9637,27.3323],[126.1506,0.9646,3.3543],[126.1501,0.9634,2.7496],[126.1519,0.9626,13.1446],[126.1508,0.9614,24.3694],[126.1479,0.9634,24.0834]]],
[[[126.1491,0.9884,0.0],[126.147,0.989,4.3888],[126.145,0.9873,3.3024],[126.1502,0.9846,0.0],[126.1523,0.9857,0.0],[126.1491,0.9884,0.0]]],
[[[126.4001,1.3123,0.0],[126.399,1.3164,19.281],[126.4003,1.3182,4.4111],[126.4103,1.3236,0.0],[126.4163,1.329,29.0465],[126.4159,1.3342,14.1246],[126.4117,1.3383,5.9446],[126.395,1.3413,17.1602],[126.3919,1.3446,6.9185],[126.3878,1.3456,11.5932],[126.3876,1.3486,21.0168],[126.3843,1.3484,54.114],[126.3833,1.3499,24.1407],[126.3848,1.3512,10.1912],[126.381,1.3531,0.0],[126.3765,1.3485,16.64],[126.3676,1.3452,19.897],[126.3596,1.335,17.0598],[126.3567,1.3262,0.0],[126.3578,1.319,0.0],[126.3652,1.3194,3.2172],[126.3766,1.312,11.9715],[126.3773,1.3063,3.5957],[126.3836,1.3008,42.7688],[126.383,1.2981,0.0],[126.3861,1.2927,25.2455],[126.3881,1.2934,66.9376],[126.3877,1.2918,15.4117],[126.3938,1.2849,0.0],[126.3925,1.2819,0.0],[126.394,1.28,0.0],[126.3984,1.2862,0.0],[126.3975,1.2956,28.688],[126.3997,1.301,26.3525],[126.4001,1.3123,0.0]]]]}}