{"type":"Feature","properties":{"GID_3":"IDN.20.1.3_1","GID_0":"IDN","country":"Indonesia","GID_1":"IDN.20_1","province":"NusaTenggaraBarat","NL_NAME_1":"NA","GID_2":"IDN.20.1_1","county":"Bima","NL_NAME_2":"NA","city":"Bolo","VARNAME_3":"NA","NL_NAME_3":"NA","TYPE_3":"Kecamatan","ENGTYPE_3":"Sub-district","CC_3":"5206020","HASC_3":"NA","name":"Bolo.city"},
"geometry":{"type": "MultiPolygon","coordinates": [[[[118.6646,-8.5028,0.0],[118.664,-8.4971,0.3284],[118.6673,-8.4945,0.0],[118.6644,-8.4883,0.4536],[118.669,-8.4822,3.1554],[118.6563,-8.4744,41.7655],[118.6371,-8.4537,222.7966],[118.625,-8.4549,254.6949],[118.6115,-8.46,274.6382],[118.6067,-8.4644,289.8306],[118.5987,-8.4762,235.9497],[118.5954,-8.4776,236.3369],[118.5909,-8.4781,203.9497],[118.5712,-8.4732,311.3911],[118.5812,-8.4882,143.2989],[118.5902,-8.508,29.9073],[118.5944,-8.5107,25.7771],[118.6003,-8.5266,72.1571],[118.6018,-8.5359,75.1377],[118.6117,-8.5513,307.0339],[118.6204,-8.5578,121.021],[118.6301,-8.556,76.1539],[118.6379,-8.55,0.0],[118.6502,-8.5504,0.0389],[118.6509,-8.5461,0.0],[118.6554,-8.5425,0.3669],[118.6606,-8.5315,0.0],[118.664,-8.5308,0.0],[118.6655,-8.5277,0.0],[118.6676,-8.527,0.0],[118.6711,-8.5196,0.0],[118.6603,-8.511,0.0],[118.6612,-8.5065,0.0],[118.6646,-8.5044,0.1176],[118.6646,-8.5028,0.0]]]]}}