{"type":"Feature","properties":{"GID_3":"IDN.4.1.8_1","GID_0":"IDN","country":"Indonesia","GID_1":"IDN.4_1","province":"Banten","NL_NAME_1":"NA","GID_2":"IDN.4.1_1","county":"Cilegon","NL_NAME_2":"NA","city":"Purwakarta","VARNAME_3":"NA","NL_NAME_3":"NA","TYPE_3":"Kecamatan","ENGTYPE_3":"Sub-district","CC_3":"3672021","HASC_3":"NA","name":"Purwakarta.city"},
"geometry":{"type": "MultiPolygon","coordinates": [[[[106.0457,-6.0148,15.814],[106.0467,-6.0156,15.814],[106.0471,-6.0115,14.6583],[106.0448,-6.0075,20.0854],[106.0457,-6.0064,20.0854],[106.0518,-6.0065,13.9544],[106.0539,-6.0036,8.4446],[106.0558,-6.0046,7.7466],[106.0588,-6.0033,7.1278],[106.0534,-5.995,17.9616],[106.0554,-5.9923,12.4436],[106.0611,-5.9916,15.9698],[106.0647,-5.9865,14.6838],[106.0593,-5.9832,27.096],[106.0608,-5.979,25.945],[106.0586,-5.9724,32.8451],[106.0621,-5.9618,167.6213],[106.0623,-5.9566,128.9323],[106.0589,-5.9518,117.1625],[106.0456,-5.9445,311.8447],[106.046,-5.9492,303.9681],[106.0399,-5.9505,212.6548],[106.0419,-5.9566,200.6334],[106.0381,-5.9597,159.3119],[106.0435,-5.9656,119.3992],[106.0418,-5.978,143.4059],[106.0362,-5.9815,56.908],[106.0354,-5.9855,29.7735],[106.0329,-5.9832,23.372],[106.0327,-5.9873,25.0265],[106.027,-5.9958,16.4712],[106.0281,-5.9992,16.7206],[106.0245,-6.0002,15.1146],[106.023,-5.9992,14.1157],[106.0229,-6.0029,15.4978],[106.0217,-6.0035,13.6181],[106.0252,-6.0093,17.8161],[106.0415,-6.0118,20.7129],[106.0457,-6.0148,15.814]]]]}}