{"type":"Feature","properties":{"GID_3":"IDN.23.11.4_1","GID_0":"IDN","country":"Indonesia","GID_1":"IDN.23_1","province":"Papua","NL_NAME_1":"NA","GID_2":"IDN.23.11_1","county":"KotaJayapura","NL_NAME_2":"NA","city":"JayapuraUtara","VARNAME_3":"NA","NL_NAME_3":"NA","TYPE_3":"Distrik","ENGTYPE_3":"District","CC_3":"9471040","HASC_3":"NA","name":"Jayapura_Utara.city"},
"geometry":{"type": "MultiPolygon","coordinates": [[[[140.731,-2.5183,8.6619],[140.7325,-2.5249,6.7645],[140.7385,-2.5311,24.3974],[140.7378,-2.5352,0.0],[140.7463,-2.538,0.0],[140.7483,-2.5343,31.1457],[140.742,-2.5285,10.0662],[140.7422,-2.5221,3.3149],[140.7382,-2.5134,4.0737],[140.7327,-2.509,0.0],[140.73,-2.5007,24.6831],[140.7205,-2.4957,23.495],[140.721,-2.491,0.0],[140.7167,-2.4925,0.0],[140.7116,-2.4881,12.9489],[140.7127,-2.4866,4.1627],[140.7088,-2.4867,23.7654],[140.7041,-2.4836,13.0405],[140.7001,-2.484,13.9776],[140.694,-2.4782,36.5669],[140.6877,-2.4803,28.5698],[140.6867,-2.4778,4.2951],[140.6848,-2.4775,0.0],[140.6775,-2.4816,16.6178],[140.6733,-2.48,38.5957],[140.6716,-2.4752,12.1107],[140.6632,-2.474,19.9314],[140.6577,-2.4771,13.4688],[140.6528,-2.4762,0.0],[140.6321,-2.5173,1103.595],[140.6879,-2.5448,161.7464],[140.6902,-2.5477,74.8372],[140.6944,-2.547,71.5619],[140.6962,-2.545,50.3818],[140.7017,-2.5455,20.7369],[140.7071,-2.5418,1.2194],[140.7066,-2.5388,1.3444],[140.708,-2.5377,5.7447],[140.7116,-2.5391,3.1201],[140.7186,-2.5345,13.0633],[140.7251,-2.5351,1.3145],[140.7252,-2.5289,3.5646],[140.7236,-2.5273,31.6229],[140.7269,-2.5264,0.0],[140.731,-2.5183,8.6619]]]]}}