{"type":"Feature","properties":{"GID_3":"IDN.10.19.9_1","GID_0":"IDN","country":"Indonesia","GID_1":"IDN.10_1","province":"JawaTengah","NL_NAME_1":"NA","GID_2":"IDN.10.19_1","county":"Kudus","NL_NAME_2":"NA","city":"Mejobo","VARNAME_3":"NA","NL_NAME_3":"NA","TYPE_3":"Kecamatan","ENGTYPE_3":"Sub-district","CC_3":"3319050","HASC_3":"NA","name":"Mejobo.city"},
"geometry":{"type": "MultiPolygon","coordinates": [[[[110.9109,-6.8072,10.9401],[110.9049,-6.8068,17.9443],[110.9032,-6.8026,17.4716],[110.8987,-6.8024,15.6387],[110.8987,-6.8004,15.5792],[110.8966,-6.8004,12.7662],[110.8952,-6.8045,13.7268],[110.8865,-6.8062,15.9808],[110.886,-6.8102,15.1486],[110.8883,-6.8142,11.7146],[110.8835,-6.8208,11.2918],[110.878,-6.8212,11.2332],[110.8743,-6.8197,10.8033],[110.8648,-6.8211,14.8251],[110.8637,-6.8279,10.8211],[110.8652,-6.8327,9.9366],[110.8631,-6.832,12.4224],[110.8626,-6.8345,10.9741],[110.8569,-6.8339,8.3148],[110.8526,-6.844,6.1118],[110.8572,-6.8552,4.3555],[110.856,-6.8607,5.366],[110.8653,-6.8639,8.7001],[110.8805,-6.8664,4.7066],[110.8932,-6.8675,5.2308],[110.921,-6.8669,8.2142],[110.9195,-6.8616,5.2954],[110.9176,-6.8623,5.2954],[110.9133,-6.8471,6.0913],[110.9143,-6.8344,9.3996],[110.9113,-6.833,9.3202],[110.9107,-6.8277,7.3519],[110.9119,-6.8223,7.867],[110.9157,-6.8215,8.8192],[110.9163,-6.8174,10.3214],[110.9141,-6.8167,9.0056],[110.9149,-6.8114,9.9149],[110.9109,-6.8072,10.9401]]]]}}