{"type":"Feature","properties":{"GID_3":"IDN.11.35.26_1","GID_0":"IDN","country":"Indonesia","GID_1":"IDN.11_1","province":"JawaTimur","NL_NAME_1":"NA","GID_2":"IDN.11.35_1","county":"Surabaya","NL_NAME_2":"NA","city":"Tandes","VARNAME_3":"NA","NL_NAME_3":"NA","TYPE_3":"Kecamatan","ENGTYPE_3":"Sub-district","CC_3":"3578150","HASC_3":"NA","name":"Tandes.city"},
"geometry":{"type": "MultiPolygon","coordinates": [[[[112.6843,-7.2764,24.4085],[112.686,-7.2667,9.552],[112.6875,-7.2664,10.9534],[112.6879,-7.2622,7.7798],[112.6921,-7.2528,3.8786],[112.6863,-7.2531,6.9721],[112.6861,-7.2572,6.9916],[112.6813,-7.2556,6.9872],[112.6822,-7.2499,5.2825],[112.6769,-7.249,5.7764],[112.6778,-7.2462,6.922],[112.6739,-7.245,4.1399],[112.6755,-7.2378,2.9476],[112.6716,-7.2373,2.3552],[112.6697,-7.2419,1.6271],[112.6666,-7.2424,2.4013],[112.6652,-7.2396,1.6448],[112.66,-7.2371,1.8766],[112.6545,-7.2417,2.0372],[112.6544,-7.2547,6.5804],[112.66,-7.2562,7.0789],[112.6588,-7.2611,9.4925],[112.6631,-7.265,17.0912],[112.6622,-7.2695,19.7038],[112.6661,-7.2722,20.4541],[112.6681,-7.2717,18.2243],[112.6698,-7.2691,11.4762],[112.6661,-7.2682,18.8996],[112.6672,-7.2632,15.8356],[112.6713,-7.2636,12.6526],[112.6715,-7.2624,11.8202],[112.6757,-7.262,8.2866],[112.6768,-7.267,11.6093],[112.6733,-7.2673,14.041],[112.6728,-7.2711,18.3172],[112.678,-7.2719,18.1483],[112.6812,-7.2769,25.172],[112.683,-7.2755,23.4314],[112.6843,-7.2764,24.4085]]]]}}