{"type":"Feature","properties":{"GID_3":"IDN.6.1.2_1","GID_0":"IDN","country":"Indonesia","GID_1":"IDN.6_1","province":"Gorontalo","NL_NAME_1":"NA","GID_2":"IDN.6.1_1","county":"Boalemo","NL_NAME_2":"NA","city":"Dulupi","VARNAME_3":"NA","NL_NAME_3":"NA","TYPE_3":"Kecamatan","ENGTYPE_3":"Sub-district","CC_3":"7501041","HASC_3":"NA","name":"Dulupi.city"},
"geometry":{"type": "MultiPolygon","coordinates": [[[[122.4454,0.5015,1.7422],[122.44,0.5002,0.0],[122.4403,0.4972,0.0],[122.4429,0.4945,0.0],[122.4496,0.4944,1.0052],[122.4508,0.4967,3.3888],[122.4515,0.4955,0.8619],[122.4503,0.5013,17.4285],[122.4472,0.5017,14.8351],[122.4466,0.5002,46.9305],[122.4454,0.5015,1.7422]]],
[[[122.4664,0.6044,131.605],[122.4498,0.6218,145.8012],[122.4374,0.6318,220.4644],[122.4348,0.6329,208.0948],[122.4334,0.631,225.8848],[122.4266,0.6306,180.0659],[122.426,0.6328,157.2436],[122.4168,0.6393,143.8917],[122.4159,0.643,160.1964],[122.4079,0.6418,143.0874],[122.4073,0.6472,155.8454],[122.404,0.649,160.2535],[122.4038,0.6551,217.1864],[122.3982,0.6536,231.3583],[122.394,0.6617,173.4653],[122.39,0.6634,225.7983],[122.3815,0.692,97.1016],[122.3764,0.6954,89.1287],[122.3765,0.698,84.3618],[122.37,0.7107,145.1588],[122.368,0.7231,144.3829],[122.3691,0.7253,136.2125],[122.3591,0.7287,255.4177],[122.3538,0.7323,263.6758],[122.3496,0.7374,246.3125],[122.3437,0.7464,166.1296],[122.3434,0.7517,211.216],[122.3408,0.7573,183.2295],[122.343,0.76,110.4621],[122.3362,0.7628,92.9896],[122.3291,0.7631,106.3793],[122.3288,0.7579,88.448],[122.3211,0.7573,103.3455],[122.3193,0.7556,100.3171],[122.2849,0.7628,273.294],[122.2746,0.7688,227.826],[122.2637,0.7677,252.4886],[122.2532,0.7616,381.3495],[122.2474,0.7232,120.5053],[122.2514,0.7002,164.3546],[122.2589,0.6913,281.196],[122.284,0.676,202.3832],[122.2995,0.6694,465.9155],[122.3181,0.667,431.6613],[122.3269,0.6635,365.9521],[122.3386,0.6636,277.0219],[122.3417,0.6609,300.7814],[122.3435,0.6371,396.3387],[122.3698,0.5796,438.29],[122.3869,0.5563,73.1534],[122.3899,0.5199,4.738],[122.3917,0.5181,0.0],[122.3937,0.5192,6.3271],[122.3958,0.5169,0.0],[122.3963,0.5194,10.896],[122.3999,0.5184,0.0],[122.3999,0.5199,2.3997],[122.403,0.5214,1.9625],[122.4037,0.5205,1.9625],[122.402,0.5198,1.0241],[122.4004,0.5158,0.0],[122.4081,0.5187,0.8998],[122.4048,0.5127,5.1154],[122.4075,0.511,6.9322],[122.4054,0.5104,1.1593],[122.4058,0.5093,1.1593],[122.4138,0.5115,0.68],[122.4137,0.514,12.5933],[122.4164,0.5127,5.0651],[122.4168,0.5086,2.8066],[122.4123,0.5053,4.9735],[122.413,0.5022,7.2538],[122.419,0.5024,2.8293],[122.4234,0.5058,3.1245],[122.4284,0.5049,2.8942],[122.4301,0.5027,0.0],[122.4322,0.5037,2.1094],[122.4319,0.5017,0.7552],[122.4359,0.4999,0.8693],[122.4389,0.5024,0.0],[122.4395,0.5057,1.8968],[122.4417,0.5041,1.4481],[122.4469,0.5055,2.5503],[122.4472,0.5073,0.0],[122.4442,0.5074,0.9526],[122.4436,0.5096,0.0],[122.4413,0.509,0.6884],[122.4406,0.5114,0.9612],[122.4421,0.5128,1.9219],[122.4432,0.5113,0.0],[122.4422,0.5137,1.9219],[122.4445,0.5154,1.6886],[122.4453,0.5125,0.7274],[122.4466,0.5132,0.7274],[122.4457,0.5161,1.5594],[122.447,0.5174,3.6676],[122.4505,0.5095,1.94],[122.4484,0.5101,0.0],[122.45,0.5073,1.668],[122.4695,0.5056,1.8454],[122.4668,0.5028,5.2933],[122.4625,0.5036,6.7121],[122.4624,0.5014,0.0],[122.4754,0.502,0.0],[122.4763,0.5037,0.0],[122.4753,0.5057,0.8037],[122.4722,0.5062,5.4665],[122.4765,0.5065,3.6731],[122.478,0.5027,1.0788],[122.4815,0.5012,0.0],[122.4956,0.5018,0.0],[122.4962,0.5079,18.3258],[122.4996,0.5069,0.0],[122.5004,0.5048,0.0],[122.509,0.5129,2.1667],[122.5137,0.5286,193.4362],[122.5077,0.5427,161.7169],[122.5085,0.5484,172.7813],[122.5015,0.5529,187.6304],[122.5017,0.5579,202.7502],[122.5031,0.5692,202.5625],[122.5059,0.575,255.5911],[122.5092,0.5804,239.4035],[122.515,0.5827,269.0728],[122.5104,0.5857,302.1378],[122.4942,0.588,180.3594],[122.4845,0.588,152.0512],[122.4746,0.584,136.5266],[122.4668,0.6001,118.9168],[122.4664,0.6044,131.605]]]]}}