{"type":"Feature","properties":{"GID_3":"IDN.3.5.7_1","GID_0":"IDN","country":"Indonesia","GID_1":"IDN.3_1","province":"BangkaBelitung","NL_NAME_1":"NA","GID_2":"IDN.3.5_1","county":"BelitungTimur","NL_NAME_2":"NA","city":"SimpangRenggiang","VARNAME_3":"NA","NL_NAME_3":"NA","TYPE_3":"Kecamatan","ENGTYPE_3":"Sub-district","CC_3":"1906021","HASC_3":"NA","name":"Simpang_Renggiang.city"},
"geometry":{"type": "MultiPolygon","coordinates": [[[[107.9341,-3.0016,18.7535],[107.9363,-3.0047,16.5589],[107.9392,-2.9976,30.7116],[107.9473,-2.992,32.2071],[107.9523,-2.9913,35.5596],[107.9728,-2.981,46.7674],[107.9791,-2.987,38.9736],[107.9879,-2.9823,48.4152],[108.0015,-2.9784,64.4644],[108.0332,-2.9634,39.4785],[108.0501,-2.9634,91.6643],[108.0637,-2.9777,26.9794],[108.104,-2.9443,15.1598],[108.1089,-2.9345,2.9396],[108.1086,-2.9322,13.5065],[108.1106,-2.9306,6.0469],[108.11,-2.9285,2.4783],[108.1078,-2.9282,10.3744],[108.1114,-2.9266,1.6919],[108.1129,-2.9201,2.3631],[108.1247,-2.9236,2.8361],[108.1292,-2.9227,3.013],[108.1299,-2.9199,1.6586],[108.1265,-2.9188,7.4897],[108.1243,-2.9204,2.745],[108.1217,-2.9181,3.5872],[108.1238,-2.9157,7.7005],[108.1233,-2.9102,9.5927],[108.1253,-2.9083,10.8189],[108.1217,-2.9053,14.7443],[108.1227,-2.8984,14.4258],[108.1256,-2.8932,13.8004],[108.121,-2.8909,15.5683],[108.1191,-2.8874,27.3194],[108.1044,-2.8731,12.202],[108.0949,-2.867,22.8183],[108.0906,-2.8575,28.8696],[108.09,-2.8499,30.4023],[108.0957,-2.8374,38.7495],[108.1046,-2.8382,30.415],[108.1129,-2.8301,26.6893],[108.1194,-2.831,22.5334],[108.1171,-2.8094,47.3138],[108.1055,-2.7924,317.1241],[108.1006,-2.7913,211.6085],[108.0932,-2.8032,50.0644],[108.0946,-2.8094,44.1164],[108.0901,-2.8164,35.9288],[108.0813,-2.8231,26.0016],[108.0658,-2.8235,42.3758],[108.0257,-2.8295,111.2288],[107.9945,-2.8266,39.6602],[108.0014,-2.8151,47.5399],[108.0024,-2.8065,38.631],[107.9971,-2.7999,25.9214],[107.9991,-2.7975,17.5109],[107.9987,-2.7903,31.7016],[108.0014,-2.7843,26.1561],[108.0007,-2.7823,18.9859],[107.9941,-2.7775,19.0631],[107.9796,-2.7799,27.7663],[107.9782,-2.7855,27.2494],[107.9743,-2.784,26.3317],[107.9724,-2.7874,28.2957],[107.9683,-2.7879,20.9021],[107.9646,-2.7915,26.6991],[107.9602,-2.79,13.3869],[107.9558,-2.7944,16.236],[107.9493,-2.7934,16.5023],[107.9368,-2.7994,35.1742],[107.9192,-2.8008,23.3142],[107.9135,-2.7984,24.3336],[107.9091,-2.7994,24.3592],[107.8976,-2.7969,43.9049],[107.8836,-2.7998,300.8737],[107.875,-2.7987,171.0297],[107.8678,-2.8006,163.057],[107.8625,-2.8064,98.7124],[107.8593,-2.8147,43.803],[107.8525,-2.8179,39.2485],[107.849,-2.8216,39.2551],[107.8487,-2.8243,34.6634],[107.8525,-2.8294,32.2125],[107.8524,-2.8328,30.3469],[107.8459,-2.8429,35.891],[107.8474,-2.8446,28.6885],[107.8473,-2.8476,27.0478],[107.8551,-2.8562,33.1584],[107.855,-2.8675,46.2585],[107.8378,-2.877,57.4841],[107.8793,-2.8827,148.3375],[107.8915,-2.8903,21.3706],[107.9046,-2.8927,21.419],[107.9102,-2.9003,20.0961],[107.9225,-2.8991,22.418],[107.9334,-2.9027,25.5089],[107.9392,-2.9064,25.6653],[107.9443,-2.9138,23.6833],[107.9487,-2.9167,18.493],[107.9286,-2.9288,31.5379],[107.9283,-2.9382,37.2833],[107.9313,-2.9518,36.3767],[107.9396,-2.9594,39.1418],[107.94,-2.9614,38.2674],[107.931,-2.9952,29.1806],[107.9324,-3.0008,18.3228],[107.9341,-3.0016,18.7535]]]]}}