{"type":"Feature","properties":{"GID_3":"IDN.9.21.24_1","GID_0":"IDN","country":"Indonesia","GID_1":"IDN.9_1","province":"JawaBarat","NL_NAME_1":"NA","GID_2":"IDN.9.21_1","county":"Majalengka","NL_NAME_2":"NA","city":"Sukahaji","VARNAME_3":"NA","NL_NAME_3":"NA","TYPE_3":"Kecamatan","ENGTYPE_3":"Sub-district","CC_3":"3210090","HASC_3":"NA","name":"Sukahaji.city"},
"geometry":{"type": "MultiPolygon","coordinates": [[[[108.2857,-6.8607,390.9404],[108.2902,-6.8674,425.3627],[108.2968,-6.8655,451.6832],[108.2993,-6.8516,392.1198],[108.2976,-6.8474,411.6404],[108.2999,-6.8352,338.1265],[108.3021,-6.8328,267.1755],[108.3012,-6.8303,225.6897],[108.2959,-6.8279,211.6496],[108.2933,-6.8149,160.2538],[108.3186,-6.8122,268.7851],[108.3212,-6.8101,230.3882],[108.3239,-6.8041,182.4072],[108.3269,-6.8052,200.0544],[108.3317,-6.803,201.9969],[108.3308,-6.7973,169.7539],[108.3291,-6.7968,169.7539],[108.3223,-6.7866,131.2769],[108.32,-6.7867,132.6172],[108.3197,-6.7806,114.7242],[108.3182,-6.7783,105.253],[108.3049,-6.7881,103.3559],[108.3029,-6.7882,100.8943],[108.3056,-6.7844,96.1238],[108.3131,-6.7812,104.3004],[108.3148,-6.7785,102.583],[108.3116,-6.7741,97.1743],[108.3075,-6.776,88.1171],[108.3058,-6.7737,87.7469],[108.3019,-6.7746,84.9169],[108.2995,-6.7836,89.0295],[108.297,-6.7863,89.3175],[108.2968,-6.7907,91.3429],[108.2934,-6.7871,85.4988],[108.2892,-6.7879,87.3125],[108.2859,-6.7912,91.531],[108.2873,-6.7945,96.865],[108.2814,-6.7949,96.4992],[108.2838,-6.809,128.8954],[108.2782,-6.8097,117.7529],[108.2768,-6.8076,108.3972],[108.2702,-6.8048,92.3837],[108.2602,-6.8143,101.0048],[108.2608,-6.818,109.7532],[108.271,-6.8243,157.457],[108.2756,-6.8305,267.5081],[108.2835,-6.8317,271.3301],[108.2802,-6.843,322.0796],[108.2829,-6.8499,333.4559],[108.2855,-6.8516,350.7992],[108.2858,-6.8564,378.6061],[108.2842,-6.8596,377.2839],[108.2857,-6.8607,390.9404]]]]}}