{"type":"Feature","properties":{"GID_3":"IDN.9.1.2_1","GID_0":"IDN","country":"Indonesia","GID_1":"IDN.9_1","province":"JawaBarat","NL_NAME_1":"NA","GID_2":"IDN.9.1_1","county":"BandungBarat","NL_NAME_2":"NA","city":"Cihampelas","VARNAME_3":"NA","NL_NAME_3":"NA","TYPE_3":"Kecamatan","ENGTYPE_3":"Sub-district","CC_3":"3217050","HASC_3":"NA","name":"Cihampelas.city"},
"geometry":{"type": "MultiPolygon","coordinates": [[[[107.5184,-6.9566,875.6465],[107.5241,-6.9519,689.3298],[107.5261,-6.9444,732.2206],[107.532,-6.9417,678.4412],[107.5313,-6.9392,668.3481],[107.5274,-6.9372,651.9806],[107.5219,-6.9354,656.8295],[107.511,-6.9383,666.9272],[107.5057,-6.9333,645.675],[107.5019,-6.9343,639.0345],[107.4973,-6.9327,639.5641],[107.4956,-6.9287,637.0],[107.4905,-6.9267,656.5765],[107.4899,-6.9249,640.463],[107.4852,-6.9269,648.0988],[107.48,-6.9239,639.8418],[107.4782,-6.9208,637.0],[107.4803,-6.9168,640.4039],[107.4771,-6.9186,641.6086],[107.4746,-6.9157,637.0],[107.4728,-6.9182,646.5671],[107.4691,-6.9184,645.9073],[107.4666,-6.9155,658.899],[107.4677,-6.9145,648.0205],[107.4697,-6.9159,637.0],[107.4675,-6.9117,646.1685],[107.464,-6.9142,642.04],[107.4579,-6.9103,648.0695],[107.455,-6.9096,645.2316],[107.4532,-6.9109,637.0],[107.4368,-6.9047,651.7446],[107.4267,-6.9063,649.0064],[107.4232,-6.9102,637.0],[107.4236,-6.9118,637.0],[107.4273,-6.9105,643.6024],[107.4269,-6.9129,643.8587],[107.4306,-6.9123,645.4137],[107.4309,-6.9162,639.6776],[107.4315,-6.9134,637.0],[107.437,-6.9093,646.6912],[107.436,-6.9115,640.5724],[107.4375,-6.9108,640.9763],[107.4383,-6.9131,646.869],[107.4357,-6.9125,637.0],[107.4357,-6.914,641.2686],[107.4339,-6.9127,637.0],[107.4323,-6.9169,637.0],[107.4346,-6.9175,636.8919],[107.435,-6.9159,645.2059],[107.4395,-6.9182,642.4507],[107.4411,-6.9175,649.5161],[107.44,-6.9193,642.3792],[107.4352,-6.9186,639.3005],[107.4369,-6.9221,645.8615],[107.4341,-6.9186,639.3005],[107.428,-6.9178,638.0671],[107.4291,-6.914,637.0],[107.4251,-6.915,649.5771],[107.4244,-6.9127,637.0],[107.4208,-6.9142,640.4083],[107.4179,-6.9115,637.0],[107.4159,-6.912,645.5549],[107.412,-6.9098,642.2491],[107.4114,-6.913,654.1937],[107.4061,-6.9165,637.0],[107.408,-6.916,653.9854],[107.4086,-6.918,637.0],[107.4105,-6.9185,637.0],[107.4121,-6.9155,644.9097],[107.4158,-6.914,648.691],[107.4161,-6.9168,644.007],[107.421,-6.9168,639.1572],[107.4184,-6.9181,641.8693],[107.4214,-6.9206,642.1696],[107.4205,-6.9213,638.7195],[107.4168,-6.9178,644.007],[107.4157,-6.9177,644.007],[107.4156,-6.9202,647.5475],[107.4149,-6.9165,637.0],[107.4117,-6.919,638.5864],[107.412,-6.9206,638.738],[107.4086,-6.9201,638.5496],[107.4071,-6.9225,645.6821],[107.4147,-6.9245,641.3384],[107.4127,-6.925,638.0],[107.4128,-6.9265,638.375],[107.4172,-6.9266,638.625],[107.4179,-6.9313,639.0],[107.4209,-6.9309,642.8547],[107.421,-6.9281,649.4168],[107.4267,-6.9266,639.0],[107.4273,-6.9237,646.4298],[107.4295,-6.9241,640.9432],[107.4285,-6.923,640.9432],[107.4305,-6.9233,639.0],[107.4299,-6.9222,641.8905],[107.4324,-6.9212,652.3732],[107.4344,-6.9217,650.9955],[107.4318,-6.9241,639.0],[107.4343,-6.9249,646.2468],[107.4294,-6.9267,639.0],[107.4316,-6.927,640.3501],[107.4299,-6.9293,640.9377],[107.4304,-6.9313,639.0],[107.4321,-6.9312,644.324],[107.4362,-6.925,647.1212],[107.4363,-6.9274,644.5145],[107.4339,-6.9305,642.9747],[107.4369,-6.9308,642.052],[107.439,-6.9261,648.222],[107.4417,-6.9277,639.0],[107.4436,-6.926,639.0],[107.443,-6.923,639.0],[107.4446,-6.9209,645.9665],[107.4458,-6.9202,645.9665],[107.4442,-6.9232,644.7017],[107.4451,-6.9253,639.0],[107.4509,-6.919,648.311],[107.4502,-6.9207,645.4324],[107.4545,-6.9205,648.2517],[107.4507,-6.9219,642.1797],[107.4502,-6.9237,640.8126],[107.4531,-6.9245,656.0162],[107.4537,-6.9263,644.5705],[107.4574,-6.9264,648.4182],[107.4557,-6.9273,643.7845],[107.4534,-6.9271,644.5705],[107.4487,-6.9246,645.6628],[107.4486,-6.923,640.8126],[107.4466,-6.9255,640.612],[107.4498,-6.927,646.0409],[107.4453,-6.9272,641.3083],[107.4436,-6.9297,639.0],[107.4449,-6.9288,645.8067],[107.4458,-6.9303,639.0],[107.4476,-6.9289,644.8676],[107.4477,-6.9315,639.0],[107.4499,-6.9304,645.2413],[107.4505,-6.9321,639.0],[107.4517,-6.9307,643.1913],[107.4523,-6.9326,639.0],[107.4614,-6.927,652.0743],[107.4606,-6.9284,652.043],[107.4627,-6.9287,654.2236],[107.4576,-6.9303,641.2933],[107.4549,-6.933,639.0],[107.4585,-6.9349,639.0],[107.4772,-6.9336,660.7578],[107.4823,-6.9379,659.5267],[107.4841,-6.9411,645.7523],[107.4872,-6.9401,650.9858],[107.4907,-6.9415,652.7151],[107.4845,-6.9415,648.4094],[107.4834,-6.9436,649.061],[107.482,-6.9385,643.4216],[107.48,-6.9388,644.0962],[107.4774,-6.9352,644.1423],[107.4746,-6.9353,644.6533],[107.4719,-6.9493,830.599],[107.4675,-6.9544,848.6947],[107.467,-6.957,915.9772],[107.4689,-6.9603,983.6422],[107.4796,-6.9691,1035.4923],[107.4826,-6.9661,1051.6675],[107.4822,-6.9637,1026.3594],[107.4908,-6.9643,778.7271],[107.4946,-6.9718,911.5334],[107.4944,-6.9792,1048.8015],[107.4987,-6.9775,1128.0385],[107.5034,-6.983,887.2014],[107.505,-6.9817,909.1143],[107.5041,-6.9793,913.7932],[107.5059,-6.9797,871.4073],[107.5083,-6.9767,882.5319],[107.5089,-6.9712,956.4492],[107.5129,-6.9649,877.4462],[107.5188,-6.9637,764.4014],[107.5184,-6.9593,864.6991],[107.5219,-6.957,880.9874],[107.5184,-6.9566,875.6465]]],
[[[107.427,-6.932,639.0],[107.4257,-6.9312,640.4627],[107.4262,-6.9302,640.4627],[107.4276,-6.9311,639.0],[107.4279,-6.9286,639.0],[107.4246,-6.9292,639.0],[107.423,-6.9318,639.0],[107.4276,-6.9323,639.0],[107.427,-6.932,639.0]]]]}}