{"type":"Feature","properties":{"GID_3":"IDN.19.7.6_1","GID_0":"IDN","country":"Indonesia","GID_1":"IDN.19_1","province":"Maluku","NL_NAME_1":"NA","GID_2":"IDN.19.7_1","county":"MalukuTenggaraBarat","NL_NAME_2":"NA","city":"WerMaktian","VARNAME_3":"NA","NL_NAME_3":"NA","TYPE_3":"Kecamatan","ENGTYPE_3":"Sub-district","CC_3":"8101042","HASC_3":"NA","name":"Wer_Maktian.city"},
"geometry":{"type": "MultiPolygon","coordinates": [[[[131.2175,-7.8503,34.8826],[131.2192,-7.844,21.9852],[131.2301,-7.8338,43.4897],[131.2362,-7.8316,41.5676],[131.2415,-7.8235,58.4086],[131.2461,-7.8118,52.5598],[131.2564,-7.7961,30.8271],[131.2549,-7.7924,19.8556],[131.2683,-7.787,66.2654],[131.2795,-7.7759,63.4252],[131.2822,-7.7697,61.693],[131.2814,-7.7565,49.7449],[131.2786,-7.7509,18.1397],[131.2791,-7.7447,19.3016],[131.2807,-7.7438,30.4908],[131.2801,-7.7402,43.2254],[131.2822,-7.7412,44.0201],[131.2847,-7.7334,43.0584],[131.288,-7.731,24.7571],[131.2959,-7.7033,57.5632],[131.2953,-7.6895,45.9862],[131.302,-7.6814,60.6731],[131.306,-7.6806,44.3657],[131.3035,-7.6783,81.6471],[131.3072,-7.673,78.8196],[131.3134,-7.6699,87.4396],[131.3184,-7.6628,112.1463],[131.3217,-7.6532,125.1628],[131.3215,-7.6467,125.126],[131.3238,-7.6426,112.3411],[131.3214,-7.6368,87.8044],[131.3159,-7.6339,105.6266],[131.3148,-7.6208,41.7442],[131.3114,-7.6213,72.7494],[131.3098,-7.6181,41.5172],[131.3017,-7.6196,73.2273],[131.2967,-7.6153,37.0648],[131.2911,-7.6172,55.4116],[131.2914,-7.6142,57.1926],[131.2962,-7.6094,61.9697],[131.2934,-7.6015,69.7704],[131.2967,-7.5986,47.4671],[131.2996,-7.5894,23.9762],[131.3039,-7.5862,15.4149],[131.3034,-7.5809,13.4243],[131.2991,-7.5766,21.2999],[131.2873,-7.5832,17.9757],[131.2836,-7.5813,11.4326],[131.2884,-7.5594,81.2371],[131.2888,-7.5433,88.1536],[131.2945,-7.5289,73.1],[131.2917,-7.5247,60.3711],[131.2865,-7.5225,60.5565],[131.2808,-7.5164,52.3942],[131.2822,-7.5115,47.5606],[131.277,-7.5062,42.5359],[131.2767,-7.5011,39.6471],[131.2716,-7.4893,35.6525],[131.2659,-7.4852,38.2797],[131.2685,-7.4739,17.2779],[131.2658,-7.4679,21.1997],[131.267,-7.4634,9.2394],[131.2639,-7.4575,6.0046],[131.2623,-7.4493,0.0],[131.2597,-7.4495,0.0],[131.2513,-7.457,0.0],[131.2478,-7.4642,0.0],[131.2384,-7.4699,0.0],[131.2344,-7.4749,0.0],[131.231,-7.4831,0.0],[131.2266,-7.4859,0.0],[131.2281,-7.4902,0.0],[131.2276,-7.5011,5.6032],[131.2236,-7.5247,0.0],[131.2153,-7.5441,0.0],[131.2079,-7.5569,0.0],[131.2017,-7.5592,0.0],[131.1948,-7.5739,0.0],[131.187,-7.583,0.0],[131.1833,-7.5915,0.0],[131.1846,-7.5932,12.61],[131.1954,-7.5827,13.8394],[131.1924,-7.5928,12.484],[131.1828,-7.5992,0.0],[131.1742,-7.6308,0.0],[131.1725,-7.6415,0.0],[131.1737,-7.6449,0.0],[131.1792,-7.648,4.5678],[131.1669,-7.6535,0.0],[131.1575,-7.6668,6.7673],[131.1671,-7.6698,2.8058],[131.178,-7.6792,5.0095],[131.1803,-7.6821,13.0825],[131.1805,-7.6918,9.2087],[131.1839,-7.6974,9.7657],[131.1866,-7.6989,1.4864],[131.1971,-7.6995,11.6956],[131.2069,-7.6964,35.6141],[131.2117,-7.6973,30.7246],[131.2225,-7.7062,22.1882],[131.2361,-7.7068,20.4202],[131.2394,-7.7115,7.4158],[131.2384,-7.7197,0.0],[131.2434,-7.7202,2.6548],[131.2437,-7.7228,2.3575],[131.2386,-7.7261,0.0],[131.2318,-7.717,0.0],[131.2284,-7.7166,0.0],[131.2083,-7.7211,0.0],[131.1889,-7.7201,0.0],[131.1783,-7.7219,0.0],[131.1703,-7.7205,0.0],[131.1677,-7.7182,7.636],[131.1641,-7.7105,0.0],[131.1446,-7.697,0.0],[131.1408,-7.6921,0.0],[131.1357,-7.6784,0.0],[131.1322,-7.6763,0.0],[131.1261,-7.6769,0.0],[131.1081,-7.7014,1.8167],[131.1068,-7.7125,2.9391],[131.1088,-7.7297,5.1913],[131.1063,-7.7392,3.3756],[131.1119,-7.7358,6.8004],[131.1158,-7.7256,0.0],[131.1174,-7.7276,0.0],[131.1152,-7.7368,3.8577],[131.1183,-7.7353,2.0198],[131.1192,-7.7436,0.7322],[131.1185,-7.7467,0.0],[131.1133,-7.7498,0.0],[131.1149,-7.7523,0.0],[131.1205,-7.7525,11.7073],[131.1287,-7.7452,9.6375],[131.1361,-7.7435,3.381],[131.1384,-7.7403,0.0],[131.1458,-7.7403,2.5974],[131.147,-7.7436,2.4219],[131.1439,-7.7545,0.0],[131.1408,-7.7569,0.0],[131.1342,-7.7546,0.0],[131.1312,-7.7589,0.0],[131.1323,-7.7653,2.2835],[131.1382,-7.7651,5.735],[131.1387,-7.7682,21.027],[131.1361,-7.7704,4.1449],[131.1247,-7.7713,0.0],[131.1176,-7.7744,0.0],[131.1128,-7.7805,0.0],[131.1139,-7.7829,2.6558],[131.1171,-7.784,3.4836],[131.1239,-7.7841,2.2395],[131.125,-7.7869,1.1142],[131.1178,-7.7886,0.0],[131.1182,-7.7912,0.0],[131.1211,-7.7936,1.4171],[131.1229,-7.7945,2.1483],[131.1291,-7.7896,1.3226],[131.1339,-7.7893,3.012],[131.1464,-7.7995,16.2655],[131.1468,-7.8152,3.2541],[131.1472,-7.8181,2.7217],[131.1496,-7.8198,5.7253],[131.1387,-7.8314,0.0],[131.1246,-7.8333,0.0],[131.1216,-7.8322,0.0],[131.1189,-7.8267,0.0],[131.1124,-7.8195,0.0],[131.1026,-7.8222,0.0],[131.1003,-7.8278,0.0],[131.086,-7.8392,0.0],[131.0808,-7.8595,0.0],[131.0825,-7.8707,3.6666],[131.0859,-7.8773,5.6205],[131.0941,-7.8817,8.0071],[131.0965,-7.8865,7.2493],[131.1021,-7.8882,4.1768],[131.1035,-7.8866,0.0],[131.1018,-7.8848,4.1387],[131.1025,-7.8796,0.0],[131.1003,-7.875,0.0],[131.1041,-7.8688,7.198],[131.1067,-7.8758,5.8456],[131.1065,-7.8849,5.9925],[131.1086,-7.8902,4.3191],[131.111,-7.8914,7.5625],[131.1157,-7.8908,16.5345],[131.1264,-7.8834,23.0506],[131.1301,-7.8777,30.5784],[131.1342,-7.8768,38.2029],[131.1422,-7.8825,64.4247],[131.1637,-7.8795,101.6417],[131.1761,-7.8755,74.4694],[131.1807,-7.879,66.8661],[131.1872,-7.8774,68.7116],[131.1925,-7.8784,86.763],[131.1956,-7.8842,74.3654],[131.2154,-7.8818,91.6629],[131.2175,-7.8503,34.8826]]],
[[[131.1007,-7.7232,1.6708],[131.102,-7.7189,0.9168],[131.1049,-7.7192,0.8974],[131.1062,-7.7154,4.9737],[131.1041,-7.713,0.7016],[131.1004,-7.7155,0.0],[131.0961,-7.7151,0.0],[131.0953,-7.7162,0.0],[131.1007,-7.7232,1.6708]]],
[[[131.1157,-7.6767,0.0],[131.1143,-7.6804,0.0],[131.1154,-7.6823,0.0],[131.1179,-7.6822,0.0],[131.1198,-7.6788,0.0],[131.1157,-7.6767,0.0]]],
[[[131.0836,-7.764,0.0],[131.0896,-7.7557,0.0],[131.0915,-7.7475,3.9178],[131.0907,-7.7444,10.8016],[131.0886,-7.7434,15.973],[131.0868,-7.7451,8.8663],[131.0825,-7.7379,0.0],[131.0871,-7.7382,11.8274],[131.0942,-7.7438,0.0],[131.0937,-7.7463,0.0],[131.0955,-7.7478,0.0],[131.097,-7.7437,0.0],[131.0954,-7.7422,0.0],[131.0955,-7.7377,10.1355],[131.0971,-7.7402,1.1802],[131.0998,-7.7327,0.0],[131.1015,-7.7321,0.0],[131.1,-7.729,1.1519],[131.0973,-7.7276,9.9413],[131.0952,-7.7214,5.5329],[131.0934,-7.7208,0.546],[131.0889,-7.7264,3.8869],[131.0856,-7.7356,5.5826],[131.0796,-7.7387,0.0],[131.0729,-7.7497,2.925],[131.0684,-7.7505,0.0],[131.0711,-7.7587,21.2625],[131.0747,-7.7626,18.0278],[131.0836,-7.764,0.0]]],
[[[131.143,-7.513,0.0],[131.1373,-7.5099,0.0],[131.1297,-7.5122,0.0],[131.1266,-7.5154,0.0],[131.1246,-7.5256,0.0],[131.1332,-7.5367,41.5208],[131.1525,-7.5382,13.2426],[131.1548,-7.531,0.0],[131.1512,-7.5283,19.6606],[131.1484,-7.518,0.0],[131.143,-7.513,0.0]]],
[[[131.1592,-7.5172,0.0],[131.1526,-7.5155,0.0],[131.1515,-7.5225,0.0],[131.1558,-7.5259,15.6421],[131.1614,-7.5239,3.5981],[131.162,-7.5218,0.0],[131.1592,-7.5172,0.0]]],
[[[131.1911,-7.4264,0.0],[131.1946,-7.4202,0.0],[131.2008,-7.4154,0.0],[131.1916,-7.4179,0.0],[131.1903,-7.4212,0.0],[131.1879,-7.4216,0.0],[131.1881,-7.4253,0.0],[131.1911,-7.4264,0.0]]],
[[[131.1683,-7.404,0.0],[131.1705,-7.4055,0.0],[131.174,-7.4049,13.5633],[131.1789,-7.398,0.0],[131.1782,-7.3916,0.0],[131.1752,-7.3903,0.0],[131.1689,-7.3938,0.0],[131.1668,-7.4021,0.0],[131.1683,-7.404,0.0]]],
[[[130.9603,-7.7534,0.0],[130.9613,-7.747,0.0],[130.9594,-7.7456,0.0],[130.96,-7.7424,0.0],[130.9563,-7.7405,0.0],[130.9613,-7.7359,0.0],[130.9596,-7.7337,0.0],[130.9496,-7.7433,5.8869],[130.9498,-7.7531,8.259],[130.9562,-7.7587,0.0],[130.9564,-7.7629,0.0],[130.9524,-7.7731,0.0],[130.9489,-7.7733,3.0966],[130.9535,-7.7741,0.0],[130.9557,-7.7727,0.0],[130.9603,-7.7534,0.0]]],
[[[131.0291,-7.7483,0.0],[131.0276,-7.7497,5.2172],[131.0277,-7.753,4.304],[131.0322,-7.753,0.0],[131.0335,-7.7512,0.0],[131.0324,-7.7475,0.0],[131.0313,-7.7466,0.0],[131.0291,-7.7483,0.0]]],
[[[131.0136,-7.7534,0.0],[131.019,-7.7429,0.0],[131.0187,-7.7403,0.0],[131.0167,-7.7393,0.0],[131.0175,-7.7426,0.0],[131.016,-7.7446,0.0],[131.0122,-7.7448,1.6043],[131.01,-7.7477,3.1436],[131.0082,-7.7576,0.0],[131.0122,-7.7576,0.0],[131.0136,-7.7534,0.0]]],
[[[131.0306,-7.7075,0.0],[131.0294,-7.7066,0.0],[131.0298,-7.7009,1.7125],[131.0362,-7.6974,0.0],[131.0387,-7.6932,0.0],[131.0368,-7.6847,22.2167],[131.0384,-7.6828,12.8988],[131.0453,-7.6837,14.4628],[131.0463,-7.6814,16.4253],[131.0523,-7.6783,14.3899],[131.0618,-7.6765,8.4583],[131.064,-7.6774,17.9896],[131.0582,-7.6817,4.0727],[131.0623,-7.6905,9.2574],[131.0573,-7.6995,4.9695],[131.0584,-7.701,3.9645],[131.0737,-7.7026,1.8189],[131.0838,-7.7016,1.5042],[131.0857,-7.6993,2.8926],[131.091,-7.6986,2.3274],[131.0903,-7.696,10.3017],[131.0941,-7.6956,3.936],[131.0999,-7.6893,8.4509],[131.1045,-7.6904,0.6794],[131.1081,-7.684,1.7329],[131.1079,-7.6817,3.3558],[131.1161,-7.6721,0.0],[131.1129,-7.6641,15.0913],[131.1162,-7.6589,2.5589],[131.1153,-7.6532,41.7329],[131.1183,-7.6467,33.2673],[131.1177,-7.6439,16.6696],[131.1243,-7.6342,0.0],[131.1046,-7.6331,0.0],[131.102,-7.6306,0.0],[131.0962,-7.6301,0.0],[131.0952,-7.6311,0.0],[131.097,-7.6349,2.2113],[131.0965,-7.6387,3.0782],[131.0892,-7.638,0.0],[131.0815,-7.6393,0.0],[131.0784,-7.6421,0.0],[131.0759,-7.6407,0.0],[131.0699,-7.641,0.0],[131.0627,-7.6431,0.0],[131.0562,-7.6545,1.4334],[131.0517,-7.6573,8.3188],[131.0496,-7.6637,7.1062],[131.0505,-7.658,2.0369],[131.0485,-7.6638,7.1062],[131.0489,-7.6672,15.9491],[131.0468,-7.6709,20.6281],[131.0459,-7.6643,11.6046],[131.0485,-7.657,11.6593],[131.0456,-7.6515,0.0],[131.0351,-7.658,0.0],[131.0299,-7.6632,0.0],[131.0153,-7.6701,0.0],[130.9852,-7.6763,0.0],[130.9729,-7.6766,0.0],[130.9652,-7.6873,0.0],[130.9682,-7.691,23.1846],[130.9722,-7.7013,14.1928],[130.9705,-7.7031,12.7845],[130.9677,-7.7246,6.0434],[130.9709,-7.7294,5.0831],[130.9706,-7.7342,6.0594],[130.974,-7.7379,9.8625],[130.9812,-7.7362,6.8279],[130.9874,-7.7319,9.0478],[130.9885,-7.7345,6.462],[130.9942,-7.7368,12.0911],[131.0029,-7.7339,0.0],[131.0052,-7.7239,9.5917],[131.0072,-7.7222,18.9928],[131.0084,-7.727,5.5534],[131.0123,-7.7261,3.9152],[131.0158,-7.7209,13.8885],[131.0213,-7.7213,5.2657],[131.0247,-7.724,6.6875],[131.0336,-7.7207,4.5443],[131.0362,-7.7223,6.664],[131.0444,-7.7196,0.0],[131.045,-7.7147,0.0],[131.038,-7.7127,3.2345],[131.0356,-7.7097,3.9472],[131.0337,-7.7103,1.8746],[131.0323,-7.7075,0.0],[131.0306,-7.7075,0.0]]],
[[[130.9458,-7.6381,0.0],[130.9466,-7.6417,5.2594],[130.9524,-7.6396,0.0],[130.9518,-7.6362,0.0],[130.9469,-7.6345,0.0],[130.9445,-7.6374,0.0],[130.9458,-7.6381,0.0]]],
[[[130.8537,-7.4994,0.0],[130.8523,-7.4932,0.0],[130.8476,-7.4918,0.0],[130.8431,-7.4936,0.0],[130.8464,-7.4953,0.0],[130.8494,-7.4945,0.0],[130.851,-7.4971,1.7669],[130.8507,-7.5016,3.767],[130.8476,-7.5004,0.0],[130.8494,-7.4985,0.0],[130.8417,-7.4988,0.0],[130.8384,-7.5009,0.0],[130.8353,-7.4979,1.5124],[130.8336,-7.5004,0.0],[130.8373,-7.5058,0.0],[130.8365,-7.5125,0.0],[130.8386,-7.5183,0.0],[130.8373,-7.5356,0.0],[130.8417,-7.5419,0.0],[130.8359,-7.5418,0.0],[130.8313,-7.5534,0.0],[130.843,-7.5612,17.5684],[130.8524,-7.5624,13.0466],[130.8566,-7.5646,0.0],[130.8748,-7.5646,10.9782],[130.8744,-7.5661,10.9782],[130.8787,-7.5682,16.222],[130.8784,-7.5698,8.2319],[130.881,-7.5692,15.1667],[130.8844,-7.5739,14.4465],[130.8927,-7.5746,14.1219],[130.8936,-7.5759,14.1219],[130.9016,-7.5736,13.954],[130.9111,-7.5735,24.6811],[130.9188,-7.568,15.375],[130.9282,-7.568,0.0],[130.9265,-7.5659,15.8479],[130.9362,-7.5535,8.3672],[130.9416,-7.5493,1.6483],[130.9406,-7.5462,7.8083],[130.9379,-7.5447,23.8907],[130.94,-7.5379,16.4867],[130.943,-7.5427,2.5774],[130.9468,-7.5438,4.885],[130.9459,-7.5448,1.8173],[130.9476,-7.5454,5.2177],[130.95,-7.553,1.4081],[130.9582,-7.5552,14.9469],[130.963,-7.5591,16.7625],[130.9712,-7.5624,13.2238],[130.9807,-7.5586,1.8412],[130.9801,-7.5549,0.0],[130.9735,-7.5529,0.0],[130.9705,-7.549,0.0],[130.9636,-7.545,0.0],[130.9592,-7.5465,0.0],[130.9585,-7.5435,0.0],[130.9551,-7.5452,2.183],[130.9528,-7.5395,16.9649],[130.9537,-7.5373,26.6745],[130.9614,-7.5321,9.2824],[130.9661,-7.5326,11.3462],[130.9743,-7.5239,13.7197],[130.976,-7.5182,2.3764],[130.9636,-7.5162,7.6082],[130.969,-7.5132,12.2873],[130.9643,-7.513,9.3945],[130.9701,-7.5114,17.7128],[130.9732,-7.5131,19.3157],[130.9731,-7.515,7.6711],[130.9765,-7.5161,9.1809],[130.9856,-7.5119,0.0],[130.9755,-7.5045,0.0],[130.9699,-7.5039,0.0],[130.9624,-7.5057,0.0],[130.9579,-7.5093,0.0],[130.9596,-7.5119,0.0],[130.9547,-7.5144,0.0],[130.9578,-7.5155,0.0],[130.9543,-7.5182,0.0],[130.9536,-7.5208,0.0],[130.9374,-7.5235,0.0],[130.9343,-7.5307,9.2341],[130.9344,-7.5205,0.0],[130.9288,-7.5178,0.0],[130.9138,-7.519,0.0],[130.905,-7.5147,0.0],[130.899,-7.5134,0.0],[130.9006,-7.5153,0.0],[130.8922,-7.5116,0.0],[130.8804,-7.5105,0.0],[130.8781,-7.5119,0.0],[130.879,-7.5138,0.0],[130.8753,-7.5131,11.1757],[130.8761,-7.5098,9.7892],[130.8743,-7.5047,0.0],[130.8636,-7.5036,8.8319],[130.8555,-7.4988,2.4962],[130.8536,-7.5013,2.8139],[130.8537,-7.4994,0.0]]],
[[[130.9854,-7.5194,0.0],[130.9809,-7.5198,0.9384],[130.9808,-7.5174,8.7028],[130.9791,-7.517,10.3273],[130.9751,-7.5236,14.0703],[130.9782,-7.5264,3.0522],[130.978,-7.5279,3.0522],[130.9739,-7.5253,18.5827],[130.9719,-7.5295,15.953],[130.9643,-7.5356,7.9508],[130.9668,-7.5377,0.0],[130.9673,-7.5356,7.6875],[130.9697,-7.5392,5.5706],[130.9802,-7.545,9.4456],[130.9847,-7.5442,19.9235],[130.9857,-7.5404,13.4496],[130.9843,-7.537,12.8166],[130.9901,-7.5314,15.4325],[130.9901,-7.5291,14.035],[130.9927,-7.5286,8.9917],[130.9913,-7.5244,0.0],[130.9873,-7.5226,0.0],[130.9866,-7.5191,0.0],[130.9854,-7.5194,0.0]]],
[[[130.9899,-7.5115,0.0],[130.9934,-7.5119,0.0],[130.9937,-7.5105,0.0],[130.9881,-7.5095,0.0],[130.9899,-7.5115,0.0]]],
[[[131.0562,-7.6486,0.0],[131.0576,-7.6462,0.0],[131.0553,-7.6448,0.0],[131.0526,-7.6457,0.0],[131.0531,-7.6473,0.0],[131.0503,-7.6466,0.0],[131.0476,-7.6502,0.0],[131.0493,-7.6545,9.6227],[131.0516,-7.6551,16.627],[131.0544,-7.6535,13.9212],[131.0562,-7.6486,0.0]]],
[[[131.1598,-7.4069,28.8701],[131.1543,-7.3982,0.0],[131.1489,-7.398,0.0],[131.1439,-7.3999,0.0],[131.1377,-7.3993,0.0],[131.1258,-7.4014,0.0],[131.1227,-7.4042,0.0],[131.1102,-7.4075,0.0],[131.1081,-7.4065,0.0],[131.1025,-7.4098,0.0],[131.0819,-7.4127,0.0],[131.0801,-7.4139,0.0],[131.0798,-7.4165,0.0],[131.0763,-7.4164,0.0],[131.0732,-7.4141,0.0],[131.0636,-7.4156,0.0],[131.0531,-7.4147,0.0],[131.0312,-7.4198,0.0],[131.0207,-7.4161,0.0],[131.011,-7.4185,0.0],[131.0056,-7.4178,0.0],[130.995,-7.4228,0.0],[130.9876,-7.423,0.0],[130.9819,-7.425,0.0],[130.9734,-7.4322,0.0],[130.9697,-7.4448,0.0],[130.9653,-7.4513,0.0],[130.9645,-7.4557,0.0],[130.966,-7.4672,0.0],[130.9641,-7.4868,0.0],[130.9657,-7.4859,0.0],[130.9661,-7.4886,0.0],[130.9729,-7.4938,10.4593],[130.9788,-7.4938,9.8842],[130.9798,-7.4919,10.7967],[130.9831,-7.4916,17.3018],[130.9847,-7.4928,7.3937],[130.9835,-7.495,11.6895],[130.985,-7.4935,7.2608],[130.9884,-7.4945,7.3299],[130.9914,-7.497,11.4112],[130.993,-7.4961,32.5586],[130.9998,-7.5,6.4802],[131.0027,-7.4987,33.8487],[131.0052,-7.4936,5.5094],[131.0077,-7.4924,6.0648],[131.0164,-7.4953,14.2431],[131.0202,-7.4943,17.8744],[131.0244,-7.4966,19.8039],[131.0283,-7.4946,12.3313],[131.0285,-7.4909,23.2705],[131.031,-7.4914,11.9499],[131.0343,-7.4885,11.69],[131.0421,-7.4892,10.3528],[131.0434,-7.4866,10.8752],[131.0397,-7.4851,16.5796],[131.0419,-7.4822,22.2368],[131.0493,-7.4789,23.2074],[131.0539,-7.4791,6.2799],[131.0549,-7.481,3.7877],[131.0538,-7.4895,0.0],[131.0548,-7.4911,0.0],[131.0563,-7.4874,0.0],[131.0565,-7.4943,0.0],[131.0515,-7.4964,0.0],[131.0494,-7.4941,0.8387],[131.0474,-7.496,0.0],[131.0479,-7.4974,0.0],[131.0458,-7.4969,0.0],[131.0447,-7.5003,0.0],[131.0438,-7.4959,0.0],[131.0406,-7.4977,0.0],[131.0411,-7.5008,0.0],[131.0407,-7.4997,0.0],[131.0394,-7.5013,0.0],[131.0374,-7.5,0.0],[131.0348,-7.5009,0.0],[131.0325,-7.5091,0.0],[131.0338,-7.5111,0.0],[131.0366,-7.512,3.7628],[131.0386,-7.5101,6.2426],[131.0439,-7.5151,5.2478],[131.0566,-7.5187,31.9347],[131.0591,-7.5156,39.1435],[131.0619,-7.5068,22.4366],[131.0653,-7.5029,3.1501],[131.0715,-7.4995,7.657],[131.0732,-7.4913,41.9049],[131.0809,-7.4875,22.6889],[131.0808,-7.4829,34.4328],[131.0778,-7.4762,29.2236],[131.0802,-7.4751,39.563],[131.0871,-7.4838,0.0],[131.0884,-7.4813,7.1655],[131.0889,-7.4829,7.1655],[131.09,-7.4821,22.7378],[131.0907,-7.4802,18.7085],[131.0893,-7.4803,9.3221],[131.0922,-7.4752,13.6275],[131.0947,-7.4756,15.7881],[131.0986,-7.4732,22.9418],[131.0994,-7.4689,27.1675],[131.1119,-7.4702,27.8982],[131.1142,-7.4587,65.5167],[131.1177,-7.4617,40.0572],[131.1179,-7.459,26.4438],[131.1193,-7.4593,22.7986],[131.1215,-7.4648,3.3086],[131.1231,-7.4624,9.9126],[131.1273,-7.4615,29.764],[131.1274,-7.4525,59.868899999999996],[131.1291,-7.4516,21.9106],[131.1292,-7.4484,35.4244],[131.1338,-7.4452,10.1325],[131.131,-7.4405,23.7324],[131.1355,-7.4383,20.6314],[131.137,-7.4396,17.3607],[131.1407,-7.4351,42.4229],[131.1448,-7.4332,16.1091],[131.1415,-7.4274,48.305],[131.1527,-7.4264,32.0868],[131.1627,-7.4175,43.1203],[131.1625,-7.4114,33.0449],[131.1598,-7.4069,28.8701]]],
[[[131.0007,-7.5044,0.0],[130.9954,-7.5033,0.0],[130.9937,-7.5049,0.0],[130.9957,-7.5085,0.0],[130.9944,-7.5127,0.0],[130.9959,-7.5148,5.8078],[131.0005,-7.5166,7.5065],[131.0028,-7.5119,9.3927],[130.9999,-7.507,0.0],[131.0007,-7.5044,0.0]]],
[[[130.8142,-7.4767,0.0],[130.8105,-7.4763,0.0],[130.8065,-7.4794,0.0],[130.8064,-7.4813,0.0],[130.8097,-7.4836,0.0],[130.8086,-7.4806,0.0],[130.812,-7.4819,3.9246],[130.8119,-7.4797,0.0],[130.8198,-7.4938,0.0],[130.8319,-7.4946,6.2673],[130.8292,-7.4933,14.636],[130.8288,-7.49,6.086],[130.8247,-7.4857,33.8396],[130.8233,-7.481,0.0],[130.8142,-7.4767,0.0]]]]}}