{"type":"Feature","properties":{"GID_3":"IDN.10.9.2_1","GID_0":"IDN","country":"Indonesia","GID_1":"IDN.10_1","province":"JawaTengah","NL_NAME_1":"NA","GID_2":"IDN.10.9_1","county":"Grobogan","NL_NAME_2":"NA","city":"Gabus","VARNAME_3":"NA","NL_NAME_3":"NA","TYPE_3":"Kecamatan","ENGTYPE_3":"Sub-district","CC_3":"3315080","HASC_3":"NA","name":"Gabus.city"},
"geometry":{"type": "MultiPolygon","coordinates": [[[[111.2035,-7.2447,184.3052],[111.2124,-7.2469,156.85],[111.2193,-7.2467,172.4767],[111.2272,-7.2439,200.4098],[111.2344,-7.244,173.9601],[111.2379,-7.241,167.9837],[111.2366,-7.2308,173.7762],[111.2394,-7.2268,130.6781],[111.2424,-7.2097,126.6055],[111.2443,-7.2075,124.5209],[111.2434,-7.2021,99.5155],[111.2467,-7.1815,83.1799],[111.2451,-7.1776,80.3877],[111.2468,-7.1718,77.9955],[111.2429,-7.1693,78.6045],[111.2414,-7.1659,79.5731],[111.2405,-7.1385,67.0307],[111.2379,-7.1379,66.0182],[111.2347,-7.1314,66.0334],[111.232,-7.1198,62.4907],[111.2234,-7.1036,66.4297],[111.223,-7.094,72.5747],[111.2214,-7.0907,68.396],[111.2025,-7.0978,86.0425],[111.1992,-7.0962,85.7241],[111.1837,-7.0974,86.5607],[111.1795,-7.0958,70.5903],[111.1767,-7.0994,73.3103],[111.1726,-7.101,71.0528],[111.1721,-7.1064,52.376],[111.1748,-7.1081,53.5524],[111.1757,-7.1134,46.7745],[111.1792,-7.1097,50.4755],[111.1784,-7.1128,47.3841],[111.1809,-7.1128,49.0679],[111.1815,-7.1115,49.0679],[111.1864,-7.1172,53.2418],[111.1844,-7.1274,57.2125],[111.1793,-7.1316,54.8119],[111.1729,-7.1335,48.4855],[111.1731,-7.1355,47.4343],[111.1758,-7.1358,49.1428],[111.1771,-7.1382,49.8603],[111.1737,-7.1408,53.2794],[111.1697,-7.1419,59.0241],[111.1656,-7.1408,56.5729],[111.1652,-7.1425,57.3644],[111.1627,-7.1432,54.2956],[111.1603,-7.1529,53.7666],[111.1611,-7.1752,124.09],[111.1484,-7.1863,103.2394],[111.1387,-7.1973,92.7748],[111.1382,-7.2022,112.9998],[111.1358,-7.2058,105.1731],[111.1374,-7.2163,90.0839],[111.129,-7.2323,117.5649],[111.1387,-7.25,138.5157],[111.1324,-7.2589,152.1899],[111.136,-7.2618,139.9254],[111.1438,-7.2617,145.5664],[111.1463,-7.2645,156.3531],[111.1493,-7.2639,153.0033],[111.1504,-7.2601,153.231],[111.1557,-7.2579,158.1942],[111.167,-7.2606,161.4672],[111.1684,-7.2634,153.817],[111.1747,-7.2626,157.4348],[111.1777,-7.2644,157.8671],[111.1825,-7.2595,160.5114],[111.1897,-7.2598,156.4752],[111.1935,-7.2563,164.3497],[111.1997,-7.2558,180.2529],[111.1992,-7.2492,174.8806],[111.1971,-7.2467,181.5951],[111.2035,-7.2447,184.3052]]]]}}