{"type":"Feature","properties":{"GID_3":"IDN.12.7.6_1","GID_0":"IDN","country":"Indonesia","GID_1":"IDN.12_1","province":"KalimantanBarat","NL_NAME_1":"NA","GID_2":"IDN.12.7_1","county":"Landak","NL_NAME_2":"NA","city":"MempawahHulu","VARNAME_3":"NA","NL_NAME_3":"NA","TYPE_3":"Kecamatan","ENGTYPE_3":"Sub-district","CC_3":"6103070","HASC_3":"NA","name":"Mempawah_Hulu.city"},
"geometry":{"type": "MultiPolygon","coordinates": [[[[109.3671,0.7561,439.5236],[109.3625,0.7646,276.2781],[109.3582,0.7668,311.8713],[109.3439,0.7635,266.5786],[109.3359,0.7587,198.1864],[109.3294,0.7514,249.9686],[109.3056,0.719,168.9726],[109.2913,0.7113,261.8391],[109.2864,0.7129,332.6881],[109.2819,0.7168,396.6113],[109.2762,0.7271,222.5922],[109.2744,0.7361,296.9826],[109.2751,0.7429,326.2835],[109.2659,0.7505,357.6418],[109.2603,0.747,204.2694],[109.2528,0.7323,216.671],[109.2495,0.7297,202.0132],[109.2332,0.7219,270.8611],[109.2152,0.7271,251.0732],[109.2117,0.7249,193.6882],[109.2002,0.7059,97.4016],[109.1927,0.7008,63.1886],[109.1571,0.6961,76.3814],[109.1491,0.6937,112.0478],[109.1448,0.6889,114.2382],[109.1435,0.6846,44.3192],[109.1489,0.686,37.7443],[109.153,0.6837,35.6529],[109.1668,0.6715,100.4039],[109.1812,0.671,60.0711],[109.1859,0.6663,142.2458],[109.1904,0.6555,50.3643],[109.2037,0.6502,52.6194],[109.2129,0.643,42.7314],[109.2295,0.6433,50.9784],[109.2447,0.6351,107.3898],[109.2501,0.6379,97.4359],[109.2559,0.6443,108.1418],[109.2601,0.6452,132.6626],[109.263,0.6361,122.2705],[109.2661,0.6328,236.4557],[109.2784,0.6263,171.5915],[109.2902,0.6059,143.0444],[109.3042,0.5879,88.0228],[109.3212,0.576,98.6936],[109.332,0.5608,63.7583],[109.3401,0.5548,78.9211],[109.3455,0.54,81.0003],[109.3591,0.513,39.2727],[109.3613,0.488,21.4048],[109.3768,0.4803,27.8936],[109.4009,0.4767,58.0387],[109.4068,0.4793,76.9563],[109.4121,0.4784,71.0242],[109.4373,0.515,40.3369],[109.4338,0.531,85.7877],[109.4762,0.5821,308.4291],[109.4722,0.5857,371.4233],[109.4695,0.5911,490.897],[109.4722,0.602,350.1089],[109.4695,0.6118,318.6019],[109.4646,0.6216,187.5682],[109.4651,0.6281,151.1956],[109.4695,0.6368,341.9507],[109.4694,0.6488,371.2874],[109.4716,0.6619,452.9008],[109.4859,0.6771,312.7562],[109.5012,0.6993,162.2309],[109.4969,0.7255,135.2335],[109.4977,0.734,137.1544],[109.5004,0.7384,132.579],[109.4853,0.7575,465.3751],[109.4856,0.7596,439.6553],[109.4799,0.7682,618.5969],[109.4768,0.7771,428.1139],[109.4714,0.777,477.4661],[109.4415,0.7518,702.5581],[109.4318,0.7409,942.1218],[109.4108,0.7315,394.8673],[109.4048,0.731,287.1385],[109.3958,0.7339,328.9576],[109.3848,0.7511,218.5174],[109.3774,0.7559,256.2069],[109.3765,0.759,295.7783],[109.3736,0.7597,271.3732],[109.3671,0.7561,439.5236]]]]}}