{"type":"Feature","properties":{"GID_3":"IDN.17.10.3_1","GID_0":"IDN","country":"Indonesia","GID_1":"IDN.17_1","province":"Lampung","NL_NAME_1":"NA","GID_2":"IDN.17.10_1","county":"Pringsewu","NL_NAME_2":"NA","city":"Banyumas","VARNAME_3":"NA","NL_NAME_3":"NA","TYPE_3":"Kecamatan","ENGTYPE_3":"Sub-district","CC_3":"1810070","HASC_3":"NA","name":"Banyumas.city"},
"geometry":{"type": "MultiPolygon","coordinates": [[[[104.921,-5.3033,116.9975],[104.9247,-5.302,121.9606],[104.9267,-5.2982,131.481],[104.9251,-5.296,143.0179],[104.9266,-5.2918,154.6983],[104.9318,-5.2906,149.0277],[104.926,-5.2896,151.6204],[104.9251,-5.2847,149.0438],[104.9278,-5.2807,149.3515],[104.9276,-5.2785,146.766],[104.9388,-5.2763,148.9442],[104.9368,-5.2614,113.0165],[104.9274,-5.2655,115.4071],[104.9135,-5.2671,119.3748],[104.9109,-5.255,149.0014],[104.898,-5.2431,152.1944],[104.8854,-5.2492,258.9604],[104.8814,-5.2538,177.42],[104.882,-5.2585,155.5402],[104.88,-5.265,177.4303],[104.8824,-5.2771,161.9107],[104.8925,-5.2761,142.9271],[104.8907,-5.2772,154.6178],[104.8914,-5.2838,132.511],[104.8983,-5.2882,146.3505],[104.8891,-5.2926,153.9841],[104.8895,-5.2979,141.2256],[104.8931,-5.3015,149.2035],[104.8937,-5.3072,132.5917],[104.8992,-5.3124,155.1641],[104.8984,-5.3151,278.9935],[104.9013,-5.3171,176.8634],[104.9023,-5.3233,326.5198],[104.9049,-5.3245,286.9636],[104.9067,-5.3277,171.3908],[104.9012,-5.3289,160.9097],[104.9023,-5.3317,146.0532],[104.9101,-5.3354,127.2958],[104.9178,-5.3364,161.8815],[104.9187,-5.3395,141.0858],[104.9222,-5.3389,226.913],[104.9213,-5.3268,137.7597],[104.9263,-5.318,131.0215],[104.9232,-5.3122,135.2682],[104.9172,-5.3084,124.9115],[104.921,-5.3033,116.9975]]]]}}