{"type":"Feature","properties":{"GID_3":"IDN.11.38.18_1","GID_0":"IDN","country":"Indonesia","GID_1":"IDN.11_1","province":"JawaTimur","NL_NAME_1":"NA","GID_2":"IDN.11.38_1","county":"Tulungagung","NL_NAME_2":"NA","city":"TanggungGunung","VARNAME_3":"NA","NL_NAME_3":"NA","TYPE_3":"Kecamatan","ENGTYPE_3":"Sub-district","CC_3":"3504050","HASC_3":"NA","name":"Tanggung_Gunung.city"},
"geometry":{"type": "MultiPolygon","coordinates": [[[[111.8636,-8.2789,0.0],[111.864,-8.279,0.0],[111.8644,-8.2779,0.0],[111.8637,-8.2782,0.0],[111.8636,-8.2789,0.0]]],
[[[111.8628,-8.2755,4.6373],[111.8628,-8.2756,4.6373],[111.863,-8.2756,4.6373],[111.8629,-8.2754,4.6373],[111.8628,-8.2755,4.6373]]],
[[[111.8352,-8.2653,37.9957],[111.8355,-8.2622,0.0],[111.8398,-8.2588,5.7627],[111.8413,-8.2641,0.0],[111.8442,-8.2629,17.1832],[111.8457,-8.2646,0.0],[111.8489,-8.2642,4.2852],[111.8527,-8.2714,0.0],[111.8553,-8.269,31.9133],[111.8571,-8.2701,0.0],[111.8579,-8.2685,22.9016],[111.8586,-8.2699,0.0],[111.8626,-8.2696,39.2764],[111.8623,-8.2749,4.6373],[111.8655,-8.2745,9.8028],[111.868,-8.2769,0.0],[111.8687,-8.2793,9.783],[111.8667,-8.2805,5.5698],[111.8684,-8.2809,26.4856],[111.8691,-8.2847,0.0],[111.8738,-8.2853,13.6152],[111.873,-8.2874,21.5487],[111.875,-8.2912,15.5916],[111.8789,-8.2909,17.2231],[111.8853,-8.2932,0.0],[111.891,-8.2983,0.0],[111.8989,-8.3008,21.6764],[111.8972,-8.3032,15.1792],[111.8989,-8.3045,15.1792],[111.9023,-8.3039,0.0],[111.9026,-8.3018,3.9406],[111.9075,-8.3028,0.0],[111.9104,-8.3001,0.0],[111.9102,-8.2979,10.1257],[111.9126,-8.2973,11.4634],[111.9162,-8.2981,25.3536],[111.9175,-8.3003,0.0],[111.922,-8.3015,0.0],[111.9252,-8.3046,0.0],[111.9266,-8.304,30.095],[111.9274,-8.3057,0.0],[111.9285,-8.3044,72.4026],[111.9292,-8.3066,0.0],[111.9339,-8.3061,67.1394],[111.9346,-8.3081,0.0],[111.9432,-8.3002,0.0],[111.9431,-8.294,0.0],[111.9351,-8.2927,3.4686],[111.9331,-8.2851,5.2138],[111.9245,-8.2845,8.5845],[111.9228,-8.279,77.88],[111.9197,-8.2761,153.7496],[111.9278,-8.2587,151.5487],[111.9246,-8.2568,153.1645],[111.927,-8.2498,228.8481],[111.9231,-8.2491,190.9088],[111.9254,-8.2387,204.3414],[111.9227,-8.2343,223.8604],[111.9272,-8.2323,224.229],[111.9265,-8.2306,230.3679],[111.9323,-8.2287,248.4259],[111.9346,-8.2255,243.6217],[111.925,-8.2149,207.5998],[111.921,-8.2164,214.9223],[111.9105,-8.2116,238.1927],[111.9033,-8.2128,245.4601],[111.8997,-8.2041,247.9149],[111.9029,-8.1999,247.8818],[111.8986,-8.1957,246.4561],[111.9008,-8.1921,262.9393],[111.9002,-8.1881,273.0126],[111.9033,-8.1758,355.0399],[111.9016,-8.1712,387.2402],[111.9027,-8.1686,370.9073],[111.9087,-8.1675,280.7489],[111.913,-8.1638,187.6316],[111.9142,-8.1624,162.1174],[111.9124,-8.1597,255.9384],[111.8934,-8.1558,150.3719],[111.8885,-8.1632,252.2086],[111.8878,-8.1678,357.4132],[111.8569,-8.1803,273.8784],[111.8414,-8.1904,193.5032],[111.8388,-8.1971,146.0429],[111.8463,-8.2043,217.5879],[111.8455,-8.2103,168.0526],[111.8496,-8.2153,181.3213],[111.8497,-8.2174,181.368],[111.8391,-8.2175,174.7675],[111.8341,-8.2213,165.4262],[111.8349,-8.2221,165.4262],[111.8331,-8.224,174.5491],[111.8307,-8.2237,175.9793],[111.8283,-8.233,130.3965],[111.8336,-8.2383,225.5579],[111.8287,-8.2596,25.7206],[111.8336,-8.2624,5.1433],[111.8352,-8.2653,37.9957]]]]}}