{"type":"Feature","properties":{"GID_3":"IDN.10.12.19_1","GID_0":"IDN","country":"Indonesia","GID_1":"IDN.10_1","province":"JawaTengah","NL_NAME_1":"NA","GID_2":"IDN.10.12_1","county":"Kebumen","NL_NAME_2":"NA","city":"Petanahan","VARNAME_3":"NA","NL_NAME_3":"NA","TYPE_3":"Kecamatan","ENGTYPE_3":"Sub-district","CC_3":"3305040","HASC_3":"NA","name":"Petanahan.city"},
"geometry":{"type": "MultiPolygon","coordinates": [[[[109.5878,-7.7775,0.7906],[109.6096,-7.783,0.0],[109.6102,-7.7812,0.2826],[109.6088,-7.7801,0.2826],[109.5943,-7.7771,4.8301],[109.6106,-7.7795,6.2009],[109.6137,-7.7661,11.9893],[109.6045,-7.7645,15.3726],[109.6055,-7.7597,18.7775],[109.6022,-7.7597,16.9142],[109.6023,-7.7564,18.6154],[109.6095,-7.7577,11.2475],[109.6105,-7.7543,11.5747],[109.6149,-7.7554,11.51],[109.6163,-7.7489,6.935],[109.6144,-7.7486,6.5617],[109.6159,-7.7441,10.6742],[109.6134,-7.7364,6.6643],[109.6156,-7.737,6.6045],[109.6172,-7.7346,6.9038],[109.6177,-7.7299,6.9137],[109.6162,-7.7292,6.6871],[109.6184,-7.7292,7.129],[109.6196,-7.7312,7.0781],[109.6207,-7.7276,8.2293],[109.6255,-7.7237,8.8604],[109.6222,-7.7172,9.0567],[109.6227,-7.713,13.773],[109.6214,-7.713,13.773],[109.6212,-7.7099,9.8753],[109.62,-7.7098,9.489],[109.6208,-7.6996,16.2714],[109.6095,-7.6991,9.299],[109.6095,-7.6947,9.6371],[109.5996,-7.6939,7.9849],[109.6,-7.6872,18.1318],[109.5849,-7.6842,8.4026],[109.5852,-7.6937,8.6821],[109.582,-7.6958,12.3354],[109.5844,-7.6961,8.9885],[109.5835,-7.7111,4.565],[109.5818,-7.7087,4.5828],[109.576,-7.7094,4.4838],[109.5754,-7.7082,4.4201],[109.5755,-7.7125,4.1018],[109.5704,-7.712,3.9092],[109.5695,-7.7271,4.4367],[109.5732,-7.7275,4.1687],[109.5699,-7.7403,12.3491],[109.5703,-7.7487,6.9753],[109.5627,-7.7472,6.8331],[109.5602,-7.7724,0.8079],[109.5878,-7.7775,0.7906]]]]}}