{"type":"Feature","properties":{"GID_3":"IDN.10.4.3_1","GID_0":"IDN","country":"Indonesia","GID_1":"IDN.10_1","province":"JawaTengah","NL_NAME_1":"NA","GID_2":"IDN.10.4_1","county":"Blora","NL_NAME_2":"NA","city":"Bogorejo","VARNAME_3":"NA","NL_NAME_3":"NA","TYPE_3":"Kecamatan","ENGTYPE_3":"Sub-district","CC_3":"3316080","HASC_3":"NA","name":"Bogorejo.city"},
"geometry":{"type": "MultiPolygon","coordinates": [[[[111.5071,-6.9667,178.3589],[111.5193,-6.9616,219.1716],[111.5208,-6.9474,131.1978],[111.5219,-6.9469,131.1978],[111.532,-6.9453,134.2833],[111.536,-6.9525,153.1317],[111.5387,-6.951,147.7277],[111.54,-6.9536,160.9921],[111.5425,-6.954,167.2545],[111.5482,-6.9536,184.7512],[111.5485,-6.9514,179.1163],[111.5579,-6.95,168.0393],[111.5595,-6.9476,157.5497],[111.5683,-6.9451,165.0421],[111.5742,-6.9455,169.0907],[111.577,-6.9418,174.3463],[111.575,-6.9379,147.629],[111.5763,-6.9313,136.4979],[111.5736,-6.9287,144.2608],[111.5731,-6.9253,156.6938],[111.5763,-6.9237,144.5799],[111.5769,-6.9196,139.2462],[111.5682,-6.9147,202.3816],[111.5685,-6.919,185.3615],[111.564,-6.9132999999999996,207.8459],[111.5611,-6.9122,231.3744],[111.5555,-6.9143,211.662],[111.5557,-6.9119,239.1003],[111.5533,-6.9098,263.5641],[111.5486,-6.9107,267.5719],[111.5441,-6.9093,230.1786],[111.542,-6.9076,231.6397],[111.5453,-6.9041,258.7728],[111.5433,-6.903,247.7825],[111.5405,-6.9039,260.886],[111.5386,-6.9004,323.3556],[111.5186,-6.8977,403.1449],[111.5167,-6.8964,415.1666],[111.5166,-6.8924,331.9706],[111.5144,-6.8893,327.5282],[111.5095,-6.892,400.9637],[111.505,-6.8908,391.3481],[111.5027,-6.893,421.8201],[111.4979,-6.8941,439.0118],[111.4969,-6.8986,360.0731],[111.4943,-6.8998,314.6539],[111.4916,-6.9045,227.3081],[111.4906,-6.9097,181.5075],[111.482,-6.9179,131.2616],[111.4805,-6.9237,109.6094],[111.4782,-6.9241,108.5699],[111.4744,-6.933,103.3096],[111.4758,-6.9345,105.0154],[111.4806,-6.9349,106.4934],[111.4832,-6.9381,108.8928],[111.4814,-6.9456,118.6248],[111.4835,-6.9476,127.4049],[111.4834,-6.9522,147.8854],[111.4859,-6.9536,154.4473],[111.4855,-6.9561,147.8164],[111.4906,-6.9575,138.9184],[111.4956,-6.9638,155.8146],[111.5025,-6.964,176.5409],[111.5071,-6.9667,178.3589]]]]}}