{"type":"Feature","properties":{"GID_3":"IDN.26.3.4_1","GID_0":"IDN","country":"Indonesia","GID_1":"IDN.26_1","province":"SulawesiSelatan","NL_NAME_1":"NA","GID_2":"IDN.26.3_1","county":"Bone","NL_NAME_2":"NA","city":"Barebbo","VARNAME_3":"NA","NL_NAME_3":"NA","TYPE_3":"Kecamatan","ENGTYPE_3":"Sub-district","CC_3":"7311110","HASC_3":"NA","name":"Barebbo.city"},
"geometry":{"type": "MultiPolygon","coordinates": [[[[120.3295,-4.6342,21.0275],[120.3314,-4.6289,20.9629],[120.3355,-4.6256,28.6986],[120.3577,-4.6244,13.61],[120.3623,-4.6128,11.2568],[120.3711,-4.6046,7.8089],[120.3808,-4.605,6.4291],[120.3899,-4.6031,3.064],[120.3971,-4.5971,1.1412],[120.3877,-4.5704,0.0],[120.3851,-4.5695,2.0],[120.3803,-4.5739,3.14],[120.3664,-4.5717,15.8914],[120.3622,-4.5733,12.0783],[120.345,-4.5711,21.6189],[120.3435,-4.5731,26.4481],[120.3373,-4.573,29.3751],[120.3361,-4.5766,26.0173],[120.3273,-4.575,25.9806],[120.3263,-4.5773,25.6103],[120.3205,-4.5774,29.0052],[120.3153,-4.5732,32.2039],[120.3061,-4.5882,30.0784],[120.3046,-4.5943,31.4628],[120.3004,-4.5979,32.7505],[120.2944,-4.5951,40.3467],[120.2895,-4.5868,43.3852],[120.2845,-4.5841,45.9382],[120.2735,-4.5858,48.2432],[120.2601,-4.5842,74.0645],[120.2573,-4.5739,62.2746],[120.2599,-4.5627,79.501],[120.2581,-4.5559,69.1892],[120.254,-4.553,65.8627],[120.2418,-4.5577,102.0981],[120.2391,-4.5571,105.9407],[120.2331,-4.5585,115.5393],[120.2326,-4.5602,120.6483],[120.2264,-4.5606,120.5817],[120.2233,-4.5646,138.2177],[120.2221,-4.5717,149.6241],[120.2189,-4.5723,152.8749],[120.2153,-4.5706,161.9341],[120.2153,-4.5615,176.3348],[120.2021,-4.5708,214.0676],[120.1973,-4.5778,289.3721],[120.1892,-4.5849,192.0419],[120.1751,-4.5926,189.7984],[120.1701,-4.5938,190.3181],[120.1686,-4.5962,191.6794],[120.1701,-4.602,215.4033],[120.1765,-4.6081,218.8019],[120.1869,-4.6107,241.5877],[120.2152,-4.6116,199.8631],[120.2233,-4.6095,196.5027],[120.2289,-4.603,111.3822],[120.2437,-4.604,118.7985],[120.2612,-4.5995,85.8407],[120.2693,-4.6017,57.667],[120.278,-4.6069,46.7312],[120.2857,-4.6087,39.8724],[120.2993,-4.6155,35.3104],[120.3064,-4.6169,33.3995],[120.3112,-4.6202,31.8],[120.3046,-4.631,41.8543],[120.311,-4.6476,25.892],[120.3234,-4.6449,22.8328],[120.3295,-4.6342,21.0275]]],
[[[120.4025,-4.592,0.0],[120.4051,-4.5953,0.0],[120.4082,-4.5945,0.0],[120.4062,-4.5894,0.0],[120.4038,-4.5894,0.0],[120.4025,-4.592,0.0]]],
[[[120.4158,-4.5833,0.0],[120.4173,-4.5878,0.0],[120.4218,-4.5874,0.0],[120.4224,-4.58,0.0],[120.4184,-4.5795,0.0],[120.4183,-4.5822,0.0],[120.4158,-4.5833,0.0]]],
[[[120.4147,-4.5747,0.0],[120.4225,-4.5758,0.0],[120.4233,-4.5735,0.0],[120.4198,-4.5709,0.0],[120.4153,-4.5728,0.0],[120.4147,-4.5747,0.0]]]]}}