{"type":"Feature","properties":{"GID_3":"IDN.18.2.12_1","GID_0":"IDN","country":"Indonesia","GID_1":"IDN.18_1","province":"MalukuUtara","NL_NAME_1":"NA","GID_2":"IDN.18.2_1","county":"HalmaheraSelatan","NL_NAME_2":"NA","city":"GaneTimurSelatan","VARNAME_3":"NA","NL_NAME_3":"NA","TYPE_3":"Kecamatan","ENGTYPE_3":"Sub-district","CC_3":"8204092","HASC_3":"NA","name":"Gane_Timur_Selatan.city"},
"geometry":{"type": "MultiPolygon","coordinates": [[[[128.1267,-0.6741,302.3834],[128.145,-0.6902,252.3254],[128.2381,-0.7504,12.1128],[128.2486,-0.7593,10.3219],[128.3212,-0.8349,77.3969],[128.3543,-0.8557,52.7129],[128.3776,-0.8676,56.5871],[128.3945,-0.8719,21.5173],[128.4562,-0.9112,0.0],[128.4577,-0.9063,1.277],[128.4559,-0.9022,0.0],[128.4506,-0.8962,0.0],[128.4405,-0.8889,3.4158],[128.4355,-0.8821,0.0],[128.4297,-0.8783,3.8232],[128.4187,-0.8757,0.0],[128.3815,-0.853,11.9668],[128.3635,-0.8361,0.0],[128.3563,-0.8262,0.0],[128.3539,-0.8259,0.6316],[128.3543,-0.8238,1.3244],[128.3485,-0.8163,6.9652],[128.3311,-0.8075,4.2097],[128.3244,-0.8017,0.0],[128.3197,-0.795,14.4973],[128.3092,-0.7901,10.1389],[128.3073,-0.7772,1.6956],[128.299,-0.7648,16.8978],[128.295,-0.7635,11.1472],[128.2862,-0.754,22.9062],[128.2656,-0.7422,10.5506],[128.2554,-0.7324,2.046],[128.2534,-0.7331,18.8148],[128.2385,-0.7215,1.051],[128.2344,-0.721,9.0187],[128.2328,-0.7149,8.8968],[128.2297,-0.7142,5.7408],[128.2292,-0.7123,2.3993],[128.227,-0.7128,11.3734],[128.2266,-0.7095,3.8058],[128.2219,-0.7073,1.4139],[128.2097,-0.6918,3.8635],[128.2099,-0.6813,0.0],[128.1993,-0.6722,13.7373],[128.1964,-0.6678,1.7425],[128.1931,-0.6556,0.0],[128.1891,-0.6505,6.3665],[128.1868,-0.643,4.3804],[128.1854,-0.6285,4.4356],[128.18,-0.6236,5.2563],[128.1647,-0.6024,9.0105],[128.1545,-0.5863,11.1401],[128.1494,-0.5746,0.0],[128.1292,-0.5432,9.982],[128.1257,-0.5383,11.4341],[128.1206,-0.5356,0.0],[128.1137,-0.5242,1.5302],[128.0463,-0.5543,52.2552],[128.0547,-0.5694,185.3529],[128.1267,-0.6741,302.3834]]],
[[[128.494,-0.5935,0.0],[128.4951,-0.593,0.0],[128.496,-0.5907,0.0],[128.4925,-0.5938,0.0],[128.494,-0.5935,0.0]]],
[[[128.492,-0.593,0.0],[128.4934,-0.59,0.0],[128.4884,-0.5926,3.2857],[128.4918,-0.5946,0.0],[128.492,-0.593,0.0]]],
[[[128.4792,-0.5834,12.852],[128.4775,-0.5835,10.4061],[128.4748,-0.5871,14.4625],[128.4754,-0.5906,8.3751],[128.4879,-0.5925,3.2857],[128.4881,-0.5882,4.8219],[128.4792,-0.5834,12.852]]],
[[[128.4095,-0.5827,0.0],[128.4106,-0.5823,0.0],[128.4086,-0.5816,0.0],[128.4086,-0.5821,0.0],[128.4095,-0.5827,0.0]]],
[[[128.422,-0.5652,0.0],[128.4093,-0.5583,0.1984],[128.4053,-0.5616,0.0],[128.4053,-0.5634,0.0],[128.4093,-0.5599,0.0],[128.4061,-0.5647,0.0],[128.4084,-0.5656,5.7559],[128.409,-0.568,0.0],[128.414,-0.5672,0.0],[128.419,-0.5686,2.0036],[128.4172,-0.5702,2.024],[128.4187,-0.5724,5.0675],[128.4206,-0.5716,5.0675],[128.4192,-0.5733,2.4076],[128.4251,-0.5771,2.923],[128.4258,-0.5793,0.0],[128.4268,-0.5766,2.923],[128.4275,-0.5786,0.0],[128.4295,-0.5787,2.2324],[128.4301,-0.5812,8.8746],[128.4285,-0.582,0.0],[128.4277,-0.5871,3.0136],[128.4229,-0.5907,0.368],[128.4292,-0.5913,0.0],[128.4372,-0.5848,0.0],[128.4418,-0.573,0.0],[128.439,-0.5699,19.1929],[128.43,-0.5692,0.0],[128.422,-0.5652,0.0]]],
[[[128.4064,-0.5707,0.0],[128.4046,-0.5695,0.0],[128.4073,-0.576,1.4512],[128.4073,-0.5717,2.1418],[128.4064,-0.5707,0.0]]],
[[[128.4123,-0.5721,2.2537],[128.4126,-0.5728,0.0],[128.4133,-0.5729,0.0],[128.4134,-0.5719,0.0],[128.4123,-0.5721,2.2537]]],
[[[128.4036,-0.5703,0.0],[128.4038,-0.57,0.0],[128.4029,-0.57,0.0],[128.4031,-0.5704,0.0],[128.4036,-0.5703,0.0]]],
[[[128.3483,-0.5679,6.7804],[128.3484,-0.5665,6.7804],[128.3463,-0.5668,2.5152],[128.3386,-0.5729,0.5265],[128.3303,-0.5756,5.3738],[128.3296,-0.5774,0.0],[128.3335,-0.5795,12.012],[128.3424,-0.5791,9.6669],[128.3478,-0.5834,0.0],[128.3545,-0.5816,1.5067],[128.3616,-0.5752,0.0],[128.3612,-0.5731,0.0],[128.3571,-0.57,0.7648],[128.3542,-0.5749,5.3607],[128.3506,-0.5769,2.7624],[128.3467,-0.5763,3.5051],[128.343,-0.5728,0.0],[128.3397,-0.5729,0.5265],[128.3429,-0.5724,0.0],[128.3426,-0.5706,1.7845],[128.3458,-0.5695,7.8274],[128.3456,-0.5679,2.5152],[128.3483,-0.5679,6.7804]]],
[[[128.4002,-0.5644,0.0],[128.4003,-0.5648,0.0],[128.4005,-0.565,0.0],[128.4006,-0.5642,0.0],[128.4002,-0.5644,0.0]]],
[[[128.3965,-0.5625,0.0],[128.3944,-0.5608,0.0],[128.3933,-0.562,0.0],[128.3981,-0.5633,0.0],[128.3965,-0.5625,0.0]]],
[[[128.3936,-0.5601,7.7566],[128.3908,-0.5584,0.0],[128.3898,-0.5591,0.0],[128.3922,-0.5614,0.0],[128.3936,-0.5601,7.7566]]],
[[[128.5312,-0.6102,0.0],[128.5291,-0.6099,1.7363],[128.5286,-0.6138,0.0],[128.5313,-0.6112,0.0],[128.5312,-0.6102,0.0]]],
[[[128.5264,-0.6102,0.0],[128.5263,-0.6109,0.0],[128.5269,-0.6095,0.0],[128.5267,-0.6095,0.0],[128.5264,-0.6102,0.0]]],
[[[128.5218,-0.6097,0.0],[128.5221,-0.6108,0.0],[128.5223,-0.6084,0.0],[128.5218,-0.6088,0.0],[128.5218,-0.6097,0.0]]],
[[[128.5258,-0.609,0.0],[128.5237,-0.6081,3.517],[128.5236,-0.6109,0.5609],[128.5249,-0.6109,0.5609],[128.5258,-0.609,0.0]]],
[[[128.5183,-0.6036,0.0],[128.5169,-0.6014,0.0],[128.5156,-0.6024,0.0],[128.5174,-0.606,1.8198],[128.519,-0.6052,1.8198],[128.5195,-0.608,0.0],[128.5207,-0.6059,0.2148],[128.5183,-0.6036,0.0]]],
[[[128.516,-0.6012,0.0],[128.5156,-0.5994,0.0],[128.5134,-0.5997,8.5161],[128.513,-0.6018,0.0],[128.5141,-0.6027,0.0],[128.516,-0.6012,0.0]]],
[[[128.5,-0.594,0.0],[128.4993,-0.5924,0.0],[128.4959,-0.5929,0.0],[128.4968,-0.5959,0.8038],[128.4949,-0.5984,8.082],[128.4971,-0.6026,2.2632],[128.5087,-0.6175,2.4737],[128.5102,-0.6176,0.0],[128.507,-0.6116,4.4064],[128.5038,-0.6092,0.5274],[128.5089,-0.6097,0.0],[128.5118,-0.6136,7.2469],[128.5115,-0.6184,2.3926],[128.5145,-0.6187,5.3605],[128.5173,-0.6155,0.0],[128.5157,-0.6154,0.0],[128.5166,-0.6097,0.0],[128.515,-0.6062,0.0],[128.512,-0.6038,0.0],[128.5111,-0.6006,0.0],[128.5087,-0.603,0.0],[128.5083,-0.5974,0.0],[128.5053,-0.5979,0.0],[128.5,-0.594,0.0]]],
[[[128.4955,-0.597,1.4688],[128.4961,-0.5949,0.8038],[128.4929,-0.5953,3.7385],[128.4945,-0.5979,4.3795],[128.4955,-0.597,1.4688]]],
[[[128.4922,-0.5949,0.0],[128.492,-0.5952,0.0],[128.4928,-0.595,3.7385],[128.4927,-0.5947,3.7385],[128.4922,-0.5949,0.0]]],
[[[128.4176,-0.5964,3.2023],[128.4137,-0.597,2.2306],[128.4114,-0.5844,0.0],[128.4126,-0.5926,0.0],[128.4093,-0.5999,3.475],[128.4097,-0.6037,0.0],[128.4136,-0.6036,0.0],[128.419,-0.5992,0.0],[128.4209,-0.593,0.0],[128.4176,-0.5964,3.2023]]],
[[[128.4063,-0.5683,0.0],[128.4058,-0.5683,0.0],[128.4057,-0.5689,0.0],[128.4062,-0.5687,0.0],[128.4063,-0.5683,0.0]]],
[[[128.4012,-0.5664,0.0],[128.4019,-0.5669,0.0],[128.4024,-0.5667,0.0],[128.4017,-0.5659,0.0],[128.4012,-0.5664,0.0]]],
[[[128.3903,-0.557,0.0],[128.3889,-0.5569,0.7505],[128.3886,-0.5575,0.7505],[128.3898,-0.5584,0.0],[128.3903,-0.557,0.0]]],
[[[128.3871,-0.5562,0.0],[128.3856,-0.556,0.0],[128.3854,-0.5564,0.9513],[128.3862,-0.5571,0.0],[128.3871,-0.5562,0.0]]],
[[[128.3647,-0.5527,0.3481],[128.3649,-0.5525,0.3481],[128.364,-0.5521,0.3481],[128.3641,-0.5526,0.3481],[128.3647,-0.5527,0.3481]]],
[[[128.3324,-0.5486,1.1258],[128.326,-0.5476,0.0],[128.3163,-0.5495,0.0],[128.3157,-0.551,1.5369],[128.3172,-0.5544,5.0786],[128.3249,-0.5559,6.1573],[128.335,-0.5561,9.3247],[128.3417,-0.5531,0.0],[128.3387,-0.5522,1.2604],[128.3389,-0.5509,0.8768],[128.3373,-0.5517,2.7527],[128.3378,-0.5506,1.0571],[128.3332,-0.5535,10.6747],[128.3332,-0.5503,2.7414],[128.3351,-0.5507,0.0],[128.3324,-0.5486,1.1258]]],
[[[128.3851,-0.5399,10.1608],[128.3729,-0.5288,9.0318],[128.3674,-0.5272,5.9824],[128.3574,-0.5351,2.0501],[128.3417,-0.5418,11.05],[128.336,-0.546,0.0],[128.3356,-0.5483,0.0],[128.3382,-0.548,0.0],[128.3398,-0.5503,0.8768],[128.3452,-0.5525,4.4696],[128.3623,-0.5494,4.4058],[128.3673,-0.5512,0.0],[128.3658,-0.5529,1.0262],[128.3694,-0.5578,14.3355],[128.3831,-0.5582,0.0],[128.3857,-0.5551,0.0],[128.3721,-0.5546,6.0232],[128.3676,-0.5497,0.0],[128.3542,-0.5464,8.0339],[128.3606,-0.5397,0.0],[128.3673,-0.5372,14.2931],[128.38,-0.5491,1.2757],[128.382,-0.5482,0.4549],[128.3908,-0.5538,0.0],[128.3969,-0.5555,2.3631],[128.3986,-0.5583,0.0],[128.4022,-0.5559,5.6116],[128.4018,-0.5585,0.0],[128.4045,-0.5618,0.0],[128.4096,-0.5538,7.79],[128.4056,-0.5523,1.7123],[128.4037,-0.5549,5.6116],[128.4036,-0.5511,6.5086],[128.4014,-0.5475,1.8067],[128.3934,-0.545,4.5232],[128.3924,-0.543,0.0],[128.3916,-0.544,7.371],[128.3851,-0.5399,10.1608]]],
[[[128.5483,-0.6985,4.4013],[128.552,-0.6992,5.8968],[128.5537,-0.6959,0.0],[128.5486,-0.6929,0.0],[128.5483,-0.6985,4.4013]]],
[[[128.5704,-0.6528,0.0],[128.5584,-0.6503,1.4534],[128.5668,-0.6552,3.3233],[128.571,-0.6553,0.0],[128.5704,-0.6528,0.0]]],
[[[128.5582,-0.6498,1.4534],[128.5553,-0.6475,0.0],[128.5533,-0.6484,0.4692],[128.5535,-0.6496,0.0],[128.5582,-0.6498,1.4534]]],
[[[128.5504,-0.647,0.0],[128.5506,-0.6465,0.0],[128.55,-0.6464,0.0],[128.55,-0.6469,0.0],[128.5504,-0.647,0.0]]],
[[[128.5972,-0.6581,0.0],[128.5968,-0.6584,0.0],[128.5977,-0.658,0.0],[128.5975,-0.6579,0.0],[128.5972,-0.6581,0.0]]],
[[[128.5712,-0.6562,0.0],[128.5717,-0.6565,0.0],[128.5721,-0.6563,0.0],[128.5718,-0.6557,0.0],[128.5712,-0.6562,0.0]]],
[[[128.5791,-0.6543,0.0],[128.5762,-0.655,8.5018],[128.5712,-0.6536,0.0],[128.5802,-0.6582,0.0],[128.5791,-0.6543,0.0]]],
[[[128.594,-0.628,2.86],[128.5908,-0.6307,2.5626],[128.5838,-0.6322,2.9993],[128.5772,-0.6373,1.8233],[128.5865,-0.6367,5.8112],[128.5863,-0.6385,3.5419],[128.5889,-0.639,5.863],[128.5897,-0.6411,0.307],[128.5945,-0.6364,1.2344],[128.5915,-0.6335,0.0],[128.5943,-0.6339,9.8323],[128.5979,-0.6391,7.5603],[128.5971,-0.6423,2.2868],[128.5986,-0.6443,1.2859],[128.5957,-0.6437,0.0],[128.5932,-0.6475,0.0],[128.5934,-0.6525,0.0],[128.5964,-0.6542,8.234],[128.6034,-0.6515,3.5425],[128.6069,-0.6474,0.0],[128.6071,-0.6439,0.0],[128.6044,-0.6367,0.0],[128.5989,-0.6298,0.0],[128.5984,-0.6318,10.2678],[128.5975,-0.6309,8.5039],[128.5985,-0.629,0.0],[128.5954,-0.6281,2.86],[128.5938,-0.6302,9.1147],[128.594,-0.628,2.86]]],
[[[128.5732,-0.6376,0.0],[128.5744,-0.6385,0.0],[128.5767,-0.6368,0.0],[128.5748,-0.6376,0.0],[128.5732,-0.6376,0.0]]],
[[[128.5712,-0.6356,0.0],[128.5704,-0.6362,0.0],[128.5704,-0.6363,0.0],[128.5719,-0.6352,0.0],[128.5712,-0.6356,0.0]]],
[[[128.5695,-0.6329,0.0],[128.5674,-0.6311,0.0],[128.565,-0.6317,7.008],[128.5652,-0.6332,3.4095],[128.5695,-0.6356,0.0],[128.5695,-0.6329,0.0]]],
[[[128.5904,-0.6303,2.5626],[128.5918,-0.6294,2.565],[128.5917,-0.6279,0.0],[128.5905,-0.6281,6.7652],[128.5904,-0.6303,2.5626]]],
[[[128.5871,-0.63,0.0],[128.5887,-0.6289,1.0876],[128.5888,-0.6275,0.0],[128.5883,-0.6275,0.0],[128.5871,-0.63,0.0]]],
[[[128.5848,-0.6297,0.0],[128.587,-0.6284,0.0],[128.587,-0.627,1.3675],[128.5865,-0.6269,1.3675],[128.5848,-0.6297,0.0]]],
[[[128.5847,-0.6264,0.0],[128.5843,-0.6273,0.0],[128.5843,-0.6279,0.0],[128.585,-0.6269,0.0],[128.5847,-0.6264,0.0]]],
[[[128.5857,-0.627,1.3675],[128.5857,-0.6273,1.3675],[128.5858,-0.6274,1.3675],[128.5861,-0.6269,1.3675],[128.5857,-0.627,1.3675]]],
[[[128.5482,-0.6465,0.0],[128.5472,-0.6463,0.0],[128.5472,-0.6468,0.0],[128.5477,-0.647,0.0],[128.5482,-0.6465,0.0]]],
[[[128.5324,-0.6417,5.1906],[128.528,-0.6408,0.0],[128.5266,-0.6422,1.2585],[128.5395,-0.6479,2.3968],[128.5441,-0.6482,0.0],[128.5436,-0.6459,0.0],[128.5404,-0.6454,0.7953],[128.5399,-0.6472,2.3968],[128.5375,-0.6435,4.505],[128.5324,-0.6417,5.1906]]],
[[[128.5184,-0.641,7.14],[128.5206,-0.641,1.9122],[128.5203,-0.6389,0.5582],[128.5137,-0.633,1.3412],[128.5152,-0.6396,0.0],[128.5184,-0.641,7.14]]],
[[[128.5145,-0.6307,0.0],[128.5155,-0.6312,0.0],[128.5158,-0.6294,0.0],[128.5147,-0.6291,0.0],[128.5145,-0.6307,0.0]]],
[[[128.5482,-0.6242,0.0],[128.549,-0.6249,0.0],[128.5491,-0.6233,0.9265],[128.549,-0.6232,0.9265],[128.5482,-0.6242,0.0]]],
[[[128.5576,-0.622,0.0],[128.5581,-0.6229,0.0],[128.5587,-0.6218,0.0],[128.5582,-0.6214,0.0],[128.5576,-0.622,0.0]]],
[[[128.5505,-0.6232,1.5116],[128.5521,-0.6232,1.5116],[128.5528,-0.6198,2.4343],[128.5525,-0.6199,2.4343],[128.5505,-0.6232,1.5116]]],
[[[128.5542,-0.6225,1.002],[128.555,-0.6235,0.0],[128.556,-0.6208,2.1393],[128.5548,-0.6204,2.1393],[128.5542,-0.6225,1.002]]],
[[[128.5499,-0.6188,3.2032],[128.5454,-0.6198,0.9128],[128.5475,-0.6234,0.0],[128.5514,-0.6215,3.5595],[128.5514,-0.6193,0.0],[128.5499,-0.6188,3.2032]]],
[[[128.5532,-0.6209,2.4343],[128.5536,-0.6217,1.002],[128.5538,-0.6201,2.4343],[128.5535,-0.6201,2.4343],[128.5532,-0.6209,2.4343]]],
[[[128.5436,-0.6258,0.0],[128.5445,-0.6249,0.0],[128.5423,-0.6255,0.0],[128.5424,-0.6257,0.0],[128.5436,-0.6258,0.0]]],
[[[128.542,-0.6251,0.0],[128.5417,-0.6228,1.2196],[128.5409,-0.6214,1.2196],[128.5389,-0.6253,0.0],[128.542,-0.6251,0.0]]],
[[[128.5359,-0.6231,0.0],[128.5357,-0.6201,0.0],[128.5334,-0.6186,0.0],[128.5305,-0.6191,0.0],[128.5278,-0.6227,3.7907],[128.5288,-0.6237,1.6368],[128.5308,-0.6223,0.0],[128.5359,-0.6231,0.0]]],
[[[128.5447,-0.6166,0.0],[128.5441,-0.6155,1.7267],[128.5427,-0.6196,0.0],[128.5429,-0.6196,0.0],[128.5447,-0.6166,0.0]]],
[[[128.5624,-0.631,0.0],[128.5628,-0.631,0.0],[128.5626,-0.6305,0.0],[128.5623,-0.6305,0.0],[128.5624,-0.631,0.0]]],
[[[128.5583,-0.631,0.0],[128.5574,-0.6281,0.0],[128.5559,-0.6281,0.0],[128.5552,-0.6303,0.0],[128.5583,-0.631,0.0]]],
[[[128.5527,-0.6294,0.0],[128.5527,-0.6242,0.0],[128.5477,-0.6266,0.0],[128.5515,-0.6292,6.1306],[128.5527,-0.6294,0.0]]],
[[[128.5679,-0.6252,9.5253],[128.5676,-0.623,7.8624],[128.5644,-0.6236,3.4974],[128.5627,-0.6254,8.8037],[128.5631,-0.6281,0.0],[128.5642,-0.6284,0.0],[128.5679,-0.6252,9.5253]]]]}}