{"type":"Feature","properties":{"GID_3":"IDN.33.1.12_1","GID_0":"IDN","country":"Indonesia","GID_1":"IDN.33_1","province":"Yogyakarta","NL_NAME_1":"NA","GID_2":"IDN.33.1_1","county":"Bantul","NL_NAME_2":"NA","city":"Pleret","VARNAME_3":"NA","NL_NAME_3":"NA","TYPE_3":"Kecamatan","ENGTYPE_3":"Sub-district","CC_3":"3402110","HASC_3":"NA","name":"Pleret.city"},
"geometry":{"type": "MultiPolygon","coordinates": [[[[110.4454,-7.8876,225.1951],[110.4468,-7.8817,298.7943],[110.4547,-7.8727,328.7661],[110.4488,-7.8704,123.4791],[110.4446,-7.872,107.704],[110.4409,-7.8677,216.8763],[110.4411,-7.8652,236.6083],[110.4343,-7.867,202.6693],[110.4334,-7.8691,145.1774],[110.4292,-7.8715,134.8416],[110.4256,-7.8639,85.7852],[110.4171,-7.8637,58.4008],[110.4171,-7.8616,57.8492],[110.4163,-7.863,58.4008],[110.4087,-7.8618,61.3479],[110.409,-7.8551,63.8217],[110.4044,-7.8548,61.118],[110.4054,-7.8626,60.3176],[110.4021,-7.863,55.9633],[110.3964,-7.8614,54.6371],[110.3976,-7.8587,60.2825],[110.3938,-7.8581,55.9493],[110.394,-7.8559,62.626],[110.39,-7.8552,61.5861],[110.3898,-7.8569,60.1589],[110.3876,-7.8575,59.7408],[110.3758,-7.854,65.841],[110.3786,-7.8667,60.3769],[110.3814,-7.8668,56.0721],[110.3801,-7.8701,54.3315],[110.3821,-7.8725,53.4589],[110.3813,-7.8741,51.0384],[110.3832,-7.8777,50.3692],[110.3822,-7.8791,49.4288],[110.3882,-7.8778,47.8675],[110.3909,-7.8791,49.7065],[110.3921,-7.8779,49.8693],[110.3921,-7.8791,49.7065],[110.3938,-7.8775,50.807],[110.3969,-7.8789,51.917],[110.398,-7.8941,88.5458],[110.4002,-7.8947,81.0387],[110.3996,-7.8969,84.8727],[110.4114,-7.8946,119.2999],[110.4147,-7.8959,89.824],[110.4216,-7.893,98.9234],[110.4272,-7.8953,105.7212],[110.4311,-7.9008,239.7222],[110.4454,-7.8876,225.1951]]]]}}