{"type":"Feature","properties":{"GID_2":"IDN.35.14","GID_0":"IDN","country":"Indonesia","GID_1":"IDN.35_1","province":"KalimantanUtara","NL_NAME_1":"NA","county":"Tarakan","VARNAME_2":"NA","NL_NAME_2":"NA","TYPE_2":"NA","ENGTYPE_2":"NA","CC_2":"NA","HASC_2":"NA","name":"Tarakan.county"},
"geometry":{"type": "MultiPolygon","coordinates": [[[[117.6661,3.3839,1.3272],[117.6697,3.3986,0.0],[117.6648,3.4105,2.5954],[117.6546,3.4152,7.1472],[117.6491,3.4157,14.101],[117.6183,3.4344,6.5556],[117.6085,3.4342,6.8355],[117.6016,3.4371,7.4159],[117.5719,3.4327,8.2427],[117.5623,3.433,6.3507999999999996],[117.5556,3.4363,44.6772],[117.5506,3.4357,39.198],[117.5373,3.4246,4.5258],[117.5337,3.4173,2.6276],[117.5283,3.4142,4.1499],[117.5271,3.4117,2.5088],[117.5235,3.4117,4.7211],[117.5213,3.4094,5.4114],[117.5193,3.4001,2.7976],[117.5163,3.4002,0.0],[117.5143,3.3842,0.0],[117.5187,3.3675,0.0],[117.5311,3.3533,4.1677],[117.5367,3.3438,0.0],[117.5421,3.3255,4.6186],[117.5666,3.309,6.5224],[117.581,3.2957,3.4961],[117.5943,3.2795,0.0],[117.5972,3.2818,1.9391],[117.6012,3.2807,2.3096],[117.6021,3.2825,4.5514],[117.6063,3.279,4.4864],[117.6097,3.2797,0.0],[117.6131,3.266,0.0],[117.6186,3.2531,0.0],[117.6287,3.2417,0.0],[117.6419,3.2373,0.0],[117.6498,3.24,0.0],[117.657,3.2515,0.0],[117.6574,3.2904,0.0],[117.655,3.2908,1.0236],[117.659,3.317,0.0],[117.6591,3.335,0.0],[117.6618,3.3401,0.0],[117.6615,3.347,0.0],[117.665,3.3585,0.0],[117.6689,3.3619,0.0],[117.6679,3.3687,0.0],[117.6655,3.3696,4.2849],[117.6649,3.3823,2.2214],[117.6661,3.3839,1.3272]]],
[[[117.5225,3.3426,1.7557],[117.5262,3.3419,0.0],[117.5257,3.3494,0.0],[117.5214,3.3492,0.0],[117.52,3.3445,0.0],[117.5225,3.3426,1.7557]]]]}}