{"type":"Feature","properties":{"GID_3":"IDN.19.6.10_1","GID_0":"IDN","country":"Indonesia","GID_1":"IDN.19_1","province":"Maluku","NL_NAME_1":"NA","GID_2":"IDN.19.6_1","county":"MalukuTengah","NL_NAME_2":"NA","city":"SeramUtaraBarat","VARNAME_3":"NA","NL_NAME_3":"NA","TYPE_3":"Kecamatan","ENGTYPE_3":"Sub-district","CC_3":"8103141","HASC_3":"NA","name":"Seram_Utara_Barat.city"},
"geometry":{"type": "MultiPolygon","coordinates": [[[[129.0954,-2.9449,79.7486],[129.0831,-2.9392,6.3683],[129.0827,-2.9319,4.6507],[129.0804,-2.9276,4.2293],[129.0826,-2.9217,2.0245],[129.0767,-2.9163,12.0394],[129.075,-2.9109,6.8528],[129.0759,-2.9084,3.0446],[129.0731,-2.9063,0.0],[129.0678,-2.9052,0.0],[129.068,-2.9102,3.7512],[129.0638,-2.9045,3.3914],[129.0675,-2.9017,0.0],[129.064,-2.8954,3.5161],[129.0724,-2.8789,1.3064],[129.0695,-2.8703,0.0],[129.0712,-2.8603,0.0],[129.0765,-2.8578,3.5273],[129.0783,-2.8551,0.0],[129.077,-2.8502,8.2261],[129.071,-2.844,0.0],[129.0712,-2.8305,0.0],[129.0667,-2.81,8.1799],[129.0594,-2.804,0.0],[129.0527,-2.7953,0.0],[129.0328,-2.7962,0.0],[129.0151,-2.806,0.0],[129.001,-2.8204,9.3518],[128.9903,-2.8248,5.1073],[128.9852,-2.8295,1.9331],[128.9814,-2.8308,6.295],[128.9776,-2.83,3.2552],[128.9699,-2.8361,0.0],[128.9573,-2.842,9.6641],[128.9163,-2.8523,4.0485],[128.8911,-2.8537,4.2714],[128.8756,-2.8565,6.5011],[128.8675,-2.8603,7.2673],[128.8364,-2.867,14.9877],[128.8059,-2.8676,8.4289],[128.7868,-2.8637,9.2336],[128.7536,-2.8509,0.663],[128.7529,-2.8635,13.243],[128.7551,-2.8641,16.0587],[128.7556,-2.866,19.7098],[128.7511,-2.8786,19.5561],[128.7558,-2.8821,24.1103],[128.7566,-2.885,32.0607],[128.7551,-2.8854,29.6037],[128.7547,-2.8886,35.1312],[128.7524,-2.8884,30.7629],[128.7503,-2.8912,28.5013],[128.7523,-2.8997,41.3919],[128.7504,-2.9051,48.1037],[128.7509,-2.9071,66.0097],[128.7525,-2.9062,64.2257],[128.7531,-2.9117,66.3278],[128.7562,-2.9138,80.7314],[128.7556,-2.9177,54.9505],[128.7575,-2.9191,52.1792],[128.7569,-2.9215,55.1283],[128.7584,-2.9219,56.7265],[128.7549,-2.9253,58.1312],[128.7607,-2.9308,68.3338],[128.7603,-2.9353,70.1789],[128.7636,-2.9389,77.933],[128.7607,-2.941,76.3203],[128.7616,-2.9458,84.4078],[128.759,-2.947,84.1239],[128.7617,-2.951,87.3397],[128.7567,-2.955,123.0729],[128.7568,-2.9584,173.6379],[128.7541,-2.9576,101.1353],[128.7552,-2.9613,126.9532],[128.7534,-2.9612,116.4606],[128.7544,-2.9647,126.2769],[128.7534,-2.9672,154.422],[128.7497,-2.9682,199.8727],[128.7462,-2.9632,158.2051],[128.7427,-2.9608,151.1897],[128.7417,-2.962,167.6898],[128.7423,-2.966,166.5252],[128.7447,-2.9678,187.0798],[128.7436,-2.973,267.4252],[128.745,-2.9763,296.2696],[128.743,-2.9815,298.6408],[128.7455,-2.99,338.7835],[128.7487,-2.9917,365.5893],[128.7519,-3.0001,480.6158],[128.7488,-3.0023,486.0421],[128.7481,-3.0076,646.7773],[128.751,-3.0177,1064.3928],[128.7523,-3.032,1203.145],[128.7584,-3.0442,865.0195],[128.8201,-3.0379,1092.0442],[128.9385,-3.0303,402.3194],[129.0328,-3.0359,271.7596],[129.0445,-3.0232,372.8441],[129.0682,-3.0118,492.7264],[129.1276,-2.9994,1066.6129],[129.181,-2.9953,674.2114],[129.1681,-2.9533,18.3219],[129.1599,-2.9504,41.3372],[129.1574,-2.9481,8.4485],[129.1403,-2.9582,10.9148],[129.1327,-2.9683,132.9523],[129.1287,-2.9689,0.0],[129.1283,-2.9638,0.0],[129.1205,-2.9624,0.0],[129.1165,-2.9561,0.0],[129.1129,-2.9535,0.0],[129.0954,-2.9449,79.7486]]],
[[[129.0731,-2.9036,3.2557],[129.0748,-2.9049,1.0154],[129.0823,-2.8963,2.3098],[129.0793,-2.8919,0.0],[129.0743,-2.8893,0.0],[129.0691,-2.8939,17.3107],[129.073,-2.8986,5.7586],[129.0707,-2.903,0.0],[129.0731,-2.9036,3.2557]]],
[[[129.0627,-2.787,0.0],[129.0672,-2.7839,5.9187],[129.0647,-2.7815,11.2568],[129.059,-2.7861,8.8102],[129.0602,-2.7877,6.3646],[129.0627,-2.787,0.0]]],
[[[129.0036,-2.755,4.2306],[129.0013,-2.7543,0.0],[128.9987,-2.7572,0.0],[129.0044,-2.758,2.4751],[129.0036,-2.755,4.2306]]],
[[[128.9973,-2.7295,1.4255],[128.9907,-2.7254,0.0],[128.9866,-2.7257,2.598],[128.9827,-2.7287,14.6306],[128.9785,-2.7342,0.5039],[128.9772,-2.7392,0.0],[128.9783,-2.7488,0.0],[128.9818,-2.7475,0.0],[128.9812,-2.7434,0.0],[128.9835,-2.7408,2.1604],[128.9891,-2.7419,0.0],[128.991,-2.7392,0.0],[128.9905,-2.7363,3.9513],[128.9973,-2.7295,1.4255]]],
[[[129.0435,-2.7823,6.1375],[129.0454,-2.7828,9.518],[129.0466,-2.7816,0.0],[129.0444,-2.78,5.7274],[129.0435,-2.7823,6.1375]]],
[[[129.0237,-2.7625,0.0],[129.0238,-2.7637,0.0],[129.0248,-2.7644,0.0],[129.0248,-2.7613,0.0],[129.0237,-2.7625,0.0]]],
[[[129.0208,-2.7531,0.0],[129.023,-2.7547,0.0],[129.0235,-2.7518,10.0939],[129.0266,-2.7496,0.0],[129.0272,-2.7476,0.0],[129.0233,-2.7435,1.7015],[129.0191,-2.746,0.0],[129.0208,-2.748,0.0],[129.0201,-2.7508,1.9016],[129.0226,-2.7517,10.0939],[129.0208,-2.7531,0.0]]]]}}