{"type":"Feature","properties":{"GID_3":"IDN.32.22.4_1","GID_0":"IDN","country":"Indonesia","GID_1":"IDN.32_1","province":"SumateraUtara","NL_NAME_1":"NA","GID_2":"IDN.32.22_1","county":"PadangLawas","NL_NAME_2":"NA","city":"Huristak","VARNAME_3":"NA","NL_NAME_3":"NA","TYPE_3":"Kecamatan","ENGTYPE_3":"Sub-district","CC_3":"1221080","HASC_3":"NA","name":"Huristak.city"},
"geometry":{"type": "MultiPolygon","coordinates": [[[[99.8456,1.3199,117.49],[99.8482,1.3005,162.7675],[99.8596,1.2937,145.5245],[99.8684,1.2807,180.4255],[99.8835,1.2669,233.5008],[99.8979,1.246,190.1243],[99.9038,1.2401,188.1202],[99.9074,1.2475,177.6423],[99.9116,1.2521,191.2295],[99.9585,1.2724,174.8548],[99.9791,1.2757,149.9617],[100.0045,1.2774,108.924],[100.0559,1.2732,131.906],[100.0701,1.2736,112.7016],[100.0754,1.2755,114.2833],[100.0586,1.2984,92.5864],[100.0503,1.3131,78.8461],[100.0362,1.3191,81.2493],[100.0302,1.3249,112.8242],[100.0255,1.3357,102.0942],[100.0254,1.3569,117.0369],[100.0152,1.3623,121.4337],[100.0108,1.3708,120.6818],[100.0011,1.3803,131.4812],[99.9929,1.382,140.7558],[99.9714,1.3803,145.4637],[99.9651,1.3772,141.2267],[99.9543,1.3676,124.6117],[99.9531,1.3756,99.4141],[99.9545,1.3788,87.6914],[99.9526,1.382,89.2595],[99.9502,1.3978,73.5614],[99.9432,1.4051,75.0518],[99.9472,1.4155,62.9722],[99.9442,1.4214,61.2896],[99.9487,1.4278,58.3383],[99.9469,1.4292,56.7038],[99.9471,1.4321,64.267],[99.944,1.4394,68.2248],[99.9282,1.4678,81.8589],[99.9232,1.48,64.3054],[99.9195,1.5255,36.7739],[99.9174,1.5288,35.9553],[99.9139,1.5271,38.1005],[99.9153,1.5291,36.6979],[99.9135,1.5297,36.3809],[99.9156,1.531,38.105],[99.9129,1.5319,37.6795],[99.9147,1.5343,44.1187],[99.9082,1.5336,43.2393],[99.9116,1.5349,42.2253],[99.9081,1.5357,38.274],[99.9095,1.5388,49.9352],[99.9035,1.5384,37.6698],[99.9033,1.5427,45.1681],[99.9017,1.5411,40.4815],[99.898,1.5414,40.0093],[99.898,1.543,41.5506],[99.9023,1.5442,41.6464],[99.8975,1.5487,43.3071],[99.8494,1.5248,71.4814],[99.8463,1.5202,69.8323],[99.8444,1.5076,60.6558],[99.8376,1.4976,61.5461],[99.8169,1.4802,60.5854],[99.7913,1.4618,67.1996],[99.7703,1.4421,84.434],[99.793,1.4202,46.8015],[99.8045,1.399,93.8559],[99.8162,1.3879,75.5351],[99.848,1.3658,73.3049],[99.8451,1.3566,71.1595],[99.8488,1.3556,74.1598],[99.8476,1.3528,85.2338],[99.8497,1.3501,80.0934],[99.8486,1.3482,91.8264],[99.8514,1.3454,78.6664],[99.8467,1.3441,105.4573],[99.8448,1.3412,85.2058],[99.8491,1.3268,97.8239],[99.8456,1.3199,117.49]]]]}}