{"type":"Feature","properties":{"GID_3":"IDN.11.34.23_1","GID_0":"IDN","country":"Indonesia","GID_1":"IDN.11_1","province":"JawaTimur","NL_NAME_1":"NA","GID_2":"IDN.11.34_1","county":"Sumenep","NL_NAME_2":"NA","city":"Raas","VARNAME_3":"NA","NL_NAME_3":"NA","TYPE_3":"Kecamatan","ENGTYPE_3":"Sub-district","CC_3":"3529220","HASC_3":"NA","name":"Raas.city"},
"geometry":{"type": "MultiPolygon","coordinates": [[[[114.6117,-7.1675,1.3464],[114.61,-7.1667,3.0449],[114.6124,-7.1636,6.3718],[114.6091,-7.164,4.8873],[114.6041,-7.1699,0.0],[114.6039,-7.1726,0.0],[114.6087,-7.1738,0.0],[114.617,-7.1703,4.3659],[114.616,-7.1663,7.4364],[114.6117,-7.1675,1.3464]]],
[[[114.6801,-7.1612,11.059],[114.6761,-7.1596,12.1482],[114.6672,-7.1601,8.608],[114.657,-7.165,3.0912],[114.6566,-7.1712,1.2763],[114.6683,-7.1695,1.7916],[114.6775,-7.1662,6.0794],[114.679,-7.1675,0.0],[114.6821,-7.1657,0.0],[114.6839,-7.1666,0.0],[114.6852,-7.1649,1.5385],[114.6801,-7.1612,11.059]]],
[[[114.6036,-7.164,0.0],[114.6105,-7.1625,1.3844],[114.6117,-7.158,1.6365],[114.6148,-7.1572,0.0],[114.6158,-7.1539,0.0],[114.6142,-7.1489,3.323],[114.612,-7.1482,9.3613],[114.6147,-7.1433,1.5787],[114.6133,-7.1415,3.1997],[114.606,-7.1398,10.9662],[114.6054,-7.1377,1.1596],[114.5965,-7.1393,8.6746],[114.5914,-7.1349,2.4673],[114.5873,-7.1361,8.3123],[114.5849,-7.1348,7.8726],[114.5797,-7.1351,5.1714],[114.5769,-7.1307,1.0755],[114.5725,-7.1332,1.4904],[114.563,-7.135,1.692],[114.5545,-7.1343,5.0555],[114.5498,-7.1315,8.5647],[114.5394,-7.133,11.0647],[114.5344,-7.131,1.6735],[114.5305,-7.1323,1.9282],[114.5311,-7.134,7.0996],[114.529,-7.136,16.0919],[114.5163,-7.1388,5.1879],[114.5159,-7.1377,6.6647],[114.5145,-7.1419,2.5418],[114.5177,-7.1464,0.3127],[114.529,-7.1462,0.0],[114.5328,-7.1442,0.5276],[114.5435,-7.146,0.8011],[114.5523,-7.1446,0.0],[114.5571,-7.1511,1.0706],[114.5651,-7.1531,0.8778],[114.5663,-7.1595,0.0],[114.5723,-7.1588,4.5174],[114.5748,-7.1628,4.2039],[114.5725,-7.1661,2.5846],[114.5746,-7.1677,0.0],[114.5774,-7.1655,0.0],[114.5843,-7.1654,0.0],[114.5877,-7.1632999999999996,0.271],[114.5887,-7.1647,0.4128],[114.5919,-7.1642,3.28],[114.5902,-7.1651,0.4128],[114.5909,-7.1661,1.6413],[114.6036,-7.164,0.0]]],
[[[114.6842,-7.152,0.0],[114.6845,-7.1521,0.0],[114.6846,-7.1517,0.0],[114.6844,-7.1515,0.0],[114.6842,-7.152,0.0]]],
[[[114.5017,-7.1421,0.4536],[114.5002,-7.1417,0.4536],[114.5011,-7.1394,0.8307],[114.4883,-7.1417,10.2218],[114.4818,-7.141,8.7038],[114.4772,-7.1437,9.6672],[114.4763,-7.1507,5.8463],[114.4822,-7.1596,0.0],[114.4872,-7.1619,0.0],[114.4975,-7.1613,0.0],[114.5102,-7.1568,0.0],[114.5112,-7.155,0.0],[114.5065,-7.1555,0.5213],[114.5087,-7.152,1.441],[114.506,-7.1492,8.8291],[114.508,-7.1482,4.8755],[114.4988,-7.1454,8.7627],[114.5017,-7.1421,0.4536]]],
[[[114.503,-7.1382,0.0],[114.5029,-7.1381,0.0],[114.5024,-7.1386,0.0],[114.5027,-7.1386,0.0],[114.503,-7.1382,0.0]]],
[[[114.501,-7.1344,0.0],[114.4998,-7.1346,0.2292],[114.4988,-7.1361,0.2292],[114.5002,-7.1346,0.0],[114.501,-7.1344,0.0]]],
[[[114.5861,-7.1316,0.0],[114.5887,-7.13,0.0],[114.5854,-7.1291,0.6066],[114.581,-7.1324,0.2981],[114.5819,-7.1329,0.2981],[114.5861,-7.1316,0.0]]],
[[[114.5754,-7.078,0.0],[114.5791,-7.0756,0.0],[114.5775,-7.0725,0.5064],[114.5749,-7.0764,0.0],[114.5702,-7.0775,0.0],[114.5709,-7.0784,0.0],[114.5754,-7.078,0.0]]],
[[[114.772,-7.1348,0.0],[114.7699,-7.1344,0.2573],[114.768,-7.1318,0.8791],[114.769,-7.1308,2.0757],[114.768,-7.1311,2.0757],[114.7678,-7.1326,0.8791],[114.7695,-7.1348,0.0],[114.7722,-7.135,0.0],[114.7735,-7.1343,0.9659],[114.772,-7.1348,0.0]]],
[[[114.782,-7.1207,3.4659],[114.7794,-7.1165,4.5524],[114.7733,-7.1253,1.4844],[114.7741,-7.1283,6.1172],[114.7722,-7.1305,1.8251],[114.775,-7.1353,0.0],[114.7789,-7.1332,0.0],[114.7812,-7.1289,2.725],[114.7843,-7.1219,0.0],[114.782,-7.1207,3.4659]]],
[[[114.7709,-7.1239,0.0],[114.7708,-7.1242,0.0],[114.7712,-7.1242,0.0],[114.7712,-7.1238,0.0],[114.7709,-7.1239,0.0]]],
[[[114.7954,-7.1058,2.8569],[114.7928,-7.1066,3.3952],[114.794,-7.1098,0.0],[114.7956,-7.1086,0.0],[114.7954,-7.1058,2.8569]]],
[[[114.7007,-7.1084,0.0],[114.7022,-7.1066,0.0],[114.6999,-7.1052,4.3649],[114.696,-7.1072,0.0],[114.6989,-7.109,0.0],[114.7007,-7.1084,0.0]]],
[[[114.6868,-7.0956,3.1551],[114.6855,-7.094,1.8137],[114.683,-7.094,3.4405],[114.6761,-7.0998,0.0],[114.6765,-7.1002,0.0],[114.682,-7.101,0.0],[114.6852,-7.1006,0.0],[114.6874,-7.0981,0.0],[114.6868,-7.0956,3.1551]]],
[[[114.6464,-7.0865,0.0],[114.6488,-7.0872,0.0],[114.6506,-7.0821,0.0],[114.6463,-7.0754,4.1764],[114.6438,-7.082,0.0],[114.6445,-7.0853,0.0],[114.6464,-7.0865,0.0]]],
[[[115.1037,-7.0875,0.0],[115.1033,-7.0876,0.0],[115.1034,-7.0881,0.0],[115.1037,-7.088,0.0],[115.1037,-7.0875,0.0]]],
[[[115.1951,-7.0921,0.7446],[115.2009,-7.0874,4.4812],[115.2011,-7.0847,3.1199],[115.1983,-7.0817,0.0],[115.1961,-7.0824,0.0],[115.1927,-7.0867,0.0],[115.1933,-7.0907,0.0],[115.1951,-7.0921,0.7446]]]]}}