{"type":"Feature","properties":{"GID_3":"IDN.1.20.17_1","GID_0":"IDN","country":"Indonesia","GID_1":"IDN.1_1","province":"Aceh","NL_NAME_1":"NA","GID_2":"IDN.1.20_1","county":"Pidie","NL_NAME_2":"NA","city":"PeukanBaro","VARNAME_3":"NA","NL_NAME_3":"NA","TYPE_3":"Kecamatan","ENGTYPE_3":"Sub-district","CC_3":"1109170","HASC_3":"NA","name":"Peukan_Baro.city"},
"geometry":{"type": "MultiPolygon","coordinates": [[[[95.9508,5.2888,17.9951],[95.9624,5.2892,19.6574],[95.9837,5.3171,9.0224],[95.9829,5.3205,8.0344],[95.9797,5.3215,11.3907],[95.9769,5.3247,12.8312],[95.9744,5.3249,10.2301],[95.9767,5.3404,5.3272],[95.9762,5.3467,4.1475],[95.9651,5.3529,12.1659],[95.9623,5.3502,4.0658],[95.9553,5.3478,11.0579],[95.9538,5.3496,10.6399],[95.9482,5.348,4.8452],[95.9496,5.3448,5.0209],[95.9469,5.3375,9.4806],[95.9496,5.3329,14.7421],[95.9463,5.3235,11.371],[95.9491,5.3202,10.2872],[95.9554,5.3198,14.6949],[95.9602,5.3214,9.5625],[95.9638,5.3127,14.1621],[95.9633,5.3101,13.1203],[95.9626,5.3117,14.9535],[95.9602,5.311,15.4634],[95.9583,5.3082,15.5105],[95.9568,5.3077,17.4997],[95.956,5.3096,19.5247],[95.9501,5.306,14.7714],[95.9439,5.2923,19.2737],[95.9452,5.2901,19.7862],[95.9508,5.2888,17.9951]]]]}}