{"type":"Feature","properties":{"GID_2":"IDN.9.15_1","GID_0":"IDN","country":"Indonesia","GID_1":"IDN.9_1","province":"JawaBarat","NL_NAME_1":"NA","county":"KotaBekasi","VARNAME_2":"NA","NL_NAME_2":"NA","TYPE_2":"Kota","ENGTYPE_2":"City","CC_2":"3275","HASC_2":"ID.JR.BK","name":"Kota_Bekasi.county"},
"geometry":{"type": "MultiPolygon","coordinates": [[[[106.9315,-6.384,69.9733],[106.9338,-6.3836,59.695],[106.9295,-6.3823,76.2785],[106.9297,-6.38,76.3797],[106.9331,-6.3758,76.9951],[106.9378,-6.3774,64.9816],[106.9389,-6.375,53.8467],[106.9379,-6.3741,56.3625],[106.9406,-6.3714,55.2017],[106.9387,-6.3722,56.0531],[106.9386,-6.3706,60.6615],[106.942,-6.3692,51.841],[106.9423,-6.3674,49.2186],[106.9433,-6.3691,51.841],[106.9455,-6.3685,54.6159],[106.9439,-6.3664,49.2186],[106.9471,-6.3602,44.6913],[106.9438,-6.3596,55.2444],[106.9439,-6.358,50.5677],[106.947,-6.3582,42.8701],[106.9462,-6.3594,42.8701],[106.9487,-6.3587,47.9907],[106.9474,-6.3575,46.6017],[106.9495,-6.3541,58.1787],[106.9524,-6.3535,62.2834],[106.9504,-6.3505,43.6857],[106.952,-6.3491,49.2189],[106.9533,-6.3512,40.7016],[106.954,-6.3495,40.7053],[106.9521,-6.3486,49.2189],[106.9503,-6.344,48.1421],[106.9546,-6.3444,51.1996],[106.9528,-6.3402,39.8391],[106.9571,-6.3395,39.472],[106.9569,-6.3375,38.201],[106.9594,-6.3354,38.3745],[106.9618,-6.3358,36.8425],[106.9624,-6.3332,36.31],[106.9604,-6.3335,47.7958],[106.9602,-6.3315,47.7637],[106.9634,-6.3289,36.0847],[106.9608,-6.3262,35.4453],[106.9637,-6.3267,37.3573],[106.9647,-6.3249,36.2285],[106.9618,-6.3251,35.4453],[106.9619,-6.3227,34.0853],[106.9603,-6.3214,38.7747],[106.9637,-6.3169,32.8242],[106.961,-6.3152,30.5857],[106.9602,-6.3125,40.7283],[106.9634,-6.3122,32.3417],[106.9613,-6.3083,29.2037],[106.964,-6.3085,26.766],[106.9638,-6.3101,28.246],[106.9651,-6.3102,34.6193],[106.9652,-6.3071,27.4295],[106.9666,-6.307,27.4295],[106.9645,-6.3052,27.4865],[106.967,-6.3052,28.2198],[106.9667,-6.303,28.6838],[106.97,-6.3056,27.5968],[106.9695,-6.303,27.0068],[106.9683,-6.3031,28.6838],[106.9708,-6.3023,27.457],[106.9733,-6.3116,26.5178],[106.9809,-6.3149,28.7901],[106.9763,-6.3192,32.6235],[106.977,-6.3314,48.1641],[106.9752,-6.3318,31.3714],[106.9741,-6.3301,29.0614],[106.9725,-6.3319,31.3353],[106.9755,-6.3352,34.1246],[106.9728,-6.3401,34.0534],[106.9757,-6.3394,38.7589],[106.9757,-6.3409,31.0141],[106.9715,-6.3429,32.1682],[106.9691,-6.3415,29.8563],[106.9662,-6.3422,40.2614],[106.97,-6.3464,38.9088],[106.9726,-6.3467,35.1875],[106.97,-6.3495,38.6342],[106.9771,-6.3533,57.431399999999996],[106.9784,-6.3568,55.192],[106.9819,-6.3579,55.5808],[106.9792,-6.3619,56.2197],[106.9797,-6.3643,55.8241],[106.9879,-6.3636,59.6294],[106.9944,-6.3672,59.3051],[106.9927,-6.3648,56.9164],[106.9941,-6.3554,52.3664],[106.9984,-6.3563,62.9945],[107.0016,-6.3539,55.6735],[107.0046,-6.3554,52.6544],[107.0039,-6.3597,51.6025],[107.0069,-6.3626,48.5283],[107.0172,-6.3536,46.5836],[107.0181,-6.3484,46.5783],[107.0161,-6.3436,48.0507],[107.0164,-6.3304,35.7421],[107.021,-6.328,41.4037],[107.0289,-6.3304,35.5549],[107.0304,-6.3254,40.829],[107.0371,-6.3215,36.307],[107.0367,-6.3178,37.1818],[107.0383,-6.3168,37.1818],[107.0371,-6.3141,38.5533],[107.0395,-6.3092,40.9234],[107.0411,-6.3094,38.673],[107.0412,-6.3075,39.285],[107.0383,-6.3063,30.0676],[107.0409,-6.2961,32.3511],[107.0401,-6.2877,30.0729],[107.0375,-6.2837,28.3473],[107.0314,-6.2821,21.9963],[107.0281,-6.2779,22.0785],[107.0225,-6.2804,24.5361],[107.0212,-6.2776,26.5769],[107.0166,-6.2761,28.1438],[107.0178,-6.2713,25.3765],[107.0164,-6.2702,24.5769],[107.0164,-6.2656,24.8509],[107.0178,-6.2628,22.0997],[107.02,-6.2636,22.6964],[107.0244,-6.255,20.101],[107.0296,-6.253,18.5851],[107.0306,-6.2499,18.2061],[107.0351,-6.2467,17.0082],[107.0415,-6.2462,17.3317],[107.0425,-6.2328,16.6419],[107.0387,-6.2323,14.6533],[107.0352,-6.2266,14.363],[107.0304,-6.2267,14.8996],[107.033,-6.2201,14.9105],[107.0309,-6.2151,15.1734],[107.0338,-6.2124,11.4461],[107.0322,-6.2088,10.8582],[107.0342,-6.2053,10.9708],[107.0325,-6.1984,12.0441],[107.0199,-6.1964,10.4738],[107.018,-6.1998,11.6811],[107.0149,-6.1951,10.6443],[107.0113,-6.1965,11.5711],[107.0059,-6.1959,10.8546],[107.007,-6.1777,8.1929],[107.0083,-6.1777,7.8367],[107.0083,-6.1746,7.6449],[107.0108,-6.1748,7.8102],[107.0107,-6.1724,5.8715],[106.9716,-6.1722,4.3997],[106.9713,-6.1876,5.9059],[106.9696,-6.195,9.944],[106.9665,-6.1957,8.0493],[106.9676,-6.1978,6.1206],[106.9657,-6.201,5.7124],[106.9662,-6.2069,11.138],[106.9624,-6.2144,12.1631],[106.959,-6.2129,9.35],[106.9558,-6.2195,11.0391],[106.9508,-6.2191,13.6712],[106.9472,-6.2261,18.2098],[106.9455,-6.2368,22.5503],[106.9418,-6.2382,23.8233],[106.9436,-6.2389,22.3966],[106.9439,-6.2523,25.9642],[106.9335,-6.254,21.9591],[106.9294,-6.2532,18.8756],[106.9279,-6.2546,21.4749],[106.922,-6.2539,17.2661],[106.9217,-6.2513,18.0566],[106.9199,-6.2503,15.7746],[106.9162,-6.2525,20.0249],[106.9157,-6.2584,22.9003],[106.9097,-6.2555,24.3215],[106.91,-6.258,22.8644],[106.9053,-6.2601,19.8062],[106.9044,-6.2621,21.2749],[106.9057,-6.2676,20.3095],[106.9042,-6.2702,21.6664],[106.9101,-6.2728,23.6251],[106.908,-6.2825,24.8514],[106.9105,-6.287,26.1147],[106.9093,-6.2909,27.8095],[106.9118,-6.2903,28.9847],[106.9102,-6.2943,27.8541],[106.9123,-6.2946,28.6852],[106.9111,-6.296,28.6852],[106.9119,-6.2983,27.9862],[106.9135,-6.2989,27.7816],[106.9153,-6.2971,32.0926],[106.9177,-6.298,32.0193],[106.918,-6.2998,29.506],[106.9192,-6.2991,32.0193],[106.9189,-6.3005,29.506],[106.9209,-6.3005,31.8238],[106.9215,-6.3109,37.5949],[106.9201,-6.3114,35.1149],[106.9228,-6.3142,33.1129],[106.9207,-6.3183,40.7901],[106.9215,-6.3242,39.3749],[106.9191,-6.3252,44.7375],[106.9182,-6.3279,42.84],[106.9202,-6.3286,43.9368],[106.9209,-6.331,44.2128],[106.9195,-6.3386,52.2187],[106.9182,-6.3392,44.8488],[106.9194,-6.3436,61.2306],[106.9174,-6.3438,49.5056],[106.9172,-6.3461,58.6555],[106.9159,-6.3463,58.6511],[106.9178,-6.3504,64.4494],[106.9155,-6.355,60.1087],[106.9171,-6.3564,56.1099],[106.9136,-6.3588,58.6066],[106.9162,-6.3629,61.1518],[106.9125,-6.3684,66.898],[106.9119,-6.3671,62.4908],[106.9101,-6.3679,65.5129],[106.9076,-6.3708,61.7209],[106.9082,-6.3767,69.48],[106.9039,-6.3803,71.237],[106.9044,-6.3916,74.4277],[106.9027,-6.3939,75.606],[106.8983,-6.3945,82.8309],[106.8978,-6.3967,75.96],[106.9003,-6.3978,80.8799],[106.9062,-6.3944,79.9183],[106.9194,-6.3956,69.1403],[106.921,-6.3969,66.5664],[106.9214,-6.3947,66.7901],[106.923,-6.3944,63.2858],[106.9208,-6.3927,69.5198],[106.9218,-6.3889,65.4976],[106.9232,-6.3899,62.8172],[106.9247,-6.3862,69.312],[106.9258,-6.3883,77.1239],[106.9265,-6.3855,65.1586],[106.9292,-6.3862,67.992],[106.9315,-6.384,69.9733]]]]}}