{"type":"Feature","properties":{"GID_3":"IDN.17.3.15_1","GID_0":"IDN","country":"Indonesia","GID_1":"IDN.17_1","province":"Lampung","NL_NAME_1":"NA","GID_2":"IDN.17.3_1","county":"LampungSelatan","NL_NAME_2":"NA","city":"Sragi","VARNAME_3":"NA","NL_NAME_3":"NA","TYPE_3":"Kecamatan","ENGTYPE_3":"Sub-district","CC_3":"1803121","HASC_3":"NA","name":"Sragi.city"},
"geometry":{"type": "MultiPolygon","coordinates": [[[[105.7018,-5.6584,15.8356],[105.7017,-5.6637,26.4978],[105.6957,-5.6813,9.9387],[105.6931,-5.6976,36.7259],[105.7019,-5.6911,43.2459],[105.74,-5.6986,40.3933],[105.7507,-5.6992,31.7135],[105.7468,-5.6971,30.8221],[105.7537,-5.6918,33.437],[105.7594,-5.6843,18.8125],[105.7647,-5.689,16.0542],[105.7785,-5.6803,3.1859],[105.7717,-5.6675,7.5685],[105.7782,-5.6658,3.5527],[105.782,-5.6586,5.2883],[105.7818,-5.6434,7.0781],[105.7682,-5.6397,2.3326],[105.7676,-5.6304,1.8941],[105.7767,-5.6306,1.9503],[105.7773,-5.6324,2.788],[105.818,-5.6318,0.0],[105.8196,-5.6216,0.0],[105.8214,-5.6204,0.0],[105.8201,-5.6183,0.3335],[105.829,-5.5899,0.0],[105.8276,-5.5821,0.7794],[105.8186,-5.5787,0.8951],[105.8167,-5.576,0.0],[105.8054,-5.583,1.0671],[105.7973,-5.5953,0.25],[105.7994,-5.6014,0.6425],[105.7985,-5.6038,0.978],[105.797,-5.604,0.6106],[105.7928,-5.5997,0.6667],[105.7897,-5.5999,1.0774],[105.7918,-5.6028,0.8018],[105.7912,-5.6071,1.0402],[105.7935,-5.6135,0.6672],[105.791,-5.6141,1.0122],[105.7876,-5.6096,1.2763],[105.7852,-5.609,5.8419],[105.7863,-5.6138,1.2648],[105.7853,-5.616,1.0],[105.7797,-5.6162,1.7755],[105.7738,-5.6212,0.4713],[105.7716,-5.6199,0.125],[105.7755,-5.6158,0.802],[105.775,-5.6126,1.6239],[105.7669,-5.6189,0.7838],[105.7601,-5.6154,0.3254],[105.7651,-5.6063,1.0794],[105.7646,-5.6033,0.5919],[105.7577,-5.6086,0.9252],[105.7544,-5.6086,1.3262],[105.7543,-5.6057,2.0985],[105.7574,-5.6023,1.0187],[105.7573,-5.592,1.5753],[105.7558,-5.591,1.6396],[105.7542,-5.5921,1.3867],[105.7541,-5.5988,2.0234],[105.7523,-5.5999,2.1131],[105.7509,-5.5981,2.4476],[105.7508,-5.5904,1.3583],[105.7474,-5.5883,1.6641],[105.7463,-5.5904,1.3507],[105.7471,-5.5947,2.1645],[105.7438,-5.5973,1.8499],[105.7422,-5.6012,2.3782],[105.7384,-5.6013,2.2821],[105.7412,-5.5971,1.4222],[105.7402,-5.5956,3.0955],[105.7381,-5.5966,3.0909],[105.7367,-5.6,2.4746],[105.7339,-5.6006,1.8712],[105.7338,-5.6131,1.8288],[105.7301,-5.6119,1.7829],[105.7269,-5.6155,1.9972],[105.7242,-5.6123,1.5792],[105.7225,-5.6154,2.0876],[105.7155,-5.6129,2.1554],[105.7132,-5.6234,2.721],[105.7185,-5.6333,18.5844],[105.7177,-5.6367,17.4541],[105.72,-5.6416,21.3478],[105.7192,-5.6425,24.7153],[105.7127,-5.6414,3.2491],[105.7103,-5.6344,5.4326],[105.7023,-5.6317,3.9174],[105.6945,-5.6442,6.0913],[105.7069,-5.653,10.9781],[105.7063,-5.6571,15.7817],[105.7054,-5.6557,14.0053],[105.7018,-5.6559,16.8502],[105.7018,-5.6584,15.8356]]]]}}