{"type":"Feature","properties":{"GID_3":"IDN.17.5.4_1","GID_0":"IDN","country":"Indonesia","GID_1":"IDN.17_1","province":"Lampung","NL_NAME_1":"NA","GID_2":"IDN.17.5_1","county":"LampungTimur","NL_NAME_2":"NA","city":"BrajaSlebah","VARNAME_3":"NA","NL_NAME_3":"NA","TYPE_3":"Kecamatan","ENGTYPE_3":"Sub-district","CC_3":"1804081","HASC_3":"NA","name":"Braja_Slebah.city"},
"geometry":{"type": "MultiPolygon","coordinates": [[[[105.8018,-5.1748,11.1355],[105.8008,-5.1742,13.0693],[105.8026,-5.1724,11.8145],[105.8015,-5.1699,10.8122],[105.8024,-5.1674,13.3259],[105.7997,-5.1633,12.6057],[105.7981,-5.1559,8.5581],[105.7946,-5.1537,5.3728],[105.7924,-5.1546,4.202],[105.7883,-5.1514,14.9124],[105.7771,-5.1555,6.503],[105.7702,-5.1514,7.3796],[105.7666,-5.1539,5.2094],[105.7627,-5.15,4.3834],[105.7607,-5.1505,4.5726],[105.7584,-5.1548,14.4039],[105.7527,-5.1526,11.0913],[105.7506,-5.1544,7.2826],[105.7477,-5.1517,14.069],[105.7438,-5.1508,15.0337],[105.7399,-5.153,14.5461],[105.7329,-5.1512,11.5844],[105.7297,-5.1538,17.1429],[105.7327,-5.1586,15.2663],[105.7292,-5.1669,17.0439],[105.7238,-5.1687,17.57],[105.7226,-5.1745,19.6048],[105.7205,-5.1748,17.1214],[105.7244,-5.1809,14.5209],[105.7259,-5.1935,17.3986],[105.7297,-5.2006,11.2529],[105.7315,-5.1988,13.822],[105.7386,-5.1995,16.125],[105.7476,-5.2125,10.2101],[105.7519,-5.2316,9.8127],[105.7552,-5.2385,6.699],[105.758,-5.2379,3.0665],[105.7629,-5.2412,2.7923],[105.7669,-5.2387,2.5198],[105.769,-5.2396,2.6362],[105.7732,-5.2356,8.8934],[105.7781,-5.2403,2.2117],[105.7862,-5.2446,2.0243],[105.7936,-5.24,2.7865],[105.8065,-5.2433,10.1778],[105.8109,-5.2341,1.3278],[105.8153,-5.2298,1.0178],[105.8155,-5.2263,1.0545],[105.8128,-5.2222,1.2268],[105.8126,-5.217,8.5251],[105.8187,-5.2143,2.0101],[105.8277,-5.2074,2.8329],[105.8237,-5.1989,4.403],[105.8219,-5.1986,2.2618],[105.8102,-5.1843,13.2258],[105.8106,-5.1797,8.0755],[105.8047,-5.1797,4.5695],[105.8018,-5.1748,11.1355]]]]}}