{"type":"Feature","properties":{"GID_3":"IDN.9.21.26_1","GID_0":"IDN","country":"Indonesia","GID_1":"IDN.9_1","province":"JawaBarat","NL_NAME_1":"NA","GID_2":"IDN.9.21_1","county":"Majalengka","NL_NAME_2":"NA","city":"Talaga","VARNAME_3":"NA","NL_NAME_3":"NA","TYPE_3":"Kecamatan","ENGTYPE_3":"Sub-district","CC_3":"3210040","HASC_3":"NA","name":"Talaga.city"},
"geometry":{"type": "MultiPolygon","coordinates": [[[[108.3086,-7.0221,594.2068],[108.3213,-7.0091,574.1191],[108.3312,-7.0125,574.0874],[108.3318,-7.0025,601.9409],[108.3297,-6.9963,643.3688],[108.3308,-6.9927,656.8853],[108.3439,-6.9938,658.243],[108.3462,-6.9908,688.1263],[108.3447,-6.9813,770.668],[108.3561,-6.9824,824.9014],[108.3576,-6.9795,862.1962],[108.3626,-6.9801,826.2117],[108.3671,-6.9761,896.8683],[108.3756,-6.9636,1189.9388],[108.376,-6.9581,1265.2091],[108.3792,-6.9536,1341.2012],[108.3862,-6.9518,1445.1721],[108.3896,-6.9458,1613.6089],[108.4011,-6.9358,1917.3036],[108.3927,-6.9343,1874.7048],[108.3861,-6.9402,1628.9181],[108.3836,-6.9451,1479.1874],[108.3702,-6.9481,1215.0366],[108.3632,-6.9581,1103.043],[108.3566,-6.9602,1071.0295],[108.3506,-6.9651,986.0269],[108.3409,-6.98,753.8101],[108.3362,-6.9801,713.7216],[108.3329,-6.978,685.3119],[108.3199,-6.9813,645.5481],[108.3189,-6.9784,623.6095],[108.3114,-6.9761,605.7358],[108.3137,-6.9749,612.6407],[108.3133,-6.9732,628.1451],[108.3158,-6.9724,642.1707],[108.3154,-6.9714,642.1707],[108.3066,-6.9716,600.6981],[108.3038,-6.9688,592.751],[108.3003,-6.968,590.2783],[108.2886,-6.9723,467.4223],[108.2837,-6.971,462.4616],[108.2804,-6.9732,424.264],[108.2773,-6.9722,398.93],[108.2822,-6.9987,777.1349],[108.2714,-7.0034,795.2919],[108.2694,-7.0124,583.3212],[108.2674,-7.0143,557.0363],[108.2695,-7.0161,573.0372],[108.2854,-7.0207,831.5253],[108.2939,-7.0269,762.7079],[108.3017,-7.0265,679.3163],[108.3086,-7.0221,594.2068]]]]}}