{"type":"Feature","properties":{"GID_3":"IDN.24.4.1_1","GID_0":"IDN","country":"Indonesia","GID_1":"IDN.24_1","province":"Riau","NL_NAME_1":"NA","GID_2":"IDN.24.4_1","county":"IndragiriHulu","NL_NAME_2":"NA","city":"BatangCenaku","VARNAME_3":"NA","NL_NAME_3":"NA","TYPE_3":"Kecamatan","ENGTYPE_3":"Sub-district","CC_3":"1402021","HASC_3":"NA","name":"Batang_Cenaku.city"},
"geometry":{"type": "MultiPolygon","coordinates": [[[[102.2856,-0.6272,32.941],[102.2807,-0.6013,42.5821],[102.2776,-0.5948,31.1002],[102.2706,-0.5995,40.2724],[102.2574,-0.605,42.0652],[102.2486,-0.6139,43.99],[102.2451,-0.6233,45.1991],[102.2489,-0.638,41.114],[102.2459,-0.6462,42.8052],[102.2392,-0.656,46.3511],[102.221,-0.6679,61.3513],[102.1481,-0.702,84.2492],[102.1215,-0.7021,85.2919],[102.1214,-0.7178,90.354],[102.1162,-0.718,80.1951],[102.1124,-0.722,85.1978],[102.1091,-0.7613,87.2852],[102.1105,-0.8218,102.8426],[102.1089,-0.8333,88.3521],[102.0925,-0.8541,122.384],[102.0931,-0.8707,114.8589],[102.1077,-0.8931,121.6491],[102.1046,-0.9137,201.0052],[102.113,-0.9197,139.6721],[102.1233,-0.9217,192.6967],[102.1341,-0.9173,116.0973],[102.1461,-0.9096,104.1975],[102.1534,-0.9091,112.839],[102.165,-0.9183,104.1069],[102.1698,-0.9241,107.7837],[102.1737,-0.9294,107.8989],[102.1804,-0.9475,120.806],[102.1871,-0.9538,141.8744],[102.2004,-0.9544,137.6112],[102.2048,-0.9527,118.4272],[102.2296,-0.9396,179.5088],[102.2356,-0.9311,155.7492],[102.243,-0.9335,175.7747],[102.262,-0.926,186.3651],[102.2718,-0.9258,164.3044],[102.2776,-0.927,164.4103],[102.2821,-0.9311,176.1964],[102.2942,-0.952,185.2877],[102.3666,-0.8546,252.896],[102.3655,-0.8471,205.5679],[102.3287,-0.7472,119.361],[102.3596,-0.6934,164.8043],[102.359,-0.674,79.0272],[102.3512,-0.6553,85.391],[102.3482,-0.6526,73.1806],[102.3399,-0.6493,71.894],[102.3286,-0.6421,62.8888],[102.3161,-0.6413,47.3258],[102.3059,-0.6388,54.1656],[102.2856,-0.6272,32.941]]]]}}