{"type":"Feature","properties":{"GID_3":"IDN.28.7.16_1","GID_0":"IDN","country":"Indonesia","GID_1":"IDN.28_1","province":"SulawesiTenggara","NL_NAME_1":"NA","GID_2":"IDN.28.7_1","county":"Kolaka","NL_NAME_2":"NA","city":"Toari","VARNAME_3":"NA","NL_NAME_3":"NA","TYPE_3":"Kecamatan","ENGTYPE_3":"Sub-district","CC_3":"7404012","HASC_3":"NA","name":"Toari.city"},
"geometry":{"type": "MultiPolygon","coordinates": [[[[121.5188,-4.5825,22.2393],[121.5208,-4.5807,32.2823],[121.5288,-4.5821,22.7262],[121.5276,-4.5766,52.4691],[121.5326,-4.5751,18.3943],[121.5342,-4.5763,60.2731],[121.5358,-4.5729,29.87],[121.5402,-4.5724,25.0718],[121.5446,-4.5748,26.8917],[121.5461,-4.5725,31.7662],[121.547,-4.5742,24.0786],[121.5487,-4.5726,27.6877],[121.5507,-4.5738,25.7465],[121.5505,-4.5704,26.2306],[121.5539,-4.5732,50.3828],[121.5538,-4.5713,22.6099],[121.5557,-4.5719,23.1407],[121.5582,-4.569,25.0716],[121.5591,-4.5735,22.9735],[121.5631,-4.5695,29.5909],[121.5632,-4.5735,30.2652],[121.5681,-4.5752,27.8143],[121.5662,-4.5789,34.4652],[121.5693,-4.5777,27.7989],[121.5715,-4.5798,30.0319],[121.5741,-4.579,29.1738],[121.5729,-4.5764,30.6541],[121.5748,-4.5778,29.3863],[121.573,-4.5748,31.4944],[121.5748,-4.575,31.0869],[121.5742,-4.5727,39.9626],[121.5774,-4.5706,33.8849],[121.5794,-4.5713,33.4598],[121.578,-4.5743,30.6943],[121.5803,-4.573,35.5682],[121.5794,-4.5752,37.5547],[121.5818,-4.578,39.8879],[121.583,-4.5761,34.0393],[121.5859,-4.5768,34.4604],[121.5863,-4.5735,34.7861],[121.5898,-4.5768,38.4156],[121.5906,-4.574,37.2293],[121.592,-4.5774,37.9109],[121.5947,-4.5769,38.4339],[121.5936,-4.573,38.9898],[121.5966,-4.575,37.7092],[121.5976,-4.5708,39.3049],[121.5998,-4.5738,47.1066],[121.6004,-4.5719,39.4126],[121.6078,-4.5705,41.8147],[121.6104,-4.572,50.4032],[121.6126,-4.5695,47.8372],[121.6115,-4.5711,44.0279],[121.6132,-4.5738,54.9716],[121.6133,-4.5716,48.8806],[121.6173,-4.5689,49.0242],[121.6203,-4.5628,49.1138],[121.5963,-4.5535,82.1494],[121.5878,-4.5537,77.8768],[121.5786,-4.55,49.1461],[121.557,-4.5534,49.1018],[121.542,-4.5532,34.5733],[121.5408,-4.5515,28.0686],[121.544,-4.5487,98.1725],[121.5461,-4.5418,67.0419],[121.546,-4.538,48.3852],[121.5438,-4.5346,67.9402],[121.5396,-4.5331,85.2988],[121.5293,-4.533,80.9729],[121.5279,-4.5276,44.5863],[121.5257,-4.5257,32.5389],[121.5153,-4.518,33.8234],[121.5101,-4.5169,15.9804],[121.508,-4.5176,8.3848],[121.5029,-4.5246,9.7435],[121.4951,-4.5374,10.4099],[121.4844,-4.5459,2.7544],[121.4789,-4.5447,0.0],[121.4753,-4.5499,0.0],[121.4768,-4.5746,0.0],[121.4737,-4.5846,1.3197],[121.4701,-4.5864,0.0],[121.4692,-4.5897,0.0],[121.4699,-4.5914,1.74],[121.4734,-4.592,3.9078],[121.4786,-4.589,9.6404],[121.4774,-4.5926,6.52],[121.4804,-4.5918,14.7657],[121.4825,-4.5937,17.5187],[121.4832,-4.5916,11.8965],[121.4862,-4.5923,11.751],[121.486,-4.5897,18.651],[121.49,-4.5919,15.0571],[121.4941,-4.591,15.5617],[121.4975,-4.5838,22.6693],[121.4995,-4.5863,24.7027],[121.505,-4.582,22.0558],[121.5052,-4.5841,19.3989],[121.5097,-4.5878,16.2103],[121.5114,-4.5845,18.5109],[121.5134,-4.5845,17.8386],[121.5133,-4.5826,21.3705],[121.5188,-4.5825,22.2393]]]]}}