{"type":"Feature","properties":{"GID_3":"IDN.9.20.17_1","GID_0":"IDN","country":"Indonesia","GID_1":"IDN.9_1","province":"JawaBarat","NL_NAME_1":"NA","GID_2":"IDN.9.20_1","county":"Kuningan","NL_NAME_2":"NA","city":"Japara","VARNAME_3":"NA","NL_NAME_3":"NA","TYPE_3":"Kecamatan","ENGTYPE_3":"Sub-district","CC_3":"3208161","HASC_3":"NA","name":"Japara.city"},
"geometry":{"type": "MultiPolygon","coordinates": [[[[108.5271,-6.9355,404.3197],[108.5287,-6.9359,408.3186],[108.5297,-6.929,401.8735],[108.5341,-6.9287,375.57],[108.5327,-6.9226,401.2653],[108.5338,-6.9181,408.9165],[108.5411,-6.9195,348.5978],[108.5454,-6.9293,327.5321],[108.5521,-6.9293,249.7694],[108.5532,-6.9271,239.1669],[108.555,-6.9279,239.1669],[108.5566,-6.9266,233.0183],[108.5612,-6.9282,217.092],[108.5628,-6.9207,233.9596],[108.5671,-6.9211,181.3348],[108.5744,-6.9148,135.5301],[108.5766,-6.915,144.7273],[108.5801,-6.9122,104.8538],[108.593,-6.912,66.2442],[108.6009,-6.9079,49.5424],[108.6055,-6.9072,51.1865],[108.6048,-6.9056,45.9449],[108.6074,-6.9017,43.1482],[108.6042,-6.9037,46.3398],[108.6024,-6.9016,47.9168],[108.5992,-6.9038,54.4454],[108.5993,-6.9018,52.1044],[108.5959,-6.8993,64.6244],[108.5934,-6.9,64.5683],[108.593,-6.898,62.2455],[108.5915,-6.8997,79.3325],[108.5894,-6.8982,76.1244],[108.5866,-6.8994,75.3616],[108.581,-6.8968,93.9051],[108.5795,-6.8988,97.7364],[108.5753,-6.8988,142.1143],[108.573,-6.9006,190.5831],[108.5695,-6.8999,232.0136],[108.5689,-6.9024,248.1968],[108.5628,-6.9078,230.1122],[108.5579,-6.9068,256.3618],[108.5545,-6.9096,287.8256],[108.5517,-6.9031,277.1706],[108.5484,-6.9036,284.3683],[108.5448,-6.9006,316.2208],[108.5386,-6.8997,364.0552],[108.5255,-6.8912,409.6598],[108.522,-6.8933,421.2727],[108.5179,-6.8923,444.6563],[108.5146,-6.8943,446.3575],[108.5108,-6.9045,460.1827],[108.5077,-6.9031,472.2571],[108.4999,-6.9032,480.1267],[108.4969,-6.9111,493.8336],[108.51,-6.9149,523.624],[108.5132,-6.9144,505.2778],[108.5122,-6.9165,509.2036],[108.5052,-6.9193,544.863],[108.5057,-6.921,527.1249],[108.5109,-6.925,495.4504],[108.5132,-6.9296,475.2114],[108.5146,-6.9289,472.2746],[108.5154,-6.9307,465.5498],[108.5271,-6.9355,404.3197]]]]}}