{"type":"Feature","properties":{"GID_3":"IDN.22.11.6_1","GID_0":"IDN","country":"Indonesia","GID_1":"IDN.22_1","province":"PapuaBarat","NL_NAME_1":"NA","GID_2":"IDN.22.11_1","county":"TelukWondama","NL_NAME_2":"NA","city":"Roon","VARNAME_3":"NA","NL_NAME_3":"NA","TYPE_3":"Distrik","ENGTYPE_3":"District","CC_3":"9103041","HASC_3":"NA","name":"Roon.city"},
"geometry":{"type": "MultiPolygon","coordinates": [[[[134.5342,-2.4365,13.4632],[134.532,-2.4368,0.0],[134.5307,-2.4387,0.0],[134.5372,-2.4377,0.0],[134.5342,-2.4365,13.4632]]],
[[[134.5608,-2.411,95.5003],[134.5612,-2.4047,0.0],[134.5642,-2.4036,0.0],[134.5734,-2.4054,0.0],[134.575,-2.4041,4.9459],[134.5745,-2.3992,33.7891],[134.5766,-2.3985,0.0],[134.5792,-2.3983,0.0],[134.5833,-2.4024,0.0],[134.5854,-2.4027,0.0],[134.5875,-2.4007,0.0],[134.5885,-2.3938,63.1408],[134.5863,-2.3845,57.4481],[134.5844,-2.383,139.2849],[134.5804,-2.3847,125.0451],[134.5782,-2.3838,64.4746],[134.5781,-2.3755,18.849],[134.5721,-2.3633,69.2891],[134.5722,-2.3556,23.568],[134.5759,-2.3421,0.0],[134.5732,-2.3365,90.2153],[134.5731,-2.3312,55.8063],[134.5771,-2.3193,0.0],[134.5693,-2.3112,0.0],[134.573,-2.2922,20.621],[134.5706,-2.2848,29.5286],[134.5651,-2.2836,55.2963],[134.5628,-2.2836,37.1017],[134.5619,-2.286,58.4933],[134.5645,-2.2955,1.4874],[134.5606,-2.2995,0.0],[134.5624,-2.3016,2.991],[134.562,-2.3051,56.4826],[134.5601,-2.3062,42.4341],[134.5627,-2.321,0.0],[134.56,-2.3259,10.6068],[134.5512,-2.3334,13.9557],[134.5522,-2.3367,0.0],[134.5649,-2.3387,0.0],[134.5684,-2.3433,0.0],[134.5687,-2.3471,16.4125],[134.5656,-2.3529,12.6192],[134.5597,-2.3533,60.2906],[134.5578,-2.3551,0.0],[134.5608,-2.3585,0.0],[134.5623,-2.3638,0.0],[134.5598,-2.3696,21.5029],[134.558,-2.3712,4.2818],[134.5553,-2.3711,21.4509],[134.5509,-2.3689,97.7131],[134.5443,-2.3693,38.6947],[134.5367,-2.3671,37.9536],[134.5322,-2.3677,37.1803],[134.5294,-2.3698,149.3277],[134.5237,-2.3667,77.1456],[134.5114,-2.3671,8.6251],[134.5043,-2.362,29.9029],[134.5022,-2.3665,0.0],[134.5049,-2.3714,0.0],[134.504,-2.3768,0.0],[134.5072,-2.3784,0.0],[134.5108,-2.3837,0.0],[134.5205,-2.3859,12.8944],[134.52,-2.3882,35.7085],[134.5098,-2.3874,36.8856],[134.5073,-2.3892,0.0],[134.5088,-2.3983,0.0],[134.5128,-2.4033,0.0],[134.5181,-2.4049,0.0],[134.5245,-2.4032,0.0],[134.5294,-2.4049,0.0],[134.5291,-2.4104,0.0],[134.5337,-2.4152,0.0],[134.5514,-2.4136,0.0],[134.5615,-2.4178,3.8847],[134.5509,-2.4224,16.3437],[134.5459,-2.4217,4.0757],[134.5423,-2.4267,84.6746],[134.5323,-2.4279,39.7678],[134.5314,-2.4306,0.0],[134.5338,-2.4331,0.0],[134.5413,-2.4343,0.0],[134.5461,-2.4381,0.0],[134.555,-2.4381,0.0],[134.5621,-2.4436,0.0],[134.5642,-2.4436,0.0],[134.5683,-2.4353,0.0],[134.5739,-2.4352,0.0],[134.5766,-2.4335,0.0],[134.5762,-2.4196,42.3886],[134.5673,-2.4168,49.1614],[134.5608,-2.411,95.5003]]],
[[[134.5186,-2.4366,0.0],[134.5175,-2.4385,0.0],[134.5222,-2.4406,0.0],[134.5276,-2.4374,0.0],[134.5221,-2.4343,39.2729],[134.5186,-2.4366,0.0]]],
[[[134.5181,-2.4286,0.0],[134.5209,-2.4277,0.0],[134.5226,-2.4255,3.0592],[134.5193,-2.4254,0.0],[134.5181,-2.4286,0.0]]],
[[[134.5276,-2.3544,0.0],[134.5276,-2.352,27.5643],[134.5184,-2.3448,85.5989],[134.5124,-2.345,11.43],[134.5072,-2.3474,92.6925],[134.5036,-2.3439,65.142],[134.5006,-2.3503,0.0],[134.5009,-2.3524,0.0],[134.5044,-2.354,0.0],[134.5102,-2.3548,0.0],[134.5148,-2.353,0.0],[134.5191,-2.3545,0.0],[134.5214,-2.3533,0.0],[134.5241,-2.3556,0.0],[134.5276,-2.3544,0.0]]],
[[[134.4639,-2.3139,0.0],[134.4618,-2.3179,0.0],[134.4627,-2.3258,0.0],[134.4688,-2.329,0.0],[134.4717,-2.3287,0.0],[134.4766,-2.3164,0.0],[134.4863,-2.3116,0.0],[134.491,-2.3074,0.0],[134.4915,-2.3013,0.0],[134.4861,-2.2982,0.0],[134.4823,-2.2986,0.0],[134.466,-2.3107,0.0],[134.4639,-2.3139,0.0]]],
[[[134.476,-2.2293,0.0],[134.4719,-2.2377,0.0],[134.472,-2.242,0.0],[134.4753,-2.2443,0.0],[134.4783,-2.2413,0.0],[134.4872,-2.2243,0.0],[134.4947,-2.2165,0.0],[134.4951,-2.2139,0.0],[134.4934,-2.2116,0.0],[134.4828,-2.2023,0.0],[134.4777,-2.2126,0.0],[134.4777,-2.2255,0.0],[134.476,-2.2293,0.0]]],
[[[134.5448,-2.3519,20.9911],[134.5421,-2.3535,0.0],[134.5477,-2.3554,0.0],[134.5499,-2.3547,0.0],[134.5487,-2.3526,2.6972],[134.5448,-2.3519,20.9911]]],
[[[134.5184,-2.3009,21.0387],[134.5243,-2.3134,0.0],[134.5318,-2.3107,0.0],[134.5329,-2.3088,0.0],[134.5317,-2.3062,111.2947],[134.5256,-2.3017,88.8956],[134.5184,-2.3009,21.0387]]],
[[[134.7702,-2.2113,0.0],[134.7683,-2.2082,4.5322],[134.7655,-2.2084,0.0],[134.7679,-2.2138,0.0],[134.7699,-2.2136,0.0],[134.7702,-2.2113,0.0]]],
[[[134.7402,-2.1568,8.3497],[134.7443,-2.1604,0.0],[134.7467,-2.1599,0.0],[134.7478,-2.1578,0.0],[134.7391,-2.1479,3.9373],[134.7368,-2.1486,15.5548],[134.7402,-2.1568,8.3497]]],
[[[134.7225,-2.0756,15.6746],[134.7229,-2.0827,9.5711],[134.7268,-2.0857,0.0],[134.7288,-2.0836,0.0],[134.7276,-2.0808,31.4219],[134.7287,-2.0742,0.0],[134.7249,-2.0724,10.2613],[134.7225,-2.0756,15.6746]]],
[[[134.721,-2.0659,0.0],[134.7217,-2.0638,0.0],[134.7176,-2.063,4.3781],[134.7167,-2.0651,0.0],[134.721,-2.0659,0.0]]],
[[[134.7319,-2.0464,12.9298],[134.7369,-2.0519,4.6432],[134.7408,-2.0526,3.7801],[134.7455,-2.0488,0.0],[134.7465,-2.0452,0.0],[134.7446,-2.0302,0.0],[134.7419,-2.0282,3.1904],[134.7407,-2.0186,0.0],[134.7387,-2.0168,7.1393],[134.7284,-2.0224,8.6248],[134.7253,-2.026,4.8602],[134.7297,-2.0352,0.0],[134.7319,-2.0464,12.9298]]],
[[[134.6994,-1.9859,0.8631],[134.7059,-1.9902,0.0],[134.7026,-1.9839,1.9737],[134.6984,-1.9835,0.0],[134.6994,-1.9859,0.8631]]],
[[[134.7033,-1.9767,0.0],[134.7011,-1.9759,0.0],[134.7008,-1.9799,0.0],[134.7032,-1.9804,0.0],[134.7033,-1.9767,0.0]]]]}}