{"type":"Feature","properties":{"GID_3":"IDN.12.11.13_1","GID_0":"IDN","country":"Indonesia","GID_1":"IDN.12_1","province":"KalimantanBarat","NL_NAME_1":"NA","GID_2":"IDN.12.11_1","county":"Sanggau","NL_NAME_2":"NA","city":"TayanHilir","VARNAME_3":"NA","NL_NAME_3":"NA","TYPE_3":"Kecamatan","ENGTYPE_3":"Sub-district","CC_3":"6105150","HASC_3":"NA","name":"Tayan_Hilir.city"},
"geometry":{"type": "MultiPolygon","coordinates": [[[[109.9005,-0.1234,11.1505],[109.9012,-0.1292,11.8469],[109.9055,-0.1361,13.2041],[109.9206,-0.1461,13.8427],[109.9147,-0.15,14.4552],[109.9209,-0.1519,14.6938],[109.9317,-0.1483,10.2059],[109.9389,-0.1434,5.0974],[109.9395,-0.1395,19.6122],[109.9532,-0.1235,10.9171],[109.9659,-0.1016,23.1187],[109.9748,-0.0813,16.603],[109.9936,-0.0668,2.75],[110.0053,-0.0601,3.0],[110.0311,-0.0482,6.8221],[110.0387,-0.0463,12.3798],[110.1265,-0.0444,3.0],[110.1454,-0.0479,3.0],[110.1533,-0.0535,6.951],[110.1599,-0.0606,59.876],[110.1914,-0.0981,14.3381],[110.2253,-0.0753,49.8811],[110.228,-0.0704,19.4909],[110.2315,-0.0566,14.3329],[110.236,-0.0528,18.8742],[110.2515,-0.0495,20.5578],[110.2993,-0.0529,70.207],[110.3098,-0.0451,33.7137],[110.3164,-0.0378,22.9632],[110.3276,-0.0348,37.267],[110.353,-0.0324,59.5035],[110.3718,-0.022,44.4857],[110.3852,-0.0182,46.1674],[110.3897,-0.0148,54.1755],[110.3938,-0.0054,70.3935],[110.3915,0.0108,77.7717],[110.3934,0.0209,72.3732],[110.3978,0.0295,49.6385],[110.3963,0.0328,42.5817],[110.3898,0.0381,48.1336],[110.389,0.0434,44.3464],[110.3905,0.0513,49.5206],[110.3872,0.0553,55.9488],[110.3836,0.0654,54.0781],[110.3733,0.0646,52.0505],[110.3643,0.0692,51.4598],[110.3554,0.0708,54.0241],[110.3509,0.0704,52.1721],[110.3471,0.0662,55.6799],[110.3268,0.0625,38.4192],[110.301,0.0615,29.6091],[110.2963,0.0595,31.3621],[110.2883,0.0606,27.5308],[110.284,0.0642,21.4436],[110.2764,0.0782,25.5441],[110.2742,0.1075,24.6478],[110.2702,0.1148,20.3817],[110.2811,0.126,28.1978],[110.2853,0.1258,25.7068],[110.2864,0.1272,27.7816],[110.2896,0.1378,30.07],[110.2957,0.1403,25.4988],[110.297,0.1423,31.302],[110.2978,0.1493,28.0613],[110.306,0.1529,25.6178],[110.3078,0.1552,21.0071],[110.3176,0.174,23.9787],[110.317,0.1754,23.9787],[110.308,0.175,21.3278],[110.3039,0.1733,25.4228],[110.2932,0.1755,17.1625],[110.2896,0.1788,15.4537],[110.2872,0.1792,21.3517],[110.2864,0.1773,22.3155],[110.283,0.1788,23.5513],[110.2824,0.177,23.9515],[110.2748,0.1805,23.1595],[110.268,0.1805,19.2632],[110.2621,0.1766,21.6969],[110.2597,0.1775,21.8806],[110.2561,0.1732,31.5287],[110.2495,0.173,23.2133],[110.2462,0.1696,22.6878],[110.2429,0.169,24.0201],[110.2424,0.1649,26.0785],[110.2372,0.1611,16.5633],[110.2326,0.1507,19.2546],[110.2303,0.1525,40.6226],[110.2168,0.1472,23.468],[110.221,0.14,18.1355],[110.2188,0.1354,19.4254],[110.2204,0.1307,17.2576],[110.2171,0.1279,17.6671],[110.2176,0.1259,12.4422],[110.2155,0.1258,16.7221],[110.2102,0.1188,14.17],[110.2108,0.1165,18.0774],[110.2169,0.1183,20.7273],[110.2146,0.1107,16.0604],[110.2123,0.1095,19.8393],[110.2143,0.1075,17.4246],[110.2128,0.1033,18.2305],[110.2113,0.1007,21.8333],[110.2052,0.0978,23.2188],[110.2052,0.0953,20.9362],[110.2105,0.094,20.9627],[110.2113,0.0912,13.7522],[110.2064,0.0918,15.7387],[110.2087,0.0879,18.2658],[110.2046,0.0853,17.509],[110.2054,0.0831,12.3712],[110.1989,0.0822,24.1356],[110.2033,0.0812,19.3807],[110.2054,0.078,15.6278],[110.2035,0.0774,15.6278],[110.2024,0.0737,10.0065],[110.2011,0.0757,18.8325],[110.1986,0.0752,12.9448],[110.2017,0.0683,13.1555],[110.1985,0.0674,21.9174],[110.1939,0.0707,20.0139],[110.1918,0.0668,13.1097],[110.1871,0.0664,12.5992],[110.1871,0.0618,15.0318],[110.1857,0.0618,10.8894],[110.1845,0.0642,17.6562],[110.1814,0.0615,12.0662],[110.1809,0.0646,17.4329],[110.1785,0.0649,15.8231],[110.1776,0.0631,12.4968],[110.1728,0.062,13.3155],[110.1718,0.0603,11.5531],[110.1699,0.0633,13.0825],[110.164,0.0632,12.1161],[110.1638,0.0671,17.9888],[110.1582,0.0631,13.386],[110.1571,0.0672,18.7273],[110.1539,0.0643,16.9828],[110.1549,0.0621,10.4198],[110.1512,0.0612,12.4246],[110.1504,0.0633,13.8222],[110.1528,0.0647,16.9828],[110.1508,0.0675,21.7268],[110.1492,0.066,19.9052],[110.1433,0.0665,15.4021],[110.1432,0.0713,15.5017],[110.1294,0.0753,23.8331],[110.1185,0.0844,28.5285],[110.1121,0.0845,90.9639],[110.11,0.0859,96.0636],[110.1012,0.1062,345.2321],[110.0843,0.1174,145.0366],[110.0773,0.1135,55.7203],[110.0715,0.1153,108.056],[110.0669,0.1193,227.6291],[110.0627,0.1268,77.6557],[110.0573,0.1254,74.7431],[110.0501,0.1202,41.1202],[110.0311,0.1261,248.6274],[110.0262,0.1307,401.0023],[110.0253,0.1394,793.1908],[110.0228,0.1438,708.5706],[110.0128,0.1459,480.851],[110.0074,0.1487,311.7774],[109.9988,0.155,138.5866],[109.9924,0.1651,44.8649],[109.9687,0.1688,31.3717],[109.9618,0.1687,36.6915],[109.9504,0.1655,33.8465],[109.9341,0.1524,27.3202],[109.9201,0.1345,28.4038],[109.9182,0.1161,36.9281],[109.9129,0.1074,30.8522],[109.9027,0.0987,61.9474],[109.8963,0.0967,37.6317],[109.8769,0.0952,21.1189],[109.8608,0.0759,19.0566],[109.8592,0.0691,22.3592],[109.8608,0.0512,35.0343],[109.8599,0.0465,38.6132],[109.8641,0.0384,97.1779],[109.8563,0.025,173.6185],[109.8381,0.0253,25.2989],[109.8347,0.0217,14.9024],[109.8418,0.0,89.8699],[109.8478,-0.0459,25.9201],[109.8602,-0.0567,19.5579],[109.8664,-0.0659,21.8748],[109.8734,-0.0707,11.717],[109.875,-0.0807,14.4889],[109.8795,-0.0866,13.6976],[109.8904,-0.0967,15.2323],[109.895,-0.1032,15.2434],[109.9037,-0.1069,15.2194],[109.9005,-0.1234,11.1505]]]]}}