{"type":"Feature","properties":{"GID_3":"IDN.21.4.15_1","GID_0":"IDN","country":"Indonesia","GID_1":"IDN.21_1","province":"NusaTenggaraTimur","NL_NAME_1":"NA","GID_2":"IDN.21.4_1","county":"FloresTimur","NL_NAME_2":"NA","city":"TanjungBunga","VARNAME_3":"NA","NL_NAME_3":"NA","TYPE_3":"Kecamatan","ENGTYPE_3":"Sub-district","CC_3":"5309020","HASC_3":"NA","name":"Tanjung_Bunga.city"},
"geometry":{"type": "MultiPolygon","coordinates": [[[[122.8203,-8.1911,12.9035],[122.8228,-8.1949,0.0],[122.8328,-8.1932,0.0],[122.8379,-8.1882,4.3702],[122.8414,-8.188,0.0],[122.8454,-8.1849,0.0],[122.8471,-8.1813,1.477],[122.8475,-8.1862,0.0],[122.8499,-8.1887,0.0],[122.8557,-8.188,0.0],[122.8625,-8.1824,2.9933],[122.863,-8.1791,1.5428],[122.8661,-8.1762,3.4678],[122.8715,-8.1801,0.0],[122.8763,-8.1786,1.617],[122.8821,-8.1807,3.0788],[122.8839,-8.1766,4.0804],[122.8895,-8.175,3.2689],[122.8972,-8.179,5.6478],[122.9008,-8.1759,6.6412],[122.9013,-8.1798,0.0],[122.9206,-8.195,1.3435],[122.9229,-8.195,0.0],[122.9237,-8.1932,2.0966],[122.9249,-8.1946,0.0],[122.9254,-8.192,3.382],[122.9319,-8.1953,0.6938],[122.9377,-8.1926,6.3993],[122.9392,-8.1936,17.2769],[122.9385,-8.1982,0.0],[122.9427,-8.201,53.5765],[122.948,-8.1969,13.2727],[122.9569,-8.1964,9.6821],[122.9596,-8.1939,12.8351],[122.9625,-8.195,0.0],[122.9683,-8.1878,0.0],[122.9684,-8.182,1.3309],[122.9715,-8.1742,12.2634],[122.9719,-8.162,1.6609],[122.9732,-8.1606,7.8829],[122.9721,-8.1515,2.2923],[122.9736,-8.1502,6.1262],[122.972,-8.1501,6.1262],[122.9736,-8.1422,13.8315],[122.9722,-8.1329,0.0],[122.9672,-8.1281,1.0263],[122.9619,-8.128,20.4005],[122.955,-8.1206,18.9528],[122.9418,-8.1158,2.2708],[122.9408,-8.1125,7.3761],[122.9353,-8.1087,2.9592],[122.9166,-8.1021,5.4138],[122.9072,-8.095,25.5677],[122.8993,-8.0917,66.7],[122.8962,-8.0879,0.0],[122.8915,-8.0872,56.4511],[122.8878,-8.083,24.9708],[122.8855,-8.0762,0.0],[122.8699,-8.0683,60.7204],[122.8671,-8.0636,10.1066],[122.8507,-8.075,38.4806],[122.8443,-8.0702,16.0745],[122.842,-8.0735,0.0],[122.8461,-8.0765,0.0],[122.8457,-8.0791,0.8446],[122.839,-8.0818,8.2839],[122.8307,-8.0964,7.8572],[122.8179,-8.0955,4.1978],[122.8166,-8.0966,29.0237],[122.8145,-8.0952,0.0],[122.8101,-8.0997,21.2556],[122.8025,-8.1012,0.0],[122.8037,-8.103,19.3589],[122.803,-8.1049,1.7277],[122.7971,-8.109,6.7181],[122.7907,-8.1059,0.0],[122.7895,-8.1035,0.0],[122.7861,-8.107,5.2275],[122.7824,-8.1082,15.9236],[122.7805,-8.1142,52.4566],[122.7818,-8.1207,18.0775],[122.7783,-8.1362,0.0],[122.7824,-8.1405,4.0043],[122.7849,-8.1503,9.5029],[122.7824,-8.1518,3.9567],[122.7816,-8.1569,21.6604],[122.7762,-8.1641,0.0],[122.7618,-8.1781,0.0],[122.7595,-8.1942,0.0],[122.7511,-8.1976,0.0],[122.7467,-8.2039,8.6641],[122.7404,-8.2077,0.0],[122.7322,-8.2156,4.8166],[122.7301,-8.2196,15.8557],[122.7307,-8.2245,5.7573],[122.734,-8.228,0.0],[122.7417,-8.2289,10.321],[122.7496,-8.226,20.0949],[122.7556,-8.2301,0.0],[122.7624,-8.225,0.0],[122.7668,-8.2264,1.2427],[122.7697,-8.2318,0.0],[122.7756,-8.2312,23.7283],[122.7815,-8.2356,2.0843],[122.784,-8.2343,12.6018],[122.7878,-8.2355,0.0],[122.7924,-8.2259,13.7474],[122.7972,-8.2236,4.2381],[122.7971,-8.2149,8.8865],[122.7994,-8.2075,5.8036],[122.8091,-8.1983,3.5804],[122.8196,-8.1946,0.0],[122.8203,-8.1911,12.9035]]]]}}