{"type":"Feature","properties":{"GID_3":"IDN.32.4.10_1","GID_0":"IDN","country":"Indonesia","GID_1":"IDN.32_1","province":"SumateraUtara","NL_NAME_1":"NA","GID_2":"IDN.32.4_1","county":"DeliSerdang","NL_NAME_2":"NA","city":"LabuhanDeli","VARNAME_3":"NA","NL_NAME_3":"NA","TYPE_3":"Kecamatan","ENGTYPE_3":"Sub-district","CC_3":"1212250","HASC_3":"NA","name":"Labuhan_Deli.city"},
"geometry":{"type": "MultiPolygon","coordinates": [[[[98.6123,3.6649,11.5401],[98.6097,3.6592,21.0954],[98.6205,3.6517,16.7124],[98.6264,3.6442,11.4468],[98.6576,3.6441,15.1202],[98.656,3.6692,10.9041],[98.6575,3.6703,11.5645],[98.6578,3.675,8.746],[98.6516,3.6746,9.2222],[98.6486,3.6834,8.075],[98.6333,3.6837,5.9832],[98.6339,3.6907,5.053],[98.6318,3.6996,3.7231],[98.6136,3.7015,4.6371],[98.615,3.6756,8.6604],[98.6123,3.6649,11.5401]]],
[[[98.6279,3.8631,2.7571],[98.6365,3.8706,3.6141],[98.6775,3.8924,5.7853],[98.6839,3.8936,5.6585],[98.6823,3.8983,4.0289],[98.6702,3.9094,0.0],[98.6684,3.9094,0.0],[98.665,3.9042,0.6888],[98.661,3.9046,2.767],[98.6608,3.9078,5.4019],[98.6573,3.9051,3.1719],[98.6508,3.905,6.1426],[98.6457,3.8967,0.5],[98.6411,3.8954,4.5835],[98.6355,3.8842,2.0962],[98.619,3.8833,5.476],[98.609,3.8665,4.9336],[98.6059,3.8663,5.07],[98.604,3.8691,1.3519],[98.6004,3.8674,1.6301],[98.6006,3.864,1.8285],[98.6064,3.8558,2.562],[98.606,3.8537,2.0073],[98.5986,3.8481,2.5578],[98.6014,3.8415,2.5852],[98.616,3.8507,1.9846],[98.6279,3.8631,2.7571]]],
[[[98.7093,3.7707,0.6835],[98.707,3.7726,0.0],[98.7041,3.7667,0.8597],[98.7021,3.7508,0.0],[98.7375,3.7423,2.1282],[98.7412,3.7401,1.5176],[98.7448,3.7419,1.1422],[98.7475,3.7563,3.9138],[98.7509,3.7643,0.7623],[98.7485,3.7664,0.0],[98.744,3.7684,0.0],[98.7309,3.7694,0.7301],[98.7253,3.7732,3.2656],[98.7189,3.7717,3.0206],[98.716,3.7677,2.4559],[98.7093,3.7707,0.6835]]]]}}