{"type":"Feature","properties":{"GID_3":"IDN.1.1.8_1","GID_0":"IDN","country":"Indonesia","GID_1":"IDN.1_1","province":"Aceh","NL_NAME_1":"NA","GID_2":"IDN.1.1_1","county":"AcehBaratDaya","NL_NAME_2":"NA","city":"Susoh","VARNAME_3":"NA","NL_NAME_3":"NA","TYPE_3":"Kecamatan","ENGTYPE_3":"Sub-district","CC_3":"1112040","HASC_3":"NA","name":"Susoh.city"},
"geometry":{"type": "MultiPolygon","coordinates": [[[[96.8549,3.7033,7.5104],[96.8503,3.709,5.4523],[96.8531,3.7143,4.8347],[96.8514,3.7182,2.486],[96.8387,3.7356,11.476],[96.8355,3.7368,10.835],[96.8294,3.7328,7.867],[96.821,3.7363,2.7971],[96.8167,3.7329,1.8513],[96.8138,3.7353,2.2972],[96.811,3.7324,6.148],[96.8083,3.7373,8.2175],[96.8053,3.738,5.6435],[96.8081,3.7419,2.727],[96.8043,3.7439,2.8554],[96.8024,3.7479,5.7675],[96.7884,3.7572,2.5843],[96.7856,3.7517,1.924],[96.7873,3.7482,4.3414],[96.7827,3.7416,2.7085],[96.7811,3.735,0.0],[96.7901,3.7266,0.0],[96.7949,3.7241,0.0],[96.8079,3.7251,3.4088],[96.8108,3.722,0.6591],[96.8119,3.7172,0.7443],[96.8205,3.7158,1.8903],[96.8345,3.707,0.0],[96.8537,3.7011,2.0905],[96.8549,3.7033,7.5104]]],
[[[96.8036,3.7213,0.0],[96.8034,3.7179,0.0],[96.8067,3.7181,0.0],[96.8068,3.7209,0.0],[96.8036,3.7213,0.0]]]]}}