{"type":"Feature","properties":{"GID_3":"IDN.5.6.2_1","GID_0":"IDN","country":"Indonesia","GID_1":"IDN.5_1","province":"Bengkulu","NL_NAME_1":"NA","GID_2":"IDN.5.6_1","county":"Kepahiang","NL_NAME_2":"NA","city":"KabaWetan","VARNAME_3":"NA","NL_NAME_3":"NA","TYPE_3":"Kecamatan","ENGTYPE_3":"Sub-district","CC_3":"1708060","HASC_3":"NA","name":"Kaba_Wetan.city"},
"geometry":{"type": "MultiPolygon","coordinates": [[[[102.5889,-3.6238,623.5685],[102.5926,-3.6249,636.8738],[102.6001,-3.6216,677.7451],[102.6086,-3.6287,679.9348],[102.6122,-3.6261,720.1304],[102.6145,-3.6166,795.929],[102.6134,-3.6072,882.6682],[102.6151,-3.605,891.3792],[102.6261,-3.601,997.5322],[102.6317,-3.603,1108.9971],[102.6399,-3.6024,1085.5155],[102.6435,-3.6049,1038.9603],[102.6637,-3.608,1053.6664],[102.667,-3.6073,1057.3391],[102.6596,-3.5963,1268.824],[102.6604,-3.5845,1244.3926],[102.6698,-3.5709,1179.7517],[102.6724,-3.5642,1123.739],[102.6767,-3.561,1102.8479],[102.6776,-3.5541,1110.571],[102.6808,-3.5481,1115.3861],[102.6775,-3.5484,1148.4514],[102.6825,-3.5451,1143.7196],[102.6848,-3.5396,1121.7196],[102.6634,-3.5383,1245.9689],[102.6615,-3.5421,1261.8374],[102.655,-3.5407,1305.1128],[102.6375,-3.5326,1516.5762],[102.6307,-3.5231,1801.2173],[102.6282,-3.5164,1708.5381],[102.6246,-3.5164,1715.7883],[102.601,-3.5259,1737.6863],[102.5975,-3.5426,1587.5718],[102.5859,-3.5522,1078.538],[102.5873,-3.5572,914.1896],[102.5851,-3.5636,847.5947],[102.579,-3.5644,871.1295],[102.5779,-3.568,805.9604],[102.5743,-3.5686,799.9635],[102.574,-3.5711,782.5374],[102.5706,-3.5727,768.2156],[102.5629,-3.581,706.2315],[102.5553,-3.5834,668.0314],[102.5513,-3.5901,640.5463],[102.5524,-3.5915,634.8013],[102.5499,-3.5932,631.6818],[102.5541,-3.5957,644.3047],[102.5546,-3.5993,629.2257],[102.5607,-3.6054,600.0757],[102.5645,-3.614,555.3625],[102.5761,-3.6146,636.3417],[102.5844,-3.6224,620.8478],[102.5889,-3.6238,623.5685]]]]}}