{"type":"Feature","properties":{"GID_3":"IDN.10.16.3_1","GID_0":"IDN","country":"Indonesia","GID_1":"IDN.10_1","province":"JawaTengah","NL_NAME_1":"NA","GID_2":"IDN.10.16_1","county":"KotaPekalongan","NL_NAME_2":"NA","city":"PekalonganTimur","VARNAME_3":"NA","NL_NAME_3":"NA","TYPE_3":"Kecamatan","ENGTYPE_3":"Sub-district","CC_3":"3375020","HASC_3":"NA","name":"Pekalongan_Timur.city"},
"geometry":{"type": "MultiPolygon","coordinates": [[[[109.6943,-6.9124,7.8663],[109.6979,-6.9118,4.3518],[109.698,-6.9104,3.9103],[109.7009,-6.9094,4.4098],[109.701,-6.907,4.3733],[109.7053,-6.9043,5.273],[109.7057,-6.9018,3.9418],[109.7038,-6.9013,3.2567],[109.7033,-6.8991,3.474],[109.7068,-6.8943,2.5385],[109.7068,-6.892,3.0814],[109.7011,-6.8901,3.0074],[109.7022,-6.8849,1.739],[109.6951,-6.8811,0.7654],[109.6941,-6.8849,1.3478],[109.6913,-6.8859,1.3232],[109.6898,-6.8849,1.3382],[109.6905,-6.8791,1.0502],[109.6882,-6.8782,1.827],[109.6805,-6.8779,3.7775],[109.6782,-6.8811,4.5847],[109.6734,-6.8798,6.6969],[109.6705,-6.8857,5.8909],[109.673,-6.8855,6.4611],[109.6732,-6.8929,6.8655],[109.677,-6.8959,7.4193],[109.6755,-6.8987,6.012],[109.6776,-6.8996,6.8211],[109.6778,-6.9023,7.0451],[109.6752,-6.9046,7.5021],[109.6793,-6.9069,7.2104],[109.681,-6.9038,7.2337],[109.6834,-6.9038,6.0295],[109.6843,-6.909,3.5109],[109.6856,-6.9086,4.127],[109.6865,-6.911,3.778],[109.6943,-6.9124,7.8663]]]]}}