{"type":"Feature","properties":{"GID_3":"IDN.13.11.2_1","GID_0":"IDN","country":"Indonesia","GID_1":"IDN.13_1","province":"KalimantanSelatan","NL_NAME_1":"NA","GID_2":"IDN.13.11_1","county":"TanahBumbu","NL_NAME_2":"NA","city":"Batulicin","VARNAME_3":"NA","NL_NAME_3":"NA","TYPE_3":"Kecamatan","ENGTYPE_3":"Sub-district","CC_3":"6310050","HASC_3":"NA","name":"Batulicin.city"},
"geometry":{"type": "MultiPolygon","coordinates": [[[[116.0127,-3.4763,3.9758],[116.0137,-3.4738,0.0],[116.0119,-3.4645,0.0],[116.0065,-3.4477,0.8224],[116.0085,-3.4416,0.0],[116.0025,-3.4422,3.7763],[115.9968,-3.4392,2.6199],[116.0014,-3.439,2.1825],[115.9994,-3.4367,2.0815],[116.0012,-3.4326,2.5292],[115.9932,-3.4292,1.943],[115.9917,-3.4306,2.5196],[115.976,-3.427,4.2027],[115.9766,-3.4152,2.8133],[115.9754,-3.4134,3.8252],[115.9691,-3.4098,5.2677],[115.9644,-3.4134,8.1785],[115.9584,-3.4087,6.1415],[115.9553,-3.4058,4.7982],[115.9552,-3.4002,6.8087],[115.931,-3.3791,6.177],[115.9293,-3.3893,6.8909],[115.9272,-3.3907,9.1707],[115.927,-3.3933,6.1825],[115.9348,-3.3971,8.3652],[115.937,-3.402,5.055],[115.9348,-3.4052,6.9479],[115.9349,-3.4139,7.9478],[115.9281,-3.4256,4.5591],[115.9158,-3.4229,4.1743],[115.9094,-3.4143,5.6893],[115.9061,-3.4159,11.282],[115.9035,-3.4217,8.8488],[115.8961,-3.4257,17.6223],[115.893,-3.4307,5.7325],[115.8928,-3.4447,11.2891],[115.8913,-3.4492,6.2841],[115.8457,-3.4513,13.4042],[115.8732,-3.4634,2.034],[115.8945,-3.4948,4.2455],[115.9014,-3.501,3.8313],[115.912,-3.5048,11.6579],[115.9162,-3.5091,8.5589],[115.9406,-3.5057,17.4418],[115.9653,-3.5078,4.4394],[115.9806,-3.5191,1.1171],[115.9928,-3.5222,0.0],[115.9987,-3.5071,0.0],[116.0067,-3.4944,0.0],[116.015,-3.4849,0.0],[116.0151,-3.4782,0.0],[116.0127,-3.4763,3.9758]]],
[[[116.0258,-3.4571,7.5497],[116.0281,-3.4583,0.0],[116.0353,-3.4494,0.0],[116.0335,-3.4387,0.0],[116.041,-3.4256,0.0],[116.0405,-3.4214,5.2164],[116.0293,-3.4231,13.6419],[116.0196,-3.4313,5.7468],[116.0165,-3.4377,1.6926],[116.0161,-3.4442,0.9204],[116.0176,-3.4489,2.2325],[116.0232,-3.456,15.6201],[116.0258,-3.4571,7.5497]]],
[[[116.0362,-3.442,0.0],[116.0382,-3.4417,0.0],[116.0385,-3.4361,0.0],[116.0358,-3.4387,4.6576],[116.0362,-3.442,0.0]]]]}}