{"type":"Feature","properties":{"GID_3":"IDN.10.26.3_1","GID_0":"IDN","country":"Indonesia","GID_1":"IDN.10_1","province":"JawaTengah","NL_NAME_1":"NA","GID_2":"IDN.10.26_1","county":"Rembang","NL_NAME_2":"NA","city":"Kaliori","VARNAME_3":"NA","NL_NAME_3":"NA","TYPE_3":"Kecamatan","ENGTYPE_3":"Sub-district","CC_3":"3317090","HASC_3":"NA","name":"Kaliori.city"},
"geometry":{"type": "MultiPolygon","coordinates": [[[[111.239,-6.7579,22.4573],[111.2507,-6.7554,19.3483],[111.2532,-6.7573,20.7151],[111.252,-6.7601,21.3589],[111.255,-6.7607,22.4309],[111.2597,-6.7582,20.9122],[111.2647,-6.761,23.1648],[111.2643,-6.7524,15.6764],[111.2679,-6.7489,17.5608],[111.275,-6.7485,14.5008],[111.2744,-6.7443,12.5433],[111.2762,-6.7432,14.329],[111.2826,-6.7507,20.4568],[111.2941,-6.7514,26.2327],[111.2973,-6.75,22.9951],[111.2982,-6.7469,25.5576],[111.3035,-6.75,23.543],[111.3059,-6.7534,27.1477],[111.312,-6.7561,28.7911],[111.3143,-6.7547,30.3481],[111.318,-6.7469,23.9425],[111.3182,-6.7403,19.2726],[111.3261,-6.7433,20.9738],[111.3277,-6.7419,17.8617],[111.3275,-6.7384,18.6687],[111.3293,-6.737,15.1238],[111.3332,-6.7375,13.5189],[111.3372,-6.734,20.048],[111.3362,-6.7345,20.048],[111.3355,-6.7318,18.4836],[111.3345,-6.7333,17.12],[111.3326,-6.7327,16.9431],[111.3325,-6.7305,15.8586],[111.3309,-6.7299,15.6464],[111.332,-6.7287,15.8246],[111.329,-6.7281,14.9057],[111.3313,-6.7258,14.0553],[111.3295,-6.7216,13.0036],[111.3239,-6.7282,15.9535],[111.3184,-6.7263,15.9029],[111.3179,-6.7198,13.3809],[111.3147,-6.7204,11.716],[111.3143,-6.7238,12.2801],[111.312,-6.7234,14.0617],[111.313,-6.7179,9.8564],[111.309,-6.7118,5.2748],[111.3136,-6.7058,6.3137],[111.3144,-6.7,4.9175],[111.3192,-6.6994,4.7778],[111.3186,-6.6974,1.0487],[111.307,-6.6972,2.0717],[111.2899,-6.6872,0.0],[111.2695,-6.691,1.1769],[111.2604,-6.6888,1.5388],[111.2585,-6.6871,0.0],[111.2511,-6.6916,1.0],[111.243,-6.6923,1.7658],[111.2341,-6.6867,0.3225],[111.2346,-6.6982,3.2384],[111.236,-6.6995,3.2384],[111.2368,-6.6981,2.3325],[111.2385,-6.7002,2.2085],[111.2365,-6.7026,2.9342],[111.2396,-6.7032,7.9412],[111.238,-6.7039,4.0181],[111.2399,-6.7054,5.9102],[111.2388,-6.7086,6.1538],[111.242,-6.709,9.654],[111.2403,-6.7103,6.5642],[111.2389,-6.7094,6.1538],[111.2391,-6.7133,6.5376],[111.2424,-6.7151,7.3492],[111.2404,-6.7146,6.4154],[111.2404,-6.7181,10.7424],[111.2379,-6.7201,13.2294],[111.2394,-6.7224,14.2298],[111.2377,-6.7223,14.0385],[111.2358,-6.7264,12.7111],[111.2385,-6.7321,10.9531],[111.2364,-6.7366,15.8509],[111.2371,-6.7402,16.993],[111.2333,-6.7413,15.8381],[111.2348,-6.7434,17.0775],[111.2341,-6.7451,16.0241],[111.2358,-6.7454,16.6033],[111.2371,-6.7436,17.6981],[111.2385,-6.7455,17.4155],[111.237,-6.7466,16.6546],[111.2386,-6.7468,19.9203],[111.2387,-6.7497,18.543],[111.2338,-6.7525,19.8744],[111.2377,-6.7559,22.963],[111.2369,-6.7596,21.2872],[111.239,-6.7579,22.4573]]],
[[[111.2541,-6.6667,0.0],[111.2539,-6.6667,0.0],[111.2541,-6.6675,0.0],[111.2543,-6.6669,0.0],[111.2541,-6.6667,0.0]]],
[[[111.2586,-6.6664,0.0],[111.2584,-6.6669,0.0],[111.2598,-6.6668,0.0],[111.2592,-6.666,0.0],[111.2586,-6.6664,0.0]]],
[[[111.3262,-6.7474,25.9218],[111.3278,-6.7473,20.3766],[111.3279,-6.7445,18.8286],[111.3254,-6.7445,20.9738],[111.3262,-6.7474,25.9218]]],
[[[111.3038,-6.6749,0.0],[111.306,-6.676,0.0],[111.3076,-6.6745,0.0],[111.3055,-6.6733,0.0],[111.3038,-6.6749,0.0]]],
[[[111.3014,-6.6694,0.0],[111.3012,-6.6721,0.0],[111.3053,-6.6702,0.0],[111.3043,-6.6691,0.0],[111.3014,-6.6694,0.0]]],
[[[111.3126,-6.6672,0.0],[111.315,-6.6672,0.0],[111.3168,-6.6649,0.0],[111.3135,-6.6645,0.0],[111.3126,-6.6672,0.0]]],
[[[111.3049,-6.6596,0.0],[111.3051,-6.6608,0.0],[111.3066,-6.6602,0.0],[111.3063,-6.6582,0.0],[111.3057,-6.6581,0.0],[111.3049,-6.6596,0.0]]],
[[[111.3163,-6.6552,0.0],[111.3164,-6.6556,0.0],[111.3167,-6.6558,0.0],[111.3169,-6.655,0.0],[111.3163,-6.6552,0.0]]],
[[[111.2975,-6.6698,0.0],[111.2974,-6.672,0.0],[111.2995,-6.6728,0.0],[111.3001,-6.6703,0.0],[111.2975,-6.6698,0.0]]],
[[[111.30029999999999,-6.6664,0.0],[111.2994,-6.6677,0.0],[111.3013,-6.6681,0.0],[111.3022,-6.6669,0.0],[111.30029999999999,-6.6664,0.0]]],
[[[111.2991,-6.659,0.0],[111.2997,-6.6618,0.0],[111.3021,-6.6605,0.0],[111.3012,-6.6584,0.0],[111.2991,-6.659,0.0]]],
[[[111.2867,-6.6347,0.0],[111.287,-6.6343,0.0],[111.2869,-6.6334,0.0],[111.286,-6.6336,0.0],[111.2867,-6.6347,0.0]]]]}}