{"type":"Feature","properties":{"GID_3":"IDN.23.28.2_1","GID_0":"IDN","country":"Indonesia","GID_1":"IDN.23_1","province":"Papua","NL_NAME_1":"NA","GID_2":"IDN.23.28_1","county":"Yahukimo","NL_NAME_2":"NA","city":"Anggruk","VARNAME_3":"NA","NL_NAME_3":"NA","TYPE_3":"Distrik","ENGTYPE_3":"District","CC_3":"9416030","HASC_3":"NA","name":"Anggruk.city"},
"geometry":{"type": "MultiPolygon","coordinates": [[[[139.5497,-4.2152,2927.0637],[139.5462,-4.2029,2881.7261],[139.5383,-4.1906,2530.2622],[139.511,-4.1845,2838.2219],[139.497,-4.1748,2535.2141],[139.4896,-4.1577,2007.8408],[139.483,-4.159,2199.6743],[139.4462,-4.1583,1403.3865],[139.4336,-4.1596,978.4662],[139.4139,-4.1755,1822.005],[139.4059,-4.1773,1956.2207],[139.4114,-4.189,1894.5634],[139.4153,-4.2034,1384.4756],[139.4154,-4.2141,1695.3843],[139.4233,-4.2233,1960.3402],[139.4272,-4.2322,2140.6206],[139.4505,-4.2292,1972.5732],[139.4584,-4.2231,1681.0955],[139.4689,-4.2213,1797.3186],[139.4838,-4.2257,1970.6338],[139.5233,-4.2257,2313.9014],[139.5462,-4.2398,2578.0586],[139.5637,-4.2433,2969.9531],[139.5646,-4.2257,3100.8037],[139.5497,-4.2152,2927.0637]]]]}}