{"type":"Feature","properties":{"GID_3":"IDN.22.11.8_1","GID_0":"IDN","country":"Indonesia","GID_1":"IDN.22_1","province":"PapuaBarat","NL_NAME_1":"NA","GID_2":"IDN.22.11_1","county":"TelukWondama","NL_NAME_2":"NA","city":"Rumberpon","VARNAME_3":"NA","NL_NAME_3":"NA","TYPE_3":"Distrik","ENGTYPE_3":"District","CC_3":"9103070","HASC_3":"NA","name":"Rumberpon.city"},
"geometry":{"type": "MultiPolygon","coordinates": [[[[134.1468,-1.9433,0.0],[134.1474,-1.9453,24.4308],[134.1501,-1.9457,23.7519],[134.1483,-1.9413,24.7096],[134.1468,-1.9433,0.0]]],
[[[134.1747,-1.9159,5.7122],[134.173,-1.9122,19.2452],[134.1775,-1.9134,8.2614],[134.1819,-1.9108,6.33],[134.1858,-1.8922,3.8906],[134.1902,-1.8838,8.8352],[134.1911,-1.8884,30.9074],[134.1873,-1.9004,0.0],[134.1882,-1.9037,1.3539],[134.191,-1.9044,0.0],[134.1926,-1.9021,1.265],[134.2018,-1.8715,1.9525],[134.2013,-1.8672,21.6003],[134.2107,-1.8371,28.4319],[134.2148,-1.8295,7.5696],[134.2095,-1.8146,0.0],[134.2068,-1.8099,3.7348],[134.2048,-1.8095,0.0],[134.2005,-1.827,13.1026],[134.1993,-1.829,15.9488],[134.1967,-1.8267,11.101],[134.1989,-1.8073,0.0],[134.1952,-1.8013,4.1001],[134.1952,-1.7934,11.052],[134.207,-1.7817,4.3938],[134.2094,-1.7868,49.2179],[134.209,-1.7994,15.3546],[134.215,-1.7967,9.1336],[134.2215,-1.7892,9.9849],[134.2268,-1.7771,11.6301],[134.231,-1.7763,0.0],[134.234,-1.7635,0.0],[134.2376,-1.7571,29.7933],[134.2396,-1.7465,38.0781],[134.2264,-1.7354,0.0],[134.2217,-1.7341,5.2478],[134.2198,-1.7358,6.6132],[134.221,-1.74,0.0],[134.2198,-1.7426,2.2293],[134.2106,-1.7391,0.0],[134.2088,-1.7432,5.968],[134.2047,-1.7379,6.0193],[134.2023,-1.7382,3.8334],[134.2025,-1.7544,0.0],[134.1951,-1.7634,26.3564],[134.1829,-1.7834,1.2713],[134.18,-1.796,0.0],[134.1736,-1.8049,14.023],[134.159,-1.8195,0.0],[134.1517,-1.8224,0.0],[134.1481,-1.8291,26.7807],[134.1466,-1.8524,14.833],[134.1496,-1.8595,19.8718],[134.1499,-1.8678,7.128],[134.1469,-1.8802,6.9688],[134.1467,-1.8905,7.8598],[134.1426,-1.8962,4.0684],[134.1475,-1.9011,1.6009],[134.1368,-1.903,5.1133],[134.1353,-1.9084,18.625],[134.138,-1.9136,2.9626],[134.1445,-1.9094,5.4417],[134.146,-1.9117,22.1936],[134.1483,-1.9113,4.2169],[134.1505,-1.907,14.746],[134.1575,-1.9199,0.6849],[134.1594,-1.9347,0.0],[134.1641,-1.9421,41.6542],[134.165,-1.9498,7.5117],[134.1673,-1.9507,2.8006],[134.172,-1.9444,15.9372],[134.1695,-1.9337,37.3176],[134.1748,-1.9194,2.2541],[134.1747,-1.9159,5.7122]]],
[[[134.1342,-1.8885,0.0],[134.135,-1.8971,0.0],[134.1393,-1.8911,0.0],[134.1351,-1.8819,9.9858],[134.1328,-1.8863,0.0],[134.1342,-1.8885,0.0]]],
[[[134.2085,-1.803,11.3561],[134.2063,-1.8047,0.0],[134.2102,-1.8087,15.7618],[134.2106,-1.8045,1.7472],[134.2085,-1.803,11.3561]]],
[[[134.1968,-1.7538,0.0],[134.1978,-1.7571,0.0],[134.1997,-1.7555,0.0],[134.1998,-1.7495,0.0],[134.1976,-1.7494,0.0],[134.1968,-1.7538,0.0]]]]}}