{"type":"Feature","properties":{"GID_3":"IDN.34.1.1_1","GID_0":"IDN","country":"Indonesia","GID_1":"IDN.34_1","province":"KalimantanTimur","NL_NAME_1":"NA","GID_2":"IDN.34.1_1","county":"Balikpapan","NL_NAME_2":"NA","city":"BalikpapanBarat","VARNAME_3":"NA","NL_NAME_3":"NA","TYPE_3":"Kecamatan","ENGTYPE_3":"Sub-district","CC_3":"6471050","HASC_3":"NA","name":"Balikpapan_Barat.city"},
"geometry":{"type": "MultiPolygon","coordinates": [[[[116.8277,-1.2406,8.7538],[116.8298,-1.242,6.6501],[116.8325,-1.2415,9.9717],[116.8293,-1.2364,17.3172],[116.8343,-1.2276,43.0828],[116.8305,-1.2261,36.2457],[116.8308,-1.2174,25.7691],[116.8279,-1.2119,1.2383],[116.8366,-1.2069,0.4192],[116.8416,-1.2076,4.696],[116.8375,-1.2003,4.6279],[116.8388,-1.1983,9.6095],[116.8427,-1.1991,4.4877],[116.8419,-1.1957,7.314],[116.8434,-1.1949,7.314],[116.8433,-1.1927,4.2652],[116.8373,-1.1834,27.0756],[116.8413,-1.1812,26.9884],[116.8418,-1.1841,18.3754],[116.8461,-1.1833,5.6746],[116.8461,-1.1813,5.7556],[116.8488,-1.1816,4.4336],[116.8496,-1.179,9.4004],[116.837,-1.1672,6.3881],[116.8336,-1.1664,3.9555],[116.8382,-1.1626,4.3175],[116.837,-1.1588,3.4482],[116.8351,-1.1588,4.1898],[116.8393,-1.1573,5.1731],[116.8378,-1.1554,6.2312],[116.8359,-1.1569,4.3368],[116.8321,-1.1501,4.5472],[116.8336,-1.1482,4.9039],[116.8351,-1.1486,4.9039],[116.837,-1.1432,6.8462],[116.8423,-1.1364,36.3353],[116.8427,-1.1303,20.3899],[116.8507,-1.1121,22.8254],[116.8587,-1.1052,25.6324],[116.8613,-1.0957,40.9614],[116.8712,-1.0885,58.696],[116.8746,-1.0821,42.992],[116.8916,-1.0604,86.428],[116.8876,-1.0596,83.6567],[116.8841,-1.0558,62.1409],[116.8819,-1.0555,73.6566],[116.8678,-1.0593,93.2992],[116.8606,-1.0585,88.269],[116.8553,-1.0551,105.0225],[116.8465,-1.0532,114.9218],[116.845,-1.049,108.6452],[116.8393,-1.049,108.7986],[116.837,-1.0459,112.0158],[116.8336,-1.0501,93.2435],[116.8256,-1.0524,101.5294],[116.823,-1.0555,110.3682],[116.8176,-1.0547,99.7185],[116.8161,-1.0566,87.2851],[116.8127,-1.0547,100.8217],[116.8062,-1.0581,83.8023],[116.8043,-1.0532,90.0443],[116.7945,-1.0456,59.5616],[116.7867,-1.043,55.3725],[116.7819,-1.0396,71.6388],[116.7761,-1.0407,85.9661],[116.7732,-1.0456,48.8145],[116.7709,-1.0601,41.9678],[116.7654,-1.0703,53.3915],[116.7618,-1.071,62.5719],[116.7595,-1.0756,56.2549],[116.7496,-1.0714,23.7803],[116.742,-1.071,15.4415],[116.7395,-1.0738,0.5],[116.7297,-1.0665,0.5],[116.7268,-1.0756,0.5],[116.7315,-1.0861,0.5],[116.7162,-1.1098,0.5],[116.7238,-1.1208,32.2693],[116.7569,-1.1385,0.5],[116.7753,-1.1876,0.0],[116.7663,-1.2124,0.0],[116.7915,-1.2357,0.0],[116.8277,-1.2406,8.7538]]]]}}