{"type":"Feature","properties":{"GID_3":"IDN.23.28.25_1","GID_0":"IDN","country":"Indonesia","GID_1":"IDN.23_1","province":"Papua","NL_NAME_1":"NA","GID_2":"IDN.23.28_1","county":"Yahukimo","NL_NAME_2":"NA","city":"Ninia","VARNAME_3":"NA","NL_NAME_3":"NA","TYPE_3":"Distrik","ENGTYPE_3":"District","CC_3":"9416020","HASC_3":"NA","name":"Ninia.city"},
"geometry":{"type": "MultiPolygon","coordinates": [[[[139.2982,-4.3728,2197.7961],[139.3068,-4.3811,1838.8976],[139.3393,-4.3958,2781.563],[139.3568,-4.4057,2479.6575],[139.3693,-4.3938,2761.6003],[139.3792,-4.3879,2670.2822],[139.3877,-4.3741,3302.99],[139.389,-4.3543,3003.3721],[139.3943,-4.3352,3131.2817],[139.4062,-4.3188,3526.0842],[139.4167,-4.3089,3269.5696],[139.391,-4.2931,2882.4607],[139.3864,-4.2799,2707.324],[139.3857,-4.2667,2680.6541],[139.3765,-4.2522,2990.6064],[139.3541,-4.2358,3449.9092],[139.3426,-4.2242,2517.918],[139.3189,-4.2326,3517.156],[139.3068,-4.2395,3523.2346],[139.2971,-4.2475,3710.3281],[139.2942,-4.2596,3588.2788],[139.2658,-4.2757,3615.803],[139.269,-4.2834,3554.5513],[139.3,-4.3131,2468.0369],[139.2934,-4.3197,2700.0142],[139.2848,-4.3348,2876.3862],[139.2779,-4.341,3045.8704],[139.2823,-4.3472,2828.2671],[139.2937,-4.3569,2421.0249],[139.297,-4.363,2175.5249],[139.2965,-4.3686,1986.3268],[139.2982,-4.3728,2197.7961]]]]}}