{"type":"Feature","properties":{"GID_3":"IDN.13.5.1_1","GID_0":"IDN","country":"Indonesia","GID_1":"IDN.13_1","province":"KalimantanSelatan","NL_NAME_1":"NA","GID_2":"IDN.13.5_1","county":"BaritoKuala","NL_NAME_2":"NA","city":"Alalak","VARNAME_3":"NA","NL_NAME_3":"NA","TYPE_3":"Kecamatan","ENGTYPE_3":"Sub-district","CC_3":"6304060","HASC_3":"NA","name":"Alalak.city"},
"geometry":{"type": "MultiPolygon","coordinates": [[[[114.5673,-3.2993,0.0],[114.566,-3.2725,1.7647],[114.5686,-3.2679,0.7185],[114.5752,-3.2701,3.0948],[114.5771,-3.277,2.7287],[114.583,-3.2736,1.6009],[114.5921,-3.279,1.8678],[114.5951,-3.2816,2.2451],[114.5967,-3.2875,3.8296],[114.602,-3.2895,1.4835],[114.6063,-3.2863,1.4292],[114.6059,-3.2811,2.5761],[114.6076,-3.2806,2.2474],[114.6151,-3.2811,4.3838],[114.6236,-3.2859,3.5299],[114.6263,-3.2799,5.9625],[114.6332,-3.2773,3.8152],[114.6359,-3.2711,2.307],[114.6429,-3.2651,4.7169],[114.6406,-3.2565,3.3557],[114.6362,-3.2539,2.6526],[114.6344,-3.247,2.3049],[114.6262,-3.241,2.8919],[114.6315,-3.2288,3.238],[114.6201,-3.2217,2.1697],[114.6353,-3.188,1.7769],[114.5857,-3.1638,4.0379],[114.5789,-3.1576,0.0],[114.5766,-3.1574,0.0],[114.5701,-3.1708,0.0],[114.5694,-3.194,0.0],[114.5642,-3.2091,0.0],[114.5575,-3.2185,0.6177],[114.5493,-3.2247,0.0],[114.5423,-3.2318,0.0],[114.541,-3.2351,0.0],[114.5518,-3.2544,0.0],[114.5551,-3.2653,0.0],[114.5597,-3.2938,0.0],[114.5557,-3.3165,0.0],[114.5596,-3.3208,0.0],[114.5646,-3.3104,1.2992],[114.5673,-3.2993,0.0]]]]}}