{"type":"Feature","properties":{"GID_3":"IDN.10.28.4_1","GID_0":"IDN","country":"Indonesia","GID_1":"IDN.10_1","province":"JawaTengah","NL_NAME_1":"NA","GID_2":"IDN.10.28_1","county":"Semarang","NL_NAME_2":"NA","city":"Banyubiru","VARNAME_3":"NA","NL_NAME_3":"NA","TYPE_3":"Kecamatan","ENGTYPE_3":"Sub-district","CC_3":"3322070","HASC_3":"NA","name":"Banyubiru.city"},
"geometry":{"type": "MultiPolygon","coordinates": [[[[110.449,-7.3393,522.6676],[110.4464,-7.3314,486.5065],[110.4444,-7.3313,475.6875],[110.4458,-7.3205,467.3069],[110.4443,-7.32,467.3069],[110.4452,-7.316,464.0666],[110.4425,-7.3146,463.7991],[110.4433,-7.3039,463.2453],[110.4385,-7.2959,462.6398],[110.4315,-7.2984,462.5488],[110.4294,-7.3028,462.4981],[110.4242,-7.3077,462.0],[110.4259,-7.3015,462.1332],[110.4232,-7.2989,462.0],[110.419,-7.2991,462.115],[110.4151,-7.2899,462.0],[110.4161,-7.286,462.5268],[110.4231,-7.2852,462.1925],[110.404,-7.2842,464.0974],[110.4012,-7.2835,464.2231],[110.401,-7.2811,463.8866],[110.397,-7.2805,464.133],[110.391,-7.2807,464.6353],[110.391,-7.2825,464.5609],[110.3876,-7.28,465.199],[110.3863,-7.2813,467.1235],[110.3837,-7.2803,467.2056],[110.3834,-7.2816,466.3059],[110.3851,-7.2822,467.1235],[110.3843,-7.2843,465.407],[110.3797,-7.288,466.1865],[110.3799,-7.2898,466.8875],[110.3848,-7.2904,466.1783],[110.3846,-7.2919,466.076],[110.3812,-7.2918,467.0326],[110.3809,-7.2973,523.9911],[110.3837,-7.3027,601.7844],[110.3879,-7.3011,566.1699],[110.3874,-7.3063,766.045],[110.3896,-7.311,908.4265],[110.3839,-7.316,1043.0531],[110.3783,-7.3243,1164.8298],[110.3775,-7.3342,1323.3098],[110.3791,-7.3346,1351.2305],[110.3804,-7.3377,1325.0502],[110.3786,-7.3366,1325.0502],[110.3776,-7.3384,1351.2264],[110.3768,-7.3453,1329.1726],[110.3793,-7.3466,1356.2788],[110.3815,-7.3541,1230.3547],[110.3851,-7.3525,1295.2728],[110.3907,-7.353,1378.2822],[110.3993,-7.3602,1813.8418],[110.4164,-7.3551,1191.6003],[110.4218,-7.3501,1017.4026],[110.4257,-7.3498,747.265],[110.4272,-7.3512,755.9786],[110.4293,-7.3462,667.3433],[110.4303,-7.3505,1016.7545],[110.4334,-7.3539,1148.1627],[110.4332,-7.3582,1021.0304],[110.4362,-7.3606,935.9096],[110.4408,-7.3589,901.3521],[110.4452,-7.3518,753.1052],[110.4487,-7.3515,723.4562],[110.4507,-7.3494,679.676],[110.4514,-7.3448,632.9864],[110.449,-7.3393,522.6676]]]]}}