{"type":"Feature","properties":{"GID_3":"IDN.10.20.9_1","GID_0":"IDN","country":"Indonesia","GID_1":"IDN.10_1","province":"JawaTengah","NL_NAME_1":"NA","GID_2":"IDN.10.20_1","county":"Magelang","NL_NAME_2":"NA","city":"Mungkid","VARNAME_3":"NA","NL_NAME_3":"NA","TYPE_3":"Kecamatan","ENGTYPE_3":"Sub-district","CC_3":"3308080","HASC_3":"NA","name":"Mungkid.city"},
"geometry":{"type": "MultiPolygon","coordinates": [[[[110.2347,-7.6285,207.754],[110.2374,-7.6288,201.3019],[110.2398,-7.6252,221.5637],[110.2398,-7.6194,221.1108],[110.2365,-7.6103,233.9718],[110.2458,-7.5999,251.7562],[110.2468,-7.5958,261.6885],[110.2494,-7.5935,268.8181],[110.2489,-7.5917,270.8036],[110.2543,-7.5874,278.996],[110.2568,-7.5826,293.7818],[110.2691,-7.5746,326.4346],[110.2779,-7.563,360.2574],[110.2792,-7.5645,360.2574],[110.2806,-7.5631,363.1415],[110.2789,-7.5594,373.3344],[110.2819,-7.5561,385.7401],[110.2799,-7.5502,383.757],[110.2837,-7.5495,391.523],[110.2815,-7.5459,385.0463],[110.2799,-7.5458,385.0463],[110.2812,-7.5449,385.0463],[110.2792,-7.5427,382.5252],[110.2803,-7.5368,390.7712],[110.2768,-7.5341,394.2166],[110.2722,-7.5345,383.5457],[110.2688,-7.527,362.9059],[110.2652,-7.5296,350.9146],[110.2617,-7.5293,341.4029],[110.2596,-7.5315,341.8424],[110.2576,-7.5305,332.1209],[110.2529,-7.5318,316.515],[110.2489,-7.5387,323.054],[110.2457,-7.5387,299.5203],[110.2427,-7.5416,300.8571],[110.241,-7.5417,284.3843],[110.2417,-7.539,289.7733],[110.2397,-7.538,300.4204],[110.2407,-7.5337,294.4865],[110.2375,-7.5344,307.1224],[110.2326,-7.5392,314.347],[110.2294,-7.5385,301.1949],[110.2243,-7.541,291.4896],[110.2247,-7.5447,302.4508],[110.2225,-7.5503,300.7011],[110.2239,-7.5567,292.9547],[110.2276,-7.5621,277.7424],[110.2284,-7.5681,263.1143],[110.2261,-7.5695,269.3207],[110.226,-7.5729,262.2329],[110.2218,-7.5748,258.7792],[110.2232,-7.5786,255.799],[110.2216,-7.5833,251.8215],[110.2158,-7.5849,248.6304],[110.2179,-7.5975,243.3681],[110.2158,-7.6003,232.311],[110.2221,-7.603,237.2801],[110.221,-7.6071,227.6278],[110.223,-7.6083,230.6935],[110.2247,-7.6075,228.0898],[110.2258,-7.6123,223.7351],[110.2282,-7.6122,219.3385],[110.2314,-7.6146,223.5529],[110.2308,-7.62,209.8164],[110.2358,-7.6227,216.3215],[110.2356,-7.625,212.6369],[110.2324,-7.6267,216.6237],[110.2347,-7.6285,207.754]]]]}}