{"type":"Feature","properties":{"GID_3":"IDN.20.1.13_1","GID_0":"IDN","country":"Indonesia","GID_1":"IDN.20_1","province":"NusaTenggaraBarat","NL_NAME_1":"NA","GID_2":"IDN.20.1_1","county":"Bima","NL_NAME_2":"NA","city":"Sape","VARNAME_3":"NA","NL_NAME_3":"NA","TYPE_3":"Kecamatan","ENGTYPE_3":"Sub-district","CC_3":"5206060","HASC_3":"NA","name":"Sape.city"},
"geometry":{"type": "MultiPolygon","coordinates": [[[[118.9104,-8.6003,572.9939],[118.9141,-8.5977,602.53],[118.9212,-8.6036,430.4999],[118.932,-8.6042,245.559],[118.9391,-8.6072,241.1318],[118.9479,-8.6076,435.2928],[118.948,-8.5945,435.4566],[118.9548,-8.5902,311.3445],[118.9598,-8.5789,114.6129],[118.9669,-8.5722,258.3069],[118.9757,-8.5694,119.6897],[118.9764,-8.5741,14.8087],[118.9797,-8.5789,9.6304],[118.9787,-8.593,7.4878],[118.9862,-8.5938,5.4281],[118.9911,-8.6002,18.2372],[118.9951,-8.5993,6.883],[118.995,-8.5847,5.1167],[119.0049,-8.5815,7.0102],[119.015,-8.5851,1.5286],[119.0167,-8.5836,1.2018],[119.0207,-8.5849,0.0],[119.0243,-8.5841,1.953],[119.0241,-8.5802,2.5264],[119.0265,-8.5781,0.9811],[119.0229,-8.5794,8.7624],[119.0231,-8.578,0.5375],[119.0179,-8.5758,0.852],[119.0221,-8.5747,0.0],[119.021,-8.573,0.2939],[119.0166,-8.5759,0.8603],[119.0151,-8.5754,0.8603],[119.0141,-8.571,1.5351],[119.0151,-8.5662,1.9943],[119.0176,-8.5658,1.9128],[119.0178,-8.5635,0.5217],[119.0134,-8.5592,8.164],[119.0176,-8.5551,0.6033],[119.0236,-8.5578,6.3662],[119.0255,-8.5507,4.524],[119.0227,-8.5495,0.0],[119.0202,-8.5506,0.7712],[119.0198,-8.5461,0.0],[119.0183,-8.5482,3.2728],[119.0152,-8.5488,9.0302],[119.0148,-8.5467,3.5393],[119.0177,-8.545,4.3761],[119.0182,-8.5427,11.8821],[119.0159,-8.5405,8.7554],[119.0135,-8.5405,3.9945],[119.013,-8.5378,0.275],[119.0167,-8.5293,5.8247],[119.0182,-8.5289,7.0932],[119.0216,-8.5319,0.0],[119.0211,-8.5258,0.0],[119.0235,-8.5229,4.0925],[119.0311,-8.5276,3.6654],[119.0346,-8.5257,2.2122],[119.0368,-8.5265,0.0],[119.0417,-8.5227,1.0638],[119.0396,-8.5205,0.0],[119.0404,-8.5181,0.0],[119.044,-8.5186,2.1445],[119.0484,-8.5149,1.3726],[119.0511,-8.515,3.0002],[119.053,-8.511,4.3311],[119.05,-8.5081,1.0433],[119.0501,-8.5057,1.1565],[119.0402,-8.5052,21.3899],[119.0396,-8.504,0.0],[119.0396,-8.5013,0.0],[119.0414,-8.5,10.9633],[119.0476,-8.4994,4.0971],[119.0444,-8.4923,10.9287],[119.0488,-8.4866,2.1421],[119.047,-8.4831,5.1203],[119.0481,-8.4798,3.2911],[119.0476,-8.4772,4.8541],[119.045,-8.4748,37.5356],[119.0375,-8.4738,0.8023],[119.0368,-8.4714,2.5727],[119.0396,-8.47,0.0],[119.0349,-8.467,12.3594],[119.0364,-8.4647,0.0],[119.0436,-8.463,0.0],[119.0497,-8.4658,0.0],[119.0532,-8.4652,6.8788],[119.0535,-8.464,7.2184],[119.0506,-8.464,4.6366],[119.0466,-8.4603,1.8253],[119.052,-8.4539,4.2329],[119.0509,-8.4518,20.843],[119.0492,-8.4514,15.2392],[119.0435,-8.4556,2.1221],[119.039,-8.4552,2.7745],[119.0447,-8.4505,9.4831],[119.0406,-8.4512,0.8879],[119.0388,-8.4479,18.1964],[119.0436,-8.4438,9.5501],[119.0466,-8.438,0.9274],[119.0398,-8.4443,44.8509],[119.0312,-8.4466,87.7737],[119.0224,-8.4537,43.8134],[119.0026,-8.4615,136.2043],[118.9996,-8.465,172.7566],[118.9637,-8.4721,636.4944],[118.9409,-8.4832,804.5714],[118.9239,-8.4828,1398.0842],[118.933,-8.4971,995.2867],[118.9356,-8.5295,453.2145],[118.9257,-8.5421,444.2237],[118.9141,-8.5508,387.8195],[118.8972,-8.5604,438.0173],[118.893,-8.5674,238.3237],[118.8887,-8.5712,193.0648],[118.8874,-8.575,215.2429],[118.8844,-8.5772,362.1352],[118.8818,-8.585,203.3975],[118.8785,-8.5867,255.1371],[118.8765,-8.5911,227.854],[118.8705,-8.591,271.5618],[118.8659,-8.5943,289.9016],[118.8668,-8.5967,304.0202],[118.8642,-8.5974,315.7737],[118.8645,-8.6002,296.8429],[118.8629,-8.6005,296.8429],[118.8604,-8.6051,377.5719],[118.861,-8.6146,450.5807],[118.865,-8.6188,580.6162],[118.8784,-8.612,521.2563],[118.8938,-8.6093,575.6952],[118.8991,-8.605,574.2981],[118.9028,-8.6046,527.5681],[118.9061,-8.6013,594.143],[118.9104,-8.6003,572.9939]]],
[[[119.0304,-8.5794,0.0],[119.0298,-8.5795,0.0],[119.0307,-8.5805,0.0],[119.0307,-8.5798,0.0],[119.0304,-8.5794,0.0]]],
[[[119.0347,-8.578,1.962],[119.0339,-8.578,1.962],[119.0336,-8.5787,1.962],[119.0348,-8.5788,1.962],[119.0347,-8.578,1.962]]],
[[[119.04,-8.5761,0.0],[119.0375,-8.5712,0.0],[119.0371,-8.5732,17.8113],[119.0347,-8.5717,4.8875],[119.0322,-8.573,0.9267],[119.0347,-8.576,2.6263],[119.04,-8.5761,0.0]]],
[[[119.04,-8.5723,0.0],[119.0395,-8.5731,0.0],[119.0407,-8.5732,0.0],[119.0406,-8.5722,0.0],[119.04,-8.5723,0.0]]],
[[[119.0278,-8.569,0.0],[119.0279,-8.5696,0.0],[119.0287,-8.5697,0.0],[119.0283,-8.5687,0.0],[119.0278,-8.569,0.0]]],
[[[119.0402,-8.5682,1.5312],[119.0401,-8.5691,1.5312],[119.041,-8.5691,1.5312],[119.0412,-8.568,1.5312],[119.0402,-8.5682,1.5312]]],
[[[119.0398,-8.5589,0.0],[119.0401,-8.5599,0.0],[119.0407,-8.56,0.0],[119.041,-8.559,0.0],[119.0398,-8.5589,0.0]]],
[[[119.0449,-8.5877,0.0],[119.0468,-8.5903,0.0],[119.049,-8.5872,0.0],[119.0478,-8.5852,0.0],[119.0449,-8.5877,0.0]]],
[[[119.0472,-8.5578,6.1407],[119.0439,-8.5567,0.0],[119.043,-8.5612,0.0],[119.0383,-8.5658,5.7722],[119.0395,-8.5672,4.2439],[119.042,-8.5651,6.7786],[119.0436,-8.5684,3.759],[119.0467,-8.5686,18.2521],[119.0425,-8.5712,0.0],[119.0432,-8.5751,0.0],[119.0462,-8.5742,17.4742],[119.0473,-8.5756,3.5539],[119.0442,-8.5763,9.562],[119.0427,-8.5798,0.0],[119.0434,-8.582,0.0],[119.0481,-8.5774,5.9078],[119.0531,-8.5761,24.4508],[119.0559,-8.5711,0.0],[119.0558,-8.5664,15.7771],[119.0532,-8.5663,10.6457],[119.0547,-8.5645,0.0],[119.0536,-8.5621,30.8494],[119.0472,-8.5578,6.1407]]],
[[[119.0446,-8.5557,0.0],[119.0447,-8.556,0.0],[119.045,-8.5558,0.0],[119.0448,-8.5557,0.0],[119.0446,-8.5557,0.0]]],
[[[119.0442,-8.5549,0.0],[119.0442,-8.5552,0.0],[119.0444,-8.5552,0.0],[119.0445,-8.555,0.0],[119.0442,-8.5549,0.0]]],
[[[119.2648,-8.5501,6.4451],[119.2655,-8.5508,6.4451],[119.267,-8.5487,7.3405],[119.2653,-8.5465,4.5315],[119.2645,-8.5475,4.5315],[119.2648,-8.5501,6.4451]]],
[[[119.2436,-8.5485,0.0],[119.2441,-8.549,0.0],[119.2446,-8.549,0.0],[119.2445,-8.548,0.0],[119.2436,-8.5485,0.0]]],
[[[119.2636,-8.5472,0.0],[119.2638,-8.5478,4.5315],[119.2642,-8.5474,4.5315],[119.2639,-8.5471,4.5315],[119.2636,-8.5472,0.0]]],
[[[119.2437,-8.5473,1.3464],[119.2446,-8.547,1.3464],[119.2428,-8.5467,0.0],[119.243,-8.5471,0.0],[119.2437,-8.5473,1.3464]]],
[[[119.2308,-8.5379,0.4107],[119.2316,-8.5389,0.0],[119.2322,-8.5372,0.4107],[119.2318,-8.5372,0.4107],[119.2308,-8.5379,0.4107]]],
[[[119.0541,-8.51,0.0],[119.0539,-8.5104,0.0],[119.0541,-8.5107,0.0],[119.0546,-8.5102,0.0],[119.0541,-8.51,0.0]]],
[[[119.2792,-8.4677,2.6944],[119.2792,-8.4675,2.6944],[119.279,-8.4677,2.6944],[119.2791,-8.4677,2.6944],[119.2792,-8.4677,2.6944]]],
[[[119.2708,-8.4633,0.0],[119.2705,-8.4638,0.0],[119.2706,-8.4641,0.0],[119.271,-8.4631,0.0],[119.2708,-8.4633,0.0]]],
[[[119.2712,-8.4614,0.0],[119.2711,-8.4617,0.0],[119.2712,-8.4621,0.0],[119.2715,-8.4615,0.0],[119.2712,-8.4614,0.0]]],
[[[119.0416,-8.5571,5.9366],[119.0428,-8.5578,5.9366],[119.0431,-8.5562,0.0],[119.0415,-8.5564,5.9366],[119.0416,-8.5571,5.9366]]],
[[[119.0443,-8.556,0.0],[119.0442,-8.556,0.0],[119.044,-8.5561,0.0],[119.0443,-8.5562,0.0],[119.0443,-8.556,0.0]]],
[[[119.0171,-8.5316,0.0],[119.0168,-8.5316,0.0],[119.0168,-8.5318,0.0],[119.017,-8.5318,0.0],[119.0171,-8.5316,0.0]]],
[[[119.2957,-8.4574,0.4649],[119.2955,-8.4577,0.4649],[119.2957,-8.4579,0.4649],[119.296,-8.4574,0.4649],[119.2957,-8.4574,0.4649]]],
[[[119.2963,-8.4573,0.4649],[119.2962,-8.4572,0.4649],[119.2962,-8.4573,0.4649],[119.2963,-8.4574,0.4649],[119.2963,-8.4573,0.4649]]],
[[[119.2964,-8.4571,0.4649],[119.2968,-8.4572,0.0],[119.2966,-8.4569,0.4649],[119.2961,-8.4571,0.4649],[119.2964,-8.4571,0.4649]]],
[[[119.3166,-8.4567,0.0],[119.3164,-8.4569,0.0],[119.3165,-8.4571,0.0],[119.3168,-8.4569,0.0],[119.3166,-8.4567,0.0]]],
[[[119.3163,-8.4557,0.0],[119.3163,-8.4565,0.0],[119.3168,-8.4565,0.0],[119.3166,-8.4552,0.0],[119.3163,-8.4557,0.0]]],
[[[119.3279,-8.443,0.0],[119.3279,-8.4432,0.0],[119.3284,-8.4435,0.0],[119.328,-8.443,0.0],[119.3279,-8.443,0.0]]],
[[[119.3275,-8.4421,0.0],[119.3273,-8.442,1.6833],[119.3271,-8.4421,1.6833],[119.3274,-8.4423,1.6833],[119.3275,-8.4421,0.0]]],
[[[119.3299,-8.4338,1.3402],[119.3272,-8.4321,0.0],[119.327,-8.4323,0.0],[119.3305,-8.4357,0.0],[119.3299,-8.4338,1.3402]]],
[[[119.3358,-8.4308,0.0],[119.3358,-8.4307,0.0],[119.3356,-8.4307,0.0],[119.3356,-8.4308,0.0],[119.3358,-8.4308,0.0]]],
[[[119.2748,-8.3994,0.0],[119.2756,-8.3929,0.0],[119.272,-8.3966,72.2716],[119.2633,-8.4009,0.0],[119.2675,-8.4009,33.6561],[119.2688,-8.4025,2.7949],[119.2687,-8.4112,9.0353],[119.2707,-8.4143,0.0],[119.2659,-8.4244,51.1273],[119.2661,-8.4272,16.3562],[119.2695,-8.4271,11.402],[119.2708,-8.4312,0.0],[119.2654,-8.4378,2.866],[119.272,-8.4354,2.5023],[119.2743,-8.4371,29.924],[119.2677,-8.4456,0.0],[119.2715,-8.4494,9.5481],[119.2732,-8.454,19.9647],[119.2748,-8.454,3.0503999999999998],[119.2787,-8.448,3.4292],[119.281,-8.4488,0.3639],[119.2797,-8.4592,0.0],[119.2776,-8.4631,0.0],[119.2797,-8.4678,2.6944],[119.2807,-8.4682,0.0],[119.2813,-8.4638,5.4318],[119.2839,-8.4624,24.4387],[119.2898,-8.4628,53.3098],[119.2933,-8.4588,1.2394],[119.2932,-8.4557,0.0],[119.2955,-8.4525,15.5796],[119.2954,-8.4438,1.9382],[119.3012,-8.4405,0.0],[119.3013,-8.4339,0.0],[119.2995,-8.4321,0.0],[119.3008,-8.4298,0.0],[119.3029,-8.4296,7.079],[119.307,-8.4329,65.4493],[119.3094,-8.4498,1.3321],[119.3102,-8.4505,1.3321],[119.3115,-8.4488,0.0],[119.3114,-8.4456,0.6224],[119.3139,-8.4448,0.0],[119.3169,-8.4491,0.0],[119.3163,-8.4548,0.0],[119.3207,-8.455,0.1246],[119.318,-8.4487,0.0],[119.3198,-8.4458,0.0],[119.3182,-8.4408,0.0],[119.3204,-8.4384,5.0178],[119.3176,-8.4328,20.1545],[119.322,-8.4344,19.6305],[119.3257,-8.4419,1.6833],[119.3269,-8.4417,1.6833],[119.3192,-8.428,29.4762],[119.3205,-8.4273,15.1671],[119.3259,-8.4311,0.0],[119.3232,-8.4256,40.824],[119.3254,-8.4242,16.9251],[119.3278,-8.428,0.0],[119.3339,-8.4292,0.4486],[119.3353,-8.4309,0.0],[119.3347,-8.4279,0.0],[119.3309,-8.4254,13.2011],[119.3283,-8.4212,0.0],[119.328,-8.4148,0.0],[119.3179,-8.4095,0.0],[119.318,-8.4062,0.0],[119.3194,-8.4031,0.0],[119.3219,-8.4027,0.0],[119.3212,-8.4013,37.6027],[119.3159,-8.3985,0.0],[119.3161,-8.4021,0.0],[119.3133,-8.4075,8.3019],[119.3074,-8.4095,3.4251],[119.2964,-8.4167,7.5372],[119.2831,-8.4192,0.0],[119.2768,-8.4152,5.3841],[119.2746,-8.4056,0.0],[119.2769,-8.4023,0.0],[119.2748,-8.3994,0.0]]]]}}