{"type":"Feature","properties":{"GID_3":"IDN.1.9.8_1","GID_0":"IDN","country":"Indonesia","GID_1":"IDN.1_1","province":"Aceh","NL_NAME_1":"NA","GID_2":"IDN.1.9_1","county":"AcehTenggara","NL_NAME_2":"NA","city":"DelengPokhisen","VARNAME_3":"NA","NL_NAME_3":"NA","TYPE_3":"Kecamatan","ENGTYPE_3":"Sub-district","CC_3":"1104053","HASC_3":"NA","name":"Deleng_Pokhisen.city"},
"geometry":{"type": "MultiPolygon","coordinates": [[[[97.8104,3.4991,180.9838],[97.8107,3.497,179.5892],[97.8141,3.4968,180.2949],[97.8289,3.499,177.3404],[97.8317,3.498,174.041],[97.837,3.5015,177.2142],[97.8441,3.5026,211.9884],[97.8478,3.5048,277.5635],[97.8533,3.5129,562.3047],[97.8728,3.512,1122.1547],[97.8841,3.5155,1401.0106],[97.8923,3.5202,1402.9268],[97.9031,3.5305,2116.3643],[97.9126,3.5338,2233.9844],[97.9123,3.5437,2172.9578],[97.9097,3.5502,2118.3286],[97.9017,3.559,2390.408],[97.8978,3.5603,2421.7224],[97.8924,3.5591,2374.3054],[97.8848,3.5611,2117.1201],[97.8706,3.5686,1970.8165],[97.8609,3.5656,1575.0503],[97.8527,3.5591,1078.2212],[97.8471,3.5591,985.9273],[97.8414,3.5543,1069.1799],[97.8349,3.5543,982.934],[97.8226,3.5413,512.512],[97.8065,3.5427,311.9468],[97.8039,3.5385,291.4087],[97.8047,3.5334,287.1635],[97.8153,3.5191,211.1204],[97.8129,3.5187,208.1494],[97.8128,3.5163,207.6749],[97.8109,3.5147,202.0048],[97.8114,3.5095,194.1165],[97.813,3.5082,193.8366],[97.8097,3.5058,189.2677],[97.8104,3.4991,180.9838]]]]}}