{"type":"Feature","properties":{"GID_3":"IDN.5.1.11_1","GID_0":"IDN","country":"Indonesia","GID_1":"IDN.5_1","province":"Bengkulu","NL_NAME_1":"NA","GID_2":"IDN.5.1_1","county":"BengkuluSelatan","NL_NAME_2":"NA","city":"UluManna","VARNAME_3":"NA","NL_NAME_3":"NA","TYPE_3":"Kecamatan","ENGTYPE_3":"Sub-district","CC_3":"1701062","HASC_3":"NA","name":"Ulu_Manna.city"},
"geometry":{"type": "MultiPolygon","coordinates": [[[[103.0285,-4.3531,75.9104],[103.0303,-4.3494,104.734],[103.0297,-4.344,79.1735],[103.0326,-4.3427,92.2491],[103.0286,-4.3397,110.8014],[103.0273,-4.3323,92.4997],[103.0309,-4.3259,97.9059],[103.0308,-4.3204,101.2389],[103.0343,-4.3204,119.2023],[103.0355,-4.3187,111.6829],[103.0395,-4.3204,110.6527],[103.0398,-4.3162,134.0158],[103.049,-4.3142,148.755],[103.0516,-4.3065,143.1708],[103.056,-4.3103,147.4253],[103.0592,-4.3074,173.541],[103.0624,-4.3089,193.4721],[103.068,-4.3073,174.8443],[103.0725,-4.3129,188.2868],[103.0777,-4.3149,214.2699],[103.0769,-4.3129,220.496],[103.0787,-4.3103,212.2431],[103.0804,-4.3116,246.4567],[103.0797,-4.3099,234.545],[103.0816,-4.3087,216.9955],[103.0807,-4.3071,219.3687],[103.0823,-4.3038,244.8503],[103.0779,-4.3001,244.8709],[103.081,-4.2976,228.8367],[103.0812,-4.2942,249.7057],[103.0851,-4.2941,260.587],[103.0858,-4.2919,259.1506],[103.0886,-4.2905,252.5893],[103.0933,-4.2907,281.3206],[103.0985,-4.2884,293.4834],[103.1057,-4.2741,408.1386],[103.1187,-4.2654,591.5064],[103.1186,-4.261,653.6411],[103.117,-4.2594,660.2391],[103.108,-4.2585,864.6566],[103.1026,-4.254,981.6926],[103.0969,-4.2517,853.244],[103.0936,-4.2528,820.8586],[103.0873,-4.2616,457.8254],[103.0835,-4.2643,511.0416],[103.0758,-4.2625,525.4908],[103.0705,-4.258,383.5826],[103.0673,-4.25,511.0372],[103.0677,-4.2407,733.8497],[103.0647,-4.2372,720.4405],[103.0586,-4.2342,760.7652],[103.0558,-4.2247,806.538],[103.0514,-4.22,808.8654],[103.0638,-4.2127,634.087],[103.0617,-4.2027,687.5346],[103.0623,-4.1983,773.2298],[103.0614,-4.196,786.011],[103.0558,-4.1932,828.7906],[103.0489,-4.1918,855.2785],[103.0458,-4.1878,859.3224],[103.0455,-4.1827,1075.0497],[103.0362,-4.1757,928.1813],[103.0109,-4.1916,330.8529],[103.0008,-4.2002,355.5704],[102.9909,-4.2025,248.6251],[102.9821,-4.221,151.5262],[102.9868,-4.2257,143.3367],[102.9859,-4.2295,91.7054],[102.9814,-4.2275,83.836],[102.9811,-4.2257,103.3256],[102.9777,-4.2287,83.0024],[102.9766,-4.2278,89.431],[102.9774,-4.2243,86.7793],[102.9744,-4.2219,98.0092],[102.9702,-4.2241,76.83],[102.9681,-4.2221,67.0742],[102.9658,-4.224,69.3603],[102.9643,-4.2229,72.285],[102.9625,-4.224,68.2376],[102.9592,-4.2303,83.9747],[102.953,-4.2325,74.6632],[102.9474,-4.255,80.642],[102.9475,-4.2697,83.9897],[102.9402,-4.2843,137.739],[102.9418,-4.2909,120.1501],[102.9405,-4.2983,88.5573],[102.9436,-4.3135,123.8085],[102.9428,-4.3166,96.8117],[102.9388,-4.3208,79.7051],[102.9328,-4.3235,79.2079],[102.9318,-4.3271,58.8793],[102.9298,-4.3284,86.6912],[102.9279,-4.3375,52.52],[102.9295,-4.3471,69.3851],[102.9286,-4.3592,130.0948],[102.9552,-4.3588,132.7252],[102.9623,-4.3555,111.1065],[102.9665,-4.3557,129.0503],[102.9689,-4.3565,120.3143],[102.9703,-4.3591,118.3238],[102.9726,-4.3577,161.4674],[102.9746,-4.3592,141.1813],[102.9778,-4.365,93.2698],[102.9806,-4.3611,103.585],[102.9798,-4.3594,101.7117],[102.9817,-4.3589,111.7878],[102.9814,-4.3552,104.7365],[102.9835,-4.3542,146.4644],[102.9892,-4.358,135.4384],[102.9904,-4.3568,113.5886],[102.994,-4.3607,142.8407],[102.9954,-4.3579,127.0814],[103.0081,-4.3586,140.0319],[103.0207,-4.3624,82.5785],[103.024,-4.365,70.2697],[103.0286,-4.3606,91.2494],[103.0285,-4.3531,75.9104]]]]}}