{"type":"Feature","properties":{"GID_3":"IDN.9.20.15_1","GID_0":"IDN","country":"Indonesia","GID_1":"IDN.9_1","province":"JawaBarat","NL_NAME_1":"NA","GID_2":"IDN.9.20_1","county":"Kuningan","NL_NAME_2":"NA","city":"Hantara","VARNAME_3":"NA","NL_NAME_3":"NA","TYPE_3":"Kecamatan","ENGTYPE_3":"Sub-district","CC_3":"3208031","HASC_3":"NA","name":"Hantara.city"},
"geometry":{"type": "MultiPolygon","coordinates": [[[[108.4496,-7.0852,755.1024],[108.4659,-7.0895,754.7157],[108.4762,-7.09,878.3618],[108.4767,-7.0862,670.2332],[108.4819,-7.0858,667.3558],[108.4864,-7.0777,526.7088],[108.494,-7.0716,532.6484],[108.4982,-7.0695,461.4327],[108.5044,-7.0722,398.4101],[108.5053,-7.0701,343.412],[108.5079,-7.0693,350.654],[108.5081,-7.0673,326.5585],[108.5075,-7.0657,318.9731],[108.4971,-7.0672,373.6198],[108.4889,-7.0603,268.7856],[108.4875,-7.0564,300.6677],[108.4854,-7.0559,276.0595],[108.4857,-7.052,255.7745],[108.483,-7.0506,270.369],[108.4759,-7.0529,297.7951],[108.4724,-7.0516,313.8363],[108.4659,-7.0444,448.1289],[108.4653,-7.0293,626.1944],[108.4583,-7.037,723.2262],[108.4508,-7.0408,690.709],[108.4493,-7.0457,465.9008],[108.4471,-7.0458,522.1302],[108.4463,-7.0479,501.9329],[108.4409,-7.0479,590.5634],[108.4347,-7.0454,822.2408],[108.425,-7.0462,939.5806],[108.4232,-7.0439,977.91],[108.4163,-7.0463,893.0544],[108.4175,-7.0479,910.9227],[108.4137,-7.0509,818.4771],[108.4115,-7.0554,811.5224],[108.4135,-7.058,771.9177],[108.4103,-7.0657,843.5497],[108.4116,-7.0661,870.8634],[108.4119,-7.0708,817.4404],[108.4209,-7.0783,595.6079],[108.4319,-7.0782,760.4349],[108.4496,-7.0852,755.1024]]]]}}