{"type":"Feature","properties":{"GID_3":"IDN.32.16.15_1","GID_0":"IDN","country":"Indonesia","GID_1":"IDN.32_1","province":"SumateraUtara","NL_NAME_1":"NA","GID_2":"IDN.32.16_1","county":"MandailingNatal","NL_NAME_2":"NA","city":"PanyabunganTimur","VARNAME_3":"NA","NL_NAME_3":"NA","TYPE_3":"Kecamatan","ENGTYPE_3":"Sub-district","CC_3":"1202054","HASC_3":"NA","name":"Panyabungan_Timur.city"},
"geometry":{"type": "MultiPolygon","coordinates": [[[[99.8282,0.7246,1678.2793],[99.8253,0.7359,1737.2823],[99.8261,0.7397,1839.5344],[99.8315,0.746,1700.7863],[99.8348,0.7575,1627.6796],[99.8436,0.7594,1644.1064],[99.8463,0.7657,1714.6251],[99.8431,0.7793,1612.593],[99.8468,0.7911,1293.5933],[99.8438,0.7976,1035.6228],[99.8459,0.8077,961.1968],[99.8448,0.8143,1099.9036],[99.8428,0.8169,1144.3],[99.8375,0.8185,1345.1611],[99.8344,0.827,1668.4795],[99.8272,0.8313,1726.3231],[99.8259,0.8337,1637.5574],[99.8198,0.8362,1627.8934],[99.8132,0.8469,1723.3281],[99.8057,0.85,1766.6802],[99.8004,0.8571,1935.2693],[99.7908,0.8545,1813.2393],[99.7842,0.8579,1924.9877],[99.7688,0.859,2105.5696],[99.7646,0.864,2158.085],[99.7594,0.8615,1994.2886],[99.7521,0.8663,1900.9353],[99.7446,0.8651,1867.9094],[99.7428,0.8747,1893.3369],[99.7331,0.8851,1853.4012],[99.7348,0.8903,1827.0199],[99.7329,0.8935,1912.1255],[99.7168,0.8774,1642.0071],[99.7007,0.8666,1641.9631],[99.687,0.8604,1514.1277],[99.6663,0.8481,1038.183],[99.6395,0.8404,631.0936],[99.6216,0.8374,695.8642],[99.614,0.8391,550.0609],[99.5964,0.8371,292.0924],[99.5875,0.8313,312.4932],[99.59,0.8259,360.9266],[99.6,0.815,285.2532],[99.6037,0.8081,530.1003],[99.6096,0.8056,528.8337],[99.633,0.7845,837.6199],[99.6359,0.7767,1122.2493],[99.6355,0.7692,1233.925],[99.6423,0.7647,1261.8574],[99.6484,0.7645,1309.9067],[99.6546,0.762,1320.592],[99.6623,0.7528,999.1422],[99.6666,0.7543,1231.9257],[99.68,0.7513,1160.9564],[99.6858,0.747,1049.9561],[99.6984,0.7454,978.1674],[99.7023,0.7379,959.236],[99.7088,0.7352,1019.6534],[99.7115,0.7315,1044.1556],[99.7243,0.7274,998.2027],[99.7477,0.711,1121.3716],[99.7707,0.7,1234.8625],[99.7871,0.6957,1427.402],[99.7936,0.6961,1454.1083],[99.8001,0.6975,1629.8467],[99.803,0.7027,1632.8409],[99.8069,0.7047,1691.8801],[99.8222,0.7012,1807.7454],[99.8314,0.697,1730.5042],[99.8342,0.7013,1680.011],[99.8352,0.709,1813.7803],[99.8297,0.7161,1720.6321],[99.8282,0.7246,1678.2793]]]]}}