{"type":"Feature","properties":{"GID_3":"IDN.20.4.8_1","GID_0":"IDN","country":"Indonesia","GID_1":"IDN.20_1","province":"NusaTenggaraBarat","NL_NAME_1":"NA","GID_2":"IDN.20.4_1","county":"LombokBarat","NL_NAME_2":"NA","city":"Lingsar","VARNAME_3":"NA","NL_NAME_3":"NA","TYPE_3":"Kecamatan","ENGTYPE_3":"Sub-district","CC_3":"5201051","HASC_3":"NA","name":"Lingsar.city"},
"geometry":{"type": "MultiPolygon","coordinates": [[[[116.1551,-8.5831,51.3354],[116.16,-8.5849,54.8253],[116.1603,-8.5888,54.5904],[116.1786,-8.5905,91.0759],[116.185,-8.5881,101.7018],[116.1859,-8.5896,107.984],[116.1865,-8.5883,105.8674],[116.1998,-8.5845,139.6081],[116.1995,-8.5803,139.084],[116.2094,-8.5755,159.6985],[116.2113,-8.5719,160.2824],[116.2211,-8.5688,182.3595],[116.226,-8.5623,203.4254],[116.2213,-8.5475,192.1342],[116.2287,-8.5423,205.9206],[116.2305,-8.5373,243.6607],[116.2393,-8.5316,291.6487],[116.241,-8.5234,302.7879],[116.244,-8.5208,309.8505],[116.2432,-8.5183,316.0466],[116.2457,-8.5173,327.2501],[116.2455,-8.5088,368.8049],[116.2479,-8.5044,400.7454],[116.247,-8.4991,453.1617],[116.2429,-8.4951,487.3572],[116.2448,-8.4897,512.0892],[116.2503,-8.4836,532.1763],[116.2565,-8.4795,571.9752],[116.2604,-8.4719,602.2875],[116.264,-8.4725,643.4836],[116.2701,-8.4633,686.0051],[116.2728,-8.4628,715.4288],[116.2742,-8.4589,777.1946],[116.2813,-8.4539,817.0491],[116.2813,-8.4504,822.4378],[116.278,-8.4434,802.5965],[116.2648,-8.4513,729.3718],[116.256,-8.4527,685.4789],[116.248,-8.4518,659.9017],[116.2448,-8.4537,698.8234],[116.2359,-8.4525,829.8426],[116.2299,-8.4557,935.3582],[116.2229,-8.4564,1124.6663],[116.2145,-8.4802,1344.4795],[116.2053,-8.4802,1453.0616],[116.1998,-8.4785,1287.8745],[116.1947,-8.4857,911.1637],[116.189,-8.4878,779.896],[116.1847,-8.4942,568.3008],[116.1764,-8.4973,512.9951],[116.1747,-8.5003,426.3737],[116.1684,-8.5008,412.0576],[116.1638,-8.5044,362.2767],[116.1631,-8.5108,306.4894],[116.1561,-8.5143,227.2837],[116.1552,-8.5179,192.0085],[116.1528,-8.518,179.1821],[116.1534,-8.5258,139.6259],[116.146,-8.5493,60.8498],[116.1378,-8.5543,36.3271],[116.1336,-8.5547,35.378],[116.1314,-8.5628,37.0094],[116.1355,-8.566,41.9808],[116.1428,-8.5656,50.408],[116.1445,-8.5696,57.4331],[116.1477,-8.5698,57.4202],[116.148,-8.5718,48.7627],[116.1503,-8.5715,50.2846],[116.1484,-8.5726,50.2846],[116.1502,-8.5757,52.5026],[116.1475,-8.5794,46.6267],[116.1478,-8.5824,40.8283],[116.1499,-8.5839,42.0227],[116.1551,-8.5831,51.3354]]]]}}