{"type":"Feature","properties":{"GID_3":"IDN.18.2.4_1","GID_0":"IDN","country":"Indonesia","GID_1":"IDN.18_1","province":"MalukuUtara","NL_NAME_1":"NA","GID_2":"IDN.18.2_1","county":"HalmaheraSelatan","NL_NAME_2":"NA","city":"BacanTimurSelatan","VARNAME_3":"NA","NL_NAME_3":"NA","TYPE_3":"Kecamatan","ENGTYPE_3":"Sub-district","CC_3":"8204041","HASC_3":"NA","name":"Bacan_Timur_Selatan.city"},
"geometry":{"type": "MultiPolygon","coordinates": [[[[127.8761,-0.8263,0.0],[127.8758,-0.8259,0.0],[127.8749,-0.8261,0.0],[127.8761,-0.8272,0.0],[127.8761,-0.8263,0.0]]],
[[[127.8167,-0.8533,0.0],[127.8189,-0.8511,16.0432],[127.8208,-0.8533,0.0],[127.8275,-0.8548,0.0],[127.8278,-0.8524,13.2721],[127.8309,-0.8513,1.6181],[127.8317,-0.8481,14.7884],[127.8306,-0.8468,12.1146],[127.8335,-0.8434,6.342],[127.8412,-0.8444,7.685],[127.845,-0.8401,2.1639],[127.8472,-0.8404,0.0],[127.8445,-0.8379,0.0],[127.8447,-0.8351,0.0],[127.8472,-0.8318,2.0738],[127.8511,-0.8315,0.0],[127.852,-0.827,3.8185],[127.8551,-0.8271,1.5282],[127.8581,-0.825,3.9783],[127.8607,-0.8276,8.301],[127.8633,-0.8256,15.2069],[127.8665,-0.8272,3.494],[127.8704,-0.8269,2.9386],[127.8718,-0.8208,1.8447],[127.8803,-0.8117,0.0],[127.8762,-0.8051,0.0],[127.8796,-0.7957,1.4774],[127.8848,-0.794,22.1215],[127.8846,-0.7973,16.6438],[127.8912,-0.8005,3.6177],[127.8962,-0.8,0.0],[127.8992,-0.7961,15.4673],[127.8991,-0.7928,0.0],[127.8969,-0.7936,22.52],[127.8946,-0.79,0.0],[127.8916,-0.7915,45.6031],[127.8892,-0.789,5.3077],[127.8838,-0.7877,0.0],[127.884,-0.786,0.0],[127.8806,-0.7823,10.8009],[127.8823,-0.781,2.2227],[127.8792,-0.776,9.1874],[127.8809,-0.7747,0.0],[127.8919,-0.7805,6.8563],[127.9021,-0.7824,12.9021],[127.9055,-0.7854,3.9453],[127.9058,-0.7816,10.8827],[127.9024,-0.7763,0.0],[127.9028,-0.7712,0.0],[127.887,-0.7733,63.435],[127.8781,-0.7707,28.6819],[127.8582,-0.7716,436.9208],[127.841,-0.7749,445.3927],[127.7902,-0.7779,135.6109],[127.7773,-0.7808,307.4792],[127.7611,-0.7818,273.5815],[127.7089,-0.7659,417.248],[127.7036,-0.7569,293.3523],[127.6721,-0.742,156.3341],[127.6751,-0.7336,27.9429],[127.6761,-0.7242,117.3131],[127.6371,-0.706,414.83],[127.6209,-0.7162,312.2714],[127.6061,-0.7061,820.3098],[127.5808,-0.6789,1014.4259],[127.5441,-0.7016,992.8529],[127.4987,-0.8028,69.4046],[127.5058,-0.7987,5.7703],[127.5215,-0.7959,1.5422],[127.5364,-0.7876,4.9491],[127.5451,-0.7866,0.0],[127.5525,-0.7791,0.0],[127.5623,-0.777,2.0664],[127.5721,-0.7704,4.5804],[127.5937,-0.7688,2.5824],[127.611,-0.7629,5.3093],[127.6217,-0.7509,1.4506],[127.6246,-0.7442,8.4056],[127.6299,-0.7411,20.1155],[127.6347,-0.7415,0.0],[127.6498,-0.7486,0.6229],[127.6516,-0.7482,2.0021],[127.6541,-0.7522,6.7556],[127.6545,-0.7574,0.0],[127.6596,-0.7683,15.6283],[127.6651,-0.7758,0.0],[127.6646,-0.7813,10.1144],[127.6591,-0.7878,0.0],[127.6595,-0.7901,9.4977],[127.6552,-0.7919,11.0672],[127.6596,-0.7963,23.3372],[127.6578,-0.8009,19.9719],[127.659,-0.8036,0.0],[127.659,-0.8018,1.6842],[127.6608,-0.8035,5.9827],[127.6596,-0.806,7.1884],[127.6625,-0.8063,16.416],[127.66,-0.8084,34.0322],[127.6594,-0.8066,0.0],[127.6575,-0.8076,0.0],[127.6579,-0.8115,46.5154],[127.6624,-0.8163,0.0],[127.6706,-0.8144,11.4296],[127.6653,-0.8194,0.0],[127.6683,-0.8245,20.638],[127.6762,-0.8199,0.0],[127.679,-0.8198,0.0],[127.6822,-0.8219,11.9802],[127.6849,-0.8261,7.5801],[127.686,-0.8327,0.0],[127.6818,-0.8386,0.0],[127.695,-0.8456,20.619],[127.7017,-0.8452,2.9825],[127.7077,-0.8491,1.6411],[127.7132,-0.8505,3.242],[127.7178,-0.8546,0.0],[127.7302,-0.8495,9.9489],[127.74,-0.8555,3.3542],[127.748,-0.8574,16.4564],[127.7498,-0.8608,0.0],[127.7533,-0.8619,5.1982],[127.749,-0.8628,0.0],[127.7481,-0.8652,14.6166],[127.7472,-0.8638,0.0],[127.7437,-0.8648,19.3825],[127.7426,-0.8611,0.0],[127.7381,-0.8614,15.0829],[127.7347,-0.8645,1.6599],[127.7316,-0.8633,4.6799],[127.7298,-0.8655,9.6836],[127.7252,-0.867,1.4784],[127.7258,-0.8689,1.6286],[127.7323,-0.8713,0.0],[127.7524,-0.8699,0.0],[127.7553,-0.867,1.0533],[127.7597,-0.8657,4.8032],[127.7695,-0.8697,0.0],[127.7702,-0.8637,21.345],[127.773,-0.8615,0.0],[127.7809,-0.859,16.0393],[127.7913,-0.8645,0.0],[127.7969,-0.858,5.9404],[127.8054,-0.856,15.2036],[127.8089,-0.8567,0.0],[127.8167,-0.8533,0.0]]],
[[[127.6559,-0.779,0.0],[127.656,-0.7793,0.0],[127.6562,-0.7792,0.0],[127.6561,-0.7789,0.0],[127.6559,-0.779,0.0]]],
[[[127.6573,-0.7774,0.0],[127.6577,-0.7776,0.0],[127.6578,-0.7771,0.0],[127.6575,-0.7771,0.0],[127.6573,-0.7774,0.0]]]]}}