{"type":"Feature","properties":{"GID_3":"IDN.21.16.4_1","GID_0":"IDN","country":"Indonesia","GID_1":"IDN.21_1","province":"NusaTenggaraTimur","NL_NAME_1":"NA","GID_2":"IDN.21.16_1","county":"SumbaBaratDaya","NL_NAME_2":"NA","city":"Loura","VARNAME_3":"NA","NL_NAME_3":"NA","TYPE_3":"Kecamatan","ENGTYPE_3":"Sub-district","CC_3":"5317080","HASC_3":"NA","name":"Loura.city"},
"geometry":{"type": "MultiPolygon","coordinates": [[[[119.359,-9.4658,134.8107],[119.3598,-9.4527,90.6739],[119.3712,-9.455,146.6089],[119.3764,-9.454,96.4891],[119.3767,-9.4265,37.025],[119.3783,-9.4189,59.6805],[119.3956,-9.3921,38.1735],[119.3948,-9.388,28.053],[119.3915,-9.3858,12.5336],[119.3908,-9.3831,9.7822],[119.3839,-9.3831,10.5307],[119.3754,-9.3801,6.6308],[119.3542,-9.3768,4.3921],[119.3481,-9.3772,0.0],[119.3255,-9.3714,2.9489],[119.3171,-9.3675,4.1274],[119.3063,-9.3596,7.1557],[119.2985,-9.3571,2.0067],[119.2859,-9.3598,4.1622],[119.2715,-9.3683,6.7517],[119.2624,-9.3684,8.5262],[119.2523,-9.3715,11.5597],[119.2368,-9.3786,0.0],[119.2251,-9.3894,2.2407],[119.2197,-9.391,0.0],[119.2076,-9.3868,11.3127],[119.1948,-9.3752,3.1124],[119.1866,-9.374,4.4406],[119.1758,-9.3754,8.0367],[119.1605,-9.3807,2.7781],[119.1521,-9.3848,8.3944],[119.1376,-9.3954,3.9428],[119.1413,-9.4052,19.2709],[119.1575,-9.403,38.4636],[119.1758,-9.3933,40.7111],[119.1836,-9.3914,42.0661],[119.1909,-9.3919,42.1279],[119.2031,-9.4039,46.1385],[119.2042,-9.4272,61.3924],[119.1951,-9.4226,65.1118],[119.1948,-9.4243,67.1858],[119.1955,-9.4378,71.2626],[119.1987,-9.4477,86.6498],[119.2157,-9.4458,90.7099],[119.2268,-9.4488,83.9276],[119.2485,-9.4497,96.329],[119.2521,-9.4519,107.7434],[119.2594,-9.4528,115.7909],[119.278,-9.4477,253.3274],[119.2836,-9.4498,241.1706],[119.2853,-9.4585,316.8877],[119.288,-9.4623,374.7488],[119.2865,-9.4661,391.5056],[119.2881,-9.4732,409.7447],[119.2924,-9.4778,421.6111],[119.293,-9.4822,442.213],[119.2959,-9.4862,452.9569],[119.3042,-9.4908,420.6154],[119.309,-9.4905,335.8495],[119.3182,-9.4801,274.6084],[119.3343,-9.4936,233.3033],[119.3389,-9.4914,257.0026],[119.3411,-9.4853,218.7535],[119.3492,-9.4879,194.1194],[119.3558,-9.4726,136.802],[119.3556,-9.4703,123.3253],[119.358,-9.4699,121.3284],[119.359,-9.4658,134.8107]]]]}}