{"type":"Feature","properties":{"GID_3":"IDN.9.22.11_1","GID_0":"IDN","country":"Indonesia","GID_1":"IDN.9_1","province":"JawaBarat","NL_NAME_1":"NA","GID_2":"IDN.9.22_1","county":"Purwakarta","NL_NAME_2":"NA","city":"Plered","VARNAME_3":"NA","NL_NAME_3":"NA","TYPE_3":"Kecamatan","ENGTYPE_3":"Sub-district","CC_3":"3214040","HASC_3":"NA","name":"Plered.city"},
"geometry":{"type": "MultiPolygon","coordinates": [[[[107.3809,-6.6728,272.9254],[107.3836,-6.6718,276.627],[107.3879,-6.6753,284.9454],[107.388,-6.6734,286.8714],[107.3923,-6.6733,307.3471],[107.396,-6.6758,326.9193],[107.3997,-6.6745,331.8395],[107.405,-6.676,339.0377],[107.4072,-6.6742,372.623],[107.4073,-6.6705,336.8181],[107.4041,-6.6678,318.9534],[107.405,-6.661,308.5536],[107.401,-6.659,295.5154],[107.4004,-6.6533,273.573],[107.3972,-6.6489,255.1268],[107.4008,-6.6444,241.2607],[107.4018,-6.6396,237.1488],[107.4005,-6.6359,234.3077],[107.4029,-6.6348,234.3864],[107.4022,-6.6324,309.8369],[107.3998,-6.6324,329.5329],[107.3976,-6.6298,289.0265],[107.4005,-6.6294,242.8659],[107.3993,-6.6263,239.3204],[107.4003,-6.6249,235.9515],[107.4023,-6.6254,230.0648],[107.4026,-6.6225,223.8355],[107.3952,-6.6215,252.7325],[107.3919,-6.6167,219.3915],[107.3882,-6.6176,284.655],[107.3832,-6.6151,287.4965],[107.3713,-6.6154,394.403],[107.3632,-6.6117,641.3159],[107.3577,-6.6129,624.5005],[107.3558,-6.6147,691.1964],[107.3546,-6.6274,417.7626],[107.3571,-6.634,343.7736],[107.3612,-6.6385,280.8863],[107.3625,-6.6474,269.4062],[107.361,-6.6558,262.2991],[107.3648,-6.6567,264.9679],[107.363,-6.6624,263.4458],[107.3631,-6.6678,262.8542],[107.3649,-6.6697,259.9341],[107.3596,-6.6809,104.5568],[107.3641,-6.6809,137.1666],[107.366,-6.6844,120.876],[107.3724,-6.6873,175.3112],[107.3734,-6.6812,261.845],[107.3696,-6.6789,232.8049],[107.3706,-6.6753,263.3058],[107.3748,-6.6738,269.461],[107.3794,-6.6746,268.7974],[107.3809,-6.6728,272.9254]]]]}}