{"type":"Feature","properties":{"GID_3":"IDN.22.10.22_1","GID_0":"IDN","country":"Indonesia","GID_1":"IDN.22_1","province":"PapuaBarat","NL_NAME_1":"NA","GID_2":"IDN.22.10_1","county":"TelukBintuni","NL_NAME_2":"NA","city":"Tuhiba","VARNAME_3":"NA","NL_NAME_3":"NA","TYPE_3":"Distrik","ENGTYPE_3":"District","CC_3":"9104052","HASC_3":"NA","name":"Tuhiba.city"},
"geometry":{"type": "MultiPolygon","coordinates": [[[[133.3976,-2.0321,64.3076],[133.3876,-2.0389,65.53],[133.3893,-2.0401,69.7959],[133.5064,-2.0305,163.8087],[133.593,-2.0252,265.5916],[133.6833,-2.0022,61.7004],[133.7013,-1.9899,90.4996],[133.7007,-1.851,407.1293],[133.6972,-1.8027,388.6374],[133.6518,-1.8254,400.9045],[133.5989,-1.8254,356.4944],[133.5946,-1.8147,422.9272],[133.5907,-1.8245,315.9776],[133.5907,-1.882,209.3105],[133.5715,-1.9395,151.7956],[133.5587,-1.9529,104.0807],[133.4824,-1.9862,221.6488],[133.4606,-1.9986,72.2819],[133.4519,-2.0065,62.5022],[133.4213,-2.0187,61.9938],[133.3976,-2.0321,64.3076]]]]}}