{"type":"Feature","properties":{"GID_3":"IDN.26.10.9_1","GID_0":"IDN","country":"Indonesia","GID_1":"IDN.26_1","province":"SulawesiSelatan","NL_NAME_1":"NA","GID_2":"IDN.26.10_1","county":"LuwuUtara","NL_NAME_2":"NA","city":"Sabbang","VARNAME_3":"NA","NL_NAME_3":"NA","TYPE_3":"Kecamatan","ENGTYPE_3":"Sub-district","CC_3":"7322010","HASC_3":"NA","name":"Sabbang.city"},
"geometry":{"type": "MultiPolygon","coordinates": [[[[120.2381,-2.712,17.7201],[120.2399,-2.701,18.7664],[120.24,-2.6674,26.9101],[120.2473,-2.6601,28.0502],[120.2545,-2.6474,29.6823],[120.2444,-2.636,31.7906],[120.2448,-2.6341,30.9061],[120.2414,-2.6322,32.4476],[120.2495,-2.6156,36.7177],[120.2501,-2.611,40.4503],[120.2473,-2.6069,35.0025],[120.2501,-2.6015,44.7591],[120.234,-2.5899,123.0595],[120.2297,-2.5888,125.7868],[120.2299,-2.5869,101.7784],[120.2235,-2.5791,104.8468],[120.2158,-2.5588,168.8419],[120.1978,-2.5302,842.0552],[120.1945,-2.5041,1111.9795],[120.1872,-2.4933,1043.9938],[120.2118,-2.4755,1119.7737],[120.1955,-2.4683,732.2681],[120.1856,-2.4588,793.0219],[120.1789,-2.4445,1299.55],[120.1702,-2.4166,1379.4806],[120.1667,-2.409,1426.7415],[120.1597,-2.4004,1517.4674],[120.1486,-2.3933,1959.3657],[120.1416,-2.3916,1586.3594],[120.1326,-2.3923,1752.7015],[120.1088,-2.3889,1993.479],[120.1077,-2.4111,1603.0411],[120.1053,-2.4228,1381.9111],[120.0789,-2.4554,717.0207],[120.0649,-2.4756,1048.3026],[120.0587,-2.4935,1212.5325],[120.0631,-2.5019,1122.7072],[120.0759,-2.5113,907.2012],[120.0785,-2.5229,684.9664],[120.0838,-2.5335,975.6241],[120.0939,-2.5386,1184.811],[120.0937,-2.5436,1220.9694],[120.0885,-2.5494,1194.3826],[120.0894,-2.5562,1382.97],[120.086,-2.561,1444.9581],[120.0767,-2.5678,1449.3622],[120.0627,-2.5711,1349.2429],[120.0602,-2.5756,1299.359],[120.0602,-2.5851,973.4034],[120.0579,-2.588,768.1536],[120.043,-2.5882,616.9216],[120.0285,-2.5823,1481.4371],[120.0219,-2.5849,1552.708],[120.0128,-2.5948,1592.5402],[120.0055,-2.5983,1706.1836],[120.0014,-2.6078,1726.7056],[119.9983,-2.6397,1339.9982],[119.9872,-2.6609,1146.505],[119.9781,-2.672,1633.1263],[119.9587,-2.6858,1830.8662],[119.9402,-2.7054,2260.6226],[119.9379,-2.7226,1870.7295],[119.9481,-2.7173,2006.4006],[119.9571,-2.7177,1880.019],[119.986,-2.7087,2031.9902],[119.995,-2.7012,2263.115],[119.9977,-2.7006,2169.9578],[120.0157,-2.6977,1820.0663],[120.0459,-2.701,1584.7922],[120.0501,-2.6971,1525.3075],[120.0574,-2.694,1541.8746],[120.0603,-2.6905,1602.2847],[120.0648,-2.6907,1541.4637],[120.0688,-2.6959,1503.9409],[120.0719,-2.6974,1488.863],[120.0822,-2.6954,1417.3105],[120.0901,-2.6852,1062.0151],[120.094,-2.6748,886.114],[120.1019,-2.6659,927.2529],[120.1113,-2.6718,713.715],[120.1241,-2.6744,574.7704],[120.1298,-2.6737,624.0128],[120.1346,-2.6771,735.0493],[120.1384,-2.6818,692.6201],[120.1398,-2.6903,597.9374],[120.136,-2.6979,493.8115],[120.1336,-2.6976,441.633],[120.1309,-2.7031,184.3224],[120.1392,-2.7085,118.2072],[120.1376,-2.7105,138.4431],[120.1418,-2.7134,84.0338],[120.1451,-2.7192,63.5222],[120.1596,-2.7263,30.8097],[120.1539,-2.7273,41.2083],[120.157,-2.7312,35.1445],[120.1667,-2.7333,26.7061],[120.1684,-2.7355,25.0072],[120.1711,-2.736,23.5912],[120.1738,-2.7498,23.0693],[120.179,-2.7557,12.4079],[120.1824,-2.7639,15.6368],[120.1868,-2.7672,15.5113],[120.1895,-2.7662,13.3553],[120.1949,-2.7692,12.1104],[120.1965,-2.7713,12.0178],[120.1957,-2.7726,11.2222],[120.2039,-2.7791,12.3603],[120.2032,-2.7813,11.7916],[120.2057,-2.7816,9.8727],[120.2099,-2.7878,10.0957],[120.2121,-2.7897,11.7112],[120.2137,-2.788,13.4177],[120.2163,-2.7889,12.3711],[120.2222,-2.7976,7.8335],[120.2273,-2.7991,9.2888],[120.2273,-2.803,12.6864],[120.2294,-2.7976,7.8891],[120.2251,-2.7918,9.0087],[120.2271,-2.7905,9.5074],[120.2267,-2.7883,8.1466],[120.2295,-2.7849,8.5441],[120.2299,-2.7698,10.0305],[120.2332,-2.7677,12.1654],[120.2348,-2.7631,12.6509],[120.2399,-2.758,12.4377],[120.2389,-2.7537,11.8497],[120.2412,-2.7513,13.4532],[120.2383,-2.749,14.2286],[120.2356,-2.7428,13.7096],[120.2365,-2.7373,15.6724],[120.2375,-2.7357,15.61],[120.2427,-2.7345,14.842],[120.2438,-2.7325,15.7499],[120.2426,-2.7296,17.039],[120.2465,-2.7296,15.6148],[120.2475,-2.7252,17.207],[120.2465,-2.7227,16.6045],[120.2403,-2.7204,19.8952],[120.2411,-2.7132,18.757],[120.2381,-2.712,17.7201]]]]}}