{"type":"Feature","properties":{"GID_3":"IDN.5.1.4_1","GID_0":"IDN","country":"Indonesia","GID_1":"IDN.5_1","province":"Bengkulu","NL_NAME_1":"NA","GID_2":"IDN.5.1_1","county":"BengkuluSelatan","NL_NAME_2":"NA","city":"Kedurang","VARNAME_3":"NA","NL_NAME_3":"NA","TYPE_3":"Kecamatan","ENGTYPE_3":"Sub-district","CC_3":"1701042","HASC_3":"NA","name":"Kedurang.city"},
"geometry":{"type": "MultiPolygon","coordinates": [[[[103.0705,-4.5003,101.0235],[103.0704,-4.5068,38.8599],[103.0736,-4.5082,84.1335],[103.0771,-4.5046,70.1018],[103.0815,-4.5072,80.8912],[103.0853,-4.5018,71.5852],[103.0989,-4.5038,44.0155],[103.1045,-4.4938,50.4548],[103.1076,-4.4936,52.9243],[103.1119,-4.4862,96.9419],[103.117,-4.4837,101.4509],[103.1285,-4.4659,167.3063],[103.1395,-4.4564,323.5161],[103.1494,-4.4449,254.5107],[103.1545,-4.4325,310.1279],[103.1519,-4.4252,372.3917],[103.1623,-4.4166,411.7823],[103.1642,-4.408,422.6804],[103.168,-4.4003,565.3721],[103.1758,-4.3978,478.0048],[103.1938,-4.397,481.4958],[103.2007,-4.3926,520.9119],[103.2019,-4.3878,550.1465],[103.1991,-4.3814,571.1561],[103.2043,-4.3749,736.4438],[103.2018,-4.368,824.9025],[103.2031,-4.3612,814.8491],[103.1985,-4.3527,1068.5469],[103.1975,-4.3475,1091.4937],[103.1988,-4.3203,1309.3096],[103.2031,-4.316,1527.5966],[103.2001,-4.3096,1468.5208],[103.2007,-4.3079,1444.6255],[103.2193,-4.307,1474.027],[103.2247,-4.2974,1974.0463],[103.2289,-4.293,2049.9546],[103.2399,-4.2913,2490.2134],[103.2517,-4.2996,2236.7854],[103.2566,-4.2928,2281.8267],[103.2597,-4.2921,2298.0127],[103.2682,-4.2944,2294.1782],[103.2801,-4.2908,2578.0156],[103.2825,-4.2867,2537.9602],[103.28,-4.2833,2602.5432],[103.2856,-4.2678,2636.8237],[103.2881,-4.266,2626.1541],[103.2883,-4.2631,2616.4573],[103.285,-4.2572,2631.7749],[103.2695,-4.2563,2554.2646],[103.2611,-4.2487,2372.2014],[103.2506,-4.245,2204.9766],[103.2348,-4.2457,2311.1101],[103.2237,-4.242,2352.6416],[103.2163,-4.258,1807.7349],[103.2138,-4.2592,1746.6156],[103.2079,-4.273,1197.001],[103.2041,-4.2752,1223.9299],[103.1816,-4.2803,971.3829],[103.1733,-4.2843,914.335],[103.1722,-4.2866,903.998],[103.1616,-4.2934,775.2718],[103.1588,-4.3002,729.087],[103.1541,-4.3031,799.8455],[103.1525,-4.3061,683.6141],[103.1518,-4.3252,598.6115],[103.1478,-4.3301,559.2149],[103.1383,-4.3317,484.2231],[103.1348,-4.3368,470.4048],[103.1357,-4.3412,432.2444],[103.1341,-4.351,379.5618],[103.1225,-4.3784,272.2585],[103.1185,-4.3789,252.1497],[103.117,-4.3819,250.572],[103.1115,-4.3814,225.4268],[103.1082,-4.3825,210.8431],[103.1087,-4.3845,208.7222],[103.107,-4.3843,198.0712],[103.1051,-4.3893,191.8175],[103.1095,-4.3949,189.3592],[103.1143,-4.4046,151.2213],[103.1136,-4.4063,224.2533],[103.111,-4.4058,132.9177],[103.1097,-4.4081,120.408],[103.1057,-4.4096,118.5677],[103.1055,-4.4121,124.4523],[103.097,-4.4109,104.0096],[103.0924,-4.4156,102.4191],[103.0855,-4.413,85.5815],[103.084,-4.4167,123.7127],[103.0812,-4.4148,78.1415],[103.0765,-4.4162,74.0131],[103.0755,-4.4179,101.1819],[103.0739,-4.4173,81.5384],[103.0722,-4.4216,68.6915],[103.0749,-4.425,67.4037],[103.0739,-4.4279,70.5178],[103.072,-4.4278,67.2621],[103.0733,-4.4313,59.9613],[103.0718,-4.4325,59.9613],[103.0739,-4.4335,72.4986],[103.0703,-4.4362,58.2656],[103.0703,-4.4395,59.7405],[103.0678,-4.4388,62.3149],[103.0671,-4.4368,58.7499],[103.0619,-4.4439,56.1437],[103.059,-4.4438,52.0236],[103.059,-4.4455,51.2473],[103.0565,-4.4465,47.7857],[103.0539,-4.4459,47.52],[103.0547,-4.4496,48.799],[103.0536,-4.4499,48.799],[103.0602,-4.4733,121.2312],[103.0645,-4.4801,109.8112],[103.0705,-4.5003,101.0235]]]]}}