{"type":"Feature","properties":{"GID_3":"IDN.17.5.25_1","GID_0":"IDN","country":"Indonesia","GID_1":"IDN.17_1","province":"Lampung","NL_NAME_1":"NA","GID_2":"IDN.17.5_1","county":"LampungTimur","NL_NAME_2":"NA","city":"WayBungur","VARNAME_3":"NA","NL_NAME_3":"NA","TYPE_3":"Kecamatan","ENGTYPE_3":"Sub-district","CC_3":"1804121","HASC_3":"NA","name":"Way_Bungur.city"},
"geometry":{"type": "MultiPolygon","coordinates": [[[[105.5572,-4.9352,14.055],[105.5549,-4.9338,6.1003],[105.5586,-4.9313,19.9474],[105.5631,-4.9245,15.2133],[105.5682,-4.922,31.4964],[105.566,-4.9138,6.3464],[105.5692,-4.9118,5.1004],[105.5704,-4.9066,7.3812],[105.5732,-4.9079,5.9498],[105.5754,-4.9001,5.8968],[105.5791,-4.8983,1.8327],[105.5785,-4.8925,1.8975],[105.5844,-4.8931,29.4803],[105.5873,-4.8923,32.1556],[105.5884,-4.89,32.612],[105.5857,-4.8865,8.7163],[105.5848,-4.8882,15.2605],[105.58,-4.8848,7.9145],[105.5753,-4.8783,3.617],[105.5548,-4.8727,19.3819],[105.5475,-4.8743,22.2805],[105.5438,-4.8775,28.0668],[105.5423,-4.8829,16.8057],[105.5406,-4.8835,9.0839],[105.5352,-4.8837,20.9316],[105.5359,-4.885,10.318],[105.5269,-4.8832,8.5626],[105.5254,-4.8853,5.0725],[105.5277,-4.8873,4.9899],[105.5221,-4.8864,5.5869],[105.5178,-4.8812,8.3036],[105.515,-4.8824,23.9363],[105.5076,-4.8815,30.7511],[105.5082,-4.8854,26.669],[105.5033,-4.8909,16.2423],[105.4941,-4.894,20.1482],[105.4926,-4.8988,8.2155],[105.4982,-4.9032,12.0721],[105.4972,-4.907,16.4089],[105.4998,-4.9111,16.0938],[105.4989,-4.9132999999999996,5.8708],[105.4957,-4.9122,7.2247],[105.4914,-4.92,7.0218],[105.494,-4.9305,16.7013],[105.4991,-4.9337,30.3844],[105.4994,-4.9359,29.194],[105.5061,-4.9365,29.5604],[105.5173,-4.9435,23.5675],[105.525,-4.9461,15.6745],[105.5457,-4.9467,14.1229],[105.5477,-4.9472,9.6968],[105.5484,-4.9493,7.1217],[105.5538,-4.9494,9.4699],[105.5585,-4.9484,27.3293],[105.5579,-4.9402,32.4285],[105.5645,-4.9406,34.8513],[105.5657,-4.9384,25.3245],[105.5572,-4.9352,14.055]]]]}}