{"type":"Feature","properties":{"GID_3":"IDN.1.23.1_1","GID_0":"IDN","country":"Indonesia","GID_1":"IDN.1_1","province":"Aceh","NL_NAME_1":"NA","GID_2":"IDN.1.23_1","county":"Subulussalam","NL_NAME_2":"NA","city":"Longkib","VARNAME_3":"NA","NL_NAME_3":"NA","TYPE_3":"Kecamatan","ENGTYPE_3":"Sub-district","CC_3":"1175050","HASC_3":"NA","name":"Longkib.city"},
"geometry":{"type": "MultiPolygon","coordinates": [[[[97.7953,2.5437,20.241],[97.792,2.5094,18.8155],[97.8403,2.5047,10.1715],[97.8404,2.5148,18.3575],[97.8425,2.5176,12.2575],[97.8465,2.5188,13.2813],[97.8492,2.5234,7.6274],[97.8478,2.529,7.7154],[97.851,2.5278,8.1759],[97.8518,2.5298,10.9803],[97.8503,2.5318,20.8277],[97.8475,2.5314,11.4227],[97.8428,2.5388,20.3835],[97.8429,2.5569,16.7772],[97.8502,2.5591,25.0504],[97.8539,2.5644,23.7275],[97.871,2.556,18.2965],[97.8746,2.5479,35.3304],[97.8827,2.5481,36.2006],[97.8864,2.5509,39.1813],[97.8907,2.5606,35.6154],[97.8948,2.5634,45.511],[97.8984,2.5653,39.0294],[97.9035,2.5623,48.2319],[97.9119,2.5703,23.1723],[97.9167,2.5699,29.6861],[97.9227,2.5741,48.6568],[97.9263,2.5728,49.5919],[97.9309,2.5799,36.0905],[97.9372,2.5834,44.1385],[97.9405,2.5888,51.881],[97.9484,2.5942,76.9849],[97.9483,2.5798,87.1759],[97.9507,2.5785,101.7582],[97.953,2.5803,106.1808],[97.954,2.5769,80.8565],[97.9883,2.6097,75.651],[97.976,2.621,56.9164],[97.9727,2.6398,22.108],[97.9677,2.641,21.8465],[97.9644,2.6381,24.5162],[97.9625,2.6332,25.6513],[97.9601,2.6319,44.2888],[97.957,2.634,21.48],[97.9562,2.6292,24.5375],[97.9543,2.63,20.8033],[97.9511,2.6281,27.8695],[97.9318,2.6359,34.0036],[97.9187,2.6365,24.2933],[97.9064,2.6347,44.3748],[97.9059,2.6128,52.7946],[97.9183,2.6076,51.7079],[97.8966,2.5941,45.5417],[97.8906,2.5921,46.1027],[97.8736,2.5906,18.5884],[97.8424,2.5928,20.4762],[97.8119,2.5972,17.6723],[97.7953,2.5437,20.241]]]]}}