{"type":"Feature","properties":{"GID_3":"IDN.11.2.15_1","GID_0":"IDN","country":"Indonesia","GID_1":"IDN.11_1","province":"JawaTimur","NL_NAME_1":"NA","GID_2":"IDN.11.2_1","county":"Banyuwangi","NL_NAME_2":"NA","city":"Purwoharjo","VARNAME_3":"NA","NL_NAME_3":"NA","TYPE_3":"Kecamatan","ENGTYPE_3":"Sub-district","CC_3":"3510030","HASC_3":"NA","name":"Purwoharjo.city"},
"geometry":{"type": "MultiPolygon","coordinates": [[[[114.2233,-8.6363,31.4205],[114.2258,-8.6356,19.7347],[114.2245,-8.6326,2.043],[114.227,-8.626,2.8783],[114.226,-8.624,17.5846],[114.2299,-8.6206,58.3066],[114.2254,-8.612,9.2996],[114.2286,-8.6073,3.7191],[114.2279,-8.6046,14.9538],[114.2326,-8.6025,0.0],[114.2471,-8.6002,0.0],[114.2569,-8.6019,0.0],[114.2777,-8.6103,0.0],[114.2928,-8.6145,14.5886],[114.2916,-8.6038,8.8465],[114.2894,-8.6012,6.204],[114.2913,-8.5999,7.8735],[114.2884,-8.5963,10.008],[114.2884,-8.5922,2.542],[114.291,-8.5877,15.042],[114.2891,-8.5838,11.3001],[114.2899,-8.5811,10.3379],[114.2863,-8.5743,14.6535],[114.2832,-8.5723,10.7002],[114.2833,-8.5701,9.4635],[114.2794,-8.5689,12.0717],[114.2798,-8.5667,11.5711],[114.2749,-8.5607,12.9669],[114.2768,-8.5511,21.0454],[114.2727,-8.5398,22.7342],[114.273,-8.5328,26.8147],[114.2673,-8.5307,27.2775],[114.2683,-8.507,36.1381],[114.2768,-8.5071,34.8962],[114.278,-8.5032,36.4034],[114.2785,-8.497,42.2506],[114.2757,-8.4872,34.6427],[114.2724,-8.4871,38.5346],[114.2673,-8.4835,38.677],[114.2613,-8.4821,44.9789],[114.254,-8.4744,44.6796],[114.2543,-8.4727,46.159],[114.2508,-8.4687,47.0423],[114.2493,-8.4608,51.9747],[114.2475,-8.4611,55.4514],[114.2463,-8.4579,58.4272],[114.2253,-8.4542,66.8649],[114.223,-8.4622,63.5188],[114.2266,-8.4684,58.3032],[114.224,-8.4709,58.9958],[114.225,-8.4716,57.7985],[114.2208,-8.472,62.5934],[114.2147,-8.4685,60.4025],[114.2038,-8.4711,72.2366],[114.1935,-8.4709,74.3867],[114.1908,-8.4693,76.1034],[114.1918,-8.4789,74.2354],[114.1901,-8.4807,73.7243],[114.1901,-8.4888,72.4298],[114.1816,-8.496,73.46],[114.181,-8.5073,66.4384],[114.181,-8.5086,66.4071],[114.2137,-8.5083,62.463],[114.2148,-8.5347,62.1593],[114.2213,-8.5542,44.0527],[114.2159,-8.5875,17.5656],[114.2176,-8.6279,165.9775],[114.2233,-8.6363,31.4205]]]]}}