{"type":"Feature","properties":{"GID_3":"IDN.9.22.18_1","GID_0":"IDN","country":"Indonesia","GID_1":"IDN.9_1","province":"JawaBarat","NL_NAME_1":"NA","GID_2":"IDN.9.22_1","county":"Purwakarta","NL_NAME_2":"NA","city":"Wanayasa","VARNAME_3":"NA","NL_NAME_3":"NA","TYPE_3":"Kecamatan","ENGTYPE_3":"Sub-district","CC_3":"3214080","HASC_3":"NA","name":"Wanayasa.city"},
"geometry":{"type": "MultiPolygon","coordinates": [[[[107.5701,-6.7361,1723.5562],[107.5743,-6.7347,1669.0718],[107.5771,-6.7302,1811.2024],[107.5831,-6.7271,1823.437],[107.5961,-6.7289,1786.3104],[107.5923,-6.7266,1753.615],[107.5949,-6.7266,1750.3267],[107.5943,-6.7198,1556.5505],[107.5913,-6.7199,1497.6687],[107.589,-6.7167,1336.7375],[107.5892,-6.7116,1230.8025],[107.5861,-6.7097,1253.7373],[107.5848,-6.7051,1094.7803],[107.5816,-6.7028,1062.7336],[107.5797,-6.6959,868.2952],[107.5729,-6.6891,765.8922],[107.5747,-6.6743,638.5803],[107.5721,-6.6724,607.3729],[107.568,-6.6726,648.8431],[107.5677,-6.6708,645.7283],[107.5558,-6.6721,672.7766],[107.5558,-6.6664,635.205],[107.5471,-6.6625,622.8417],[107.5452,-6.6556,594.5956],[107.5431,-6.6546,590.9388],[107.5435,-6.6482,602.4454],[107.5372,-6.643,593.2025],[107.5322,-6.6418,570.814],[107.5328,-6.6394,535.2933],[107.5356,-6.6378,542.4711],[107.5352,-6.6342,521.4604],[107.5369,-6.6327,461.2171],[107.5358,-6.6295,453.1591],[107.5388,-6.6298,423.1698],[107.5371,-6.6283,438.8402],[107.5363,-6.6228,358.1454],[107.5427,-6.6134,235.4503],[107.5352,-6.6006,163.8847],[107.5349,-6.5937,152.2669],[107.5323,-6.5894,136.2629],[107.5304,-6.5888,132.1277],[107.5319,-6.5809,134.416],[107.526,-6.5805,126.3118],[107.5204,-6.5889,146.9064],[107.5207,-6.599,180.487],[107.5142,-6.6006,203.9839],[107.5137,-6.6043,242.2769],[107.5151,-6.6058,246.3021],[107.5118,-6.6114,333.3967],[107.5171,-6.611,247.1325],[107.5168,-6.6124,254.6245],[107.5151,-6.6149,289.5038],[107.5089,-6.6172,383.8918],[107.51,-6.6279,460.7182],[107.5114,-6.6311,419.7911],[107.5158,-6.6345,490.3365],[107.515,-6.6417,423.8046],[107.5103,-6.649,398.4815],[107.5119,-6.6512,402.6317],[107.5147,-6.6506,428.1312],[107.5152,-6.6521,418.7161],[107.521,-6.6541,430.9438],[107.5245,-6.6538,484.5419],[107.5258,-6.6573,458.7339],[107.5283,-6.6569,468.2715],[107.5286,-6.659,476.7085],[107.5372,-6.6676,519.8028],[107.5365,-6.6795,580.5424],[107.5334,-6.681,599.48],[107.5321,-6.6873,627.4671],[107.5286,-6.6906,663.0248],[107.5291,-6.6946,687.3634],[107.5255,-6.6985,717.582],[107.5277,-6.7007,726.318],[107.5278,-6.704,752.7809],[107.5319,-6.7029,726.1155],[107.5336,-6.7051,734.6742],[107.5304,-6.7127,802.671],[107.5386,-6.7164,839.4143],[107.5399,-6.7144,799.0294],[107.5412,-6.717,840.0972],[107.5488,-6.7158,860.7095],[107.5547,-6.7214,1020.6506],[107.5569,-6.7279,1119.9705],[107.5627,-6.7331,1490.4097],[107.5701,-6.7361,1723.5562]]]]}}