{"type":"Feature","properties":{"GID_3":"IDN.9.12.29_1","GID_0":"IDN","country":"Indonesia","GID_1":"IDN.9_1","province":"JawaBarat","NL_NAME_1":"NA","GID_2":"IDN.9.12_1","county":"Indramayu","NL_NAME_2":"NA","city":"Terisi","VARNAME_3":"NA","NL_NAME_3":"NA","TYPE_3":"Kecamatan","ENGTYPE_3":"Sub-district","CC_3":"3212041","HASC_3":"NA","name":"Terisi.city"},
"geometry":{"type": "MultiPolygon","coordinates": [[[[107.9899,-6.5776,51.4676],[107.9874,-6.577,52.9671],[107.9853,-6.5786,50.5044],[107.9811,-6.5832,53.7965],[107.9801,-6.5873,53.3372],[107.978,-6.5876,55.416],[107.9773,-6.5906,55.7329],[107.9742,-6.5912,57.1945],[107.971,-6.6028,63.2416],[107.9656,-6.6067,66.5044],[107.9647,-6.6104,67.9858],[107.9672,-6.6172,67.1669],[107.9666,-6.6209,68.8914],[107.9702,-6.6237,71.863],[107.9756,-6.635,84.1249],[107.9709,-6.6398,109.2859],[107.9771,-6.6545,122.8086],[107.9857,-6.6622,149.9555],[107.9887,-6.6695,138.3699],[107.9966,-6.6672,122.7172],[107.9986,-6.668,135.1633],[107.9986,-6.67,113.3971],[108.0014,-6.6697,117.202],[108.0046,-6.6726,107.9508],[108.0057,-6.6702,109.4645],[108.0088,-6.6716,103.8586],[108.0083,-6.6743,101.8256],[108.0126,-6.6722,101.0248],[108.0116,-6.675,107.3387],[108.015,-6.6747,97.4623],[108.0167,-6.6762,96.7046],[108.0199,-6.6736,95.7472],[108.0204,-6.6762,91.5863],[108.0219,-6.6754,91.5863],[108.0253,-6.6779,88.4932],[108.0248,-6.674,91.0395],[108.0266,-6.6755,92.089],[108.0275,-6.6741,91.0746],[108.0249,-6.6696,111.8367],[108.0271,-6.6683,87.2816],[108.0276,-6.6643,123.1772],[108.0296,-6.663,87.2277],[108.0281,-6.6606,103.4181],[108.0302,-6.6596,78.4085],[108.0287,-6.6564,72.9418],[108.0308,-6.6546,69.8361],[108.0348,-6.6546,83.302],[108.0324,-6.652,68.9094],[108.0349,-6.6473,66.41],[108.0328,-6.645,69.0058],[108.0345,-6.6434,65.1783],[108.0312,-6.6392,63.2077],[108.032,-6.6369,60.8169],[108.0351,-6.6408,61.6717],[108.0428,-6.6406,64.2348],[108.0422,-6.6371,64.8717],[108.0458,-6.6335,59.6059],[108.0441,-6.6312,65.5222],[108.0476,-6.6332,63.5273],[108.048,-6.6301,63.8936],[108.0459,-6.6293,62.1005],[108.0493,-6.6283,62.2024],[108.0505,-6.6261,53.6257],[108.0523,-6.6269,56.8938],[108.0491,-6.6234,52.9654],[108.0519,-6.6237,53.451],[108.0551,-6.6211,62.1862],[108.0583,-6.6225,53.7734],[108.0573,-6.6188,55.3898],[108.0595,-6.6201,58.2254],[108.0628,-6.6165,50.9121],[108.0643,-6.6173,50.5304],[108.0649,-6.6147,53.6066],[108.0669,-6.6165,52.3421],[108.0678,-6.6129,49.0452],[108.0709,-6.6141,48.4922],[108.0712,-6.6094,48.7161],[108.0689,-6.6085,49.87],[108.0699,-6.6034,47.1003],[108.0726,-6.6022,46.6037],[108.0692,-6.6014,50.9376],[108.0717,-6.6009,46.7782],[108.0699,-6.5992,46.6912],[108.0729,-6.5991,46.3919],[108.0743,-6.5965,47.3455],[108.0722,-6.5947,45.2205],[108.0736,-6.5896,44.4716],[108.071,-6.5882,45.3729],[108.0744,-6.589,43.7912],[108.0745,-6.5836,43.5442],[108.0766,-6.5825,44.0496],[108.0738,-6.5816,43.0053],[108.0755,-6.5801,42.6999],[108.0733,-6.5795,41.8552],[108.075,-6.5767,40.7175],[108.0734,-6.5752,46.5631],[108.0779,-6.5769,41.2812],[108.078,-6.5748,39.7735],[108.081,-6.5734,39.2108],[108.0827,-6.5743,38.2708],[108.0837,-6.5722,37.8654],[108.0858,-6.5729,37.6149],[108.0886,-6.5687,36.7171],[108.0918,-6.568,38.075],[108.0939,-6.5628,38.3471],[108.0956,-6.5638,34.8387],[108.0978,-6.5623,34.5794],[108.0972,-6.5648,37.0716],[108.0993,-6.5622,34.8113],[108.1002,-6.5636,35.3335],[108.1029,-6.5615,33.1003],[108.1048,-6.5621,32.4331],[108.1075,-6.5587,32.5913],[108.1064,-6.5555,31.421],[108.1125,-6.552,30.0657],[108.1133,-6.554,29.2219],[108.1161,-6.5531,31.8676],[108.1155,-6.5504,28.507],[108.1177,-6.5506,27.4087],[108.117,-6.5458,26.2729],[108.1199,-6.5451,28.3029],[108.118,-6.5432,25.6496],[108.1202,-6.5423,25.1207],[108.1198,-6.5412,25.0595],[108.1215,-6.5426,25.0117],[108.123,-6.5408,25.0894],[108.1222,-6.5432,25.5488],[108.1274,-6.5443,24.4122],[108.1288,-6.5411,23.4934],[108.125,-6.5372,27.5643],[108.1267,-6.5367,22.7898],[108.1252,-6.5342,22.5351],[108.1254,-6.5296,22.4038],[108.1284,-6.5291,25.7939],[108.1262,-6.5264,24.5225],[108.1279,-6.5233,23.6304],[108.1262,-6.521,21.5041],[108.1305,-6.518,19.874],[108.1328,-6.5203,19.2015],[108.1335,-6.5157,20.1264],[108.1389,-6.5105,18.0377],[108.1459,-6.511,17.4074],[108.1458,-6.5123,17.9024],[108.1467,-6.5117,17.9024],[108.1458,-6.51,17.4074],[108.1499,-6.5104,16.9979],[108.1496,-6.5088,16.8574],[108.1515,-6.5087,16.3269],[108.1572,-6.5012,14.6898],[108.1559,-6.4907,13.4931],[108.1648,-6.4889,11.7729],[108.1718,-6.4759,10.1393],[108.1749,-6.4795,9.7726],[108.1769,-6.4795,9.902],[108.1787,-6.477,9.2973],[108.1796,-6.4668,7.8386],[108.1812,-6.4667,7.7228],[108.1807,-6.4624,6.7081],[108.1687,-6.4639,9.8392],[108.1698,-6.4691,11.4533],[108.1638,-6.4696,11.87],[108.1657,-6.4664,11.0435],[108.1642,-6.4636,11.0028],[108.1773,-6.4607,6.2471],[108.1785,-6.4543,5.5348],[108.183,-6.4544,5.2199],[108.1902,-6.4492,4.0859],[108.1915,-6.4448,3.6974],[108.173,-6.445,7.2205],[108.1669,-6.451,8.8019],[108.1596,-6.4478,6.8965],[108.148,-6.4468,6.402],[108.1495,-6.4409,5.9849],[108.1517,-6.4411,5.9926],[108.1514,-6.4384,5.9493],[108.1378,-6.4323,7.0243],[108.1351,-6.4339,7.4737],[108.1332,-6.438,8.6841],[108.1304,-6.4374,8.2378],[108.1281,-6.4341,10.8555],[108.1286,-6.4322,10.7225],[108.1245,-6.4327,7.9981],[108.1142,-6.4297,8.8679],[108.1107,-6.4324,9.4464],[108.1105,-6.4387,10.1841],[108.1075,-6.4467,11.4038],[108.1189,-6.4513,13.3205],[108.1246,-6.4506,10.3084],[108.1246,-6.4539,10.9812],[108.1259,-6.454,12.0456],[108.1242,-6.4573,11.4544],[108.1191,-6.4606,11.3963],[108.119,-6.4664,11.677],[108.116,-6.467,12.5321],[108.1152,-6.4702,12.7526],[108.1095,-6.471,13.0893],[108.106,-6.4732,13.8516],[108.1063,-6.4781,14.6061],[108.1089,-6.4801,17.0985],[108.1087,-6.4936,18.9729],[108.105,-6.4981,19.9758],[108.1054,-6.5014,21.1843],[108.1001,-6.5051,22.8342],[108.0983,-6.51,24.2182],[108.0956,-6.511,24.2333],[108.092,-6.5232,28.5973],[108.0792,-6.5332,32.2528],[108.0777,-6.5609,40.4234],[108.0701,-6.5624,36.8439],[108.0256,-6.5645,43.6179],[108.0225,-6.5667,42.3711],[108.0284,-6.5703,43.7571],[108.0268,-6.5723,44.1496],[108.0279,-6.5744,44.4303],[108.0241,-6.579,45.7864],[107.9899,-6.5776,51.4676]]]]}}