{"type":"Feature","properties":{"GID_3":"IDN.27.9.8_1","GID_0":"IDN","country":"Indonesia","GID_1":"IDN.27_1","province":"SulawesiTengah","NL_NAME_1":"NA","GID_2":"IDN.27.9_1","county":"Sigi","NL_NAME_2":"NA","city":"Lindu","VARNAME_3":"NA","NL_NAME_3":"NA","TYPE_3":"Kecamatan","ENGTYPE_3":"Sub-district","CC_3":"7210040","HASC_3":"NA","name":"Lindu.city"},
"geometry":{"type": "MultiPolygon","coordinates": [[[[120.1622,-1.4685,1483.2913],[120.1661,-1.4611,1385.8459],[120.17,-1.4577,1512.9569],[120.1748,-1.4565,1590.9136],[120.1793,-1.4516,1751.6663],[120.1804,-1.4482,1816.853],[120.1871,-1.4516,1870.1255],[120.1955,-1.4502,1994.8064],[120.203,-1.4553,1885.6884],[120.2142,-1.4532,2124.2231],[120.2192,-1.4562,2110.3855],[120.2217,-1.4559,2102.9058],[120.2267,-1.446,1839.0769],[120.2419,-1.4355,1583.8507],[120.2441,-1.4239,1566.5723],[120.2501,-1.4129,1485.6761],[120.2538,-1.4118,1501.5013],[120.2604,-1.4158,1492.2551],[120.2671,-1.4159,1485.4741],[120.277,-1.4078,1565.4617],[120.2794,-1.4022,1456.3813],[120.2791,-1.3984,1522.0968],[120.2759,-1.3964,1588.7046],[120.2735,-1.3894,1599.2869],[120.2652,-1.3858,1666.6418],[120.282,-1.3844,1533.2209],[120.288,-1.3786,1524.5958],[120.2864,-1.37,1619.0094],[120.2881,-1.3655,1550.2057],[120.2808,-1.3557,1831.4032],[120.2764,-1.3461,2047.0924],[120.2715,-1.3414,2170.1987],[120.2652,-1.3392,2224.7061],[120.2607,-1.3356,2108.9646],[120.2574,-1.3219,1957.0171],[120.2403,-1.311,1874.5205],[120.2303,-1.2995,1619.9083],[120.2156,-1.2888,1860.3301],[120.2053,-1.2867,1828.0554],[120.1961,-1.2798,1740.6414],[120.189,-1.277,1812.7788],[120.1804,-1.2698,1920.7899],[120.1792,-1.2624,2083.1123],[120.1625,-1.245,1869.5],[120.1563,-1.2446,1963.702],[120.1503,-1.2392,1692.9668],[120.1466,-1.233,1579.7717],[120.1404,-1.2307,1602.0283],[120.1356,-1.2309,1566.4036],[120.1291,-1.2274,1468.5178],[120.1218,-1.2321,1306.3707],[120.1159,-1.2394,1219.5586],[120.1081,-1.237,1148.186],[120.0862,-1.2444,1321.437],[120.0747,-1.244,1418.8103],[120.0724,-1.2478,1412.3835],[120.0675,-1.2481,1392.545],[120.0631,-1.2569,1393.7279],[120.0529,-1.2683,1352.8898],[120.0488,-1.2709,1267.9033],[120.0376,-1.2681,1067.9807],[120.0274,-1.2781,951.4126],[120.0238,-1.29,1003.2396],[120.0145,-1.308,878.1125],[120.0167,-1.327,961.9197],[120.0116,-1.3401,817.2532],[120.0149,-1.3581,1281.8286],[120.0073,-1.3684,1234.2218],[120.0062,-1.374,1222.1814],[120.0133,-1.3788,1294.1414],[120.0183,-1.3849,1151.5531],[120.0212,-1.3941,1281.1365],[120.0215,-1.4057,1194.2665],[120.0257,-1.4143,1334.34],[120.0615,-1.4385,1564.5557],[120.0931,-1.4505,1469.7722],[120.0993,-1.4549,1477.2698],[120.1111,-1.4828,2086.7334],[120.1304,-1.5023,2064.9966],[120.1364,-1.5039,1910.0361],[120.1371,-1.4958,1978.9657],[120.1438,-1.4927,1982.6511],[120.1511,-1.479,1618.8655],[120.1596,-1.4725,1412.5498],[120.1622,-1.4685,1483.2913]]]]}}