{"type":"Feature","properties":{"GID_3":"IDN.11.12.2_1","GID_0":"IDN","country":"Indonesia","GID_1":"IDN.11_1","province":"JawaTimur","NL_NAME_1":"NA","GID_2":"IDN.11.12_1","county":"KotaKediri","NL_NAME_2":"NA","city":"Mojoroto","VARNAME_3":"NA","NL_NAME_3":"NA","TYPE_3":"Kecamatan","ENGTYPE_3":"Sub-district","CC_3":"3571010","HASC_3":"NA","name":"Mojoroto.city"},
"geometry":{"type": "MultiPolygon","coordinates": [[[[111.9845,-7.8381,84.9248],[112.0036,-7.8425,70.5731],[112.0094,-7.8308,66.6332],[112.0083,-7.8145,66.7358],[112.01,-7.7977,65.7438],[112.0088,-7.7858,64.6633],[112.0062,-7.7828,58.6304],[112.0054,-7.7726,62.4703],[112.0013,-7.7711,65.3685],[111.9974,-7.7715,65.7236],[111.9964,-7.7743,66.7871],[111.9926,-7.7755,73.4851],[111.9906,-7.7815,65.3187],[111.9835,-7.7809,71.8302],[111.9823,-7.7881,72.0398],[111.9766,-7.7935,73.949],[111.9693,-7.7912,105.9924],[111.9563,-7.7967,225.1019],[111.9544,-7.8124,349.1848],[111.9581,-7.8229,125.7719],[111.9752,-7.8245,93.2995],[111.985,-7.8273,83.702],[111.987,-7.8296,82.6437],[111.9845,-7.8381,84.9248]]]]}}