{"type":"Feature","properties":{"GID_2":"IDN.18.4_1","GID_0":"IDN","country":"Indonesia","GID_1":"IDN.18_1","province":"MalukuUtara","NL_NAME_1":"NA","county":"HalmaheraTimur","VARNAME_2":"NA","NL_NAME_2":"NA","TYPE_2":"Kabupaten","ENGTYPE_2":"Regency","CC_2":"8206","HASC_2":"ID.MU.HI","name":"Halmahera_Timur.county"},
"geometry":{"type": "MultiPolygon","coordinates": [[[[128.4688,0.4949,73.8841],[128.4833,0.49,162.7193],[128.4853,0.4862,174.2913],[128.4881,0.4859,187.8557],[128.4893,0.4842,204.0715],[128.4877,0.479,200.1538],[128.4888,0.4723,240.5845],[128.4959,0.4781,219.8552],[128.4966,0.4815,213.6126],[128.5009,0.4802,194.4705],[128.5043,0.4771,157.204],[128.5015,0.4691,207.7524],[128.5031,0.4623,227.3745],[128.5023,0.4552,288.8478],[128.5046,0.4517,329.689],[128.5085,0.4503,536.564],[128.5097,0.4429,567.5625],[128.514,0.4426,495.3838],[128.5199,0.4396,393.512],[128.5238,0.4403,336.4149],[128.524,0.4378,312.496],[128.5332,0.432,347.6178],[128.5391,0.4316,462.4268],[128.5444,0.4218,412.9858],[128.5482,0.4235,426.5154],[128.5534,0.4208,520.5439],[128.5589,0.4222,583.4384],[128.5601,0.4177,595.8381],[128.5623,0.4159,607.2374],[128.5665,0.4185,530.2256],[128.5725,0.4188,398.3763],[128.5772,0.4217,352.3482],[128.5812,0.4345,380.8645],[128.5848,0.4338,349.1584],[128.5924,0.4381,317.0101],[128.596,0.4389,316.8297],[128.5974,0.4368,353.9974],[128.6208,0.4431,342.7133],[128.6237,0.4491,406.7112],[128.6212,0.451,390.8319],[128.619,0.457,381.5768],[128.6184,0.4685,360.7047],[128.6242,0.4764,300.1167],[128.6284,0.4787,288.1132],[128.6261,0.4855,247.2008],[128.6337,0.4864,246.7481],[128.6337,0.4895,237.0449],[128.639,0.4929,154.3687],[128.6396,0.5037,152.7309],[128.642,0.5097,114.2156],[128.6461,0.5135,104.3471],[128.6507,0.5142,94.2162],[128.6571,0.51,86.7181],[128.668,0.506,102.8382],[128.6706,0.5062,108.9966],[128.6763,0.5111,65.1998],[128.6798,0.5059,12.3035],[128.6879,0.5197,4.0925],[128.6897,0.5295,6.1743],[128.684,0.5437,4.5826],[128.6798,0.5471,11.3013],[128.6804,0.5485,0.7561],[128.6789,0.5499,7.0525],[128.6676,0.5492,4.1304],[128.6676,0.5463,9.4889],[128.6637,0.5484,8.3445],[128.6611,0.5451,11.2348],[128.6534,0.5441,2.8057],[128.6471,0.5476,0.0],[128.6479,0.5511,0.0],[128.646,0.5531,10.2496],[128.6412,0.5547,6.2773],[128.6373,0.5533,10.8981],[128.6229,0.5582,3.0222],[128.6208,0.5554,9.8509],[128.6166,0.5551,7.0663],[128.6073,0.5594,4.3125],[128.5847,0.562,11.7554],[128.5717,0.5617,12.3104],[128.5578,0.5689,4.0821],[128.5476,0.5772,2.0952],[128.5338,0.584,20.4501],[128.5233,0.5917,2.8021],[128.5186,0.5889,0.7671],[128.5125,0.5926,1.1846],[128.4987,0.5952,2.7174],[128.4957,0.5944,1.1053],[128.4911,0.5966,1.218],[128.4868,0.5959,0.0],[128.481,0.5979,0.0],[128.4762,0.6004,0.1323],[128.471,0.607,7.2526],[128.4511,0.6203,7.5794],[128.4462,0.6255,0.0],[128.4342,0.6323,1.2236],[128.4268,0.6335,0.9319],[128.4249,0.6322,0.9319],[128.4115,0.6361,0.0],[128.4133,0.6348,5.1165],[128.4125,0.6333,9.3809],[128.4021,0.64,9.2849],[128.3969,0.6407,2.0192],[128.3887,0.6446,2.8542],[128.382,0.6441,3.9339],[128.3822,0.641,3.3133],[128.3848,0.638,10.172],[128.3837,0.6388,12.3412],[128.3818,0.6367,7.6334],[128.3851,0.6363,11.2205],[128.3853,0.6356,11.2205],[128.3844,0.6342,9.3549],[128.3815,0.6364,9.3603],[128.3796,0.6351,20.3299],[128.3775,0.6404,9.6907],[128.3755,0.6398,3.6879],[128.3709,0.643,7.795],[128.3669,0.6438,0.0],[128.3653,0.6391,11.1734],[128.3602,0.6414,5.0078],[128.3552,0.6408,5.7873],[128.3552,0.6422,0.0],[128.3487,0.6447,0.0],[128.3498,0.6473,7.6227],[128.3614,0.65,0.0],[128.3633,0.652,0.0],[128.3572,0.6532,14.9682],[128.3555,0.6557,5.3711],[128.3483,0.6561,5.0871],[128.3463,0.6543,6.6886],[128.3378,0.6588,0.0],[128.3347,0.6588,0.0],[128.3326,0.6579,11.7307],[128.3314,0.6546,6.29],[128.3264,0.6542,1.1841],[128.3244,0.6515,8.7593],[128.3214,0.6566,3.7703],[128.3197,0.6554,16.4122],[128.3123,0.6603,1.5257],[128.2956,0.6946,1.8859],[128.2953,0.7014,0.0],[128.2936,0.7004,0.6468],[128.2844,0.7069,2.5086],[128.2841,0.7091,1.6375],[128.2798,0.7124,0.7809],[128.281,0.7126,0.0],[128.2798,0.715,0.0],[128.2602,0.7384,9.3053],[128.2581,0.7384,53.9686],[128.2542,0.7415,12.376],[128.2494,0.7386,1.3513],[128.2479,0.7314,0.0],[128.2505,0.7304,12.1021],[128.2489,0.7286,13.1396],[128.2387,0.7351,9.0229],[128.2341,0.7442,1.929],[128.2225,0.7544,5.1752],[128.2184,0.7548,6.823],[128.2184,0.7601,0.0],[128.2154,0.7612,8.8144],[128.2131,0.7644,0.0],[128.2094,0.7784,0.0],[128.2027,0.7835,26.7187],[128.2035,0.7854,0.0],[128.1983,0.7896,5.5207],[128.2033,0.7957,0.0],[128.2038,0.7992,8.2363],[128.2023,0.8014,18.2816],[128.2058,0.8077,22.1037],[128.2163,0.8078,5.4996],[128.2198,0.8124,6.8891],[128.2233,0.8144,9.0597],[128.2287,0.8138,10.6867],[128.2398,0.8161,1.7052],[128.2417,0.818,0.0],[128.2409,0.8201,3.888],[128.2431,0.8227,3.1399],[128.2432,0.8261,3.8301],[128.2482,0.8268,0.0],[128.2512,0.8251,0.0],[128.2512,0.8266,2.108],[128.2471,0.8279,4.8851],[128.246,0.8322,0.0],[128.2468,0.8377,2.314],[128.2494,0.8414,9.2274],[128.2576,0.8373,2.5517],[128.2608,0.8379,4.4276],[128.264,0.8345,4.0369],[128.2684,0.8339,49.5306],[128.2727,0.8272,33.5408],[128.2822,0.8202,0.0],[128.2865,0.82,0.0],[128.2881,0.8225,13.1774],[128.2919,0.8235,1.4063],[128.2952,0.8191,12.3464],[128.2939,0.8167,0.0],[128.3033,0.8175,7.3924],[128.3118,0.8158,12.6738],[128.3137,0.8219,0.0],[128.313,0.8279,27.3874],[128.3096,0.8323,0.0],[128.3081,0.8298,38.7257],[128.3026,0.8308,0.0],[128.3,0.8282,10.6184],[128.2954,0.832,37.3227],[128.295,0.8344,25.2048],[128.3018,0.839,0.0],[128.3012,0.8414,23.5317],[128.2984,0.8441,0.0],[128.2926,0.8441,3.4631],[128.2902,0.8486,13.089],[128.2818,0.8524,0.0],[128.281,0.8575,0.0],[128.2825,0.8615,4.7493],[128.2797,0.8657,0.0],[128.2877,0.8761,1.0462],[128.297,0.8817,3.4389],[128.2988,0.888,0.5899],[128.3036,0.8931,0.0],[128.317,0.8974,2.8056],[128.3252,0.9048,0.7468],[128.3303,0.9069,0.0],[128.3347,0.9119,0.0],[128.3419,0.9113,0.4324],[128.3474,0.9087,0.0],[128.3562,0.9132,1.9439],[128.3632,0.9123,2.2076],[128.3728,0.9139,3.1454],[128.3848,0.9109,0.7698],[128.392,0.9205,5.3777],[128.3956,0.9218,1.7823],[128.4053,0.9203,0.0],[128.4112,0.9284,0.0],[128.416,0.9314,6.1068],[128.4307,0.9288,6.6047],[128.4417,0.9296,4.9359],[128.447,0.9325,10.9688],[128.4542,0.9427,0.0],[128.4622,0.9488,10.5841],[128.4842,0.9592,7.7542],[128.4918,0.9609,1.4048],[128.5046,0.9715,2.0749],[128.5139,0.9722,2.3767],[128.5227,0.9686,0.0],[128.5334,0.9708,8.5501],[128.5394,0.976,7.236],[128.5464,0.9888,0.5701],[128.5522,0.996,2.3342],[128.5745,1.0096,7.0477],[128.5915,1.0254,0.0],[128.6015,1.0321,10.9915],[128.6103,1.0424,2.1499],[128.6128,1.043,8.7534],[128.6138,1.0414,0.0],[128.6162,1.0451,0.0],[128.6196,1.0471,20.3365],[128.6224,1.0454,0.0],[128.6267,1.0466,10.5627],[128.6299,1.0417,0.0],[128.6336,1.0447,14.52],[128.6445,1.0487,6.6766],[128.6482,1.0553,0.0],[128.6601,1.0562,5.4813],[128.6711,1.0622,18.5736],[128.6761,1.0618,0.0],[128.6834,1.0679,3.5999],[128.6967,1.0632,0.0],[128.7008,1.0669,0.0],[128.6981,1.0755,0.0],[128.6956,1.0754,8.8419],[128.6933,1.0782,0.0],[128.6883,1.0947,0.0],[128.6891,1.1053,3.5471],[128.6949,1.1175,0.0],[128.6947,1.1389,7.0026],[128.6966,1.141,0.0],[128.6956,1.1485,18.3655],[128.692,1.1539,3.3641],[128.6939,1.1602,8.5138],[128.6918,1.1625,0.0],[128.6919,1.1737,0.0],[128.6901,1.1775,109.2419],[128.6935,1.1845,0.0],[128.691,1.1892,0.0],[128.691,1.1985,0.0],[128.6944,1.2012,0.0],[128.6944,1.2068,0.0],[128.698,1.2147,51.7335],[128.7024,1.2345,1.5576],[128.705,1.2384,0.0],[128.7099,1.2411,0.0],[128.7106,1.2443,5.7226],[128.7194,1.2477,0.0],[128.7206,1.2561,4.3457],[128.717,1.2584,0.0],[128.7111,1.2677,0.0],[128.7093,1.2828,0.0],[128.7105,1.2895,4.9946],[128.7131,1.2942,3.3605],[128.7207,1.3011,4.5334],[128.7238,1.302,0.0],[128.7301,1.3003,0.0],[128.7417,1.31,0.0],[128.7382,1.3151,0.0],[128.7401,1.3182,1.0181],[128.7423,1.3181,0.5898],[128.7427,1.323,4.031],[128.7467,1.3312,0.0],[128.7443,1.3356,0.0],[128.7477,1.3463,2.9003],[128.746,1.3555,0.0],[128.7422,1.3639,0.0],[128.7421,1.371,4.3495],[128.7465,1.379,1.7771],[128.7526,1.3812,0.0],[128.755,1.3838,1.0556],[128.7586,1.3937,0.0],[128.7558,1.3992,0.0],[128.7503,1.4001999999999999,5.9501],[128.7437,1.3971,0.0],[128.7363,1.3988,0.0],[128.7218,1.4084,2.0774],[128.7123,1.4182,4.3658],[128.695,1.443,0.0],[128.6868,1.4602,0.7118],[128.684,1.4632,5.5303],[128.6841,1.4651,0.0],[128.6858,1.4639,0.0],[128.6862,1.4694,0.0],[128.6801,1.4953,0.0],[128.6828,1.5039,0.0],[128.6873,1.5086,0.9079],[128.6968,1.5046,0.0],[128.6959,1.508,10.8007],[128.6972,1.5158,3.5743],[128.7002,1.5207,3.8207],[128.6973,1.5211,7.3427],[128.6965,1.5246,1.4888],[128.6978,1.5263,13.6204],[128.6962,1.5317,16.3499],[128.6969,1.5368,4.967],[128.7022,1.5356,17.0515],[128.7091,1.5385,8.7769],[128.7176,1.5292,34.6113],[128.7227,1.5273,38.9565],[128.7285,1.5332,10.0505],[128.7314,1.534,0.0],[128.7314,1.5394,0.0],[128.73,1.5418,3.9222],[128.7276,1.5408,7.0015],[128.7247,1.5476,16.1286],[128.7236,1.5575,1.6089],[128.7262,1.5641,4.1899],[128.7222,1.5732,1.105],[128.6998,1.5782,10.4909],[128.6987,1.5823,0.0],[128.6841,1.582,8.9258],[128.6767,1.5886,5.1572],[128.6722,1.5898,9.3733],[128.6671,1.5894,0.0],[128.6428,1.579,0.0],[128.6401,1.5789,0.0],[128.6347,1.5831,10.396],[128.6267,1.5826,0.0],[128.6135,1.5751,12.0542],[128.6145,1.5711,91.84],[128.6131,1.5693,3.4256],[128.6081,1.5729,0.0],[128.5996,1.569,2.5171],[128.592,1.569,0.0],[128.5877,1.5711,0.0],[128.5758,1.5694,3.4074],[128.5612,1.5698,16.9818],[128.5533,1.5669,26.3908],[128.5428,1.5603,21.2301],[128.5432,1.5492,34.706],[128.5381,1.543,8.8822],[128.5257,1.5367,94.4983],[128.507,1.5316,13.691],[128.5051,1.5385,0.0],[128.5032,1.5405,0.0],[128.4999,1.5397,1.6759],[128.4999,1.5416,0.0],[128.4973,1.5433,9.0823],[128.4976,1.5448,5.4003],[128.4937,1.5495,0.0],[128.4765,1.5481,24.7701],[128.4761,1.5495,0.0],[128.4728,1.5497,0.0],[128.4727,1.5516,0.0],[128.4673,1.5507,0.0],[128.4569,1.5428,16.3927],[128.4498,1.5417,16.4342],[128.4418,1.5381,7.9063],[128.4414,1.5364,28.5829],[128.4403,1.5375,0.0],[128.436,1.5361,0.0],[128.4238,1.5287,21.2185],[128.4205,1.5292,0.0],[128.4152,1.5268,20.8462],[128.4122,1.5211,0.4904],[128.4081,1.5214,0.0],[128.399,1.5145,7.6771],[128.3979,1.5154,17.721],[128.3936,1.5132,0.0],[128.3826,1.5047,2.932],[128.3698,1.5007,4.2783],[128.3663,1.4972,0.0],[128.3593,1.484,12.3029],[128.3594,1.4759,7.4749],[128.3537,1.4717,2.8107],[128.3519,1.4679,3.5858],[128.346,1.4649,0.0],[128.3473,1.4629,0.9713],[128.3451,1.46,7.8269],[128.3298,1.4542,0.0],[128.3167,1.4469,19.7889],[128.3106,1.4398,1.9095],[128.3031,1.4372,0.0],[128.2985,1.4332,4.8123],[128.2928,1.4331,6.2938],[128.2793,1.4294,5.4728],[128.2568,1.4199,9.6673],[128.2504,1.4217,5.2694],[128.2444,1.42,17.1283],[128.2237,1.4022,0.0],[128.2193,1.394,28.8375],[128.2016,1.3936,20.5875],[128.1923,1.3898,8.0531],[128.1711,1.3709,0.0],[128.1667,1.3664,8.7022],[128.1665,1.3631,47.6121],[128.1639,1.3624,0.0],[128.1565,1.3539,0.0],[128.1484,1.3401,6.1221],[128.1381,1.3134,0.0],[128.1274,1.3025,0.0],[128.1199,1.2903,1.1463],[128.1107,1.287,3.4851],[128.1046,1.2895,0.0],[128.0939,1.285,2.2215],[128.0866,1.2616,7.7179],[128.0865,1.2533,6.2695],[128.0905,1.2441,1.5953],[128.1005,1.2386,0.0],[128.104,1.2392,0.0],[128.111,1.2486,4.3082],[128.1185,1.2474,7.8432],[128.1305,1.2518,16.3811],[128.1358,1.2511,18.2558],[128.146,1.2536,0.0],[128.1573,1.2517,2.2321],[128.1626,1.2477,0.0],[128.1634,1.2488,2.255],[128.1714,1.2477,11.1508],[128.1797,1.2428,3.2853],[128.1861,1.232,15.7261],[128.1853,1.2305,0.0],[128.1894,1.2233,0.0],[128.189,1.2214,0.0],[128.1979,1.2103,0.0],[128.2,1.2056,0.0],[128.199,1.2045,0.0],[128.2009,1.2,22.0584],[128.2006,1.1959,12.5567],[128.195,1.1895,2.0845],[128.1951,1.1863,7.1236],[128.1986,1.1816,9.2733],[128.1946,1.1647,10.1667],[128.1902,1.1618,0.0],[128.19,1.1587,18.825],[128.1809,1.156,0.0],[128.1782,1.1507,0.8172],[128.1756,1.1368,7.4269],[128.172,1.134,1.6133],[128.1721,1.1292,7.0588],[128.166,1.1248,8.5235],[128.1502,1.1243,0.0],[128.1445,1.1198,4.8001],[128.1381,1.1217,4.3379],[128.1346,1.1253,3.6423],[128.1288,1.1279,5.9491],[128.1091,1.1207,0.0],[128.0999,1.1259,0.0],[128.0893,1.1267,5.0201],[128.0879,1.1247,10.0549],[128.0901,1.1229,8.7526],[128.0944,1.1239,14.5127],[128.0992,1.1217,12.5774],[128.0949,1.1211,8.7433],[128.09,1.1226,8.7526],[128.0862,1.1201,19.2589],[128.0831,1.1241,0.0],[128.0775,1.124,0.0],[128.0689,1.123,9.1799],[128.0621,1.1164,13.2969],[128.0534,1.1165,12.4326],[128.0443,1.1139,2.236],[128.0347,1.1143,2.4072],[128.0327,1.1163,0.0],[128.0223,1.112,13.2821],[128.0225,1.1084,8.5525],[128.0182,1.1041,4.4044],[128.0107,1.1022,0.0],[128.0038,1.0963,3.6791],[127.9813,1.0874,0.0],[127.9816,1.0798,9.3351],[127.9758,1.0697,0.0],[127.9771,1.0615,6.1353],[127.9667,1.0507,4.6996],[127.9647,1.0463,6.323],[127.9618,1.0452,1.6505],[127.9635,1.0382,0.0],[127.9605,1.0347,4.0373],[127.9556,1.0324,0.0],[127.9524,1.019,3.5373],[127.9477,1.0171,1.3636],[127.9462,1.0126,25.7877],[127.9432,1.0122,0.0],[127.9406,1.0056,0.0],[127.9353,1.0069,11.5716],[127.9325,1.0051,0.0],[127.9353,0.9971,46.636],[127.9378,0.9964,0.0],[127.9381,0.9995,2.4848],[127.9398,1.0004,2.3292],[127.9405,0.9967,0.0],[127.9453,0.9942,7.5393],[127.9426,0.9929,13.6529],[127.9397,0.9943,0.0],[127.9387,0.993,22.3595],[127.9345,0.9929,0.0],[127.937,0.9853,0.0],[127.9363,0.9775,0.0],[127.929,0.9667,11.6363],[127.9248,0.9656,0.0],[127.9312,0.9295,11.2328],[127.9306,0.9222,0.0],[127.9326,0.9172,5.6324],[127.9302,0.8976,3.1683],[127.9327,0.895,0.0],[127.934,0.8872,4.6007],[127.9309,0.8768,2.3205],[127.9271,0.8736,13.8716],[127.9246,0.8749,0.0],[127.9149,0.8661,9.1124],[127.9075,0.8562,2.3466],[127.9025,0.8539,0.6493],[127.8926,0.8544,2.5796],[127.8889,0.8523,0.7303],[127.8877,0.8392,0.0],[127.8826,0.8285,8.5512],[127.879,0.8267,7.1293],[127.871,0.8264,1.3501],[127.8678,0.8205,6.7228],[127.8604,0.8179,3.8141],[127.8521,0.8101,29.3895],[127.8433,0.8047,4.1907],[127.8315,0.8052,0.0],[127.8293,0.8019,6.928],[127.8226,0.8015,5.6713],[127.8194,0.7989,1.7057],[127.8,0.7974,0.0],[127.7977,0.7959,4.3137],[127.7797,0.8073,0.0],[127.7714,0.8047,5.7389],[127.754,0.8075,0.0],[127.7543,0.8101,0.0],[127.7519,0.8147,0.0],[127.7487,0.8129,3.2446],[127.7346,0.8232,12.2324],[127.7349,0.827,18.2578],[127.7384,0.8293,0.0],[127.7361,0.8318,0.0],[127.7367,0.8358,0.0],[127.7355,0.8375,0.0],[127.7314,0.8371,0.0],[127.7285,0.8443,0.0],[127.7237,0.8426,1.1553],[127.7204,0.8463,2.342],[127.7203,0.8501,5.519],[127.716,0.8488,8.6329],[127.7152,0.8505,0.0],[127.7088,0.8516,11.6602],[127.7057,0.8552,44.242],[127.7064,0.8567,14.309],[127.702,0.8621,0.0],[127.7027,0.8658,0.0],[127.7006,0.868,0.0],[127.7026,0.8688,0.0],[127.7006,0.8752,0.0],[127.7038,0.8748,0.0],[127.7032,0.8764,3.0276],[127.694,0.8791,3.254],[127.6917,0.8746,65.1368],[127.6911,0.8657,75.1291],[127.696,0.8589,94.489],[127.6953,0.8522,144.3085],[127.6983,0.8442,178.7455],[127.6968,0.8341,158.0322],[127.7068,0.8291,244.447],[127.714,0.8106,316.368],[127.7212,0.8043,394.2191],[127.7218,0.8007,393.3107],[127.7192,0.7896,437.7718],[127.7214,0.7835,432.3509],[127.7283,0.7773,471.2692],[127.7351,0.7746,494.1777],[127.7311,0.7622,516.8464],[127.7314,0.7592,529.8029],[127.7365,0.7557,526.2542],[127.7518,0.7572,345.8878],[127.7579,0.7506,194.8421],[127.7573,0.7425,280.1578],[127.7603,0.7402,316.5694],[127.7625,0.7351,442.1893],[127.7667,0.7325,480.418],[127.7671,0.71,474.2463],[127.7694,0.705,450.4558],[127.7827,0.6931,446.3704],[127.7809,0.6842,527.1929],[127.7822,0.6723,508.3735],[127.7886,0.6624,457.6351],[127.7879,0.6561,416.0945],[127.7925,0.6469,371.4259],[127.7921,0.6426,358.2565],[127.7972,0.6409,246.745],[127.8026,0.6413,206.7244],[127.8084,0.646,132.6678],[127.8167,0.6438,164.3544],[127.8189,0.6407,156.7424],[127.8266,0.6385,134.7689],[127.8272,0.6351,130.2529],[127.8255,0.6304,131.3778],[127.8295,0.6225,123.4333],[127.8433,0.6182,119.6527],[127.847,0.62,116.8996],[127.8537,0.6177,65.0077],[127.8571,0.623,65.9478],[127.8636,0.6257,66.4173],[127.8634,0.6306,71.0463],[127.8672,0.6327,100.6513],[127.8694,0.6313,89.2883],[127.8725,0.6328,99.7584],[127.8724,0.6315,97.1993],[127.8751,0.6322,130.2738],[127.88,0.6297,130.0962],[127.8837,0.6311,173.2826],[127.9054,0.6274,129.2987],[127.9227,0.6279,65.2336],[127.928,0.6253,68.3741],[127.936,0.6352,74.3054],[127.94,0.634,80.2473],[127.9401,0.6308,68.1814],[127.9479,0.6283,96.8325],[127.9486,0.63,86.004],[127.9521,0.6302,90.3285],[127.953,0.6328,90.9823],[127.9515,0.6343,126.445],[127.9526,0.6352,87.5198],[127.9562,0.6325,92.0717],[127.9607,0.6362,90.5647],[127.9642,0.6332,99.4769],[127.9709,0.6389,106.0236],[127.9779,0.6377,109.5865],[127.9865,0.6454,144.0926],[127.9831,0.6516,126.2177],[127.9887,0.6504,158.2117],[127.992,0.6537,148.9353],[127.9955,0.6531,146.3029],[127.9954,0.6567,140.3301],[128.0016,0.6566,158.0561],[128.0092,0.6499,171.5191],[128.0184,0.6504,177.3134],[128.0244,0.6435,219.8475],[128.0266,0.6452,200.6331],[128.0271,0.6433,201.5777],[128.0332,0.6443,237.9876],[128.035,0.642,236.0528],[128.0386,0.6449,244.2423],[128.0446,0.638,455.7174],[128.0496,0.6381,505.7791],[128.057,0.6428,770.4357],[128.0635,0.6401,763.9075],[128.066,0.6354,697.7658],[128.0653,0.6227,665.936],[128.0637,0.6204,683.0907],[128.066,0.616,664.6108],[128.0843,0.6147,630.9146],[128.0912,0.6089,657.5],[128.0952,0.6027,774.9237],[128.0988,0.6041,776.628],[128.1,0.6066,758.421],[128.1052,0.6051,833.1086],[128.1067,0.6003,840.5475],[128.117,0.5911,821.9587],[128.1206,0.5943,742.4809],[128.135,0.5891,739.0077],[128.1415,0.5912,597.6155],[128.1448,0.5947,556.5518],[128.152,0.5953,470.2409],[128.1612,0.5899,390.2568],[128.1683,0.5892,349.8214],[128.1723,0.5927,333.3654],[128.1786,0.59,405.6674],[128.1824,0.5965,262.1508],[128.1853,0.5939,181.6988],[128.1891,0.5966,159.6537],[128.2021,0.598,465.6658],[128.2056,0.6014,585.9998],[128.2111,0.6008,487.8764],[128.2161,0.5981,426.7687],[128.2182,0.595,389.5421],[128.2269,0.5936,348.5877],[128.237,0.5866,437.4869],[128.2408,0.5824,556.7599],[128.2422,0.5771,537.0795],[128.2511,0.5698,514.6951],[128.2621,0.571,466.7396],[128.2641,0.57,322.1803],[128.2668,0.5666,332.1786],[128.2706,0.5502,472.2956],[128.273,0.5489,463.1463],[128.2788,0.5482,553.5016],[128.2857,0.5539,497.1224],[128.3168,0.5545,383.3932],[128.3163,0.552,309.319],[128.3184,0.5473,275.2256],[128.3263,0.5425,236.6684],[128.3283,0.5393,224.7669],[128.3373,0.5372,279.8399],[128.3382,0.5297,222.5308],[128.3417,0.5232,234.3929],[128.3501,0.5175,176.8489],[128.3528,0.5134,217.9794],[128.3585,0.5106,225.3211],[128.3702,0.5131,180.5333],[128.3753,0.5122,222.1134],[128.3823,0.5074,216.6386],[128.3888,0.5084,197.4258],[128.3927,0.5068,203.0364],[128.3994,0.509,186.6475],[128.4027,0.5023,214.4655],[128.4069,0.5053,170.8153],[128.4098,0.503,170.9463],[128.4221,0.5041,177.6788],[128.4273,0.5021,153.2505],[128.4379,0.5048,169.7426],[128.4416,0.5013,133.1745],[128.447,0.5019,143.0311],[128.4514,0.4989,135.0028],[128.4554,0.4985,120.7547],[128.4583,0.496,130.2889],[128.457,0.4925,141.9256],[128.4595,0.4911,144.6316],[128.4645,0.4944,68.1644],[128.4688,0.4949,73.8841]]],
[[[128.3783,0.6392,9.6907],[128.3797,0.6372,2.6918],[128.3825,0.6397,4.4585],[128.38,0.6419,9.0913],[128.3783,0.6392,9.6907]]],
[[[128.3034,0.7076,2.5098],[128.3008,0.7083,19.4904],[128.2985,0.7036,0.0],[128.305,0.7053,0.0],[128.3034,0.7076,2.5098]]],
[[[128.3197,0.8225,0.0],[128.3197,0.8219,0.0],[128.3201,0.823,0.0],[128.3198,0.823,0.0],[128.3197,0.8225,0.0]]],
[[[128.3227,0.8426,0.0],[128.3204,0.8431,9.8031],[128.3195,0.8367,0.0],[128.3213,0.8338,1.6873],[128.3221,0.8259,66.2555],[128.3268,0.8245,0.0],[128.3301,0.8268,0.0],[128.3325,0.8313,0.0],[128.33,0.8361,28.6341],[128.325,0.8383,20.8479],[128.3227,0.8426,0.0]]],
[[[128.509,0.7994,2.2312],[128.5097,0.7983,0.0],[128.5107,0.7988,0.0],[128.5099,0.8007,0.0],[128.509,0.7994,2.2312]]],
[[[128.4425,0.8388,0.0],[128.4426,0.8385,0.0],[128.4431,0.8387,0.0],[128.443,0.839,0.0],[128.4425,0.8388,0.0]]],
[[[128.6583,0.5592,0.0],[128.6524,0.5587,5.3344],[128.6499,0.557,5.8668],[128.6501,0.5551,2.1188],[128.652,0.5534,0.0],[128.6553,0.5538,0.0],[128.6581,0.5568,0.0],[128.6583,0.5592,0.0]]],
[[[128.6307,0.5651,0.0],[128.629,0.5671,0.0],[128.6189,0.5656,1.0828],[128.6212,0.5611,4.1333],[128.6304,0.56,0.0],[128.6322,0.5618,0.0],[128.6307,0.5651,0.0]]],
[[[128.6468,0.5731,4.9974],[128.6481,0.5755,0.0],[128.6468,0.5779,3.6406],[128.6446,0.5774,1.0557],[128.6437,0.5751,8.2504],[128.6412,0.5752,7.9052],[128.636,0.571,1.6888],[128.6361,0.5653,0.0],[128.6482,0.5616,0.0],[128.6569,0.5643,2.876],[128.6624,0.5628,0.0],[128.6704,0.5678,0.0],[128.6661,0.5697,0.9266],[128.6643,0.5738,1.1672],[128.6603,0.5754,6.164],[128.6468,0.5731,4.9974]]],
[[[128.5206,0.6251,0.0],[128.5235,0.6246,2.0377],[128.5292,0.6287,0.0],[128.5388,0.6323,3.3905],[128.541,0.6347,1.0755],[128.5407,0.6372,0.0],[128.5375,0.6391,1.6804],[128.5328,0.6388,0.0],[128.5205,0.63,6.2416],[128.5206,0.6251,0.0]]],
[[[128.4773,0.6667,0.0],[128.474,0.6666,8.5031],[128.4727,0.6648,4.3882],[128.4745,0.6643,0.0],[128.4773,0.6667,0.0]]],
[[[128.5175,0.7085,2.8127],[128.5189,0.7073,2.8127],[128.5257,0.7132,0.0],[128.5201,0.7115,8.3802],[128.5175,0.7085,2.8127]]],
[[[128.4959,0.7579,0.0],[128.4968,0.7572,0.0],[128.4978,0.7582,1.5708],[128.4964,0.7584,0.0],[128.4959,0.7579,0.0]]],
[[[128.6431,0.6303,1.4761],[128.6386,0.634,0.0],[128.6335,0.633,7.6784],[128.6326,0.6313,0.0],[128.6389,0.6236,0.0],[128.6475,0.6222,0.0],[128.6483,0.623,0.0],[128.6431,0.6303,1.4761]]],
[[[128.5509,0.7304,0.0],[128.5528,0.7297,0.0],[128.5537,0.7313,0.0],[128.5493,0.7336,6.6222],[128.5483,0.7321,6.6222],[128.5509,0.7304,0.0]]],
[[[127.9303,0.994,4.7001],[127.9295,0.996,0.0],[127.9278,0.994,15.4536],[127.9246,0.9945,0.0],[127.9246,0.9929,0.0],[127.9254,0.9912,8.6603],[127.9311,0.9893,0.0],[127.9337,0.9918,0.0],[127.9303,0.994,4.7001]]],
[[[127.9322,1.0053,0.0],[127.9319,1.0052,0.0],[127.9322,1.0048,0.0],[127.9323,1.0051,0.0],[127.9322,1.0053,0.0]]],
[[[127.9514,1.0254,0.0],[127.9507,1.0244,0.0],[127.9524,1.0248,0.0],[127.9511,1.0266,0.0],[127.9509,1.0263,0.0],[127.9514,1.0254,0.0]]]]}}