{"type":"Feature","properties":{"GID_3":"IDN.11.7.2_1","GID_0":"IDN","country":"Indonesia","GID_1":"IDN.11_1","province":"JawaTimur","NL_NAME_1":"NA","GID_2":"IDN.11.7_1","county":"Gresik","NL_NAME_2":"NA","city":"Benjeng","VARNAME_3":"NA","NL_NAME_3":"NA","TYPE_3":"Kecamatan","ENGTYPE_3":"Sub-district","CC_3":"3525060","HASC_3":"NA","name":"Benjeng.city"},
"geometry":{"type": "MultiPolygon","coordinates": [[[[112.4845,-7.2962,16.2106],[112.4868,-7.2875,14.2365],[112.4888,-7.285,13.9393],[112.4974,-7.2841,12.8077],[112.4993,-7.2824,12.4641],[112.5055,-7.2604,11.9806],[112.5137,-7.2502,7.9569],[112.5163,-7.2436,8.4515],[112.5151,-7.2371,9.162],[112.506,-7.2319,8.1381],[112.5074,-7.2254,11.5635],[112.5189,-7.224,8.1075],[112.5231,-7.2173,13.5249],[112.5231,-7.2138,13.1905],[112.5165,-7.2068,12.1723],[112.5075,-7.18,10.3117],[112.5045,-7.1776,4.1042],[112.5043,-7.1867,8.775],[112.5023,-7.1923,9.6705],[112.4841,-7.1972,13.5013],[112.4726,-7.2045,16.9744],[112.4732,-7.217,12.7616],[112.4628,-7.2474,14.6114],[112.4646,-7.2557,13.7668],[112.4747,-7.2737,15.0802],[112.4738,-7.2797,15.5487],[112.4639,-7.2975,17.9679],[112.4623,-7.3124,21.2443],[112.4678,-7.3065,20.6291],[112.4717,-7.3049,20.1863],[112.4774,-7.3057,18.6917],[112.4788,-7.3115,20.7037],[112.4845,-7.3084,18.363],[112.4856,-7.3068,16.7955],[112.4839,-7.301,16.3078],[112.4845,-7.2962,16.2106]]]]}}