{"type":"Feature","properties":{"GID_3":"IDN.3.5.1_1","GID_0":"IDN","country":"Indonesia","GID_1":"IDN.3_1","province":"BangkaBelitung","NL_NAME_1":"NA","GID_2":"IDN.3.5_1","county":"BelitungTimur","NL_NAME_2":"NA","city":"Damar","VARNAME_3":"NA","NL_NAME_3":"NA","TYPE_3":"Kecamatan","ENGTYPE_3":"Sub-district","CC_3":"1906031","HASC_3":"NA","name":"Damar.city"},
"geometry":{"type": "MultiPolygon","coordinates": [[[[108.2823,-2.8045,0.0],[108.2722,-2.7786,0.0],[108.269,-2.7762,0.7379],[108.2662,-2.7706,3.1045],[108.2673,-2.7589,0.0],[108.2711,-2.7568,10.4004],[108.2708,-2.7518,13.1166],[108.2666,-2.7484,33.9211],[108.2673,-2.7474,0.0],[108.2648,-2.7465,19.2786],[108.2642,-2.7438,0.0],[108.2591,-2.7439,1.0622],[108.2566,-2.7412,0.0],[108.2549,-2.7426,2.0817],[108.2509,-2.7423,0.0],[108.2481,-2.7402,11.1613],[108.2454,-2.7338,1.3088],[108.2418,-2.7315,4.9137],[108.2398,-2.7257,4.9194],[108.237,-2.7226,0.0],[108.2312,-2.7199,7.7358],[108.2257,-2.7139,2.6686],[108.2234,-2.714,14.2332],[108.2185,-2.7063,13.4826],[108.2188,-2.703,2.8049],[108.2102,-2.7004,1.1188],[108.2083,-2.7015,9.1762],[108.204,-2.6909,1.563],[108.2018,-2.6897,6.5687],[108.1994,-2.6951,9.0987],[108.1972,-2.6913,0.0],[108.1926,-2.6916,12.9582],[108.1933,-2.6863,0.0],[108.1916,-2.6832,4.6683],[108.1975,-2.6835,0.0],[108.1918,-2.6796,2.002],[108.183,-2.6749,1.3227],[108.1814,-2.6755,1.6664],[108.1845,-2.6791,5.1697],[108.1793,-2.6784,3.3136],[108.1782,-2.6774,13.9592],[108.1791,-2.6746,0.0],[108.1761,-2.671,1.4031],[108.1711,-2.6688,1.7306],[108.17,-2.6775,0.0],[108.1661,-2.6868,10.4814],[108.1612,-2.6829,2.4641],[108.1624,-2.6756,0.0],[108.153,-2.6736,1.2665],[108.1459,-2.6768,6.9485],[108.1374,-2.6901,5.206],[108.1397,-2.6924,7.224],[108.1397,-2.6971,2.0548],[108.1359,-2.6994,8.4683],[108.1243,-2.701,11.8663],[108.1208,-2.704,25.9012],[108.112,-2.7235,38.05],[108.126,-2.7468,37.0913],[108.1245,-2.7577,24.378],[108.1314,-2.7685,22.4748],[108.1305,-2.7778,29.9376],[108.122,-2.7772,39.6075],[108.1172,-2.7802,39.6391],[108.1119,-2.7797,50.7561],[108.1112,-2.7875,114.4986],[108.1055,-2.7924,317.1241],[108.1171,-2.8094,47.3138],[108.1187,-2.8288,28.606],[108.1223,-2.833,19.9984],[108.1287,-2.836,20.0298],[108.1667,-2.8367,20.4069],[108.1675,-2.8248,21.0135],[108.1763,-2.8278,20.8166],[108.1799,-2.8274,19.4666],[108.1923,-2.8334,2.1998],[108.1936,-2.8328,2.6182],[108.1942,-2.8373,12.925],[108.1981,-2.8375,7.3177],[108.203,-2.8403,7.2769],[108.2051,-2.8449,14.7797],[108.2115,-2.8517,4.4963],[108.2179,-2.8526,4.558],[108.2211,-2.8474,1.3257],[108.2383,-2.8522,3.1907],[108.2388,-2.8549,1.3843],[108.2448,-2.8564,3.0881],[108.2483,-2.8553,5.7172],[108.245,-2.8537,5.2463],[108.2504,-2.8537,2.5685],[108.2516,-2.8562,3.5317],[108.2489,-2.858,0.957],[108.2487,-2.8607,3.2113],[108.2554,-2.8602,4.5971],[108.2565,-2.8624,1.6997],[108.2633,-2.8628,4.019],[108.2701,-2.8602,1.6116],[108.2738,-2.8539,5.1593],[108.2845,-2.8497,3.162],[108.2884,-2.8452,0.3824],[108.2922,-2.8491,0.2373],[108.2964,-2.8461,0.0],[108.2907,-2.8226,0.0],[108.2866,-2.8176,0.0],[108.2823,-2.8045,0.0]]]]}}