{"type":"Feature","properties":{"GID_3":"IDN.1.3.1_1","GID_0":"IDN","country":"Indonesia","GID_1":"IDN.1_1","province":"Aceh","NL_NAME_1":"NA","GID_2":"IDN.1.3_1","county":"AcehBesar","NL_NAME_2":"NA","city":"Baitussalam","VARNAME_3":"NA","NL_NAME_3":"NA","TYPE_3":"Kecamatan","ENGTYPE_3":"Sub-district","CC_3":"1108061","HASC_3":"NA","name":"Baitussalam.city"},
"geometry":{"type": "MultiPolygon","coordinates": [[[[95.3791,5.5855,4.3023],[95.3893,5.5979,3.7222],[95.3942,5.5989,4.5418],[95.3975,5.5965,5.8986],[95.4038,5.602,7.5795],[95.4118,5.6136,1.7195],[95.4118,5.6167,3.3304],[95.4088,5.6214,2.912],[95.4061,5.621,1.0992],[95.4052,5.6224,1.2866],[95.4037,5.6207,0.7918],[95.3988,5.621,2.4723],[95.3997,5.6177,0.5478],[95.3975,5.6163,0.9676],[95.3962,5.6215,1.1405],[95.3855,5.621,0.0],[95.367,5.6103,0.0],[95.3669,5.6075,0.6957],[95.3575,5.6031,0.0],[95.3545,5.5963,0.1456],[95.3558,5.585,0.6804],[95.3601,5.5852,0.7803],[95.3641,5.5882,1.954],[95.3646,5.5862,0.7776],[95.3686,5.5892,2.7442],[95.3713,5.5773,4.4173],[95.3791,5.5855,4.3023]]]]}}