{"type":"Feature","properties":{"GID_3":"IDN.17.7.5_1","GID_0":"IDN","country":"Indonesia","GID_1":"IDN.17_1","province":"Lampung","NL_NAME_1":"NA","GID_2":"IDN.17.7_1","county":"Mesuji","NL_NAME_2":"NA","city":"RawajituUtara","VARNAME_3":"NA","NL_NAME_3":"NA","TYPE_3":"Kecamatan","ENGTYPE_3":"Sub-district","CC_3":"1811070","HASC_3":"NA","name":"Rawajitu_Utara.city"},
"geometry":{"type": "MultiPolygon","coordinates": [[[[105.7556,-4.1702,1.6416],[105.7547,-4.1609,1.8201],[105.7516,-4.1545,1.9457],[105.753,-4.1471,4.551],[105.7469,-4.1496,2.1939],[105.7415,-4.1465,3.843],[105.7345,-4.1379,0.0],[105.7294,-4.1345,3.4161],[105.7082,-4.1431,1.4489],[105.702,-4.14,4.5002],[105.6974,-4.1297,0.0],[105.698,-4.1257,0.0],[105.709,-4.114,0.0],[105.711,-4.1083,0.0],[105.7086,-4.1063,10.1939],[105.7002,-4.1044,9.6209],[105.6898,-4.1041,6.9849],[105.6871,-4.1013,5.8689],[105.6839,-4.096,0.0],[105.6842,-4.0795,0.0],[105.6773,-4.0789,10.8475],[105.6715,-4.0905,3.2532],[105.6631,-4.0955,3.2072],[105.6543,-4.091,0.5],[105.647,-4.0735,0.5],[105.6481,-4.0666,8.398],[105.6613,-4.0614,7.8354],[105.6644,-4.0581,8.4619],[105.6648,-4.0551,4.8893],[105.6605,-4.0482,8.8865],[105.6518,-4.0492,8.8274],[105.6444,-4.0523,2.4515],[105.6402,-4.0519,2.3364],[105.631,-4.0448,6.7931],[105.6254,-4.0435,12.3268],[105.6225,-4.0458,9.9717],[105.6219,-4.0565,1.7938],[105.6183,-4.0613,1.3344],[105.611,-4.0617,3.7049],[105.6067,-4.0581,3.5201],[105.5945,-4.0604,3.7562],[105.5941,-4.0685,4.1876],[105.5901,-4.0683,7.2758],[105.5889,-4.0882,8.3444],[105.5988,-4.1056,2.4326],[105.5961,-4.112,8.1917],[105.5956,-4.1243,5.9205],[105.587,-4.131,6.6524],[105.5838,-4.1366,2.7784],[105.5826,-4.1563,6.6648],[105.5795,-4.1603,8.6473],[105.5728,-4.1645,8.0501],[105.5713,-4.1709,16.282],[105.566,-4.1791,8.2643],[105.5736,-4.183,8.4318],[105.5753,-4.1855,9.6063],[105.6017,-4.1928,24.48],[105.6067,-4.1993,13.3213],[105.6069,-4.2189,21.759],[105.6222,-4.2204,22.1709],[105.6253,-4.2153,23.4474],[105.6539,-4.2173,4.8575],[105.655,-4.1959,5.0064],[105.6828,-4.1928,2.0224],[105.6827,-4.191,2.0079],[105.7199,-4.188,1.5974],[105.7214,-4.1998,1.6942],[105.7576,-4.194,2.505],[105.7556,-4.1702,1.6416]]]]}}