{"type":"Feature","properties":{"GID_3":"IDN.14.5.3_1","GID_0":"IDN","country":"Indonesia","GID_1":"IDN.14_1","province":"KalimantanTengah","NL_NAME_1":"NA","GID_2":"IDN.14.5_1","county":"Kapuas","NL_NAME_2":"NA","city":"Dadahup","VARNAME_3":"NA","NL_NAME_3":"NA","TYPE_3":"Kecamatan","ENGTYPE_3":"Sub-district","CC_3":"6203101","HASC_3":"NA","name":"Dadahup.city"},
"geometry":{"type": "MultiPolygon","coordinates": [[[[114.6385,-2.732,3.2437],[114.6615,-2.6935,2.4653],[114.6715,-2.6998,2.5964],[114.6964,-2.6604,2.8258],[114.6882,-2.6542,3.7288],[114.7057,-2.6258,3.5603],[114.7093,-2.6269,2.9038],[114.7341,-2.5837,3.2368],[114.7137,-2.5722,4.4118],[114.698,-2.5719,7.7939],[114.7014,-2.5681,5.6593],[114.7065,-2.5542,4.872],[114.7194,-2.5345,7.0053],[114.7226,-2.5262,5.2105],[114.7361,-2.5174,6.24],[114.743,-2.4996,4.3274],[114.7519,-2.4973,6.13],[114.7557,-2.4944,5.8968],[114.7572,-2.4907,8.9559],[114.7565,-2.4869,6.5428],[114.7483,-2.4818,3.4336],[114.7412,-2.4868,8.6081],[114.7382,-2.4865,9.6114],[114.7368,-2.4751,7.7438],[114.7378,-2.4707,4.5505],[114.7224,-2.4644,4.3298],[114.7027,-2.4798,4.3225],[114.6545,-2.5601,5.9847],[114.6176,-2.544,3.9986],[114.6016,-2.5586,4.2879],[114.5225,-2.6634,4.4393],[114.5157,-2.7014,3.8107],[114.582,-2.7263,3.0865],[114.5832,-2.7189,6.6867],[114.6057,-2.7107,3.5791],[114.6079,-2.7133,3.314],[114.6126,-2.7756,6.4934],[114.6385,-2.732,3.2437]]]]}}