{"type":"Feature","properties":{"GID_3":"IDN.23.26.3_1","GID_0":"IDN","country":"Indonesia","GID_1":"IDN.23_1","province":"Papua","NL_NAME_1":"NA","GID_2":"IDN.23.26_1","county":"Tolikara","NL_NAME_2":"NA","city":"Bokondini","VARNAME_3":"NA","NL_NAME_3":"NA","TYPE_3":"Distrik","ENGTYPE_3":"District","CC_3":"9418030","HASC_3":"NA","name":"Bokondini.city"},
"geometry":{"type": "MultiPolygon","coordinates": [[[[138.6669,-3.6756,1248.9254],[138.6606,-3.6785,1266.0754],[138.6596,-3.6942,1835.0989],[138.6611,-3.7078,1916.9592],[138.696,-3.7032,1313.4325],[138.7401,-3.6558,1001.6101],[138.7501,-3.6466,1277.1018],[138.7593,-3.6424,1686.5325],[138.7554,-3.5634,2065.8757],[138.7567,-3.5175,2915.8264],[138.7484,-3.5214,2848.6484],[138.7321,-3.5175,2333.5469],[138.7236,-3.5116,1897.8754],[138.7073,-3.4933,1504.9725],[138.6851,-3.475,1146.4536],[138.6766,-3.4646,1117.4996],[138.638,-3.4424,682.2316],[138.6282,-3.426,573.7583],[138.6223,-3.4091,537.1119],[138.5936,-3.3881,357.9669],[138.5799,-3.3829,330.1203],[138.5596,-3.3782,270.7771],[138.5557,-3.3729,266.8648],[138.5454,-3.3851,345.3544],[138.5385,-3.3969,421.5883],[138.54,-3.4135,488.7489],[138.5464,-3.4356,624.8318],[138.5444,-3.4459,724.0984],[138.54,-3.4532,841.3721],[138.5444,-3.4625,924.2546],[138.5405,-3.4738,1090.0063],[138.5287,-3.4758,1206.2717],[138.5263,-3.4865,1455.0299],[138.5297,-3.491,1567.3351],[138.5273,-3.4963,1676.9155],[138.539,-3.5115,2046.615],[138.5503,-3.5169,2313.1111],[138.5567,-3.5253,2602.666],[138.5694,-3.5316,3034.3264],[138.5748,-3.538,3544.8931],[138.5959,-3.5507,3141.0483],[138.6067,-3.5596,2607.4199],[138.6116,-3.5689,2472.0051],[138.6071,-3.5782,2368.3918],[138.6111,-3.5838,2325.417],[138.6158,-3.581,2281.9055],[138.6224,-3.5821,2195.3044],[138.6271,-3.578,2135.4966],[138.6362,-3.5777,2126.5591],[138.6368,-3.584,1991.9669],[138.6425,-3.5791,1972.0619],[138.6481,-3.5777,1920.7549],[138.6541,-3.5791,1859.3384],[138.655,-3.5816,1742.686],[138.6599,-3.5791,1680.0693],[138.662,-3.5827,1675.564],[138.662,-3.5864,1627.0591],[138.6689,-3.5849,1523.5173],[138.6694,-3.5938,1456.7454],[138.6772,-3.5874,1484.9476],[138.6875,-3.5913,1388.8806],[138.6909,-3.6099,1715.1672],[138.6914,-3.631,1203.6755],[138.6733,-3.6354,1479.7401],[138.6689,-3.6462,1917.1952],[138.6699,-3.6638,1782.7697],[138.6669,-3.6756,1248.9254]]]]}}