{"type":"Feature","properties":{"GID_3":"IDN.10.2.3_1","GID_0":"IDN","country":"Indonesia","GID_1":"IDN.10_1","province":"JawaTengah","NL_NAME_1":"NA","GID_2":"IDN.10.2_1","county":"Banyumas","NL_NAME_2":"NA","city":"Baturraden","VARNAME_3":"NA","NL_NAME_3":"NA","TYPE_3":"Kecamatan","ENGTYPE_3":"Sub-district","CC_3":"3302200","HASC_3":"NA","name":"Baturraden.city"},
"geometry":{"type": "MultiPolygon","coordinates": [[[[109.2386,-7.3913,133.7194],[109.2374,-7.3828,168.295],[109.2458,-7.3825,167.9045],[109.2443,-7.3755,186.9596],[109.243,-7.375,186.9596],[109.2433,-7.3677,228.9145],[109.2445,-7.3671,228.9145],[109.2394,-7.3605,274.0833],[109.2397,-7.3549,294.0945],[109.2424,-7.3518,311.22],[109.2431,-7.3464,334.3712],[109.2408,-7.3391,380.8233],[109.2415,-7.3346,408.2055],[109.2443,-7.3292,458.949],[109.2416,-7.3203,524.6523],[109.2434,-7.3175,588.0273],[109.2415,-7.3104,657.4527],[109.2435,-7.3027,754.6486],[109.2433,-7.2933,901.6398],[109.2334,-7.2709,1600.8293],[109.2196,-7.2579,2552.6895],[109.2167,-7.2489,3097.1045],[109.2021,-7.2473,2746.7444],[109.1952,-7.2508,2720.5955],[109.1995,-7.2608,2389.8435],[109.2009,-7.2724,1980.9293],[109.2053,-7.279,1726.8743],[109.2052,-7.2848,1497.6824],[109.2081,-7.2904,1321.959],[109.2069,-7.2989,1070.8284],[109.2106,-7.3123,702.6797],[109.2077,-7.32,787.97],[109.2094,-7.3204,787.97],[109.2097,-7.3226,677.1279],[109.2138,-7.3208,584.7034],[109.2173,-7.3217,568.4831],[109.2209,-7.3291,468.965],[109.2193,-7.3311,463.9494],[109.2212,-7.3322,410.1462],[109.2189,-7.335,427.4255],[109.2192,-7.3416,354.6104],[109.2174,-7.3448,351.5271],[109.222,-7.3501,352.7615],[109.2203,-7.3522,315.8431],[109.2227,-7.3554,290.0429],[109.2207,-7.3584,278.688],[109.2214,-7.3598,255.1116],[109.2188,-7.3607,268.988],[109.2191,-7.3685,232.6437],[109.2204,-7.3681,226.2852],[109.2204,-7.3712,224.8498],[109.2222,-7.3712,209.4825],[109.221,-7.3726,214.9867],[109.2243,-7.3778,172.2948],[109.227,-7.3786,154.8668],[109.2233,-7.3807,161.3186],[109.2258,-7.3911,127.2827],[109.2248,-7.3967,105.2258],[109.2289,-7.3965,119.1882],[109.2336,-7.3987,119.5918],[109.2343,-7.3925,136.1595],[109.2386,-7.3913,133.7194]]]]}}