{"type":"Feature","properties":{"GID_3":"IDN.26.18.4_1","GID_0":"IDN","country":"Indonesia","GID_1":"IDN.26_1","province":"SulawesiSelatan","NL_NAME_1":"NA","GID_2":"IDN.26.18_1","county":"SidenrengRappang","NL_NAME_2":"NA","city":"Maritengngae","VARNAME_3":"NA","NL_NAME_3":"NA","TYPE_3":"Kecamatan","ENGTYPE_3":"Sub-district","CC_3":"7314060","HASC_3":"NA","name":"Maritengngae.city"},
"geometry":{"type": "MultiPolygon","coordinates": [[[[119.7907,-3.9762,24.2098],[119.7939,-3.9765,25.599],[119.7976,-3.9807,22.0102],[119.8218,-3.9789,11.9007],[119.8331,-3.9666,7.4599],[119.8162,-3.9566,10.2943],[119.8172,-3.9554,9.3835],[119.8267,-3.9581,7.9049],[119.8289,-3.9547,8.2248],[119.8268,-3.9536,8.131],[119.8264,-3.95,9.8631],[119.8177,-3.9513,8.4347],[119.8179,-3.9383,9.3438],[119.8137,-3.9361,10.0631],[119.8177,-3.9266,11.9768],[119.8197,-3.9309,11.4887],[119.8211,-3.929,11.7558],[119.8253,-3.918,13.5374],[119.8232,-3.9131,14.3562],[119.8233,-3.908,15.5902],[119.8279,-3.9014,19.001],[119.8317,-3.8998,19.8239],[119.8336,-3.8882,22.3225],[119.8423,-3.8757,27.175],[119.8429,-3.8691,29.5598],[119.8252,-3.86,28.1729],[119.8198,-3.8724,26.3641],[119.8163,-3.8749,28.8961],[119.815,-3.8798,27.1656],[119.8008,-3.8749,21.4685],[119.7896,-3.8848,16.0357],[119.78,-3.8902,13.8619],[119.7691,-3.9171,27.3987],[119.7688,-3.9267,22.4648],[119.7802,-3.9304,18.9773],[119.777,-3.9381,21.2824],[119.7649,-3.9392,27.2611],[119.7684,-3.9452,35.7812],[119.7705,-3.9618,42.5182],[119.7736,-3.9645,51.4905],[119.7755,-3.9731,37.4609],[119.7837,-3.976,31.7842],[119.7907,-3.9762,24.2098]]]]}}