{"type":"Feature","properties":{"GID_3":"IDN.11.35.5_1","GID_0":"IDN","country":"Indonesia","GID_1":"IDN.11_1","province":"JawaTimur","NL_NAME_1":"NA","GID_2":"IDN.11.35_1","county":"Surabaya","NL_NAME_2":"NA","city":"DukuhPakis","VARNAME_3":"NA","NL_NAME_3":"NA","TYPE_3":"Kecamatan","ENGTYPE_3":"Sub-district","CC_3":"3578120","HASC_3":"NA","name":"Dukuh_Pakis.city"},
"geometry":{"type": "MultiPolygon","coordinates": [[[[112.7188,-7.2917,15.5595],[112.7134,-7.2903,23.6075],[112.7174,-7.2795,18.453],[112.7096,-7.2776,17.5666],[112.7101,-7.2757,16.348],[112.7079,-7.2759,16.6908],[112.708,-7.2791,18.5552],[112.7049,-7.2772,16.8645],[112.6995,-7.2821,21.5008],[112.7023,-7.2846,21.6477],[112.7044,-7.2828,15.0486],[112.7081,-7.2838,21.0063],[112.7069,-7.2897,23.6286],[112.7056,-7.2895,22.8249],[112.7034,-7.2931,27.8078],[112.6941,-7.2897,27.3364],[112.6949,-7.2864,26.3996],[112.6967,-7.2855,24.3686],[112.6944,-7.2843,24.7929],[112.6972,-7.2807,18.7159],[112.6954,-7.2785,15.7622],[112.6899,-7.2778,19.0423],[112.6871,-7.2791,24.3368],[112.6845,-7.275,22.0452],[112.6841,-7.2769,24.4085],[112.6784,-7.2814,27.5006],[112.6786,-7.2876,30.5721],[112.6757,-7.2941,32.2724],[112.6841,-7.2989,27.6069],[112.683,-7.3016,18.7717],[112.6865,-7.3013,19.3498],[112.6881,-7.2994,19.7919],[112.6962,-7.3012,21.1564],[112.6969,-7.3,21.1564],[112.6971,-7.3016,19.3503],[112.7025,-7.3021,14.1463],[112.7051,-7.3001,12.7857],[112.7077,-7.3035,9.1829],[112.7043,-7.3038,9.8455],[112.7038,-7.3073,8.5502],[112.7208,-7.308,6.9485],[112.7195,-7.3069,11.5273],[112.7208,-7.2965,12.7705],[112.725,-7.2922,10.4611],[112.7188,-7.2917,15.5595]]]]}}