{"type":"Feature","properties":{"GID_3":"IDN.10.29.6_1","GID_0":"IDN","country":"Indonesia","GID_1":"IDN.10_1","province":"JawaTengah","NL_NAME_1":"NA","GID_2":"IDN.10.29_1","county":"Sragen","NL_NAME_2":"NA","city":"Karangmalang","VARNAME_3":"NA","NL_NAME_3":"NA","TYPE_3":"Kecamatan","ENGTYPE_3":"Sub-district","CC_3":"3314090","HASC_3":"NA","name":"Karangmalang.city"},
"geometry":{"type": "MultiPolygon","coordinates": [[[[111.0027,-7.4434,87.2349],[110.9956,-7.4428,83.2099],[110.9927,-7.4381,81.3538],[110.9904,-7.4374,79.0798],[110.9913,-7.4448,87.3329],[110.987,-7.4454,84.9804],[110.986,-7.447,88.7735],[110.9843,-7.4461,85.1812],[110.9849,-7.448,89.706],[110.9776,-7.4505,88.0864],[110.9721,-7.4566,88.4744],[110.9703,-7.4532,88.9044],[110.9654,-7.4605,95.5023],[110.965,-7.4672,101.6559],[110.9705,-7.473,101.8062],[110.9695,-7.474,101.8062],[110.9711,-7.4769,107.8344],[110.9699,-7.4781,108.8242],[110.9735,-7.4778,113.6522],[110.9728,-7.4849,113.9193],[110.9747,-7.4848,111.5742],[110.9774,-7.4923,130.3044],[110.9794,-7.4923,128.9854],[110.984,-7.4837,117.9215],[110.9892,-7.4785,124.7694],[110.9977,-7.4788,131.5999],[111.0007,-7.4895,143.5046],[111.0021,-7.4859,143.3549],[111.0059,-7.4834,133.9613],[111.0036,-7.4801,134.2203],[111.0033,-7.4731,122.6423],[111.0049,-7.4719,119.3375],[111.0068,-7.4739,122.1352],[111.0071,-7.4702,116.2216],[111.0091,-7.4696,120.7258],[111.0135,-7.4698,121.7891],[111.0159,-7.4727,126.9872],[111.0257,-7.4691,125.1813],[111.0271,-7.4648,120.6104],[111.0378,-7.4637,122.6511],[111.0434,-7.4653,124.618],[111.0468,-7.4641,120.8629],[111.0537,-7.4679,125.7352],[111.0526,-7.4725,130.4303],[111.0608,-7.4703,132.6555],[111.0643,-7.471,132.8132],[111.0654,-7.473,139.1408],[111.0693,-7.474,141.4095],[111.0695,-7.4806,141.2699],[111.0726,-7.4793,135.1091],[111.0714,-7.4781,140.4327],[111.0726,-7.4741,132.7059],[111.0703,-7.4723,126.525],[111.0721,-7.47,123.6382],[111.0707,-7.4674,122.1008],[111.0734,-7.4637,122.3884],[111.0754,-7.4511,109.3976],[111.0717,-7.4512,110.3785],[111.0691,-7.4439,104.9027],[111.0595,-7.4456,106.4577],[111.0587,-7.4432,101.0898],[111.0608,-7.4385,98.7821],[111.0587,-7.4323,95.5207],[111.0551,-7.4297,92.7724],[111.0542,-7.4216,89.2023],[111.0331,-7.4271,90.0803],[111.034,-7.4326,94.307],[111.0303,-7.4332,91.471],[111.0226,-7.4314,90.2957],[111.0224,-7.4369,94.1979],[111.0075,-7.4345,83.8952],[111.0068,-7.4355,81.6899],[111.0052,-7.4329,82.7145],[111.003,-7.4403,84.3136],[111.0086,-7.444,88.6092],[111.0027,-7.4434,87.2349]]]]}}