{"type":"Feature","properties":{"GID_3":"IDN.24.4.3_1","GID_0":"IDN","country":"Indonesia","GID_1":"IDN.24_1","province":"Riau","NL_NAME_1":"NA","GID_2":"IDN.24.4_1","county":"IndragiriHulu","NL_NAME_2":"NA","city":"BatangPeranap","VARNAME_3":"NA","NL_NAME_3":"NA","TYPE_3":"Kecamatan","ENGTYPE_3":"Sub-district","CC_3":"1402011","HASC_3":"NA","name":"Batang_Peranap.city"},
"geometry":{"type": "MultiPolygon","coordinates": [[[[101.7994,-0.6918,45.7945],[101.7996,-0.6971,50.9808],[101.7929,-0.7096,76.0635],[101.7921,-0.7226,70.3429],[101.7954,-0.7342,107.09],[101.7884,-0.7405,110.5923],[101.787,-0.7541,134.0652],[101.7891,-0.7571,116.4979],[101.7852,-0.7801,89.1333],[101.7807,-0.7899,85.1649],[101.777,-0.7942,86.9413],[101.7776,-0.7987,86.4894],[101.7821,-0.8005,88.0442],[101.7856,-0.8143,86.1015],[101.7842,-0.8233,80.1849],[101.7785,-0.8336,72.8122],[101.7833,-0.8431,78.4326],[101.7883,-0.8442,86.9096],[101.7963,-0.8502,92.0466],[101.7985,-0.8576,92.4531],[101.8055,-0.8567,86.7507],[101.8125,-0.8592,95.979],[101.817,-0.8618,92.6282],[101.8266,-0.8747,100.196],[101.8397,-0.8802,99.3289],[101.8478,-0.9,135.2716],[101.8438,-0.9116,141.7917],[101.8472,-0.915,152.8049],[101.8503,-0.9219,145.7213],[101.853,-0.9224,131.5949],[101.8578,-0.9145,133.1479],[101.8648,-0.9123,130.5656],[101.8681,-0.9095,107.3769],[101.8781,-0.9109,114.3739],[101.8816,-0.9095,109.1411],[101.896,-0.8911,121.7291],[101.9081,-0.8879,109.8303],[101.9161,-0.8834,112.5585],[101.9263,-0.8433,98.6323],[101.9243,-0.8195,126.3572],[101.9134,-0.7642,115.3716],[101.9065,-0.6762,47.5458],[101.9129,-0.6488,63.3093],[101.9212,-0.6346,84.5343],[101.928,-0.6294,73.5917],[101.9387,-0.6157,57.9567],[101.9488,-0.597,51.0522],[101.9563,-0.5901,45.4276],[101.973,-0.5488,27.4206],[101.9717,-0.5471,22.9567],[101.9737,-0.5436,23.7255],[101.9717,-0.5433,26.9762],[101.9698,-0.5453,25.3481],[101.969,-0.5438,19.0],[101.9617,-0.5438,22.692],[101.9543,-0.55,26.7175],[101.9494,-0.5499,25.8792],[101.947,-0.5456,19.0],[101.9495,-0.5416,22.5665],[101.9487,-0.5346,32.2173],[101.9515,-0.528,25.0014],[101.9495,-0.5248,23.9817],[101.9453,-0.5232,22.0],[101.9381,-0.5275,22.0],[101.945,-0.5331,25.2127],[101.9462,-0.5373,26.1818],[101.9452,-0.5389,19.5],[101.9355,-0.5365,21.8638],[101.929,-0.5389,20.0],[101.9241,-0.5384,22.785],[101.9209,-0.5344,22.0156],[101.9134,-0.5084,23.4661],[101.9105,-0.5073,21.5],[101.9081,-0.5108,24.6285],[101.9063,-0.5381,61.4124],[101.905,-0.5403,63.2799],[101.8845,-0.5725,59.8667],[101.8612,-0.5986,61.9797],[101.8484,-0.6046,35.9065],[101.8445,-0.6162,48.0104],[101.8397,-0.6226,74.7863],[101.8057,-0.6602,62.0503],[101.8066,-0.6747,42.3812],[101.8028,-0.6799,44.5476],[101.7994,-0.6918,45.7945]]]]}}