{"type":"Feature","properties":{"GID_3":"IDN.1.3.11_1","GID_0":"IDN","country":"Indonesia","GID_1":"IDN.1_1","province":"Aceh","NL_NAME_1":"NA","GID_2":"IDN.1.3_1","county":"AcehBesar","NL_NAME_2":"NA","city":"KutaCotGlie","VARNAME_3":"NA","NL_NAME_3":"NA","TYPE_3":"Kecamatan","ENGTYPE_3":"Sub-district","CC_3":"1108031","HASC_3":"NA","name":"Kuta_Cot_Glie.city"},
"geometry":{"type": "MultiPolygon","coordinates": [[[[95.4867,5.2119,1260.434],[95.493,5.2179,1496.0414],[95.4977,5.2201,1808.725],[95.516,5.216,1629.1458],[95.5268,5.2163,1626.75],[95.523,5.2189,1495.626],[95.5202,5.2257999999999996,1164.095],[95.5219,5.2403,742.2378],[95.5296,5.2519,652.1067],[95.5317,5.2658,470.6374],[95.5406,5.2765,316.8657],[95.5376,5.2856,138.7017],[95.5515,5.3007,77.6224],[95.5522,5.3169,63.4067],[95.5549,5.3191,72.8268],[95.5581,5.319,78.0243],[95.5576,5.3299,68.0972],[95.5473,5.3391,67.0148],[95.5441,5.3453,59.0586],[95.5399,5.3458,59.2009],[95.539,5.3513,50.3163],[95.5332,5.3544,51.9838],[95.5345,5.3609,65.7128],[95.5333,5.363,47.6878],[95.5337,5.3706,33.5241],[95.5322,5.3728,34.4587],[95.5326,5.3753,37.267],[95.5369,5.3775,28.5073],[95.5362,5.3818,28.099],[95.5392,5.3877,47.7128],[95.5515,5.3962,64.8267],[95.5648,5.4091,144.4786],[95.5687,5.4323,261.6884],[95.5593,5.4515,356.3517],[95.5638,5.4664,383.3733],[95.5572,5.4747,388.1525],[95.5439,5.4695,296.933],[95.5184,5.4346,136.4037],[95.5094,5.427,44.8366],[95.4986,5.4235,46.6737],[95.4886,5.4124,25.9751],[95.4871,5.4076,29.0231],[95.4815,5.4,43.0727],[95.4501,5.3783,68.2176],[95.445,5.3715,54.5918],[95.4438,5.3662,34.1852],[95.422,5.337,98.6894],[95.4159,5.33,162.011],[95.4061,5.3238,266.2958],[95.3941,5.3049,835.3524],[95.3883,5.3018,1107.4193],[95.3856,5.2956,1268.4343],[95.3933,5.2826,1292.0828],[95.3824,5.266,1439.5763],[95.3831,5.2569,1477.5481],[95.3749,5.2504,1526.7214],[95.3772,5.2469,1565.6343],[95.3791,5.2381,1351.7495],[95.3868,5.2339,1545.1656],[95.387,5.2293,1576.9095],[95.3923,5.2269,1602.4653],[95.3912,5.2196,1288.1115],[95.3952,5.2168,1702.593],[95.3982,5.2183,1845.8895],[95.3998,5.2169,1828.3082],[95.4019,5.2145,1820.6216],[95.4019,5.2104,1775.2084],[95.4123,5.2163,1163.5304],[95.4175,5.2216,1428.1481],[95.427,5.2208,1020.0403],[95.4352,5.2239,1100.3007],[95.4391,5.2191,880.5757],[95.4508,5.2188,1018.4378],[95.465,5.2117,1124.6099],[95.4694,5.2137,1051.6471],[95.4753,5.2099,972.2191],[95.4867,5.2119,1260.434]]]]}}