{"type":"Feature","properties":{"GID_3":"IDN.9.18.2_1","GID_0":"IDN","country":"Indonesia","GID_1":"IDN.9_1","province":"JawaBarat","NL_NAME_1":"NA","GID_2":"IDN.9.18_1","county":"KotaSukabumi","NL_NAME_2":"NA","city":"Cibeureum","VARNAME_3":"NA","NL_NAME_3":"NA","TYPE_3":"Kecamatan","ENGTYPE_3":"Sub-district","CC_3":"3272012","HASC_3":"NA","name":"Cibeureum.city"},
"geometry":{"type": "MultiPolygon","coordinates": [[[[106.9539,-6.9596,520.5321],[106.9557,-6.9585,525.7891],[106.9554,-6.9549,528.7662],[106.96,-6.9426,565.0732],[106.9602,-6.9374,583.2668],[106.9582,-6.934,594.5986],[106.9588,-6.9276,624.5891],[106.9572,-6.9242,637.8723],[106.9598,-6.9187,661.5919],[106.95,-6.9206,633.6046],[106.9446,-6.9252,607.7609],[106.9402,-6.9345,562.0491],[106.9379,-6.9346,552.4299],[106.9382,-6.9386,540.9879],[106.936,-6.9412,533.4231],[106.9367,-6.9452,519.8505],[106.9336,-6.9508,505.1881],[106.9348,-6.9602,485.4962],[106.9385,-6.9549,493.7659],[106.9386,-6.9579,495.0925],[106.9413,-6.9576,497.7523],[106.9405,-6.9596,491.3878],[106.9426,-6.96,504.1332],[106.9478,-6.9564,510.056],[106.9498,-6.9592,514.2224],[106.9516,-6.9582,517.5162],[106.9514,-6.9595,517.5162],[106.9539,-6.9596,520.5321]]]]}}