{"type":"Feature","properties":{"GID_3":"IDN.5.1.9_1","GID_0":"IDN","country":"Indonesia","GID_1":"IDN.5_1","province":"Bengkulu","NL_NAME_1":"NA","GID_2":"IDN.5.1_1","county":"BengkuluSelatan","NL_NAME_2":"NA","city":"Pinoraya","VARNAME_3":"NA","NL_NAME_3":"NA","TYPE_3":"Kecamatan","ENGTYPE_3":"Sub-district","CC_3":"1701061","HASC_3":"NA","name":"Pinoraya.city"},
"geometry":{"type": "MultiPolygon","coordinates": [[[[102.8653,-4.4218,0.0],[102.8749,-4.4315,3.7146],[102.8781,-4.4282,16.6367],[102.8762,-4.424,21.7916],[102.8827,-4.4163,58.5095],[102.8868,-4.415,81.1422],[102.9171,-4.4147,64.3121],[102.9165,-4.4052,67.7823],[102.9288,-4.3946,79.1616],[102.93,-4.3916,77.7886],[102.9235,-4.3747,50.2706],[102.9293,-4.3561,140.2879],[102.9284,-4.3327,84.7159],[102.9328,-4.3235,79.2079],[102.9388,-4.3208,79.7051],[102.9428,-4.3166,96.8117],[102.9436,-4.3135,123.8085],[102.9405,-4.2983,88.5573],[102.9418,-4.2909,120.1501],[102.9402,-4.2843,137.739],[102.9475,-4.2697,83.9897],[102.9474,-4.255,80.642],[102.9491,-4.2454,45.4771],[102.9512,-4.242,63.3994],[102.9514,-4.2356,72.1564],[102.953,-4.2325,74.6632],[102.9592,-4.2303,83.9747],[102.9625,-4.224,68.2376],[102.9643,-4.2229,72.285],[102.9658,-4.224,69.3603],[102.9681,-4.2221,67.0742],[102.9702,-4.2241,76.83],[102.9744,-4.2219,98.0092],[102.9774,-4.2243,86.7793],[102.9766,-4.2278,89.431],[102.9777,-4.2287,83.0024],[102.9811,-4.2257,103.3256],[102.9814,-4.2275,83.836],[102.9859,-4.2295,91.7054],[102.9868,-4.2257,143.3367],[102.9821,-4.221,151.5262],[102.9909,-4.2025,248.6251],[103.0008,-4.2002,355.5704],[103.0109,-4.1916,330.8529],[103.0362,-4.1757,928.1813],[103.0263,-4.1675,895.77],[103.0128,-4.1667,1012.4828],[103.0096,-4.1632,1102.3689],[102.9997,-4.1582,1242.957],[102.9879,-4.1697,864.0421],[102.9661,-4.1668,754.4126],[102.9569,-4.1683,762.9467],[102.9517,-4.1718,677.9733],[102.9465,-4.1803,640.0056],[102.935,-4.1854,401.8732],[102.9224,-4.1818,506.8375],[102.9171,-4.1818,493.4099],[102.9094,-4.1753,552.1473],[102.905,-4.1762,439.559],[102.9004,-4.1802,333.2816],[102.9006,-4.1979,170.3923],[102.8988,-4.2004,204.3849],[102.8912,-4.2034,254.2812],[102.8876,-4.2225,310.57],[102.8807,-4.2371,233.6407],[102.8825,-4.2559,168.2318],[102.8853,-4.2632,152.3869],[102.875,-4.2733,114.077],[102.8618,-4.2832,68.591],[102.8577,-4.3106,43.5948],[102.8553,-4.3179,37.802],[102.8502,-4.3254,52.097],[102.8461,-4.3402,46.2298],[102.8426,-4.3448,32.9391],[102.8369,-4.3443,28.9955],[102.8004,-4.3603,0.0],[102.8055,-4.3717,2.7913],[102.8149,-4.3803,9.8982],[102.8157,-4.3827,5.309],[102.8491,-4.4073,6.8635],[102.8653,-4.4218,0.0]]]]}}