{"type":"Feature","properties":{"GID_3":"IDN.35.8.4","GID_0":"IDN","country":"Indonesia","GID_1":"IDN.35_1","province":"KalimantanUtara","NL_NAME_1":"NA","GID_2":"IDN.35.8","county":"Malinau","NL_NAME_2":"NA","city":"KayanSelatan","VARNAME_3":"NA","NL_NAME_3":"NA","TYPE_3":"NA","ENGTYPE_3":"NA","CC_3":"NA","HASC_3":"NA","name":"Kayan_Selatan.city"},
"geometry":{"type": "MultiPolygon","coordinates": [[[[114.8453,1.1694,1465.0179],[114.8516,1.1683,1511.9224],[114.8542,1.1709,1357.3583],[114.8534,1.1761,1198.5308],[114.8588,1.194,1040.7773],[114.8702,1.1994,842.13],[114.8779,1.2088,990.8103],[114.8829,1.2115,1067.2539],[114.8851,1.2122,967.5653],[114.8961,1.2094,1127.2305],[114.9202,1.1951,1148.3445],[114.9325,1.1803,904.087],[114.9362,1.1786,892.1351],[114.9453,1.18,891.1017],[114.9647,1.1866,818.7443],[114.9763,1.1937,1112.4984],[114.9868,1.1878,1074.2061],[114.9917,1.1922,979.5666],[115.0011,1.1956,963.5843],[115.0071,1.2012,832.2477],[115.0117,1.2017,809.275],[115.0161,1.2061,717.7517],[115.0162,1.219,813.8707],[115.0227,1.2202,745.7599],[115.025,1.2251,721.2387],[115.0483,1.2251,846.8993],[115.0515,1.2213,702.2872],[115.0582,1.2213,861.0626],[115.0643,1.2263,728.8569],[115.0719,1.239,706.0596],[115.081,1.2431,706.9089],[115.0805,1.262,425.1129],[115.0777,1.2659,291.7199],[115.0671,1.2694,231.4753],[115.0497,1.2665,222.9376],[115.045,1.2676,253.1826],[115.0433,1.2726,244.4594],[115.0471,1.2777,229.2751],[115.0462,1.2976,271.79],[115.0479,1.3025,288.7404],[115.0596,1.3086,255.6874],[115.0617,1.3125,271.5831],[115.0596,1.3227,285.05],[115.0524,1.327,275.1342],[115.0512,1.3304,274.4735],[115.0529,1.3437,417.2874],[115.0607,1.3567,291.0238],[115.0679,1.3825,358.9478],[115.075,1.3891,386.9958],[115.0923,1.392,401.2054],[115.0955,1.3952,398.2007],[115.1039,1.4137,372.7528],[115.1093,1.4203,501.5121],[115.1111,1.4293,425.794],[115.1172,1.436,434.8934],[115.1197,1.4482,475.6378],[115.1229,1.4536,398.269],[115.1252,1.4766,444.6699],[115.134,1.4865,555.3641],[115.1441,1.4894,468.7071],[115.1474,1.4933,575.4467],[115.1496,1.5011,546.9391],[115.1551,1.5061,662.8502],[115.159,1.5195,668.1639],[115.1639,1.5267,677.8689],[115.1746,1.5358,757.965],[115.179,1.5358,812.0266],[115.1829,1.538,830.5992],[115.1879,1.5443,1035.0991],[115.1906,1.5547,943.8079],[115.1938,1.5575,856.3474],[115.2057,1.5581,778.3985],[115.211,1.5624,746.7072],[115.2128,1.566,797.7375],[115.2139,1.5777,726.3671],[115.2161,1.5827,757.7812],[115.2222,1.5867,706.9693],[115.2266,1.5972,658.0542],[115.2247,1.6069,694.8978],[115.2163,1.6237,684.7207],[115.2163,1.6293,598.4711],[115.1959,1.6307,624.4318],[115.1911,1.6329,620.1545],[115.1926,1.6373,620.3876],[115.2089,1.6464,602.7546],[115.2213,1.6578,631.8266],[115.2257,1.6578,644.0953],[115.2296,1.6606,652.1508],[115.2363,1.6691,645.7167],[115.2374,1.6746,652.8848],[115.2413,1.6786,648.8195],[115.2545,1.6869,678.7578],[115.274,1.7048,926.6361],[115.274,1.7093,958.2792],[115.27,1.7171,1110.4509],[115.27,1.7215,1150.3624],[115.2737,1.7284,1212.7371],[115.2834,1.7388,1090.7595],[115.285,1.7506,1103.5742],[115.2794,1.7623,1249.5944],[115.2806,1.7673,1226.8363],[115.2694,1.8041,1809.8337],[115.2697,1.8175,2174.5527],[115.2624,1.8142,2053.8311],[115.2532,1.8142,1577.5714],[115.2419,1.8234,1575.5436],[115.2369,1.822,1783.9678],[115.2185,1.8218,1673.8477],[115.2117,1.8185,1649.3804],[115.2011,1.8183,1508.8105],[115.1907,1.8209,1508.9064],[115.1777,1.827,1452.5522],[115.1623,1.8278,1548.8982],[115.1344,1.814,1849.7421],[115.1189,1.8127,1977.1366],[115.1032,1.8161,1685.0396],[115.0945,1.8129,1811.901],[115.0884,1.8081,1722.9229],[115.0754,1.7906,1298.9384],[115.0647,1.7707,1015.9789],[115.0504,1.7563,941.9259],[115.0342,1.7454,872.9728],[114.9931,1.7454,830.3956],[114.9714,1.74,824.1063],[114.9556,1.7501,709.5259],[114.9489,1.7486,737.4896],[114.9431,1.7441,812.7202],[114.9401,1.7264,820.5248],[114.9357,1.7219,795.7293],[114.9277,1.7264,797.215],[114.9218,1.7182,796.7104],[114.8961,1.7175,717.9803],[114.8711,1.6915,815.669],[114.8645,1.6871,868.1857],[114.8609,1.6812,868.3481],[114.8336,1.6878,884.1306],[114.8065,1.6863,882.8309],[114.8087,1.6774,862.7255],[114.8028,1.6604,940.2736],[114.7815,1.6493,914.3343],[114.772,1.6478,995.9437],[114.7632,1.6493,1097.4569],[114.7396,1.6818,1042.3323],[114.7286,1.6877,1040.2235],[114.7205,1.6899,1037.2434],[114.7136,1.6893,1193.3962],[114.7126,1.6726,1421.6353],[114.7137,1.6702,1470.5525],[114.7112,1.6638,1532.3374],[114.7083,1.6444,1751.8582],[114.7087,1.638,1816.4194],[114.6917,1.6316,1718.0104],[114.6898,1.628,1754.3401],[114.6901,1.6225,1756.3337],[114.6791,1.6084,1550.3577],[114.674,1.6066,1528.8578],[114.6718,1.6027,1527.4403],[114.6683,1.6006,1585.5217],[114.6554,1.5994,1558.4668],[114.6525,1.5896,1602.0613],[114.6467,1.591,1493.4418],[114.6443,1.5892,1580.1367],[114.6376,1.5889,1565.1603],[114.6228,1.5782,2002.3616],[114.6157,1.5776,1924.3795],[114.6115,1.575,1930.7554],[114.6116,1.5588,1810.3033],[114.6058,1.551,1695.2363],[114.6049,1.5416,1655.719],[114.6019,1.536,1757.7554],[114.6021,1.5323,1809.8513],[114.6047,1.5267,1779.8894],[114.6094,1.5247,1792.8373],[114.6164,1.5159,1751.5131],[114.6121,1.5105,1769.175],[114.6121,1.5061,1653.2284],[114.6086,1.5028,1727.1183],[114.6059,1.4926,1625.7307],[114.6072,1.4879,1578.5089],[114.6011,1.4856,1652.5405],[114.5987,1.4821,1586.6733],[114.5946,1.4818,1618.42],[114.5939,1.4768,1620.6128],[114.5916,1.4741,1547.2876],[114.5898,1.458,1441.2183],[114.5879,1.4565,1416.8397],[114.5859,1.4455,1503.5425],[114.5793,1.4427,1565.9952],[114.5769,1.4435,1553.3519],[114.5704,1.4354,1655.9592],[114.5696,1.4296,1802.1302],[114.5667,1.4279,1827.3689],[114.5676,1.4221,1746.8735],[114.5754,1.4141,1819.6658],[114.5746,1.408,1673.2026],[114.5768,1.3991,1620.3282],[114.5727,1.3898,1718.8329],[114.5901,1.3952,1503.5258],[114.5996,1.3945,1521.5551],[114.607,1.3687,1343.7924],[114.6177,1.3643,1452.4415],[114.6326,1.3639,1358.8518],[114.6337,1.3607,1368.5771],[114.6383,1.3588,1392.2423],[114.6546,1.3562,1487.1064],[114.6594,1.3571,1533.3479],[114.677,1.352,1605.5458],[114.6815,1.3528,1727.1924],[114.6837,1.3562,1691.2566],[114.6885,1.3591,1720.713],[114.6967,1.3566,1550.8757],[114.6999,1.354,1584.9299],[114.7015,1.3429,1578.8701],[114.7041,1.337,1712.553],[114.7103,1.3359,1716.6727],[114.7145,1.3325,1634.6216],[114.7171,1.3245,1901.4967],[114.7256,1.3105,1804.1008],[114.7231,1.3003,1713.8586],[114.7202,1.2959,1809.5183],[114.7207,1.2906,1746.8167],[114.7159,1.2782,1720.3029],[114.7174,1.2728,1716.1659],[114.7273,1.264,1584.2708],[114.733,1.2643,1512.2675],[114.7503,1.2566,1602.9043],[114.7578,1.2548,1668.5164],[114.7575,1.2478,1690.116],[114.7604,1.2431,1675.7542],[114.7655,1.2367,1733.234],[114.7774,1.2278,1532.3088],[114.7966,1.2043,1440.5173],[114.8096,1.1931,1398.9257],[114.8289,1.1826,1415.0934],[114.8396,1.1725,1495.0857],[114.8453,1.1694,1465.0179]]]]}}