{"type":"Feature","properties":{"GID_3":"IDN.10.21.17_1","GID_0":"IDN","country":"Indonesia","GID_1":"IDN.10_1","province":"JawaTengah","NL_NAME_1":"NA","GID_2":"IDN.10.21_1","county":"Pati","NL_NAME_2":"NA","city":"Tayu","VARNAME_3":"NA","NL_NAME_3":"NA","TYPE_3":"Kecamatan","ENGTYPE_3":"Sub-district","CC_3":"3318200","HASC_3":"NA","name":"Tayu.city"},
"geometry":{"type": "MultiPolygon","coordinates": [[[[111.084,-6.5654,0.9607],[111.0759,-6.5407,0.0],[111.0635,-6.5195,1.0],[111.0588,-6.5053,0.5628],[111.049,-6.5084,1.6457],[111.0487,-6.5102,1.9057],[111.042,-6.5107,4.6387],[111.0418,-6.5094,3.4612],[111.0382,-6.5108,8.1547],[111.0379,-6.5081,10.7796],[111.04,-6.5081,3.2778],[111.038,-6.4963,3.4691],[111.0341,-6.5009,3.892],[111.0263,-6.5017,9.3283],[111.0239,-6.5115,13.1379],[111.0261,-6.5112,17.2134],[111.0261,-6.5141,12.5684],[111.0186,-6.5126,15.6426],[111.0155,-6.5182,20.6647],[111.0065,-6.5188,33.8909],[111.0008,-6.5216,35.9884],[110.998,-6.5289,63.6385],[110.9896,-6.5277,72.5028],[110.9859,-6.531,84.0894],[110.9856,-6.5349,87.7392],[110.9874,-6.5343,93.643],[110.9887,-6.5363,75.3965],[110.9932,-6.5373,75.5414],[110.9939,-6.5432,73.5733],[110.9957,-6.5429,77.5755],[110.9959,-6.5445,62.9689],[111.007,-6.5434,64.4268],[111.0066,-6.5496,40.4238],[111.0109,-6.5522,45.3932],[111.0231,-6.5458,24.7594],[111.025,-6.5476,26.4373],[111.0261,-6.5462,22.6898],[111.0284,-6.5468,32.6447],[111.0271,-6.5576,37.7681],[111.0275,-6.5621,31.4709],[111.03,-6.5624,23.3005],[111.0295,-6.5708,23.6592],[111.0258,-6.5699,26.8303],[111.0273,-6.5718,20.053],[111.0239,-6.5749,39.9232],[111.0233,-6.5815,37.2311],[111.0258,-6.5821,31.4922],[111.025,-6.5838,34.6123],[111.0276,-6.5857,41.7066],[111.0312,-6.5865,35.1077],[111.0422,-6.5779,10.5197],[111.0514,-6.5791,6.3257],[111.0614,-6.5741,6.9016],[111.062,-6.5767,2.4073],[111.065,-6.5764,1.211],[111.0655,-6.5729,2.1904],[111.084,-6.5654,0.9607]]]]}}