{"type":"Feature","properties":{"GID_3":"IDN.29.9.5_1","GID_0":"IDN","country":"Indonesia","GID_1":"IDN.29_1","province":"SulawesiUtara","NL_NAME_1":"NA","GID_2":"IDN.29.9_1","county":"Manado","NL_NAME_2":"NA","city":"Singkil","VARNAME_3":"NA","NL_NAME_3":"NA","TYPE_3":"Kecamatan","ENGTYPE_3":"Sub-district","CC_3":"7171051","HASC_3":"NA","name":"Singkil.city"},
"geometry":{"type": "MultiPolygon","coordinates": [[[[124.856,1.4901,5.2369],[124.8591,1.4913,7.5215],[124.8596,1.4873,6.2504],[124.861,1.4888,14.7693],[124.8608,1.4935,10.1393],[124.8629,1.4935,24.1699],[124.8636,1.4953,7.7333],[124.8677,1.4931,25.7511],[124.8706,1.4961,12.5914],[124.8706,1.4998,45.181399999999996],[124.8678,1.5019,47.0326],[124.8721,1.5085,29.1714],[124.8697,1.5117,23.5648],[124.8666,1.5088,18.8795],[124.8665,1.5109,31.4068],[124.8649,1.5113,31.4068],[124.862,1.508,15.919],[124.8565,1.5082,33.6501],[124.8512,1.5049,11.9644],[124.852,1.5065,13.0777],[124.8508,1.5068,13.0777],[124.8503,1.5043,10.7287],[124.8451,1.5005,22.2459],[124.8447,1.4961,3.2502],[124.8469,1.4966,2.4372],[124.8478,1.4952,3.5265],[124.8469,1.4898,7.3415],[124.8534,1.4872,4.9823],[124.856,1.4901,5.2369]]]]}}