{"type":"Feature","properties":{"GID_3":"IDN.14.4.5_1","GID_0":"IDN","country":"Indonesia","GID_1":"IDN.14_1","province":"KalimantanTengah","NL_NAME_1":"NA","GID_2":"IDN.14.4_1","county":"GunungMas","NL_NAME_2":"NA","city":"Manuhing","VARNAME_3":"NA","NL_NAME_3":"NA","TYPE_3":"Kecamatan","ENGTYPE_3":"Sub-district","CC_3":"6211010","HASC_3":"NA","name":"Manuhing.city"},
"geometry":{"type": "MultiPolygon","coordinates": [[[[113.6461,-1.5784,21.9144],[113.6247,-1.5748,32.5386],[113.5949,-1.5353,44.8837],[113.588,-1.5234,45.8903],[113.5566,-1.4522,62.9827],[113.5296,-1.4019,49.4785],[113.4844,-1.3621,47.4572],[113.4626,-1.3505,55.4119],[113.4323,-1.326,71.601],[113.3882,-1.242,158.4733],[113.3488,-1.2526,84.0917],[113.357,-1.2785,81.2867],[113.3809,-1.3291,48.3914],[113.2766,-1.343,75.9788],[113.2411,-1.3437,77.9225],[113.3394,-1.4847,80.2286],[113.3612,-1.5259,52.8495],[113.4305,-1.561,63.5723],[113.4354,-1.5781,75.5495],[113.4829,-1.6025,54.6259],[113.4921,-1.6575,67.1892],[113.5019,-1.6672,68.8615],[113.5073,-1.6702,70.7787],[113.5191,-1.6709,67.816],[113.5333,-1.6563,64.402],[113.5448,-1.647,64.8835],[113.5629,-1.637,75.5963],[113.5671,-1.6371,78.0846],[113.5768,-1.6435,66.9164],[113.5833,-1.6507,62.0896],[113.5885,-1.6535,66.4145],[113.6002,-1.6553,59.0131],[113.667,-1.6445,35.5764],[113.6762,-1.6405,24.4306],[113.6481,-1.6065,36.3008],[113.6491,-1.5971,32.4985],[113.6461,-1.5932,32.988],[113.6432,-1.5843,15.3375],[113.6461,-1.5784,21.9144]]]]}}