{"type":"Feature","properties":{"GID_3":"IDN.32.1.17_1","GID_0":"IDN","country":"Indonesia","GID_1":"IDN.32_1","province":"SumateraUtara","NL_NAME_1":"NA","GID_2":"IDN.32.1_1","county":"Asahan","NL_NAME_2":"NA","city":"SeiKepayangBarat","VARNAME_3":"NA","NL_NAME_3":"NA","TYPE_3":"Kecamatan","ENGTYPE_3":"Sub-district","CC_3":"1208041","HASC_3":"NA","name":"Sei_Kepayang_Barat.city"},
"geometry":{"type": "MultiPolygon","coordinates": [[[[99.9077,2.941,11.5362],[99.913,2.9548,7.5381],[99.8923,2.9574,10.3536],[99.8809,2.9572,8.1899],[99.8644,2.9635,14.7589],[99.8504,2.9733,6.3362],[99.8364,2.9739,8.6961],[99.8258,2.9721,12.7694],[99.8296,2.9888,0.0],[99.8194,2.9946,0.0],[99.8113,2.9936,0.0],[99.8068,2.9895,0.0],[99.8097,2.9685,1.2207],[99.8166,2.9652,3.4812],[99.8217,2.9604,1.0],[99.8339,2.9564,2.027],[99.8375,2.9472,1.0],[99.8375,2.937,2.7756],[99.8351,2.9329,4.2158],[99.831,2.9298,4.3064],[99.8175,2.9246,2.516],[99.8593,2.9366,9.1019],[99.8948,2.942,7.9361],[99.9077,2.941,11.5362]]]]}}