{"type":"Feature","properties":{"GID_3":"IDN.26.7.5_1","GID_0":"IDN","country":"Indonesia","GID_1":"IDN.26_1","province":"SulawesiSelatan","NL_NAME_1":"NA","GID_2":"IDN.26.7_1","county":"Jeneponto","NL_NAME_2":"NA","city":"Binamu","VARNAME_3":"NA","NL_NAME_3":"NA","TYPE_3":"Kecamatan","ENGTYPE_3":"Sub-district","CC_3":"7304030","HASC_3":"NA","name":"Binamu.city"},
"geometry":{"type": "MultiPolygon","coordinates": [[[[119.7777,-5.6692,20.0338],[119.7635,-5.6522,38.8646],[119.779,-5.649,54.5595],[119.7752,-5.6442,63.286],[119.7766,-5.6368,71.7933],[119.772,-5.6367,69.0605],[119.7621,-5.6427,64.4245],[119.7494,-5.6371,59.0576],[119.7467,-5.6377,43.1259],[119.7397,-5.6439,32.1676],[119.7364,-5.6437,8.4463],[119.7327,-5.6413,13.5013],[119.7318,-5.6362,9.5262],[119.723,-5.634,20.1828],[119.7213,-5.6353,28.1329],[119.7162,-5.6346,51.6457],[119.7104,-5.6323,58.7161],[119.7085,-5.6353,36.465],[119.7093,-5.642,31.697],[119.7108,-5.6422,37.471],[119.7044,-5.654,39.2328],[119.7062,-5.6694,23.0576],[119.7036,-5.6761,23.3454],[119.7006,-5.6771,19.6407],[119.6942,-5.6734,24.4485],[119.6905,-5.6731,19.0832],[119.6768,-5.6866,10.3968],[119.6668,-5.6891,0.0],[119.673,-5.6949,0.0],[119.676,-5.6943,7.5864],[119.6797,-5.6965,0.0],[119.6851,-5.6965,0.0],[119.6925,-5.7008,0.4499],[119.6962,-5.7004,2.4162],[119.7046,-5.7029,2.4889],[119.7298,-5.7023,0.0],[119.7353,-5.7012,1.7695],[119.7394,-5.6982,0.3686],[119.7439,-5.6985,0.0],[119.7459,-5.7009,0.4383],[119.7643,-5.703,0.0],[119.7779,-5.7023,0.4861],[119.7756,-5.6894,5.3337],[119.7795,-5.6739,18.2576],[119.7777,-5.6692,20.0338]]]]}}