{"type":"Feature","properties":{"GID_3":"IDN.11.23.14_1","GID_0":"IDN","country":"Indonesia","GID_1":"IDN.11_1","province":"JawaTimur","NL_NAME_1":"NA","GID_2":"IDN.11.23_1","county":"Mojokerto","NL_NAME_2":"NA","city":"Pungging","VARNAME_3":"NA","NL_NAME_3":"NA","TYPE_3":"Kecamatan","ENGTYPE_3":"Sub-district","CC_3":"3516060","HASC_3":"NA","name":"Pungging.city"},
"geometry":{"type": "MultiPolygon","coordinates": [[[[112.5563,-7.5928,246.6847],[112.5581,-7.5973,258.1029],[112.5683,-7.5963,252.1843],[112.569,-7.5979,252.1843],[112.5734,-7.5996,285.9405],[112.5747,-7.5934,241.5077],[112.5709,-7.5924,236.6212],[112.5698,-7.5904,219.9123],[112.5727,-7.5846,183.3133],[112.5715,-7.5774,162.0575],[112.573,-7.5741,145.4206],[112.5778,-7.5742,149.0734],[112.5765,-7.5725,141.6967],[112.5771,-7.5664,123.81],[112.5801,-7.5649,114.5046],[112.5823,-7.5656,108.7299],[112.5873,-7.5531,61.7303],[112.5871,-7.5509,52.8464],[112.5848,-7.5498,51.1809],[112.5865,-7.5461,49.5916],[112.5933,-7.5457,32.7462],[112.5963,-7.543,29.3244],[112.5952,-7.5428,26.8756],[112.597,-7.5371,25.1533],[112.5955,-7.5347,22.6356],[112.596,-7.5311,20.6879],[112.6006,-7.5243,18.4427],[112.6022,-7.5248,14.7418],[112.6034,-7.5221,11.5573],[112.6049,-7.5221,11.5794],[112.6067,-7.5167,11.283],[112.5988,-7.5139,12.7005],[112.5948,-7.5151,12.2108],[112.5976,-7.5051,12.211],[112.5967,-7.5033,12.9845],[112.5999,-7.5004,12.0195],[112.5977,-7.5001,11.5893],[112.5913,-7.4942,10.0753],[112.5818,-7.4919,11.888],[112.578,-7.4841,13.2395],[112.5732,-7.4834,13.7007],[112.5703,-7.4781,15.5435],[112.5618,-7.4751,17.4096],[112.5602,-7.4756,16.2985],[112.561,-7.4788,16.2374],[112.5597,-7.481,15.7104],[112.561,-7.4835,14.9972],[112.5598,-7.484,14.9972],[112.5595,-7.4807,16.4085],[112.558,-7.4801,16.4085],[112.5565,-7.4859,11.7807],[112.5583,-7.4864,13.4245],[112.5572,-7.4884,13.9862],[112.5586,-7.4935,13.4837],[112.5575,-7.5017,16.0253],[112.5622,-7.5046,17.7758],[112.5622,-7.5064,19.6033],[112.5681,-7.5071,14.481],[112.5676,-7.5117,21.864],[112.5633,-7.5196,31.4753],[112.5666,-7.5208,26.4585],[112.5656,-7.5248,29.2438],[112.5644,-7.5269,29.6746],[112.5606,-7.5268,36.4431],[112.561,-7.5299,34.2469],[112.5598,-7.5296,34.2469],[112.5601,-7.533,37.9697],[112.5586,-7.5337,38.6316],[112.558,-7.5372,45.3791],[112.5533,-7.5356,50.8855],[112.5512,-7.5421,60.3179],[112.5486,-7.5398,63.7667],[112.5497,-7.5374,53.0335],[112.5459,-7.5367,55.834],[112.5433,-7.5339,52.2111],[112.5444,-7.5408,64.703],[112.5432,-7.544,69.447],[112.5405,-7.5412,64.785],[112.5382,-7.5525,91.0868],[112.5408,-7.5525,89.8624],[112.5454,-7.5557,89.7608],[112.5476,-7.5682,136.136],[112.5464,-7.5717,148.2794],[112.5481,-7.5734,150.5159],[112.5482,-7.5774,156.107],[112.5514,-7.5806,187.6101],[112.5541,-7.5907,214.8942],[112.5563,-7.5928,246.6847]]]]}}