{"type":"Feature","properties":{"GID_3":"IDN.21.10.9_1","GID_0":"IDN","country":"Indonesia","GID_1":"IDN.21_1","province":"NusaTenggaraTimur","NL_NAME_1":"NA","GID_2":"IDN.21.10_1","county":"Manggarai","NL_NAME_2":"NA","city":"Waerii","VARNAME_3":"NA","NL_NAME_3":"NA","TYPE_3":"Kecamatan","ENGTYPE_3":"Sub-district","CC_3":"5313121","HASC_3":"NA","name":"Waerii.city"},
"geometry":{"type": "MultiPolygon","coordinates": [[[[120.5084,-8.6414,2009.958],[120.5166,-8.6382,2090.6426],[120.5239,-8.638,2076.8977],[120.5224,-8.631,1978.1702],[120.5243,-8.6176,1259.9651],[120.5234,-8.6096,1111.4495],[120.5269,-8.6059,1025.8602],[120.5268,-8.6026,979.2308],[120.5234,-8.6007,949.239],[120.5237,-8.599,929.9457],[120.5176,-8.5928,828.7036],[120.5159,-8.5872,798.4507],[120.5176,-8.5857,761.0206],[120.517,-8.5822,731.3307],[120.5107,-8.5764,662.9061],[120.5122,-8.5709,617.4411],[120.5105,-8.565,598.516],[120.5121,-8.5619,564.8194],[120.5148,-8.5611,557.436],[120.516,-8.5581,529.2545],[120.5152,-8.554,488.6866],[120.5187,-8.5466,463.8985],[120.5154,-8.5462,502.9423],[120.5138,-8.5477,486.5264],[120.5106,-8.5455,491.3395],[120.5065,-8.5458,539.9241],[120.502,-8.5438,624.4047],[120.5017,-8.5368,811.9978],[120.4983,-8.5346,785.2913],[120.4978,-8.5304,828.2585],[120.4942,-8.531,810.0182],[120.4929,-8.5342,695.6802],[120.4833,-8.5336,662.2356],[120.4755,-8.5388,628.2264],[120.4716,-8.5363,618.8544],[120.4663,-8.5364,626.425],[120.4606,-8.5329,563.0834],[120.4521,-8.5344,540.9244],[120.4502,-8.531,541.6578],[120.4468,-8.5306,520.1175],[120.4457,-8.535,540.0813],[120.4423,-8.5368,551.1827],[120.4426,-8.5426,565.9232],[120.4388,-8.5444,592.7511],[120.437,-8.5498,613.5436],[120.4283,-8.5567,653.22],[120.4289,-8.5593,631.287],[120.4268,-8.561,642.4139],[120.4283,-8.5713,724.5468],[120.4267,-8.5723,724.5468],[120.4285,-8.5796,791.9205],[120.4268,-8.5837,827.4543],[120.432,-8.5865,894.6155],[120.4371,-8.5861,987.9231],[120.4384,-8.5876,979.7188],[120.4473,-8.5865,1035.0071],[120.4502,-8.5815,1054.3679],[120.4639,-8.5839,947.6791],[120.4635,-8.5782,905.79],[120.4673,-8.5789,942.994],[120.4681,-8.5757,920.6132],[120.4676,-8.5673,830.7714],[120.4716,-8.5635,838.8926],[120.4727,-8.5641,814.8033],[120.4729,-8.5596,810.3745],[120.477,-8.5566,776.5583],[120.4789,-8.5515,860.8814],[120.4813,-8.5521,850.8646],[120.4831,-8.5552,850.7526],[120.4823,-8.5615,860.345],[120.4777,-8.5655,879.2351],[120.4773,-8.5692,898.0791],[120.4786,-8.5692,915.0032],[120.4799,-8.573,951.374],[120.4766,-8.5765,959.7877],[120.4826,-8.5776,879.8481],[120.4863,-8.5746,825.3348],[120.4896,-8.5766,834.7495],[120.4895,-8.584,878.8337],[120.4875,-8.5883,944.4194],[120.4896,-8.5899,938.3141],[120.4885,-8.5926,946.6808],[120.4904,-8.5924,972.8549],[120.4902,-8.5981,1004.8219],[120.4935,-8.6026,1054.4],[120.4907,-8.6059,1095.9722],[120.4907,-8.6117,1169.6658],[120.4982,-8.6204,1279.8607],[120.5003,-8.627,1464.6946],[120.5,-8.6334,1593.856],[120.5032,-8.6415,1902.9242],[120.5043,-8.6431,1907.1119],[120.5084,-8.6414,2009.958]]]]}}