{"type":"Feature","properties":{"GID_3":"IDN.7.5.1_1","GID_0":"IDN","country":"Indonesia","GID_1":"IDN.7_1","province":"JakartaRaya","NL_NAME_1":"NA","GID_2":"IDN.7.5_1","county":"JakartaUtara","NL_NAME_2":"NA","city":"Cilincing","VARNAME_3":"NA","NL_NAME_3":"NA","TYPE_3":"Kecamatan","ENGTYPE_3":"Sub-district","CC_3":"3175060","HASC_3":"NA","name":"Cilincing.city"},
"geometry":{"type": "MultiPolygon","coordinates": [[[[106.9395,-6.1518,3.3983],[106.9402,-6.1553,5.7399],[106.9442,-6.1551,3.9555],[106.9447,-6.163,3.4429],[106.9516,-6.1634,4.5142],[106.953,-6.1584,6.1707],[106.9543,-6.1576,6.0773],[106.9586,-6.1595,5.3808],[106.9597,-6.1556,5.5094],[106.9719,-6.1546,3.3358],[106.9717,-6.1461,4.022],[106.9728,-6.1462,4.022],[106.9707,-6.1399,2.6417],[106.969,-6.0907,0.0],[106.959,-6.0938,0.7483],[106.9414,-6.0961,0.0],[106.9403,-6.0982,3.3239],[106.9384,-6.096,0.0],[106.9264,-6.0981,3.8157],[106.9258,-6.1001,4.7472],[106.9203,-6.1007,0.4964],[106.9197,-6.1034,2.6085],[106.9215,-6.1035,4.947],[106.9196,-6.1043,2.6085],[106.9188,-6.0991,0.4097],[106.9163,-6.099,0.0],[106.9152,-6.1005,4.2514],[106.9134,-6.0987,0.6186],[106.9079,-6.1,3.6993],[106.9083,-6.1017,0.0],[106.9103,-6.1017,3.2904],[106.9104,-6.1034,4.1388],[106.9072,-6.1041,2.6267],[106.9069,-6.1087,2.447],[106.9173,-6.1083,4.4089],[106.9169,-6.1195,4.9347],[106.9205,-6.119,4.958],[106.9211,-6.1213,4.7891],[106.9219,-6.126,4.5881],[106.9185,-6.1283,6.0212],[106.9194,-6.1324,5.4238],[106.9154,-6.1447,5.5798],[106.922,-6.1622,4.221],[106.9356,-6.1585,4.4126],[106.9395,-6.1518,3.3983]]]]}}