{"type":"Feature","properties":{"GID_3":"IDN.9.24.1_1","GID_0":"IDN","country":"Indonesia","GID_1":"IDN.9_1","province":"JawaBarat","NL_NAME_1":"NA","GID_2":"IDN.9.24_1","county":"Sukabumi","NL_NAME_2":"NA","city":"Bantargadung","VARNAME_3":"NA","NL_NAME_3":"NA","TYPE_3":"Kecamatan","ENGTYPE_3":"Sub-district","CC_3":"3202121","HASC_3":"NA","name":"Bantargadung.city"},
"geometry":{"type": "MultiPolygon","coordinates": [[[[106.6715,-7.0088,69.1641],[106.6808,-7.0029,56.767],[106.6826,-6.9985,87.4275],[106.6846,-6.9975,84.2666],[106.6838,-6.9943,89.4116],[106.686,-6.9949,120.5558],[106.6891,-6.9895,133.8525],[106.6938,-6.9899,145.6418],[106.6941,-6.9871,133.6043],[106.6972,-6.9865,210.5581],[106.6951,-6.984,142.2524],[106.6973,-6.9816,148.5558],[106.7027,-6.9811,153.1984],[106.7023,-6.9782,155.4897],[106.7071,-6.9784,177.68],[106.7066,-6.9757999999999996,165.3583],[106.7104,-6.9746,188.9915],[106.7091,-6.9694,185.8409],[106.7106,-6.9662,190.9142],[106.712,-6.9674,217.5305],[106.7141,-6.9625,217.8042],[106.7168,-6.9642,236.1531],[106.7172,-6.9619,202.9008],[106.7201,-6.9618,263.2727],[106.7181,-6.9576,213.4001],[106.7191,-6.9566,213.4001],[106.7157,-6.9556,209.2538],[106.718,-6.9531,234.1562],[106.7165,-6.9437,252.9871],[106.7108,-6.942,277.7941],[106.7109,-6.9368,289.5654],[106.7081,-6.9352,303.2389],[106.7066,-6.9318,315.7497],[106.705,-6.9312,327.1997],[106.7044,-6.9328,326.305],[106.7046,-6.9305,327.1997],[106.7016,-6.9279,368.2963],[106.6952,-6.9254,440.8486],[106.6931,-6.9297,450.8768],[106.6932,-6.935,343.3509],[106.6908,-6.9379,254.0291],[106.6917,-6.9404,252.4064],[106.6873,-6.9434,225.1686],[106.6894,-6.9449,246.4465],[106.6884,-6.9471,221.5481],[106.6819,-6.943,279.2302],[106.6759,-6.9424,270.3787],[106.6711,-6.9385,323.9395],[106.6636,-6.9393,238.504],[106.6525,-6.9326,259.6013],[106.6471,-6.9333,261.4584],[106.6404,-6.9287,311.6512],[106.6322,-6.9279,399.5621],[106.6334,-6.9317,444.5956],[106.631,-6.9326,397.6368],[106.6306,-6.9356,476.9689],[106.6331,-6.9399,492.7168],[106.6312,-6.9454,426.7637],[106.6239,-6.9471,313.8756],[106.6221,-6.9456,351.67],[106.6107,-6.9457,190.9202],[106.6082,-6.9475,200.9444],[106.6098,-6.9496,141.9128],[106.6088,-6.9538,160.4362],[106.6069,-6.9552,128.8797],[106.6083,-6.9617,127.7501],[106.6173,-6.9598,178.5084],[106.6171,-6.9559,190.5218],[106.6199,-6.9544,239.8417],[106.6275,-6.9592,338.5241],[106.6237,-6.9724,297.252],[106.6253,-6.9762,274.6372],[106.6246,-6.9783,253.961],[106.628,-6.9827,171.6308],[106.6262,-6.9828,216.3059],[106.627,-6.9849,158.007],[106.6346,-6.9921,109.9446],[106.6335,-6.9939,106.6179],[106.6351,-6.9964,97.8127],[106.6337,-6.9991,113.649],[106.6303,-7.0005,100.2805],[106.6302,-7.0033,55.2517],[106.6328,-7.0062,48.1867],[106.6287,-7.0076,52.9399],[106.6292,-7.0098,79.2064],[106.6265,-7.0106,27.2496],[106.6265,-7.014,19.9977],[106.6216,-7.0157,13.5099],[106.6286,-7.0223,36.0724],[106.6301,-7.017,19.148],[106.6333,-7.0141,19.3835],[106.6363,-7.0155,20.9391],[106.6369,-7.0181,19.6375],[106.6354,-7.0206,23.5722],[106.6368,-7.0216,53.4209],[106.6402,-7.02,39.2005],[106.6428,-7.0149,22.8451],[106.6502,-7.0131,26.9527],[106.6536,-7.0144,25.2044],[106.6509,-7.0205,28.0203],[106.6553,-7.0246,102.1521],[106.6701,-7.0228,35.7843],[106.6722,-7.024,43.6865],[106.6759,-7.023,45.1149],[106.6776,-7.0205,63.2775],[106.6715,-7.0088,69.1641]]]]}}