{"type":"Feature","properties":{"GID_3":"IDN.25.5.10_1","GID_0":"IDN","country":"Indonesia","GID_1":"IDN.25_1","province":"SulawesiBarat","NL_NAME_1":"NA","GID_2":"IDN.25.5_1","county":"PolewaliMandar","NL_NAME_2":"NA","city":"Matakali","VARNAME_3":"NA","NL_NAME_3":"NA","TYPE_3":"Kecamatan","ENGTYPE_3":"Sub-district","CC_3":"7602043","HASC_3":"NA","name":"Matakali.city"},
"geometry":{"type": "MultiPolygon","coordinates": [[[[119.2738,-3.4048,3.1196],[119.2756,-3.4079,0.0],[119.2753,-3.4114,0.0],[119.2787,-3.4124,0.5498],[119.278,-3.4134,0.0],[119.2798,-3.414,0.4951],[119.2787,-3.4154,0.125],[119.2814,-3.4166,0.0],[119.279,-3.4182,0.125],[119.2807,-3.4183,0.6759],[119.2798,-3.4217,0.0],[119.2823,-3.4218,0.0],[119.2826,-3.4234,0.0],[119.2799,-3.4259,0.0],[119.2805,-3.4288,0.2947],[119.2773,-3.4306,0.5548],[119.2825,-3.4407,0.0],[119.2816,-3.434,0.0],[119.2855,-3.4294,1.6593],[119.2921,-3.4312,0.2035],[119.2949,-3.4292,0.8449],[119.2931,-3.4256,8.7205],[119.2949,-3.4254,12.6568],[119.2951,-3.4239,9.0185],[119.2944,-3.4043,12.1512],[119.2995,-3.4033,9.9996],[119.3036,-3.3997,12.5823],[119.308,-3.3987,12.1095],[119.3078,-3.3886,23.8734],[119.3105,-3.3865,22.7519],[119.312,-3.3825,26.8331],[119.3073,-3.3827,24.0238],[119.3037,-3.3776,35.6625],[119.3099,-3.3768,26.8763],[119.3169,-3.3719,44.5242],[119.3186,-3.3687,61.285],[119.3197,-3.3513,181.6744],[119.3273,-3.3442,348.8098],[119.3401,-3.3238,575.938],[119.3451,-3.3083,841.1255],[119.3565,-3.2911,1167.1305],[119.3475,-3.2889,1324.896],[119.336,-3.2902,1097.6108],[119.3283,-3.2982,1122.6105],[119.3219,-3.3103,1065.0608],[119.3151,-3.316,456.9299],[119.3073,-3.3279,441.4287],[119.3039,-3.3299,430.7426],[119.2968,-3.3325,400.802],[119.2782,-3.3348,321.3941],[119.2691,-3.3333,201.7882],[119.25,-3.3406,49.3027],[119.2482,-3.339,40.9988],[119.2414,-3.3502,21.2891],[119.2436,-3.3504,17.7511],[119.2448,-3.3611,15.3462],[119.2406,-3.3656,10.0054],[119.2392,-3.373,20.2217],[119.2361,-3.3788,7.6094],[119.2384,-3.3829,5.6775],[119.2446,-3.3872,10.5239],[119.2499,-3.3943,3.4964],[119.2612,-3.3964,2.8241],[119.2738,-3.4048,3.1196]]]]}}