{"type":"Feature","properties":{"GID_3":"IDN.9.24.24_1","GID_0":"IDN","country":"Indonesia","GID_1":"IDN.9_1","province":"JawaBarat","NL_NAME_1":"NA","GID_2":"IDN.9.24_1","county":"Sukabumi","NL_NAME_2":"NA","city":"JampangKulon","VARNAME_3":"NA","NL_NAME_3":"NA","TYPE_3":"Kecamatan","ENGTYPE_3":"Sub-district","CC_3":"3202040","HASC_3":"NA","name":"Jampang_Kulon.city"},
"geometry":{"type": "MultiPolygon","coordinates": [[[[106.6218,-7.3071,200.3404],[106.6256,-7.3052,205.3315],[106.6265,-7.3085,204.7991],[106.6336,-7.3139,202.6029],[106.6328,-7.318,186.5054],[106.6387,-7.3161,168.5107],[106.6397,-7.3197,95.635],[106.6429,-7.3191,37.2896],[106.6475,-7.3123,51.2995],[106.6551,-7.3159,78.4078],[106.6577,-7.3139,114.2869],[106.66,-7.3093,138.5847],[106.659,-7.305,137.6291],[106.6564,-7.3021,135.1161],[106.6597,-7.2915,163.2621],[106.6635,-7.2905,163.934],[106.6686,-7.2993,158.2583],[106.6721,-7.2952,167.9],[106.6672,-7.2857,168.9576],[106.668,-7.2839,168.4628],[106.6629,-7.2797,242.0025],[106.6632,-7.2779,282.1396],[106.6602,-7.2755,284.1393],[106.6583,-7.2713,312.1653],[106.6478,-7.2675,301.4171],[106.6492,-7.2653,304.9028],[106.646,-7.2607,316.0727],[106.6447,-7.2544,332.0468],[106.6465,-7.2526,353.0185],[106.6468,-7.2455,357.7376],[106.6438,-7.2443,355.8016],[106.643,-7.239,365.9438],[106.6432,-7.2351,371.136],[106.6458,-7.2338,371.228],[106.6449,-7.2254,391.8877],[106.6528,-7.2209,425.7636],[106.6598,-7.2199,429.1258],[106.6616,-7.217,444.5636],[106.6684,-7.2133,558.6437],[106.6767,-7.2113,555.6282],[106.6774,-7.2059,559.2136],[106.6739,-7.2037,584.7261],[106.6734,-7.2005,582.7493],[106.6757,-7.1994,578.0906],[106.6745,-7.1954,592.7538],[106.6783,-7.1928,627.2975],[106.6818,-7.1874,634.665],[106.682,-7.1824,652.3359],[106.6833,-7.1816,645.6713],[106.6808,-7.1791,654.9781],[106.6825,-7.1761,714.7119],[106.6804,-7.1711,720.5051],[106.6827,-7.1691,723.1857],[106.6768,-7.167,686.4766],[106.6732,-7.1632999999999996,682.3619],[106.67,-7.1658,679.1406],[106.6662,-7.1658,679.4564],[106.6661,-7.1699,688.7262],[106.6676,-7.1707,671.5021],[106.6657,-7.1728,683.5343],[106.6678,-7.1737,669.772],[106.66,-7.1743,684.5677],[106.6597,-7.1791,674.0027],[106.6565,-7.1818,656.6195],[106.6539,-7.1819,654.4127],[106.6525,-7.1907,626.2734],[106.647,-7.1932,582.2646],[106.6417,-7.2,490.2439],[106.6408,-7.2068,394.4613],[106.6377,-7.2076,389.0956],[106.6371,-7.2098,395.6728],[106.6335,-7.2101,366.4489],[106.6348,-7.2123,365.3034],[106.6333,-7.2163,340.9058],[106.6348,-7.2164,340.9058],[106.6351,-7.2193,330.262],[106.6326,-7.2222,314.8543],[106.6295,-7.2221,301.4293],[106.63,-7.2237,318.2268],[106.6282,-7.2252,292.0598],[106.6294,-7.2277,328.6425],[106.6262,-7.2288,295.7686],[106.6281,-7.2308,303.6293],[106.6276,-7.2331,281.193],[106.6238,-7.2318,277.5767],[106.6237,-7.2368,276.9531],[106.6191,-7.2366,266.8022],[106.6183,-7.238,297.7255],[106.6162,-7.2348,264.7745],[106.61279999999999,-7.2338,262.1532],[106.6097,-7.236,256.9883],[106.6062,-7.2431,242.2193],[106.6027,-7.2414,235.3216],[106.5967,-7.2447,240.3005],[106.5956,-7.2439,231.5505],[106.5955,-7.2462,228.0039],[106.593,-7.2487,239.1734],[106.5909,-7.2472,223.7175],[106.5913,-7.2458,236.1189],[106.5883,-7.2467,221.988],[106.5925,-7.2518,239.6845],[106.5969,-7.2524,253.8528],[106.5978,-7.2543,241.0366],[106.6001,-7.2534,243.8272],[106.6007,-7.2555,253.8005],[106.6064,-7.2573,276.2891],[106.6095,-7.2632,282.3223],[106.6064,-7.2704,264.7294],[106.6092,-7.2725,263.6744],[106.6068,-7.2766,251.763],[106.6073,-7.2826,238.5934],[106.5992,-7.2953,207.2106],[106.5949,-7.3067,188.3323],[106.5971,-7.307,190.0668],[106.6042,-7.3014,205.25],[106.6139,-7.305,192.9923],[106.6155,-7.3083,187.723],[106.6195,-7.3047,196.0918],[106.6218,-7.3071,200.3404]]]]}}