{"type":"Feature","properties":{"GID_2":"IDN.9.14_1","GID_0":"IDN","country":"Indonesia","GID_1":"IDN.9_1","province":"JawaBarat","NL_NAME_1":"NA","county":"KotaBandung","VARNAME_2":"NA","NL_NAME_2":"NA","TYPE_2":"Kota","ENGTYPE_2":"City","CC_2":"3273","HASC_2":"ID.JR.BN","name":"Kota_Bandung.county"},
"geometry":{"type": "MultiPolygon","coordinates": [[[[107.6333,-6.9652,669.541],[107.6506,-6.9647,668.3126],[107.6658,-6.9676,666.0312],[107.6943,-6.9697,662.285],[107.7034,-6.968,663.0735],[107.716,-6.9617,663.6015],[107.7157,-6.9562,662.5709],[107.7136,-6.9561,662.889],[107.7126,-6.9541,663.4291],[107.7131,-6.9475,667.0961],[107.7159,-6.9458,667.3021],[107.7178,-6.9392,672.5739],[107.7209,-6.9374,678.7598],[107.7258,-6.9283,707.0872],[107.7262,-6.9176,778.6536],[107.7285,-6.917,781.2056],[107.7297,-6.9132,802.7899],[107.7342,-6.9086,874.3613],[107.7365,-6.9093,897.3774],[107.7393,-6.9021,977.9266],[107.738,-6.8995,991.3358],[107.7346,-6.8995,974.2892],[107.7299,-6.8957,963.4132],[107.7272,-6.8964,930.3747],[107.7261,-6.895,953.7095],[107.7235,-6.8985,872.2329],[107.7193,-6.899,846.7017],[107.7191,-6.9016,810.0131],[107.7167,-6.9012,821.6562],[107.7152,-6.9036,781.5533],[107.714,-6.9015,780.106],[107.7146,-6.8902,870.0884],[107.7076,-6.8897,920.7721],[107.7042,-6.8926,862.2554],[107.7045,-6.8983,782.0084],[107.7018,-6.8978,822.5893],[107.7006,-6.9016,746.9918],[107.7047,-6.9032,742.4731],[107.704,-6.9076,719.7662],[107.7,-6.9082,697.2072],[107.6929,-6.9054,694.9468],[107.6949,-6.9027,719.1177],[107.6905,-6.8999,714.4092],[107.689,-6.8971,731.5605],[107.6846,-6.8956,782.5937],[107.6842,-6.8929,780.4459],[107.6808,-6.8912,802.4377],[107.6808,-6.8894,813.6102],[107.678,-6.8927,775.2733],[107.6681,-6.891,779.7565],[107.6702,-6.884,814.5198],[107.6653,-6.8901,770.3464],[107.6659,-6.8853,770.6589],[107.6636,-6.8836,801.4531],[107.6565,-6.8943,727.0646],[107.6493,-6.8933,723.468],[107.6491,-6.8921,722.7825],[107.6457,-6.8912,738.2131],[107.6473,-6.8895,756.6171],[107.6465,-6.8885,756.6171],[107.6423,-6.8938,706.2523],[107.6365,-6.886,742.4548],[107.6354,-6.8884,726.4566],[107.6326,-6.8893,725.8538],[107.6341,-6.8848,741.4769],[107.6295,-6.8806,764.0214],[107.6309,-6.8721,790.6441],[107.6271,-6.8711,841.1578],[107.6254,-6.8665,892.3445],[107.6262,-6.8637,890.7369],[107.6234,-6.8643,868.9216],[107.6252,-6.8583,877.9692],[107.6273,-6.858,953.4189],[107.6286,-6.8557,903.4531],[107.625,-6.8488,978.0499],[107.6219,-6.856,902.7086],[107.6188,-6.8525,990.1246],[107.6192,-6.8504,1013.8535],[107.6159,-6.8495,1021.8513],[107.6159,-6.8471,1029.6936],[107.6143,-6.8493,1009.8029],[107.6115,-6.8498,983.8231],[107.6092,-6.8552,968.6437],[107.6045,-6.8594,908.4658],[107.6014,-6.8544,948.9669],[107.6036,-6.8439,1043.0748],[107.6029,-6.8459,1014.7291],[107.6008,-6.8423,1064.3356],[107.5969,-6.8426,1064.2502],[107.5976,-6.8369,1062.7004],[107.5926,-6.8471,1019.1786],[107.5895,-6.8499,965.1616],[107.5904,-6.8531,936.6971],[107.5887,-6.8537,937.1873],[107.5892,-6.8572,917.8454],[107.582,-6.861,884.9446],[107.5758,-6.8676,846.2791],[107.5768,-6.8686,840.1472],[107.5715,-6.8822,788.7338],[107.5723,-6.8862,772.5046],[107.5763,-6.8907,760.4566],[107.5624,-6.888,754.0963],[107.5561,-6.889,747.7992],[107.569,-6.9103,724.3517],[107.5654,-6.9125,716.1384],[107.5646,-6.9159,712.6731],[107.5651,-6.9243,703.6266],[107.5627,-6.9273,696.937],[107.5652,-6.9297,697.5864],[107.5645,-6.9325,695.6379],[107.5591,-6.9308,692.9985],[107.5604,-6.9279,696.8455],[107.5587,-6.9262,696.316],[107.5579,-6.9298,692.9985],[107.5503,-6.9262,688.6082],[107.5459,-6.9281,690.9149],[107.5626,-6.9508,681.0162],[107.5819,-6.9615,672.3817],[107.5889,-6.9627,671.8585],[107.6168,-6.9609,674.3286],[107.6333,-6.9652,669.541]]],
[[[107.6248,-6.8485,978.0499],[107.6249,-6.8486,978.0499],[107.625,-6.8488,978.0499],[107.625,-6.8482,978.0499],[107.6248,-6.8485,978.0499]]]]}}