{"type":"Feature","properties":{"GID_3":"IDN.32.27.3_1","GID_0":"IDN","country":"Indonesia","GID_1":"IDN.32_1","province":"SumateraUtara","NL_NAME_1":"NA","GID_2":"IDN.32.27_1","county":"SerdangBedagai","NL_NAME_2":"NA","city":"DolokMasihul","VARNAME_3":"NA","NL_NAME_3":"NA","TYPE_3":"Kecamatan","ENGTYPE_3":"Sub-district","CC_3":"1218020","HASC_3":"NA","name":"Dolok_Masihul.city"},
"geometry":{"type": "MultiPolygon","coordinates": [[[[98.9703,3.2866,85.3764],[98.9633,3.2858,92.7899],[98.9553,3.2818,99.1031],[98.9649,3.273,99.0725],[98.9648,3.268,93.9992],[98.9553,3.24,98.4717],[98.9526,3.2219,130.6356],[98.9613,3.2288,113.1336],[98.9668,3.2309,108.1641],[98.9698,3.2302,112.4125],[98.9704,3.2343,101.8989],[98.9765,3.2378,88.1291],[98.9798,3.2424,91.6424],[98.9899,3.2504,82.8011],[98.9963,3.2517,81.1242],[98.9988,3.2549,72.1615],[99.0005,3.2548,68.6359],[99.0019,3.2598,64.2302],[99.0028,3.259,64.2302],[99.0078,3.2621,69.9885],[99.0116,3.2615,56.8928],[99.0167,3.2577,61.2286],[99.0274,3.2631,54.5],[99.0282,3.2608,52.6324],[99.0334,3.2615,55.0698],[99.034,3.2596,52.9921],[99.0369,3.2617,51.119],[99.0389,3.2605,52.4844],[99.0392,3.2636,51.107],[99.042,3.2628,53.461],[99.043,3.2647,53.1369],[99.0437,3.2626,50.2102],[99.0463,3.2638,50.2938],[99.0456,3.2651,50.2938],[99.0502,3.2699,45.8356],[99.0493,3.2721,62.5815],[99.0524,3.2742,45.841],[99.0568,3.2715,50.2094],[99.0593,3.272,53.4645],[99.0582,3.2737,43.1646],[99.0621,3.2792,41.6246],[99.0609,3.2801,41.6246],[99.0657,3.2815,45.5542],[99.0653,3.283,43.8311],[99.0674,3.2838,43.1349],[99.0685,3.2826,42.0922],[99.0714,3.2859,43.268],[99.0727,3.2933,41.2879],[99.0708,3.2943,37.9703],[99.0721,3.2998,36.2714],[99.0761,3.3019,36.8794],[99.0803,3.3094,39.495],[99.0835,3.3098,35.0117],[99.0835,3.3241,46.4072],[99.0947,3.3351,37.0769],[99.0957,3.3433,39.2458],[99.1007,3.3478,36.3697],[99.1052,3.3549,33.0397],[99.1029,3.3553,28.5708],[99.097,3.3623,35.533],[99.0846,3.3515,41.279],[99.0805,3.3562,39.7762],[99.0823,3.3579,38.4807],[99.0791,3.3612,34.7159],[99.084,3.3658,33.5743],[99.0825,3.3673,31.1984],[99.0839,3.3686,33.9082],[99.0871,3.3695,29.8361],[99.0932,3.374,28.2318],[99.098,3.3801,26.8684],[99.1004,3.3808,28.6442],[99.107,3.388,23.9163],[99.1079,3.3913,22.1531],[99.1005,3.3974,27.1967],[99.0859,3.3829,35.3043],[99.0637,3.3774,41.8439],[99.0597,3.3816,43.3018],[99.0543,3.3811,45.4355],[99.0318,3.4074,30.9752],[99.0281,3.4092,35.4288],[99.0234,3.4067,31.2206],[99.0211,3.3944,29.4665],[99.0164,3.3861,33.3579],[99.0161,3.3802,37.8276],[99.0066,3.3898,50.7031],[99.0022,3.3888,41.4328],[98.9865,3.39,50.0702],[98.9865,3.3926,46.168],[98.9844,3.3937,50.3383],[98.9771,3.3886,56.5513],[98.956,3.379,63.6733],[98.956,3.3517,84.7599],[98.9575,3.3507,84.7599],[98.9557,3.3339,83.4681],[98.9867,3.3052,79.3923],[98.9806,3.295,80.4602],[98.9703,3.2866,85.3764]]]]}}