{"type":"Feature","properties":{"GID_2":"IDN.11.25_1","GID_0":"IDN","country":"Indonesia","GID_1":"IDN.11_1","province":"JawaTimur","NL_NAME_1":"NA","county":"Ngawi","VARNAME_2":"NA","NL_NAME_2":"NA","TYPE_2":"Kabupaten","ENGTYPE_2":"Regency","CC_2":"3521","HASC_2":"ID.JI.NW","name":"Ngawi.county"},
"geometry":{"type": "MultiPolygon","coordinates": [[[[111.2643,-7.5988,656.5539],[111.2741,-7.6006,544.842],[111.2756,-7.6017,532.3989],[111.275,-7.6034,559.6982],[111.2836,-7.6037,492.2429],[111.2833,-7.6072,509.8167],[111.2887,-7.6052,462.7385],[111.289,-7.6029,443.4346],[111.2911,-7.6037,434.6351],[111.2943,-7.6022,419.6688],[111.2961,-7.5993,406.1971],[111.2928,-7.6,416.7483],[111.2921,-7.5963,417.6566],[111.2988,-7.5945,371.8423],[111.2991,-7.59,377.5077],[111.3015,-7.5868,341.4605],[111.311,-7.5851,302.1259],[111.3142,-7.5831,292.0068],[111.3161,-7.5858,291.3228],[111.3156,-7.5891,298.316],[111.327,-7.5866,251.2769],[111.3265,-7.5855,265.7271],[111.3301,-7.5841,252.1843],[111.3302,-7.5817,245.5811],[111.3532,-7.5728,170.7885],[111.3544,-7.5704,159.3444],[111.3678,-7.571,133.8103],[111.3701,-7.569,143.26],[111.3705,-7.5701,127.8114],[111.3713,-7.5634,133.2115],[111.3741,-7.5605,123.4216],[111.3733,-7.5585,120.6943],[111.372,-7.5597,131.1315],[111.3702,-7.5583,130.9744],[111.3692,-7.554,121.8039],[111.3716,-7.5526,117.4499],[111.3737,-7.547,106.5921],[111.3787,-7.546,105.7719],[111.3794,-7.5413,99.8759],[111.3813,-7.5397,96.4137],[111.3946,-7.5413,91.0187],[111.4112,-7.5379,75.9903],[111.4322,-7.5277,69.8154],[111.4377,-7.5206,64.4662],[111.4441,-7.5174,62.3158],[111.4479,-7.5175,62.1878],[111.4483,-7.5158,61.8257],[111.4523,-7.5152,62.8232],[111.4602,-7.5176,59.3074],[111.4621,-7.5098,56.2294],[111.4671,-7.5099,52.9954],[111.4772,-7.5159,49.9488],[111.5019,-7.5143,50.3046],[111.512,-7.5239,50.993899999999996],[111.5082,-7.5369,53.0722],[111.5231,-7.5397,53.4691],[111.525,-7.5446,54.7278],[111.5359,-7.5457,56.3002],[111.5374,-7.5396,54.3612],[111.5433,-7.5392,58.875],[111.547,-7.5395,56.6903],[111.5493,-7.5448,56.5258],[111.558,-7.5442,53.9333],[111.561,-7.5415,54.6541],[111.5604,-7.5399,54.592],[111.547,-7.5374,56.1121],[111.5522,-7.5306,56.1848],[111.5505,-7.5271,56.3469],[111.5564,-7.5295,57.1779],[111.5571,-7.5277,56.6202],[111.5609,-7.5274,57.9437],[111.564,-7.5232,58.5176],[111.5696,-7.5243,59.2102],[111.5721,-7.521,59.531],[111.5755,-7.5204,59.2786],[111.5823,-7.5234,58.0567],[111.5872,-7.5212,58.0086],[111.5801,-7.5154,62.4278],[111.5804,-7.5125,63.14],[111.5819,-7.5127,63.14],[111.5821,-7.511,63.2928],[111.5841,-7.5117,64.5698],[111.5837,-7.5096,62.6398],[111.5856,-7.5104,65.0798],[111.5887,-7.5055,64.8195],[111.5908,-7.5069,64.8075],[111.5905,-7.5045,65.1764],[111.5943,-7.4991,67.5988],[111.5937,-7.4978,66.7126],[111.5979,-7.4953,68.1542],[111.5957,-7.4941,69.564],[111.5978,-7.4886,70.315],[111.5993,-7.4889,69.4942],[111.6007,-7.4853,71.6816],[111.6045,-7.4837,70.1866],[111.6046,-7.4818,69.6402],[111.6025,-7.4813,70.7546],[111.6048,-7.4802,70.7393],[111.6048,-7.4771,73.0025],[111.6066,-7.4755,71.9273],[111.6075,-7.4788,71.5236],[111.6106,-7.4759,68.5827],[111.6107,-7.4689,73.6035],[111.6172,-7.4676,75.9591],[111.6227,-7.4694,74.5885],[111.6243,-7.4666,76.0455],[111.6273,-7.467,76.9856],[111.629,-7.4637,79.317],[111.6314,-7.4639,77.19],[111.6344,-7.4615,81.4207],[111.6371,-7.4628,81.3094],[111.6438,-7.4516,90.4403],[111.6517,-7.451,90.5874],[111.6508,-7.4458,97.9743],[111.6524,-7.4447,100.352],[111.6506,-7.4387,95.7936],[111.6552,-7.4385,101.8786],[111.6549,-7.4367,102.457],[111.6584,-7.4336,107.6143],[111.6597,-7.4272,110.4248],[111.6633,-7.424,111.198],[111.6685,-7.4232,114.4482],[111.6712,-7.4095,215.2722],[111.6547,-7.3991,143.7928],[111.6307,-7.3897,134.3315],[111.6235,-7.3822,140.8262],[111.6163,-7.3794,169.7839],[111.6138,-7.3698,176.7582],[111.6113,-7.3706,169.0963],[111.6101,-7.3678,161.7041],[111.6049,-7.3636,165.185],[111.5962,-7.3589,170.6819],[111.5927,-7.3591,166.0947],[111.5917,-7.3571,168.7193],[111.5835,-7.3529,168.3483],[111.5801,-7.3547,163.9096],[111.5749,-7.3486,209.7421],[111.5671,-7.3553,153.2323],[111.5665,-7.3599,143.8398],[111.5632,-7.3576,157.5787],[111.5613,-7.3584,162.3357],[111.5597,-7.3635,164.8868],[111.543,-7.3665,146.004],[111.5404,-7.3694,169.8787],[111.5282,-7.3721,150.9967],[111.5235,-7.3715,149.9968],[111.5194,-7.3661,138.3889],[111.5135,-7.3629,125.988],[111.5059,-7.3617,125.2275],[111.5014,-7.3633,129.8384],[111.4852,-7.3582,79.1021],[111.4758,-7.3596,80.7852],[111.473,-7.3573,69.1413],[111.4665,-7.3599,57.0316],[111.4672,-7.3619,59.9604],[111.4625,-7.3617,36.1481],[111.4568,-7.3682,46.6394],[111.4571,-7.3697,46.9335],[111.4637,-7.3715,39.493],[111.4631,-7.3745,43.1143],[111.4525,-7.3748,83.8821],[111.4505,-7.3712,64.9929],[111.4473,-7.372,79.2538],[111.4398,-7.3699,88.9599],[111.4361,-7.3662,83.9141],[111.4316,-7.3645,90.6906],[111.4264,-7.3561,81.0808],[111.4173,-7.3523,87.3956],[111.4163,-7.3488,85.3718],[111.4121,-7.3477,106.4238],[111.4089,-7.3495,108.5871],[111.4036,-7.3478,123.8532],[111.4004,-7.3494,109.2375],[111.3949,-7.3463,113.4137],[111.3861,-7.3447,92.4805],[111.3824,-7.3466,69.4717],[111.3739,-7.3442,95.2669],[111.3687,-7.3407,112.8228],[111.3675,-7.3348,113.425],[111.3607,-7.3307,132.8772],[111.3449,-7.3353,77.8516],[111.3482,-7.3306,74.0438],[111.3454,-7.3281,93.4111],[111.3471,-7.3229,81.645],[111.3447,-7.3191,79.302],[111.3401,-7.3183,80.3138],[111.3333,-7.3208,78.0744],[111.3332,-7.3174,92.1661],[111.3316,-7.3176,86.0828],[111.33,-7.315,84.5047],[111.3262,-7.3166,97.2853],[111.3267,-7.3152,87.4513],[111.3217,-7.3119,90.7895],[111.3223,-7.3093,88.487],[111.3192,-7.3092,89.4359],[111.3153,-7.3048,89.114],[111.3102,-7.3062,94.5207],[111.3089,-7.3022,93.113],[111.3064,-7.3004,95.5281],[111.3051,-7.3032,101.7108],[111.3033,-7.2996,96.1594],[111.3005,-7.3019,102.1674],[111.297,-7.3001,96.8217],[111.2958,-7.3017,109.1137],[111.2957,-7.3002,96.2068],[111.2937,-7.3002,97.7397],[111.295,-7.2992,103.2542],[111.2929,-7.2954,107.0155],[111.2888,-7.2936,103.1778],[111.2886,-7.2914,97.9869],[111.2868,-7.2911,99.1849],[111.2881,-7.2901,106.5753],[111.2862,-7.2891,99.3041],[111.2819,-7.2887,97.6827],[111.2808,-7.2906,102.1543],[111.2792,-7.288,97.362],[111.2755,-7.2898,103.2307],[111.2681,-7.2896,106.8787],[111.2669,-7.2877,104.6475],[111.264,-7.2871,99.0251],[111.2583,-7.2882,111.5008],[111.2552,-7.2876,102.2636],[111.2541,-7.2843,111.0588],[111.2513,-7.284,108.7193],[111.2486,-7.2839,110.4083],[111.2482,-7.2863,115.9678],[111.2442,-7.2855,108.794],[111.2414,-7.2823,113.4307],[111.2399,-7.2756,116.5921],[111.2344,-7.2694,124.2607],[111.2307,-7.2676,124.4415],[111.2291,-7.2685,124.9218],[111.2237,-7.2618,127.5603],[111.2239,-7.2568,132.9058],[111.2218,-7.2526,138.1562],[111.2149,-7.2474,154.1892],[111.2122,-7.2475,156.85],[111.2083,-7.2449,181.682],[111.2006,-7.2449,188.4587],[111.1971,-7.2467,181.5951],[111.1992,-7.2492,174.8806],[111.1997,-7.2558,180.2529],[111.1935,-7.2563,164.3497],[111.1897,-7.2598,156.4752],[111.1825,-7.2595,160.5114],[111.1777,-7.2644,157.8671],[111.1747,-7.2626,157.4348],[111.1684,-7.2634,153.817],[111.1671,-7.2606,161.4672],[111.1627,-7.2604,171.1516],[111.1606,-7.258,169.0675],[111.1557,-7.2579,158.1942],[111.1504,-7.2601,153.231],[111.1487,-7.2644,153.0033],[111.1508,-7.2688,147.0994],[111.1504,-7.2737,150.1188],[111.1468,-7.2796,137.6757],[111.1443,-7.2795,134.0487],[111.1439,-7.2814,126.6849],[111.1401,-7.2838,136.5829],[111.1414,-7.29,101.9468],[111.138,-7.2938,103.7204],[111.137,-7.2975,112.3901],[111.1421,-7.3074,122.5983],[111.1469,-7.3082,123.5772],[111.1553,-7.3133,115.2888],[111.1494,-7.3208,112.3841],[111.1494,-7.3237,97.3834],[111.1435,-7.3289,100.3649],[111.142,-7.3326,89.9891],[111.1429,-7.3375,99.444],[111.1415,-7.3416,97.4267],[111.143,-7.3472,87.5257],[111.1406,-7.3527,62.183],[111.1414,-7.3572,67.7537],[111.1428,-7.3577,63.4512],[111.1413,-7.361,66.0972],[111.1446,-7.3596,67.2407],[111.1443,-7.3619,67.4098],[111.1417,-7.3636,69.165],[111.1441,-7.3648,69.9635],[111.1436,-7.3673,70.9232],[111.1455,-7.3683,70.469],[111.1415,-7.3732,70.9623],[111.1432,-7.3743,71.0841],[111.1371,-7.379,72.0487],[111.1365,-7.3824,73.6769],[111.1392,-7.3857,75.2483],[111.1335,-7.3911,76.7756],[111.131,-7.396,80.4378],[111.1293,-7.3955,80.8077],[111.1282,-7.3969,81.9197],[111.1273,-7.3988,82.5975],[111.1291,-7.3993,79.8179],[111.1284,-7.4007,78.3224],[111.1296,-7.4015,84.4605],[111.1264,-7.4051,82.4726],[111.1234,-7.4056,83.7066],[111.1242,-7.4092,85.6642],[111.1199,-7.4094,88.1643],[111.1202,-7.412,88.9183],[111.1184,-7.4145,88.7506],[111.1199,-7.4171,88.9655],[111.1191,-7.4233,96.7638],[111.1214,-7.4253,98.4362],[111.1239,-7.4344,104.6726],[111.1228,-7.4391,111.316],[111.1252,-7.4395,106.8759],[111.1261,-7.4427,113.7094],[111.1259,-7.4444,114.5109],[111.1242,-7.4443,116.74],[111.1252,-7.4504,126.7066],[111.1284,-7.4515,122.5726],[111.131,-7.4566,132.0056],[111.1287,-7.4611,137.1849],[111.1322,-7.4611,144.5163],[111.1318,-7.4644,144.9985],[111.1347,-7.4621,152.2297],[111.1372,-7.4657,159.909],[111.1345,-7.4685,158.9393],[111.1351,-7.4735,174.9241],[111.1332,-7.475,180.8798],[111.1368,-7.4802,195.7685],[111.1352,-7.4837,199.0895],[111.1394,-7.4868,219.7328],[111.1414,-7.4862,220.2592],[111.1448,-7.4934,258.4555],[111.1481,-7.4941,296.099],[111.1526,-7.4994,354.1006],[111.1534,-7.5055,338.6528],[111.1521,-7.5072,354.6643],[111.1536,-7.5099,354.9681],[111.1503,-7.5113,344.6296],[111.1481,-7.5165,376.5562],[111.1507,-7.5181,389.3622],[111.1502,-7.5204,405.7079],[111.1519,-7.5222,413.7642],[111.1464,-7.5253,447.0379],[111.1461,-7.5275,470.0086],[111.1502,-7.5335,521.2165],[111.1506,-7.5401,583.0331],[111.1519,-7.5411,583.0331],[111.1501,-7.543,609.6081],[111.1538,-7.5498,666.6143],[111.1521,-7.551,666.6143],[111.1519,-7.5546,730.5593],[111.1533,-7.5571,731.6156],[111.1531,-7.5628,786.5472],[111.1622,-7.5748,1036.271],[111.1633,-7.5803,1124.9385],[111.1668,-7.5823,1263.1064],[111.169,-7.5902,1583.7035],[111.1731,-7.5918,1763.9958],[111.1784,-7.6001,2104.6226],[111.1902,-7.6101,2653.5559],[111.193,-7.6138,2813.3215],[111.1945,-7.6204,3092.7346],[111.1998,-7.616,2974.7439],[111.217,-7.6144,2150.1191],[111.2269,-7.6095,1654.1096],[111.232,-7.6099,1504.2466],[111.249,-7.6003,931.8873],[111.2526,-7.6033,863.6276],[111.2563,-7.5992,779.3746],[111.2643,-7.5988,656.5539]]]]}}