{"type":"Feature","properties":{"GID_3":"IDN.20.2.1_1","GID_0":"IDN","country":"Indonesia","GID_1":"IDN.20_1","province":"NusaTenggaraBarat","NL_NAME_1":"NA","GID_2":"IDN.20.2_1","county":"Dompu","NL_NAME_2":"NA","city":"Dompu","VARNAME_3":"NA","NL_NAME_3":"NA","TYPE_3":"Kecamatan","ENGTYPE_3":"Sub-district","CC_3":"5205020","HASC_3":"NA","name":"Dompu.city"},
"geometry":{"type": "MultiPolygon","coordinates": [[[[118.3925,-8.6198,0.371],[118.3936,-8.6207,1.0437],[118.3958,-8.618,1.8057],[118.3951,-8.6125,0.0],[118.3917,-8.6165,4.7918],[118.3925,-8.6198,0.371]]],
[[[118.4556,-8.5997,314.5488],[118.4641,-8.5964,351.6293],[118.4696,-8.5896,453.1382],[118.4711,-8.5819,339.2923],[118.4671,-8.5743,336.3193],[118.4673,-8.5652,183.3967],[118.4778,-8.5629,44.2369],[118.4851,-8.5574,30.8482],[118.502,-8.5548,402.2516],[118.5021,-8.5513,413.3793],[118.4927,-8.5383,170.9362],[118.492,-8.5321,149.4775],[118.4956,-8.5266,273.0526],[118.5041,-8.5195,352.3176],[118.5077,-8.5187,386.0769],[118.5134,-8.5125,342.1041],[118.513,-8.5001,303.4668],[118.5151,-8.4931,331.3499],[118.5131,-8.482,277.5627],[118.5089,-8.4768,217.4374],[118.5055,-8.466,296.9457],[118.5022,-8.4618,365.2982],[118.502,-8.4447,402.5385],[118.5104,-8.436,572.0575],[118.5157,-8.4349,599.3243],[118.5246,-8.4283,880.199],[118.5389,-8.4068,1135.4561],[118.5423,-8.397,1399.5308],[118.5407,-8.389,1455.889],[118.5335,-8.379,1062.1481],[118.5274,-8.3661,845.2069],[118.5082,-8.3563,1080.3816],[118.4983,-8.348,899.8574],[118.4864,-8.3684,1081.6176],[118.4766,-8.3913,669.4393],[118.4744,-8.4014,667.7786],[118.474,-8.4156,616.7058],[118.4676,-8.4293,513.3545],[118.467,-8.4386,392.7613],[118.469,-8.4432,352.1945],[118.4688,-8.4517,308.0524],[118.4672,-8.456,285.974],[118.4646,-8.458,297.3417],[118.4652,-8.4601,267.9835],[118.4635,-8.4615,250.892],[118.4639,-8.4642,248.9417],[118.4607,-8.4718,211.8068],[118.4615,-8.475,202.8005],[118.4589,-8.4796,177.5163],[118.4593,-8.4858,155.542],[118.4616,-8.4892,133.127],[118.4543,-8.4918,177.1117],[118.448,-8.4918,168.5473],[118.449,-8.5022,150.1026],[118.4534,-8.5101,76.4428],[118.4578,-8.514,53.6141],[118.4568,-8.5154,54.9242],[118.4582,-8.5171,55.3257],[118.4548,-8.5171,42.1004],[118.453,-8.5221,32.7658],[118.4545,-8.5303,24.6324],[118.4501,-8.5316,24.6149],[118.4483,-8.5342,22.9065],[118.4509,-8.5428,18.5938],[118.4498,-8.545,15.6096],[118.452,-8.5472,17.5981],[118.4476,-8.5513,13.3817],[118.4452,-8.5506,13.0753],[118.4409,-8.5533,10.7234],[118.4364,-8.5665,7.9555],[118.4353,-8.5678,7.9555],[118.4329,-8.567,8.3042],[118.4306,-8.5774,7.3264],[118.4277,-8.5801,3.0001],[118.4222,-8.5815,1.7311],[118.4198,-8.5839,2.621],[118.4208,-8.5865,1.6699],[118.4151,-8.5872,1.7145],[118.4139,-8.5896,2.0125],[118.4106,-8.5862,1.4278],[118.4088,-8.5871,2.5418],[118.4059,-8.5858,2.7321],[118.4038,-8.5903,1.7034],[118.4015,-8.587,2.089],[118.3991,-8.5883,0.4054],[118.3969,-8.5956,1.7312],[118.4019,-8.6001,0.996],[118.4027,-8.6028,2.5767],[118.3956,-8.6098,0.9558],[118.3972,-8.6198,0.4722],[118.4014,-8.6213,0.0],[118.4091,-8.6188,2.163],[118.4088,-8.6237,2.1786],[118.411,-8.6253,0.8165],[118.4175,-8.6233,0.707],[118.4212,-8.6241,0.9934],[118.4224,-8.6261,2.3239],[118.421,-8.6309,0.8588],[118.4236,-8.6417,1.271],[118.4419,-8.6236,1.5837],[118.4457,-8.617,8.9679],[118.4511,-8.6158,84.8013],[118.4551,-8.6087,160.4458],[118.4556,-8.5997,314.5488]]]]}}