{"type":"Feature","properties":{"GID_3":"IDN.23.28.39_1","GID_0":"IDN","country":"Indonesia","GID_1":"IDN.23_1","province":"Papua","NL_NAME_1":"NA","GID_2":"IDN.23.28_1","county":"Yahukimo","NL_NAME_2":"NA","city":"Sumo","VARNAME_3":"NA","NL_NAME_3":"NA","TYPE_3":"Distrik","ENGTYPE_3":"District","CC_3":"9416047","HASC_3":"NA","name":"Sumo.city"},
"geometry":{"type": "MultiPolygon","coordinates": [[[[139.209,-4.8755,49.062],[139.3042,-4.9383,40.9622],[139.354,-4.9547,43.2115],[139.356,-4.9197,52.0489],[139.3606,-4.8897,54.9399],[139.3721,-4.8724,49.9487],[139.4114,-4.8401,71.7461],[139.4218,-4.8297,81.4859],[139.4264,-4.7985,94.8294],[139.4344,-4.7847,106.3129],[139.4448,-4.772,113.203],[139.4541,-4.7662,117.4527],[139.4702,-4.7524,132.383],[139.4968,-4.7224,142.8565],[139.506,-4.6935,289.8963],[139.5129,-4.682,264.1528],[139.4818,-4.6635,276.7567],[139.4633,-4.6474,385.4612],[139.4402,-4.6208,456.1168],[139.4125,-4.6104,676.4717],[139.3675,-4.6104,782.1104],[139.3352,-4.607,513.3436],[139.3052,-4.6012,748.3625],[139.2937,-4.6381,282.468],[139.2902,-4.667,294.4621],[139.2902,-4.6912,186.8387],[139.2717,-4.7235,101.8258],[139.259,-4.7385,89.6144],[139.2533,-4.7512,85.1267],[139.2464,-4.7824,69.4143],[139.236,-4.7985,67.947],[139.2314,-4.8124,58.6499],[139.2221,-4.8193,62.0215],[139.2221,-4.8412,58.7695],[139.2187,-4.8574,59.3772],[139.209,-4.8755,49.062]]]]}}