{"type":"Feature","properties":{"GID_3":"IDN.32.18.14_1","GID_0":"IDN","country":"Indonesia","GID_1":"IDN.32_1","province":"SumateraUtara","NL_NAME_1":"NA","GID_2":"IDN.32.18_1","county":"NiasSelatan","NL_NAME_2":"NA","city":"PulauPulauBatuTimur","VARNAME_3":"NA","NL_NAME_3":"NA","TYPE_3":"Kecamatan","ENGTYPE_3":"Sub-district","CC_3":"1214021","HASC_3":"NA","name":"Pulau_Pulau_Batu_Timur.city"},
"geometry":{"type": "MultiPolygon","coordinates": [[[[98.4755,-0.1824,12.1489],[98.4811,-0.1825,5.6184],[98.4866,-0.18,3.1092],[98.4855,-0.1734,1.0415],[98.4821,-0.1698,3.1313],[98.4839,-0.1681,1.6986],[98.4819,-0.1648,8.7909],[98.4848,-0.163,0.0],[98.4851,-0.1607,0.0],[98.4811,-0.1576,0.0],[98.4786,-0.1576,0.8197],[98.4779,-0.1506,4.5929],[98.4751,-0.1475,4.2613],[98.4771,-0.1472,2.5073],[98.4804,-0.1412,2.4895],[98.4863,-0.1391,5.1385],[98.4877,-0.1359,0.9089],[98.4796,-0.1352,8.7681],[98.4844,-0.1297,3.5035],[98.4838,-0.1231,0.8424],[98.4779,-0.1205,12.1166],[98.477,-0.1147,0.7749],[98.471,-0.1117,2.7894],[98.4685,-0.1078,0.8118],[98.4703,-0.0926,0.0],[98.4613,-0.0862,0.0],[98.4587,-0.0858,0.0],[98.4569,-0.0883,9.4211],[98.458,-0.0856,0.0],[98.4555,-0.0795,0.0],[98.4496,-0.0759,1.3314],[98.4301,-0.0932,31.6535],[98.4474,-0.1227,30.4101],[98.4536,-0.1514,38.4523],[98.4671,-0.1707,40.5928],[98.4723,-0.1812,14.7186],[98.4755,-0.1824,12.1489]]],
[[[98.5108,-0.1115,0.0],[98.5147,-0.1156,1.8226],[98.5141,-0.1087,1.8267],[98.511,-0.1093,0.0],[98.5108,-0.1115,0.0]]],
[[[98.4792,-0.1192,1.9651],[98.4829,-0.1223,2.5484],[98.4853,-0.1214,0.0],[98.4845,-0.1182,3.4916],[98.4864,-0.1166,6.3485],[98.486,-0.1116,3.8607],[98.4788,-0.1037,1.6985],[98.4765,-0.1032,8.8185],[98.4769,-0.0997,3.0745],[98.4739,-0.0992,0.0],[98.4708,-0.1014,0.0],[98.4699,-0.1065,0.8118],[98.472,-0.1108,0.0],[98.4785,-0.1147,2.9099],[98.4792,-0.1192,1.9651]]],
[[[98.4965,-0.1121,2.9317],[98.4929,-0.112,0.7278],[98.4933,-0.1086,0.0],[98.4903,-0.1,0.9803],[98.4876,-0.0985,1.1567],[98.4861,-0.1029,0.0],[98.4885,-0.1096,0.0],[98.4917,-0.1111,5.3335],[98.4933,-0.1151,2.5417],[98.4981,-0.1145,0.0],[98.4965,-0.1121,2.9317]]],
[[[98.5029,-0.055,3.0268],[98.5041,-0.0519,4.021],[98.5063,-0.0509,5.8477],[98.5028,-0.0432,5.5621],[98.5025,-0.0379,0.936],[98.4999,-0.0368,2.8114],[98.5008,-0.0353,3.0536],[98.4984,-0.0316,1.556],[98.492,-0.0282,3.8146],[98.4863,-0.0357,0.0],[98.4885,-0.0494,0.0],[98.4933,-0.0649,3.4534],[98.4997,-0.0707,4.6157],[98.5029,-0.0682,3.3597],[98.5043,-0.0563,1.1194],[98.5022,-0.0567,2.4522],[98.5029,-0.055,3.0268]]],
[[[98.4501,-0.0209,8.3081],[98.4521,-0.0233,0.0],[98.4512,-0.0187,0.0],[98.4499,-0.0185,0.0],[98.4501,-0.0209,8.3081]]],
[[[98.5307,0.1196,0.0],[98.5325,0.1085,5.289],[98.5364,0.1018,0.5503],[98.5426,0.1014,3.3271],[98.5469,0.0993,3.3503],[98.549,0.095,0.0],[98.5553,0.0908,0.0],[98.5583,0.0909,0.0],[98.5651,0.0967,10.8407],[98.5696,0.0967,17.527],[98.5726,0.0944,14.4798],[98.576,0.0957,23.2463],[98.5798,0.0932,3.2168],[98.5862,0.0939,8.3361],[98.5891,0.0897,0.0],[98.5929,0.0894,4.1672],[98.596,0.0895,0.0],[98.5984,0.0926,7.7443],[98.6024,0.0935,6.087],[98.6066,0.0898,1.0881],[98.611,0.0894,6.5291],[98.6163,0.0839,2.4999],[98.624,0.0842,4.2496],[98.6264,0.0866,4.2765],[98.6277,0.0823,1.4943],[98.6341,0.0795,2.227],[98.6383,0.0795,1.3739],[98.6432,0.0818,1.3975],[98.6484,0.0775,1.988],[98.6509,0.0779,0.0],[98.6555,0.073,10.0325],[98.6653,0.0737,1.0886],[98.6671,0.0769,2.3336],[98.6734,0.081,7.5573],[98.679,0.0763,2.6576],[98.6855,0.0791,7.1964],[98.6911,0.0752,0.0],[98.6989,0.0762,0.0],[98.7056,0.0799,3.4764],[98.7264,0.076,30.1507],[98.7315,0.0721,9.0834],[98.7429,0.0767,6.0367],[98.7492,0.0754,0.0],[98.749,0.071,1.7786],[98.7617,0.0794,6.6292],[98.7672,0.0806,18.14],[98.7687,0.0795,0.0],[98.77,0.0834,1.4488],[98.7687,0.0885,0.0],[98.7788,0.0953,14.3718],[98.7832,0.0963,22.4455],[98.7887,0.0962,28.7892],[98.7967,0.089,11.0611],[98.8007,0.0914,14.8259],[98.8087,0.0895,5.5963],[98.8139,0.0924,29.703],[98.8184,0.0918,18.7209],[98.8236,0.0852,6.4426],[98.8286,0.0835,19.1828],[98.8309,0.0792,0.0],[98.8324,0.0807,19.3958],[98.854,0.0807,1.5525],[98.8481,0.0843,4.9036],[98.8461,0.0891,5.9372],[98.8462,0.0912,6.7388],[98.8538,0.0977,1.7062],[98.8523,0.1068,12.6793],[98.8545,0.1156,11.1941],[98.8516,0.1186,3.8185],[98.8505,0.1229,1.8541],[98.8455,0.1278,5.5455],[98.8423,0.1346,2.894],[98.8363,0.1392,1.6039],[98.8309,0.1401,6.7462],[98.8207,0.1532,1.561],[98.8044,0.1662,0.0],[98.8015,0.1666,7.6356],[98.8004,0.1703,2.9697],[98.7941,0.1724,0.0],[98.7925,0.1722,0.0],[98.792,0.1687,5.6471],[98.7889,0.1663,3.2692],[98.7788,0.1702,11.9612],[98.7769,0.1739,0.0],[98.7747,0.1745,0.0],[98.7744,0.1718,4.6492],[98.7692,0.1709,2.3448],[98.7634,0.1662,0.8497],[98.762,0.1619,8.3541],[98.7546,0.1608,1.0383],[98.754,0.156,2.3399],[98.7517,0.1564,15.1884],[98.7492,0.16,11.4327],[98.7422,0.165,1.7277],[98.7377,0.1644,0.0],[98.7334,0.1594,3.3333],[98.7306,0.1608,0.0],[98.7255,0.1595,3.5987],[98.7245,0.1572,0.0],[98.7202,0.1578,3.1359],[98.7152,0.1614,4.0735],[98.7132,0.1604,10.0201],[98.7134,0.1685,5.0936],[98.7107,0.1729,19.0103],[98.7124,0.173,4.5909],[98.7126,0.1758,5.6108],[98.7123,0.1772,0.0],[98.7088,0.1783,1.6483],[98.7048,0.1776,0.0],[98.7013,0.1748,9.3664],[98.6847,0.1729,1.2535],[98.6819,0.1685,20.7125],[98.6756,0.17,7.1463],[98.6722,0.1727,0.0],[98.6697,0.1718,0.0],[98.6687,0.1693,2.8851],[98.6668,0.1716,2.6939],[98.6626,0.1724,7.0402],[98.6617,0.1748,1.3167],[98.6582,0.1757,0.0],[98.6519,0.1741,3.1652],[98.646,0.1763,3.0058],[98.639,0.1763,2.7902],[98.6376,0.1748,6.5945],[98.6351,0.1764,2.866],[98.6199,0.174,2.0849],[98.6147,0.1812,0.0],[98.6005,0.1798,0.0],[98.5928,0.1751,11.0125],[98.5835,0.1736,15.112],[98.5734,0.1758,0.0],[98.566,0.1734,2.1442],[98.5555,0.1617,10.8272],[98.55,0.1609,0.0],[98.5487,0.1571,2.2836],[98.5427,0.1516,5.4635],[98.5395,0.151,0.0],[98.5376,0.1478,0.0],[98.5264,0.1435,18.075],[98.5254,0.1372,5.0552],[98.5263,0.133,3.6225],[98.531,0.1265,1.6185],[98.5307,0.1196,0.0]]],
[[[98.5216,-0.1442,4.6542],[98.5223,-0.1464,0.0],[98.5275,-0.1478,13.2311],[98.527,-0.1421,2.5978],[98.5191,-0.1391,1.8652],[98.5167,-0.1359,0.0],[98.5147,-0.136,0.0],[98.5166,-0.1411,9.7016],[98.5216,-0.1442,4.6542]]],
[[[98.526,-0.0313,4.3503],[98.5247,-0.0333,4.2612],[98.5273,-0.0374,6.842],[98.5275,-0.042,0.0],[98.5257,-0.0557,0.0],[98.5459,-0.0713,0.0],[98.5445,-0.0646,0.0],[98.5464,-0.0624,0.0],[98.5382,-0.0602,0.0],[98.5349,-0.0536,3.4328],[98.5326,-0.0383,0.0],[98.5297,-0.0324,0.0],[98.526,-0.0313,4.3503]]],
[[[98.6293,0.0688,2.586],[98.6282,0.0647,0.0],[98.639,0.0686,0.0],[98.6395,0.0732,0.0],[98.6349,0.0736,9.2095],[98.6293,0.0688,2.586]]],
[[[98.9283,0.0515,6.064],[98.9285,0.048,3.4022],[98.9317,0.0461,0.0],[98.9289,0.0546,0.0],[98.9278,0.0544,0.0],[98.9283,0.0515,6.064]]],
[[[98.8968,0.0919,3.2762],[98.894,0.0909,0.0],[98.8949,0.0876,7.0167],[98.8981,0.0885,6.652],[98.8968,0.0919,3.2762]]],
[[[98.8562,0.1173,0.0],[98.8565,0.1165,0.0],[98.8581,0.1143,0.9727],[98.8594,0.1159,0.0],[98.8562,0.1173,0.0]]],
[[[98.7866,0.1737,0.0],[98.7866,0.1724,0.0],[98.7897,0.1697,0.0],[98.788,0.1751,1.1334],[98.7866,0.1737,0.0]]]]}}