{"type":"Feature","properties":{"GID_3":"IDN.6.1.1_1","GID_0":"IDN","country":"Indonesia","GID_1":"IDN.6_1","province":"Gorontalo","NL_NAME_1":"NA","GID_2":"IDN.6.1_1","county":"Boalemo","NL_NAME_2":"NA","city":"Botumoito","VARNAME_3":"NA","NL_NAME_3":"NA","TYPE_3":"Kecamatan","ENGTYPE_3":"Sub-district","CC_3":"7501042","HASC_3":"NA","name":"Botumoito.city"},
"geometry":{"type": "MultiPolygon","coordinates": [[[[122.2305,0.431,7.3385],[122.2331,0.4331,0.0],[122.231,0.4346,0.0],[122.2255,0.4342,0.0],[122.2255,0.4313,0.0],[122.2305,0.431,7.3385]]],
[[[122.2243,0.4839,1.4638],[122.228,0.4797,0.0],[122.23,0.4822,0.0],[122.2286,0.4853,8.4094],[122.2305,0.4844,0.9435],[122.2331,0.487,2.53],[122.2379,0.4841,3.4389],[122.2333,0.4814,11.2429],[122.2354,0.4793,15.4895],[122.2397,0.4833,1.3575],[122.2475,0.4822,2.9155],[122.2558,0.4858,4.8495],[122.2607,0.482,0.0],[122.2618,0.479,0.0],[122.2654,0.4781,0.0],[122.2669,0.4806,7.7151],[122.2686,0.4743,2.6429],[122.2716,0.4738,4.2758],[122.2721,0.4756,6.0338],[122.2749,0.4741,1.2079],[122.2756,0.4798,5.0569],[122.2773,0.4764,0.0],[122.2805,0.4751,0.0],[122.2824,0.4764,4.7346],[122.2798,0.4806,6.2476],[122.2859,0.4781,0.8884],[122.2926,0.4794,4.186],[122.2933,0.4817,0.0],[122.2843,0.4867,13.8086],[122.2996,0.484,2.0129],[122.3042,0.4902,1.1699],[122.3077,0.492,0.0],[122.3126,0.489,2.5625],[122.3162,0.4905,0.0],[122.3122,0.4921,2.3307],[122.3139,0.4953,0.564],[122.3132,0.5008,16.4907],[122.3093,0.5144,170.2132],[122.3061,0.5183,91.401],[122.3093,0.522,81.5403],[122.3083,0.5259,199.247],[122.2955,0.543,232.7536],[122.2784,0.5519,542.5895],[122.2474,0.722,136.4226],[122.2526,0.7605,381.3495],[122.261,0.7667,309.0435],[122.2746,0.7688,227.826],[122.2687,0.7729,131.7619],[122.2679,0.778,170.4604],[122.2683,0.7829,105.9491],[122.2724,0.7823,108.995],[122.2755,0.7841,104.0064],[122.2739,0.7854,100.4808],[122.2683,0.7843,101.7175],[122.2643,0.7897,124.0704],[122.2612,0.7921,145.9097],[122.2586,0.7917,149.1014],[122.2561,0.7949,131.2783],[122.2513,0.7901,236.0493],[122.2524,0.7944,134.9873],[122.2503,0.7996,141.3557],[122.2524,0.7996,151.5861],[122.253,0.8015,135.5591],[122.2493,0.8041,161.4473],[122.2506,0.8075,146.6271],[122.2487,0.8081,178.0766],[122.2477,0.8123,203.2996],[122.2447,0.8123,169.4469],[122.2458,0.8143,152.4453],[122.2476,0.8139,207.5707],[122.2467,0.8159,154.689],[122.2479,0.8208,175.9796],[122.2538,0.8247,198.6185],[122.2525,0.8265,185.8364],[122.2498,0.8259,169.2292],[122.2489,0.8273,191.0458],[122.2513,0.8291,164.3782],[122.2502,0.831,179.3465],[122.2535,0.8363,214.1735],[122.2554,0.8364,167.4702],[122.2549,0.8339,174.3864],[122.2562,0.835,201.0803],[122.2567,0.8367,182.4688],[122.2546,0.8387,177.2648],[122.2641,0.8442,209.9854],[122.255,0.8483,187.0201],[122.2521,0.8461,205.7068],[122.2523,0.8511,193.0863],[122.2475,0.854,210.5592],[122.2518,0.8568,219.1054],[122.2516,0.859,212.2905],[122.2553,0.8634,215.9758],[122.2522,0.8652,231.0818],[122.2517,0.8684,207.1815],[122.2482,0.9139,892.9462],[122.2411,0.9113,930.9203],[122.2306,0.9104,872.4372],[122.2262,0.9046,960.1167],[122.2152,0.9019,914.8205],[122.2108,0.8979,967.2467],[122.1968,0.902,1078.6091],[122.1882,0.9065,1079.4478],[122.1834,0.9112,1226.8513],[122.1758,0.913,1260.4797],[122.1667,0.9133,1061.9485],[122.1627,0.911,936.0078],[122.1596,0.9062,1110.2354],[122.1556,0.9054,1230.3516],[122.1535,0.9077,1279.308],[122.1501,0.9068,1267.3767],[122.1453,0.9084,1244.4207],[122.1433,0.9133,1097.7393],[122.1401,0.9142,927.4736],[122.1358,0.9081,1056.3521],[122.1296,0.9043,1166.9033],[122.1176,0.9091,1647.9639],[122.1153,0.9122,1478.9841],[122.1153,0.9033,1872.1163],[122.1124,0.8973,1836.6274],[122.1119,0.8845,1423.9458],[122.1171,0.8789,1186.9664],[122.1213,0.8659,1103.3846],[122.1301,0.8554,1039.6848],[122.1357,0.8523,1080.224],[122.1391,0.8541,986.4669],[122.1452,0.8522,934.5773],[122.1512,0.8468,795.1445],[122.1564,0.8391,753.9526],[122.1686,0.8292,650.216],[122.173,0.8202,581.2095],[122.1771,0.8171,572.5597],[122.1796,0.8109,459.3571],[122.1795,0.8065,337.1384],[122.1816,0.802,360.3493],[122.1808,0.7929,297.7733],[122.1831,0.7911,285.6498],[122.1834,0.7775,370.6286],[122.1882,0.7704,412.0564],[122.1953,0.7654,495.0717],[122.1939,0.7609,517.6583],[122.1891,0.7606,522.5965],[122.187,0.7557,400.1111],[122.1812,0.7526,200.5921],[122.1767,0.7444,312.1778],[122.1764,0.7372,403.363],[122.1726,0.7374,436.0164],[122.1722,0.7348,384.9095],[122.1798,0.7075,399.8482],[122.1816,0.6952,431.4634],[122.1772,0.6866,347.7756],[122.1762,0.68,515.5064],[122.1782,0.6685,714.9703],[122.1775,0.6651,693.1646],[122.179,0.6629,680.5153],[122.1778,0.647,519.8524],[122.1831,0.6355,585.0496],[122.1888,0.6309,866.2116],[122.1938,0.6091,484.3316],[122.1925,0.6031,292.698],[122.185,0.6027,215.4128],[122.1812,0.5991,195.321],[122.1822,0.593,165.7473],[122.1801,0.5894,169.3873],[122.181,0.583,129.2193],[122.1784,0.5784,111.396],[122.184,0.5691,263.2773],[122.1862,0.5617,380.1028],[122.1893,0.5585,414.0111],[122.1936,0.5461,414.234],[122.1934,0.54,345.7633],[122.1969,0.5319,278.5693],[122.193,0.521,306.5729],[122.1894,0.518,251.7992],[122.1813,0.5033,51.0402],[122.18,0.498,35.5896],[122.1814,0.4934,99.1571],[122.1808,0.4871,60.7341],[122.1732,0.4812,168.6609],[122.1685,0.4819,118.8384],[122.166,0.4799,111.076],[122.1656,0.4765,101.8461],[122.1686,0.47,2.5188],[122.1792,0.4768,9.5283],[122.1815,0.4774,5.354],[122.1829,0.4756,0.849],[122.1841,0.4779,0.3076],[122.1883,0.478,0.0],[122.1903,0.4798,2.0708],[122.1979,0.4743,0.0],[122.2012,0.474,3.1273],[122.2181,0.4837,1.5169],[122.2243,0.4839,1.4638]]]]}}