{"type":"Feature","properties":{"GID_3":"IDN.10.13.7_1","GID_0":"IDN","country":"Indonesia","GID_1":"IDN.10_1","province":"JawaTengah","NL_NAME_1":"NA","GID_2":"IDN.10.13_1","county":"Kendal","NL_NAME_2":"NA","city":"Kangkung","VARNAME_3":"NA","NL_NAME_3":"NA","TYPE_3":"Kecamatan","ENGTYPE_3":"Sub-district","CC_3":"3324140","HASC_3":"NA","name":"Kangkung.city"},
"geometry":{"type": "MultiPolygon","coordinates": [[[[110.13631891891892,-6.8780405405405389,1.2527],[110.1374,-6.8775,0.4187],[110.1363,-6.878,1.2527],[110.13631891891892,-6.8780405405405389,1.2527]]],
[[[110.07985,-6.917775,4.2292],[110.0797,-6.918,5.7],[110.0796,-6.9184,5.7],[110.07985,-6.917775,4.2292]]],
[[[110.0799,-6.9177,4.2292],[110.08,-6.9174,4.2292],[110.07985,-6.917775,4.2292],[110.0799,-6.9177,4.2292]]],
[[[110.1095,-6.941,10.134],[110.1105,-6.9351,7.6148],[110.1131,-6.9353,5.8124],[110.1134,-6.9341,5.8244],[110.1114,-6.9324,5.5824],[110.1272,-6.9362,8.4873],[110.1276,-6.938,10.985],[110.1218,-6.94,9.6791],[110.1226,-6.9425,9.1214],[110.1321,-6.9444,9.1668],[110.1357,-6.936,11.6894],[110.1334,-6.9363,11.2262],[110.1327,-6.9348,10.5077],[110.133,-6.9287,8.2215],[110.138,-6.9277,9.1401],[110.1387,-6.9258,10.6796],[110.1418,-6.9244,9.1524],[110.1423,-6.9204,8.7612],[110.1453,-6.9205,11.3366],[110.1443,-6.9166,8.5104],[110.1493,-6.9139,8.034],[110.1492,-6.911,7.8107],[110.1479,-6.9108,8.4578],[110.1497,-6.9043,5.8922],[110.1483,-6.8974,2.9812],[110.1446,-6.8895,1.6048],[110.1391,-6.884,1.2395],[110.13631891891892,-6.8780405405405389,1.2527],[110.1336,-6.8794,0.681],[110.131,-6.8811,0.2839],[110.097,-6.8926,0.0],[110.0984,-6.8952,0.5],[110.0972,-6.9052,1.1387],[110.0941,-6.9065,1.3631],[110.094,-6.9083,1.3191],[110.0877,-6.9097,1.8325],[110.0865,-6.9143,2.0541],[110.0822,-6.9192,2.9628],[110.0833,-6.9234,7.4059],[110.0793,-6.9202,6.0439],[110.0799,-6.9315,4.8665],[110.0816,-6.9336,6.9388],[110.0852,-6.9347,9.5107],[110.0843,-6.932,10.2676],[110.0873,-6.9315,8.4185],[110.0897,-6.9347,5.7919],[110.0934,-6.9347,4.693],[110.0925,-6.9365,4.8778],[110.0941,-6.9396,5.2446],[110.0981,-6.9389,4.8524],[110.1068,-6.9417,8.8366],[110.1095,-6.941,10.134]]]]}}