{"type":"Feature","properties":{"GID_3":"IDN.22.3.4_1","GID_0":"IDN","country":"Indonesia","GID_1":"IDN.22_1","province":"PapuaBarat","NL_NAME_1":"NA","GID_2":"IDN.22.3_1","county":"KotaSorong","NL_NAME_2":"NA","city":"SorongTimur","VARNAME_3":"NA","NL_NAME_3":"NA","TYPE_3":"Distrik","ENGTYPE_3":"District","CC_3":"9171020","HASC_3":"NA","name":"Sorong_Timur.city"},
"geometry":{"type": "MultiPolygon","coordinates": [[[[131.2687,-0.9325,4.8239],[131.27,-0.9338,3.8813],[131.2804,-0.9316,9.4271],[131.2846,-0.934,15.2909],[131.2962,-0.9317,5.1109],[131.3022,-0.9389,4.9557],[131.3112,-0.942,3.0998],[131.3155,-0.9458,4.7138],[131.3177,-0.9443,4.3586],[131.3237,-0.9445,2.9389],[131.3317,-0.9476,14.0789],[131.3407,-0.9467,26.9091],[131.3463,-0.9507,63.975],[131.349,-0.95009999999999994,85.3291],[131.3573,-0.9524,96.2031],[131.3616,-0.9507,129.4764],[131.3664,-0.9523,155.6564],[131.3938,-0.9529,91.5629],[131.4049,-0.9555,188.7554],[131.4102,-0.955,183.0885],[131.4239,-0.9463,170.3916],[131.4268,-0.9475,180.7877],[131.4331,-0.9441,220.1561],[131.4339,-0.9404,207.4426],[131.429,-0.928,156.0825],[131.4313,-0.9214,152.4006],[131.4299,-0.9137,125.1277],[131.4236,-0.9083,101.0726],[131.4246,-0.9052,110.2119],[131.4216,-0.9002,99.5826],[131.4222,-0.8926,94.6488],[131.4186,-0.8873,95.3249],[131.4189,-0.8766,107.2144],[131.4225,-0.8747,96.8395],[131.4223,-0.8731,89.0119],[131.4168,-0.8714,75.6723],[131.416,-0.8671,80.0809],[131.4112,-0.8693,78.1409],[131.4149,-0.8645,66.2624],[131.4104,-0.8628,53.8413],[131.4083,-0.8595,70.9355],[131.403,-0.8612,60.5211],[131.3975,-0.8577,54.9221],[131.3968,-0.8563,54.9221],[131.4052,-0.8504,61.3473],[131.4047,-0.8477,58.4866],[131.4007,-0.8452,68.3278],[131.4016,-0.8417,60.0959],[131.3947,-0.8383,78.4022],[131.3916,-0.8275,47.1582],[131.3861,-0.8243,47.9935],[131.3826,-0.8278,61.9395],[131.384,-0.8322,57.002],[131.3826,-0.8372,90.7905],[131.3851,-0.8396,92.9789],[131.3848,-0.8457,115.0896],[131.3799,-0.8502,127.389],[131.3801,-0.8523,129.3693],[131.3739,-0.8536,81.8667],[131.372,-0.86,99.1481],[131.3646,-0.8644,134.3497],[131.3664,-0.869,130.4379],[131.3601,-0.8794,128.0136],[131.3549,-0.8805,66.6456],[131.3525,-0.8844,46.5894],[131.3502,-0.8843,31.4254],[131.3498,-0.8887,55.0424],[131.3381,-0.8913,12.0732],[131.3299,-0.8957,9.9007],[131.3232,-0.8855,13.356],[131.3156,-0.8914,6.8641],[131.3144,-0.8908,6.5795],[131.3118,-0.8958,4.8284],[131.2897,-0.9118,0.0],[131.2984,-0.9153,6.9286],[131.3007,-0.9175,6.2428],[131.301,-0.9219,4.8909],[131.2975,-0.9161,6.9286],[131.295,-0.9179,2.7471],[131.2856,-0.9137,0.9611],[131.2846,-0.9158,0.0],[131.2807,-0.9175,0.9712],[131.278,-0.9159,0.0],[131.2767,-0.9175,0.0],[131.2833,-0.9245,5.4977],[131.279,-0.9212,8.3253],[131.2761,-0.9224,5.6585],[131.2717,-0.9177,0.0],[131.2682,-0.9205,0.0],[131.2699,-0.9236,2.2401],[131.269,-0.9258,4.0323],[131.267,-0.9262,0.0],[131.2669,-0.9302,1.1599],[131.2687,-0.9325,4.8239]]]]}}