{"type":"Feature","properties":{"GID_3":"IDN.18.6.16_1","GID_0":"IDN","country":"Indonesia","GID_1":"IDN.18_1","province":"MalukuUtara","NL_NAME_1":"NA","GID_2":"IDN.18.6_1","county":"KepulauanSula","NL_NAME_2":"NA","city":"TaliabuSelatan","VARNAME_3":"NA","NL_NAME_3":"NA","TYPE_3":"Kecamatan","ENGTYPE_3":"Sub-district","CC_3":"8203064","HASC_3":"NA","name":"Taliabu_Selatan.city"},
"geometry":{"type": "MultiPolygon","coordinates": [[[[124.6992,-1.9739,5.6359],[124.7,-1.9731,5.6359],[124.699,-1.9712,0.0],[124.6977,-1.9724,0.391],[124.6992,-1.9739,5.6359]]],
[[[124.6342,-1.9858,7.4862],[124.6348,-1.9872,0.0],[124.6518,-1.9799,0.0],[124.6717,-1.9744,2.5886],[124.6808,-1.9761,5.6005],[124.6868,-1.9718,0.0],[124.6935,-1.9704,0.0],[124.6927,-1.9654,0.0],[124.6938,-1.9627,3.3752],[124.7014,-1.9532,0.0],[124.7233,-1.9428,0.9316],[124.7389,-1.9391,0.5754],[124.7552,-1.9329,1.2948],[124.7634,-1.9278,0.0],[124.7667,-1.9214,0.0],[124.7707,-1.9176,2.0505],[124.7941,-1.9083,1.0554],[124.8141,-1.9019,3.7378999999999998],[124.8359,-1.899,0.0],[124.8412,-1.8958,9.0333],[124.8617,-1.8916,1.6614],[124.8647,-1.8925,2.6106],[124.8728,-1.9024,0.0],[124.8735,-1.8981,2.9523],[124.8761,-1.8966,3.2653],[124.8771,-1.8993,6.0038],[124.8828,-1.901,11.1885],[124.8884,-1.8929,11.8407],[124.8913,-1.8935,13.2584],[124.8899,-1.8907,11.6831],[124.8938,-1.8864,19.1001],[124.8957,-1.8862,19.8598],[124.8968,-1.8884,14.7257],[124.8985,-1.887,16.1617],[124.9003,-1.8879,17.8374],[124.9,-1.8791,22.9878],[124.902,-1.8764,34.2203],[124.9009,-1.8749,30.7094],[124.9029,-1.8727,40.0534],[124.9061,-1.8613,63.6323],[124.9157,-1.8531,109.7361],[124.9168,-1.8458,213.6157],[124.9103,-1.8283,895.7023],[124.9104,-1.8171,952.2273],[124.9145,-1.8093,855.376],[124.9236,-1.8004,626.3641],[124.9021,-1.7991,791.8047],[124.7741,-1.8022,1165.3846],[124.7518,-1.8069,1199.9015],[124.7192,-1.8072,1107.8462],[124.6969,-1.8101,572.3727],[124.6232,-1.8069,1078.6823],[124.6022,-1.81,1099.0381],[124.6045,-1.8219,974.7688],[124.6024,-1.8361,790.2689],[124.5995,-1.8429,618.1951],[124.5946,-1.846,593.4993],[124.5929,-1.8524,368.3411],[124.5873,-1.8533,359.2637],[124.5831,-1.8577,260.5306],[124.5814,-1.8643,192.5176],[124.5849,-1.8693,184.5457],[124.588,-1.8688,229.4182],[124.5896,-1.8751,174.8626],[124.5951,-1.8799,169.4389],[124.598,-1.8785,136.1041],[124.6014,-1.8815,94.7502],[124.6016,-1.8853,107.8682],[124.5992,-1.8899,77.634],[124.6015,-1.9004,62.7596],[124.6082,-1.9034,60.6523],[124.6106,-1.9097,88.2821],[124.6222,-1.9193,98.9713],[124.6211,-1.9249,51.1103],[124.6243,-1.923,34.9275],[124.6302,-1.929,36.1171],[124.6329,-1.9379,29.5222],[124.6313,-1.9397,24.4682],[124.6315,-1.9463,39.8961],[124.6332,-1.9538,18.742],[124.6356,-1.9555,18.7358],[124.6319,-1.9587,17.0085],[124.6328,-1.9626,13.3765],[124.6304,-1.9635,14.9713],[124.6315,-1.9656,11.8383],[124.6306,-1.971,8.6481],[124.6331,-1.9737,10.2006],[124.6336,-1.9816,4.1171],[124.6353,-1.9833,3.47],[124.6342,-1.9858,7.4862]]]]}}