{"type":"Feature","properties":{"GID_2":"IDN.19.5_1","GID_0":"IDN","country":"Indonesia","GID_1":"IDN.19_1","province":"Maluku","NL_NAME_1":"NA","county":"MalukuBaratDaya","VARNAME_2":"NA","NL_NAME_2":"NA","TYPE_2":"Kabupaten","ENGTYPE_2":"Regency","CC_2":"8108","HASC_2":"ID.MA.MD","name":"Maluku_Barat_Daya.county"},
"geometry":{"type": "MultiPolygon","coordinates": [[[[128.1561,-8.2813,0.0],[128.1679,-8.2797,0.0],[128.1894,-8.2808,0.0],[128.2059,-8.2797,0.0],[128.23,-8.2735,0.0],[128.2313,-8.2693,20.5212],[128.2267,-8.2567,19.6248],[128.2258,-8.2478,16.7262],[128.2215,-8.2362,15.1126],[128.2197,-8.2209,12.583],[128.2167,-8.2122,13.6856],[128.212,-8.2077,12.171],[128.1918,-8.2004,0.0],[128.1851,-8.2016,0.0],[128.1727,-8.2083,0.0],[128.159,-8.2108,0.0],[128.1479,-8.2159,3.0757],[128.1221,-8.2166,16.9749],[128.1082,-8.213,21.2253],[128.0927,-8.206,0.0],[128.0907,-8.2065,0.0],[128.0923,-8.2155,0.0],[128.0915,-8.2243,0.0],[128.0757,-8.246,0.0],[128.0737,-8.2532,0.0],[128.0743,-8.2581,0.0],[128.078,-8.2639,0.0],[128.0872,-8.2692,0.0],[128.1027,-8.2701,0.0],[128.1157,-8.2751,0.0],[128.1325,-8.2765,0.0],[128.1488,-8.2815,0.0],[128.1561,-8.2813,0.0]]],
[[[128.9661,-8.2246,62.4706],[128.9793,-8.235,137.209],[128.9913,-8.2391,154.7234],[129.0012,-8.2466,214.03809999999999],[129.0173,-8.2494,42.0172],[129.019,-8.2488,48.8115],[129.0216,-8.2376,160.5951],[129.0247,-8.2347,157.454],[129.029,-8.2344,46.3141],[129.0325,-8.2283,25.6461],[129.033,-8.2108,0.0],[129.0287,-8.2033,0.0],[129.0185,-8.2024,0.0],[129.0168,-8.2007,0.0],[128.993,-8.1943,0.0],[128.9634,-8.1752,0.0],[128.9263,-8.1807,0.0],[128.9139,-8.1797,0.0],[128.9117,-8.1777,0.0],[128.8882,-8.1759,0.0],[128.865,-8.1762,0.0],[128.8635,-8.1743,0.0],[128.8415,-8.1819,0.0],[128.8298,-8.1841,0.0],[128.8221,-8.1899,0.0],[128.8222,-8.1941,0.0],[128.8564,-8.2131,73.2578],[128.8629,-8.2198,18.8509],[128.8745,-8.2213,168.1152],[128.879,-8.224,98.6977],[128.8906,-8.2261,142.945],[128.8952,-8.2302,122.1535],[128.9051,-8.2314,34.0919],[128.9067,-8.2333,66.447],[128.9277,-8.2364,77.6047],[128.9403,-8.2353,0.0],[128.94,-8.2305,0.0],[128.9326,-8.2206,17.8331],[128.9338,-8.2173,49.4416],[128.9357,-8.2173,74.0],[128.938,-8.2146,146.1494],[128.9451,-8.216,174.1229],[128.9538,-8.2142,154.2184],[128.9552,-8.217,64.5749],[128.9625,-8.2228,130.2027],[128.9658,-8.2232,123.8425],[128.9661,-8.2246,62.4706]]],
[[[128.718,-8.1977,0.0],[128.7182,-8.199,0.0],[128.7198,-8.2001,0.0],[128.7195,-8.1966,0.0],[128.718,-8.1977,0.0]]],
[[[127.6619,-8.2353,16.801],[127.6764,-8.2291,12.0354],[127.6855,-8.2229,15.7396],[127.7114,-8.2144,21.3725],[127.7228,-8.2187,0.0],[127.7296,-8.2171,1.0779],[127.7353,-8.2138,12.0684],[127.7449,-8.2054,13.9157],[127.7476,-8.1989,19.1091],[127.7483,-8.1935,18.0932],[127.7451,-8.1839,18.9735],[127.74,-8.1784,14.7829],[127.728,-8.1741,16.7553],[127.7151,-8.1653,11.2934],[127.7008,-8.1615,18.6544],[127.6938,-8.1562,21.0332],[127.6816,-8.1545,0.0],[127.6667,-8.1597,0.0],[127.6532,-8.1707,0.0],[127.6401,-8.1764,0.0],[127.6238,-8.1921,0.0],[127.6001,-8.2068,0.0],[127.5925,-8.215,0.0],[127.5936,-8.2172,0.0],[127.609,-8.223,0.0],[127.6225,-8.2246,0.0],[127.6239,-8.2368,0.0],[127.6299,-8.2395,0.0],[127.6434,-8.2376,18.619],[127.6541,-8.2383,0.0],[127.6619,-8.2353,16.801]]],
[[[128.0391,-8.1474,0.0],[128.0139,-8.1469,15.3138],[127.9923,-8.1423,10.3494],[127.9737,-8.1435,12.534],[127.9578,-8.147,4.7139],[127.9444,-8.1445,0.0],[127.9414,-8.146,5.2987],[127.9342,-8.1458,12.3134],[127.9287,-8.1439,15.0516],[127.92,-8.1326,10.878],[127.9163,-8.1307,4.74],[127.9008,-8.1316,10.9688],[127.8915,-8.1301,13.3482],[127.8847,-8.1281,12.102],[127.8717,-8.1201,13.7659],[127.8672,-8.1192,12.1926],[127.8549,-8.1209,19.1753],[127.844,-8.1201,26.575],[127.8267,-8.1125,33.0277],[127.8113,-8.1108,44.5158],[127.8038,-8.1053,2.2864],[127.7951,-8.1074,22.4291],[127.7821,-8.1048,6.3148],[127.7689,-8.1084,30.2459],[127.7596,-8.1088,0.0],[127.7546,-8.1104,0.0],[127.7513,-8.1149,0.0],[127.758,-8.1254,0.0],[127.7717,-8.1338,0.0],[127.7759,-8.1426,0.0],[127.777,-8.1667,0.0],[127.7803,-8.1784,0.0],[127.7858,-8.1863,0.0],[127.7998,-8.1965,0.0],[127.814,-8.2032,0.0],[127.8402,-8.2074,0.0],[127.8499,-8.2143,0.0],[127.8636,-8.2198,0.0],[127.877,-8.2206,0.0],[127.8975,-8.2164,0.0],[127.9362,-8.2214,0.0],[127.9485,-8.2328,0.0],[127.9503,-8.2402,0.0],[127.9496,-8.2442,0.0],[127.952,-8.2489,0.0],[127.9782,-8.2523,0.0],[127.9983,-8.2616,0.0],[128.0301,-8.2626,0.0],[128.0378,-8.2618,0.0],[128.0418,-8.2593,18.4087],[128.0431,-8.2558,28.5796],[128.0437,-8.2327,26.2061],[128.0478,-8.2265,24.7513],[128.0615,-8.2191,10.4583],[128.0642,-8.2141,20.5334],[128.0635,-8.2023,22.63],[128.0655,-8.1989,21.7653],[128.0719,-8.1937,19.2924],[128.1094,-8.1753,13.4558],[128.1205,-8.1661,14.1679],[128.1211,-8.1627,10.8207],[128.1184,-8.1558,12.1848],[128.0988,-8.1422,10.4069],[128.0937,-8.1406,10.7741],[128.0786,-8.1401,13.5708],[128.0654,-8.1456,16.0478],[128.0391,-8.1474,0.0]]],
[[[127.2141,-8.0991,89.7042],[127.218,-8.0966,86.3955],[127.2186,-8.094,88.1341],[127.2173,-8.0884,80.2386],[127.21,-8.0824,76.5441],[127.208,-8.0754,77.7149],[127.2094,-8.0503,27.3337],[127.2076,-8.0445,64.1229],[127.2046,-8.0419,75.3697],[127.205,-8.0344,28.5439],[127.1997,-8.0281,67.7184],[127.1954,-8.0301,40.972],[127.1888,-8.0277,50.4495],[127.1801,-8.0287,61.0242],[127.1732,-8.0273,62.3682],[127.1633,-8.0388,108.5361],[127.157,-8.0409,87.7257],[127.1505,-8.0474,141.8453],[127.1497,-8.0508,136.7606],[127.1534,-8.0584,146.3619],[127.1548,-8.0693,124.7612],[127.1586,-8.0796,125.2287],[127.154,-8.089,110.4043],[127.1544,-8.0927,112.8488],[127.1609,-8.0966,35.4239],[127.1752,-8.1002,92.4388],[127.1822,-8.097,27.1129],[127.1866,-8.0986,26.1033],[127.1918,-8.0972,49.2519],[127.1984,-8.0997,44.0161],[127.2107,-8.0969,95.0862],[127.2141,-8.0991,89.7042]]],
[[[125.7438,-7.984,8.9537],[125.7408,-7.9808,34.4041],[125.7418,-7.9782,1.3049],[125.7374,-7.9738,29.2275],[125.7318,-7.9632,0.0],[125.7291,-7.963,0.0],[125.7258,-7.9652,0.0],[125.7238,-7.9694,0.0],[125.7255,-7.9731,0.0],[125.7185,-7.9781,0.0],[125.7247,-7.983,0.0],[125.7258,-7.9946,0.0],[125.7226,-8.0057,0.0],[125.7264,-8.0186,0.0],[125.7274,-8.0275,0.0],[125.7257,-8.0452,0.0],[125.7286,-8.0553,0.0],[125.731,-8.0549,0.0],[125.7399,-8.0394,129.2089],[125.7427,-8.0382,129.5715],[125.7426,-8.0348,143.6467],[125.7475,-8.0261,89.497],[125.7495,-8.0231,79.0118],[125.7536,-8.021,54.7487],[125.7547,-8.015,81.2507],[125.7579,-8.0126,79.462],[125.755,-8.0036,104.0797],[125.7571,-7.9945,76.3911],[125.7532,-7.9891,0.0],[125.7458,-7.9863,4.8864],[125.7438,-7.984,8.9537]]],
[[[125.7446,-7.9684,0.0],[125.7485,-7.9676,5.2282],[125.7486,-7.9658,0.0],[125.7427,-7.9639,0.0],[125.7412,-7.9757999999999996,3.0763],[125.7473,-7.9828,5.0356],[125.7499,-7.9835,0.0],[125.7467,-7.978,35.5087],[125.744,-7.9776,0.0],[125.7496,-7.9751,8.5676],[125.7475,-7.9744,25.5058],[125.7467,-7.9707,21.6321],[125.7444,-7.9709,0.0],[125.7446,-7.9684,0.0]]],
[[[125.7345,-7.9368,0.0],[125.7333,-7.943,0.0],[125.7343,-7.9475,0.0],[125.7407,-7.9491,0.0],[125.7441,-7.9433,0.0],[125.7441,-7.9239,0.0],[125.7396,-7.9243,0.0],[125.7345,-7.9368,0.0]]],
[[[125.8062,-7.9964,143.1224],[125.8123,-7.9916,227.4223],[125.8216,-7.9893,263.8498],[125.828,-7.9908,117.2715],[125.83,-7.9857,77.6432],[125.8363,-7.9831,88.5008],[125.8453,-7.9822,27.5443],[125.852,-7.9761,87.2915],[125.8573,-7.9769,18.0523],[125.8645,-7.9745,84.1197],[125.8696,-7.9624,27.6493],[125.879,-7.9549,101.253],[125.882,-7.9504,55.8411],[125.8916,-7.947,159.345],[125.9021,-7.9457,84.3739],[125.9068,-7.941,94.6039],[125.917,-7.9396,29.9872],[125.9214,-7.941,30.7697],[125.9242,-7.9342,161.2987],[125.9309,-7.9291,104.9439],[125.9328,-7.9243,104.0812],[125.939,-7.9215,56.2851],[125.9415,-7.9162,129.3486],[125.945,-7.9141,145.5804],[125.9506,-7.9133,6.8789],[125.9527,-7.9167,0.0],[125.9586,-7.9153,63.6258],[125.967,-7.9184,0.0],[125.9775,-7.9193,30.3949],[125.9804,-7.9186,46.1348],[125.9853,-7.9106,29.5664],[125.9881,-7.9087,18.6595],[125.9952,-7.9064,45.6243],[125.9993,-7.9067,0.0],[126.0129,-7.9016,2.2231],[126.0205,-7.9018,0.0],[126.0254,-7.9001,1.9523],[126.0283,-7.8963,4.2271],[126.0464,-7.8938,5.6904],[126.0589,-7.8908,28.4002],[126.0624,-7.8885,21.7872],[126.0659,-7.8895,10.4264],[126.0704,-7.8879,35.751],[126.0735,-7.8897,0.0],[126.0865,-7.8889,16.4632],[126.0999,-7.8921,4.4283],[126.1041,-7.8948,0.0],[126.1242,-7.8936,0.0],[126.1285,-7.8915,0.0],[126.1329,-7.8925,3.963],[126.142,-7.8999,0.0],[126.1498,-7.9001,0.0],[126.1641,-7.9105,0.0],[126.1684,-7.9196,0.0],[126.1738,-7.926,0.5623],[126.19,-7.927,0.0],[126.1984,-7.9257,0.0],[126.2253,-7.9292,1.2404],[126.252,-7.9211,4.7792],[126.2632,-7.9215,0.0],[126.2875,-7.9179,12.2064],[126.2945,-7.9231,0.0],[126.2979,-7.9229,0.0],[126.3121,-7.9167,0.0],[126.3337,-7.915,2.0898],[126.3474,-7.9237,1.9323],[126.3575,-7.9255,10.716],[126.3711,-7.935,0.0],[126.3833,-7.9327,10.5916],[126.3896,-7.9363,0.0],[126.3943,-7.9359,0.0],[126.4077,-7.9287,19.2318],[126.4147,-7.9309,7.4721],[126.4254,-7.9308,17.504],[126.4317,-7.9379,33.1045],[126.4471,-7.9495,52.0181],[126.4633,-7.9703,15.2138],[126.4694,-7.9743,4.0218],[126.4778,-7.9701,0.0],[126.494,-7.946,0.0],[126.5028,-7.9268,0.0],[126.503,-7.9229,0.0],[126.5014,-7.9211,0.0],[126.5067,-7.9178,0.0],[126.5071,-7.9161,0.0],[126.5016,-7.9092,0.0],[126.5018,-7.9057,0.0],[126.5111,-7.89,0.0],[126.5167,-7.8855,0.0],[126.5249,-7.8581,0.0],[126.5276,-7.8557,0.0],[126.5406,-7.8516,0.0],[126.5503,-7.8338,0.0],[126.5526,-7.824,0.0],[126.5543,-7.8224,0.0],[126.5593,-7.8207,0.0],[126.5662,-7.8152,0.0],[126.5825,-7.8135,0.0],[126.5851,-7.8081,0.0],[126.5882,-7.806,8.8927],[126.597,-7.8074,0.0],[126.6079,-7.793,0.0],[126.6192,-7.7916,0.0],[126.6233,-7.7884,0.0],[126.6262,-7.7831,0.0],[126.6313,-7.7832,0.0],[126.6547,-7.7755,43.2523],[126.6647,-7.778,0.0],[126.6694,-7.772,0.0],[126.6768,-7.7673,0.0],[126.6792,-7.7636,0.0],[126.6878,-7.7618,0.0],[126.6964,-7.7564,0.0],[126.7,-7.7514,2.9704],[126.706,-7.7527,0.6022],[126.7116,-7.7517,0.0],[126.7154,-7.7469,2.3109],[126.7241,-7.7419,110.756],[126.7352,-7.7457,59.3037],[126.7492,-7.7437,144.5618],[126.7558,-7.7456,132.4932],[126.7584,-7.749,0.0],[126.7674,-7.7495,0.0],[126.804,-7.7452,0.0],[126.8188,-7.7555,0.0],[126.8282,-7.7527,0.0],[126.8331,-7.7458,0.0],[126.8435,-7.737,0.0],[126.8438,-7.7347,0.0],[126.8237,-7.6883,26.4538],[126.8115,-7.6823,6.1057],[126.8102,-7.6798,0.0],[126.8189,-7.662,0.0],[126.8162,-7.6574,0.0],[126.8116,-7.6563,1.1184],[126.8025,-7.661,41.1079],[126.7916,-7.6604,100.4349],[126.7854,-7.6626,8.6306],[126.7793,-7.6593,1.6272],[126.7535,-7.657,0.0],[126.749,-7.6601,80.3442],[126.7407,-7.6598,0.0],[126.7372,-7.6637,111.885],[126.7309,-7.6665,20.3906],[126.7266,-7.6663,0.0],[126.7181,-7.654,0.0],[126.716,-7.6438,0.0],[126.7103,-7.6405,0.0],[126.7033,-7.6421,29.9002],[126.7003,-7.6407,0.0],[126.695,-7.6339,0.0],[126.693,-7.6243,0.0],[126.6895,-7.6214,0.0],[126.6847,-7.6201,0.0],[126.673,-7.6217,29.7984],[126.6694,-7.6197,0.0],[126.6664,-7.6136,0.0],[126.6562,-7.6115,3.322],[126.651,-7.6061,0.0],[126.6478,-7.607,1.8936],[126.6439,-7.6057,0.0],[126.6387,-7.5977,0.0],[126.6367,-7.5859,0.0],[126.643,-7.5706,0.0],[126.6423,-7.565,0.0],[126.638,-7.5595,0.0],[126.6276,-7.5573,12.963],[126.617,-7.5593,83.8685],[126.6116,-7.5642,143.3936],[126.6051,-7.567,67.0047],[126.5999,-7.5734,178.0234],[126.5943,-7.5715,0.0],[126.5906,-7.5736,96.928],[126.5876,-7.5726,49.8647],[126.5834,-7.5756,24.0289],[126.5763,-7.5748,8.254],[126.5738,-7.5722,0.0],[126.567,-7.5726,7.9289],[126.5584,-7.5762,21.7044],[126.5526,-7.5754,15.6734],[126.5505,-7.5734,0.0],[126.5431,-7.5729,2.3603],[126.5379,-7.5771,153.3181],[126.5329,-7.5778,36.3486],[126.5271,-7.5841,170.0537],[126.5206,-7.5856,35.7976],[126.5168,-7.5847,20.0964],[126.5121,-7.5886,101.8801],[126.5066,-7.5905,116.9428],[126.5,-7.5862,0.0],[126.4962,-7.5901,61.2461],[126.4799,-7.5885,0.0],[126.473,-7.5936,107.558],[126.4709,-7.5985,167.3191],[126.4712,-7.6027,116.6463],[126.465,-7.6145,160.085],[126.4541,-7.6244,112.6706],[126.4405,-7.6306,9.6673],[126.4361,-7.6317,0.0],[126.432,-7.6304,0.0],[126.4256,-7.6315,6.879],[126.4227,-7.6335,10.7877],[126.4193,-7.6319,0.0],[126.4177,-7.6253,0.0],[126.4144,-7.6235,0.0],[126.4063,-7.6279,98.0635],[126.3997,-7.6364,12.1501],[126.3816,-7.6367,7.3019],[126.3805,-7.6389,31.3098],[126.3812,-7.655,88.3454],[126.3717,-7.6678,75.583],[126.3623,-7.6748,68.23],[126.3551,-7.6742,0.0],[126.3492,-7.676,9.0162],[126.3438,-7.6809,4.7338],[126.3403,-7.6816,7.7055],[126.3285,-7.6954,100.2234],[126.299,-7.6928,0.0],[126.2921,-7.6953,105.7068],[126.2864,-7.6953,16.7555],[126.2787,-7.6895,0.0],[126.2682,-7.6894,8.6474],[126.2602,-7.6922,111.0334],[126.2566,-7.6882,0.0],[126.2516,-7.6864,6.7167],[126.2464,-7.6888,78.1795],[126.2402,-7.6875,0.0],[126.2359,-7.6931,167.2843],[126.2324,-7.6937,9.5603],[126.2269,-7.6976,18.6107],[126.2182,-7.7066,16.8782],[126.201,-7.7142,29.5011],[126.2014,-7.7172,100.1332],[126.1995,-7.7199,20.4089],[126.1944,-7.7248,8.7597],[126.1881,-7.7275,7.7501],[126.177,-7.727,4.1922],[126.1701,-7.7229,0.0],[126.1604,-7.7211,0.0],[126.1473,-7.7251,23.2369],[126.1452,-7.7225,0.0],[126.1338,-7.7174,0.0],[126.1238,-7.7168,4.5618],[126.1179,-7.7111,0.0],[126.1091,-7.711,0.0],[126.1067,-7.7071,0.0],[126.0983,-7.7079,7.5792],[126.0972,-7.7052,0.0],[126.0926,-7.7028,0.0],[126.0832,-7.7078,24.8279],[126.0685,-7.7058,0.0],[126.0634,-7.6983,0.0],[126.0512,-7.6935,8.5748],[126.0469,-7.6932,39.7777],[126.0352,-7.698,82.6429],[126.0311,-7.6934,0.0],[126.0261,-7.6927,0.0],[126.0236,-7.6818,0.0],[126.0182,-7.6755,0.0],[126.0146,-7.6745,4.3465],[126.0087,-7.6806,44.813],[126.0024,-7.6811,1.7699],[125.9968,-7.6764,0.0],[125.9936,-7.669,0.0],[125.9919,-7.6681,8.629],[125.9926,-7.6658,0.0],[125.9888,-7.6612,0.0],[125.9896,-7.6593,0.0],[125.9865,-7.6574,0.0],[125.9864,-7.6556,0.0],[125.9847,-7.6567,0.0],[125.974,-7.6536,16.4336],[125.9734,-7.6556,45.5905],[125.9609,-7.663,14.243],[125.9559,-7.6641,16.9564],[125.95,-7.6619,9.3975],[125.9478,-7.6631,70.2511],[125.9365,-7.6777,1.5908],[125.9346,-7.6827,6.3532],[125.9356,-7.6898,6.0973],[125.9321,-7.6949,14.5395],[125.9315,-7.6997,5.4063],[125.9259,-7.7089,7.3446],[125.9241,-7.7094,0.0],[125.9244,-7.713,7.0219],[125.9115,-7.7339,0.0],[125.9111,-7.7353,0.0],[125.9153,-7.74,1.572],[125.9174,-7.7401,7.869],[125.9154,-7.7407,1.572],[125.9146,-7.7442,2.0368],[125.897,-7.7492,0.0],[125.8936,-7.7531,0.0],[125.8932,-7.7563,0.0],[125.8793,-7.7602,0.0],[125.8739,-7.7643,0.0],[125.8669,-7.7635,0.0],[125.8624,-7.7658,0.0],[125.862,-7.7713,4.2754],[125.8577,-7.7785,0.0],[125.8707,-7.7889,46.3785],[125.8742,-7.7952,0.0],[125.8728,-7.8034,0.0],[125.87,-7.8083,0.0],[125.87,-7.8127,1.9003],[125.86279999999999,-7.8141,0.0],[125.8591,-7.819,0.0],[125.8557,-7.8194,0.0],[125.8482,-7.8254,0.0],[125.8418,-7.8332,0.0],[125.8358,-7.8341,0.0],[125.8323,-7.8393,0.0],[125.8265,-7.8424,0.0],[125.826,-7.8445,0.0],[125.8282,-7.8483,2.1195],[125.8265,-7.8509,0.0],[125.8244,-7.8521,0.0],[125.818,-7.8513,1.9784],[125.8171,-7.8502,0.0],[125.8194,-7.8505,0.0],[125.8151,-7.8488,0.0],[125.8041,-7.8598,0.0],[125.8098,-7.8696,4.6229],[125.8107,-7.8754,0.0],[125.8141,-7.8793,5.9364],[125.813,-7.8834,0.0],[125.8161,-7.89,0.0],[125.8155,-7.8953,0.0],[125.8229,-7.9026,1.0722],[125.8237,-7.914,0.0],[125.8207,-7.9197,0.0],[125.8191,-7.9395,0.0],[125.8148,-7.9552,0.0],[125.80029999999999,-7.9766,0.0],[125.7882,-7.9868,0.0],[125.7838,-8.0056,0.0],[125.7923,-8.0138,0.0],[125.7982,-8.0129,80.7865],[125.8008,-8.0116,122.8985],[125.8019,-8.002,179.4302],[125.8062,-7.9964,143.1224]]],
[[[125.9331,-7.6664,0.0],[125.9297,-7.6598,0.0],[125.9275,-7.6586,0.0],[125.9108,-7.6677,0.0],[125.9091,-7.674,39.0025],[125.9114,-7.6776,11.8462],[125.9202,-7.6779,21.903],[125.9322,-7.6723,0.0],[125.9331,-7.6664,0.0]]],
[[[127.4434,-7.6425,0.0],[127.4432,-7.6385,0.0],[127.439,-7.6411,0.0],[127.435,-7.6356,19.7387],[127.4332,-7.6355,19.7387],[127.4317,-7.6421,0.0],[127.4333,-7.6445,0.0],[127.4369,-7.645,0.0],[127.4434,-7.6425,0.0]]],
[[[127.4841,-7.5733,0.0],[127.4847,-7.5678,0.0],[127.4898,-7.556,0.0],[127.4892,-7.5535,0.0],[127.4855,-7.5503,64.6411],[127.4845,-7.5463,63.7827],[127.4862,-7.5371,0.0],[127.4847,-7.532,0.0],[127.4873,-7.5327,0.0],[127.4886,-7.5309,0.0],[127.4876,-7.5274,0.0],[127.4848,-7.5286,0.0],[127.4823,-7.5269,50.8974],[127.4829,-7.525,9.7452],[127.4792,-7.5237,64.0277],[127.4795,-7.522,87.3025],[127.4756,-7.5223,159.6743],[127.4752,-7.5206,102.8506],[127.4697,-7.5234,67.7595],[127.4683,-7.5251,134.5024],[127.4695,-7.5274,190.7541],[127.465,-7.5315,166.483],[127.4636,-7.5309,102.5006],[127.4634,-7.5331,238.6392],[127.4593,-7.5339,237.3302],[127.452,-7.5302,96.026],[127.4491,-7.5307,140.0754],[127.4424,-7.5281,140.5692],[127.4341,-7.5162,0.0],[127.4271,-7.5159,96.1202],[127.424,-7.5175,195.9527],[127.4169,-7.5153,22.7188],[127.4147,-7.5087,0.0],[127.4157,-7.5029,0.0],[127.4141,-7.5017,0.0],[127.4129,-7.5018,0.0],[127.4127,-7.5043,0.0],[127.4103,-7.5031,0.0],[127.4075,-7.5085,74.3744],[127.4026,-7.5109,23.1766],[127.4018,-7.5157,100.714],[127.399,-7.5165,64.3851],[127.3957,-7.5134,22.0918],[127.3896,-7.5143,57.0917],[127.3881,-7.5117,20.9159],[127.3922,-7.5083,0.0],[127.391,-7.5055,0.0],[127.3977,-7.5042,0.0],[127.3979,-7.5006,0.0],[127.3913,-7.4969,40.4292],[127.3828,-7.4998,42.1276],[127.3809,-7.499,113.2883],[127.3825,-7.4974,70.8861],[127.3763,-7.4972,137.9042],[127.37,-7.5033,222.398],[127.3673,-7.5163,113.3447],[127.3636,-7.5221,147.5919],[127.3639,-7.5267,190.6471],[127.3617,-7.5308,80.2849],[127.3638,-7.5485,98.2622],[127.367,-7.5593,174.47],[127.3659,-7.5653,144.4959],[127.3672,-7.5737,91.4042],[127.3721,-7.5807,62.2963],[127.3744,-7.5806,90.8483],[127.3779,-7.59,180.144],[127.3773,-7.5932,132.1841],[127.3742,-7.5966,179.2984],[127.3692,-7.5963,196.1519],[127.3501,-7.6006,334.325],[127.3461,-7.6058,428.5948],[127.3431,-7.6072,386.4559],[127.3409,-7.6145,467.2395],[127.3362,-7.6151,258.3909],[127.3346,-7.6193,335.5674],[127.3335,-7.6191,306.0598],[127.3351,-7.6235,537.6666],[127.333,-7.6375,109.5236],[127.3363,-7.6414,106.0136],[127.3393,-7.6421,191.2596],[127.3421,-7.6498,0.0],[127.3496,-7.6593,0.0],[127.3533,-7.6581,0.0],[127.3616,-7.6586,0.0],[127.3714,-7.6639,0.0],[127.3743,-7.6641,0.0],[127.3824,-7.6594,0.0],[127.3915,-7.6588,0.0],[127.4023,-7.6499,0.0],[127.4067,-7.6441,0.0],[127.4065,-7.6413,0.0],[127.4116,-7.6325,0.0],[127.4097,-7.6268,0.0],[127.4105,-7.6153,0.0],[127.4112,-7.6103,0.0],[127.4139,-7.6064,0.0],[127.4162,-7.6051,0.0],[127.4192,-7.6057,0.0],[127.4198,-7.6086,0.0],[127.4213,-7.6088,0.0],[127.4323,-7.6069,0.0],[127.4345,-7.6052,0.0],[127.4403,-7.606,0.0],[127.4429,-7.6084,0.0],[127.447,-7.6045,0.0],[127.4643,-7.5971,0.0],[127.4716,-7.5965,0.0],[127.4747,-7.59,0.0],[127.4833,-7.5823,0.0],[127.484,-7.5797,0.0],[127.4827,-7.5779,0.0],[127.4841,-7.5733,0.0]]],
[[[127.5441,-7.5267,15.751],[127.5434,-7.5244,0.0],[127.5404,-7.5246,0.0],[127.5344,-7.53,0.0],[127.5336,-7.5403,0.0],[127.5399,-7.5429,8.9784],[127.5404,-7.5408,54.7208],[127.5428,-7.5397,12.1218],[127.5425,-7.5345,46.8288],[127.5438,-7.5325,3.7565],[127.5402,-7.5288,0.0],[127.5441,-7.5267,15.751]]],
[[[127.5464,-7.5291,0.0],[127.5479,-7.5281,0.0],[127.5473,-7.5269,0.0],[127.5423,-7.5301,1.6072],[127.5456,-7.5314,16.4669],[127.5464,-7.5291,0.0]]],
[[[127.3023,-7.5129,0.0],[127.3019,-7.5114,0.0],[127.2973,-7.5096,0.0],[127.2883,-7.5121,1.8205],[127.2857,-7.5115,0.0],[127.2805,-7.515,14.3902],[127.2776,-7.5196,43.5471],[127.2829,-7.5255,81.2263],[127.2891,-7.5291,71.1387],[127.2921,-7.5305,0.0],[127.298,-7.5303,0.0],[127.3028,-7.5166,0.0],[127.3023,-7.5129,0.0]]],
[[[127.5483,-7.5174,0.0],[127.55,-7.5193,0.0],[127.552,-7.5183,19.9231],[127.5511,-7.5154,0.0],[127.5483,-7.5174,0.0]]],
[[[129.8298,-8.2093,29.5788],[129.8443,-8.1974,33.4243],[129.8489,-8.1833,41.6475],[129.857,-8.1755,36.8484],[129.8711,-8.1547,17.6406],[129.8938,-8.1396,0.0],[129.8825,-8.1349,57.7657],[129.8727,-8.135,54.6723],[129.8663,-8.1333,28.7857],[129.8612,-8.1357,29.5551],[129.8532,-8.135,0.0],[129.8496,-8.1378,0.0],[129.846,-8.1444,0.0],[129.842,-8.1452,0.0],[129.8289,-8.16,0.0],[129.8265,-8.1664,0.0],[129.8251,-8.1802,0.0],[129.8217,-8.1882,0.0],[129.8056,-8.2044,0.0],[129.8042,-8.2097,0.0],[129.8053,-8.2145,0.0],[129.8084,-8.2169,0.0],[129.813,-8.214,0.0],[129.8215,-8.2162,0.0],[129.8256,-8.2142,0.0],[129.8298,-8.2093,29.5788]]],
[[[129.7756,-8.0447,20.4386],[129.7924,-8.0415,11.7645],[129.7943,-8.0395,3.9995],[129.798,-8.0313,0.0],[129.7982,-8.0227,11.8923],[129.802,-8.0099,13.7683],[129.8041,-8.0052,46.318],[129.8143,-7.9948,1.5119],[129.8192,-7.9869,1.7238],[129.8212,-7.9721,42.5327],[129.827,-7.96,18.9519],[129.8341,-7.9532,15.2265],[129.8423,-7.9411,15.5365],[129.8515,-7.9371,8.8125],[129.8546,-7.9334,12.3332],[129.8656,-7.9146,0.9631],[129.8671,-7.9062,5.7384],[129.865,-7.8945,0.0],[129.8634,-7.8915,0.0],[129.8585,-7.8929,0.0],[129.8534,-7.8881,0.0],[129.8465,-7.8857,7.1227],[129.8424,-7.8704,6.9598],[129.8412,-7.8535,13.4235],[129.8452,-7.8478,14.4675],[129.855,-7.8453,9.0224],[129.8573,-7.8414,0.0],[129.857,-7.8389,0.0],[129.8538,-7.8369,0.0],[129.8451,-7.8363,0.0],[129.8368,-7.8278,0.0],[129.8262,-7.8219,0.0],[129.8182,-7.814,0.0],[129.7933,-7.8097,0.0],[129.7746,-7.8105,0.0],[129.7534,-7.8037,0.0],[129.7281,-7.7923,0.0],[129.7053,-7.7877,0.0],[129.6933,-7.7882999999999996,0.0],[129.6806,-7.7837,0.0],[129.669,-7.7848,0.0],[129.6463,-7.7908,0.0],[129.6353,-7.796,0.0],[129.6243,-7.7988,0.0],[129.6155,-7.804,0.0],[129.5936,-7.8221,0.0],[129.5876,-7.8326,0.0],[129.5863,-7.843,0.0],[129.5941,-7.8624,10.3075],[129.5939,-7.8657,6.3049],[129.5876,-7.8714,0.0],[129.5846,-7.8765,0.0],[129.5841,-7.8851,0.0],[129.5809,-7.894,0.0],[129.5831,-7.9013,0.0],[129.5869,-7.9048,0.0],[129.6022,-7.9109,10.8918],[129.6054,-7.9277,8.1539],[129.6107,-7.9297,6.1229],[129.6158,-7.9346,2.3932],[129.6241,-7.9479,7.1104],[129.6369,-7.9639,5.8878],[129.6511,-7.968,2.1256],[129.6649,-7.9898,4.2958],[129.6737,-8.0083,2.6502],[129.6874,-8.0225,37.8036],[129.6994,-8.0276,40.9412],[129.7061,-8.0364,44.9667],[129.7143,-8.0376,102.0063],[129.7289,-8.0457,57.3153],[129.7464,-8.0466,32.6804],[129.7557,-8.0516,39.2657],[129.7594,-8.0517,31.3848],[129.7756,-8.0447,20.4386]]],
[[[129.9235,-8.105,11.9305],[129.9246,-8.0984,13.9099],[129.9212,-8.088,0.0],[129.9137,-8.0884,0.0],[129.9095,-8.0902,0.0],[129.8882,-8.1114,0.0],[129.8739,-8.1157,0.0],[129.8575,-8.1251,0.0],[129.8654,-8.1258,0.0],[129.8734,-8.1233,7.6263],[129.877,-8.1251,31.6223],[129.8868,-8.125,50.7879],[129.898,-8.1296,34.8169],[129.9029,-8.1286,27.1184],[129.9165,-8.118,82.2727],[129.9235,-8.105,11.9305]]],
[[[129.5189,-7.9353,1.9295],[129.5314,-7.9476,2.4593],[129.5366,-7.9509,4.0751],[129.5432,-7.9512,20.4376],[129.5636,-7.9273,0.0],[129.5653,-7.9163,0.0],[129.5717,-7.9075,0.0],[129.5671,-7.8947,0.0],[129.5646,-7.8922,0.0],[129.5552,-7.8893,0.0],[129.5492,-7.8828,19.8541],[129.5492,-7.8803,55.7842],[129.5535,-7.874,0.0],[129.547,-7.8624,0.0],[129.5349,-7.8581,0.0],[129.5304,-7.8491,0.0],[129.5273,-7.8463,4.4145],[129.5172,-7.8418,0.0],[129.5121,-7.8449,0.0],[129.5104,-7.8503,0.0],[129.5159,-7.8615,0.0],[129.5185,-7.8606,5.4063],[129.5209,-7.8623,0.0],[129.5239,-7.8701,4.8186],[129.5179,-7.8757,0.0],[129.5164,-7.8804,0.0],[129.5201,-7.8971,0.0],[129.5148,-7.9141,0.0],[129.5145,-7.9215,0.0],[129.5189,-7.9353,1.9295]]],
[[[128.7132,-8.1935,0.0],[128.7095,-8.1922,0.0],[128.7105,-8.1957,0.0],[128.7139,-8.1948,0.0],[128.7132,-8.1935,0.0]]],
[[[128.703,-8.1784,96.4203],[128.6993,-8.1759,82.3621],[128.6972,-8.1763,113.5128],[128.6927,-8.1682,54.2868],[128.6856,-8.1702,26.5648],[128.6802,-8.1667,0.0],[128.6762,-8.1699,0.0],[128.6814,-8.1786,0.0],[128.6865,-8.1808,0.0],[128.6872,-8.1877,0.0],[128.7065,-8.192,0.0],[128.711,-8.1875,82.4472],[128.7128,-8.1808,25.4678],[128.7099,-8.1796,65.6035],[128.7059,-8.1804,90.8434],[128.703,-8.1784,96.4203]]],
[[[128.781,-8.1641,1.5791],[128.7766,-8.1635,0.0],[128.7647,-8.1668,2.0597],[128.7543,-8.1621,0.0],[128.7499,-8.1636,0.0],[128.7518,-8.1658,0.0],[128.7707,-8.1696,0.0],[128.7741,-8.1732,0.0],[128.7722,-8.1756,0.0],[128.7763,-8.1845,0.0],[128.7789,-8.186,0.0],[128.7768,-8.197,0.0],[128.7806,-8.1983,0.0],[128.791,-8.1947,9.1415],[128.7917,-8.1874,6.9484],[128.7901,-8.1826,1.7509],[128.7844,-8.182,7.9599],[128.782,-8.1798,6.8666],[128.7828,-8.1773,4.9449],[128.7799,-8.1719,2.0503],[128.781,-8.1641,1.5791]]],
[[[127.6352,-7.594,0.0],[127.6335,-7.5963,0.0],[127.6359,-7.5977,0.0],[127.6378,-7.594,0.0],[127.6352,-7.594,0.0]]],
[[[130.0825,-7.796,0.0],[130.0884,-7.7778,112.1371],[130.0884,-7.7724,199.3468],[130.0717,-7.7654,260.3239],[130.0669,-7.7619,277.1696],[130.0464,-7.7655,84.3231],[130.0341,-7.7614,0.0],[130.0289,-7.7717,0.0],[130.0264,-7.7735,0.0],[130.0236,-7.7733,0.0],[130.0263,-7.7769,0.0],[130.0308,-7.7788,0.0],[130.0471,-7.7746,0.0],[130.0527,-7.7755,0.0],[130.0733,-7.7986,0.0],[130.0825,-7.796,0.0]]],
[[[130.0193,-7.7271,0.0],[130.0156,-7.7168,0.0],[130.0092,-7.7182,277.494],[129.9966,-7.7041,112.0185],[129.988,-7.7058,0.0],[129.98,-7.7134,0.0],[129.9795,-7.7158,0.0],[129.9834,-7.7234,0.0],[129.9831,-7.7307,0.0],[130.0001,-7.729,34.3699],[130.0006,-7.739,0.0],[130.0105,-7.7441,3.3658],[130.0213,-7.7449,0.0],[130.0257,-7.7414,3.7674],[130.0193,-7.7271,0.0]]],
[[[129.6843,-7.565,0.0],[129.6919,-7.5747,0.0],[129.7001,-7.5697,0.0],[129.7092,-7.5695,55.6899],[129.7164,-7.5734,0.0],[129.7207,-7.5646,0.0],[129.7272,-7.5562,0.0],[129.7273,-7.554,0.0],[129.7242,-7.5505,18.0387],[129.7196,-7.5484,0.0],[129.7155,-7.549,11.0044],[129.7075,-7.555,79.9516],[129.693,-7.5525,5.0436],[129.6828,-7.5425,18.1296],[129.6754,-7.531,47.8691],[129.6708,-7.5273,0.0],[129.6683,-7.5273,0.0],[129.6661,-7.5284,86.9278],[129.6584,-7.5469,0.0],[129.6595,-7.5529,2.2934],[129.6684,-7.5601,0.0],[129.6843,-7.565,0.0]]],
[[[128.746,-8.1628,0.0],[128.746,-8.1614,0.0],[128.7416,-8.16,0.0],[128.7411,-8.1615,0.0],[128.746,-8.1628,0.0]]],
[[[128.7288,-8.1604,0.0],[128.7132,-8.1586,0.0],[128.7139,-8.1595,0.0],[128.7212,-8.1606,0.0],[128.7212,-8.1622,0.0],[128.7233,-8.1614,0.0],[128.727,-8.1628,0.0],[128.7292,-8.1616,0.0],[128.7288,-8.1604,0.0]]],
[[[128.6735,-8.1535,0.0],[128.6735,-8.1544,0.0],[128.6774,-8.1561,0.0],[128.6748,-8.1535,0.0],[128.6735,-8.1535,0.0]]],
[[[128.5604,-7.3696,98.7084],[128.557,-7.3688,102.278],[128.5525,-7.3792,13.5858],[128.5564,-7.3892,0.0],[128.5594,-7.3905,0.0],[128.5634,-7.3886,0.0],[128.5673,-7.3762,0.0],[128.5654,-7.3716,34.4861],[128.5617,-7.3722,97.9431],[128.5618,-7.3758,93.91],[128.559,-7.3754,73.6226],[128.5567,-7.3731,79.9229],[128.559,-7.3727,94.8803],[128.5604,-7.3696,98.7084]]],
[[[127.5939,-7.5581,6.9938],[127.5942,-7.5565,7.0576],[127.5894,-7.5513,46.6325],[127.5833,-7.5595,33.2833],[127.5829,-7.5632,0.0],[127.5896,-7.5757,10.4166],[127.5888,-7.5775,0.0],[127.5911,-7.5842,0.0],[127.5963,-7.5932,3.2958],[127.5963,-7.5996,0.0],[127.5991,-7.6079,28.7295],[127.5955,-7.6197,0.0],[127.5993,-7.6287,0.0],[127.6191,-7.6125,0.0],[127.6187,-7.6109,0.0],[127.6146,-7.6127,0.0],[127.6147,-7.6085,0.0],[127.6189,-7.6051,0.0],[127.619,-7.601,0.0],[127.6163,-7.5972,10.8506],[127.6134,-7.5974,18.4026],[127.6118,-7.6004,36.4323],[127.6093,-7.6014,48.6022],[127.6061,-7.5985,53.2766],[127.6058,-7.5842,0.0],[127.6004,-7.5776,78.5088],[127.5951,-7.565,100.9682],[127.5939,-7.5581,6.9938]]],
[[[127.5527,-7.5464,0.0],[127.555,-7.5491,2.8873],[127.5579,-7.5478,35.5245],[127.5556,-7.5431,0.0],[127.5527,-7.5435,0.0],[127.5527,-7.5464,0.0]]],
[[[128.3969,-7.2346,0.0],[128.3988,-7.2341,0.0],[128.3981,-7.2317,0.0],[128.3964,-7.2328,0.0],[128.3969,-7.2346,0.0]]],
[[[128.3937,-7.2334,0.0],[128.3943,-7.2316,0.0],[128.3904,-7.231,0.0],[128.3907,-7.2321,0.0],[128.3937,-7.2334,0.0]]],
[[[128.5627,-7.3191,0.0],[128.5622,-7.3161,6.2892],[128.5653,-7.3094,6.4575],[128.5691,-7.3052,0.0],[128.5679,-7.3004,12.2672],[128.5619,-7.2961,65.6071],[128.554,-7.3101,0.0],[128.5539,-7.3127,0.0],[128.5582,-7.3247,0.0],[128.5624,-7.3228,0.0],[128.5627,-7.3191,0.0]]],
[[[128.66,-7.0982,24.3758],[128.6582,-7.1003,98.2887],[128.6552,-7.1002,120.2285],[128.6499,-7.0977,27.6947],[128.6407,-7.0836,203.7295],[128.6366,-7.0804,58.7524],[128.6319,-7.0795,52.1585],[128.6255,-7.0732,128.2779],[128.6183,-7.0726,83.1694],[128.6143,-7.0683,97.0193],[128.6046,-7.0655,0.4033],[128.5999,-7.0691,41.1487],[128.5919,-7.0712,39.0388],[128.5913,-7.0691,0.0],[128.5892,-7.0696,1.0693],[128.5806,-7.0769,0.0],[128.5784,-7.0813,34.5255],[128.5428,-7.1114,96.8054],[128.5231,-7.1304,0.0],[128.518,-7.1376,0.0],[128.5179,-7.1481,0.0],[128.5326,-7.1664,0.0],[128.5374,-7.1693,0.0],[128.5406,-7.1694,0.0],[128.549,-7.1639,1.0629],[128.5534,-7.1637,1.8548],[128.5578,-7.1683,0.0],[128.558,-7.1716,0.0],[128.5625,-7.1742,0.0],[128.5657,-7.1795,0.0],[128.5681,-7.1796,0.0],[128.5683,-7.1773,0.0],[128.5779,-7.1826,0.0],[128.5922,-7.1975,0.0],[128.6117,-7.2116,0.0],[128.6323,-7.2207,0.0],[128.6447,-7.2224,0.0],[128.6485,-7.2216,0.0],[128.6505,-7.2206,0.0],[128.6558,-7.2113,0.0],[128.6557,-7.2054,0.0],[128.6611,-7.1959,0.0],[128.6652,-7.193,0.0],[128.6665,-7.1889,0.0],[128.688,-7.1655,80.9336],[128.6853,-7.1635,125.4021],[128.6744,-7.1686,111.7332],[128.6664,-7.1641,73.3937],[128.6541,-7.1501,175.3706],[128.6526,-7.1475,137.7644],[128.6536,-7.1409,10.1103],[128.6599,-7.1421,0.0],[128.6613,-7.1459,0.0],[128.6643,-7.1466,0.0],[128.6817,-7.141,0.0],[128.6957,-7.1281,0.0],[128.6985,-7.1169,77.6761],[128.696,-7.1136,205.2571],[128.6962,-7.1084,131.9474],[128.6892,-7.1035,95.9086],[128.6765,-7.0997,117.4905],[128.6755,-7.0974,66.3601],[128.673,-7.0967,45.6298],[128.6614,-7.0959,0.0],[128.66,-7.0982,24.3758]]]]}}