{"type":"Feature","properties":{"GID_3":"IDN.13.2.3_1","GID_0":"IDN","country":"Indonesia","GID_1":"IDN.13_1","province":"KalimantanSelatan","NL_NAME_1":"NA","GID_2":"IDN.13.2_1","county":"BanjarBaru","NL_NAME_2":"NA","city":"Cempaka","VARNAME_3":"NA","NL_NAME_3":"NA","TYPE_3":"Kecamatan","ENGTYPE_3":"Sub-district","CC_3":"6372020","HASC_3":"NA","name":"Cempaka.city"},
"geometry":{"type": "MultiPolygon","coordinates": [[[[114.878,-3.5544,34.1919],[114.8799,-3.5546,29.4203],[114.8814,-3.557,33.7684],[114.8851,-3.5478,29.8594],[114.8883,-3.5458,31.0026],[114.8909,-3.5465,33.693],[114.8991,-3.5426,31.7296],[114.9019,-3.5447,43.069],[114.9064,-3.542,64.0777],[114.9088,-3.5428,37.4517],[114.9095,-3.5499,118.0518],[114.9076,-3.562,121.5406],[114.9146,-3.5744,84.1596],[114.9288,-3.558,63.6676],[114.931,-3.5524,71.9042],[114.9318,-3.5415,59.6274],[114.9411,-3.5275,321.767],[114.9454,-3.5141,123.7788],[114.9427,-3.4965,55.7374],[114.9376,-3.4822,98.0971],[114.9272,-3.4639,43.8778],[114.9266,-3.4709,47.6001],[114.9151,-3.4686,16.7388],[114.9173,-3.4722,19.0255],[114.8973,-3.4651,11.1639],[114.8762,-3.4635,39.2402],[114.8738,-3.4648,49.1627],[114.8637,-3.4649,75.8852],[114.8577,-3.4666,47.2452],[114.8566,-3.4686,42.3577],[114.8512,-3.4692,38.069],[114.848,-3.473,28.7137],[114.8418,-3.4759,31.3766],[114.8387,-3.4762,37.2088],[114.8334,-3.4736,40.5884],[114.8217,-3.4779,21.247],[114.8205,-3.4803,23.7795],[114.81,-3.4881,18.9756],[114.7987,-3.4914,7.6057],[114.7947,-3.4946,6.0274],[114.7939,-3.5037,8.4315],[114.7854,-3.5145,3.1063],[114.7845,-3.525,5.8973],[114.7982,-3.5236,8.8821],[114.8099,-3.5258,10.9646],[114.8122,-3.5299,15.8381],[114.8099,-3.5336,13.2922],[114.8117,-3.5402,13.6919],[114.8189,-3.5431,14.5816],[114.8276,-3.55,14.6311],[114.8345,-3.5513,10.9896],[114.8351,-3.5479,25.3888],[114.8363,-3.5478,13.7804],[114.8373,-3.5511,18.0767],[114.8388,-3.5519,23.9736],[114.839,-3.5507,17.9011],[114.8409,-3.5527,20.5292],[114.8465,-3.5508,18.6959],[114.8482,-3.5539,28.2248],[114.8451,-3.5581,15.3781],[114.849,-3.557,18.8396],[114.85,-3.5588,23.4068],[114.8525,-3.558,23.5217],[114.8574,-3.5606,22.9889],[114.856,-3.5621,22.8966],[114.8578,-3.5635,22.879],[114.856,-3.5649,21.9792],[114.854,-3.5637,23.2198],[114.8535,-3.565,19.6183],[114.8582,-3.5694,19.1443],[114.8621,-3.5654,18.926],[114.8653,-3.5649,22.1576],[114.8656,-3.5603,20.5614],[114.8674,-3.5597,22.7606],[114.866,-3.558,23.9259],[114.8688,-3.5565,21.1424],[114.8691,-3.5545,28.7911],[114.873,-3.5547,36.0012],[114.8757,-3.5523,27.9493],[114.878,-3.5544,34.1919]]]]}}