{"type":"Feature","properties":{"GID_3":"IDN.18.2.9_1","GID_0":"IDN","country":"Indonesia","GID_1":"IDN.18_1","province":"MalukuUtara","NL_NAME_1":"NA","GID_2":"IDN.18.2_1","county":"HalmaheraSelatan","NL_NAME_2":"NA","city":"GaneBaratSelatan","VARNAME_3":"NA","NL_NAME_3":"NA","TYPE_3":"Kecamatan","ENGTYPE_3":"Sub-district","CC_3":"8204081","HASC_3":"NA","name":"Gane_Barat_Selatan.city"},
"geometry":{"type": "MultiPolygon","coordinates": [[[[128.3261,-0.8707,11.9408],[128.3287,-0.8745,8.0761],[128.3435,-0.8489,29.5885],[128.3212,-0.8349,77.3969],[128.2486,-0.7593,10.3219],[128.2381,-0.7504,12.1128],[128.145,-0.6902,252.3254],[128.1267,-0.6741,302.3834],[128.1046,-0.6428,221.9246],[128.0362,-0.6993,16.0261],[128.0525,-0.7066,14.7385],[128.0608,-0.7124,15.0913],[128.0656,-0.718,0.0],[128.086,-0.7229,13.5087],[128.1119,-0.7343,3.0213],[128.1153,-0.7334,6.4263],[128.1181,-0.7366,0.0],[128.1257,-0.7367,6.7086],[128.1289,-0.7393,5.3327],[128.1324,-0.7381,0.4519],[128.1476,-0.745,13.7543],[128.1512,-0.7491,2.6372],[128.1553,-0.7479,9.0332],[128.1623,-0.7509,10.5148],[128.1672,-0.7504,6.9945],[128.187,-0.7608,5.7565],[128.2019,-0.7631,0.7396],[128.2169,-0.7724,2.0523],[128.2206,-0.7701,0.3861],[128.2194,-0.7657,3.5392],[128.223,-0.7638,9.4888],[128.2251,-0.7561,14.5609],[128.2272,-0.7568,6.0382],[128.2308,-0.7538,0.0],[128.23,-0.7523,1.1578],[128.2321,-0.7524,0.0],[128.2338,-0.7502,1.4269],[128.2344,-0.7528,1.0419],[128.2276,-0.7588,31.4979],[128.2242,-0.7669,0.0],[128.2247,-0.7698,0.0],[128.232,-0.7687,0.0],[128.24,-0.7699,1.6715],[128.2433,-0.76,3.2543],[128.2433,-0.7642,0.0],[128.2474,-0.7641,1.9552],[128.2445,-0.7673,4.7134],[128.2472,-0.7699,8.2292],[128.245,-0.772,14.7003],[128.2417,-0.7708,11.9973],[128.2389,-0.7726,2.161],[128.2399,-0.7794,14.1468],[128.2378,-0.778,5.3553],[128.2375,-0.7742,1.2665],[128.2349,-0.778,5.6258],[128.2355,-0.7723,0.0],[128.2331,-0.7735,13.0772],[128.2303,-0.7709,4.8923],[128.227,-0.7732,0.0],[128.2298,-0.7795,3.7682],[128.2388,-0.7869,0.0],[128.2459,-0.7881,3.3233],[128.2492,-0.7925,3.8542],[128.2483,-0.7935,1.6701],[128.2533,-0.7986,0.0],[128.2547,-0.7981,0.0],[128.2533,-0.7965,0.0],[128.256,-0.7963,0.0],[128.2578,-0.8035,0.0],[128.2606,-0.8047,5.3777],[128.2601,-0.8064,0.0],[128.2618,-0.8088,0.0],[128.2632,-0.8085,12.2546],[128.2632,-0.811,3.7131],[128.2654,-0.8114,6.8393],[128.2681,-0.8219,0.0],[128.2704,-0.8204,0.5659],[128.271,-0.8245,5.3006],[128.2739,-0.8271,3.4031],[128.2799,-0.826,17.4288],[128.2836,-0.8326,10.3548],[128.2822,-0.8383,10.9568],[128.2791,-0.8386,4.0458],[128.2712,-0.8315,1.312],[128.2538,-0.8216,9.0976],[128.2482,-0.8203,6.0086],[128.2406,-0.8211,0.0],[128.2419,-0.8223,2.6985],[128.2409,-0.8268,5.0711],[128.232,-0.827,3.4121],[128.2255,-0.8327,0.0],[128.2257,-0.8393,0.0],[128.2285,-0.8452,0.0],[128.2449,-0.8571,6.0141],[128.2604,-0.8633,5.1866],[128.262,-0.8667,0.0],[128.2653,-0.8687,0.0],[128.2694,-0.8672,1.8034],[128.2753,-0.8684,3.2084],[128.2812,-0.876,6.9833],[128.2905,-0.8811,4.1483],[128.2995,-0.8816,0.0],[128.3079,-0.879,0.0],[128.3119,-0.8742,3.0367],[128.3128,-0.8669,8.4377],[128.3152,-0.864,0.0],[128.3261,-0.8707,11.9408]]],
[[[128.1594,-0.788,1.8109],[128.1583,-0.7867,0.9796],[128.1565,-0.7875,0.0],[128.1574,-0.791,4.8593],[128.1617,-0.7912,0.0],[128.1611,-0.7891,1.8109],[128.1594,-0.788,1.8109]]],
[[[128.0968,-0.8407,3.4147],[128.0944,-0.838,42.1811],[128.0849,-0.839,0.0],[128.0812,-0.8447,48.2867],[128.0798,-0.8507,46.2816],[128.0854,-0.8558,8.6302],[128.0905,-0.8549,4.2241],[128.0955,-0.8585,0.0],[128.0972,-0.8576,25.0549],[128.0988,-0.8606,13.4084],[128.1035,-0.8617,0.0],[128.1061,-0.8589,0.0],[128.105,-0.8586,2.2014],[128.1064,-0.8555,10.9658],[128.1097,-0.8562,10.9238],[128.1117,-0.8528,13.2614],[128.1076,-0.849,0.2553],[128.1036,-0.8488,46.692],[128.1019,-0.8434,5.5553],[128.1,-0.8429,0.0],[128.0988,-0.8445,9.2313],[128.0968,-0.8407,3.4147]]],
[[[128.121,-0.842,0.0],[128.1181,-0.8415,6.7244],[128.1133,-0.8496,5.3767],[128.1146,-0.8555,2.378],[128.1222,-0.8528,0.0],[128.1199,-0.8478,20.4],[128.1234,-0.8446,0.0],[128.121,-0.842,0.0]]],
[[[128.1331,-0.8274,0.0],[128.1325,-0.8266,0.0],[128.132,-0.8266,0.0],[128.1322,-0.828,0.0],[128.1331,-0.8274,0.0]]],
[[[128.1366,-0.8267,0.0],[128.1396,-0.8238,0.0],[128.1375,-0.8214,4.8356],[128.1357,-0.8221,1.1266],[128.1337,-0.8278,0.0],[128.1366,-0.8267,0.0]]],
[[[128.1441,-0.8165,0.9923],[128.1448,-0.8176,0.9923],[128.1465,-0.8148,2.4624],[128.1445,-0.8151,0.8325],[128.1441,-0.8165,0.9923]]],
[[[128.1461,-0.8138,2.7807],[128.1472,-0.8116,0.0],[128.1396,-0.8131,3.3375],[128.1385,-0.8161,0.0],[128.1398,-0.8174,0.0],[128.1429,-0.8145,2.139],[128.1461,-0.8138,2.7807]]],
[[[128.1398,-0.8042,0.0],[128.1345,-0.8047,0.0],[128.1323,-0.8018,0.0],[128.131,-0.8038,0.0],[128.1317,-0.8063,0.0],[128.1375,-0.8107,2.447],[128.1407,-0.8082,2.1178],[128.151,-0.8078,3.0509],[128.1532,-0.806,0.0],[128.1495,-0.8043,0.0],[128.1409,-0.8061,0.0],[128.1398,-0.8042,0.0]]],
[[[128.1592,-0.793,1.5267],[128.1564,-0.7926,0.0],[128.1551,-0.7953,2.5638],[128.1518,-0.7966,1.4456],[128.1548,-0.7997,0.0],[128.159,-0.7982,0.0],[128.1623,-0.7939,0.0],[128.1592,-0.793,1.5267]]]]}}