{"type":"Feature","properties":{"GID_3":"IDN.10.7.3_1","GID_0":"IDN","country":"Indonesia","GID_1":"IDN.10_1","province":"JawaTengah","NL_NAME_1":"NA","GID_2":"IDN.10.7_1","county":"Cilacap","NL_NAME_2":"NA","city":"Binangun","VARNAME_3":"NA","NL_NAME_3":"NA","TYPE_3":"Kecamatan","ENGTYPE_3":"Sub-district","CC_3":"3301190","HASC_3":"NA","name":"Binangun.city"},
"geometry":{"type": "MultiPolygon","coordinates": [[[[109.3217,-7.6864,5.0502],[109.3224,-7.6804,2.3869],[109.329,-7.6794,1.7266],[109.3372,-7.6823,1.7793],[109.3382,-7.6795,7.7544],[109.3244,-7.6724,2.1024],[109.323,-7.6631,2.5167],[109.2862,-7.6571,8.8776],[109.2828,-7.6536,8.5918],[109.2784,-7.6524,7.0896],[109.2791,-7.6491,5.1944],[109.2473,-7.6457,4.7194],[109.2448,-7.6603,5.348],[109.2231,-7.6566,2.4189],[109.2223,-7.6579,2.4189],[109.2048,-7.657,1.6175],[109.1995,-7.6548,1.817],[109.1905,-7.6597,3.7052],[109.1931,-7.6615,1.5637],[109.1921,-7.6662,1.7899],[109.1958,-7.6668,2.6838],[109.1955,-7.6687,5.774],[109.1986,-7.6697,10.2061],[109.214,-7.6686,8.9008],[109.2189,-7.6664,4.6759],[109.2223,-7.6686,2.9541],[109.2221,-7.6743,3.666],[109.2399,-7.6778,9.8512],[109.2436,-7.6772,6.6373],[109.2415,-7.6965,0.0],[109.3141,-7.7041,9.3515],[109.317,-7.6922,15.2001],[109.3217,-7.6864,5.0502]]]]}}