{"type":"Feature","properties":{"GID_3":"IDN.23.29.1_1","GID_0":"IDN","country":"Indonesia","GID_1":"IDN.23_1","province":"Papua","NL_NAME_1":"NA","GID_2":"IDN.23.29_1","county":"Yalimo","NL_NAME_2":"NA","city":"Abenaho","VARNAME_3":"NA","NL_NAME_3":"NA","TYPE_3":"Distrik","ENGTYPE_3":"District","CC_3":"9432030","HASC_3":"NA","name":"Abenaho.city"},
"geometry":{"type": "MultiPolygon","coordinates": [[[[138.9801,-3.9406,2215.5293],[139.0049,-3.9944,2319.2622],[139.0251,-4.0434,1932.4467],[139.1471,-4.0184,2910.7617],[139.2052,-4.0098,2919.9041],[139.2473,-4.0124,2159.5498],[139.2374,-3.9838,2863.0518],[139.2303,-3.9308,2560.2446],[139.2321,-3.8901,1587.9441],[139.2409,-3.8513,1602.5934],[139.3115,-3.8127,1598.337],[139.3295,-3.7937,728.2345],[139.3407,-3.7742,757.9395],[139.3559,-3.7298,481.0602],[139.3631,-3.7023,653.8013],[139.3521,-3.6925,470.4348],[139.3515,-3.687,391.1324],[139.3454,-3.6852,481.7023],[139.3297,-3.6852,296.5705],[139.3089,-3.6778,616.3768],[139.3027,-3.6734,791.0067],[139.2862,-3.6694,400.414],[139.2766,-3.6697,290.8027],[139.283,-3.6902,464.5275],[139.2793,-3.6962,511.9383],[139.2761,-3.7077,578.1505],[139.2793,-3.7371,691.2593],[139.2761,-3.7476,868.1509],[139.2664,-3.7532,1092.5129],[139.2609,-3.7587,1197.6531],[139.2444,-3.761,1769.115],[139.2272,-3.7598,1518.4939],[139.2046,-3.7508,1646.9514],[139.199,-3.7464,1843.5991],[139.1862,-3.743,1673.3456],[139.1629,-3.7424,1563.1384],[139.1496,-3.7439,1239.0977],[139.1337,-3.7489,1053.6565],[139.121,-3.756,970.817],[139.1077,-3.7682,1275.8771],[139.0999,-3.7672,1513.7687],[139.0921,-3.7728,1661.9556],[139.0639,-3.7849,1963.3887],[139.0527,-3.7843,2653.7124],[139.044,-3.7784,2304.8721],[139.0348,-3.8158,2807.6184],[139.034,-3.8418,2787.2231],[139.0384,-3.8671,3006.2612],[139.0479,-3.8971,2207.5264],[138.9778,-3.9225,2073.8901],[138.9801,-3.9406,2215.5293]]]]}}