{"type":"Feature","properties":{"GID_3":"IDN.10.9.8_1","GID_0":"IDN","country":"Indonesia","GID_1":"IDN.10_1","province":"JawaTengah","NL_NAME_1":"NA","GID_2":"IDN.10.9_1","county":"Grobogan","NL_NAME_2":"NA","city":"Kedungjati","VARNAME_3":"NA","NL_NAME_3":"NA","TYPE_3":"Kecamatan","ENGTYPE_3":"Sub-district","CC_3":"3315010","HASC_3":"NA","name":"Kedungjati.city"},
"geometry":{"type": "MultiPolygon","coordinates": [[[[110.6582,-7.2253,79.7867],[110.6617,-7.2252,94.1939],[110.662,-7.2236,87.3756],[110.6631,-7.2252,90.0805],[110.6649,-7.2249,91.2001],[110.669,-7.2288,97.3348],[110.6669,-7.231,100.3588],[110.6722,-7.2342,115.6015],[110.6738,-7.2376,116.0095],[110.683,-7.2416,200.1613],[110.6901,-7.2412,203.4203],[110.6925,-7.2404,208.99],[110.6944,-7.2241,128.4779],[110.7058,-7.2156,112.8764],[110.7053,-7.2122,98.1352],[110.7036,-7.2121,98.1352],[110.7047,-7.2088,87.2164],[110.6967,-7.2078,80.3596],[110.6928,-7.2052,77.9742],[110.6931,-7.1991,67.7812],[110.6914,-7.1983,67.7812],[110.691,-7.1933,67.0284],[110.6892,-7.1916,66.3887],[110.6922,-7.1872,81.6925],[110.6974,-7.1853,74.7702],[110.6938,-7.1809,58.1537],[110.6887,-7.178,51.4512],[110.6899,-7.1583,116.8326],[110.68,-7.1512,92.0237],[110.6788,-7.1477,52.9678],[110.6764,-7.1468,58.9541],[110.6704,-7.1386,24.5569],[110.6702,-7.133,25.8211],[110.6734,-7.1344,24.4167],[110.6745,-7.1331,24.4167],[110.6737,-7.1278,23.2924],[110.6762,-7.1268,24.3397],[110.6805,-7.1284,21.2047],[110.6838,-7.1218,22.5129],[110.6858,-7.1215,22.0633],[110.6824,-7.1153,22.2879],[110.6832,-7.1129,23.0789],[110.6861,-7.1136,18.6949],[110.6859,-7.1092,19.6143],[110.6801,-7.1077,40.6543],[110.6763,-7.1049,28.4739],[110.6669,-7.1065,41.4086],[110.654,-7.1035,71.6408],[110.6538,-7.1153,31.0936],[110.6476,-7.1136,35.5747],[110.6432,-7.1078,50.6664],[110.6333,-7.1062,62.4857],[110.6297,-7.1119,63.9605],[110.6233,-7.1164,44.8056],[110.6201,-7.1251,39.6945],[110.6209,-7.1281,42.6316],[110.6141,-7.1337,57.9314],[110.6115,-7.1413,73.608],[110.579,-7.1389,103.8518],[110.5801,-7.1324,65.2213],[110.5583,-7.1397,123.332],[110.5612,-7.1421,121.2956],[110.5574,-7.1467,96.7293],[110.5582,-7.1517,86.7224],[110.5539,-7.1601,116.4524],[110.5538,-7.1682,167.4037],[110.5516,-7.1671,164.2635],[110.5478,-7.1678,169.8963],[110.542,-7.1772,171.7544],[110.5416,-7.1817,128.1194],[110.5452,-7.1829,128.7036],[110.5439,-7.1854,125.7364],[110.546,-7.1851,121.2689],[110.544,-7.1886,127.7599],[110.546,-7.1949,140.3469],[110.5509,-7.1941,112.6409],[110.5515,-7.1927,114.4477],[110.5539,-7.1938,109.3348],[110.5543,-7.1902,109.6786],[110.5566,-7.1905,105.6868],[110.5542,-7.1891,114.7612],[110.5555,-7.1872,112.5239],[110.5597,-7.1927,99.9648],[110.5617,-7.1918,106.945],[110.5623,-7.188,98.9699],[110.5639,-7.1913,110.675],[110.5661,-7.1902,100.1102],[110.5687,-7.1944,89.6415],[110.5701,-7.1922,91.4352],[110.5691,-7.1893,97.3665],[110.5704,-7.189,87.8739],[110.5766,-7.1952,86.1071],[110.5763,-7.1989,85.3995],[110.5789,-7.1969,81.2605],[110.5799,-7.2002,85.5245],[110.5841,-7.2028,98.8885],[110.5853,-7.2007,91.7912],[110.589,-7.2008,72.5922],[110.5897,-7.1975,73.8392],[110.5934,-7.1994,74.1758],[110.6008,-7.1999,71.9988],[110.6008,-7.1951,56.2168],[110.6064,-7.1949,52.7757],[110.613,-7.1994,51.5518],[110.6116,-7.2123,67.4701],[110.6164,-7.2177,80.8279],[110.6241,-7.2171,59.3567],[110.627,-7.2179,58.0606],[110.6274,-7.2194,69.324],[110.6441,-7.219,72.831],[110.648,-7.2231,80.8948],[110.6562,-7.2264,96.247],[110.6582,-7.2253,79.7867]]],
[[[110.5918,-7.2004,66.1866],[110.5918,-7.2007,66.1866],[110.5922,-7.2031,77.0982],[110.5928,-7.2023,74.9623],[110.5918,-7.2004,66.1866]]]]}}