{"type":"Feature","properties":{"GID_3":"IDN.7.5.2_1","GID_0":"IDN","country":"Indonesia","GID_1":"IDN.7_1","province":"JakartaRaya","NL_NAME_1":"NA","GID_2":"IDN.7.5_1","county":"JakartaUtara","NL_NAME_2":"NA","city":"DanauSunterDll","VARNAME_3":"NA","NL_NAME_3":"NA","TYPE_3":"Kecamatan","ENGTYPE_3":"Sub-district","CC_3":"3175888","HASC_3":"NA","name":"Danau_Sunter_Dll.city"},
"geometry":{"type": "MultiPolygon","coordinates": [[[[106.8609,-6.1509,6.286],[106.8596,-6.1496,6.9189],[106.856,-6.1498,5.1767],[106.8551,-6.152,5.914],[106.8598,-6.1526,6.752],[106.8609,-6.1509,6.286]]],
[[[106.8501,-6.1528,5.9858],[106.8496,-6.1488,6.4661],[106.8448,-6.1495,2.5157],[106.844,-6.145,5.6505],[106.8413,-6.1521,5.1252],[106.8447,-6.154,4.243],[106.8501,-6.1528,5.9858]]]]}}