{"type":"Feature","properties":{"GID_3":"IDN.1.20.18_1","GID_0":"IDN","country":"Indonesia","GID_1":"IDN.1_1","province":"Aceh","NL_NAME_1":"NA","GID_2":"IDN.1.20_1","county":"Pidie","NL_NAME_2":"NA","city":"Pidie","VARNAME_3":"NA","NL_NAME_3":"NA","TYPE_3":"Kecamatan","ENGTYPE_3":"Sub-district","CC_3":"1109210","HASC_3":"NA","name":"Pidie.city"},
"geometry":{"type": "MultiPolygon","coordinates": [[[[95.9535,5.349,7.1222],[95.9553,5.3478,11.0579],[95.9623,5.3502,4.0658],[95.9647,5.353,12.1659],[95.9695,5.3512,11.8743],[95.9726,5.3586,2.1712],[95.9667,5.3644,2.3636],[95.9689,5.3734,1.3918],[95.9632,5.3758,2.2004],[95.9599,5.3735,3.3422],[95.9545,5.3735,2.2724],[95.9506,5.376,3.7704],[95.9513,5.3794,6.304],[95.9397,5.3787,8.0869],[95.9386,5.3818,8.1689],[95.9405,5.3834,10.2399],[95.9455,5.382,12.6746],[95.9464,5.3803,6.5424],[95.9513,5.38,6.304],[95.9533,5.3828,3.8404],[95.9515,5.3871,2.6873],[95.9541,5.3907,1.89],[95.95,5.3931,1.979],[95.9491,5.3961,2.9856],[95.9346,5.405,0.6597],[95.9277,5.4018,2.0537],[95.9261,5.4026,2.0049],[95.9285,5.3994,1.6429],[95.923,5.3969,1.4618],[95.9181,5.3984,2.5936],[95.9094,5.3982,2.4442],[95.9047,5.4028,7.6281],[95.9037,5.406,2.0066],[95.8982,5.398,4.2203],[95.8988,5.3941,14.733],[95.902,5.3926,9.5418],[95.9007,5.3886,17.6673],[95.9111,5.3842,2.3209],[95.9174,5.3765,3.0294],[95.9188,5.3644,7.5159],[95.9218,5.3636,4.88],[95.919,5.3595,5.0974],[95.9186,5.3548,5.7392],[95.9202,5.3522,6.3493],[95.9248,5.3494,14.3128],[95.925299999999993,5.3467,13.014],[95.9283,5.3459,13.3137],[95.9337,5.3503,7.1402],[95.937,5.3503,6.6856],[95.9422,5.3471,4.7315],[95.9535,5.349,7.1222]],
[[95.9604,5.3598,7.1043],[95.9609,5.3613,7.3444],[95.9642,5.3599,4.1069],[95.9622,5.3567,8.5129],[95.9604,5.3598,7.1043]]]]}}