{"type":"Feature","properties":{"GID_3":"IDN.28.5.6_1","GID_0":"IDN","country":"Indonesia","GID_1":"IDN.28_1","province":"SulawesiTenggara","NL_NAME_1":"NA","GID_2":"IDN.28.5_1","county":"Kendari","NL_NAME_2":"NA","city":"Kendari","VARNAME_3":"NA","NL_NAME_3":"NA","TYPE_3":"Kecamatan","ENGTYPE_3":"Sub-district","CC_3":"7471030","HASC_3":"NA","name":"Kendari.city"},
"geometry":{"type": "MultiPolygon","coordinates": [[[[122.5967,-3.9779,8.8084],[122.5993,-3.9791,7.9264],[122.6031,-3.9718,9.0376],[122.6098,-3.9695,0.0],[122.6109,-3.967,0.0],[122.6088,-3.9628,8.8648],[122.6202,-3.962,0.0],[122.622,-3.9595,2.0409],[122.6251,-3.9587,0.0],[122.6261,-3.9492,0.0],[122.6172,-3.9492,62.6298],[122.5949,-3.9412,189.0618],[122.5808,-3.9396,309.0367],[122.5788,-3.9667,67.8813],[122.5824,-3.9686,45.4515],[122.5828,-3.9704,19.1673],[122.5813,-3.9715,5.9927],[122.584,-3.9743,3.2389],[122.5875,-3.975,0.0],[122.589,-3.9708,4.4415],[122.5908,-3.9735,0.0],[122.592,-3.9731,1.8585],[122.5923,-3.9765,0.0],[122.5967,-3.9779,8.8084]]]]}}