{"type":"Feature","properties":{"GID_3":"IDN.32.27.12_1","GID_0":"IDN","country":"Indonesia","GID_1":"IDN.32_1","province":"SumateraUtara","NL_NAME_1":"NA","GID_2":"IDN.32.27_1","county":"SerdangBedagai","NL_NAME_2":"NA","city":"Silinda","VARNAME_3":"NA","NL_NAME_3":"NA","TYPE_3":"Kecamatan","ENGTYPE_3":"Sub-district","CC_3":"1218011","HASC_3":"NA","name":"Silinda.city"},
"geometry":{"type": "MultiPolygon","coordinates": [[[[98.7854,3.2155,271.5173],[98.7926,3.2301,232.1295],[98.8027,3.2388,212.8686],[98.8037,3.2431,196.884],[98.8152,3.2473,183.1566],[98.8209,3.2566,173.9397],[98.825,3.2582,190.1352],[98.8269,3.261,170.4626],[98.8286,3.2651,171.5972],[98.8274,3.2671,167.2782],[98.837,3.2875,131.467],[98.8367,3.2932,134.4936],[98.8408,3.3017,140.0973],[98.8416,3.3062,112.9192],[98.8388,3.3069,117.4605],[98.8476,3.3138,125.1541],[98.8326,3.3196,120.7029],[98.8295,3.3149,125.4184],[98.8182,3.312,136.7336],[98.8123,3.3046,128.0345],[98.8076,3.3048,148.0909],[98.7999,3.3014,155.0026],[98.7959,3.298,151.0601],[98.7956,3.2855,175.1635],[98.7891,3.2756,178.6644],[98.7737,3.2666,216.2907],[98.7703,3.2617,212.6636],[98.7709,3.2589,213.163],[98.7685,3.2528,229.614],[98.7639,3.2475,235.807],[98.7529,3.2398,275.0053],[98.7496,3.2327,291.7777],[98.7505,3.2287,320.7829],[98.7481,3.2212,348.6355],[98.7481,3.2148,346.6292],[98.7501,3.209,361.3826],[98.7574,3.212,357.2648],[98.7611,3.2204,304.8646],[98.7706,3.2146,310.2755],[98.7819,3.214,270.5043],[98.7854,3.2155,271.5173]]]]}}