{"type":"Feature","properties":{"GID_2":"IDN.1.7_1","GID_0":"IDN","country":"Indonesia","GID_1":"IDN.1_1","province":"Aceh","NL_NAME_1":"NA","county":"AcehTamiang","VARNAME_2":"NA","NL_NAME_2":"NA","TYPE_2":"Kabupaten","ENGTYPE_2":"Regency","CC_2":"1114","HASC_2":"ID.AC.AM","name":"Aceh_Tamiang.county"},
"geometry":{"type": "MultiPolygon","coordinates": [[[[97.9088,3.905,1274.9159],[97.9078,3.9032,1399.9431],[97.909,3.9053,1274.9159],[97.9088,3.905,1274.9159]]],
[[[97.9085,3.908,1321.3379],[97.9085,3.9079,1321.3379],[97.9091,3.9073,1321.3379],[97.9085,3.9085,1321.3379],[97.9085,3.908,1321.3379]]],
[[[98.0493,4.1099,40.3098],[98.049,4.1134,58.4052],[98.051,4.1152,72.3089],[98.0498,4.1185,69.5531],[98.0538,4.1193,65.3625],[98.0562,4.1305,59.1805],[98.0528,4.1338,61.2716],[98.0559,4.1369,50.0326],[98.0657,4.1386,33.6129],[98.0735,4.1437,47.2332],[98.0756,4.1475,42.1955],[98.0717,4.1523,48.0945],[98.0727,4.1586,48.7641],[98.0658,4.1751,63.1526],[98.0554,4.1801,34.5292],[98.0568,4.1846,41.4429],[98.056,4.1869,40.7797],[98.0614,4.1896,56.273],[98.0709,4.1899,29.07],[98.0774,4.1956,18.5534],[98.0808,4.1962,23.3552],[98.0816,4.1932,26.7187],[98.0855,4.1933,30.4339],[98.0892,4.1978,32.325],[98.0894,4.2033,48.6544],[98.0934,4.2049,67.8421],[98.0947,4.2075,46.3526],[98.0916,4.2134,28.7555],[98.0889,4.2285,17.6811],[98.0862,4.2302,22.1909],[98.0846,4.2295,25.4552],[98.0788,4.2338,26.0558],[98.0745,4.2344,24.0663],[98.0716,4.2371,29.5885],[98.0677,4.2459,44.6148],[98.0685,4.2477,49.3327],[98.0727,4.2517,40.6654],[98.077,4.253,37.4335],[98.0766,4.2567,25.6031],[98.0798,4.2594,24.903],[98.0829,4.2581,21.8771],[98.0943,4.2607,9.3064],[98.099,4.2566,13.4007],[98.1073,4.254,17.0617],[98.1088,4.2557,19.4562],[98.1145,4.2526,28.4101],[98.1187,4.2547,26.0279],[98.1198,4.2583,21.4503],[98.1254,4.2553,36.3468],[98.1286,4.2577,35.8772],[98.1325,4.2572,40.7796],[98.1371,4.2597,47.0998],[98.1388,4.2587,42.8327],[98.1464,4.2604,35.7508],[98.1531,4.2647,27.4059],[98.1565,4.2724,28.4412],[98.1544,4.2903,18.6073],[98.1605,4.2881,17.7225],[98.171,4.2895,12.1707],[98.1833,4.2886,2.2295],[98.1862,4.2924,18.4858],[98.1932,4.2938,1.9673],[98.1946,4.2969,2.6746],[98.1977,4.2949,2.1217],[98.1987,4.3015,0.8904],[98.2025,4.2976,1.4756],[98.211,4.2988,2.05],[98.2104,4.2941,1.1209],[98.2144,4.2872,0.705],[98.2174,4.2902,1.1431],[98.2216,4.2881,0.8421],[98.229,4.2925,0.8906],[98.2303,4.2914,0.2816],[98.2294,4.2862,1.609],[98.2381,4.2835,1.1839],[98.2392,4.2895,0.7488],[98.2444,4.2942,0.0],[98.2495,4.2929,0.2653],[98.2514,4.2887,1.4993],[98.2544,4.2894,0.0],[98.2676,4.3119,0.6277],[98.2666,4.3137,0.5113],[98.2712,4.3229,0.0],[98.2753,4.3237,0.0],[98.2796,4.3306,0.0],[98.278,4.3409,2.1274],[98.2791,4.3449,0.0],[98.2778,4.3464,0.7227],[98.283,4.3486,0.0],[98.282,4.3639,0.0],[98.2792,4.3694,0.0],[98.2779,4.3797,2.7972],[98.2779,4.3836,2.2972],[98.2799,4.386,0.0],[98.2763,4.3926,1.5276],[98.2737,4.3932,1.6017],[98.2733,4.3961,1.2396],[98.274,4.3976,2.5626],[98.2762,4.3959,1.1598],[98.2765,4.3983,1.4567],[98.2798,4.3985,0.4082],[98.2833,4.4122,3.536],[98.2856,4.412,0.0],[98.286,4.4152,1.4898],[98.285,4.4185,3.3105],[98.2797,4.4201,1.8227],[98.268,4.4114,2.3221],[98.2671,4.4126,1.9385],[98.2764,4.4226,3.3919],[98.2766,4.4248,1.1943],[98.2649,4.4316,0.5303],[98.2523,4.4439,0.0],[98.2482,4.444,0.8734],[98.2497,4.435,2.0864],[98.2485,4.4346,2.0864],[98.2472,4.4385,7.9047],[98.2462,4.434,8.4661],[98.242,4.4354,8.1379],[98.2365,4.4349,2.6491],[98.2359,4.441,3.1173],[98.2312,4.4383,4.5424],[98.2302,4.4491,3.5289],[98.236,4.4545,0.0],[98.2374,4.4592,0.0],[98.2366,4.4612,0.0],[98.2269,4.4646,3.6392],[98.2241,4.4683,1.381],[98.2146,4.4747,4.1547],[98.1995,4.4814,0.0],[98.1861,4.4779,0.0],[98.1853,4.4802,0.0],[98.1871,4.482,0.0],[98.187,4.4845,0.0],[98.1799,4.4886,2.555],[98.1786,4.4951,0.0],[98.1707,4.5023,0.0],[98.1578,4.5089,0.0],[98.1494,4.511,0.0],[98.1441,4.5093,0.0],[98.1444,4.5117,0.9876],[98.137,4.516,0.3889],[98.1344,4.516,1.1533],[98.1248,4.5218,0.64],[98.1146,4.5233,0.3914],[98.1134,4.5214,0.188],[98.1159,4.5151,0.5594],[98.1145,4.514,0.5594],[98.1102,4.5214,1.231],[98.0946,4.5232,1.2107],[98.0933,4.521,1.6824],[98.0872,4.5229,0.2632],[98.0875,4.5166,2.401],[98.0903,4.5107,1.5486],[98.0782,4.5015,0.4117],[98.0771,4.5059,2.5877],[98.0803,4.5095,0.0],[98.0728,4.5111,1.0534],[98.0633,4.5098,1.8145],[98.0625,4.512,0.0],[98.0665,4.5138,2.3464],[98.0788,4.5155,1.1027],[98.0783,4.5193,0.3643],[98.0745,4.5241,1.5442],[98.0807,4.5244,0.0],[98.0817,4.5283,0.0],[98.0831,4.5279,0.0],[98.0852,4.5313,0.5842],[98.0831,4.5382,2.0343],[98.0653,4.5532,2.0865],[98.0643,4.5498,0.0],[98.0697,4.5432,0.0],[98.0694,4.5412,1.7385],[98.0672,4.5408,2.1963],[98.0686,4.5401,1.7176],[98.067,4.5368,2.5033],[98.0676,4.5301,1.4035],[98.0654,4.5305,2.6761],[98.0662,4.5272,2.5436],[98.0645,4.5267,1.0475],[98.0638,4.5284,2.786],[98.0595,4.5216,2.6691],[98.0563,4.5217,2.67],[98.0542,4.5192,3.0198],[98.0475,4.5053,0.4378],[98.0448,4.4851,1.75],[98.0393,4.4801,2.1791],[98.035,4.4795,2.3827],[98.0351,4.4721,0.5],[98.038,4.4671,1.0],[98.0428,4.4701,1.147],[98.0469,4.4687,2.3185],[98.0442,4.4639,1.4049],[98.044,4.4564,1.2421],[98.0411,4.449,2.0891],[98.0386,4.4288,5.1813],[98.0399,4.4202,7.2409],[98.0337,4.4202,6.0133],[98.0241,4.4108,6.802],[98.0242,4.4158,12.757],[98.0186,4.4143,12.9873],[98.0144,4.4092,15.2364],[98.0039,4.4031,16.7934],[98.0037,4.4005,16.4809],[97.9915,4.3942,18.8249],[97.9911,4.3919,14.6622],[97.9863,4.388,16.854],[97.9795,4.3891,20.1286],[97.9763,4.393,16.9775],[97.9723,4.3786,66.7951],[97.9209,4.3764,64.8917],[97.9069,4.3773,90.4407],[97.8981,4.3748,75.4606],[97.8871,4.3757,133.3995],[97.8755,4.3789,92.6418],[97.8614,4.3885,94.1767],[97.8594,4.3879,70.2749],[97.857,4.3915,60.2742],[97.8544,4.3915,58.2729],[97.8554,4.3866,81.8649],[97.8531,4.3868,57.5583],[97.8509,4.3814,86.2148],[97.8493,4.3826,49.563],[97.8474,4.3793,49.029],[97.8364,4.3729,66.6],[97.8323,4.3731,89.1867],[97.8295,4.3685,67.704],[97.8238,4.3657,72.4298],[97.8236,4.3639,78.3249],[97.8184,4.3624,172.0405],[97.8149,4.3554,128.4886],[97.816,4.352,116.3588],[97.814,4.3464,99.7934],[97.8056,4.3456,101.6446],[97.8042,4.3477,68.7234],[97.8,4.3482,90.6837],[97.796,4.3444,62.8192],[97.7934,4.3459,80.5071],[97.7741,4.3427,22.5],[97.7633,4.3245,731.4962],[97.769,4.3229,734.7518],[97.7717,4.3209,698.3389],[97.772,4.3188,713.1561],[97.7493,4.2942,91.9268],[97.7455,4.2855,92.3728],[97.743,4.2719,227.6556],[97.7327,4.249,662.0286],[97.7178,4.2472,612.0399],[97.7242,4.2361,588.428],[97.7208,4.2344,523.1903],[97.7183,4.228,560.512],[97.7161,4.2116,505.1108],[97.717,4.2102,553.8377],[97.7147,4.2041,585.3607],[97.717,4.2003,739.0175],[97.716,4.1955,898.2408],[97.7186,4.1793,948.3546],[97.7218,4.1751,861.3608],[97.7206,4.1692,871.6049],[97.723,4.1667,889.9546],[97.7257,4.1574,1017.6381],[97.7283,4.1555,1030.1324],[97.7279,4.1502,787.8517],[97.7295,4.1454,829.3599],[97.7381,4.137,1002.0309],[97.7528,4.1285,955.1517],[97.7621,4.1204,1251.4938],[97.7645,4.1208,1283.4164],[97.7673,4.1152,1001.3033],[97.7756,4.1105,778.3143],[97.7785,4.107,946.3204],[97.7826,4.095,1157.3999],[97.7866,4.0891,1141.8043],[97.7895,4.0627,1312.8794],[97.7949,4.0375,1723.0923],[97.7931,4.037,1568.7177],[97.7946,4.0297,1244.5471],[97.7896,4.0233,853.9478],[97.7917,4.0223,871.8145],[97.7988,4.0087,955.8285],[97.8038,4.0025,1139.3806],[97.822,3.9856,956.8784],[97.8234,3.9829,1013.5804],[97.8241,3.9727,906.1185],[97.8307,3.9663,785.0925],[97.8495,3.9339,1052.3359],[97.8611,3.9225,980.4473],[97.8682,3.9246,1375.5201],[97.8716,3.93,1581.8499],[97.8822,3.9366,1321.8051],[97.8903,3.9345,1217.7247],[97.8999,3.9358,1093.4495],[97.9084,3.9162,1194.4519],[97.9068,3.9114,1334.1089],[97.9085,3.9093,1240.2806],[97.9095,3.9131,1354.8903],[97.9154,3.9134,1343.1882],[97.9292,3.9024,1174.6877],[97.9336,3.8956,1201.4147],[97.9369,3.895,1246.1061],[97.9383,3.8968,1058.7135],[97.944,3.897,896.5372],[97.9495,3.8898,987.5947],[97.9527,3.8908,985.1437],[97.9539,3.8966,1174.6996],[97.9573,3.902,1254.8253],[97.9545,3.9154,962.7329],[97.9563,3.9201,925.8004],[97.9535,3.9241,623.8203],[97.9553,3.9243,782.2183],[97.9583,3.9295,615.1839],[97.9635,3.934,705.8957],[97.9661,3.9337,616.7038],[97.9703,3.9371,581.5933],[97.9781,3.9392,402.8651],[97.9801,3.9412,392.963],[97.99,3.9418,165.192],[97.9932,3.9437,94.1863],[97.9985,3.9501,88.6579],[98.0004,3.9505,85.153],[98.0004,3.9549,77.8866],[98.0039,3.9639,94.5405],[98.0152,3.9631,67.8407],[98.0164,3.9698,74.0398],[98.0226,3.9669,67.2522],[98.0367,3.9565,63.8331],[98.0296,3.9806,54.4321],[98.0314,3.9859,66.1478],[98.0293,3.9919,54.0597],[98.031,4.002,59.8529],[98.026,4.0162,53.3876],[98.0275,4.0195,70.2363],[98.0323,4.0223,87.9414],[98.0384,4.0217,74.7984],[98.0407,4.019,69.8295],[98.0428,4.0198,54.8782],[98.0469,4.027,82.3762],[98.0438,4.0289,66.6479],[98.0399,4.0387,44.2555],[98.0422,4.0438,47.8005],[98.0417,4.0517,79.8263],[98.0441,4.057,64.0222],[98.0449,4.0776,69.2381],[98.0462,4.0774,69.2381],[98.0493,4.0853,59.371],[98.0459,4.0924,51.2239],[98.0456,4.097,46.5284],[98.050299999999993,4.1008,71.8432],[98.0515,4.1072,65.0063],[98.0493,4.1099,40.3098]]]]}}