{"type":"Feature","properties":{"GID_3":"IDN.1.3.2_1","GID_0":"IDN","country":"Indonesia","GID_1":"IDN.1_1","province":"Aceh","NL_NAME_1":"NA","GID_2":"IDN.1.3_1","county":"AcehBesar","NL_NAME_2":"NA","city":"BlangBintang","VARNAME_3":"NA","NL_NAME_3":"NA","TYPE_3":"Kecamatan","ENGTYPE_3":"Sub-district","CC_3":"1108081","HASC_3":"NA","name":"Blang_Bintang.city"},
"geometry":{"type": "MultiPolygon","coordinates": [[[[95.4057,5.4952,17.3822],[95.4057,5.4931,15.0376],[95.4118,5.4947,18.2607],[95.4141,5.4895,14.9349],[95.4193,5.4858,20.7235],[95.4284,5.4856,23.739],[95.4343,5.4838,23.7495],[95.4412,5.4879,25.3554],[95.4456,5.4877,25.9483],[95.4539,5.4927,34.7713],[95.4608,5.4998,63.5731],[95.467,5.5105,111.951],[95.4962,5.5504,398.3077],[95.4945,5.5552,334.4368],[95.4902,5.5562,382.9724],[95.4854,5.5627,351.5061],[95.4825,5.5724,339.6495],[95.466,5.555,253.6583],[95.4511,5.5306,107.4009],[95.435,5.5173,20.1998],[95.4267,5.5177,18.9832],[95.4224,5.5204,19.4837],[95.4176,5.5193,20.8165],[95.4085,5.5211,13.0497],[95.3976,5.5192,11.1558],[95.3943,5.5215,10.4343],[95.3856,5.5216,12.5163],[95.3845,5.5184,12.67],[95.3887,5.5162,11.0381],[95.3866,5.5118,15.9946],[95.3895,5.5108,13.8379],[95.3912,5.5126,12.3479],[95.3948,5.5128,9.5169],[95.3941,5.5082,12.2106],[95.4016,5.5033,10.7826],[95.3978,5.4993,13.6006],[95.4057,5.4952,17.3822]]]]}}