{"type":"Feature","properties":{"GID_3":"IDN.9.3.4_1","GID_0":"IDN","country":"Indonesia","GID_1":"IDN.9_1","province":"JawaBarat","NL_NAME_1":"NA","GID_2":"IDN.9.3_1","county":"Banjar","NL_NAME_2":"NA","city":"Purwaharja","VARNAME_3":"NA","NL_NAME_3":"NA","TYPE_3":"Kecamatan","ENGTYPE_3":"Sub-district","CC_3":"3279020","HASC_3":"NA","name":"Purwaharja.city"},
"geometry":{"type": "MultiPolygon","coordinates": [[[[108.5406,-7.3684,26.3905],[108.5446,-7.3676,24.322],[108.5453,-7.3716,21.2871],[108.548,-7.3739,23.1821],[108.5511,-7.3697,27.0882],[108.557,-7.3707,18.5739],[108.5639,-7.3616,20.186],[108.5707,-7.3612,23.9258],[108.5745,-7.3628,20.2228],[108.5782,-7.3581,22.13],[108.5844,-7.3605,24.7919],[108.5824,-7.3524,27.4131],[108.583,-7.3464,19.049],[108.5793,-7.3396,23.4432],[108.5755,-7.3396,20.18],[108.5754,-7.3343,18.4747],[108.5676,-7.3322,19.2622],[108.5644,-7.3369,23.8388],[108.5628,-7.3333,17.8099],[108.5585,-7.3351,22.4018],[108.5594,-7.3265,25.8647],[108.5518,-7.3235,30.1846],[108.5507,-7.3252,20.1993],[108.5556,-7.3317,20.9442],[108.5514,-7.3356,19.5008],[108.5504,-7.3418,17.9992],[108.5477,-7.3401,18.3229],[108.5473,-7.3432,18.4183],[108.535,-7.3436,35.2925],[108.5342,-7.3486,70.8347],[108.5316,-7.3491,66.3203],[108.5227,-7.3585,38.005],[108.5296,-7.3652,30.9232],[108.5332,-7.3601,25.8333],[108.5413,-7.3618,27.7776],[108.5387,-7.3674,34.3993],[108.5406,-7.3684,26.3905]]]]}}