{"type":"Feature","properties":{"GID_3":"IDN.29.7.7_1","GID_0":"IDN","country":"Indonesia","GID_1":"IDN.29_1","province":"SulawesiUtara","NL_NAME_1":"NA","GID_2":"IDN.29.7_1","county":"KepulauanTalaud","NL_NAME_2":"NA","city":"Gemeh","VARNAME_3":"NA","NL_NAME_3":"NA","TYPE_3":"Kecamatan","ENGTYPE_3":"Sub-district","CC_3":"7104070","HASC_3":"NA","name":"Gemeh.city"},
"geometry":{"type": "MultiPolygon","coordinates": [[[[126.7652,4.4174,233.5466],[126.7657,4.3958,416.8557],[126.8417,4.4288,84.5011],[126.867,4.4436,14.18],[126.8684,4.4559,0.0],[126.8668,4.4588,4.5296],[126.8617,4.4587,12.76],[126.8569,4.4641,0.0],[126.8536,4.4656,0.0],[126.857,4.4822,0.0],[126.8555,4.4895,2.5871],[126.8515,4.487,27.1967],[126.8422,4.4895,8.7507],[126.8373,4.4877,4.326],[126.8309,4.4915,5.1635],[126.8294,4.4946,3.4353],[126.8312,4.4989,14.2452],[126.8302,4.503,2.4238],[126.8166,4.5115,3.3946],[126.8177,4.5165,0.0],[126.8167,4.5215,0.0],[126.8143,4.5256,0.0],[126.8116,4.5244,12.0695],[126.8102,4.5254,10.0272],[126.8101,4.5296,0.0],[126.808,4.5337,0.0],[126.7945,4.5322,0.0],[126.7898,4.5295,8.3129],[126.7873,4.5248,15.276],[126.785,4.5248,5.1493],[126.7752,4.5294,2.0974],[126.7744,4.5326,10.7215],[126.7771,4.5371,0.0],[126.7754,4.5388,0.0],[126.7614,4.5433,15.6306],[126.7424,4.5458,2.2559],[126.7364,4.5415,15.7661],[126.742,4.5302,89.3854],[126.7496,4.5044,98.6809],[126.7582,4.4828,59.2659],[126.7654,4.441,99.7743],[126.7652,4.4174,233.5466]]]]}}