{"type":"Feature","properties":{"GID_3":"IDN.17.13.5_1","GID_0":"IDN","country":"Indonesia","GID_1":"IDN.17_1","province":"Lampung","NL_NAME_1":"NA","GID_2":"IDN.17.13_1","county":"Tulangbawang","NL_NAME_2":"NA","city":"GedungAjiBaru","VARNAME_3":"NA","NL_NAME_3":"NA","TYPE_3":"Kecamatan","ENGTYPE_3":"Sub-district","CC_3":"1808056","HASC_3":"NA","name":"Gedung_Aji_Baru.city"},
"geometry":{"type": "MultiPolygon","coordinates": [[[[105.6514,-4.2758,4.1046],[105.6539,-4.2173,4.8575],[105.6253,-4.2153,23.4474],[105.6222,-4.2204,22.1709],[105.6069,-4.2189,21.759],[105.6067,-4.1993,13.3213],[105.6017,-4.1928,24.48],[105.5753,-4.1855,9.6063],[105.5736,-4.183,8.4318],[105.5446,-4.1684,27.5961],[105.5446,-4.1705,24.9683],[105.5412,-4.1679,23.3043],[105.5317,-4.1656,39.8537],[105.5268,-4.1611,24.8891],[105.509,-4.1613,8.8614],[105.5077,-4.1892,12.6225],[105.5102,-4.201,17.4989],[105.5137,-4.2043,7.0529],[105.5167,-4.2174,3.8384],[105.5128,-4.2227,4.748],[105.5072,-4.2223,4.446],[105.502,-4.2293,2.4037],[105.5022,-4.231,2.5301],[105.5051,-4.2315,4.5597],[105.509,-4.2355,5.3165],[105.5094,-4.2438,4.0277],[105.5114,-4.2465,2.5961],[105.52,-4.248,4.4268],[105.527,-4.2427,2.7847],[105.5322,-4.2422,4.1129],[105.539,-4.246,3.728],[105.5405,-4.2417,2.405],[105.5433,-4.2403,2.2812],[105.5467,-4.2344,6.9709],[105.5468,-4.2304,1.8867],[105.5416,-4.2266,2.5936],[105.5395,-4.2218,4.4131],[105.5455,-4.2172,3.2726],[105.5448,-4.1993,24.2255],[105.5522,-4.2014,4.7324],[105.5901,-4.2192,20.5646],[105.5987,-4.2259,23.0739],[105.5995,-4.2189,20.9276],[105.607,-4.22,25.1669],[105.6079,-4.2361,19.9497],[105.6101,-4.2419,25.4065],[105.6159,-4.2442,29.7652],[105.6158,-4.2568,39.6717],[105.6126,-4.2621,1.9083],[105.6179,-4.2711,3.1898],[105.6176,-4.2786,1.7799],[105.62,-4.2833,3.2492],[105.615,-4.2907,2.5964],[105.6101,-4.2861,1.8928],[105.6083,-4.2814,5.786],[105.6027,-4.282,5.5989],[105.5981,-4.2936,1.6873],[105.5991,-4.2969,2.2697],[105.6035,-4.3,5.3712],[105.6002,-4.3071,3.151],[105.6023,-4.3125,4.1921],[105.6076,-4.313,1.7189],[105.6149,-4.3076,2.9014],[105.619,-4.3073,2.334],[105.624,-4.3035,4.7493],[105.6278,-4.2971,5.6211],[105.6365,-4.2939,3.7128],[105.638,-4.2843,5.1654],[105.6351,-4.2807,4.7801],[105.6417,-4.2727,2.5689],[105.6467,-4.2731,2.6577],[105.6514,-4.2758,4.1046]]]]}}