{"type":"Feature","properties":{"GID_3":"IDN.10.17.15_1","GID_0":"IDN","country":"Indonesia","GID_1":"IDN.10_1","province":"JawaTengah","NL_NAME_1":"NA","GID_2":"IDN.10.17_1","county":"KotaSemarang","NL_NAME_2":"NA","city":"Tembalang","VARNAME_3":"NA","NL_NAME_3":"NA","TYPE_3":"Kecamatan","ENGTYPE_3":"Sub-district","CC_3":"3374070","HASC_3":"NA","name":"Tembalang.city"},
"geometry":{"type": "MultiPolygon","coordinates": [[[[110.5005,-7.0673,40.8712],[110.4994,-7.0633,36.3739],[110.4955,-7.0634,48.1344],[110.4914,-7.0603,74.9043],[110.491,-7.0553,30.9182],[110.4867,-7.0501,31.5355],[110.4855,-7.0551,50.1905],[110.4808,-7.0574,32.6254],[110.4812,-7.053,32.2221],[110.4833,-7.0511,31.0496],[110.4849,-7.0517,32.851],[110.4846,-7.0533,33.2372],[110.486,-7.052,35.5126],[110.4853,-7.0496,30.3301],[110.4829,-7.0484,30.9181],[110.4826,-7.0462,31.1235],[110.4839,-7.0456,30.5633],[110.4812,-7.0444,31.9188],[110.4848,-7.0435,29.8969],[110.4831,-7.0424,30.1634],[110.4836,-7.0406,27.433],[110.481,-7.0397,26.4363],[110.4818,-7.0379,28.3846],[110.4787,-7.0269,22.3572],[110.475,-7.0206,20.2781],[110.47,-7.0167,21.1287],[110.4623,-7.014,16.1196],[110.4613,-7.0115,13.6427],[110.4495,-7.0061,10.0765],[110.445,-7.0109,15.2947],[110.442,-7.0182,49.9859],[110.4357,-7.0221,80.1731],[110.4313,-7.03,108.6268],[110.4291,-7.0311,113.3318],[110.4323,-7.0347,108.817],[110.4349,-7.0454,186.1841],[110.4331,-7.0511,215.8262],[110.4299,-7.0533,208.8013],[110.4322,-7.054,209.0926],[110.436,-7.0629,206.3503],[110.4381,-7.064,207.4104],[110.4373,-7.067,204.1656],[110.4347,-7.0684,200.7395],[110.4414,-7.0719,196.3661],[110.4428,-7.0735,191.1738],[110.442,-7.0756,167.4212],[110.4452,-7.0771,145.6011],[110.4536,-7.0794,59.5645],[110.4678,-7.0794,60.6052],[110.4766,-7.0835,168.6084],[110.4776,-7.0854,151.6866],[110.4892,-7.0773,47.5417],[110.4953,-7.0712,43.5187],[110.4955,-7.0682,42.0121],[110.4972,-7.0678,41.1033],[110.4984,-7.0694,39.996],[110.4978,-7.0673,41.1923],[110.5005,-7.0673,40.8712]]]]}}