{"type":"Feature","properties":{"GID_2":"IDN.11.29_1","GID_0":"IDN","country":"Indonesia","GID_1":"IDN.11_1","province":"JawaTimur","NL_NAME_1":"NA","county":"Ponorogo","VARNAME_2":"NA","NL_NAME_2":"NA","TYPE_2":"Kabupaten","ENGTYPE_2":"Regency","CC_2":"3502","HASC_2":"ID.JI.PG","name":"Ponorogo.county"},
"geometry":{"type": "MultiPolygon","coordinates": [[[[111.4224,-8.1695,282.7615],[111.4274,-8.171,255.0414],[111.4323,-8.17,297.3617],[111.4378,-8.1632,267.9996],[111.4396,-8.1656,301.5553],[111.4493,-8.1667,369.3952],[111.4504,-8.1687,409.5993],[111.4552,-8.1675,383.0063],[111.4586,-8.1688,385.7895],[111.465,-8.1755,525.0243],[111.4752,-8.1713,707.9981],[111.476,-8.1656,720.7184],[111.4736,-8.158,668.9466],[111.4748,-8.1505,848.1503],[111.4723,-8.143,878.277],[111.4762,-8.1419,894.1213],[111.4762,-8.1397,890.6071],[111.4787,-8.1373,905.5366],[111.4788,-8.1294,975.3264],[111.483,-8.1259,952.2916],[111.4834,-8.1232,950.2334],[111.4794,-8.1176,990.6449],[111.4825,-8.1142,999.9937],[111.4826,-8.1088,1046.8505],[111.4875,-8.1078,944.5328],[111.4934,-8.1096,989.1686],[111.5005,-8.1095,901.6385],[111.5025,-8.1133,1009.5243],[111.5047,-8.1139,1015.442],[111.5064,-8.1128,973.6241],[111.5052,-8.1095,918.5013],[111.5062,-8.1066,906.4512],[111.5163,-8.1098,1004.6693],[111.5225,-8.1084,1019.1906],[111.5284,-8.1012,991.0446],[111.5257,-8.0924,959.3222],[111.5279,-8.0892,940.1553],[111.527,-8.0812,953.8235],[111.5429,-8.0691,810.8539],[111.5335,-8.0626,955.3049],[111.5341,-8.0601,911.2544],[111.54,-8.0564,701.2417],[111.5428,-8.0569,664.295],[111.5448,-8.0547,637.4597],[111.5539,-8.0562,512.8278],[111.5565,-8.0538,498.9543],[111.5572,-8.0499,420.108],[111.5637,-8.0496,448.3547],[111.5653,-8.0479,375.7155],[111.5731,-8.048,312.9492],[111.5743,-8.0401,268.7776],[111.5781,-8.0382,224.8949],[111.5814,-8.0263,491.9274],[111.5867,-8.0237,565.2334],[111.5895,-8.0204,591.2349],[111.5963,-8.0175,521.9902],[111.6063,-8.0193,310.4347],[111.6078,-8.0182,261.295],[111.6066,-8.0123,320.2346],[111.6086,-8.0105,310.4683],[111.625,-8.0075,326.4021],[111.6307,-8.0036,410.5933],[111.6336,-8.0043,420.4033],[111.6356,-8.0079,435.216],[111.6469,-8.0124,383.4109],[111.6451,-8.0157,282.5423],[111.6476,-8.022,140.6536],[111.6533,-8.0205,148.6128],[111.657,-8.0044,281.8278],[111.6558,-7.9982,439.5538],[111.657,-7.9927,338.3394],[111.6534,-7.9834,395.8871],[111.6563,-7.9759,590.9712],[111.661,-7.9754,626.2729],[111.6617,-7.9717,631.1596],[111.6606,-7.9691,659.5759],[111.6537,-7.9665,656.7974],[111.6475,-7.9686,693.9729],[111.6384,-7.9661,667.3593],[111.6367,-7.9642,610.2333],[111.6377,-7.9608,551.1162],[111.6553,-7.9407,698.1097],[111.6592,-7.9452,751.9506],[111.6633,-7.9432,707.481],[111.6695,-7.9448,730.6471],[111.678,-7.9413,779.571],[111.6918,-7.931,847.3243],[111.6929,-7.9287,859.5087],[111.6913,-7.9221,733.9456],[111.6921,-7.9196,692.7633],[111.7004,-7.9139,832.2562],[111.7045,-7.9067,843.6736],[111.702,-7.9016,651.6657],[111.6992,-7.8996,585.4105],[111.7013,-7.8962,625.7867],[111.707,-7.8974,650.1158],[111.7105,-7.8946,687.6769],[111.7129,-7.8963,774.3387],[111.7325,-7.8949,1053.251],[111.7346,-7.8923,1058.3215],[111.7434,-7.8885,1111.7255],[111.7501,-7.8909,1039.5929],[111.7519,-7.8973,935.4944],[111.7549,-7.8974,925.8649],[111.7534,-7.9,901.1094],[111.7544,-7.9027,881.8326],[111.7529,-7.9035,917.9286],[111.7547,-7.908,896.5185],[111.7584,-7.9062,876.1786],[111.7578,-7.9023,883.077],[111.7606,-7.9007,894.8403],[111.7561,-7.8987,924.9139],[111.7578,-7.8965,1005.7804],[111.7561,-7.8961,976.5887],[111.7561,-7.8932,972.7158],[111.7587,-7.8948,985.9736],[111.7612,-7.8904,1024.0767],[111.7641,-7.8905,1037.7063],[111.7711,-7.8868,1103.9377],[111.7711,-7.8829,1160.1018],[111.7692,-7.8817,1195.1124],[111.7706,-7.8805,1165.4551],[111.7696,-7.8789,1177.0736],[111.7717,-7.879,1199.3132],[111.7717,-7.8724,1258.6788],[111.7786,-7.8651,1333.6931],[111.7768,-7.8619,1399.8904],[111.7731,-7.86,1614.9255],[111.7714,-7.8561,1789.8469],[111.7808,-7.839,1994.8129],[111.7853,-7.8357,2207.8518],[111.7849,-7.83,2217.2754],[111.7788,-7.8219,2211.291],[111.7733,-7.8202,2070.6692],[111.7688,-7.8241,2099.3145],[111.7664,-7.8236,2155.2893],[111.7645,-7.8176,2383.7014],[111.7584,-7.811,2423.082],[111.756,-7.8038,2377.0596],[111.7522,-7.801,2312.0527],[111.7477,-7.8039,1834.6141],[111.7328,-7.8013,2082.2896],[111.7267,-7.8058,1616.7314],[111.7236,-7.8115,1855.4993],[111.7208,-7.8135,1833.1809],[111.7105,-7.8141,1515.672],[111.7002,-7.8121,1426.2633],[111.6931,-7.8079,1563.7401],[111.6955,-7.8012,1556.3168],[111.6906,-7.7914,1476.8115],[111.676,-7.7844,1047.7928],[111.6751,-7.7826,1005.8989],[111.6782,-7.7779,957.5971],[111.6778,-7.7744,914.7159],[111.6691,-7.769,1194.4504],[111.6614,-7.7669,1517.3749],[111.6578,-7.7673,1395.0482],[111.6527,-7.773,1153.6201],[111.6416,-7.7708,908.3615],[111.6378,-7.7745,860.2664],[111.6354,-7.7738,804.2926],[111.6272,-7.7771,678.9246],[111.6246,-7.7767,654.2744],[111.6195,-7.7802,634.84],[111.6152,-7.7794,595.2821],[111.6099,-7.7816,576.0126],[111.6046,-7.7813,514.9407],[111.6008,-7.7777,480.0613],[111.6,-7.7867,492.3745],[111.5934,-7.7905,422.4998],[111.592,-7.7954,422.8126],[111.5816,-7.8023,326.0715],[111.5736,-7.8049,287.9591],[111.5685,-7.8016,276.1146],[111.5583,-7.8018,234.6989],[111.5577,-7.7999,243.6959],[111.5543,-7.7992,221.7352],[111.55029999999999,-7.7997,206.8843],[111.5507,-7.8046,212.3319],[111.5473,-7.8031,208.8093],[111.5293,-7.8033,167.2273],[111.5237,-7.8017,146.9088],[111.5223,-7.7993,141.5291],[111.5173,-7.8004,143.6649],[111.5121,-7.7986,128.5796],[111.5086,-7.7994,124.7728],[111.5054,-7.7967,126.4594],[111.4975,-7.7949,122.2726],[111.4948,-7.7891,117.4413],[111.4891,-7.7888,116.3536],[111.4798,-7.7852,107.1995],[111.4756,-7.7828,104.6497],[111.4742,-7.7793,101.0851],[111.4674,-7.777,98.9529],[111.4605,-7.7797,93.7383],[111.4579,-7.7788,91.7093],[111.4553,-7.7841,90.8538],[111.4507,-7.7812,89.4986],[111.4499,-7.779,90.7849],[111.4427,-7.7791,93.6469],[111.4351,-7.7765,97.757],[111.4279,-7.776,104.0465],[111.3642,-7.784,192.1763],[111.3437,-7.7833,248.8706],[111.3379,-7.7892,247.1919],[111.3309,-7.7872,266.3515],[111.3277,-7.7888,277.6266],[111.3204,-7.7878,308.1683],[111.3186,-7.7864,325.5572],[111.3148,-7.7922,317.9361],[111.3054,-7.7969,331.85],[111.301,-7.7971,342.9423],[111.2961,-7.7942,361.8516],[111.2899,-7.794,380.701],[111.2986,-7.8013,450.2618],[111.3008,-7.8115,448.0533],[111.3049,-7.8147,402.4424],[111.3039,-7.8181,429.6273],[111.3069,-7.8242,533.178],[111.3038,-7.8313,622.6338],[111.3056,-7.8347,528.1548],[111.3058,-7.8411,571.9683],[111.3144,-7.8431,374.5313],[111.3188,-7.8485,309.3764],[111.3179,-7.8505,349.4097],[111.3193,-7.8544,409.1649],[111.3075,-7.8587,192.9544],[111.2997,-7.8599,192.5858],[111.2978,-7.862,168.0336],[111.2967,-7.8704,321.5503],[111.2994,-7.8785,448.9106],[111.2926,-7.888,359.0435],[111.2879,-7.9007,373.3529],[111.2879,-7.9062,508.7325],[111.2734,-7.9242,378.3416],[111.2746,-7.9315,411.1853],[111.2733,-7.9374,545.9608],[111.2988,-7.941,899.7994],[111.3072,-7.936,671.665],[111.3143,-7.9352,815.5458],[111.3163,-7.9363,900.0482],[111.3176,-7.9408,935.6074],[111.3225,-7.9449,912.7291],[111.3226,-7.9498,959.3489],[111.3265,-7.9552,941.025],[111.3254,-7.9606,906.5148],[111.327,-7.9678,930.3622],[111.3323,-7.968,948.7827],[111.3369,-7.972,902.5385],[111.3393,-7.9724,893.0933],[111.3403,-7.9755,856.1974],[111.3498,-7.977,743.0717],[111.3537,-7.9807,655.2545],[111.3554,-7.9841,407.3067],[111.3561,-8.0003,393.5633],[111.351,-8.0058,641.7211],[111.3492,-8.021,680.8233],[111.3618,-8.0296,535.869],[111.3645,-8.0289,451.9504],[111.3668,-8.0308,421.9745],[111.3671,-8.033,399.7979],[111.361,-8.0402,545.8458],[111.3589,-8.0464,664.8934],[111.3538,-8.0492,687.8509],[111.3533,-8.0594,688.5637],[111.3463,-8.0662,768.5608],[111.3472,-8.0727,676.9573],[111.3498,-8.0757,670.2847],[111.3548,-8.0773,677.2316],[111.3544,-8.0809,699.1816],[111.3518,-8.0823,688.7305],[111.3545,-8.0848,716.8085],[111.3544,-8.0889,563.4757],[111.352,-8.0927,532.7407],[111.3544,-8.0932,578.0329],[111.3583,-8.0994,685.7269],[111.36,-8.1065,948.2817],[111.3543,-8.1087,772.9062],[111.3511,-8.1056,803.5377],[111.3478,-8.1072,783.9113],[111.3464,-8.1086,792.5584],[111.3472,-8.1142,837.8002],[111.3528,-8.117,652.0889],[111.3551,-8.1161,595.0666],[111.3559,-8.1207,571.3594],[111.3572,-8.1192,591.2024],[111.3588,-8.1201,617.0825],[111.3615,-8.1189,627.6829],[111.3638,-8.1224,760.4865],[111.3679,-8.1237,672.6332],[111.3688,-8.1308,432.2503],[111.3743,-8.1327,395.3837],[111.3763,-8.1361,364.4224],[111.3799,-8.1365,318.3148],[111.38,-8.1403,274.7539],[111.3787,-8.141,274.7539],[111.3808,-8.1438,320.1244],[111.3791,-8.1445,261.6216],[111.3807,-8.1456,302.293],[111.3796,-8.1483,262.8758],[111.3814,-8.1485,242.3186],[111.3784,-8.151,285.9203],[111.3805,-8.1536,277.144],[111.38,-8.1551,205.0892],[111.376,-8.1553,212.8929],[111.379,-8.1577,181.4299],[111.3777,-8.1597,225.3179],[111.3803,-8.1632,266.4769],[111.382,-8.1642,149.4191],[111.3847,-8.16,354.2062],[111.3932,-8.1595,655.4729],[111.3935,-8.1634,498.709],[111.398,-8.1646,554.1836],[111.398,-8.1667,492.8174],[111.4051,-8.1725,199.0852],[111.4108,-8.1709,183.7443],[111.4155,-8.1719,323.5368],[111.4177,-8.1688,244.9888],[111.4214,-8.1716,241.6877],[111.4224,-8.1695,282.7615]]]]}}