{"type":"Feature","properties":{"GID_3":"IDN.9.15.9_1","GID_0":"IDN","country":"Indonesia","GID_1":"IDN.9_1","province":"JawaBarat","NL_NAME_1":"NA","GID_2":"IDN.9.15_1","county":"KotaBekasi","NL_NAME_2":"NA","city":"Mustikajaya","VARNAME_3":"NA","NL_NAME_3":"NA","TYPE_3":"Kecamatan","ENGTYPE_3":"Sub-district","CC_3":"3275031","HASC_3":"NA","name":"Mustikajaya.city"},
"geometry":{"type": "MultiPolygon","coordinates": [[[[107.028,-6.3303,35.0123],[107.0325,-6.3231,35.233],[107.0371,-6.3215,36.307],[107.0367,-6.3178,37.1818],[107.0383,-6.3168,37.1818],[107.0371,-6.3141,38.5533],[107.0395,-6.3092,40.9234],[107.0411,-6.3094,38.673],[107.0412,-6.3075,39.285],[107.0383,-6.3063,30.0676],[107.0409,-6.2961,32.3511],[107.0401,-6.2879,30.0729],[107.0375,-6.2837,28.3473],[107.0314,-6.2821,21.9963],[107.0281,-6.2779,22.0785],[107.0225,-6.2804,24.5361],[107.0212,-6.2776,26.5769],[107.0166,-6.2761,28.1438],[107.0141,-6.2799,24.3965],[107.0097,-6.2835,28.7274],[107.0058,-6.284,28.0647],[107.0036,-6.2872,27.3199],[106.9973,-6.3003,31.7339],[106.9931,-6.3054,31.619],[106.9976,-6.3061,28.2172],[106.9964,-6.3087,27.0812],[106.988,-6.3182,33.6521],[106.9853,-6.327,39.4975],[106.9961,-6.329,41.1752],[107.0023,-6.3325,39.185],[107.0057,-6.3305,35.7324],[107.0159,-6.3389,41.9003],[107.0174,-6.3297,35.7421],[107.021,-6.328,41.4037],[107.028,-6.3303,35.0123]]]]}}