{"type":"Feature","properties":{"GID_3":"IDN.10.19.6_1","GID_0":"IDN","country":"Indonesia","GID_1":"IDN.10_1","province":"JawaTengah","NL_NAME_1":"NA","GID_2":"IDN.10.19_1","county":"Kudus","NL_NAME_2":"NA","city":"Kaliwungu","VARNAME_3":"NA","NL_NAME_3":"NA","TYPE_3":"Kecamatan","ENGTYPE_3":"Sub-district","CC_3":"3319010","HASC_3":"NA","name":"Kaliwungu.city"},
"geometry":{"type": "MultiPolygon","coordinates": [[[[110.8062,-6.8139,6.6463],[110.807,-6.8123,6.8228],[110.8144,-6.8126,8.5566],[110.8147,-6.8145,7.7278],[110.812,-6.8153,6.9059],[110.8114,-6.817,6.443],[110.8137,-6.8175,6.7992],[110.8146,-6.8154,6.794],[110.8208,-6.8115,14.8655],[110.8239,-6.8022,20.2034],[110.8272,-6.8033,22.5838],[110.8299,-6.798,23.6106],[110.834,-6.8,24.5678],[110.8348,-6.7983,26.8096],[110.8311,-6.7941,29.266],[110.8318,-6.7924,32.2749],[110.8343,-6.7919,32.928],[110.8385,-6.7968,29.7278],[110.8375,-6.795,31.7655],[110.8394,-6.7952,31.7104],[110.8398,-6.791,34.3017],[110.8367,-6.7901,34.9715],[110.8367,-6.7857,38.3033],[110.8321,-6.7846,37.243],[110.8339,-6.7864,37.8927],[110.8337,-6.7899,34.3773],[110.8286,-6.7886,28.4398],[110.8259,-6.7934,21.3137],[110.8186,-6.793,20.2646],[110.8171,-6.7863,22.0142],[110.8186,-6.7839,25.8353],[110.8174,-6.7856,24.1782],[110.8154,-6.7849,22.1064],[110.816,-6.7804,26.5654],[110.809,-6.7798,25.5656],[110.8093,-6.7772,26.2673],[110.8011,-6.7731,26.4927],[110.802,-6.7699,30.1863],[110.7975,-6.7683,26.649],[110.7984,-6.7655,30.7051],[110.7959,-6.7618,26.9242],[110.7988,-6.7582,33.9624],[110.7928,-6.7528,30.0693],[110.7903,-6.7549,24.6731],[110.7902,-6.7568,26.8412],[110.7875,-6.7564,25.32],[110.7869,-6.759,21.5576],[110.785,-6.7589,19.955],[110.7836,-6.7613,19.4518],[110.7815,-6.7598,13.8483],[110.7808,-6.7622,15.5396],[110.7785,-6.7618,14.136],[110.7675,-6.7698,13.457],[110.7644,-6.7829,9.9758],[110.7636,-6.7848,9.5034],[110.762,-6.7843,7.4658],[110.7592,-6.7915,6.5207],[110.7699,-6.8016,4.7737],[110.7779,-6.8023,5.7087],[110.7808,-6.8042,5.3498],[110.7834,-6.8069,6.1889],[110.7866,-6.8155,6.7546],[110.7902,-6.817,7.476],[110.7963,-6.8282,4.6747],[110.7986,-6.8211,4.9204],[110.7974,-6.8181,5.0896],[110.8031,-6.8142,7.4331],[110.8053,-6.815,7.7144],[110.8062,-6.8139,6.6463]]]]}}