{"type":"Feature","properties":{"GID_3":"IDN.9.7.7_1","GID_0":"IDN","country":"Indonesia","GID_1":"IDN.9_1","province":"JawaBarat","NL_NAME_1":"NA","GID_2":"IDN.9.7_1","county":"Cianjur","NL_NAME_2":"NA","city":"Cibinong","VARNAME_3":"NA","NL_NAME_3":"NA","TYPE_3":"Kecamatan","ENGTYPE_3":"Sub-district","CC_3":"3203050","HASC_3":"NA","name":"Cibinong.city"},
"geometry":{"type": "MultiPolygon","coordinates": [[[[107.1267,-7.3974,163.016],[107.1267,-7.3934,184.8847],[107.1293,-7.3909,176.9435],[107.1361,-7.3917,180.8487],[107.1432,-7.3987,158.3843],[107.1586,-7.3967,21.1006],[107.1609,-7.3949,29.4615],[107.1606,-7.3919,110.3083],[107.1633,-7.3899,173.3523],[107.1629,-7.3867,245.0948],[107.1657,-7.3836,258.7379],[107.1666,-7.3794,288.6396],[107.1706,-7.375,334.1101],[107.1788,-7.3702,183.3548],[107.1898,-7.3669,344.2001],[107.1975,-7.3689,129.3229],[107.195,-7.364,177.0708],[107.1962,-7.3621,113.6189],[107.194,-7.3608,137.1702],[107.1959,-7.3568,111.5568],[107.1976,-7.3565,123.6067],[107.1945,-7.3545,209.3418],[107.1966,-7.352,136.9326],[107.1941,-7.3447,143.8847],[107.1956,-7.3424,144.0382],[107.1908,-7.3368,176.6165],[107.1907,-7.3332,183.3276],[107.1936,-7.3281,196.1013],[107.1963,-7.3292,203.1785],[107.1985,-7.3278,207.9478],[107.1946,-7.3242,232.9746],[107.1966,-7.3219,216.7405],[107.1943,-7.3203,230.4919],[107.1958,-7.3187,222.1343],[107.1985,-7.3209,239.6733],[107.1987,-7.3187,245.2773],[107.2004,-7.318,271.5461],[107.2008,-7.3145,248.9361],[107.1992,-7.311,272.2352],[107.2014,-7.303,297.5424],[107.1994,-7.2983,342.1917],[107.2012,-7.2923,338.0467],[107.2085,-7.2897,343.5744],[107.2117,-7.2903,362.9018],[107.2146,-7.288,380.7705],[107.2153,-7.2833,397.7421],[107.2173,-7.281,399.14],[107.2158,-7.277,435.3151],[107.219,-7.2728,460.5995],[107.2253,-7.2739,473.1562],[107.2362,-7.2678,559.1964],[107.2409,-7.2625,653.548],[107.2425,-7.2624,694.3268],[107.2481,-7.2518,708.9534],[107.258,-7.2516,756.6299],[107.2621,-7.25,796.4783],[107.2651,-7.2466,815.2267],[107.2716,-7.2456,868.0882],[107.2772,-7.2417,874.856],[107.2848,-7.2417,942.9663],[107.2893,-7.2377,987.2712],[107.2899,-7.2294,1011.9858],[107.2961,-7.2242,1076.1598],[107.2949,-7.2236,1031.8938],[107.2976,-7.2188,1078.4043],[107.3021,-7.2182,1135.7106],[107.3026,-7.2153,1103.8658],[107.3072,-7.213,1121.7026],[107.3079,-7.2101,1177.0789],[107.3065,-7.2074,1260.4855],[107.3016,-7.2094,1275.364],[107.2824,-7.2076,1078.0813],[107.2577,-7.2088,1185.6415],[107.2486,-7.2061,1069.6578],[107.2405,-7.2084,1182.6831],[107.2384,-7.2127,1126.3007],[107.2301,-7.2159,969.952],[107.223,-7.2244,927.9028],[107.2208,-7.2362,998.7322],[107.2169,-7.2394,996.1862],[107.2153,-7.2502,934.5823],[107.2006,-7.2574,910.8723],[107.199,-7.2628,870.8604],[107.1942,-7.2652,834.3641],[107.1835,-7.2804,798.9073],[107.1742,-7.2782,784.485],[107.1687,-7.2909,723.4603],[107.1642,-7.2941,723.595],[107.1568,-7.2945,735.9455],[107.1488,-7.2921,711.7666],[107.1353,-7.2951,617.8981],[107.1243,-7.292,590.3952],[107.1186,-7.2837,501.1471],[107.0977,-7.2868,573.322],[107.0912,-7.2842,464.4118],[107.0766,-7.2833,540.4957],[107.0811,-7.2928,490.9603],[107.0829,-7.3009,404.2329],[107.0798,-7.3068,393.4703],[107.0796,-7.3108,308.3254],[107.0769,-7.3134,274.4957],[107.0761,-7.3185,423.7697],[107.0698,-7.3226,424.1933],[107.0668,-7.3279,407.7245],[107.0683,-7.3375,302.2062],[107.0717,-7.3376,317.7072],[107.0724,-7.3413,248.7416],[107.0645,-7.3435,325.5289],[107.0619,-7.3541,272.4031],[107.0584,-7.3554,241.6639],[107.053,-7.3548,245.9],[107.0505,-7.3582,199.3324],[107.0483,-7.375,160.114],[107.0501,-7.3777,152.7443],[107.0466,-7.3853,67.6516],[107.0476,-7.3908,32.6261],[107.0526,-7.3964,69.6514],[107.0591,-7.3986,39.3913],[107.0732,-7.411,73.3935],[107.0771,-7.4109,89.2467],[107.0798,-7.4054,105.3388],[107.0823,-7.4039,98.3098],[107.0848,-7.4038,125.8271],[107.0877,-7.4062,111.0261],[107.0876,-7.4114,55.0507],[107.076,-7.4261,22.9631],[107.077,-7.4286,19.6745],[107.0755,-7.4295,9.2491],[107.0773,-7.4296,12.9573],[107.0763,-7.4302,12.9573],[107.0784,-7.4336,13.6591],[107.0846,-7.4366,11.4216],[107.0883,-7.4343,25.6232],[107.0991,-7.4371,9.0368],[107.1,-7.4363,9.0368],[107.0982,-7.4355,38.45],[107.1007,-7.4338,6.4242],[107.101,-7.4382,22.0696],[107.1072,-7.4368,9.0299],[107.109,-7.4389,7.7096],[107.1124,-7.4383,12.6823],[107.1126,-7.4363,11.4619],[107.1139,-7.4373,7.3144],[107.1147,-7.4338,17.4474],[107.1118,-7.4267,15.7716],[107.1131,-7.4209,55.1953],[107.1123,-7.4194,28.6678],[107.1079,-7.4198,49.9665],[107.1083,-7.4147,40.5761],[107.1109,-7.4127,31.6695],[107.1133,-7.4141,35.6171],[107.1163,-7.4121,43.2628],[107.1186,-7.4138,38.7407],[107.1189,-7.412,51.1588],[107.1256,-7.4099,74.4297],[107.1279,-7.4015,135.9999],[107.1267,-7.3974,163.016]]]]}}