{"type":"Feature","properties":{"GID_3":"IDN.9.23.21_1","GID_0":"IDN","country":"Indonesia","GID_1":"IDN.9_1","province":"JawaBarat","NL_NAME_1":"NA","GID_2":"IDN.9.23_1","county":"Subang","NL_NAME_2":"NA","city":"Patokbeusi","VARNAME_3":"NA","NL_NAME_3":"NA","TYPE_3":"Kecamatan","ENGTYPE_3":"Sub-district","CC_3":"3213110","HASC_3":"NA","name":"Patokbeusi.city"},
"geometry":{"type": "MultiPolygon","coordinates": [[[[107.5347,-6.415,36.2517],[107.5405,-6.4166,35.8736],[107.5455,-6.4122,34.3224],[107.5472,-6.4124,33.9458],[107.5478,-6.4106,33.5205],[107.5504,-6.4107,33.3636],[107.5517,-6.4061,32.605],[107.5558,-6.4081,32.6014],[107.556,-6.405,32.0624],[107.553,-6.402,32.3042],[107.5547,-6.3995,31.4201],[107.5565,-6.4013,31.5545],[107.5663,-6.401,29.5144],[107.5708,-6.4036,29.433],[107.5726,-6.4081,29.2791],[107.5772,-6.4031,28.5583],[107.5772,-6.3997,28.4381],[107.5749,-6.3984,28.3778],[107.5772,-6.392,27.7928],[107.5761,-6.3914,27.7928],[107.591,-6.3852,24.8318],[107.5994,-6.3895,22.8417],[107.6022,-6.3877,21.9139],[107.6056,-6.39,21.6185],[107.6074,-6.3886,21.1214],[107.6385,-6.4023,21.2937],[107.6411,-6.3931,18.316],[107.643,-6.3956,18.4477],[107.6443,-6.3945,18.7567],[107.6434,-6.3924,18.0261],[107.6454,-6.3907,16.6151],[107.6451,-6.389,17.0299],[107.6462,-6.3898,17.6121],[107.6461,-6.3886,18.7],[107.6552,-6.3858,18.8183],[107.6528,-6.3889,19.1739],[107.6561,-6.3999,20.0099],[107.6637,-6.3996,16.5331],[107.6686,-6.4021,16.2822],[107.6713,-6.3943,20.6433],[107.6766,-6.3938,23.545],[107.6796,-6.3883,14.6111],[107.6843,-6.3874,16.8124],[107.684,-6.3842,17.0161],[107.6867,-6.3782,16.9492],[107.6922,-6.3799,15.3772],[107.6949,-6.3833,10.0677],[107.6977,-6.3822,9.0484],[107.7115,-6.3838,9.1148],[107.7101,-6.3729,9.0576],[107.7129,-6.3632,5.7382],[107.7073,-6.3581,5.7522],[107.7041,-6.3593,7.1489],[107.6953,-6.3572,8.3844],[107.6959,-6.3544,9.7208],[107.6873,-6.3558,11.1983],[107.6853,-6.3532,10.111],[107.6797,-6.3562,10.0669],[107.6796,-6.3526,11.0586],[107.671,-6.3556,10.8403],[107.6645,-6.3549,13.882],[107.6646,-6.3574,15.2433],[107.6589,-6.3612,13.0874],[107.6571,-6.3654,16.6883],[107.6451,-6.3553,17.1565],[107.6575,-6.3534,14.9312],[107.6546,-6.3405,17.404],[107.632,-6.3397,15.6183],[107.6228,-6.3444,16.5202],[107.6224,-6.3464,17.3495],[107.6185,-6.3469,17.2392],[107.616,-6.3259,15.3934],[107.6089,-6.3248,15.952],[107.5989,-6.3201,17.3715],[107.579,-6.3208,16.5774],[107.5755,-6.3274,21.1572],[107.5763,-6.3284,19.9014],[107.5715,-6.3305,20.3015],[107.5704,-6.3328,18.3027],[107.5728,-6.333,17.7901],[107.568,-6.3363,20.099],[107.5685,-6.3388,19.1294],[107.5707,-6.3373,19.983],[107.5705,-6.341,20.1563],[107.5629,-6.3499,21.9753],[107.5654,-6.3527,23.2218],[107.5622,-6.3551,22.9975],[107.562,-6.3587,22.9742],[107.5594,-6.3589,24.4626],[107.5581,-6.3646,24.484],[107.5558,-6.3651,24.3859],[107.555,-6.3627,24.3044],[107.5535,-6.3633,23.0756],[107.5534,-6.3658,23.6069],[107.5487,-6.3712,25.7761],[107.5483,-6.3795,27.251],[107.543,-6.3819,29.0854],[107.5421,-6.3847,29.1063],[107.5378,-6.387,28.6937],[107.5397,-6.4034,37.9094],[107.5371,-6.405,40.9257],[107.5347,-6.415,36.2517]]]]}}