{"type":"Feature","properties":{"GID_3":"IDN.11.1.7_1","GID_0":"IDN","country":"Indonesia","GID_1":"IDN.11_1","province":"JawaTimur","NL_NAME_1":"NA","GID_2":"IDN.11.1_1","county":"Bangkalan","NL_NAME_2":"NA","city":"Kamal","VARNAME_3":"NA","NL_NAME_3":"NA","TYPE_3":"Kecamatan","ENGTYPE_3":"Sub-district","CC_3":"3526010","HASC_3":"NA","name":"Kamal.city"},
"geometry":{"type": "MultiPolygon","coordinates": [[[[112.7287,-7.1705,5.4126],[112.7401,-7.1713,0.0],[112.7471,-7.1695,29.2903],[112.747,-7.1677,50.7431],[112.7445,-7.169,29.3832],[112.7404,-7.1653,48.6408],[112.7515,-7.1536,64.4654],[112.7466,-7.1459,43.4029],[112.7492,-7.1396,45.9837],[112.7512,-7.1391,41.1948],[112.7517,-7.1333,34.2295],[112.7562,-7.1318,28.3328],[112.7543,-7.1275,23.5955],[112.7677,-7.1268,51.1244],[112.7669,-7.1246,49.7257],[112.7684,-7.1228,47.5903],[112.7659,-7.122,44.1678],[112.7659,-7.1174,52.9279],[112.7621,-7.1172,49.8338],[112.7631,-7.1132,64.3185],[112.762,-7.1064,39.8722],[112.7533,-7.1061,52.4253],[112.7531,-7.1039,49.9045],[112.7439,-7.1007,59.9166],[112.7448,-7.0982,51.1561],[112.7416,-7.0976,52.6336],[112.7408,-7.099,57.67],[112.7368,-7.0972,59.1179],[112.7302,-7.1112,6.1183],[112.7192,-7.1098,4.1194],[112.7167,-7.1119,2.3798],[112.7126,-7.1118,1.266],[112.7046,-7.1093,2.493],[112.699,-7.1299,2.0639],[112.6918,-7.1477,1.3282],[112.6917,-7.1551,2.1283],[112.6951,-7.1567,0.835],[112.7034,-7.1659,0.0],[112.7185,-7.1716,0.4228],[112.7224,-7.1757,0.0],[112.7287,-7.1705,5.4126]]]]}}