{"type":"Feature","properties":{"GID_3":"IDN.9.15.3_1","GID_0":"IDN","country":"Indonesia","GID_1":"IDN.9_1","province":"JawaBarat","NL_NAME_1":"NA","GID_2":"IDN.9.15_1","county":"KotaBekasi","NL_NAME_2":"NA","city":"BekasiSelatan","VARNAME_3":"NA","NL_NAME_3":"NA","TYPE_3":"Kecamatan","ENGTYPE_3":"Sub-district","CC_3":"3275050","HASC_3":"NA","name":"Bekasi_Selatan.city"},
"geometry":{"type": "MultiPolygon","coordinates": [[[[106.9573,-6.2564,21.3417],[106.9563,-6.2578,21.03],[106.9567,-6.2739,22.6339],[106.9542,-6.2812,23.3109],[106.9568,-6.2803,26.1717],[106.9607,-6.2815,26.3333],[106.9653,-6.2799,23.5174],[106.9685,-6.2818,31.9359],[106.971,-6.2804,30.569],[106.9743,-6.2814,27.662],[106.9744,-6.2792,26.256],[106.9779,-6.2785,25.4883],[106.9786,-6.2767,23.5407],[106.9834,-6.278,24.7887],[106.9831,-6.2804,25.5635],[106.9845,-6.2806,25.5635],[106.983,-6.2712,26.4752],[106.9858,-6.2699,23.2376],[106.9856,-6.2661,26.0058],[106.9873,-6.2691,21.7554],[106.9892,-6.2683,21.7554],[106.9887,-6.2623,23.1163],[106.9931,-6.2581,21.4524],[106.9939,-6.2529,20.8255],[106.9963,-6.2527,18.2114],[106.9985,-6.2457,19.2826],[107.0003,-6.2452,18.8762],[107.0019,-6.2416,19.2519],[107.0017,-6.2387,18.3177],[106.9841,-6.229,22.6928],[106.9817,-6.2335,19.8969],[106.9795,-6.2331,18.7774],[106.9792,-6.2407,19.535],[106.9767,-6.2434,24.9106],[106.9761,-6.2487,20.5713],[106.963,-6.2552,22.2095],[106.9573,-6.2564,21.3417]]]]}}