{"type":"Feature","properties":{"GID_3":"IDN.23.21.28_1","GID_0":"IDN","country":"Indonesia","GID_1":"IDN.23_1","province":"Papua","NL_NAME_1":"NA","GID_2":"IDN.23.21_1","county":"PegununganBintang","NL_NAME_2":"NA","city":"Sebang","VARNAME_3":"NA","NL_NAME_3":"NA","TYPE_3":"Distrik","ENGTYPE_3":"District","CC_3":"9417026","HASC_3":"NA","name":"Sebang.city"},
"geometry":{"type": "MultiPolygon","coordinates": [[[[140.7388,-4.745,2133.6079],[140.7369,-4.7467,2092.8743],[140.7236,-4.7467,2202.2957],[140.7184,-4.7446,2348.8716],[140.7141,-4.7368,2475.7656],[140.6905,-4.7439,2728.1812],[140.6928,-4.7498,2577.3909],[140.704,-4.7665,2578.7546],[140.7125,-4.7759,2532.7561],[140.723,-4.7803,2687.3213],[140.7348,-4.773,2519.5549],[140.7398,-4.7668,2368.9707],[140.7662,-4.7588,1520.7683],[140.7731,-4.7541,1651.3867],[140.7856,-4.7519,2070.186],[140.7775,-4.7424,1997.4977],[140.7731,-4.7304,1588.9015],[140.7563,-4.7355,1577.0767],[140.7388,-4.745,2133.6079]]]]}}