{"type":"Feature","properties":{"GID_3":"IDN.26.7.10_1","GID_0":"IDN","country":"Indonesia","GID_1":"IDN.26_1","province":"SulawesiSelatan","NL_NAME_1":"NA","GID_2":"IDN.26.7_1","county":"Jeneponto","NL_NAME_2":"NA","city":"Tarowang","VARNAME_3":"NA","NL_NAME_3":"NA","TYPE_3":"Kecamatan","ENGTYPE_3":"Sub-district","CC_3":"7304042","HASC_3":"NA","name":"Tarowang.city"},
"geometry":{"type": "MultiPolygon","coordinates": [[[[119.8614,-5.6235,0.0],[119.8662,-5.6175,1.6263],[119.8667,-5.614,0.0],[119.8647,-5.6127,0.0],[119.865,-5.6104,2.2825],[119.8669,-5.6089,5.757],[119.8706,-5.6109,8.9637],[119.872,-5.6141,3.7281],[119.8749,-5.6138,0.0],[119.8768,-5.608,3.7431],[119.8821,-5.6013,0.0],[119.8881,-5.5958,0.0],[119.8971,-5.5927,1.9021],[119.8997,-5.5879,0.0],[119.9058,-5.583,0.0],[119.9074,-5.5771,2.5637],[119.9048,-5.5722,3.3774],[119.9087,-5.57,5.325],[119.9068,-5.5652,5.7797],[119.908,-5.5645,4.7262],[119.9027,-5.5638,12.1601],[119.9012,-5.5606,11.961],[119.902,-5.559,12.2363],[119.9001,-5.5572,14.9856],[119.8907,-5.5625,32.3846],[119.8828,-5.5567,55.5296],[119.8744,-5.5566,106.6166],[119.8663,-5.5529,204.6511],[119.8642,-5.5546,188.9912],[119.8563,-5.5543,188.5887],[119.858,-5.5578,161.1043],[119.84,-5.5706,133.4753],[119.8326,-5.574,121.7458],[119.8325,-5.5865,94.4229],[119.8255,-5.5979,99.3646],[119.8257,-5.6091,74.3915],[119.8373,-5.6163,42.1664],[119.8405,-5.6155,45.702],[119.8414,-5.6136,48.4021],[119.8428,-5.6164,41.3218],[119.8614,-5.6235,0.0]]]]}}