{"type":"Feature","properties":{"GID_3":"IDN.24.11.10_1","GID_0":"IDN","country":"Indonesia","GID_1":"IDN.24_1","province":"Riau","NL_NAME_1":"NA","GID_2":"IDN.24.11_1","county":"RokanHulu","NL_NAME_2":"NA","city":"RambahSamo","VARNAME_3":"NA","NL_NAME_3":"NA","TYPE_3":"Kecamatan","ENGTYPE_3":"Sub-district","CC_3":"1407030","HASC_3":"NA","name":"Rambah_Samo.city"},
"geometry":{"type": "MultiPolygon","coordinates": [[[[100.4561,0.7561,146.7736],[100.4665,0.755,139.2546],[100.4763,0.7499,82.6086],[100.5041,0.7499,85.1908],[100.519,0.7572,68.1929],[100.5207,0.7584,67.0196],[100.5195,0.76,65.0895],[100.5268,0.7617,62.2379],[100.5395,0.7997,71.0769],[100.5456,0.8406,70.7394],[100.5431,0.8534,89.6877],[100.5358,0.8665,80.6305],[100.5274,0.8721,77.3073],[100.5191,0.8827,57.2924],[100.5125,0.9009,60.3226],[100.5078,0.9045,53.6818],[100.4982,0.9064,51.2455],[100.4889,0.8949,48.6495],[100.479,0.8884,58.4555],[100.4652,0.8899,125.9365],[100.4573,0.8873,79.0339],[100.4492,0.8867,53.3942],[100.4511,0.8924,57.159],[100.4514,0.9032,55.1443],[100.4455,0.9105,45.4128],[100.4474,0.9198,51.235],[100.4424,0.9288,46.2834],[100.4303,0.9278,53.5719],[100.4266,0.9308,48.2796],[100.4264,0.9358,43.1982],[100.422,0.9366,48.3266],[100.4189,0.943,50.0701],[100.4147,0.943,52.1667],[100.4123,0.9377,52.306],[100.4034,0.9433,53.3183],[100.3952,0.927,51.491],[100.3847,0.9145,53.2397],[100.3753,0.8976,59.3202],[100.3637,0.8857,65.7721],[100.343,0.8467,80.2388],[100.3566,0.8331,70.622],[100.3609,0.8252,84.127],[100.3615,0.8164,89.0854],[100.3417,0.7864,198.8574],[100.3214,0.7495,230.2759],[100.336,0.7403,244.4823],[100.3549,0.7138,243.8117],[100.3608,0.7093,275.1568],[100.3664,0.7093,210.3757],[100.3714,0.7144,199.4313],[100.3778,0.714,178.5036],[100.3802,0.7164,172.958],[100.3792,0.7211,138.87],[100.3809,0.7222,173.9713],[100.3883,0.7215,170.2466],[100.3929,0.7155,173.5183],[100.3983,0.7157,179.7777],[100.4016,0.7112,216.6882],[100.4055,0.7123,184.3284],[100.4164,0.7062,150.5139],[100.4218,0.7075,146.3625],[100.4261,0.7111,132.3731],[100.4199,0.7207,135.214],[100.4218,0.7271,92.7416],[100.4298,0.7335,85.6101],[100.4326,0.7337,87.3081],[100.4353,0.7308,100.1906],[100.4423,0.7307,93.5123],[100.4484,0.7399,90.4768],[100.4501,0.7531,120.0975],[100.4561,0.7561,146.7736]]]]}}