{"type":"Feature","properties":{"GID_3":"IDN.32.31.12_1","GID_0":"IDN","country":"Indonesia","GID_1":"IDN.32_1","province":"SumateraUtara","NL_NAME_1":"NA","GID_2":"IDN.32.31_1","county":"TapanuliTengah","NL_NAME_2":"NA","city":"Sibabangun","VARNAME_3":"NA","NL_NAME_3":"NA","TYPE_3":"Kecamatan","ENGTYPE_3":"Sub-district","CC_3":"1204020","HASC_3":"NA","name":"Sibabangun.city"},
"geometry":{"type": "MultiPolygon","coordinates": [[[[98.9413,1.5122,28.7638],[98.9353,1.4853,16.8308],[98.9365,1.4736,13.6513],[98.9492,1.4792,17.0054],[98.9534,1.4786,17.7633],[98.9553,1.4749,18.3021],[98.9613,1.4712,21.2552],[98.9653,1.473,21.5639],[98.9824,1.4699,24.6123],[98.9861,1.4706,23.6016],[98.9907,1.4686,22.0844],[98.995,1.4725,27.9267],[99.0024,1.4707,27.9813],[99.0085,1.4739,36.4545],[99.0093,1.479,27.9381],[99.012,1.4821,29.8671],[99.0097,1.4848,32.1084],[99.0137,1.498,32.3882],[99.0066,1.5023,35.1477],[98.9942,1.5061,106.4455],[98.9922,1.511,42.4772],[98.9885,1.5125,97.6433],[98.9883,1.5224,68.5388],[98.9919,1.5275,53.9938],[98.9922,1.5338,78.2225],[98.9967,1.5385,85.3259],[99.0017,1.5388,95.5331],[99.0062,1.5425,124.557],[99.0049,1.5475,98.16],[99.0128,1.5564,138.9132],[99.0119,1.5636,206.7866],[99.0146,1.5692,153.4072],[99.0214,1.5723,171.6378],[99.0252,1.5766,203.9577],[99.0273,1.5863,276.9755],[99.0305,1.5903,274.0613],[99.0294,1.5982,319.7931],[99.0314,1.6068,392.0766],[99.0379,1.6239,570.6959],[99.0449,1.629,654.3965],[99.057,1.643,756.6393],[99.0603,1.6678,813.9308],[99.0517,1.6992,894.2505],[99.0618,1.6992,927.5856],[99.0516,1.7141,939.9419],[99.0388,1.7021,894.8875],[99.0298,1.6984,883.3683],[99.0196,1.6905,865.21],[99.0172,1.6841,924.3647],[99.012,1.6776,929.0707],[99.0088,1.6642,937.8603],[99.0017,1.6513,1073.0743],[98.9892,1.6508,1045.9834],[98.9863,1.6559,1003.1378],[98.9773,1.6618,906.8595],[98.9775,1.622,577.7759],[98.973,1.5937,609.2311],[98.9659,1.5778,456.2193],[98.9623,1.5591,176.9807],[98.959,1.5587,153.131],[98.9506,1.5471,110.8026],[98.9482,1.5406,95.9423],[98.9426,1.5362,83.6919],[98.9474,1.5233,41.6818],[98.9381,1.5135,49.4244],[98.9413,1.5122,28.7638]]]]}}