{"type":"Feature","properties":{"GID_3":"IDN.23.20.7_1","GID_0":"IDN","country":"Indonesia","GID_1":"IDN.23_1","province":"Papua","NL_NAME_1":"NA","GID_2":"IDN.23.20_1","county":"Paniai","NL_NAME_2":"NA","city":"PaniaiBarat","VARNAME_3":"NA","NL_NAME_3":"NA","TYPE_3":"Distrik","ENGTYPE_3":"District","CC_3":"9410080","HASC_3":"NA","name":"Paniai_Barat.city"},
"geometry":{"type": "MultiPolygon","coordinates": [[[[136.2045,-3.935,2472.8049],[136.2273,-3.9519,2662.115],[136.2794,-3.9452,2171.8652],[136.2946,-3.9406,2075.9058],[136.3145,-3.9111,1762.5],[136.3246,-3.9055,1762.5],[136.3235,-3.8778,1762.5],[136.296,-3.8381,1762.5],[136.3029,-3.8212,1878.3262],[136.3107,-3.7918,2296.686],[136.3598,-3.7489,2248.1694],[136.3323,-3.7165,1810.4867],[136.3044,-3.6917,1354.0266],[136.2952,-3.6991,965.6291],[136.2462,-3.7089,923.5991],[136.2299,-3.7194,1284.8523],[136.2185,-3.7227,1095.4291],[136.2047,-3.7227,844.5071],[136.1753,-3.7415,920.2078],[136.1541,-3.7439,699.8011],[136.1394,-3.7423,754.5244],[136.1158,-3.7447,424.7406],[136.0937,-3.7545,514.4768],[136.1194,-3.808,606.9034],[136.1326,-3.8263,908.4172],[136.1495,-3.855,1396.353],[136.1906,-3.9291,2115.7104],[136.2045,-3.935,2472.8049]]]]}}