{"type":"Feature","properties":{"GID_3":"IDN.23.28.22_1","GID_0":"IDN","country":"Indonesia","GID_1":"IDN.23_1","province":"Papua","NL_NAME_1":"NA","GID_2":"IDN.23.28_1","county":"Yahukimo","NL_NAME_2":"NA","city":"Mugi","VARNAME_3":"NA","NL_NAME_3":"NA","TYPE_3":"Distrik","ENGTYPE_3":"District","CC_3":"9416044","HASC_3":"NA","name":"Mugi.city"},
"geometry":{"type": "MultiPolygon","coordinates": [[[[138.9623,-4.4344,2592.3823],[138.9752,-4.4373,2545.2791],[138.9902,-4.4339,2622.9512],[139.0062,-4.4355,2352.5583],[139.0074,-4.4263,2615.1697],[138.9983,-4.3977,2833.7395],[138.9991,-4.3864,2355.0671],[139.0044,-4.3751,2413.4973],[139.0172,-4.3773,2293.7688],[139.0413,-4.372,1724.8539],[139.0677,-4.357,1090.8875],[139.1015,-4.3284,1930.2068],[139.1008,-4.3276,1909.4686],[139.0696,-4.3105,1834.3115],[139.0664,-4.306,1573.7896],[139.0595,-4.3031,1358.7104],[139.058,-4.3006,1276.1395],[139.0558,-4.3028,1326.6949],[139.0542,-4.3095,1454.1587],[139.0425,-4.307,1485.7809],[139.0308,-4.2962,1847.6121],[139.02,-4.2937,1813.1602],[139.0074,-4.2863,1965.6243],[138.9938,-4.3152,3033.0415],[138.9738,-4.3247,2942.4402],[138.9622,-4.3279,2992.2073],[138.9361,-4.3482,3821.3438],[138.9361,-4.3625,3639.6787],[138.9244,-4.4098,2993.134],[138.929,-4.4281,2505.0513],[138.9623,-4.4344,2592.3823]]]]}}