{"type":"Feature","properties":{"GID_3":"IDN.21.19.9_1","GID_0":"IDN","country":"Indonesia","GID_1":"IDN.21_1","province":"NusaTenggaraTimur","NL_NAME_1":"NA","GID_2":"IDN.21.19_1","county":"SumbaTimur","NL_NAME_2":"NA","city":"Lewa","VARNAME_3":"NA","NL_NAME_3":"NA","TYPE_3":"Kecamatan","ENGTYPE_3":"Sub-district","CC_3":"5302010","HASC_3":"NA","name":"Lewa.city"},
"geometry":{"type": "MultiPolygon","coordinates": [[[[119.9195,-9.7629,647.8499],[119.929,-9.7613,696.2563],[119.932,-9.764,651.3707],[119.9375,-9.7646,644.9781],[119.9397,-9.7616,636.4506],[119.9415,-9.7506,680.7548],[119.941,-9.7403,625.0969],[119.9257,-9.7173,609.356],[119.9259,-9.7098,607.5274],[119.9309,-9.7003,600.9372],[119.9417,-9.6959,631.4774],[119.9473,-9.6954,630.481],[119.9495,-9.6926,593.5256],[119.9495,-9.6748,589.2888],[119.9475,-9.6613,584.035],[119.9591,-9.659,559.947],[119.9675,-9.6507,602.5649],[119.9775,-9.635,554.1882],[119.979,-9.6282,504.9652],[119.9836,-9.6252,503.303],[119.983,-9.6201,486.7008],[119.9869,-9.6205,496.6279],[119.9859,-9.615,477.613],[119.9889,-9.6136,457.0477],[119.9894,-9.6101,485.1138],[119.9824,-9.6077,528.4251],[119.9809,-9.6043,544.556],[119.9781,-9.6064,524.2927],[119.974,-9.6054,554.5048],[119.9588,-9.5914,415.7663],[119.9432,-9.5834,560.0004],[119.9399,-9.58,577.3832],[119.942,-9.5683,541.5038],[119.9412,-9.5637,513.5777],[119.938,-9.5614,501.4383],[119.9372,-9.5571,545.764],[119.9298,-9.5552,498.633],[119.9091,-9.5426,478.0601],[119.9064,-9.5294,422.4397],[119.9064,-9.5145,188.3165],[119.9043,-9.5086,189.7879],[119.9034,-9.5128,175.2651],[119.8963,-9.5166,180.2972],[119.8928,-9.5162,170.0485],[119.889,-9.5127,187.8811],[119.8866,-9.513,202.327],[119.886,-9.5188,193.0891],[119.8826,-9.5232,198.2926],[119.8752,-9.5283,201.0455],[119.8731,-9.5328,208.7719],[119.8748,-9.5434,235.7942],[119.871,-9.5427,257.0787],[119.871,-9.5465,247.1335],[119.8669,-9.5498,263.2687],[119.8698,-9.5519,292.7857],[119.8699,-9.5544,283.3686],[119.8672,-9.5555,271.1196],[119.8651,-9.5531,270.3394],[119.8582,-9.5558,344.0637],[119.8594,-9.5618,298.6454],[119.856,-9.5639,327.1096],[119.8554,-9.5674,332.382],[119.8526,-9.568,362.7186],[119.8533,-9.5739,379.5272],[119.8474,-9.5734,372.6298],[119.8413,-9.5777,399.6894],[119.8395,-9.5874,393.3675],[119.842,-9.5893,403.734],[119.8431,-9.5941,382.0915],[119.8454,-9.5951,384.5991],[119.8459,-9.5984,388.3472],[119.8409,-9.6022,402.9913],[119.8439,-9.6041,390.8497],[119.8442,-9.6021,391.2024],[119.8465,-9.6021,403.5724],[119.8498,-9.6068,409.9119],[119.8483,-9.6098,399.9543],[119.8508,-9.6121,396.0813],[119.8417,-9.6177,441.2623],[119.8457,-9.6234,424.7209],[119.846,-9.6274,422.6849],[119.8476,-9.6282,416.5565],[119.8455,-9.6395,441.7387],[119.8467,-9.6416,455.0633],[119.844,-9.6536,529.1926],[119.8447,-9.6615,547.338],[119.8409,-9.6672,495.8422],[119.8382,-9.6692,440.2086],[119.836,-9.6681,445.1622],[119.831,-9.6893,508.0637],[119.8303,-9.7008,467.6021],[119.8346,-9.7072,460.4697],[119.8338,-9.712,461.6431],[119.8351,-9.7133,459.6713],[119.8326,-9.7153,459.6542],[119.8345,-9.7172,459.1953],[119.8329,-9.7184,459.5617],[119.8313,-9.7249,460.9573],[119.8422,-9.7279,471.2879],[119.8505,-9.737,494.5109],[119.8525,-9.75,486.746],[119.8591,-9.7595,323.5975],[119.8572,-9.7629,260.0654],[119.859,-9.7644,248.6491],[119.8578,-9.7658,260.9918],[119.8592,-9.7674,234.1349],[119.8584,-9.7717,210.3314],[119.8614,-9.7746,261.4373],[119.8574,-9.7764,208.9295],[119.8589,-9.7804,190.751],[119.857,-9.7831,185.5478],[119.8585,-9.7844,203.9128],[119.8576,-9.7876,187.1538],[119.8614,-9.7933,167.3516],[119.8664,-9.7947,184.6449],[119.8667,-9.7969,162.9699],[119.8711,-9.7924,191.356],[119.8733,-9.7925,206.9856],[119.8771,-9.7872,292.2917],[119.8781,-9.7801,283.4104],[119.8862,-9.7731,443.1481],[119.8955,-9.7698,484.9759],[119.9086,-9.761,606.8143],[119.9119,-9.7631,638.7538],[119.9195,-9.7629,647.8499]]]]}}