{"type":"Feature","properties":{"GID_3":"IDN.9.26.24_1","GID_0":"IDN","country":"Indonesia","GID_1":"IDN.9_1","province":"JawaBarat","NL_NAME_1":"NA","GID_2":"IDN.9.26_1","county":"Tasikmalaya","NL_NAME_2":"NA","city":"Pancatengah","VARNAME_3":"NA","NL_NAME_3":"NA","TYPE_3":"Kecamatan","ENGTYPE_3":"Sub-district","CC_3":"3206040","HASC_3":"NA","name":"Pancatengah.city"},
"geometry":{"type": "MultiPolygon","coordinates": [[[[108.2422,-7.7739,15.0012],[108.2452,-7.7754,9.6527],[108.248,-7.7696,22.7793],[108.2546,-7.7681,31.546],[108.26,-7.7795,7.4723],[108.2622,-7.777,10.5677],[108.2629,-7.7701,20.0799],[108.2701,-7.7717,2.0],[108.2679,-7.7762,8.8127],[108.2688,-7.7768,12.1448],[108.2769,-7.771,24.655],[108.2805,-7.771,19.1768],[108.281,-7.7732,10.0112],[108.277,-7.7782,11.4026],[108.2777,-7.7808,12.566],[108.2832,-7.7792,26.3785],[108.2879,-7.7803,14.7321],[108.2864,-7.7754,6.1],[108.2877,-7.7749,6.1],[108.293,-7.7795,13.4267],[108.2996,-7.7787,20.4105],[108.3009,-7.7901,39.5319],[108.3051,-7.7835,26.1508],[108.3089,-7.7824,20.9944],[108.3147,-7.7887,20.0821],[108.3181,-7.789,24.0048],[108.3205,-7.7919,18.3466],[108.322,-7.7908,19.1654],[108.3218,-7.7882,17.0947],[108.3178,-7.7863,57.7108],[108.3229,-7.7834,39.1372],[108.325,-7.7786,32.9458],[108.3228,-7.7684,29.1192],[108.3233,-7.7627,32.9803],[108.3217,-7.7605,34.1766],[108.3243,-7.7589,38.379],[108.3238,-7.7511,48.8681],[108.3223,-7.7498,26.9593],[108.3236,-7.7467,105.2221],[108.3194,-7.7424,95.2303],[108.3166,-7.7422,36.063],[108.3179,-7.7381,41.601],[108.3127,-7.7244,43.7471],[108.3194,-7.7262,46.536],[108.3217,-7.723,61.723],[108.3208,-7.7211,94.5207],[108.312,-7.7187,71.9581],[108.3155,-7.7124,115.5544],[108.3186,-7.7184,91.1975],[108.3203,-7.714,50.1906],[108.3237,-7.7201,62.8809],[108.3304,-7.7164,59.4414],[108.3319,-7.7126,53.9138],[108.3297,-7.7096,55.7601],[108.3281,-7.7134,55.8378],[108.326,-7.7101,66.6],[108.3238,-7.7128,52.6771],[108.3235,-7.7022,63.3336],[108.3172,-7.6987,67.3114],[108.3143,-7.6904,74.9448],[108.3164,-7.6902,63.7659],[108.3177,-7.6933,67.5263],[108.3245,-7.6931,74.1002],[108.3249,-7.6917,80.5681],[108.3216,-7.6911,58.7553],[108.3243,-7.6882,63.5912],[108.3217,-7.6853,73.0179],[108.3237,-7.683,79.0263],[108.3293,-7.6907,66.521],[108.3318,-7.6921,118.4628],[108.3335,-7.6905,95.6928],[108.3364,-7.6913,122.2661],[108.3342,-7.6894,68.1519],[108.3348,-7.6864,70.7606],[108.3319,-7.6853,88.7123],[108.336,-7.6844,107.4579],[108.3403,-7.6797,100.4989],[108.3475,-7.681,119.6082],[108.3505,-7.6839,68.1247],[108.3557,-7.6829,93.3394],[108.3531,-7.6785,116.2577],[108.355,-7.6748,91.662],[108.3542,-7.6722,77.1186],[108.3575,-7.6718,81.9964],[108.3561,-7.6701,78.9342],[108.3584,-7.6678,95.7919],[108.3617,-7.6681,90.2004],[108.3621,-7.6657,82.6301],[108.3602,-7.6643,83.445],[108.3662,-7.6591,96.5659],[108.3633,-7.6583,99.6185],[108.3633,-7.6565,89.7028],[108.3606,-7.6548,91.5023],[108.3617,-7.6454,108.6857],[108.3551,-7.6446,105.2712],[108.3534,-7.6387,139.2793],[108.357,-7.6353,77.3306],[108.3551,-7.6237,89.2877],[108.3581,-7.621,92.5615],[108.3563,-7.6187,120.6788],[108.3582,-7.6183,113.3571],[108.3566,-7.6172,129.3677],[108.3571,-7.6144,132.5886],[108.3596,-7.6119,137.7174],[108.3588,-7.6015,138.4937],[108.3612,-7.6009,138.3732],[108.3588,-7.5971,151.1474],[108.3551,-7.598,239.5244],[108.3498,-7.5957,314.52],[108.341,-7.5951,303.5574],[108.3364,-7.5961,290.3912],[108.3337,-7.6006,275.2458],[108.3294,-7.6023,196.2797],[108.3281,-7.6053,170.6087],[108.3252,-7.5935,268.7755],[108.3278,-7.5857,316.1261],[108.322,-7.5781,327.8718],[108.316,-7.584,288.7248],[108.3081,-7.5872,166.0274],[108.3039,-7.5872,156.6356],[108.3039,-7.5886,152.4231],[108.2988,-7.5873,156.8411],[108.2972,-7.5888,143.4986],[108.2981,-7.5914,146.5697],[108.2956,-7.5932,189.2953],[108.2999,-7.5938,147.58],[108.301,-7.5978,148.3159],[108.2992,-7.5997,168.8132],[108.3023,-7.6018,155.5269],[108.3043,-7.6004,161.4487],[108.3063,-7.6048,142.3262],[108.3111,-7.6082,135.395],[108.3015,-7.6151,288.115],[108.3061,-7.6167,260.7437],[108.3064,-7.6196,255.1102],[108.3151,-7.6302,203.7962],[108.315,-7.6344,210.0513],[108.3123,-7.6371,188.0847],[108.3131,-7.6409,187.4492],[108.3179,-7.644,190.2228],[108.3178,-7.6523,175.4731],[108.298,-7.6478,202.4089],[108.2897,-7.637,220.5976],[108.2827,-7.6355,230.9254],[108.2781,-7.6393,245.3812],[108.2687,-7.6391,226.0084],[108.2661,-7.6439,208.6999],[108.2603,-7.648,251.5749],[108.2568,-7.6552,274.2421],[108.2563,-7.6627,249.664],[108.2616,-7.6653,256.5938],[108.2737,-7.667,182.3105],[108.275,-7.6736,185.9614],[108.2738,-7.6775,177.1483],[108.2726,-7.677,176.2468],[108.2685,-7.6824,172.879],[108.2573,-7.6877,253.9068],[108.2535,-7.6945,176.9177],[108.2536,-7.6983,161.0586],[108.2502,-7.6989,141.5082],[108.2468,-7.703,117.3191],[108.2482,-7.7078,118.3617],[108.2509,-7.7074,132.7197],[108.2544,-7.7106,114.4321],[108.2556,-7.7086,110.2832],[108.2572,-7.7087,100.3317],[108.2562,-7.7108,109.6187],[108.258,-7.7127,107.964],[108.2562,-7.7146,106.3881],[108.2588,-7.717,106.6625],[108.2575,-7.7234,69.0935],[108.2615,-7.7313,70.2079],[108.2567,-7.7401,57.6002],[108.2545,-7.739,54.4689],[108.2511,-7.7418,33.5319],[108.2517,-7.746,22.8786],[108.2486,-7.7481,56.1942],[108.2497,-7.7503,31.1207],[108.2466,-7.7522,17.5198],[108.2444,-7.7513,23.2236],[108.2446,-7.7562,30.2217],[108.2473,-7.7554,22.2929],[108.2479,-7.757,32.4385],[108.2451,-7.7613,38.841],[108.2431,-7.7604,13.324],[108.2422,-7.7639,15.935],[108.2377,-7.7625,30.8543],[108.2356,-7.7647,18.9939],[108.2363,-7.767,11.1849],[108.2414,-7.7697,11.2403],[108.2422,-7.7739,15.0012]]]]}}