{"type":"Feature","properties":{"GID_3":"IDN.13.9.10_1","GID_0":"IDN","country":"Indonesia","GID_1":"IDN.13_1","province":"KalimantanSelatan","NL_NAME_1":"NA","GID_2":"IDN.13.9_1","county":"KotaBaru","NL_NAME_2":"NA","city":"PamukanUtara","VARNAME_3":"NA","NL_NAME_3":"NA","TYPE_3":"Kecamatan","ENGTYPE_3":"Sub-district","CC_3":"6302200","HASC_3":"NA","name":"Pamukan_Utara.city"},
"geometry":{"type": "MultiPolygon","coordinates": [[[[116.341,-2.4921,14.4101],[116.3495,-2.475,4.1834],[116.3432,-2.4496,9.8863],[116.343,-2.4402,8.7872],[116.3415,-2.4383,9.4986],[116.335,-2.4361,2.1035],[116.3238,-2.4381,1.5286],[116.322,-2.4415,2.3617],[116.3208,-2.4541,3.573],[116.316,-2.4553,3.261],[116.3002,-2.4514,7.4748],[116.2982,-2.4479,5.3838],[116.2961,-2.4339,4.1295],[116.2935,-2.4319,3.9503],[116.2791,-2.4301,4.715],[116.2758,-2.428,4.8378],[116.2729,-2.4236,3.5111],[116.2672,-2.425,2.7827],[116.2608,-2.4337,3.058],[116.2569,-2.4357,3.9013],[116.2528,-2.4368,4.261],[116.2495,-2.437,4.0931],[116.2458,-2.4338,2.9733],[116.246,-2.4236,4.2365],[116.241,-2.4167,3.6473],[116.246,-2.4217,4.3324],[116.2463,-2.4318,2.8402],[116.2488,-2.4358,3.5259],[116.2531,-2.4364,4.261],[116.2588,-2.4342,5.0951],[116.2666,-2.4246,2.7827],[116.2689,-2.4228,8.5435],[116.2719,-2.4228,5.641],[116.2741,-2.4241,5.6604],[116.2781,-2.4291,4.491],[116.2921,-2.431,5.42],[116.297,-2.4337,3.7769],[116.3001,-2.4503,4.2568],[116.3154,-2.4544,5.1045],[116.3192,-2.4544,3.573],[116.3206,-2.4519,7.7768],[116.3214,-2.4401,2.6004],[116.3236,-2.437,3.2954],[116.3342,-2.4351,2.1035],[116.3408,-2.4367,3.7513],[116.3445,-2.4413,4.3887],[116.3444,-2.4489,6.9663],[116.3481,-2.4593,3.9639],[116.3504,-2.4737,2.5862],[116.3568,-2.4775,4.4413],[116.3634,-2.4791,12.0561],[116.3699,-2.4732,4.5797],[116.3745,-2.475,1.5967],[116.3803,-2.4714,4.4601],[116.3859,-2.4714,6.2658],[116.3936,-2.468,4.5011],[116.3952,-2.4658,6.1645],[116.395,-2.4608,6.1329],[116.3912,-2.4553,5.6124],[116.392,-2.4533,5.5142],[116.4002,-2.4523,5.9645],[116.4037,-2.4436,5.888],[116.4101,-2.4373,7.8614],[116.4248,-2.4382,3.6639],[116.4265,-2.4353,4.3986],[116.4308,-2.4374,3.6582],[116.4301,-2.4352,5.3726],[116.4328,-2.4308,4.838],[116.4372,-2.4293,3.2094],[116.4407,-2.4255,8.2562],[116.4456,-2.4245,15.846],[116.4595,-2.4258,22.781],[116.4701,-2.4227,26.2321],[116.4823,-2.4281,29.5951],[116.4864,-2.4281,26.6909],[116.4949,-2.422,23.2287],[116.5069,-2.4165,9.9284],[116.5057,-2.4073,13.3373],[116.5076,-2.4036,21.3395],[116.5161,-2.4015,13.7347],[116.5324,-2.4041,3.5807],[116.5389,-2.4,6.8048],[116.4928,-2.381,20.0225],[116.4545,-2.3705,31.4855],[116.3774,-2.3557,34.6421],[116.3204,-2.3414,23.4623],[116.2637,-2.3223,32.1555],[116.2514,-2.3168,31.8282],[116.186,-2.321,33.3524],[116.1482,-2.3195,34.9569],[116.1489,-2.3254,40.1059],[116.1461,-2.3326,34.527],[116.1495,-2.3388,33.5846],[116.1517,-2.35,30.781],[116.1512,-2.3567,23.8545],[116.1394,-2.3517,37.9111],[116.13,-2.3506,26.1996],[116.1294,-2.359,45.0823],[116.1316,-2.378,35.5059],[116.1188,-2.3819,28.2097],[116.1133,-2.3909,23.4186],[116.111,-2.4021,25.9588],[116.1071,-2.4099,31.0676],[116.0982,-2.42,40.6942],[116.0854,-2.439,45.2109],[116.0637,-2.4617,46.0712],[116.2495,-2.4856,26.8368],[116.3174,-2.4913,20.4967],[116.3213,-2.4933,13.6218],[116.3245,-2.4924,16.2276],[116.3294,-2.4937,14.6641],[116.3315,-2.495,11.4123],[116.3304,-2.4968,8.9387],[116.3331,-2.4962,11.4123],[116.3354,-2.4988,14.9801],[116.341,-2.4921,14.4101]]]]}}