{"type":"Feature","properties":{"GID_3":"IDN.6.5.2_1","GID_0":"IDN","country":"Indonesia","GID_1":"IDN.6_1","province":"Gorontalo","NL_NAME_1":"NA","GID_2":"IDN.6.5_1","county":"Gorontalo","NL_NAME_2":"NA","city":"BatudaaPantai","VARNAME_3":"NA","NL_NAME_3":"NA","TYPE_3":"Kecamatan","ENGTYPE_3":"Sub-district","CC_3":"7502010","HASC_3":"NA","name":"Batudaa_Pantai.city"},
"geometry":{"type": "MultiPolygon","coordinates": [[[[122.9749,0.489,48.0132],[122.9767,0.4868,6.5067],[122.9797,0.489,46.0942],[122.9808,0.4869,0.0],[122.989,0.4852,0.0],[122.9997,0.4956,4.1775],[123.0022,0.4942,10.8668],[123.0034,0.4893,4.5927],[123.0079,0.4914,72.0996],[123.0103,0.4888,12.5517],[123.0146,0.4945,14.9503],[123.0193,0.497,16.914],[123.0274,0.4913,0.0],[123.0293,0.4954,11.6056],[123.0354,0.4982,4.2389],[123.0427,0.4963,10.7125],[123.0439,0.5004,146.4105],[123.0389,0.5133,251.9377],[123.0178,0.5295,442.4699],[122.9953,0.524,563.9123],[122.9875,0.5205,563.8159],[122.9836,0.5159,570.835],[122.9728,0.5191,587.5387],[122.9644,0.5184,608.0577],[122.959,0.5199,559.5953],[122.9475,0.5192,556.2589],[122.9389,0.5204,592.1715],[122.934,0.5193,565.5668],[122.9268,0.5239,622.3236],[122.9159,0.5278,538.3322],[122.9058,0.5285,601.3997],[122.9,0.527,602.0502],[122.8913,0.5212,644.4131],[122.8749,0.5137,614.2184],[122.8732,0.5009,298.383],[122.8689,0.4911,19.1275],[122.8882,0.4859,10.6646],[122.8955,0.4912,53.2811],[122.9052,0.4932,4.0763],[122.9149,0.4866,0.0],[122.9164,0.4875,0.0],[122.9164,0.4922,20.3962],[122.9184,0.4929,40.8522],[122.9274,0.4865,5.4185],[122.9364,0.4873,31.691],[122.9396,0.4897,31.5806],[122.9416,0.4885,0.0],[122.9454,0.4903,0.0],[122.958,0.4911,0.0],[122.9591,0.4932,13.7753],[122.9664,0.4929,8.5461],[122.9749,0.489,48.0132]]]]}}