{"type":"Feature","properties":{"GID_3":"IDN.16.6.11_1","GID_0":"IDN","country":"Indonesia","GID_1":"IDN.16_1","province":"KepulauanRiau","NL_NAME_1":"NA","GID_2":"IDN.16.6_1","county":"Natuna","NL_NAME_2":"NA","city":"Serasan","VARNAME_3":"NA","NL_NAME_3":"NA","TYPE_3":"Kecamatan","ENGTYPE_3":"Sub-district","CC_3":"2103060","HASC_3":"NA","name":"Serasan.city"},
"geometry":{"type": "MultiPolygon","coordinates": [[[[108.9817,2.4621,5.1871],[108.9828,2.4626,5.1871],[108.9817,2.4648,0.8765],[108.9813,2.4639,0.8765],[108.9817,2.4621,5.1871]]],
[[[108.9447,2.4679,0.0],[108.9453,2.4674,0.0],[108.9455,2.4681,0.0],[108.9452,2.4683,0.0],[108.9447,2.4679,0.0]]],
[[[108.9862,2.4813,4.7701],[108.9877,2.4808,0.1368],[108.9849,2.4831,0.5379],[108.985,2.4825,0.5379],[108.9862,2.4813,4.7701]]],
[[[108.9881,2.4889,3.601],[108.9885,2.4886,0.0],[108.9891,2.4888,3.601],[108.9885,2.4895,3.601],[108.9881,2.4889,3.601]]],
[[[108.9893,2.4698,5.4273],[108.9902,2.4684,0.0],[108.9948,2.4708,23.4486],[108.9943,2.4742,1.0465],[108.9904,2.4741,0.5569],[108.9893,2.4698,5.4273]]],
[[[108.9956,2.4766,1.4772],[108.9959,2.4759,1.4772],[108.9973,2.4759,1.4772],[108.9968,2.4768,1.4772],[108.9956,2.4766,1.4772]]],
[[[109.0454,2.4927,6.9275],[109.0452,2.5029,69.8615],[109.0466,2.5059,136.7197],[109.0709,2.5225,0.0],[109.048,2.528,0.0],[109.0289,2.5368,2.3375],[109.0222,2.5434,1.7214],[109.02,2.5536,7.5189],[109.0128,2.5571,0.0],[109.0099,2.5569,29.1667],[109.0074,2.56,9.9418],[108.9986,2.5586,38.1994],[108.9952,2.5605,0.0],[108.9888,2.5547,3.4861],[108.9785,2.5566,17.5302],[108.976,2.5554,0.0],[108.977,2.5503,0.0],[108.9756,2.5439,23.461],[108.977,2.5378,0.0],[108.976,2.5341,0.0],[108.9767,2.531,0.0],[108.9791,2.5309,10.8893],[108.9799,2.5291,10.285],[108.9793,2.5211,6.3623],[108.9877,2.5224,0.8883],[108.992,2.5255,5.5021],[108.9997,2.5262,1.3613],[109.0053,2.5321,3.1053],[109.0105,2.529,3.269],[109.0079,2.5263,0.8572],[109.0082,2.5229,1.4629],[109.0119,2.5283,2.4698],[109.0123,2.526,2.9214],[109.0153,2.5243,1.5229],[109.0164,2.5254,2.72],[109.0217,2.5221,5.2607],[109.0228,2.5187,4.3432],[109.0195,2.5182,1.0183],[109.0201,2.5172,1.0183],[109.0235,2.5161,2.0637],[109.0268,2.5174,3.4933],[109.0338,2.5153,3.2978],[109.0302,2.5127,3.8506],[109.0287,2.5139,0.2605],[109.0265,2.5117,3.2488],[109.0235,2.512,1.8778],[109.0238,2.5095,5.3957],[109.0223,2.512,2.4431],[109.0204,2.5118,2.4431],[109.0178,2.5094,0.9326],[109.017,2.5057,3.9808],[109.0136,2.5064,2.4338],[109.0108,2.5051,2.4957],[109.0069,2.4991,4.5411],[109.0095,2.4957,2.1877],[109.007,2.4895,6.4198],[109.0166,2.482,0.7521],[109.0255,2.4815,2.0828],[109.0376,2.485,0.3708],[109.0445,2.4894,9.3415],[109.0454,2.4927,6.9275]]],
[[[108.9862,2.5053,1.7231],[108.9844,2.5067,9.6575],[108.983,2.505,0.0],[108.9834,2.5005,3.6229],[108.9853,2.5004,7.3851],[108.9884,2.4941,6.1771],[108.9875,2.4902,3.601],[108.994,2.4895,5.2389],[108.9979,2.4938,0.0],[108.9935,2.4953,12.9906],[108.9933,2.5004,3.2175],[108.9891,2.4989,2.0243],[108.9862,2.5053,1.7231]]],
[[[108.9528,2.5003,7.7383],[108.9453,2.5007,0.0],[108.9399,2.4968,0.0],[108.9393,2.494,2.4251],[108.9461,2.4859,0.0],[108.9445,2.4826,5.0755],[108.9399,2.4828,0.0],[108.9387,2.4812,5.1512],[108.9439,2.4792,20.7533],[108.9554,2.481,5.3953],[108.9559,2.4941,6.5998],[108.9588,2.498,5.6158],[108.9528,2.5003,7.7383]]],
[[[108.9627,2.4971,5.2065],[108.9647,2.4994,16.142],[108.962,2.5017,15.4469],[108.9609,2.4975,19.0157],[108.9627,2.4971,5.2065]]],
[[[109.1227,2.559,8.2987],[109.1239,2.5581,0.0],[109.1252,2.5613,25.7439],[109.1232,2.5614,25.7439],[109.1227,2.559,8.2987]]],
[[[109.1632,2.5877,0.0],[109.1637,2.5935,19.8896],[109.1594,2.5981,39.5897],[109.1574,2.5983,35.1201],[109.1547,2.5924,5.5118],[109.1566,2.5838,15.9006],[109.1594,2.5828,10.2072],[109.1632,2.5877,0.0]]],
[[[109.137,2.6237,0.0],[109.1351,2.6238,0.0],[109.1347,2.6214,0.0],[109.1367,2.6175,1.8156],[109.1381,2.6191,0.0],[109.137,2.6237,0.0]]],
[[[109.143,2.6224,0.0],[109.1445,2.627,0.0],[109.1424,2.6289,0.0],[109.1406,2.6275,12.3504],[109.1402,2.6234,0.0],[109.143,2.6224,0.0]]]]}}