{"type":"Feature","properties":{"GID_3":"IDN.18.4.3_1","GID_0":"IDN","country":"Indonesia","GID_1":"IDN.18_1","province":"MalukuUtara","NL_NAME_1":"NA","GID_2":"IDN.18.4_1","county":"HalmaheraTimur","NL_NAME_2":"NA","city":"MabaTengah","VARNAME_3":"NA","NL_NAME_3":"NA","TYPE_3":"Kecamatan","ENGTYPE_3":"Sub-district","CC_3":"8206041","HASC_3":"NA","name":"Maba_Tengah.city"},
"geometry":{"type": "MultiPolygon","coordinates": [[[[128.5105,0.9726,4.7686],[128.5227,0.9686,0.0],[128.5334,0.9708,8.5501],[128.5394,0.976,7.236],[128.5464,0.9888,0.5701],[128.5522,0.996,2.3342],[128.5745,1.0096,7.0477],[128.5915,1.0254,0.0],[128.6015,1.0321,10.9915],[128.6103,1.0424,2.1499],[128.6128,1.043,8.7534],[128.6138,1.0414,0.0],[128.6162,1.0451,0.0],[128.6196,1.0471,20.3365],[128.6224,1.0454,0.0],[128.6267,1.0466,10.5627],[128.6299,1.0417,0.0],[128.6336,1.0447,14.52],[128.6445,1.0487,6.6766],[128.6482,1.0553,0.0],[128.6601,1.0562,5.4813],[128.6702,1.0615,1.7649],[128.6393,1.0864,41.2197],[128.625,1.0899,36.7606],[128.5656,1.0941,64.9041],[128.5406,1.1115,107.1746],[128.474,1.1743,725.3409],[128.4348,1.2017,879.7684],[128.4037,1.1675,607.3792],[128.3924,1.151,588.1088],[128.36,1.1136,730.4434],[128.3082,1.0585,533.5048],[128.3371,1.0456,622.449],[128.3651,1.0218,335.8681],[128.4384,0.9655,237.1517],[128.4582,0.946,2.4071],[128.4685,0.9528,3.6203],[128.4918,0.9609,1.4048],[128.5009,0.9694,4.7921],[128.5105,0.9726,4.7686]]]]}}