{"type":"Feature","properties":{"GID_3":"IDN.9.7.11_1","GID_0":"IDN","country":"Indonesia","GID_1":"IDN.9_1","province":"JawaBarat","NL_NAME_1":"NA","GID_2":"IDN.9.7_1","county":"Cianjur","NL_NAME_2":"NA","city":"Cikalongkulon","VARNAME_3":"NA","NL_NAME_3":"NA","TYPE_3":"Kecamatan","ENGTYPE_3":"Sub-district","CC_3":"3203240","HASC_3":"NA","name":"Cikalongkulon.city"},
"geometry":{"type": "MultiPolygon","coordinates": [[[[107.189,-6.736,403.1231],[107.1915,-6.737,396.4949],[107.1916,-6.7386,399.0565],[107.2214,-6.739,379.142],[107.2273,-6.7408,370.8305],[107.2325,-6.731,368.0475],[107.2414,-6.7235,260.7662],[107.2425,-6.7192,217.5751],[107.25,-6.7187,214.5],[107.2513,-6.713,217.6519],[107.2539,-6.7142,217.6707],[107.2537,-6.7127,246.394],[107.257,-6.7101,217.9687],[107.2596,-6.7159,218.2929],[107.262,-6.7135,222.4857],[107.262,-6.7111,223.7659],[107.2645,-6.7124,220.3964],[107.2642,-6.7094,239.5846],[107.2667,-6.7105,214.5],[107.2693,-6.7084,258.0384],[107.2697,-6.7102,224.9651],[107.2729,-6.7104,226.7638],[107.2724,-6.7127,216.7143],[107.2764,-6.7133,214.5],[107.275,-6.7114,223.2429],[107.2767,-6.7096,214.5],[107.2793,-6.7107,221.2838],[107.2813,-6.7151,214.5],[107.2842,-6.7168,214.5],[107.2853,-6.7157,230.8903],[107.2831,-6.713,237.8149],[107.2843,-6.707,233.72],[107.2747,-6.7067,308.0599],[107.2666,-6.7022,477.0829],[107.2641,-6.6991,542.2559],[107.2504,-6.6967,292.1781],[107.2468,-6.6903,382.0269],[107.2544,-6.6877,264.2276],[107.2594,-6.68,321.4827],[107.2584,-6.6695,368.9376],[107.26,-6.6621,377.2824],[107.2588,-6.6584,386.5483],[107.2612,-6.6575,328.3529],[107.2611,-6.656,342.4547],[107.2625,-6.6564,328.3529],[107.2622,-6.6546,342.4547],[107.2647,-6.653,331.0039],[107.2636,-6.6437,208.9565],[107.2646,-6.6395,138.4199],[107.2637,-6.6356,156.9042],[107.2588,-6.6295,197.3576],[107.2571,-6.6303,184.9526],[107.2537,-6.6289,200.626],[107.2409,-6.6184,378.0066],[107.2383,-6.6158,444.4448],[107.2349,-6.6071,706.9122],[107.2288,-6.6045,1044.1794],[107.2271,-6.6021,1143.4761],[107.222,-6.6125,693.0739],[107.2146,-6.6201,396.7234],[107.213,-6.6306,436.6702],[107.2151,-6.6373,489.8019],[107.2027,-6.6405,472.9637],[107.1922,-6.6455,744.5455],[107.1797,-6.6465,397.8835],[107.1697,-6.6388,197.3079],[107.1682,-6.6411,239.1873],[107.169,-6.6433,192.7411],[107.165,-6.647,206.7207],[107.1602,-6.6455,213.5079],[107.1577,-6.6475,219.2731],[107.1581,-6.6501,243.0563],[107.1525,-6.6498,216.8669],[107.1503,-6.6541,220.0107],[107.1516,-6.66,227.9473],[107.1507,-6.6627,229.1264],[107.1403,-6.6673,250.7471],[107.1424,-6.6759,377.9958],[107.1469,-6.6811,521.5074],[107.1447,-6.6846,477.3943],[107.1492,-6.6866,468.0718],[107.1479,-6.6888,498.1833],[107.1495,-6.6973,613.3223],[107.1458,-6.7044,587.0291],[107.1464,-6.7071,573.7771],[107.1515,-6.7118,563.8149],[107.1581,-6.7137,473.5635],[107.1551,-6.7255,535.4078],[107.1569,-6.7376,555.8054],[107.1687,-6.7313,469.1792],[107.189,-6.736,403.1231]]]]}}