{"type":"Feature","properties":{"GID_3":"IDN.27.8.7_1","GID_0":"IDN","country":"Indonesia","GID_1":"IDN.27_1","province":"SulawesiTengah","NL_NAME_1":"NA","GID_2":"IDN.27.8_1","county":"Poso","NL_NAME_2":"NA","city":"LoreTimur","VARNAME_3":"NA","NL_NAME_3":"NA","TYPE_3":"Kecamatan","ENGTYPE_3":"Sub-district","CC_3":"7204042","HASC_3":"NA","name":"Lore_Timur.city"},
"geometry":{"type": "MultiPolygon","coordinates": [[[[120.4555,-1.4985,1635.7504],[120.4689,-1.4984,2063.2002],[120.4194,-1.3824,1763.5796],[120.4062,-1.3997,1946.4965],[120.3744,-1.425,1395.3113],[120.3719,-1.4339,1161.7623],[120.3667,-1.4385,1107.8939],[120.3556,-1.4387,1090.9954],[120.3365,-1.454,1088.2855],[120.3362,-1.4627,1087.8525],[120.3407,-1.4684,1083.5703],[120.3468,-1.4721,1087.361],[120.345,-1.4766,1087.7847],[120.3479,-1.4791,1087.6074],[120.3482,-1.4894,1088.5107],[120.3516,-1.4903,1085.9512],[120.3514,-1.4917,1087.0184],[120.3536,-1.4915,1089.7269],[120.3512,-1.4936,1091.9695],[120.3518,-1.4952,1091.9824],[120.3492,-1.4946,1091.1687],[120.3474,-1.4967,1087.2441],[120.3497,-1.5004,1090.3273],[120.4555,-1.4985,1635.7504]]]]}}