{"type":"Feature","properties":{"GID_2":"IDN.4.4_1","GID_0":"IDN","country":"Indonesia","GID_1":"IDN.4_1","province":"Banten","NL_NAME_1":"NA","county":"Lebak","VARNAME_2":"NA","NL_NAME_2":"NA","TYPE_2":"Kabupaten","ENGTYPE_2":"Regency","CC_2":"3602","HASC_2":"ID.BT.LE","name":"Lebak.county"},
"geometry":{"type": "MultiPolygon","coordinates": [[[[106.3625,-6.9917,6.4971],[106.3637,-6.9909,60.4031],[106.3672,-6.9941,0.9811],[106.3726,-6.9898,7.2344],[106.3748,-6.9909,21.7218],[106.3748,-6.9949,0.0],[106.3807,-6.9952,0.0],[106.3811,-6.9893,3.9149],[106.385,-6.9884,21.9338],[106.3865,-6.991,1.8685],[106.3972,-6.9787,1.2977],[106.3964,-6.9745,12.0021],[106.3937,-6.9739,16.2961],[106.3931,-6.9713,10.0844],[106.3939,-6.9639,29.0901],[106.3955,-6.963,21.9758],[106.3922,-6.9593,43.8339],[106.3953,-6.9592,30.2972],[106.3956,-6.9535,50.186],[106.3896,-6.942,103.622],[106.3914,-6.9394,90.0648],[106.3911,-6.9324,88.625],[106.3981,-6.9289,95.657],[106.3987,-6.9243,108.7042],[106.4002,-6.9242,108.7042],[106.4001,-6.9203,109.931],[106.3979,-6.9184,120.4281],[106.3972,-6.9089,149.6872],[106.3922,-6.9046,181.7389],[106.3929,-6.9006,198.0289],[106.4018,-6.8964,239.9623],[106.4063,-6.8864,264.07],[106.4195,-6.8804,339.9596],[106.4192,-6.8743,356.1835],[106.4252,-6.8692,366.0416],[106.4247,-6.8656,374.5801],[106.4285,-6.865,385.5948],[106.431,-6.8622,397.4176],[106.4321,-6.8573,407.0604],[106.4298,-6.8554,426.6262],[106.432,-6.8493,400.8913],[106.4312,-6.846,468.1993],[106.4353,-6.8389,437.4331],[106.4348,-6.8324,463.0319],[106.4376,-6.8279,455.7643],[106.4355,-6.8252,473.7959],[106.437,-6.8223,496.1309],[106.436,-6.8198,511.0806],[106.4404,-6.8188,512.9132],[106.4417,-6.8156,576.7997],[106.4431,-6.8176,549.7706],[106.4469,-6.8185,577.0782],[106.45,-6.8163,573.669],[106.4529,-6.8131,681.5659],[106.4522,-6.8094,730.785],[106.4572,-6.8036,763.15],[106.462,-6.8017,806.214],[106.4638,-6.8029,835.9329],[106.4685,-6.7998,915.3832],[106.4704,-6.8006,913.657],[106.4715,-6.7981,914.6429],[106.4731,-6.7997,940.7284],[106.4732,-6.7974,922.9144],[106.4793,-6.7951,945.2708],[106.4858,-6.7946,962.708],[106.4869,-6.7962,962.708],[106.4889,-6.7949,974.5615],[106.4886,-6.7924,987.1865],[106.4977,-6.791,1079.196],[106.5075,-6.7813,1254.2722],[106.5159,-6.7773,1492.425],[106.5263,-6.7679,1683.9448],[106.5248,-6.7623,1642.3406],[106.5147,-6.7596,1538.5907],[106.4999,-6.7525,1418.4349],[106.4666,-6.7509,1423.4822],[106.4632,-6.7369,1593.8871],[106.4538,-6.7308,1483.7305],[106.4506,-6.7269,1705.3948],[106.4515,-6.7145,1838.6885],[106.4491,-6.7071,1819.6616],[106.436,-6.695,1548.1492],[106.4294,-6.6821,1343.4402],[106.429,-6.673,1258.7627],[106.4315,-6.6527,1105.6288],[106.4303,-6.625,552.572],[106.4315,-6.6233,556.147],[106.4288,-6.6186,536.7836],[106.4274,-6.6108,453.9836],[106.4304,-6.5905,564.3433],[106.4244,-6.569,425.0415],[106.4163,-6.5598,414.027],[106.4233,-6.5505,311.723],[106.4159,-6.5443,230.7009],[106.4087,-6.5345,181.3027],[106.4075,-6.5239,166.2393],[106.4048,-6.522,172.5384],[106.4035,-6.5166,151.3815],[106.406,-6.4964,141.061],[106.4097,-6.4926,141.4342],[106.4126,-6.4831,116.3573],[106.4113,-6.4773,113.5342],[106.4117,-6.4674,107.3932],[106.4075,-6.4604,94.8566],[106.4047,-6.4592,82.325],[106.4049,-6.4568,82.353],[106.4012,-6.4557,82.4684],[106.4011,-6.4528,84.9853],[106.407,-6.4539,86.792],[106.4249,-6.4491,119.0186],[106.4403,-6.45,57.4948],[106.4404,-6.4472,58.2068],[106.4424,-6.4451,64.0118],[106.4405,-6.4442,55.9634],[106.4387,-6.4455,60.2026],[106.438,-6.4442,57.5582],[106.441,-6.4413,54.7391],[106.4436,-6.4411,56.0446],[106.4464,-6.4353,53.9013],[106.4503,-6.4341,55.4146],[106.448,-6.4303,67.0667],[106.4529,-6.4284,48.9609],[106.4499,-6.4269,66.9641],[106.4547,-6.4269,48.4765],[106.4496,-6.4213,43.5253],[106.446,-6.4231,62.4738],[106.4446,-6.4213,42.6281],[106.4481,-6.4188,42.725],[106.454,-6.4187,42.5623],[106.4539,-6.4138,41.1699],[106.4499,-6.413,49.9592],[106.451,-6.407,39.1597],[106.447,-6.4107,39.1558],[106.4442,-6.4079,37.9478],[106.444,-6.4048,41.3921],[106.4393,-6.4044,43.7885],[106.4382,-6.3996,36.5159],[106.4418,-6.3982,37.5157],[106.442,-6.3963,60.5782],[106.44,-6.3977,33.8808],[106.434,-6.3938,34.8899],[106.4354,-6.3923,38.0439],[106.4384,-6.3943,40.8124],[106.4375,-6.3913,37.8841],[106.4353,-6.3901,38.0178],[106.438,-6.3879,39.1226],[106.4339,-6.385,38.658],[106.4319,-6.377,31.4025],[106.4273,-6.3761,30.7664],[106.4308,-6.3735,27.9692],[106.4291,-6.3727,28.5945],[106.4293,-6.3678,38.55],[106.432,-6.3668,33.095],[106.4298,-6.363,30.6555],[106.4308,-6.3572,27.497],[106.4284,-6.3568,32.4004],[106.4268,-6.3539,28.1161],[106.4292,-6.3503,27.7393],[106.4255,-6.3501,28.2757],[106.4267,-6.3479,37.0841],[106.4232,-6.3466,28.3541],[106.4206,-6.3492,26.4359],[106.4184,-6.3464,26.7062],[106.4168,-6.3478,29.4581],[106.4158,-6.3461,27.51],[106.4138,-6.3462,27.0686],[106.4132,-6.3442,29.1408],[106.4103,-6.3451,29.0718],[106.4107,-6.3392,27.3159],[106.4053,-6.34,26.5292],[106.4032,-6.3366,25.8946],[106.4043,-6.3338,25.9665],[106.3958,-6.3295,49.7186],[106.3653,-6.3326,42.5959],[106.3573,-6.3291,39.3315],[106.3519,-6.3324,44.1659],[106.3379,-6.3368,60.9966],[106.3351,-6.3344,46.7454],[106.3182,-6.3353,57.5837],[106.317,-6.3295,39.0331],[106.3121,-6.3277,42.19],[106.3097,-6.3224,26.9936],[106.3045,-6.3199,25.1797],[106.3032,-6.3213,26.2091],[106.2967,-6.3206,22.8989],[106.2974,-6.3172,34.7826],[106.2931,-6.3123,35.1923],[106.284,-6.3134,17.772],[106.2831,-6.3095,20.0304],[106.2799,-6.3072,23.1295],[106.2796,-6.3031,17.0187],[106.2769,-6.3015,29.4183],[106.2744,-6.301,14.9133],[106.261,-6.3063,18.2608],[106.2616,-6.3098,15.6838],[106.2597,-6.3108,21.5428],[106.2523,-6.3089,16.0747],[106.2528,-6.3064,16.0288],[106.259,-6.3036,18.7997],[106.259,-6.2996,16.1722],[106.2452,-6.2971,16.0421],[106.2436,-6.2982,16.1181],[106.244,-6.3046,19.8421],[106.2385,-6.3061,18.3479],[106.234,-6.3034,27.8886],[106.2314,-6.3109,18.2721],[106.2251,-6.3126,20.7949],[106.2198,-6.3089,50.1755],[106.2171,-6.3088,62.3316],[106.2181,-6.303,57.9907],[106.2208,-6.2999,46.9922],[106.2156,-6.2987,57.3279],[106.2154,-6.2941,71.3129],[106.2117,-6.291,72.9227],[106.2057,-6.2911,77.1839],[106.1969,-6.2887,90.2296],[106.1892,-6.2891,87.8024],[106.1844,-6.2873,96.8723],[106.1805,-6.2893,109.5419],[106.1739,-6.2884,110.7856],[106.1676,-6.2929,107.983],[106.1651,-6.293,110.6432],[106.1639,-6.2955,121.2258],[106.1613,-6.2947,145.1741],[106.1608,-6.2965,138.9692],[106.1564,-6.2981,160.0034],[106.1591,-6.3019,139.225],[106.1566,-6.3092,143.2108],[106.1581,-6.3133,133.1512],[106.1509,-6.3196,128.3483],[106.1515,-6.325,136.9076],[106.1482,-6.3242,132.1485],[106.1407,-6.3266,129.3205],[106.1359,-6.3254,140.1805],[106.1301,-6.328,146.2331],[106.1296,-6.3333,137.5038],[106.1317,-6.3362,130.1522],[106.1322,-6.3444,130.1391],[106.1291,-6.3533,116.9052],[106.1297,-6.3574,112.4696],[106.1255,-6.3584,111.508],[106.1238,-6.3565,120.8671],[106.126,-6.3632,103.346],[106.1255,-6.3691,86.5839],[106.129,-6.3717,84.4631],[106.1306,-6.3757,93.5004],[106.1261,-6.3834,62.0618],[106.1211,-6.3844,69.4146],[106.1216,-6.3903,108.819],[106.1169,-6.3994,93.2348],[106.1168,-6.4074,99.1529],[106.1135,-6.4128,67.3302],[106.1128,-6.4192,57.2499],[106.1065,-6.424,49.2051],[106.1053,-6.4219,50.7762],[106.1012,-6.4272,94.0309],[106.0941,-6.4277,105.8679],[106.0863,-6.4237,84.8609],[106.0836,-6.4148,92.1427],[106.0793,-6.414,105.4792],[106.0784,-6.4114,96.9167],[106.0727,-6.4107,111.1683],[106.0719,-6.4119,106.375],[106.0698,-6.409,117.6698],[106.0658,-6.4086,107.0417],[106.0605,-6.4134,122.1161],[106.0455,-6.4125,117.7645],[106.0384,-6.4222,105.2359],[106.0257,-6.4322,104.8799],[106.0245,-6.4419,93.7212],[106.0208,-6.4453,97.0667],[106.0174,-6.4539,95.6933],[106.0106,-6.4583,89.5926],[106.0085,-6.4658,36.3861],[106.0095,-6.4742,86.599],[106.008,-6.4762,79.2936],[106.0032,-6.4762,83.0469],[106.001,-6.4782,82.4857],[105.9926,-6.4965,26.4493],[105.9908,-6.4956,23.3569],[105.9886,-6.4971,27.0152],[105.9836,-6.5046,73.0697],[105.9925,-6.5173,47.127],[105.9897,-6.5197,52.5683],[105.9876,-6.5251,39.9387],[105.9815,-6.5238,68.6321],[105.9853,-6.5409,51.3057],[105.9792,-6.5436,69.3966],[105.9758,-6.5424,75.0061],[105.9743,-6.5437,65.9947],[105.9764,-6.5482,61.6648],[105.9749,-6.5531,66.3426],[105.9708,-6.5561,49.8476],[105.9721,-6.5613,70.4681],[105.9709,-6.5658,55.9052],[105.9649,-6.5717,37.387],[105.9592,-6.5707,49.3894],[105.9528,-6.5829,34.6767],[105.9495,-6.5845,35.5779],[105.9468,-6.5829,50.9249],[105.9425,-6.5927,28.5164],[105.9334,-6.6019,21.3754],[105.9336,-6.6133,20.6614],[105.9309,-6.6135,19.5144],[105.9287,-6.6164,20.6309],[105.932,-6.6171,20.1795],[105.9317,-6.6232,27.2741],[105.933,-6.625,42.2466],[105.9398,-6.6257,55.3438],[105.9428,-6.6295,73.4453],[105.9426,-6.6362,70.4466],[105.9451,-6.645,87.5001],[105.9433,-6.6473,89.3721],[105.9435,-6.6582,78.8273],[105.9392,-6.6632,81.5591],[105.9368,-6.6719,92.4128],[105.9386,-6.6871,64.295],[105.9368,-6.6901,63.2838],[105.9327,-6.691,57.9696],[105.9327,-6.6934,56.4155],[105.9278,-6.6978,53.7466],[105.928,-6.7068,43.9196],[105.9231,-6.7102,38.2132],[105.9175,-6.7191,26.6682],[105.9111,-6.7193,25.7356],[105.9108,-6.7175,25.5513],[105.9046,-6.717,18.0362],[105.9043,-6.7186,17.5],[105.9024,-6.7189,17.5],[105.9037,-6.7178,18.0362],[105.9016,-6.7148,17.5],[105.9022,-6.7124,20.3629],[105.9063,-6.7133,38.9395],[105.9105,-6.7125,27.3065],[105.9139,-6.7088,24.1204],[105.9081,-6.7129,28.4147],[105.9051,-6.7128,20.5085],[105.9071,-6.7103,41.8256],[105.9013,-6.7125,20.3629],[105.8997,-6.7061,22.4673],[105.9038,-6.7053,29.2167],[105.899,-6.7054,22.4673],[105.8984,-6.709,33.9107],[105.8997,-6.7094,26.3167],[105.9005,-6.7161,19.9363],[105.8971,-6.714,19.9585],[105.8956,-6.7063,25.9727],[105.895,-6.7079,25.9727],[105.8954,-6.7116,17.5],[105.8934,-6.7105,17.6452],[105.895,-6.7126,17.5],[105.8935,-6.7122,17.927],[105.894,-6.7136,17.5],[105.8924,-6.7123,18.368],[105.8928,-6.7076,34.5217],[105.8915,-6.7062,28.1611],[105.8924,-6.7078,23.8172],[105.8898,-6.7099,22.2774],[105.8903,-6.7107,22.2774],[105.8913,-6.7112,17.7492],[105.8891,-6.7109,22.2774],[105.8891,-6.712,32.5051],[105.8926,-6.7133,17.5],[105.8924,-6.7154,28.7407],[105.896,-6.7163,18.9067],[105.8949,-6.7199,16.653],[105.8925,-6.7208,19.993],[105.8932,-6.7237,18.608],[105.8911,-6.7253,20.6335],[105.8908,-6.7306,17.5578],[105.8935,-6.7306,16.0891],[105.8939,-6.7357,16.7617],[105.8923,-6.7358,15.6553],[105.8935,-6.7382,13.3252],[105.8914,-6.739,17.1091],[105.892,-6.7408,14.7852],[105.8899,-6.7406,12.7594],[105.8884,-6.7428,16.3752],[105.8894,-6.7446,12.7402],[105.8872,-6.745,14.4942],[105.8885,-6.7466,11.0113],[105.886,-6.7462,17.0219],[105.8861,-6.7495,16.6218],[105.8848,-6.7504,13.2394],[105.8865,-6.7519,14.0411],[105.8848,-6.752,14.303],[105.8862,-6.7548,12.8595],[105.884,-6.7542,15.3086],[105.883,-6.7555,14.9797],[105.8849,-6.7574,13.6294],[105.8829,-6.7611,12.1491],[105.884,-6.7645,13.597],[105.8818,-6.7632,14.8306],[105.8776,-6.7671,13.5064],[105.876,-6.766,10.5586],[105.8766,-6.7688,10.7198],[105.874,-6.7681,12.4078],[105.8741,-6.7705,9.154],[105.8721,-6.7698,9.5536],[105.873,-6.7717,7.5551],[105.8687,-6.7752,7.5579],[105.867,-6.7809,5.3155],[105.863,-6.7813,5.6638],[105.864,-6.7835,10.3082],[105.8674,-6.7839,5.9283],[105.8668,-6.79,7.086],[105.869,-6.79,7.6569],[105.8714,-6.7875,7.2831],[105.8715,-6.7941,10.3533],[105.8747,-6.7919,7.5746],[105.8778,-6.7948,7.1799],[105.8743,-6.7974,8.518],[105.878,-6.8034,6.4362],[105.876,-6.806,6.4641],[105.8734,-6.8058,5.9821],[105.875,-6.8086,7.2505],[105.8694,-6.8071,3.152],[105.8689,-6.8095,4.6631],[105.8719,-6.8136,7.2495],[105.875,-6.8116,7.1157],[105.8792,-6.8137,5.8051],[105.8755,-6.8178,3.8649],[105.8781,-6.8223,3.0445],[105.8801,-6.8219,3.0445],[105.8806,-6.8175,7.6525],[105.8884,-6.8208,7.794],[105.8833,-6.8231,1.384],[105.8836,-6.8279,1.5181],[105.8864,-6.829,4.8998],[105.8857,-6.8308,1.2221],[105.8813,-6.8298,2.8594],[105.88,-6.8315,9.157],[105.8803,-6.834,2.0249],[105.8835,-6.836,3.6902],[105.8829,-6.8407,5.7486],[105.8795,-6.8438,0.0],[105.882,-6.8457,0.5717],[105.8875,-6.8457,1.6174],[105.8966,-6.84,1.4886],[105.9009,-6.8429,0.0],[105.9015,-6.8403,0.0],[105.8943,-6.834,7.9338],[105.8934,-6.8291,2.1514],[105.8952,-6.8259,3.3886],[105.9056,-6.8198,0.0],[105.9239,-6.8149,0.0],[105.9601,-6.812,3.4341],[105.9783,-6.8129,5.2973],[105.993,-6.814,2.791],[106.0318,-6.8223,0.0],[106.0615,-6.8345,8.0259],[106.0646,-6.8378,0.7855],[106.0653,-6.8421,0.0],[106.0748,-6.8519,3.0151],[106.0819,-6.8579,5.3882],[106.085,-6.8587,8.5907],[106.0944,-6.8758,6.136],[106.1052,-6.8801,15.4199],[106.1059,-6.8829,1.9856],[106.1357,-6.8937,7.9673],[106.1402,-6.8992,2.4471],[106.1484,-6.9031,0.0],[106.1551,-6.9027,6.6804],[106.165,-6.9085,0.7028],[106.1719,-6.9087,2.9692],[106.1728,-6.9105,1.0117],[106.1878,-6.91,0.0],[106.1997,-6.9136,1.8943],[106.2137,-6.9191,1.3393],[106.2381,-6.932,0.0],[106.2459,-6.9398,0.0],[106.2478,-6.9483,7.216],[106.2415,-6.952,29.4854],[106.2394,-6.9559,0.0],[106.246,-6.9606,2.8525],[106.2548,-6.9603,3.025],[106.2591,-6.9623,7.7751],[106.2627,-6.9675,0.0],[106.2654,-6.9684,8.268],[106.2648,-6.9731,0.0],[106.2698,-6.9761,20.2122],[106.2787,-6.978,2.7259],[106.2801,-6.9799,0.0],[106.284,-6.9742,20.9968],[106.3016,-6.9789,0.0],[106.3083,-6.9867,2.2507],[106.3089,-6.9896,2.913],[106.3066,-6.994,2.5453],[106.31,-6.9958,0.0],[106.3203,-6.9916,16.0909],[106.3229,-6.9879,3.9894],[106.3253,-6.9885,0.7884],[106.3253,-6.9917,0.0],[106.3309,-6.9918,0.0],[106.3345,-6.9877,32.8537],[106.3376,-6.9872,2.7813],[106.3433,-6.9901,2.2946],[106.3433,-6.9975,4.8046],[106.3527,-6.9941,31.3372],[106.3561,-6.9963,26.6408],[106.3547,-6.9994,0.0],[106.36,-6.9969,0.0],[106.3618,-6.9948,0.0],[106.3607,-6.9926,47.3247],[106.3625,-6.9917,6.4971]]],
[[[106.2797,-6.9804,0.0],[106.2799,-6.9801,0.0],[106.2796,-6.9799,0.0],[106.2794,-6.9802,0.0],[106.2797,-6.9804,0.0]]],
[[[106.262,-6.9722,0.0],[106.2622,-6.972,0.0],[106.2621,-6.9717,0.0],[106.262,-6.9717,0.0],[106.262,-6.9722,0.0]]],
[[[106.2611,-6.9722,0.0],[106.2618,-6.9724,0.0],[106.2618,-6.9714,0.0],[106.2615,-6.9714,0.0],[106.2611,-6.9722,0.0]]]]}}