{"type":"Feature","properties":{"GID_3":"IDN.12.4.12_1","GID_0":"IDN","country":"Indonesia","GID_1":"IDN.12_1","province":"KalimantanBarat","NL_NAME_1":"NA","GID_2":"IDN.12.4_1","county":"Ketapang","NL_NAME_2":"NA","city":"NangaTayap","VARNAME_3":"NA","NL_NAME_3":"NA","TYPE_3":"Kecamatan","ENGTYPE_3":"Sub-district","CC_3":"6106090","HASC_3":"NA","name":"Nanga_Tayap.city"},
"geometry":{"type": "MultiPolygon","coordinates": [[[[110.6508,-1.6958,185.5045],[110.7347,-1.6845,513.7081],[110.7571,-1.6705,252.9675],[110.7806,-1.6526,397.3899],[110.8223,-1.6265,102.8378],[110.8408,-1.6224,270.698],[110.8547,-1.6224,415.6046],[110.8631,-1.6283,694.6035],[110.8816,-1.6189,263.5634],[110.8897,-1.6125,211.2565],[110.8939,-1.6011,251.8414],[110.8997,-1.5917,227.574],[110.9133,-1.5846,365.3699],[110.9239,-1.5838,242.7505],[110.9127,-1.5643,363.1904],[110.8977,-1.5432,420.2169],[110.8936,-1.519,169.4944],[110.8975,-1.4999,232.3849],[110.8959,-1.4833,322.4982],[110.889,-1.4597,433.0555],[110.8731,-1.4337,392.492],[110.8213,-1.3818,415.8832],[110.7909,-1.3548,222.9352],[110.744,-1.3361,79.62],[110.7029,-1.3239,69.4355],[110.6521,-1.3161,67.0576],[110.611,-1.3155,54.9181],[110.5618,-1.321,43.3461],[110.523,-1.3211,39.9537],[110.4946,-1.315,20.9236],[110.4944,-1.3181,22.3346],[110.4857,-1.3183,16.7127],[110.4796,-1.322,18.5191],[110.4773,-1.3218,14.9416],[110.4722,-1.3195,16.6088],[110.4705,-1.3125,23.2551],[110.4662,-1.3079,30.5286],[110.4626,-1.3087,19.4803],[110.4594,-1.3056,44.6244],[110.4551,-1.3056,20.195],[110.4576,-1.3008,18.012],[110.4555,-1.2967,19.3112],[110.4512,-1.295,20.102],[110.4499,-1.2893,35.7917],[110.4528,-1.2804,28.608],[110.457,-1.2787,25.2769],[110.4555,-1.2738,32.5142],[110.4467,-1.2751999999999999,22.2041],[110.4435,-1.2744,21.9124],[110.4411,-1.2778,23.152],[110.4347,-1.2758,28.9932],[110.4309,-1.2701,23.2191],[110.4297,-1.2658,27.165],[110.434,-1.2618,22.5432],[110.4374,-1.2622,22.7872],[110.4391,-1.2589,25.2101],[110.437,-1.2544,24.92],[110.438,-1.2516,26.1061],[110.4347,-1.2498,21.2371],[110.4375,-1.2464,21.6863],[110.4341,-1.2394,25.4453],[110.4413,-1.2341,31.3826],[110.4187,-1.2255,40.6134],[110.3813,-1.2268,44.7653],[110.353,-1.2363,49.5132],[110.3177,-1.2615,80.0717],[110.2707,-1.3044,60.7708],[110.2619,-1.3068,103.3343],[110.2707,-1.386,23.3692],[110.2838,-1.4144,17.9959],[110.3041,-1.4381,32.8735],[110.3152,-1.4637,32.0055],[110.3149,-1.4882,99.2427],[110.2991,-1.5199,27.287],[110.2837,-1.5609,36.6458],[110.2827,-1.5989,32.554],[110.2938,-1.657,7.5681],[110.2982,-1.6563,6.5],[110.3044,-1.6609,7.0212],[110.3075,-1.6605,6.5],[110.3167,-1.6475,6.875],[110.3188,-1.6392,7.0],[110.3253,-1.635,7.0],[110.3293,-1.6362,18.4732],[110.3306,-1.6391,7.0],[110.3335,-1.6529,7.0],[110.336,-1.6554,14.6334],[110.3398,-1.6563,17.6204],[110.3431,-1.6535,10.1371],[110.3516,-1.6525,22.0621],[110.372,-1.6405,19.175],[110.4131,-1.6465,29.3195],[110.4329,-1.6452,19.3162],[110.4715,-1.629,25.8926],[110.4975,-1.6288,22.609],[110.5199,-1.6359,26.5773],[110.5472,-1.6567,58.0349],[110.5636,-1.6779,29.1148],[110.6044,-1.6932,54.4335],[110.6508,-1.6958,185.5045]]]]}}