{"type":"Feature","properties":{"GID_3":"IDN.32.4.1_1","GID_0":"IDN","country":"Indonesia","GID_1":"IDN.32_1","province":"SumateraUtara","NL_NAME_1":"NA","GID_2":"IDN.32.4_1","county":"DeliSerdang","NL_NAME_2":"NA","city":"BangunPurba","VARNAME_3":"NA","NL_NAME_3":"NA","TYPE_3":"Kecamatan","ENGTYPE_3":"Sub-district","CC_3":"1212090","HASC_3":"NA","name":"Bangun_Purba.city"},
"geometry":{"type": "MultiPolygon","coordinates": [[[[98.8568,3.3432,69.6755],[98.858,3.3438,79.732],[98.8602,3.3405,70.4214],[98.8635,3.3428,81.2962],[98.8706,3.3443,80.0592],[98.8689,3.3769,101.2548],[98.8729,3.4038,80.291],[98.8696,3.4194,64.2223],[98.8635,3.4304,53.6847],[98.8487,3.4432,48.8094],[98.836,3.4477,48.8352],[98.8161,3.4473,64.0668],[98.8057,3.4356,69.6689],[98.7982,3.4117,94.5862],[98.7983,3.404,105.9698],[98.7949,3.394,105.7316],[98.778,3.3604,146.9467],[98.7606,3.3367,172.5208],[98.7515,3.3283,187.8107],[98.7616,3.3205,193.3081],[98.7737,3.304,184.5908],[98.7764,3.295,194.3955],[98.796,3.2983,151.0601],[98.8076,3.3048,148.0909],[98.8123,3.3046,128.0345],[98.8143,3.3085,132.4006],[98.8199,3.313,128.628],[98.8295,3.3149,125.4184],[98.8325,3.3182,134.8411],[98.836,3.3293,88.7228],[98.8402,3.3298,88.1147],[98.8448,3.3374,80.2231],[98.8484,3.3366,78.2068],[98.8568,3.3432,69.6755]]]]}}