{"type":"Feature","properties":{"GID_3":"IDN.4.5.4_1","GID_0":"IDN","country":"Indonesia","GID_1":"IDN.4_1","province":"Banten","NL_NAME_1":"NA","GID_2":"IDN.4.5_1","county":"Pandeglang","NL_NAME_2":"NA","city":"Cadasari","VARNAME_3":"NA","NL_NAME_3":"NA","TYPE_3":"Kecamatan","ENGTYPE_3":"Sub-district","CC_3":"3601190","HASC_3":"NA","name":"Cadasari.city"},
"geometry":{"type": "MultiPolygon","coordinates": [[[[106.1162,-6.2713,279.707],[106.119,-6.271,247.3749],[106.1234,-6.2738,221.3669],[106.1255,-6.2731,215.347],[106.1345,-6.2771,185.6783],[106.1359,-6.2725,210.665],[106.1405,-6.273,196.8928],[106.1403,-6.2703,188.5274],[106.142,-6.2678,171.2791],[106.1447,-6.2689,170.5616],[106.1471,-6.2732,158.2033],[106.149,-6.273,154.956],[106.1496,-6.2752,156.5427],[106.1529,-6.2746,160.1473],[106.1557,-6.2698,150.9372],[106.1578,-6.2694,142.4016],[106.1585,-6.2709,140.1927],[106.1587,-6.2666,134.7526],[106.1632,-6.2632,122.9284],[106.163,-6.2524,120.9237],[106.1476,-6.2512,134.1922],[106.1458,-6.2518,148.2997],[106.1454,-6.2548,154.6426],[106.1387,-6.2546,162.8042],[106.1343,-6.2582,180.6369],[106.1324,-6.2581,186.8987],[106.1246,-6.2542,214.7313],[106.1224,-6.2493,203.5664],[106.1176,-6.2517,248.4058],[106.1114,-6.2514,275.6744],[106.1083,-6.2486,287.9202],[106.1074,-6.2431,267.3769],[106.101,-6.2317,249.6639],[106.0922,-6.236,324.548],[106.0832,-6.2313,383.0821],[106.077,-6.2428,481.7461],[106.0755,-6.252,621.5192],[106.0723,-6.2568,749.8291],[106.0572,-6.2661,1452.1268],[106.0496,-6.2686,1752.0422],[106.0555,-6.276,1450.8634],[106.0605,-6.2787,1318.7767],[106.0683,-6.277,1104.0991],[106.0748,-6.2723,932.8824],[106.0937,-6.2706,517.0024],[106.0968,-6.2718,447.8642],[106.097,-6.2766,425.3292],[106.0996,-6.2753,404.9344],[106.1028,-6.2761,365.8591],[106.1062,-6.2717,371.6967],[106.1162,-6.2713,279.707]]]]}}