{"type":"Feature","properties":{"GID_3":"IDN.9.5.22_1","GID_0":"IDN","country":"Indonesia","GID_1":"IDN.9_1","province":"JawaBarat","NL_NAME_1":"NA","GID_2":"IDN.9.5_1","county":"Bogor","NL_NAME_2":"NA","city":"KelapaNunggal","VARNAME_3":"NA","NL_NAME_3":"NA","TYPE_3":"Kecamatan","ENGTYPE_3":"Sub-district","CC_3":"3201181","HASC_3":"NA","name":"Kelapa_Nunggal.city"},
"geometry":{"type": "MultiPolygon","coordinates": [[[[106.9077,-6.5055,120.7455],[106.908,-6.5116,128.7188],[106.9117,-6.5103,133.9385],[106.9161,-6.5194,140.0556],[106.9211,-6.522,146.8904],[106.9239,-6.5214,154.7059],[106.9285,-6.5247,159.128],[106.9286,-6.5265,169.5486],[106.9317,-6.5262,198.45],[106.9287,-6.529,170.8712],[106.9345,-6.5302,180.4496],[106.936,-6.5343,178.2424],[106.9411,-6.5331,181.609],[106.9415,-6.5312,223.5891],[106.9423,-6.5328,189.2153],[106.9479,-6.5326,194.8534],[106.9479,-6.5358,194.8198],[106.9502,-6.5358,201.3174],[106.9512,-6.5341,196.0622],[106.9576,-6.5342,213.26],[106.9595,-6.531,253.0423],[106.9612,-6.5331,238.4247],[106.9606,-6.5348,238.4726],[106.9637,-6.5333,258.4771],[106.9737,-6.5334,290.9438],[106.9816,-6.5151,621.9569],[106.9914,-6.511,347.981],[106.9952,-6.5049,289.5176],[107.0043,-6.5005,148.607],[107.0056,-6.4962,112.8055],[107.0014,-6.4915,117.0372],[107.0005,-6.4864,91.5751],[107.0017,-6.4846,93.4603],[107.0,-6.4829,87.4775],[107.0023,-6.4806,85.3251],[107.0029,-6.4753,82.6258],[107.0,-6.4735,82.5411],[106.999,-6.4701,82.6588],[106.9944,-6.4679,82.4447],[106.9937,-6.4646,80.7328],[107.0,-6.4587,77.4925],[107.0018,-6.4592,75.8071],[107.0036,-6.4584,75.8071],[107.0036,-6.4563,75.6553],[107.005,-6.4567,74.9916],[107.0044,-6.4558,73.3314],[107.0059,-6.4551,74.5601],[107.0046,-6.4527,72.3808],[107.0062,-6.4482,70.6519],[107.008,-6.4478,70.8586],[107.0107,-6.4498,75.8289],[107.0138,-6.4448,70.0519],[107.0203,-6.4447,66.5753],[107.0209,-6.4435,65.4305],[107.024,-6.4451,65.0086],[107.0242,-6.4357,61.2738],[107.0201,-6.4352,62.6985],[107.0126,-6.4378,68.5668],[107.0103,-6.4411,65.8056],[107.0082,-6.4404,65.9514],[107.0058,-6.4431,78.1606],[106.9977,-6.4452,70.9743],[106.991,-6.439,83.9333],[106.9821,-6.4386,77.5426],[106.9786,-6.442,83.3892],[106.9724,-6.44,83.0325],[106.9626,-6.4494,92.2487],[106.9604,-6.4477,95.2053],[106.9619,-6.4407,87.434],[106.9562,-6.4423,91.7127],[106.9514,-6.4404,95.4277],[106.952,-6.4365,68.1034],[106.9486,-6.4363,70.1339],[106.9459,-6.4332,68.2243],[106.9418,-6.4342,71.9808],[106.9401,-6.4302,64.8303],[106.9359,-6.4409,83.2148],[106.9369,-6.4427,80.6054],[106.9314,-6.444,84.2791],[106.9322,-6.4457,71.0392],[106.9304,-6.4476,71.5015],[106.9275,-6.4471,87.8462],[106.9233,-6.4581,72.3286],[106.9203,-6.4584,75.0308],[106.9153,-6.4547,72.9627],[106.9157,-6.4591,72.4408],[106.9104,-6.4633,108.7687],[106.9109,-6.4602,80.1482],[106.909,-6.4587,93.4002],[106.9112,-6.4569,75.8967],[106.9091,-6.4562,98.3102],[106.9068,-6.4577,99.7436],[106.9067,-6.4609,80.6437],[106.9006,-6.4618,81.773],[106.8925,-6.467,98.3441],[106.894,-6.4701,97.2906],[106.9006,-6.4718,98.4558],[106.9077,-6.4803,107.9913],[106.9041,-6.4835,112.6263],[106.908,-6.4879,121.1503],[106.9063,-6.4928,128.5494],[106.9107,-6.4958,114.4488],[106.9077,-6.5055,120.7455]]]]}}