{"type":"Feature","properties":{"GID_3":"IDN.21.9.4_1","GID_0":"IDN","country":"Indonesia","GID_1":"IDN.21_1","province":"NusaTenggaraTimur","NL_NAME_1":"NA","GID_2":"IDN.21.9_1","county":"ManggaraiTimur","NL_NAME_2":"NA","city":"Lambaleda","VARNAME_3":"NA","NL_NAME_3":"NA","TYPE_3":"Kecamatan","ENGTYPE_3":"Sub-district","CC_3":"5319060","HASC_3":"NA","name":"Lambaleda.city"},
"geometry":{"type": "MultiPolygon","coordinates": [[[[120.6391,-8.4722,313.1742],[120.6394,-8.4598,283.2396],[120.6454,-8.4549,233.702],[120.6509,-8.4547,295.7205],[120.6509,-8.4525,229.4567],[120.657,-8.4488,214.988],[120.6573,-8.4443,200.7504],[120.6617,-8.4419,194.2656],[120.6619,-8.4341,189.9674],[120.6562,-8.4325,146.749],[120.657,-8.4277,145.51],[120.6555,-8.4266,128.5528],[120.6533,-8.428,157.1304],[120.6522,-8.4262,113.2653],[120.6557,-8.4215,107.6207],[120.6545,-8.4208,127.3091],[120.6551,-8.4177,122.6601],[120.6622,-8.4009,86.925],[120.657,-8.3914,70.7125],[120.6521,-8.3905,55.5892],[120.6506,-8.3859,64.6493],[120.6518,-8.3801,66.935],[120.6568,-8.3779,46.539],[120.6542,-8.3743,58.787],[120.6563,-8.37,45.9682],[120.6549,-8.367,29.6803],[120.6549,-8.3583,22.2942],[120.6586,-8.3554,20.1964],[120.6589,-8.3518,16.4031],[120.6661,-8.3479,20.4357],[120.6746,-8.3488,12.3241],[120.6791,-8.3439,10.4005],[120.682,-8.3438,9.1856],[120.6814,-8.34,34.2756],[120.6843,-8.3353,21.5137],[120.6887,-8.3365,17.8957],[120.6877,-8.3321,1.5749],[120.6898,-8.3295,0.0],[120.6775,-8.3224,0.0],[120.6759,-8.3131,0.0],[120.6772,-8.3096,4.1799],[120.6741,-8.3076,0.0],[120.667,-8.3084,35.3814],[120.6635,-8.3068,13.4105],[120.6617,-8.3051,6.0918],[120.6623,-8.3034,3.1436],[120.6594,-8.3021,0.8734],[120.6566,-8.2899,88.7107],[120.628,-8.268,0.0],[120.6186,-8.2638,0.0],[120.6124,-8.2638,3.9292],[120.6083,-8.2595,0.0],[120.6011,-8.2554,0.4435],[120.5949,-8.2571,39.7807],[120.5938,-8.2544,0.0],[120.5909,-8.2602,0.0],[120.593,-8.2663,0.0],[120.5962,-8.2698,0.0],[120.6005,-8.2704,18.5166],[120.6054,-8.2769,77.2159],[120.5997,-8.2904,5.2575],[120.5908,-8.2971,1.6323],[120.5775,-8.2956,1.1378],[120.569,-8.2969,1.8704],[120.5629,-8.3008,4.1362],[120.5583,-8.3002,2.2859],[120.5552,-8.2956,0.7294],[120.5522,-8.2938,1.6098],[120.5502,-8.2946,17.0777],[120.5415,-8.288,25.2508],[120.5397,-8.2826,0.0],[120.5319,-8.2773,1.4129],[120.5326,-8.2737,3.7141],[120.5301,-8.2723,0.0],[120.5259,-8.2738,0.7497],[120.5196,-8.2793,11.4449],[120.5147,-8.2805,0.0],[120.5121,-8.2833,7.4328],[120.5078,-8.2844,1.9871],[120.5058,-8.283,7.4666],[120.5046,-8.2844,7.4666],[120.5055,-8.2858,3.0658],[120.5027,-8.289,7.2797],[120.4928,-8.2927,0.0],[120.4961,-8.3017,1.3743],[120.494,-8.3109,2.5375],[120.4915,-8.316,0.5],[120.4826,-8.3137,4.9897],[120.4804,-8.3215,2.7774],[120.4797,-8.3288,11.8867],[120.483,-8.3332,26.3906],[120.4819,-8.3417,31.2733],[120.4836,-8.3491,10.9169],[120.4826,-8.3515,52.6276],[120.4787,-8.3536,9.4768],[120.4773,-8.3578,12.9521],[120.4795,-8.3627,13.7357],[120.478,-8.3675,12.4673],[120.4781,-8.3821,13.4662],[120.4845,-8.3832,35.343],[120.4888,-8.3884,33.2542],[120.4988,-8.3936,47.4455],[120.4985,-8.3966,44.1404],[120.5002,-8.3989,57.4736],[120.4992,-8.403,52.9278],[120.5059,-8.4031,48.7122],[120.5066,-8.4073,55.6715],[120.5135,-8.4089,82.3385],[120.5121,-8.4152,64.2442],[120.5168,-8.4169,77.7816],[120.5169,-8.4233,102.1408],[120.5203,-8.4247,90.8037],[120.521,-8.4268,110.7536],[120.5201,-8.4312,93.8562],[120.5221,-8.4321,102.337],[120.5243,-8.4379,142.9781],[120.5305,-8.4449,149.8206],[120.5306,-8.4481,157.2962],[120.535,-8.4509,158.5373],[120.5322,-8.4603,188.0157],[120.5369,-8.4677,198.5822],[120.5357,-8.4693,192.3449],[120.5381,-8.4724,233.4019],[120.5424,-8.4908,276.4117],[120.5461,-8.4926,279.9793],[120.5463,-8.4989,270.6644],[120.5479,-8.5009,305.2119],[120.5524,-8.5034,339.6241],[120.5647,-8.504,605.5073],[120.5735,-8.5085,1008.0547],[120.5751,-8.5077,1031.9578],[120.5745,-8.5009,969.2566],[120.5762,-8.4914,1030.5986],[120.5841,-8.4881,1000.9952],[120.5822,-8.4745,807.7632],[120.5928,-8.4686,725.7091],[120.5992,-8.467,731.3644],[120.606,-8.4846,811.3154],[120.6037,-8.4884,811.1732],[120.604,-8.4908,858.6033],[120.6155,-8.504,804.7004],[120.6189,-8.5102,605.2254],[120.6229,-8.512,507.0338],[120.6263,-8.5104,509.2452],[120.6241,-8.5019,447.3687],[120.6299,-8.4953,421.0262],[120.6304,-8.4879,362.2264],[120.6361,-8.4852,330.1655],[120.6398,-8.4762,368.8361],[120.6391,-8.4722,313.1742]]]]}}