{"type":"Feature","properties":{"GID_3":"IDN.23.26.35_1","GID_0":"IDN","country":"Indonesia","GID_1":"IDN.23_1","province":"Papua","NL_NAME_1":"NA","GID_2":"IDN.23.26_1","county":"Tolikara","NL_NAME_2":"NA","city":"Yuneri","VARNAME_3":"NA","NL_NAME_3":"NA","TYPE_3":"Distrik","ENGTYPE_3":"District","CC_3":"9418121","HASC_3":"NA","name":"Yuneri.city"},
"geometry":{"type": "MultiPolygon","coordinates": [[[[138.4008,-3.5205,928.7302],[138.4293,-3.5278,1102.428],[138.4626,-3.534,1453.8608],[138.465,-3.5195,1887.2683],[138.4704,-3.5121,2206.7654],[138.467,-3.5023,2824.7156],[138.465,-3.4891,3126.49],[138.468,-3.4778,3386.6104],[138.468,-3.4695,2930.4797],[138.4655,-3.4592,2544.4658],[138.4557,-3.4553,2364.3035],[138.443,-3.4597,2131.5486],[138.4371,-3.4558,1876.3192],[138.4258,-3.4548,1711.4639],[138.4252,-3.4483,1349.1404],[138.3983,-3.4357,1592.496],[138.3702,-3.438,2381.4419],[138.3647,-3.4362,1988.693],[138.3473,-3.4677,843.4313],[138.3429,-3.471,752.1652],[138.3399,-3.4779,565.4835],[138.3481,-3.4865,709.3491],[138.347,-3.492,599.621],[138.3495,-3.4971,597.0689],[138.3573,-3.5041,598.5646],[138.3617,-3.5063,628.5141],[138.3708,-3.5041,661.2841],[138.3797,-3.5111,751.0074],[138.3839,-3.5177,682.7651],[138.3906,-3.5165,780.0687],[138.4008,-3.5205,928.7302]]]]}}