{"type":"Feature","properties":{"GID_3":"IDN.10.9.18_1","GID_0":"IDN","country":"Indonesia","GID_1":"IDN.10_1","province":"JawaTengah","NL_NAME_1":"NA","GID_2":"IDN.10.9_1","county":"Grobogan","NL_NAME_2":"NA","city":"Toroh","VARNAME_3":"NA","NL_NAME_3":"NA","TYPE_3":"Kecamatan","ENGTYPE_3":"Sub-district","CC_3":"3315040","HASC_3":"NA","name":"Toroh.city"},
"geometry":{"type": "MultiPolygon","coordinates": [[[[110.9168,-7.2035,88.2807],[110.9305,-7.2028,70.2163],[110.9333,-7.2015,81.8036],[110.9348,-7.2,70.451],[110.9351,-7.1938,132.9543],[110.9432,-7.1981,92.204],[110.9478,-7.1987,92.3792],[110.9595,-7.1926,129.7265],[110.9646,-7.1915,149.9324],[110.9699,-7.1866,97.3819],[110.9727,-7.1866,97.5558],[110.976,-7.1896,111.6455],[110.979,-7.1894,84.4622],[110.9806,-7.1853,96.1307],[110.9865,-7.1816,77.2211],[110.993,-7.1828,65.1279],[110.9956,-7.1803,58.2642],[110.9979,-7.1813,64.1505],[111.0015,-7.1768,54.7113],[111.0047,-7.1757,50.0638],[111.005,-7.1689,44.8964],[111.0017,-7.1674,49.2797],[111.0062,-7.1646,46.8516],[110.9973,-7.1604,44.9196],[111.0,-7.155,42.7254],[111.0028,-7.1549,43.4805],[111.004,-7.1567,45.8333],[111.0063,-7.1553,45.6578],[111.0066,-7.1514,45.22],[111.0027,-7.1495,44.1683],[111.0018,-7.1417,34.6534],[111.0002,-7.1427,34.6534],[110.9985,-7.1401,35.0378],[111.0008,-7.1404,35.1434],[111.0006,-7.138,34.9786],[110.9983,-7.1391,35.906],[110.9984,-7.137,40.3703],[110.9967,-7.1391,37.706],[110.9924,-7.1394,37.331],[110.9876,-7.1465,39.547],[110.985,-7.1465,45.0885],[110.9792,-7.1437,40.2101],[110.9756,-7.13,35.1285],[110.9687,-7.1277,32.1884],[110.9678,-7.123,31.8442],[110.9645,-7.1227,33.2481],[110.9627,-7.1244,34.5929],[110.9629,-7.1288,33.4628],[110.961,-7.1334,34.5878],[110.9405,-7.1262,28.5096],[110.9384,-7.13,28.5157],[110.9359,-7.1295,28.3375],[110.934,-7.1289,28.3375],[110.9341,-7.1248,27.8514],[110.9036,-7.115,27.9784],[110.9019,-7.1179,27.4652],[110.8856,-7.116,26.2355],[110.8848,-7.1194,26.7621],[110.8758,-7.118,25.6542],[110.8754,-7.1201,25.9876],[110.8675,-7.1206,27.1729],[110.8649,-7.123,26.2488],[110.8592,-7.1222,26.2444],[110.862,-7.1261,26.3381],[110.857,-7.1252,25.1393],[110.8556,-7.1288,26.1219],[110.8565,-7.1317,25.1817],[110.8635,-7.1287,26.4202],[110.8667,-7.1293,25.3521],[110.8673,-7.1309,25.5788],[110.8657,-7.1328,25.8295],[110.8629,-7.1327,25.7309],[110.8624,-7.1361,29.3187],[110.8581,-7.1332,26.6957],[110.8507,-7.1432,27.2815],[110.8511,-7.1463,29.4572],[110.8419,-7.151,30.2148],[110.8426,-7.1527,30.1617],[110.8475,-7.1508,31.5994],[110.8473,-7.1536,30.5037],[110.8416,-7.156,31.5046],[110.8399,-7.16,31.8597],[110.8409,-7.161,31.8597],[110.8432,-7.1588,33.241],[110.8445,-7.1596,29.2945],[110.8426,-7.1677,35.2191],[110.847,-7.1665,30.042],[110.8482,-7.168,35.5072],[110.8459,-7.1698,31.3655],[110.8462,-7.1745,31.4091],[110.8424,-7.1726,34.3306],[110.8407,-7.1752,33.1197],[110.8358,-7.1755,35.1803],[110.8356,-7.1811,31.1979],[110.8396,-7.1842,44.5679],[110.8364,-7.1867,42.0738],[110.8367,-7.1894,41.4725],[110.8442,-7.185,34.0765],[110.8508,-7.1885,33.7785],[110.8555,-7.1868,91.3291],[110.866,-7.1897,68.8334],[110.8722,-7.1891,80.7514],[110.8804,-7.193,75.2222],[110.8872,-7.1921,81.0452],[110.8898,-7.1945,81.5902],[110.8981,-7.1931,75.6736],[110.913,-7.2049,85.729],[110.9168,-7.2035,88.2807]]]]}}