{"type":"Feature","properties":{"GID_3":"IDN.33.1.6_1","GID_0":"IDN","country":"Indonesia","GID_1":"IDN.33_1","province":"Yogyakarta","NL_NAME_1":"NA","GID_2":"IDN.33.1_1","county":"Bantul","NL_NAME_2":"NA","city":"Jetis","VARNAME_3":"NA","NL_NAME_3":"NA","TYPE_3":"Kecamatan","ENGTYPE_3":"Sub-district","CC_3":"3402080","HASC_3":"NA","name":"Jetis.city"},
"geometry":{"type": "MultiPolygon","coordinates": [[[[110.3683,-7.9199,27.8134],[110.3753,-7.919,32.4278],[110.376,-7.9134,33.9395],[110.3817,-7.9044,35.9576],[110.3888,-7.9023,44.3921],[110.3861,-7.9002,41.2362],[110.3859,-7.898,39.5698],[110.3941,-7.8994,76.18],[110.3995,-7.8987,98.6696],[110.4002,-7.8947,81.0387],[110.398,-7.8941,88.5458],[110.3969,-7.8789,51.917],[110.3938,-7.8775,50.807],[110.3921,-7.8791,49.7065],[110.3918,-7.8779,49.8693],[110.3909,-7.8791,49.7065],[110.3852,-7.8779,48.3067],[110.3827,-7.8798,46.4976],[110.3817,-7.8745,51.0384],[110.3772,-7.8738,53.2111],[110.3758,-7.8749,51.2361],[110.3772,-7.8758,53.9947],[110.3763,-7.8823,50.3154],[110.3688,-7.8829,47.1932],[110.3665,-7.8805,46.5364],[110.3654,-7.8862,46.8251],[110.3632,-7.8866,46.5434],[110.3635,-7.8909,45.035],[110.3623,-7.891,45.035],[110.3612,-7.8975,39.8609],[110.3581,-7.898,41.012],[110.3578,-7.9,40.1028],[110.3536,-7.8998,42.4636],[110.3534,-7.9028,40.5295],[110.3524,-7.9004,42.4636],[110.3507,-7.9063,36.7879],[110.3448,-7.9055,36.8147],[110.344,-7.9076,35.6378],[110.3464,-7.9076,37.3109],[110.3473,-7.9102,34.2527],[110.348,-7.9092,36.1248],[110.3469,-7.9137,32.0588],[110.3449,-7.9164,29.8033],[110.3479,-7.9198,32.6787],[110.3475,-7.9222,28.6203],[110.3454,-7.9247,26.0083],[110.3412,-7.924,30.1947],[110.3396,-7.9255,30.942],[110.3402,-7.9274,27.8896],[110.3384,-7.9302,25.8607],[110.337,-7.9299,25.908],[110.3326,-7.9379,21.9849],[110.3345,-7.9391,23.0614],[110.3383,-7.9367,24.2756],[110.3383,-7.9389,24.7671],[110.3396,-7.9394,20.9471],[110.3383,-7.9419,22.8807],[110.3411,-7.9427,22.7566],[110.3397,-7.9441,21.0759],[110.3416,-7.9441,22.4137],[110.3422,-7.9423,24.3522],[110.3435,-7.9432,20.5242],[110.3425,-7.9447,18.636],[110.3495,-7.945,25.6153],[110.349,-7.9462,25.6153],[110.3538,-7.946,24.1344],[110.3556,-7.9426,22.5568],[110.3569,-7.9446,21.0331],[110.366,-7.9452,23.1774],[110.3667,-7.9421,21.5213],[110.3643,-7.9422,24.3764],[110.3627,-7.9398,19.6264],[110.3674,-7.9303,21.4697],[110.367,-7.9212,28.6116],[110.3683,-7.9199,27.8134]]]]}}