{"type":"Feature","properties":{"GID_3":"IDN.11.38.6_1","GID_0":"IDN","country":"Indonesia","GID_1":"IDN.11_1","province":"JawaTimur","NL_NAME_1":"NA","GID_2":"IDN.11.38_1","county":"Tulungagung","NL_NAME_2":"NA","city":"Kalidawir","VARNAME_3":"NA","NL_NAME_3":"NA","TYPE_3":"Kecamatan","ENGTYPE_3":"Sub-district","CC_3":"3504060","HASC_3":"NA","name":"Kalidawir.city"},
"geometry":{"type": "MultiPolygon","coordinates": [[[[111.9503,-8.2776,38.2975],[111.9687,-8.2805,19.7763],[111.9694,-8.2597,103.7579],[111.9732,-8.2512,123.487],[111.9704,-8.2449,151.4906],[111.9719,-8.2371,183.1332],[111.9694,-8.2279,212.2644],[111.9732,-8.2214,188.0359],[111.9733,-8.2111,124.4469],[111.9825,-8.2024,219.0045],[111.9833,-8.1988,195.9973],[111.9869,-8.1974,235.6068],[111.9884,-8.1941,219.6523],[111.9851,-8.1923,120.831],[111.9859,-8.1903,199.8729],[111.9892,-8.1888,255.4929],[111.9954,-8.1821,303.3324],[112.0025,-8.1808,297.4932],[112.0109,-8.1716,161.7346],[112.0123,-8.1671,166.9084],[112.0066,-8.1655,103.434],[112.0067,-8.1573,104.6893],[112.0032,-8.1566,99.4325],[111.9985,-8.1594,101.9809],[111.9982,-8.1548,105.6287],[111.9946,-8.1545,100.0289],[111.9922,-8.1566,98.6933],[111.9842,-8.1564,96.33],[111.9851,-8.1524,96.2213],[111.9804,-8.1515,96.12],[111.9801,-8.15,96.1769],[111.9818,-8.1421,100.6387],[111.978,-8.143,102.2517],[111.978,-8.1382,101.2177],[111.9718,-8.1373,98.4691],[111.9719,-8.1402,99.1472],[111.9654,-8.1393,98.9425],[111.9627,-8.1428,94.0927],[111.9624,-8.1481,98.9376],[111.96,-8.1402,93.3751],[111.952,-8.139,92.2009],[111.9499,-8.1355,93.6789],[111.942,-8.1351,101.2081],[111.9484,-8.1314,96.8122],[111.9479,-8.1281,95.423],[111.9455,-8.127,103.2315],[111.9466,-8.1227,147.9429],[111.944,-8.1206,142.1443],[111.9407,-8.1277,204.4423],[111.9363,-8.1324,206.3445],[111.9337,-8.1324,186.3226],[111.9311,-8.1279,166.0849],[111.9286,-8.1274,224.9167],[111.9276,-8.1255,137.37],[111.9233,-8.1376,319.3522],[111.9153,-8.1416,260.6272],[111.9183,-8.1458,272.1491],[111.919,-8.1509,300.2848],[111.9124,-8.1597,255.9384],[111.9142,-8.1624,162.1174],[111.913,-8.1638,187.6316],[111.9087,-8.1675,280.7489],[111.9023,-8.1693,370.9073],[111.9015,-8.1718,379.519],[111.9033,-8.1758,355.0399],[111.9002,-8.1881,273.0126],[111.9008,-8.1921,262.9393],[111.8986,-8.1957,246.4561],[111.9029,-8.1998,247.8818],[111.8997,-8.2041,247.9149],[111.9033,-8.2128,245.4601],[111.9105,-8.2116,238.1927],[111.921,-8.2164,214.9223],[111.925,-8.2149,207.5998],[111.9346,-8.2255,243.6217],[111.9323,-8.2287,248.4259],[111.9265,-8.2306,230.3679],[111.9272,-8.2323,224.229],[111.9227,-8.2343,223.8604],[111.9254,-8.2387,204.3414],[111.9231,-8.2491,190.9088],[111.927,-8.2498,228.8481],[111.9246,-8.2568,153.1645],[111.9278,-8.2587,151.5487],[111.9197,-8.2757,153.7496],[111.9228,-8.279,77.88],[111.9244,-8.2845,8.5845],[111.9329,-8.2849,5.2138],[111.9358,-8.2928,3.4686],[111.9365,-8.2869,0.0],[111.9404,-8.2812,1.9117],[111.9433,-8.2788,18.103],[111.9503,-8.2776,38.2975]]]]}}