{"type":"Feature","properties":{"GID_3":"IDN.32.27.15_1","GID_0":"IDN","country":"Indonesia","GID_1":"IDN.32_1","province":"SumateraUtara","NL_NAME_1":"NA","GID_2":"IDN.32.27_1","county":"SerdangBedagai","NL_NAME_2":"NA","city":"TebingSyahbandar","VARNAME_3":"NA","NL_NAME_3":"NA","TYPE_3":"Kecamatan","ENGTYPE_3":"Sub-district","CC_3":"1218051","HASC_3":"NA","name":"Tebing_Syahbandar.city"},
"geometry":{"type": "MultiPolygon","coordinates": [[[[99.1411,3.2355,80.0524],[99.1646,3.2349,50.1021],[99.1646,3.2388,56.6217],[99.1682,3.2389,50.4487],[99.1683,3.2336,52.7939],[99.1868,3.2305,63.8281],[99.1879,3.2443,49.8099],[99.208,3.2236,59.8183],[99.2136,3.2252,63.3104],[99.214,3.2283,54.8322],[99.2176,3.2307,49.1466],[99.2188,3.2352,39.1765],[99.2223,3.2371,49.0679],[99.2352,3.2524,31.5836],[99.2348,3.2668,51.7159],[99.2447,3.2829,44.8321],[99.2452,3.2899,43.7885],[99.251,3.2948,42.5239],[99.2597,3.311,37.0298],[99.261,3.3176,32.1025],[99.259,3.3212,27.2456],[99.2602,3.3274,23.8151],[99.2779,3.3529,15.2509],[99.2824,3.3631,7.4136],[99.2538,3.3656,13.6443],[99.2392,3.3705,14.3452],[99.2387,3.3664,13.1886],[99.2358,3.3641,12.8665],[99.2323,3.3644,15.841],[99.2311,3.3611,13.5916],[99.2168,3.3557,17.4016],[99.2139,3.356,17.5016],[99.2117,3.3518,17.5169],[99.2087,3.3511,15.1082],[99.2074,3.3525,18.8042],[99.2063,3.3501,17.0626],[99.2022,3.3493,14.1664],[99.2004,3.3463,18.2752],[99.191,3.3437,14.2009],[99.1903,3.341,18.0427],[99.1832,3.3373,14.0088],[99.1825,3.3318,34.5764],[99.1839,3.3311,34.5764],[99.1874,3.3172,30.2464],[99.1914,3.3178,27.1874],[99.1911,3.3147,27.4547],[99.1927,3.3123,31.8638],[99.1917,3.3097,28.1193],[99.1838,3.3089,30.5038],[99.1818,3.3064,35.3292],[99.1731,3.3065,30.9329],[99.1731,3.3092,26.4776],[99.1542,3.3091,31.4715],[99.1554,3.3063,24.6766],[99.153,3.3054,31.0066],[99.1509,3.3056,26.1769],[99.1495,3.308,24.6112],[99.1462,3.3069,36.4597],[99.1442,3.3117,27.614],[99.1404,3.3088,29.05],[99.1388,3.3096,25.9552],[99.137,3.3051,33.0605],[99.1426,3.296,33.992],[99.1438,3.2913,38.5615],[99.1371,3.2837,41.3514],[99.1365,3.2811,33.8314],[99.1381,3.2784,43.5955],[99.1376,3.2758,39.7538],[99.1448,3.2662,41.7272],[99.1442,3.262,41.2958],[99.1465,3.2594,44.9863],[99.1382,3.2548,56.453],[99.135,3.2465,49.4493],[99.1369,3.2399,55.0146],[99.135,3.2405,60.0002],[99.1345,3.2371,57.6007],[99.1324,3.2394,61.3167],[99.1304,3.2358,61.9654],[99.1411,3.2355,80.0524]]]]}}