{"type":"Feature","properties":{"GID_3":"IDN.9.6.26_1","GID_0":"IDN","country":"Indonesia","GID_1":"IDN.9_1","province":"JawaBarat","NL_NAME_1":"NA","GID_2":"IDN.9.6_1","county":"Ciamis","NL_NAME_2":"NA","city":"Panumbangan","VARNAME_3":"NA","NL_NAME_3":"NA","TYPE_3":"Kecamatan","ENGTYPE_3":"Sub-district","CC_3":"3207300","HASC_3":"NA","name":"Panumbangan.city"},
"geometry":{"type": "MultiPolygon","coordinates": [[[[108.2199,-7.1838,1035.7997],[108.2209,-7.1823,1016.6802],[108.2301,-7.183,1180.4099],[108.2355,-7.1857,1282.8495],[108.2484,-7.1881,1535.6823],[108.2465,-7.1833,1446.4899],[108.2498,-7.1603,938.8384],[108.2465,-7.1447,638.4134],[108.2508,-7.1435,680.9861],[108.2532,-7.1449,698.66],[108.2544,-7.1418,696.7868],[108.2581,-7.1398,693.2062],[108.2587,-7.131,613.04],[108.256,-7.1302,615.7557],[108.2604,-7.1292,668.0153],[108.2587,-7.1251,631.6162],[108.2632,-7.1248,736.0431],[108.2633,-7.1233,736.1785],[108.2523,-7.119,597.5681],[108.2485,-7.1239,553.5367],[108.2462,-7.1228,552.6943],[108.2458,-7.1185,592.0397],[108.2476,-7.1153,548.5613],[108.2514,-7.1185,597.5681],[108.2551,-7.1054,751.7142],[108.258,-7.1012,783.0511],[108.2558,-7.0967,752.2514],[108.2538,-7.0983,732.2867],[108.2474,-7.0962,817.981],[108.2422,-7.0995,706.6501],[108.2334,-7.0981,655.616],[108.2331,-7.0939,673.0829],[108.2293,-7.0884,653.3983],[108.2272,-7.0839,660.0933],[108.2282,-7.0833,687.1099],[108.2264,-7.0826,677.1221],[108.2236,-7.0868,582.5853],[108.2223,-7.0858,587.866],[108.223,-7.0836,591.8168],[108.2197,-7.0828,589.2827],[108.2199,-7.0795,619.0289],[108.2185,-7.0792,618.8884],[108.2171,-7.0826,582.4663],[108.2218,-7.087,571.5582],[108.2196,-7.0885,565.3562],[108.2184,-7.0975,528.7407],[108.2154,-7.0987,522.0925],[108.2168,-7.1004,530.7341],[108.219,-7.1001,520.9491],[108.2179,-7.1021,523.9849],[108.219,-7.1041,514.6266],[108.2178,-7.1055,530.8655],[108.217,-7.1041,524.6044],[108.2147,-7.1043,546.5419],[108.2133,-7.1121,498.6991],[108.2198,-7.1235,466.1479],[108.2174,-7.1247,468.5083],[108.218,-7.1261,467.0648],[108.2158,-7.1254,468.5083],[108.2173,-7.1292,464.1477],[108.2137,-7.1327,461.3352],[108.2137,-7.1347,460.2757],[108.2085,-7.1351,460.08],[108.2061,-7.138,456.9009],[108.204,-7.1364,459.4454],[108.2041,-7.1381,459.8987],[108.2011,-7.1377,462.6857],[108.2032,-7.1418,463.4777],[108.2003,-7.1447,461.5667],[108.202,-7.1455,458.6683],[108.1997,-7.1464,458.3965],[108.2031,-7.1522,459.4868],[108.1999,-7.1534,459.4198],[108.2018,-7.1552,455.4913],[108.1993,-7.1579,453.8362],[108.1971,-7.1567,454.262],[108.1974,-7.1596,455.3865],[108.1946,-7.1617,462.6182],[108.1946,-7.165,459.9896],[108.1907,-7.168,456.8443],[108.1942,-7.1691,451.9123],[108.192,-7.1708,453.5403],[108.1922,-7.1735,451.8329],[108.1944,-7.1732,452.7501],[108.1949,-7.1745,452.7501],[108.193,-7.1755,451.9336],[108.1948,-7.1821,450.0997],[108.1921,-7.1872,454.2213],[108.1932,-7.1887,457.1319],[108.1985,-7.1883,489.9215],[108.201,-7.1857,522.8565],[108.2138,-7.1858,908.5403],[108.2199,-7.1838,1035.7997]]],
[[[108.175,-7.0659,979.0618],[108.1849,-7.0718,808.6486],[108.1909,-7.0701,757.118],[108.1936,-7.0709,741.6776],[108.1962,-7.0751,710.5013],[108.2039,-7.0772,646.4879],[108.2051,-7.0808,641.2367],[108.2037,-7.083,641.0818],[108.2084,-7.0831,598.8497],[108.209,-7.0877,600.8662],[108.2111,-7.0864,595.494],[108.2121,-7.0821,595.9891],[108.2152,-7.0815,593.7019],[108.21,-7.0734,661.3333],[108.2087,-7.0636,761.8107],[108.2051,-7.0589,788.7185],[108.204,-7.0625,786.3574],[108.2,-7.0663,750.3383],[108.1936,-7.0587,828.1371],[108.1928,-7.0626,851.0734],[108.1881,-7.0586,895.494],[108.1846,-7.0612,886.9996],[108.1774,-7.0612,951.6411],[108.1699,-7.0592,1080.9698],[108.175,-7.0659,979.0618]]]]}}