{"type":"Feature","properties":{"GID_3":"IDN.4.8.1_1","GID_0":"IDN","country":"Indonesia","GID_1":"IDN.4_1","province":"Banten","NL_NAME_1":"NA","GID_2":"IDN.4.8_1","county":"Tangerang","NL_NAME_2":"NA","city":"Balaraja","VARNAME_3":"NA","NL_NAME_3":"NA","TYPE_3":"Kecamatan","ENGTYPE_3":"Sub-district","CC_3":"3603130","HASC_3":"NA","name":"Balaraja.city"},
"geometry":{"type": "MultiPolygon","coordinates": [[[[106.4485,-6.2295,13.8092],[106.45,-6.2293,13.8092],[106.4514,-6.2221,12.8562],[106.4555,-6.2167,11.8925],[106.4644,-6.2158,13.4423],[106.4666,-6.2089,20.0242],[106.4651,-6.2077,12.907],[106.4685,-6.2015,15.1569],[106.4672,-6.1869,11.4035],[106.4694,-6.1873,10.6105],[106.4729,-6.1805,10.5423],[106.471,-6.1791,11.0323],[106.4726,-6.1769,10.6887],[106.4715,-6.1744,9.2853],[106.4709,-6.1768,10.6887],[106.469,-6.1775,9.7056],[106.4696,-6.1732,9.6181],[106.4659,-6.1733,14.1597],[106.4681,-6.1701,10.4096],[106.4641,-6.1683,14.8553],[106.4658,-6.1662,8.8263],[106.4576,-6.166,15.7898],[106.4539,-6.1623,9.306],[106.4479,-6.1642,14.8351],[106.4482,-6.1706,12.6959],[106.4467,-6.1736,12.5794],[106.4487,-6.181,15.0206],[106.4467,-6.1866,16.202],[106.4433,-6.1898,22.4876],[106.4339,-6.1887,18.7643],[106.42529999999999,-6.1928,19.2098],[106.4224,-6.1982,20.7037],[106.4178,-6.2009,17.6448],[106.4175,-6.2024,17.7333],[106.4193,-6.2023,17.974],[106.4236,-6.2066,19.2479],[106.4207,-6.2116,18.9598],[106.4143,-6.21,17.2055],[106.4144,-6.2136,16.2105],[106.4167,-6.2148,19.4404],[106.4136,-6.2213,18.4316],[106.4028,-6.2202,18.8063],[106.4009,-6.2249,20.6307],[106.4023,-6.2285,17.372],[106.4016,-6.2336,18.1361],[106.4035,-6.2373,13.9495],[106.4188,-6.2373,20.0215],[106.4249,-6.2358,24.7827],[106.4272,-6.2333,24.1782],[106.4356,-6.234,19.3714],[106.4369,-6.2325,20.4203],[106.4426,-6.2329,14.9626],[106.4429,-6.2314,14.9626],[106.4455,-6.2322,14.9959],[106.4485,-6.2295,13.8092]]]]}}