{"type":"Feature","properties":{"GID_3":"IDN.32.31.3_1","GID_0":"IDN","country":"Indonesia","GID_1":"IDN.32_1","province":"SumateraUtara","NL_NAME_1":"NA","GID_2":"IDN.32.31_1","county":"TapanuliTengah","NL_NAME_2":"NA","city":"BarusUtara","VARNAME_3":"NA","NL_NAME_3":"NA","TYPE_3":"Kecamatan","ENGTYPE_3":"Sub-district","CC_3":"1204073","HASC_3":"NA","name":"Barus_Utara.city"},
"geometry":{"type": "MultiPolygon","coordinates": [[[[98.4039,2.0452,19.6318],[98.4069,2.0436,30.1835],[98.4072,2.0382,11.5519],[98.404,2.0378,12.7929],[98.4088,2.03,7.6835],[98.4209,2.0308,44.1629],[98.4256,2.0409,59.1014],[98.4236,2.045,38.6589],[98.4373,2.0461,86.0787],[98.4497,2.062,118.6243],[98.4683,2.0719,145.4403],[98.4764,2.0783,203.9191],[98.4808,2.0854,227.3429],[98.4635,2.0894,220.9133],[98.4541,2.0815,238.1104],[98.435,2.0728,98.3513],[98.4103,2.0654,41.1931],[98.404,2.0654,55.2068],[98.3982,2.0597,21.0117],[98.3958,2.0543,21.5309],[98.4039,2.0452,19.6318]]]]}}