{"type":"Feature","properties":{"GID_3":"IDN.9.23.23_1","GID_0":"IDN","country":"Indonesia","GID_1":"IDN.9_1","province":"JawaBarat","NL_NAME_1":"NA","GID_2":"IDN.9.23_1","county":"Subang","NL_NAME_2":"NA","city":"Pusakajaya","VARNAME_3":"NA","NL_NAME_3":"NA","TYPE_3":"Kecamatan","ENGTYPE_3":"Sub-district","CC_3":"3213201","HASC_3":"NA","name":"Pusakajaya.city"},
"geometry":{"type": "MultiPolygon","coordinates": [[[[107.8839,-6.3464,12.0754],[107.8839,-6.3498,12.4047],[107.8906,-6.3509,14.5312],[107.8978,-6.3332,9.8533],[107.9028,-6.3354,9.8459],[107.907,-6.3397,10.3491],[107.9225,-6.3411,11.2774],[107.9243,-6.34,11.0065],[107.9239,-6.3369,10.0969],[107.9283,-6.3275,10.2675],[107.9239,-6.3241,11.0528],[107.918,-6.3235,11.5357],[107.9216,-6.322,12.1499],[107.928,-6.3249,10.2747],[107.9301,-6.3186,8.4538],[107.9271,-6.3122,8.1948],[107.9305,-6.3097,7.4059],[107.9289,-6.3082,7.8898],[107.9278,-6.3112,8.2101],[107.9233,-6.3123,9.0734],[107.9217,-6.3104,6.5294],[107.9235,-6.3029,6.737],[107.9218,-6.2956,4.5212],[107.925,-6.2909,3.7936],[107.9233,-6.2903,5.086],[107.9229,-6.2882,4.2762],[107.9245,-6.2854,3.6863],[107.9215,-6.2834,3.493],[107.9254,-6.2796,3.2909],[107.9231,-6.2792,3.3473],[107.9233,-6.2769,2.864],[107.9207,-6.2768,3.219],[107.9214,-6.2743,3.0352],[107.918,-6.2728,2.8377],[107.9181,-6.2711,3.0764],[107.9166,-6.2738,2.4349],[107.915,-6.2737,3.1092],[107.9155,-6.2707,3.1013],[107.9118,-6.2698,2.2969],[107.9144,-6.2678,2.5289],[107.9163,-6.2684,2.7684],[107.9147,-6.267,2.5289],[107.9115,-6.2661,2.6343],[107.912,-6.2691,2.4497],[107.9075,-6.2691,2.5651],[107.9021,-6.2655,5.0884],[107.9016,-6.2693,2.8124],[107.8962,-6.2714,4.4862],[107.8956,-6.2782,5.1258],[107.8999,-6.2871,5.6139],[107.8964,-6.2889,8.366],[107.8928,-6.2947,7.1741],[107.8673,-6.2869,7.5441],[107.8602,-6.3075,8.5686],[107.8557,-6.3028,8.2259],[107.8494,-6.3054,7.9203],[107.8434,-6.3104,13.3937],[107.8449,-6.3142,12.0068],[107.8482,-6.3161,8.3222],[107.8459,-6.3195,7.8099],[107.8532,-6.3206,9.396],[107.8529,-6.3227,9.3466],[107.8489,-6.324,10.0219],[107.8527,-6.3266,10.195],[107.8501,-6.3329,9.6225],[107.8557,-6.3321,13.1395],[107.8581,-6.3349,10.1726],[107.8614,-6.3352,17.4033],[107.8684,-6.3316,11.9446],[107.8839,-6.3464,12.0754]]]]}}