{"type":"Feature","properties":{"GID_3":"IDN.23.5.9_1","GID_0":"IDN","country":"Indonesia","GID_1":"IDN.23_1","province":"Papua","NL_NAME_1":"NA","GID_2":"IDN.23.5_1","county":"Dogiyai","NL_NAME_2":"NA","city":"Piyaiye","VARNAME_3":"NA","NL_NAME_3":"NA","TYPE_3":"Distrik","ENGTYPE_3":"District","CC_3":"9434020","HASC_3":"NA","name":"Piyaiye.city"},
"geometry":{"type": "MultiPolygon","coordinates": [[[[135.6626,-3.885,3132.8936],[135.631,-3.8979,2759.6765],[135.6225,-3.9036,2743.7651],[135.6002,-3.9072,2367.8154],[135.5988,-3.9165,2593.6587],[135.5794,-3.9344,2942.085],[135.5594,-3.9351,2913.2698],[135.5479,-3.9323,2915.8652],[135.5243,-3.9079,2128.6511],[135.5114,-3.9,2236.8687],[135.4877,-3.8821,2117.7737],[135.4619,-3.8671,1587.7988],[135.4476,-3.8656,1794.0779],[135.439,-3.8678,1786.0239],[135.4067,-3.862,923.0986],[135.3988,-3.8671,1249.2577],[135.3773,-3.8663,1591.4296],[135.282,-3.8398,758.7158],[135.2029,-3.8199,1038.0864],[135.1668,-3.8662,802.3228],[135.1673,-3.8735,477.7019],[135.1623,-3.8914,157.7087],[135.1659,-3.9129,317.8627],[135.1724,-3.9351,142.4098],[135.1747,-3.9585,54.3045],[135.1827,-3.9583,65.9408],[135.1866,-3.9624,60.4809],[135.1969,-3.9606,68.634],[135.2006,-3.9615,67.6588],[135.2125,-3.9684,75.4753],[135.2375,-3.969,98.6711],[135.2433,-3.9665,113.898],[135.2522,-3.9775,124.4516],[135.2577,-3.9807,136.9731],[135.2673,-3.9807,176.9442],[135.2958,-3.9929,222.2552],[135.3049,-3.9915,308.6311],[135.3098,-3.9867,265.9732],[135.3139,-3.9868,277.7584],[135.3234,-3.9908,302.6071],[135.3287,-3.9902,294.8041],[135.3316,-3.9882,302.9307],[135.3352,-3.9882,402.757],[135.3375,-3.9853,324.8789],[135.3506,-3.9822,364.8347],[135.3556,-3.9787,386.2389],[135.3598,-3.978,411.9401],[135.3687,-3.9788,416.572],[135.3728,-3.981,443.5204],[135.3753,-3.9801,452.1993],[135.3801,-3.9822,469.7517],[135.3941,-3.9811,500.9091],[135.395,-3.9836,520.8655],[135.3997,-3.9847,594.6635],[135.401,-3.9868,585.1926],[135.4079,-3.9904,635.8622],[135.4276,-3.9921,746.7412],[135.436,-3.9971,832.5362],[135.4366,-4.0007,855.7017],[135.4389,-4.0026,890.5772],[135.4569,-4.001,1755.1106],[135.4818,-4.0093,1941.7103],[135.5227,-4.0199,1926.6996],[135.5369,-4.0269,1733.6172],[135.5669,-4.0355,1804.5106],[135.5673,-4.047,1435.1379],[135.6063,-4.0547,1985.9877],[135.6068,-4.0666,1987.0791],[135.6001,-4.0875,1456.41],[135.5933,-4.094,1163.2635],[135.6048,-4.0956,1404.1519],[135.6131,-4.0989,1471.9222],[135.6304,-4.0973,1609.0858],[135.6403,-4.089,1723.3386],[135.6477,-4.0857,1902.3315],[135.6897,-4.0907,2365.03],[135.7095,-4.0899,2694.6091],[135.7295,-4.0866,2560.8174],[135.726,-4.0556,2139.8142],[135.7172,-4.0076,2332.2756],[135.7218,-3.995,2501.926],[135.7222,-3.9825,2287.5134],[135.72,-3.9642,2113.4736],[135.7175,-3.956,2347.9526],[135.7068,-3.9416,2600.4919],[135.7075,-3.9377,2411.9321],[135.7057,-3.9316,2522.6836],[135.7064,-3.9248,2815.7341],[135.7132,-3.9044,3380.5032],[135.7165,-3.8686,3144.7244],[135.7079,-3.8668,3275.9331],[135.6991,-3.8685,2814.3193],[135.692,-3.8656,2618.885],[135.6834,-3.8699,3059.4392],[135.6626,-3.885,3132.8936]]]]}}