{"type":"Feature","properties":{"GID_3":"IDN.11.29.6_1","GID_0":"IDN","country":"Indonesia","GID_1":"IDN.11_1","province":"JawaTimur","NL_NAME_1":"NA","GID_2":"IDN.11.29_1","county":"Ponorogo","NL_NAME_2":"NA","city":"Jenangan","VARNAME_3":"NA","NL_NAME_3":"NA","TYPE_3":"Kecamatan","ENGTYPE_3":"Sub-district","CC_3":"3502190","HASC_3":"NA","name":"Jenangan.city"},
"geometry":{"type": "MultiPolygon","coordinates": [[[[111.4991,-7.8522,119.5767],[111.4981,-7.8486,120.9188],[111.4956,-7.8485,116.4892],[111.4956,-7.8555,114.8212],[111.493,-7.8557,113.3695],[111.4931,-7.86,111.286],[111.4977,-7.8585,108.8662],[111.5045,-7.8598,122.4213],[111.5064,-7.8636,131.2045],[111.508,-7.8637,131.2045],[111.509,-7.8603,129.2028],[111.5108,-7.8609,127.5284],[111.5107,-7.8632,139.0663],[111.5131,-7.864,151.1328],[111.5261,-7.8629,167.8168],[111.527,-7.869,148.3898],[111.5351,-7.8672,164.6949],[111.5408,-7.8698,175.5227],[111.551,-7.8708,209.118],[111.5518,-7.8589,218.8792],[111.5487,-7.8549,226.7955],[111.5501,-7.8463,189.4538],[111.557,-7.8453,227.101],[111.56,-7.8391,199.1179],[111.5622,-7.8381,204.7332],[111.5619,-7.8412,214.8743],[111.5654,-7.8404,226.8757],[111.5686,-7.842,237.5856],[111.5671,-7.8436,241.1294],[111.5725,-7.8459,246.0929],[111.5782,-7.8458,289.17],[111.5855,-7.8508,311.0563],[111.5889,-7.8446,310.7745],[111.5859,-7.841,298.7533],[111.5932,-7.84,345.216],[111.5934,-7.8342,326.8102],[111.5986,-7.8335,345.0289],[111.6034,-7.8261,450.4012],[111.6064,-7.8242,490.0167],[111.6051,-7.8237,490.0167],[111.6055,-7.8197,489.4973],[111.6038,-7.8164,466.3785],[111.6048,-7.8135,510.5631],[111.5973,-7.8144,433.7612],[111.591,-7.8182,397.6381],[111.5878,-7.8176,369.6453],[111.584,-7.8216,328.045],[111.5821,-7.8159,369.7328],[111.5747,-7.8162,361.8049],[111.5757,-7.8136,349.042],[111.5803,-7.8115,319.8479],[111.5812,-7.8128,319.8479],[111.5864,-7.8119,352.5342],[111.5896,-7.8131,390.0978],[111.6002,-7.8077,447.0082],[111.6012,-7.805,463.704],[111.5998,-7.8021,498.953],[111.5949,-7.801,451.9458],[111.5911,-7.7968,423.0491],[111.5769,-7.8046,314.0037],[111.5731,-7.8049,287.9591],[111.57,-7.8021,278.3675],[111.5583,-7.8018,234.6989],[111.5577,-7.7999,243.6959],[111.5543,-7.7992,221.7352],[111.55029999999999,-7.7997,206.8843],[111.5507,-7.8046,212.3319],[111.5473,-7.8031,208.8093],[111.5293,-7.8033,167.2273],[111.5237,-7.8017,146.9088],[111.5227,-7.7993,143.5472],[111.517,-7.8004,143.6649],[111.5121,-7.7986,128.5796],[111.5086,-7.7994,124.7728],[111.5059,-7.7973,126.4594],[111.5059,-7.8015,130.3098],[111.5079,-7.8016,129.6422],[111.5087,-7.8051,133.8268],[111.5065,-7.8084,134.4261],[111.5089,-7.8105,136.57],[111.509,-7.8144,137.9991],[111.5106,-7.8146,142.0216],[111.5086,-7.8249,140.8372],[111.5166,-7.8251,144.8437],[111.5165,-7.8276,145.2931],[111.508,-7.8276,135.8053],[111.5082,-7.8263,137.7819],[111.5051,-7.8261,138.9469],[111.5051,-7.8275,134.1144],[111.502,-7.8289,132.3119],[111.5005,-7.8329,128.6305],[111.4977,-7.8341,124.974],[111.498,-7.8375,127.7815],[111.5036,-7.8373,130.8483],[111.5052,-7.8356,133.496],[111.506,-7.8368,130.7202],[111.5106,-7.8363,135.3504],[111.5106,-7.8408,128.318],[111.5086,-7.8412,129.2493],[111.5087,-7.8392,131.1156],[111.5053,-7.8394,130.2275],[111.505,-7.8423,124.3008],[111.5121,-7.8405,128.318],[111.5117,-7.8435,135.2061],[111.5091,-7.8457,136.9616],[111.503,-7.8442,122.2272],[111.5049,-7.8424,124.3008],[111.5014,-7.8412,122.7724],[111.5005,-7.8522,117.5843],[111.4991,-7.8522,119.5767]]]]}}