{"type":"Feature","properties":{"GID_3":"IDN.10.24.3_1","GID_0":"IDN","country":"Indonesia","GID_1":"IDN.10_1","province":"JawaTengah","NL_NAME_1":"NA","GID_2":"IDN.10.24_1","county":"Purbalingga","NL_NAME_2":"NA","city":"Bukateja","VARNAME_3":"NA","NL_NAME_3":"NA","TYPE_3":"Kecamatan","ENGTYPE_3":"Sub-district","CC_3":"3303020","HASC_3":"NA","name":"Bukateja.city"},
"geometry":{"type": "MultiPolygon","coordinates": [[[[109.423,-7.46,43.4587],[109.4231,-7.4589,36.8556],[109.4274,-7.4588,42.1296],[109.4254,-7.4561,47.5378],[109.4271,-7.4548,37.806],[109.4302,-7.4595,35.0131],[109.4348,-7.457,45.2988],[109.4377,-7.4531,36.432],[109.4361,-7.4507,40.5187],[109.439,-7.4486,46.7928],[109.4405,-7.4492,42.6248],[109.4411,-7.4542,45.8102],[109.4471,-7.4557,51.0655],[109.4487,-7.4534,48.5988],[109.4469,-7.4501,43.1999],[109.4504,-7.4465,45.3253],[109.4528,-7.4471,54.8106],[109.4538,-7.4513,50.428],[109.4566,-7.4528,43.7072],[109.4603,-7.4522,47.8233],[109.4616,-7.4477,55.9082],[109.4645,-7.4461,68.8784],[109.4722,-7.4487,58.9402],[109.4734,-7.4477,56.7991],[109.472,-7.4429,63.0574],[109.4739,-7.4417,54.1056],[109.4762,-7.4453,71.33],[109.4787,-7.4459,55.245],[109.4821,-7.4439,58.3689],[109.4809,-7.4414,67.0073],[109.4833,-7.442,56.4487],[109.4857,-7.4455,57.5302],[109.4886,-7.4422,56.894],[109.4936,-7.4494,63.3633],[109.4969,-7.4468,66.3399],[109.4992,-7.4496,89.7931],[109.5028,-7.4481,70.4035],[109.5054,-7.4501,83.3701],[109.5062,-7.4477,74.0474],[109.5078,-7.448,87.8078],[109.5084,-7.4387,107.8176],[109.5058,-7.4239,97.0533],[109.5085,-7.4198,105.4519],[109.5079,-7.4174,104.363],[109.5033,-7.4116,100.0491],[109.5011,-7.4103,101.895],[109.4972,-7.412,89.5187],[109.4962,-7.4096,85.3863],[109.4926,-7.4129,71.7974],[109.4911,-7.4128,71.3085],[109.4913,-7.4106,89.7271],[109.4846,-7.4149,61.339],[109.4809,-7.4155,68.8186],[109.4741,-7.4135,77.4201],[109.4697,-7.4174,66.2629],[109.4645,-7.4187,64.4426],[109.4623,-7.423,61.5357],[109.4516,-7.4246,48.5587],[109.45,-7.4188,45.9084],[109.4462,-7.4198,41.4688],[109.4437,-7.4172,40.8318],[109.441,-7.4189,38.0906],[109.4326,-7.418,36.4029],[109.4268,-7.4129,41.2045],[109.4137,-7.4111,31.5321],[109.4107,-7.4125,28.0589],[109.41,-7.4097,29.6621],[109.4088,-7.4098,30.6012],[109.4081,-7.4135,31.0596],[109.4031,-7.4154,26.4296],[109.3991,-7.4223,31.8129],[109.3987,-7.4254,33.6621],[109.4014,-7.4275,30.9142],[109.4086,-7.4277,31.9229],[109.4057,-7.4324,33.8323],[109.4046,-7.4404,38.7608],[109.3984,-7.4457,36.7984],[109.3986,-7.4473,44.6593],[109.4191,-7.4711,45.1816],[109.4244,-7.4677,46.5191],[109.423,-7.46,43.4587]]]]}}