{"type":"Feature","properties":{"GID_3":"IDN.10.1.17_1","GID_0":"IDN","country":"Indonesia","GID_1":"IDN.10_1","province":"JawaTengah","NL_NAME_1":"NA","GID_2":"IDN.10.1_1","county":"Banjarnegara","NL_NAME_2":"NA","city":"Sigaluh","VARNAME_3":"NA","NL_NAME_3":"NA","TYPE_3":"Kecamatan","ENGTYPE_3":"Sub-district","CC_3":"3304070","HASC_3":"NA","name":"Sigaluh.city"},
"geometry":{"type": "MultiPolygon","coordinates": [[[[109.8163,-7.4153,400.4763],[109.8081,-7.4139,390.6232],[109.8047,-7.4109,410.0061],[109.7921,-7.4115,371.047],[109.7911,-7.409,365.3883],[109.7858,-7.4059,387.1902],[109.7805,-7.406,354.3391],[109.7793,-7.4023,351.7665],[109.7682,-7.3953,338.3809],[109.7684,-7.393,338.5469],[109.7632,-7.3929,331.4196],[109.7581,-7.3887,327.1034],[109.7503,-7.3912,314.6138],[109.7441,-7.3896,320.4994],[109.7414,-7.3865,300.498],[109.7376,-7.3888,292.8622],[109.7287,-7.3855,284.0945],[109.7254,-7.3872,277.8473],[109.7292,-7.3925,314.9528],[109.7288,-7.3954,329.8332],[109.7313,-7.3993,348.115],[109.7442,-7.4088,578.9755],[109.7536,-7.4218,842.5229],[109.7582,-7.4249,862.9863],[109.7533,-7.4397,986.3534],[109.7614,-7.4408,944.8224],[109.7722,-7.4479,674.4818],[109.7788,-7.448,626.6784],[109.7864,-7.4507,601.9982],[109.7952,-7.4499,651.2942],[109.8021,-7.4512,762.8369],[109.8095,-7.4489,720.3346],[109.8262,-7.4483,639.207],[109.8283,-7.4433,619.5647],[109.8274,-7.4384,571.7322],[109.8317,-7.4327,536.5168],[109.833,-7.4228,430.7126],[109.8286,-7.4216,433.6313],[109.8293,-7.4197,426.3123],[109.8224,-7.4213,435.1013],[109.8163,-7.4153,400.4763]]]]}}