{"type":"Feature","properties":{"GID_3":"IDN.4.5.13_1","GID_0":"IDN","country":"Indonesia","GID_1":"IDN.4_1","province":"Banten","NL_NAME_1":"NA","GID_2":"IDN.4.5_1","county":"Pandeglang","NL_NAME_2":"NA","city":"Cipeucang","VARNAME_3":"NA","NL_NAME_3":"NA","TYPE_3":"Kecamatan","ENGTYPE_3":"Sub-district","CC_3":"3601161","HASC_3":"NA","name":"Cipeucang.city"},
"geometry":{"type": "MultiPolygon","coordinates": [[[[106.0354,-6.4234,109.1096],[106.0368,-6.4225,105.2359],[106.032,-6.42,111.8754],[106.0305,-6.4141,110.2258],[106.0316,-6.395,127.7863],[106.0331,-6.3912,124.2229],[106.0284,-6.3895,122.4042],[106.0305,-6.3886,130.8802],[106.0308,-6.376,137.9479],[106.0318,-6.3762,137.9479],[106.0331,-6.3711,157.7479],[106.0305,-6.3684,157.0147],[106.0311,-6.3659,170.8405],[106.0294,-6.3628,178.6676],[106.0281,-6.3626,188.6919],[106.027,-6.3483,221.3951],[106.0231,-6.3407,242.9297],[106.006,-6.3411,440.23],[105.9976,-6.3464,591.8557],[105.9783,-6.3416,1302.9587],[105.9851,-6.3608,568.7072],[105.9959,-6.3632,346.0433],[106.0053,-6.3723,173.0112],[106.0063,-6.3791,135.1894],[106.0079,-6.3808,127.7229],[106.0071,-6.3853,115.0517],[106.0097,-6.3892,116.8314],[106.004,-6.3894,119.0071],[106.0023,-6.3918,122.2716],[106.0044,-6.3981,108.1139],[106.003,-6.4001,115.7524],[106.0086,-6.401,113.982],[106.0088,-6.4051,102.7412],[106.0058,-6.4078,105.6589],[106.0066,-6.4097,99.7982],[106.0091,-6.4117,97.8931],[106.0191,-6.4093,108.3776],[106.0203,-6.4178,98.2474],[106.0226,-6.4183,106.5953],[106.0223,-6.4213,102.0048],[106.0279,-6.4244,107.8101],[106.0302,-6.4285,105.5475],[106.0354,-6.4234,109.1096]]]]}}