{"type":"Feature","properties":{"GID_3":"IDN.11.4.12_1","GID_0":"IDN","country":"Indonesia","GID_1":"IDN.11_1","province":"JawaTimur","NL_NAME_1":"NA","GID_2":"IDN.11.4_1","county":"Blitar","NL_NAME_2":"NA","city":"SananKulon","VARNAME_3":"NA","NL_NAME_3":"NA","TYPE_3":"Kecamatan","ENGTYPE_3":"Sub-district","CC_3":"3505180","HASC_3":"NA","name":"Sanan_Kulon.city"},
"geometry":{"type": "MultiPolygon","coordinates": [[[[112.1426,-8.117,144.2968],[112.1436,-8.1138,149.7988],[112.1458,-8.114,147.2048],[112.1462,-8.1112,150.5027],[112.1441,-8.1115,149.9181],[112.145,-8.1087,148.7549],[112.1436,-8.1084,146.3695],[112.1411,-8.1114,143.1174],[112.1372,-8.1107,143.8874],[112.139,-8.1014,154.5821],[112.1417,-8.0999,158.4205],[112.1395,-8.099,155.9391],[112.1404,-8.0963,158.2592],[112.1339,-8.0931,159.5766],[112.1326,-8.0905,162.952],[112.1355,-8.0829,170.4325],[112.1452,-8.0751,197.2928],[112.1475,-8.0757,194.2278],[112.1475,-8.0801,180.948],[112.1574,-8.0836,185.3496],[112.1571,-8.0863,176.1839],[112.1627,-8.0837,190.2263],[112.1649,-8.0764,199.046],[112.1691,-8.0717,214.588],[112.1691,-8.0674,219.4229],[112.1731,-8.0576,237.351],[112.1691,-8.0563,236.826],[112.1704,-8.0517,249.2725],[112.1716,-8.0535,247.3838],[112.172,-8.0499,250.9015],[112.1656,-8.0465,252.0714],[112.1683,-8.0424,254.3023],[112.1719,-8.0412,266.4183],[112.1683,-8.0388,259.2064],[112.1693,-8.0342,270.7642],[112.1668,-8.0315,270.342],[112.1597,-8.0386,245.7446],[112.1557,-8.039,244.5539],[112.1518,-8.0449,234.4937],[112.1438,-8.049,219.0006],[112.1389,-8.0558,207.0997],[112.1278,-8.0624,192.2552],[112.1279,-8.0648,180.9409],[112.1244,-8.0694,182.4938],[112.1244,-8.0774,169.7913],[112.1207,-8.0872,159.6539],[112.1185,-8.0893,160.5698],[112.1193,-8.0953,143.9171],[112.1171,-8.1066,135.8953],[112.114,-8.1088,132.3928],[112.1102,-8.1185,109.8998],[112.1167,-8.1238,123.2582],[112.1219,-8.1254,115.4104],[112.1245,-8.129,117.3272],[112.1361,-8.1331,117.5203],[112.1382,-8.1359,121.3998],[112.1495,-8.1425,123.6307],[112.1583,-8.1437,127.2542],[112.1608,-8.1379,140.4847],[112.1559,-8.1357,131.5027],[112.1598,-8.1268,138.9541],[112.1579,-8.1261,140.1746],[112.1568,-8.1283,137.6872],[112.1492,-8.1278,132.5507],[112.1508,-8.1215,137.3562],[112.1441,-8.1201,139.4028],[112.1426,-8.117,144.2968]]]]}}