{"type":"Feature","properties":{"GID_3":"IDN.8.11.1_1","GID_0":"IDN","country":"Indonesia","GID_1":"IDN.8_1","province":"Jambi","NL_NAME_1":"NA","GID_2":"IDN.8.11_1","county":"Tebo","NL_NAME_2":"NA","city":"MuaraTabir","VARNAME_3":"NA","NL_NAME_3":"NA","TYPE_3":"Kecamatan","ENGTYPE_3":"Sub-district","CC_3":"1508011","HASC_3":"NA","name":"Muara_Tabir.city"},
"geometry":{"type": "MultiPolygon","coordinates": [[[[102.7128,-1.7036,26.0326],[102.7101,-1.6938,44.8343],[102.7118,-1.6797,47.5386],[102.7062,-1.6716,52.1402],[102.7013,-1.6596,70.3812],[102.6792,-1.6354,78.2174],[102.6693,-1.6302,78.3544],[102.6654,-1.6154,68.6413],[102.6268,-1.6109,84.107],[102.6124,-1.5984,90.7464],[102.6083,-1.589,74.972],[102.6016,-1.5627,74.925],[102.5989,-1.5632,67.9594],[102.5853,-1.5575,80.0229],[102.5672,-1.5438,54.6976],[102.5559,-1.5472,66.3261],[102.5491,-1.5631,95.6411],[102.5219,-1.5745,58.6856],[102.4805,-1.5807,49.6639],[102.4812,-1.5956,49.3265],[102.489,-1.5954,67.0761],[102.4884,-1.6188,76.7344],[102.4897,-1.6239,88.1212],[102.4874,-1.6371,62.9676],[102.489,-1.6461,57.1028],[102.4953,-1.6417,69.6199],[102.5186,-1.6386,52.5176],[102.5203,-1.6422,57.3947],[102.52,-1.6458,50.9399],[102.5186,-1.6462,55.7686],[102.5208,-1.6465,54.7647],[102.5196,-1.6505,39.8042],[102.5299,-1.6576,38.8818],[102.5231,-1.6765,49.2827],[102.5134,-1.6862,45.7496],[102.5081,-1.6947,44.5033],[102.5064,-1.6946,41.8227],[102.5049,-1.6885,45.5466],[102.5024,-1.6865,43.9152],[102.4967,-1.6866,43.9477],[102.497,-1.6898,43.4618],[102.5017,-1.6968,43.7833],[102.5121,-1.7047,39.2338],[102.5141,-1.7082,51.6458],[102.514,-1.7147,46.5509],[102.5022,-1.7416,82.1514],[102.4947,-1.751,74.9463],[102.4859,-1.7684,52.8616],[102.47,-1.7807,78.5466],[102.4694,-1.7867,87.7449],[102.4598,-1.8004,94.4182],[102.4583,-1.8127,77.5891],[102.4625,-1.8293,77.8348],[102.4615,-1.8322,78.9957],[102.4625,-1.842,68.7457],[102.4697,-1.8595,57.791],[102.4597,-1.8775,54.3091],[102.4595,-1.8973,55.128],[102.465,-1.8945,55.5673],[102.497,-1.9045,69.5421],[102.5097,-1.9119,114.5359],[102.5081,-1.898,78.7418],[102.5099,-1.8903,86.7818],[102.5081,-1.871,89.3206],[102.5099,-1.8662,98.9742],[102.5207,-1.8573,105.9581],[102.5377,-1.8638,80.2975],[102.5634,-1.8806,87.4097],[102.5851,-1.8816,80.8574],[102.5975,-1.876,70.8442],[102.6155,-1.8603,65.8707],[102.6271,-1.8432,72.6638],[102.6346,-1.8349,57.2308],[102.6521,-1.8251,53.0492],[102.6585,-1.8206,61.3478],[102.6623,-1.8157,61.278],[102.6688,-1.7967,59.4709],[102.678,-1.7876,51.7985],[102.687,-1.7739,51.3547],[102.688,-1.7666,48.8549],[102.687,-1.745,45.4441],[102.6959,-1.728,32.1228],[102.6957,-1.7242,26.2448],[102.6985,-1.7219,32.2844],[102.7069,-1.723,34.8416],[102.7095,-1.7204,28.8575],[102.7105,-1.716,32.7846],[102.714,-1.7182,28.4342],[102.7125,-1.7131,30.3465],[102.7061,-1.7062,29.7129],[102.7074,-1.7038,25.9235],[102.7128,-1.7036,26.0326]]]]}}