{"type":"Feature","properties":{"GID_3":"IDN.1.2.6_1","GID_0":"IDN","country":"Indonesia","GID_1":"IDN.1_1","province":"Aceh","NL_NAME_1":"NA","GID_2":"IDN.1.2_1","county":"AcehBarat","NL_NAME_2":"NA","city":"PantaiCeuremen","VARNAME_3":"NA","NL_NAME_3":"NA","TYPE_3":"Kecamatan","ENGTYPE_3":"Sub-district","CC_3":"1107082","HASC_3":"NA","name":"Pantai_Ceuremen.city"},
"geometry":{"type": "MultiPolygon","coordinates": [[[[96.2252,4.3259,21.7813],[96.2257,4.3406,38.3167],[96.222,4.3473,25.821],[96.238,4.3484,29.0107],[96.2465,4.3513,38.7128],[96.2933,4.3343,80.5658],[96.2972,4.3547,98.2842],[96.296,4.3683,75.1289],[96.3016,4.3702,77.4459],[96.3078,4.3676,57.1964],[96.3138,4.3682,71.0409],[96.318,4.3644,80.4135],[96.3197,4.3647,80.4135],[96.3203,4.3678,86.0202],[96.3228,4.3685,84.5882],[96.3291,4.3671,128.8535],[96.3357,4.3708,141.6379],[96.3389,4.3745,139.9395],[96.3385,4.376,131.0377],[96.3411,4.3762,146.8095],[96.3415,4.38,167.9523],[96.358,4.3818,122.4263],[96.3586,4.3868,135.5456],[96.3662,4.3906,138.3002],[96.3673,4.3929,169.0889],[96.3691,4.3918,160.9807],[96.3717,4.3928,192.0061],[96.3732,4.3965,196.9095],[96.3708,4.3991,148.8645],[96.3736,4.4103,229.771],[96.3707,4.4128,214.107],[96.372,4.4174,219.0045],[96.3835,4.4201,236.8404],[96.4218,4.4214,490.4023],[96.4415,4.4258,568.1281],[96.4533,4.4333,765.0762],[96.4797,4.4583,1187.2026],[96.4796,4.461,1175.9963],[96.4744,4.4687,1093.4464],[96.4528,4.4896,611.2466],[96.4459,4.499,560.1938],[96.4404,4.51,631.6534],[96.4464,4.5187,672.7994],[96.4189,4.5377,570.6192],[96.4157,4.5432,536.5377],[96.4042,4.5485,500.7296],[96.3955,4.5564,445.7248],[96.3928,4.5568,427.7488],[96.3766,4.5674,380.7527],[96.3718,4.574,356.6438],[96.3683,4.5745,368.5635],[96.3657,4.5799,341.3223],[96.3617,4.5813,367.8242],[96.3597,4.5853,343.5866],[96.3515,4.5931,316.5519],[96.3489,4.5917,308.0138],[96.3472,4.5934,324.0605],[96.348,4.6001,294.2865],[96.3439,4.6004,316.4946],[96.3416,4.6043,267.494],[96.3421,4.6065,252.7362],[96.3393,4.6069,349.6798],[96.3386,4.6118,261.3],[96.3284,4.6191,254.9183],[96.3288,4.6205,253.9684],[96.3244,4.6234,252.4055],[96.3176,4.6323,243.9521],[96.3087,4.6378,244.5935],[96.3052,4.6436,235.1879],[96.3016,4.644,237.1375],[96.2959,4.6474,316.0271],[96.2935,4.6519,328.7428],[96.2882,4.653,403.8218],[96.2697,4.6528,856.5944],[96.2449,4.656,875.6885],[96.2242,4.6537,867.4399],[96.2194,4.6527,876.4584],[96.2146,4.6398,631.3063],[96.2225,4.6199,371.5018],[96.2298,4.618,398.9239],[96.2466,4.6077,293.3094],[96.2516,4.6015,386.8728],[96.2538,4.5948,529.8506],[96.2552,4.5878,362.8442],[96.2506,4.5779,281.6082],[96.2478,4.5738,298.3593],[96.2372,4.568,227.2792],[96.2276,4.5397,131.9296],[96.2306,4.5325,96.5623],[96.2325,4.5159,160.4487],[96.2375,4.5028,108.1116],[96.237799999999993,4.4895,87.6141],[96.2408,4.482,73.6195],[96.2408,4.478,82.7547],[96.2596,4.4646,85.5591],[96.2632,4.4482,82.8538],[96.2603,4.4434,76.5785],[96.2459,4.4324,69.3892],[96.2227,4.4037,45.8088],[96.2239,4.3994,35.7445],[96.2231,4.3926,50.1547],[96.2287,4.3861,25.7403],[96.2276,4.384,28.3169],[96.2285,4.377,24.6331],[96.2191,4.3726,22.3315],[96.2146,4.375,23.2209],[96.199,4.3664,20.8746],[96.2006,4.3615,25.7966],[96.1995,4.3596,16.8521],[96.1958,4.3596,16.0],[96.1944,4.3566,18.2315],[96.1888,4.3572,20.5348],[96.184,4.3538,24.7696],[96.1834,4.3507,14.25],[96.1888,4.3433,15.5297],[96.1877,4.3384,22.5157],[96.189,4.3354,15.707],[96.1904,4.3352,24.9387],[96.1943,4.3412,16.6605],[96.1975,4.3403,16.3768],[96.1933,4.329,14.7338],[96.191,4.3293,13.5683],[96.1887,4.3321,11.8782],[96.1857,4.3305,14.8274],[96.1908,4.3197,9.5842],[96.1961,4.32,9.0145],[96.198,4.3159,10.3493],[96.2062,4.3186,22.4898],[96.2236,4.32,18.6583],[96.2252,4.3259,21.7813]]]]}}