{"type":"Feature","properties":{"GID_3":"IDN.10.5.16_1","GID_0":"IDN","country":"Indonesia","GID_1":"IDN.10_1","province":"JawaTengah","NL_NAME_1":"NA","GID_2":"IDN.10.5_1","county":"Boyolali","NL_NAME_2":"NA","city":"Selo","VARNAME_3":"NA","NL_NAME_3":"NA","TYPE_3":"Kecamatan","ENGTYPE_3":"Sub-district","CC_3":"3309010","HASC_3":"NA","name":"Selo.city"},
"geometry":{"type": "MultiPolygon","coordinates": [[[[110.4739,-7.5057,1413.4463],[110.4713,-7.504,1463.2188],[110.4718,-7.5025,1473.1185],[110.4753,-7.5035,1426.2129],[110.4792,-7.5004,1397.1819],[110.4873,-7.5056,1298.7111],[110.4896,-7.504,1257.7882],[110.4977,-7.5055,1130.1934],[110.5056,-7.5024,1005.4703],[110.5043,-7.5009,1017.6011],[110.5055,-7.5005,1017.6011],[110.5055,-7.4967,1055.7988],[110.5043,-7.4941,1047.9082],[110.5027,-7.4943,1101.298],[110.5044,-7.4916,1048.3759],[110.5016,-7.489,1126.375],[110.5024,-7.4867,1097.4987],[110.5008,-7.4863,1126.2742],[110.5002,-7.4829,1094.8329],[110.5119,-7.4808,928.3969],[110.5186,-7.4814,823.9915],[110.5185,-7.4794,838.4786],[110.5088,-7.4751,961.4126],[110.5029,-7.4743,1043.5938],[110.4862,-7.4797,1271.6248],[110.483,-7.4765,1334.8816],[110.4844,-7.476,1314.3073],[110.4844,-7.4736,1294.6387],[110.4705,-7.4694,1674.0676],[110.4617,-7.4697,2026.8351],[110.4449,-7.4604,2793.4385],[110.4393,-7.4536,3063.446],[110.4342,-7.4652,2574.2383],[110.4353,-7.4694,2414.6011],[110.4331,-7.4778,2003.7449],[110.4267,-7.4858,1503.6011],[110.4139,-7.4971,1182.7802],[110.411,-7.4968,1159.0059],[110.4082,-7.4991,1134.5],[110.4063,-7.4974,1108.5508],[110.4022,-7.499,1077.3643],[110.3957,-7.4984,1052.2228],[110.3953,-7.5007,1027.6772],[110.394,-7.5003,1022.8079],[110.3894,-7.5068,981.127],[110.3801,-7.5117,857.7109],[110.3808,-7.5143,913.0057],[110.3872,-7.5134,957.7814],[110.4052,-7.5171,1162.9229],[110.4461,-7.5418,2863.772],[110.4514,-7.5323,2509.7026],[110.4802,-7.5162,1342.9712],[110.4809,-7.5142,1362.8529],[110.4793,-7.514,1362.8529],[110.4809,-7.5104,1349.8563],[110.4842,-7.5096,1297.5381],[110.4808,-7.507,1325.438],[110.4739,-7.5057,1413.4463]]]]}}