{"type":"Feature","properties":{"GID_3":"IDN.22.2.7_1","GID_0":"IDN","country":"Indonesia","GID_1":"IDN.22_1","province":"PapuaBarat","NL_NAME_1":"NA","GID_2":"IDN.22.2_1","county":"Kaimana","NL_NAME_2":"NA","city":"Yamor","VARNAME_3":"NA","NL_NAME_3":"NA","TYPE_3":"Distrik","ENGTYPE_3":"District","CC_3":"9102041","HASC_3":"NA","name":"Yamor.city"},
"geometry":{"type": "MultiPolygon","coordinates": [[[[134.808,-4.2226,25.943],[134.7995,-4.2364,0.0],[134.8081,-4.2436,0.0],[134.8096,-4.2457,0.0],[134.8096,-4.2518,0.0],[134.8117,-4.2527,0.0],[134.8158,-4.2532,0.0],[134.8174,-4.2504,93.2759],[134.8255,-4.2549,0.0],[134.8309,-4.2554,0.0],[134.8477,-4.25,50.9625],[134.8571,-4.2543,0.0],[134.8638,-4.2515,72.8459],[134.8698,-4.2519,2.3217],[134.8748,-4.2467,82.2742],[134.8899,-4.2215,814.3367],[134.9232,-4.1831,218.4502],[134.9794,-4.1302,86.4789],[135.0021,-4.1058,85.504],[135.0263,-4.0753,33.6788],[135.0668,-4.016,38.7271],[135.1141,-3.9417,45.239],[135.1771,-3.8515,1013.6964],[135.258,-3.7519,1408.8274],[135.1636,-3.7268,300.914],[135.1173,-3.7031,137.8038],[135.0445,-3.6754,177.1767],[134.9837,-3.6562,88.6343],[134.8887,-3.631,56.3585],[134.7483,-3.5797,481.7455],[134.5252,-3.5058,313.7558],[134.4967,-3.5275,689.0936],[134.4769,-3.5466,804.6505],[134.4483,-3.5645,722.6805],[134.4244,-3.5831,602.4744],[134.3777,-3.6288,501.7096],[134.3582,-3.6524,262.2702],[134.3214,-3.7046,497.3265],[134.3002,-3.7382,383.0882],[134.2591,-3.8152,506.1563],[134.2532,-3.8339,574.9617],[134.254,-3.8403,708.1843],[134.2856,-3.8435,369.2922],[134.302,-3.8495,283.946],[134.3691,-3.8526,398.9308],[134.4201,-3.8602,201.2847],[134.4869,-3.8668,481.6347],[134.5729,-3.8776,345.7099],[134.5954,-3.8791,171.4547],[134.6356,-3.8789,285.936],[134.6481,-3.882,469.5576],[134.6885,-3.884,946.1291],[134.7605,-3.8946,609.1206],[134.7782,-3.8949,90.0],[134.7968,-3.892,333.1671],[134.8335,-3.8961,1188.5544],[134.8579,-3.8971,1275.3445],[134.8697,-3.8991,1153.0884],[134.8807,-3.903,1065.4753],[134.9172,-3.9182,608.2358],[134.9328,-3.9183,207.3089],[134.9534,-3.9259,185.8813],[134.9825,-3.9321,195.6632],[134.987,-3.9368,207.2377],[134.9856,-3.9451,173.8291],[134.9765,-3.9568,16.1835],[134.9416,-4.0185,25.4275],[134.9126,-4.0631,20.5348],[134.8898,-4.0871,11.8675],[134.8822,-4.1022,12.469],[134.8813,-4.1101,16.8202],[134.8733,-4.1299,23.4802],[134.8458,-4.173,4.2474],[134.8288,-4.1923,12.2551],[134.808,-4.2226,25.943]]]]}}