{"type":"Feature","properties":{"GID_3":"IDN.23.8.8_1","GID_0":"IDN","country":"Indonesia","GID_1":"IDN.23_1","province":"Papua","NL_NAME_1":"NA","GID_2":"IDN.23.8_1","county":"Jayawijaya","NL_NAME_2":"NA","city":"Walelagama","VARNAME_3":"NA","NL_NAME_3":"NA","TYPE_3":"Distrik","ENGTYPE_3":"District","CC_3":"9402112","HASC_3":"NA","name":"Walelagama.city"},
"geometry":{"type": "MultiPolygon","coordinates": [[[[139.026,-4.121,2159.9258],[139.1135,-4.1747,3232.6338],[139.2826,-4.1324,3195.6465],[139.3511,-4.1187,1509.5032],[139.3624,-4.1139,1771.3647],[139.3489,-4.0889,2413.353],[139.2908,-4.048,2852.7681],[139.2473,-4.0124,2159.5498],[139.2052,-4.0098,2919.9041],[139.1471,-4.0184,2910.7617],[139.0063,-4.0473,1894.2537],[138.9816,-4.062,1645.5704],[138.977,-4.0685,1646.8723],[138.9709,-4.0848,1694.7017],[138.973,-4.0895,1703.4098],[138.9709,-4.1074,1749.3022],[138.9913,-4.1131,1725.1487],[139.016,-4.1155,1910.9022],[139.026,-4.121,2159.9258]]]]}}