{"type":"Feature","properties":{"GID_3":"IDN.30.20.7_1","GID_0":"IDN","country":"Indonesia","GID_1":"IDN.30_1","province":"SumateraBarat","NL_NAME_1":"NA","GID_2":"IDN.30.20_1","county":"TanahDatar","NL_NAME_2":"NA","city":"Pariangan","VARNAME_3":"NA","NL_NAME_3":"NA","TYPE_3":"Kecamatan","ENGTYPE_3":"Sub-district","CC_3":"1305030","HASC_3":"NA","name":"Pariangan.city"},
"geometry":{"type": "MultiPolygon","coordinates": [[[[100.5381,-0.4658,680.2982],[100.5305,-0.4552,769.6526],[100.5249,-0.4405,824.1282],[100.5187,-0.4336,920.4073],[100.5157,-0.425,1000.5398],[100.5092,-0.4167,1130.4423],[100.5084,-0.4133,1157.8625],[100.5025,-0.4082,1266.0847],[100.4994,-0.4077,1310.5232],[100.493,-0.3989,1594.2618],[100.4785,-0.3937,2418.521],[100.4722,-0.3846,2682.6453],[100.4701,-0.3896,2657.0015],[100.466,-0.3904,2683.0464],[100.4683,-0.4044,2240.8164],[100.4676,-0.4169,1688.9104],[100.4703,-0.424,1477.0408],[100.4678,-0.4309,1305.4945],[100.4679,-0.4366,1203.1953],[100.4747,-0.4456,1043.0592],[100.4804,-0.4641,933.895],[100.4921,-0.4816,990.1097],[100.5011,-0.5,650.4618],[100.5201,-0.5066,861.6387],[100.5189,-0.5041,796.9695],[100.5287,-0.4909,596.6489],[100.5371,-0.4857,605.4794],[100.5398,-0.4824,611.3378],[100.5363,-0.4735,643.9084],[100.5381,-0.4658,680.2982]]]]}}