{"type":"Feature","properties":{"GID_3":"IDN.23.21.33_1","GID_0":"IDN","country":"Indonesia","GID_1":"IDN.23_1","province":"Papua","NL_NAME_1":"NA","GID_2":"IDN.23.21_1","county":"PegununganBintang","NL_NAME_2":"NA","city":"Weime","VARNAME_3":"NA","NL_NAME_3":"NA","TYPE_3":"Distrik","ENGTYPE_3":"District","CC_3":"9417033","HASC_3":"NA","name":"Weime.city"},
"geometry":{"type": "MultiPolygon","coordinates": [[[[140.2944,-4.45,2182.3716],[140.3306,-4.4857,2086.4688],[140.396,-4.4326,1713.438],[140.4275,-4.4335,1550.0732],[140.4295,-4.404,1256.6125],[140.4268,-4.3935,1077.0256],[140.4203,-4.3821,1308.0842],[140.3845,-4.4024,1764.7094],[140.3736,-4.3919,1769.7419],[140.369,-4.3847,1653.9846],[140.3449,-4.3627,1688.8413],[140.3106,-4.3499,984.0898],[140.2674,-4.3074,845.6201],[140.243,-4.2908,899.5439],[140.2399,-4.2941,1040.9579],[140.2298,-4.2969,1283.5203],[140.197,-4.3147,1069.5247],[140.1874,-4.3215,929.5325],[140.1747,-4.3411,668.6373],[140.1715,-4.3502,833.1716],[140.1715,-4.3607,797.6633],[140.1579,-4.3801,961.4917],[140.193,-4.3959,1217.9788],[140.1982,-4.3798,1139.5337],[140.2055,-4.3737,1022.0679],[140.2116,-4.365,819.4534],[140.2269,-4.3737,1002.3037],[140.2367,-4.3762,1211.0801],[140.2593,-4.3904,1698.5094],[140.2525,-4.4029,2275.9578],[140.2375,-4.4135,1297.663],[140.2552,-4.4219,1830.4602],[140.2821,-4.4394,1989.5259],[140.2944,-4.45,2182.3716]]]]}}