{"type":"Feature","properties":{"GID_3":"IDN.23.11.1_1","GID_0":"IDN","country":"Indonesia","GID_1":"IDN.23_1","province":"Papua","NL_NAME_1":"NA","GID_2":"IDN.23.11_1","county":"KotaJayapura","NL_NAME_2":"NA","city":"Abepura","VARNAME_3":"NA","NL_NAME_3":"NA","TYPE_3":"Distrik","ENGTYPE_3":"District","CC_3":"9471020","HASC_3":"NA","name":"Abepura.city"},
"geometry":{"type": "MultiPolygon","coordinates": [[[[140.6868,-2.6136,15.6615],[140.6901,-2.6087,0.0],[140.6893,-2.6062,22.24],[140.6941,-2.6041,27.5061],[140.694,-2.6002,12.1182],[140.6906,-2.5977,25.0567],[140.6913,-2.5954,0.0],[140.6882,-2.5961,79.5703],[140.6665,-2.5813,86.8276],[140.6621,-2.5852,179.2683],[140.668,-2.6006,66.326],[140.6613,-2.6077,11.1165],[140.6582,-2.6065,17.1104],[140.6551,-2.6102,70.9789],[140.6525,-2.6263,258.9744],[140.6541,-2.6502,345.929],[140.6509,-2.6637,280.6472],[140.652,-2.6682,307.3478],[140.6546,-2.6709,306.4985],[140.6575,-2.6852,244.9058],[140.6564,-2.6924,183.6861],[140.6583,-2.725,189.705],[140.664,-2.7256,176.604],[140.6895,-2.7205,210.9193],[140.7073,-2.707,218.1099],[140.7169,-2.7061,231.957],[140.7299,-2.7072,235.1833],[140.7584,-2.7189,263.8379],[140.7824,-2.7236,27.6919],[140.7876,-2.7076,48.0888],[140.7876,-2.6972,61.9686],[140.7875,-2.6949,64.3393],[140.7824,-2.6883,18.3742],[140.7811,-2.681,7.4644],[140.7764,-2.6793,9.6894],[140.7773,-2.6746,7.9985],[140.7754,-2.6742,7.8217],[140.7761,-2.6585,6.2331],[140.7803,-2.6497,4.4036],[140.7608,-2.6503,16.6811],[140.7608,-2.6281,7.2687],[140.7481,-2.6244,2.0659],[140.7354,-2.618,2.725],[140.724,-2.6094,0.0],[140.7111,-2.5953,0.0],[140.71017586206895,-2.5983804597701239,0.0],[140.7102,-2.5984,0.0],[140.71011176470591,-2.598594117646972,0.0],[140.7093,-2.6013,0.0],[140.7109,-2.5992,0.0],[140.7115,-2.5972,0.0],[140.7118,-2.6033,1.8833],[140.7203,-2.6065,0.6538],[140.7241,-2.6128,3.9344],[140.7279,-2.6137,2.4709],[140.7328,-2.6188,1.9838],[140.7378,-2.6273,3.1341],[140.7348,-2.6326,5.2163],[140.7267,-2.6337,5.5691],[140.7194,-2.6285,1.5688],[140.714,-2.63,15.7001],[140.7089,-2.6273,0.0],[140.706,-2.6284,25.3639],[140.7,-2.6257,0.7927],[140.6972,-2.6218,0.0],[140.7076,-2.618,0.0],[140.7036,-2.6165,31.0864],[140.6991,-2.6188,15.9858],[140.69,-2.6167,14.0446],[140.6868,-2.6136,15.6615]],
[[140.722,-2.6305,0.0],[140.7219,-2.6307,0.0],[140.7218,-2.6306,4.4635],[140.722,-2.6305,0.0]]],
[[[140.71011176470591,-2.598594117646972,0.0],[140.71017586206895,-2.5983804597701239,0.0],[140.7081,-2.5967,0.0],[140.7057,-2.597,2.7581],[140.7065,-2.5986,0.0],[140.709,-2.5981,0.7541],[140.7082,-2.5995,0.7541],[140.7067,-2.5989,0.0],[140.7083,-2.6007,0.0],[140.7097,-2.5995,0.0],[140.71011176470591,-2.598594117646972,0.0]]]]}}