{"type":"Feature","properties":{"GID_3":"IDN.17.13.13_1","GID_0":"IDN","country":"Indonesia","GID_1":"IDN.17_1","province":"Lampung","NL_NAME_1":"NA","GID_2":"IDN.17.13_1","county":"Tulangbawang","NL_NAME_2":"NA","city":"RawaPitu","VARNAME_3":"NA","NL_NAME_3":"NA","TYPE_3":"Kecamatan","ENGTYPE_3":"Sub-district","CC_3":"1808055","HASC_3":"NA","name":"Rawa_Pitu.city"},
"geometry":{"type": "MultiPolygon","coordinates": [[[[105.5684,-4.3704,1.8429],[105.5892,-4.3693,2.0983],[105.5887,-4.3525,2.6619],[105.6198,-4.3499,2.6114],[105.6191,-4.3314,2.7589],[105.6243,-4.3308,3.0227],[105.6238,-4.3261,2.7691],[105.6413,-4.3245,1.8167],[105.6447,-4.3374,2.979],[105.6706,-4.3346,3.162],[105.6846,-4.3296,1.8081],[105.6802,-4.2821,3.7256],[105.6768,-4.2786,3.7493],[105.6775,-4.2752,2.9498],[105.681,-4.2747,9.6357],[105.6818,-4.2724,4.2785],[105.6769,-4.2718,7.0381],[105.6713,-4.2686,4.0012],[105.6647,-4.2702,7.0918],[105.6599,-4.2739,3.7047],[105.6619,-4.2829,4.718],[105.6557,-4.287,2.6594],[105.653,-4.2867,4.5483],[105.6508,-4.2832,4.2713],[105.6524,-4.2775,5.23],[105.6467,-4.2731,2.6577],[105.6417,-4.2727,2.5689],[105.6351,-4.2807,4.7801],[105.638,-4.2843,5.1654],[105.6365,-4.2939,3.7128],[105.6278,-4.2971,5.6211],[105.624,-4.3035,4.7493],[105.62,-4.3067,2.334],[105.6149,-4.3076,2.9014],[105.6096,-4.3123,2.5057],[105.6036,-4.3132,1.3005],[105.6002,-4.3085,4.5995],[105.6035,-4.3,5.3712],[105.5991,-4.2969,2.2697],[105.5981,-4.2936,1.6873],[105.6027,-4.282,5.5989],[105.6083,-4.2814,5.786],[105.6101,-4.2861,1.8928],[105.615,-4.2907,2.5964],[105.62,-4.2833,3.2492],[105.6176,-4.2786,1.7799],[105.6179,-4.2711,3.1898],[105.6126,-4.2621,1.9083],[105.6158,-4.2568,39.6717],[105.6159,-4.2442,29.7652],[105.6101,-4.2419,25.4065],[105.6094,-4.2399,24.0057],[105.551,-4.2501,1.581],[105.5524,-4.2872,7.2096],[105.55,-4.2872,5.5454],[105.5499,-4.3019,5.6681],[105.5434,-4.3035,7.4649],[105.5442,-4.3231,3.3927],[105.5114,-4.3249,12.5082],[105.5116,-4.3545,1.6916],[105.5272,-4.3536,2.9969],[105.5281,-4.3568,2.4919],[105.5404,-4.3562,1.7629],[105.5405,-4.3537,2.2852],[105.5674,-4.3499,3.5036],[105.5684,-4.3704,1.8429]]]]}}