{"type":"Feature","properties":{"GID_3":"IDN.11.8.24_1","GID_0":"IDN","country":"Indonesia","GID_1":"IDN.11_1","province":"JawaTimur","NL_NAME_1":"NA","GID_2":"IDN.11.8_1","county":"Jember","NL_NAME_2":"NA","city":"Sukowono","VARNAME_3":"NA","NL_NAME_3":"NA","TYPE_3":"Kecamatan","ENGTYPE_3":"Sub-district","CC_3":"3509270","HASC_3":"NA","name":"Sukowono.city"},
"geometry":{"type": "MultiPolygon","coordinates": [[[[113.8127,-8.0943,253.4266],[113.8228,-8.0909,286.5789],[113.8237,-8.092,289.1509],[113.8271,-8.0907,299.8651],[113.8295,-8.0922,309.3245],[113.8325,-8.0914,313.6613],[113.8296,-8.0988,319.5213],[113.8331,-8.0988,322.6705],[113.8332,-8.0953,324.4525],[113.8364,-8.095,334.4212],[113.8419,-8.0973,345.5715],[113.8497,-8.0928,341.4944],[113.8577,-8.0951,369.9995],[113.8589,-8.0942,371.1304],[113.8609,-8.0769,400.7644],[113.8747,-8.0791,447.183],[113.88,-8.0782,451.2275],[113.8803,-8.0751,461.4689],[113.8783,-8.0732,437.7303],[113.8755,-8.0744,423.416],[113.8762,-8.072,413.3533],[113.8735,-8.0693,416.8148],[113.8694,-8.0701,400.3787],[113.8665,-8.0689,390.9998],[113.8667,-8.066,393.2629],[113.8643,-8.0634,388.9888],[113.8641,-8.0574,409.9996],[113.8674,-8.0546,423.9666],[113.8674,-8.0519,413.6274],[113.8651,-8.0492,415.4344],[113.8653,-8.0423,411.7596],[113.8626,-8.0402,411.43],[113.8643,-8.0384,423.4885],[113.8649,-8.0339,433.0464],[113.8554,-8.0224,383.0132],[113.8513,-8.0271,376.1507],[113.8454,-8.024,363.9221],[113.8474,-8.0305,363.1429],[113.8525,-8.0312,370.9982],[113.854,-8.0335,375.1757],[113.8543,-8.0458,382.2294],[113.8519,-8.0449,374.2376],[113.8495,-8.0473,367.9796],[113.8415,-8.0488,349.6257],[113.8391,-8.0477,344.6588],[113.8393,-8.0464,344.6588],[113.8356,-8.046,343.374],[113.8299,-8.0479,329.1467],[113.8242,-8.0453,317.7425],[113.8126,-8.0461,301.5986],[113.8098,-8.0499,292.4456],[113.8075,-8.0503,288.8911],[113.8057,-8.0565,280.1135],[113.8022,-8.0577,275.0956],[113.7998,-8.0555,265.5034],[113.7954,-8.0554,265.7714],[113.7947,-8.053,278.1978],[113.7911,-8.0515,288.5267],[113.7901,-8.0493,283.3815],[113.7852,-8.0497,281.6612],[113.7827,-8.0548,265.6404],[113.7813,-8.055,277.2612],[113.7831,-8.0594,254.0871],[113.7815,-8.0645,254.3453],[113.7847,-8.0661,236.9659],[113.788,-8.064,245.6853],[113.7906,-8.0664,265.0468],[113.7877,-8.0748,260.3869],[113.7899,-8.0766,248.8264],[113.7943,-8.0743,255.8148],[113.7965,-8.0747,247.979],[113.7941,-8.0815,230.9402],[113.7961,-8.0806,232.4081],[113.7979,-8.0841,255.0324],[113.7996,-8.083,249.7701],[113.8028,-8.0869,254.7507],[113.807,-8.0884,262.2552],[113.8069,-8.0959,243.5111],[113.8127,-8.0943,253.4266]]]]}}