{"type":"Feature","properties":{"GID_3":"IDN.4.5.22_1","GID_0":"IDN","country":"Indonesia","GID_1":"IDN.4_1","province":"Banten","NL_NAME_1":"NA","GID_2":"IDN.4.5_1","county":"Pandeglang","NL_NAME_2":"NA","city":"Mekarjaya","VARNAME_3":"NA","NL_NAME_3":"NA","TYPE_3":"Kecamatan","ENGTYPE_3":"Sub-district","CC_3":"3601172","HASC_3":"NA","name":"Mekarjaya.city"},
"geometry":{"type": "MultiPolygon","coordinates": [[[[106.1032,-6.4253,78.6948],[106.1038,-6.4224,55.0354],[106.1015,-6.4223,51.4157],[106.0995,-6.4186,67.0004],[106.1003,-6.4163,68.9874],[106.0988,-6.4158,61.4701],[106.1002,-6.4138,62.5333],[106.0977,-6.4116,69.4066],[106.1004,-6.4125,78.7705],[106.1013,-6.4111,72.9525],[106.1005,-6.4082,82.9747],[106.0991,-6.4092,71.6287],[106.0993,-6.4074,65.9853],[106.0971,-6.4066,78.308],[106.0976,-6.4041,74.0571],[106.0992,-6.404,61.275],[106.0977,-6.4034,74.0571],[106.0982,-6.4016,75.2387],[106.096,-6.3988,77.9546],[106.0981,-6.3974,71.0359],[106.094,-6.3937,92.2952],[106.0918,-6.3946,102.7032],[106.0891,-6.3926,94.8193],[106.0904,-6.3843,110.6149],[106.0879,-6.3751,113.188],[106.0869,-6.3764,116.381],[106.0857,-6.3752,112.9879],[106.0821,-6.3764,120.879],[106.0802,-6.3737,129.3557],[106.0749,-6.3737,128.1427],[106.0719,-6.3694,134.2404],[106.0596,-6.3717,136.2209],[106.0602,-6.3786,135.5392],[106.0579,-6.3786,140.5729],[106.0581,-6.3801,137.6876],[106.0461,-6.3802,139.7841],[106.041,-6.3895,132.1329],[106.0406,-6.3954,126.2539],[106.0331,-6.3912,124.2229],[106.032,-6.3935,122.8927],[106.0305,-6.4141,110.2258],[106.0318,-6.4194,110.6924],[106.0337,-6.4213,104.549],[106.0382,-6.4224,105.2359],[106.046,-6.4123,117.7645],[106.0521,-6.4119,118.9405],[106.0585,-6.4137,115.6897],[106.062,-6.4127,120.414],[106.0658,-6.4086,107.0417],[106.0684,-6.4085,107.2857],[106.0716,-6.4118,106.375],[106.0784,-6.4114,96.9167],[106.0793,-6.414,105.4792],[106.0836,-6.4148,92.1427],[106.0863,-6.4237,84.8609],[106.0937,-6.4276,105.8679],[106.1012,-6.4272,94.0309],[106.1032,-6.4253,78.6948]]]]}}