{"type":"Feature","properties":{"GID_3":"IDN.32.26.6_1","GID_0":"IDN","country":"Indonesia","GID_1":"IDN.32_1","province":"SumateraUtara","NL_NAME_1":"NA","GID_2":"IDN.32.26_1","county":"Samosir","NL_NAME_2":"NA","city":"RonggurNihuta","VARNAME_3":"NA","NL_NAME_3":"NA","TYPE_3":"Kecamatan","ENGTYPE_3":"Sub-district","CC_3":"1217070","HASC_3":"NA","name":"Ronggur_Nihuta.city"},
"geometry":{"type": "MultiPolygon","coordinates": [[[[98.7664,2.5649,1312.2031],[98.774,2.5652,1323.944],[98.7886,2.5711,1436.4971],[98.8079,2.584,1527.5292],[98.8179,2.5979,1520.8832],[98.8368,2.6083,1613.745],[98.8453,2.6179,1621.613],[98.8582,2.6196,1602.2687],[98.8584,2.6226,1487.3096],[98.8509,2.6306,1586.7886],[98.8451,2.6447,1379.864],[98.8366,2.6586,1043.3115],[98.828,2.6677,1155.2979],[98.8246,2.6676,1215.7396],[98.8184,2.6628,1618.6688],[98.8036,2.6611,1606.1666],[98.7987,2.6574,1586.2889],[98.7815,2.6545,1525.936],[98.7704,2.6496,1461.6361],[98.7667,2.6446,1424.3716],[98.7617,2.6427,1418.5343],[98.744,2.6406,1302.6135],[98.7418,2.6426,1272.5055],[98.744,2.6324,1337.2434],[98.7424,2.6269,1306.0952],[98.7457,2.6188,1312.7983],[98.743,2.6168,1248.5316],[98.7491,2.6091,1282.6005],[98.7428,2.6014,1319.2466],[98.743,2.5987,1314.094],[98.748,2.5892,1302.2439],[98.7664,2.5649,1312.2031]]]]}}