{"type":"Feature","properties":{"GID_3":"IDN.19.6.5_1","GID_0":"IDN","country":"Indonesia","GID_1":"IDN.19_1","province":"Maluku","NL_NAME_1":"NA","GID_2":"IDN.19.6_1","county":"MalukuTengah","NL_NAME_2":"NA","city":"Leihitu","VARNAME_3":"NA","NL_NAME_3":"NA","TYPE_3":"Kecamatan","ENGTYPE_3":"Sub-district","CC_3":"8103110","HASC_3":"NA","name":"Leihitu.city"},
"geometry":{"type": "MultiPolygon","coordinates": [[[[127.975,-3.7003,678.7855],[127.9812,-3.7019,844.226],[127.9865,-3.7079,617.7202],[128.0245,-3.6536,374.8587],[128.0389,-3.6667,396.4023],[128.0412,-3.6572,537.114],[128.0458,-3.6497,495.5878],[128.0661,-3.6409,413.0768],[128.0882,-3.6335,372.0566],[128.0977,-3.6329,511.9043],[128.12,-3.6261,411.3159],[128.1819,-3.6124,229.3677],[128.2282,-3.5842,429.6385],[128.2566,-3.5649,425.9529],[128.2345,-3.5118,5.6906],[128.2242,-3.5181,32.8519],[128.2168,-3.5301,68.2571],[128.2013,-3.543,14.8367],[128.1917,-3.5564,0.8635],[128.1834,-3.5627,0.0],[128.1787,-3.5732,0.0],[128.1807,-3.5791,3.3226],[128.1798,-3.5813,1.2959],[128.171,-3.5865,3.2469],[128.1384,-3.5906,7.8557],[128.135,-3.5864,1.4922],[128.1245,-3.5852,8.0492],[128.1092,-3.5871,1.9765],[128.1046,-3.5843,0.0],[128.0984,-3.5872,0.9229],[128.0908,-3.5814,2.6154],[128.0869,-3.5808,0.4025],[128.0834,-3.5827,3.0824],[128.0791,-3.5896,21.1197],[128.0762,-3.5902,7.8309],[128.0703,-3.5886,0.0],[128.0652,-3.5909,3.2296],[128.0566,-3.5889,0.4918],[128.0399,-3.5938,1.1672],[128.03,-3.5909,0.0],[128.0263,-3.5922,2.6972],[128.0196,-3.6058,32.0782],[128.0155,-3.6092,43.1328],[128.0103,-3.6105,8.4196],[128.0041,-3.6173,0.0],[127.9992,-3.6188,4.2656],[127.9913,-3.6294,0.0],[127.9861,-3.6296,1.9537],[127.9756,-3.6387,0.0],[127.9656,-3.6423,1.4641],[127.9637,-3.6446,0.0],[127.9635,-3.6526,0.0],[127.958,-3.6571,3.8564],[127.9533,-3.6649,3.5408],[127.9486,-3.6667,1.2489],[127.9449,-3.6723,8.0341],[127.9284,-3.6809,1.4869],[127.9214,-3.6918,13.1425],[127.925,-3.703,26.9368],[127.9334,-3.7058,271.3293],[127.9509,-3.7038,365.1341],[127.9695,-3.699,533.3749],[127.975,-3.7003,678.7855]]],
[[[127.9153,-3.6792,2.9361],[127.9106,-3.6791,2.6681],[127.9139,-3.6851,5.0761],[127.9156,-3.6805,8.1602],[127.9153,-3.6792,2.9361]]],
[[[127.9075,-3.6746,0.0],[127.9097,-3.675,0.0],[127.9115,-3.6727,0.0],[127.9082,-3.6712,0.0],[127.9069,-3.6722,4.3418],[127.9075,-3.6746,0.0]]],
[[[127.9112,-3.6503,0.0],[127.9107,-3.6486,0.0],[127.905,-3.6509,7.6428],[127.903,-3.6536,18.5735],[127.9081,-3.6545,30.5497],[127.9112,-3.6503,0.0]]],
[[[127.9235,-3.5064,331.0904],[127.9056,-3.5196,16.1882],[127.9113,-3.5338,20.1098],[127.9212,-3.5444,19.2875],[127.9205,-3.5487,0.0],[127.9236,-3.5594,22.8019],[127.9216,-3.5685,0.0],[127.9247,-3.5648,17.1932],[127.9354,-3.5643,11.3762],[127.9367,-3.5627,48.2214],[127.9371,-3.5585,0.0],[127.9343,-3.5546,57.9141],[127.9361,-3.5444,46.0937],[127.9386,-3.5433,0.0],[127.9431,-3.5363,4.6055],[127.951,-3.5314,0.0],[127.9406,-3.5226,332.6491],[127.9294,-3.5042,315.6113],[127.9235,-3.5064,331.0904]]]]}}