{"type":"Feature","properties":{"GID_2":"IDN.23.27_1","GID_0":"IDN","country":"Indonesia","GID_1":"IDN.23_1","province":"Papua","NL_NAME_1":"NA","county":"Waropen","VARNAME_2":"NA","NL_NAME_2":"NA","TYPE_2":"Kabupaten","ENGTYPE_2":"Regency","CC_2":"9426","HASC_2":"ID.PA.WR","name":"Waropen.county"},
"geometry":{"type": "MultiPolygon","coordinates": [[[[136.9811,-3.1868,116.2299],[136.9825,-3.1818,121.9158],[136.9873,-3.1756,112.5],[136.9927,-3.1741,116.4221],[136.9944,-3.1822,111.5],[136.9961,-3.184,118.4362],[136.9997,-3.1839,127.6319],[137.0021,-3.1769,111.7484],[137.0054,-3.1748,113.4118],[137.0078,-3.1757,122.9055],[137.0093,-3.1783,109.5],[137.0083,-3.1807,116.6658],[137.0045,-3.1833,112.8143],[137.0035,-3.1861,115.4972],[137.0051,-3.1894,109.0],[137.0093,-3.1884,114.4207],[137.0105,-3.1844,123.5631],[137.0129,-3.1831,114.8419],[137.0225,-3.1822,123.1962],[137.0369,-3.1851,111.4466],[137.0419,-3.1827,120.8028],[137.0441,-3.1792,116.1552],[137.0431,-3.1698,107.0],[137.0443,-3.168,109.5488],[137.0499,-3.1686,123.258],[137.0519,-3.1764,106.9125],[137.0637,-3.1755,110.2013],[137.0717,-3.1795,105.0],[137.0885,-3.1715,151.0137],[137.0917,-3.1635,101.0],[137.0921,-3.157,113.3932],[137.0975,-3.1557,106.4881],[137.1028,-3.1573,99.5],[137.1071,-3.154,107.2159],[137.1073,-3.1469,102.4843],[137.1053,-3.1403,104.1693],[137.1157,-3.1301,100.4072],[137.1271,-3.1227,111.4615],[137.1279,-3.1322,98.0],[137.1343,-3.1352,102.6559],[137.1425,-3.1347,109.8933],[137.1508,-3.1313,97.5],[137.1607,-3.1332,110.0355],[137.1653,-3.1257,98.4259],[137.1754,-3.1262,96.5],[137.1818,-3.1218,104.8616],[137.1823,-3.1139,97.0825],[137.1869,-3.1064,98.2015],[137.1741,-3.0895,113.198],[137.1625,-3.0816,106.4611],[137.1517,-3.0777,112.4611],[137.2095,-3.0573,105.5479],[137.2493,-3.0313,113.3405],[137.2611,-3.0153,114.3393],[137.2935,-3.0034,113.032],[137.3637,-2.9699,99.5696],[137.3804,-2.9658,101.6844],[137.3771,-2.9581,107.7801],[137.3786,-2.9559,101.9642],[137.3825,-2.956,116.0733],[137.3821,-2.954,97.8517],[137.3771,-2.9513,91.1412],[137.3705,-2.951,105.6442],[137.3695,-2.9488,97.8535],[137.3714,-2.9479,113.5398],[137.3751,-2.9497,90.4108],[137.3817,-2.9478,100.5485],[137.3843,-2.9453,112.0239],[137.3829,-2.9435,97.1018],[137.3779,-2.9439,91.4197],[137.3776,-2.9421,105.1033],[137.3803,-2.9397,100.7991],[137.3793,-2.9328,108.6773],[137.372,-2.9377,95.519],[137.3689,-2.938,94.7168],[137.3673,-2.9372,98.4039],[137.3681,-2.9347,95.1915],[137.3641,-2.932,109.0087],[137.3647,-2.9305,99.8087],[137.3704,-2.9302,96.9921],[137.3657,-2.925,105.4766],[137.3662,-2.9229,107.4961],[137.3708,-2.9234,103.5815],[137.3726,-2.9218,103.084],[137.3685,-2.9188,99.5152],[137.3639,-2.9189,103.4006],[137.3634,-2.917,121.3703],[137.3693,-2.9135,103.7846],[137.3695,-2.9115,108.1232],[137.3602,-2.9109,106.6703],[137.3563,-2.9095,112.5548],[137.3543,-2.9061,112.4573],[137.3548,-2.9038,107.6849],[137.3633,-2.9013,114.6596],[137.3588,-2.8937,115.2134],[137.3599,-2.8789,119.8548],[137.3578,-2.8773,124.5976],[137.3519,-2.8796,157.926],[137.3511,-2.8755,170.6828],[137.3535,-2.87,120.1027],[137.3499,-2.8647,118.6397],[137.3457,-2.8691,122.7354],[137.3447,-2.8681,173.8896],[137.3443,-2.8567,126.348],[137.3413,-2.86,155.8878],[137.3369,-2.8581,143.24],[137.3359,-2.8553,127.2058],[137.3331,-2.8557,130.3228],[137.3306,-2.8508,155.713],[137.3269,-2.8517,146.2332],[137.3233,-2.8492,151.71],[137.3247,-2.8527,144.4854],[137.3231,-2.8531,149.0593],[137.319,-2.8478,165.3499],[137.2849,-2.8431,289.2123],[137.2755,-2.8366,279.6707],[137.2691,-2.8241,344.641],[137.2668,-2.7963,201.7614],[137.2704,-2.7945,219.9516],[137.2725,-2.7911,183.4993],[137.2721,-2.7772,239.8408],[137.2492,-2.7611,414.6726],[137.2763,-2.7291,210.9284],[137.2792,-2.724,198.5167],[137.2792,-2.7204,200.9116],[137.283,-2.7231,287.3794],[137.2836,-2.721,191.6257],[137.2873,-2.7191,184.8863],[137.2861,-2.7146,217.3733],[137.2664,-2.6975,238.4919],[137.2634,-2.6929,236.9935],[137.2631,-2.6881,239.8187],[137.2608,-2.6857,251.3375],[137.2601,-2.6816,234.3107],[137.263,-2.6706,239.4206],[137.2613,-2.6655,319.9743],[137.263,-2.6634,290.8266],[137.2646,-2.653,300.7733],[137.2606,-2.6381,274.8174],[137.2634,-2.6372,264.5987],[137.2677,-2.631,292.5177],[137.2652,-2.6276,320.1506],[137.2636,-2.6305,283.9176],[137.2634,-2.627,308.5819],[137.2617,-2.626,297.2968],[137.261,-2.6223,318.3808],[137.2644,-2.6254,309.6657],[137.2654,-2.6244,335.6194],[137.2618,-2.6192,314.0999],[137.2635,-2.6165,342.4938],[137.2607,-2.6164,339.8611],[137.2628,-2.6144,379.9341],[137.2609,-2.6124,348.1662],[137.2622,-2.6107,362.3467],[137.2578,-2.6084,352.4828],[137.2608,-2.6061,381.0627],[137.2564,-2.6026,352.5728],[137.2553,-2.6041,338.9152],[137.2536,-2.6035,325.0783],[137.255,-2.6031,338.9152],[137.2533,-2.6021,337.233],[137.255,-2.5995,383.3673],[137.2518,-2.5958,351.9539],[137.2537,-2.5911,403.0828],[137.2518,-2.5911,371.318],[137.2505,-2.5889,416.0231],[137.2489,-2.5896,370.7113],[137.2484,-2.5875,405.819],[137.2465,-2.5876,376.0128],[137.2451,-2.5847,375.6225],[137.2423,-2.585,379.0049],[137.2407,-2.581,406.2879],[137.2369,-2.5794,384.2716],[137.2377,-2.5775,395.6952],[137.2403,-2.5767,410.3449],[137.2398,-2.5754,407.5803],[137.237,-2.5743,455.6425],[137.2369,-2.5761,388.8426],[137.2306,-2.5759,447.3409],[137.2316,-2.5778,385.9633],[137.23,-2.5783,415.9781],[137.2276,-2.5749,424.002],[137.2266,-2.5769,412.9807],[137.2236,-2.5776,424.7296],[137.2219,-2.5767,424.7296],[137.2225,-2.573,429.3264],[137.2134,-2.5724,449.3817],[137.1931,-2.5637,507.3613],[137.1907,-2.5555,621.9962],[137.1834,-2.5503999999999998,773.7769],[137.1778,-2.5498,676.4509],[137.1714,-2.5457,595.0997],[137.1677,-2.5393,538.6387],[137.1612,-2.5376,535.5009],[137.1586,-2.5393,514.0911],[137.1568,-2.5368,494.4937],[137.155,-2.5363,488.3338],[137.1546,-2.5378,488.3338],[137.1517,-2.5349,480.6246],[137.149,-2.5353,500.2533],[137.1474,-2.5325,482.7118],[137.1488,-2.5298,469.5289],[137.1456,-2.5263,485.507],[137.1429,-2.5271,472.8684],[137.1432,-2.523,478.4732],[137.1408,-2.5219,459.7981],[137.1392,-2.523,511.3806],[137.1371,-2.5178,466.9728],[137.131,-2.5205,431.0789],[137.1285,-2.5185,418.4312],[137.1279,-2.521,433.0819],[137.1257,-2.5184,399.2047],[137.1249,-2.5207,394.3266],[137.123,-2.5154,452.0696],[137.1207,-2.5175,360.5783],[137.1195,-2.5153,400.6054],[137.1159,-2.5147,379.1541],[137.1148,-2.5123,391.7972],[137.1134,-2.512,351.0592],[137.1122,-2.5139,299.4979],[137.11,-2.511,413.5597],[137.1137,-2.5048,307.9789],[137.1111,-2.4996,291.9963],[137.1072,-2.5015,303.3893],[137.1058,-2.4994,270.5001],[137.1061,-2.4957,287.9232],[137.0932,-2.4878999999999998,291.6368],[137.0897,-2.489,252.9767],[137.0885,-2.4861,292.686],[137.0871,-2.4862,236.8797],[137.0867,-2.4832,230.878],[137.0798,-2.4821,231.4621],[137.0773,-2.48,196.5668],[137.0765,-2.4852,236.3712],[137.075,-2.4856,204.2088],[137.0694,-2.4801,206.6788],[137.0644,-2.4799,199.4029],[137.0635,-2.477,208.6337],[137.0616,-2.4778,190.636],[137.0593,-2.4757,235.8587],[137.0583,-2.4701,187.9168],[137.0548,-2.4697,196.976],[137.0563,-2.4674,166.5176],[137.0555,-2.4648,163.3178],[137.0494,-2.4622,157.4858],[137.0486,-2.4577,217.4832],[137.0435,-2.4616,146.8081],[137.0406,-2.4559,177.3604],[137.0363,-2.4601,168.2151],[137.0349,-2.458,146.4403],[137.037,-2.4553,157.6678],[137.0346,-2.453,168.3454],[137.0363,-2.4498,141.3385],[137.034,-2.4482,142.8751],[137.0391,-2.4481,137.6824],[137.0404,-2.4418,127.9698],[137.0348,-2.4403,134.8204],[137.0362,-2.4294,112.8436],[137.0351,-2.4278,132.6777],[137.0307,-2.4302,126.2491],[137.0316,-2.4246,120.4073],[137.0308,-2.4183,112.4635],[137.0293,-2.4167,100.434],[137.0258,-2.418,95.3867],[137.0199,-2.4239,102.4124],[137.013,-2.4199,91.1695],[137.0066,-2.4204,95.0345],[137.0023,-2.4256,91.7224],[136.9975,-2.4229,105.2076],[136.995,-2.4189,97.5831],[136.9878,-2.4222,93.6534],[136.9843,-2.418,71.5029],[136.9743,-2.4261,82.4083],[136.9708,-2.4256,75.8007],[136.9692,-2.4233,66.737],[136.9643,-2.4252,89.9442],[136.9635,-2.4205,69.3659],[136.967,-2.4158,72.3175],[136.966,-2.414,71.11],[136.9577,-2.4116,70.9251],[136.9538,-2.4035,88.8472],[136.9497,-2.4018,90.4288],[136.9497,-2.3986,102.0821],[136.9481,-2.3968,57.1722],[136.9444,-2.3948,79.5469],[136.9407,-2.3979,76.9953],[136.9341,-2.3929,95.9679],[136.9132,-2.3854,67.6631],[136.9079,-2.3795,114.868],[136.9079,-2.3772,105.4465],[136.9121,-2.3718,52.9809],[136.9094,-2.3644,69.2901],[136.91,-2.3614,57.5357],[136.9154,-2.3594,43.2252],[136.9157,-2.3564,40.381],[136.9205,-2.3582,49.3746],[136.9249,-2.3624,40.7236],[136.9311,-2.362,45.2717],[136.9325,-2.3612,51.5078],[136.9317,-2.359,34.6974],[136.9278,-2.3562,39.8949],[136.9267,-2.3502,33.9612],[136.9311,-2.3474,48.2714],[136.9336,-2.347,36.1841],[136.9374,-2.3495,29.1425],[136.938,-2.3477,41.1896],[136.9381,-2.34,35.9459],[136.9369,-2.3391,34.0783],[136.9248,-2.3349,29.6114],[136.9213,-2.3389,41.4336],[136.9192,-2.334,23.6255],[136.9151,-2.3319,20.0],[136.9158,-2.3288,20.5545],[136.9185,-2.328,34.305],[136.9143,-2.3192,61.7013],[136.9207,-2.3098,18.2998],[136.9214,-2.3044,15.4969],[136.9263,-2.3021,18.7678],[136.9265,-2.3006,24.6415],[136.9205,-2.2996,23.7278],[136.9164,-2.2937,23.3823],[136.9094,-2.2982,34.9142],[136.9029,-2.2942,13.7427],[136.9059,-2.2896,17.2773],[136.9038,-2.2853,11.5066],[136.9047,-2.2834,8.0],[136.9137,-2.2866,26.3136],[136.9139,-2.2854,16.0903],[136.91,-2.2827,20.2698],[136.9112,-2.2781,9.755],[136.9066,-2.2765,27.5165],[136.9023,-2.2648,7.5],[136.8995,-2.2694,8.7471],[136.8938,-2.2651,11.9187],[136.8962,-2.2705,14.9075],[136.8943,-2.2724,21.1717],[136.8916,-2.2713,22.4585],[136.8918,-2.2653,9.5238],[136.8886,-2.2603,16.2783],[136.8895,-2.2548,21.211],[136.8837,-2.2522,9.3841],[136.8855,-2.2498,18.9065],[136.885,-2.2476,9.8572],[136.8782,-2.2481,13.8814],[136.8779,-2.2434,21.0301],[136.8745,-2.2416,10.2382],[136.8733,-2.2389,19.8503],[136.8738,-2.2314,20.6421],[136.8716,-2.2317,8.8252],[136.8697,-2.2356,4.0],[136.8674,-2.2346,13.3143],[136.867,-2.2285,11.3005],[136.864,-2.2218,6.4786],[136.8604,-2.2244,5.9713],[136.8572,-2.2198,9.3163],[136.8557,-2.2228,18.985],[136.8535,-2.2234,17.0904],[136.8506,-2.2202,8.5182],[136.846,-2.2209,6.6294],[136.844,-2.2176,7.0583],[136.8412,-2.2197,24.9157],[136.8387,-2.2194,21.015],[136.8394,-2.2134,9.6955],[136.8349,-2.2132,7.8718],[136.8257,-2.2036,9.1468],[136.8251,-2.2002,4.3834],[136.8272,-2.1945,4.432],[136.8226,-2.1904,7.2028],[136.8226,-2.1864,15.6827],[136.807,-2.1763,4.5918],[136.8046,-2.1784,9.7454],[136.8133,-2.1859,12.2959],[136.8168,-2.1931,9.0446],[136.8171,-2.2083,6.9709],[136.8138,-2.2154,2.7901],[136.8136,-2.2212,5.0846],[136.8123,-2.2234,17.8695],[136.8125,-2.2203,5.0846],[136.811,-2.2195,0.0],[136.8103,-2.221,0.9899],[136.8076,-2.2184,4.3293],[136.8046,-2.2184,4.6553],[136.8039,-2.2204,0.0],[136.8013,-2.2207,11.5461],[136.7933,-2.2109,0.0],[136.7871,-2.2207,0.0],[136.7799,-2.227,0.0],[136.7798,-2.23,1.8844],[136.7774,-2.231,0.0],[136.7769,-2.2335,14.8902],[136.7766,-2.2318,0.0],[136.7699,-2.2294,0.0],[136.7687,-2.2316,9.7739],[136.7651,-2.2308,0.0],[136.7634,-2.2343,2.8033],[136.7599,-2.234,0.0],[136.7552,-2.2378,0.0],[136.7535,-2.2419,5.5258],[136.7545,-2.2465,0.0],[136.7587,-2.2482,13.4972],[136.7616,-2.2556,9.3375],[136.7677,-2.259,1.4329],[136.7697,-2.2644,6.085],[136.7708,-2.263,6.085],[136.7702,-2.2649,9.1888],[136.7689,-2.2647,10.425],[136.765,-2.2585,5.1239],[136.7631,-2.2587,8.9207],[136.7634,-2.2612,8.5085],[136.7625,-2.2582,6.8074],[136.7595,-2.2564,7.4967],[136.7559,-2.2594,1.2953],[136.7545,-2.2627,0.0],[136.7557,-2.2642,5.056],[136.7487,-2.2643,0.0],[136.7541,-2.277,2.0008],[136.7585,-2.2775,9.5533],[136.761,-2.2744,0.0],[136.7599,-2.2721,2.2702],[136.7625,-2.2702,7.8086],[136.7642,-2.2711,8.9129],[136.765,-2.2736,10.214],[136.7576,-2.2788,7.0635],[136.7534,-2.2775,2.0008],[136.75,-2.2714,7.7455],[136.7471,-2.265,4.6128],[136.7451,-2.2545,0.0],[136.7416,-2.2575,9.0171],[136.7443,-2.2525,0.0],[136.7413,-2.2471,1.114],[136.7376,-2.2493,9.776],[136.7322,-2.2482,11.0707],[136.7367,-2.2486,9.776],[136.7388,-2.2466,3.3299],[136.7312,-2.2427,2.8569],[136.7229,-2.2348,9.7814],[136.7117,-2.2279,0.0],[136.7048,-2.2275,0.0],[136.7017,-2.2358,2.9837],[136.6903,-2.2453,0.0],[136.6853,-2.247,0.0],[136.6828,-2.2522,5.2561],[136.6741,-2.2581,0.0],[136.6745,-2.2605,6.3804],[136.6733,-2.2612,0.0],[136.6662,-2.258,2.993],[136.6634,-2.2596,8.2794],[136.6629,-2.2567,0.0],[136.6545,-2.257,0.8697],[136.6541,-2.2545,0.0],[136.6466,-2.2516,3.3479],[136.6458,-2.2481,0.0],[136.6408,-2.2461,0.0],[136.6372,-2.2465,0.0],[136.6354,-2.2519,3.7673],[136.6299,-2.2472,0.0],[136.6206,-2.2471,0.0],[136.6147,-2.2507,6.9464],[136.6102,-2.2487,0.0],[136.6059,-2.2531,10.1033],[136.6024,-2.254,7.5865],[136.6001,-2.2529,13.9355],[136.5957,-2.2453,9.8588],[136.5966,-2.2395,5.7958],[136.5907,-2.2457,7.7655],[136.5902,-2.2484,9.6847],[136.5898,-2.2459,10.8076],[136.5956,-2.2368,4.9215],[136.5913,-2.2373,0.0],[136.5887,-2.2408,5.4358],[136.585,-2.2392,1.693],[136.5867,-2.2372,6.2121],[136.5817,-2.2375,4.2748],[136.5826,-2.2357,1.8214],[136.5759,-2.2189,0.0],[136.5769,-2.2144,7.7603],[136.5792,-2.2141,4.7541],[136.5807,-2.2108,1.1059],[136.5801,-2.2068,0.8389],[136.582,-2.2049,0.0],[136.5825,-2.2012,5.3595],[136.5895,-2.194,5.4611],[136.588,-2.1901,8.4049],[136.5809,-2.191,1.2686],[136.5775,-2.1959,6.2871],[136.5755,-2.1937,5.4939],[136.574,-2.1944,5.4939],[136.5784,-2.199,8.7363],[136.5771,-2.2042,7.2502],[136.5763,-2.199,5.4653],[136.5726,-2.199,9.6653],[136.5713,-2.2058,8.851],[136.5555,-2.2109,0.0],[136.546,-2.2196,2.8832],[136.5442,-2.2234,6.1585],[136.5385,-2.22,1.7292],[136.5348,-2.2213,5.1664],[136.5357,-2.2179,0.1912],[136.5324,-2.2139,0.0],[136.532,-2.2105,0.0],[136.5261,-2.2119,7.3718],[136.5267,-2.2024,0.0],[136.5248,-2.2013,0.2271],[136.5225,-2.2047,5.9358],[136.5183,-2.191,0.0],[136.5144,-2.1923,0.0],[136.5102,-2.1904,0.0],[136.5021,-2.1999,0.4911],[136.4952,-2.1997,0.9413],[136.4861,-2.2054,0.988],[136.48,-2.2042,0.0],[136.4746,-2.2083,1.8844],[136.4686,-2.2069,0.0],[136.4611,-2.2092,0.0],[136.4578,-2.2137,3.7949],[136.4476,-2.2057,0.0],[136.4316,-2.2055,4.3931],[136.428,-2.2042,2.6514],[136.4195,-2.2063,23.3566],[136.4128,-2.2113,8.4654],[136.4061,-2.2119,3.1457],[136.4026,-2.2155,4.829],[136.3964,-2.2172,0.4691],[136.3823,-2.233,16.4823],[136.3732,-2.2366,2.1075],[136.3676,-2.2408,0.8533],[136.3642,-2.2464,2.1377],[136.3656,-2.2489,0.2836],[136.3585,-2.2563,14.7671],[136.3442,-2.2597,3.8795],[136.3446,-2.2622,8.4654],[136.3395,-2.2637,12.7876],[136.3392,-2.2703,23.2047],[136.3363,-2.2765,0.0],[136.3336,-2.2777,0.0],[136.3324,-2.2844,0.0],[136.3351,-2.2934,0.0727],[136.3371,-2.2951,6.2569],[136.338,-2.3079,0.0],[136.3397,-2.31,11.348],[136.3402,-2.3384,3.7161],[136.3415,-2.3413,6.2812],[136.3373,-2.3635,0.0],[136.3422,-2.3683,1.8613],[136.3423,-2.373,14.5346],[136.3338,-2.379,16.8936],[136.336,-2.3761,8.6005],[136.3374,-2.3758,10.6723],[136.3366,-2.3742,0.0],[136.3292,-2.3806,12.7821],[136.3264,-2.3871,3.3601],[136.3268,-2.3842,0.0],[136.3151,-2.3998,15.1749],[136.312,-2.4004,3.6648],[136.3127,-2.3995,2.2942],[136.3015,-2.4043,0.0],[136.2959,-2.4112,14.2691],[136.2972,-2.4173,4.6754],[136.2957,-2.4252,20.7778],[136.2857,-2.4488,4.1906],[136.2886,-2.4515,13.0641],[136.2812,-2.4599,1.7297],[136.2782,-2.4687,7.8494],[136.2796,-2.4709,8.8692],[136.2878,-2.4739,13.0447],[136.2921,-2.4846,0.0],[136.2904,-2.4858,2.2142],[136.2888,-2.4847,15.6879],[136.2829,-2.4775,0.0],[136.2809,-2.5077,0.0],[136.2669,-2.5463,9.3203],[136.2633,-2.5496,10.9311],[136.26,-2.5593,4.4523],[136.2541,-2.5619,0.0],[136.2424,-2.5852,19.0804],[136.2247,-2.6106,5.4404],[136.2244,-2.6135,11.3432],[136.2204,-2.6139,0.0],[136.2147,-2.6206,0.0],[136.2058,-2.6259,0.0],[136.1967,-2.6269,0.0],[136.1951,-2.6304,10.383],[136.1895,-2.6326,1.4249],[136.1875,-2.6372,1.2478],[136.1822,-2.6403,1.1143],[136.1768,-2.6363,0.0],[136.1733,-2.6367,1.9009],[136.1701,-2.6404,1.6437],[136.1577,-2.6436,0.0],[136.1461,-2.6505,5.3987],[136.1384,-2.6449,3.0043],[136.1351,-2.6457,0.0],[136.1326,-2.6506,0.0],[136.1247,-2.6585,0.0],[136.1269,-2.6612,0.75],[136.1122,-2.6675,3.7207],[136.0838,-2.6715,10.6661],[136.0672,-2.6722,1.7663],[136.0629,-2.6716,11.3098],[136.0582,-2.6682,4.6306],[136.0557,-2.6689,0.0],[136.0569,-2.6724,0.0],[136.0554,-2.6786,5.295],[136.0524,-2.6803,6.042],[136.0504,-2.6783,1.4014],[136.0511,-2.68,6.042],[136.0462,-2.6845,0.0],[136.0463,-2.6874,0.0],[136.0378,-2.6953,6.491],[136.0286,-2.6916,6.8634],[136.0198,-2.6915,1.2762],[136.017,-2.6947,4.8618],[136.0163,-2.6991,9.5922],[136.0177,-2.7,23.514],[136.0154,-2.7002,4.1931],[136.0103,-2.7052,0.0],[136.0091,-2.7085,0.0],[136.0137,-2.7159,0.0],[136.0128,-2.7178,0.0],[136.0185,-2.7221,1.9786],[136.0147,-2.7279,6.0966],[136.0208,-2.741,5.6519],[136.0177,-2.7459,12.0607],[136.0201,-2.7464,9.3071],[136.0253,-2.7442,21.4702],[136.0277,-2.7463,13.5443],[136.0336,-2.7435,6.8192],[136.04,-2.745,9.6390999999999991],[136.0439,-2.7426,11.2506],[136.0476,-2.7576,21.6944],[136.0514,-2.7638,19.5285],[136.0562,-2.7665,27.5097],[136.0624,-2.7672,27.1544],[136.075,-2.7668,124.7182],[136.0905,-2.764,25.8321],[136.0952,-2.7607,3.5761],[136.0981,-2.7547,3.931],[136.1011,-2.7534,2.0],[136.1075,-2.7543,5.4409],[136.114,-2.7598,10.0301],[136.1188,-2.7535,12.4774],[136.1279,-2.7543,3.7296],[136.1356,-2.7521,7.6931],[136.1353,-2.7605,5.2252],[136.1299,-2.7663,9.8698],[136.13,-2.7722,3.0],[136.1337,-2.7754,7.6687],[136.1376,-2.7717,5.3369],[136.1402,-2.7714,5.1868],[136.1461,-2.7748,8.5845],[136.1465,-2.7792,5.3241],[136.1379,-2.7866,6.998],[136.1443,-2.7977,4.8527],[136.1455,-2.7966,18.7633],[136.1421,-2.7898,7.3309],[136.1423,-2.7857,4.0],[136.1434,-2.7834,5.3342],[136.1459,-2.7834,4.0],[136.1484,-2.785,7.9685],[136.1515,-2.7927,7.6029],[136.1542,-2.794,4.0],[136.156,-2.794,19.3254],[136.1564,-2.7902,4.0],[136.1605,-2.7878,16.5077],[136.1637,-2.7896,12.2261],[136.1614,-2.7952,16.0049],[136.1628,-2.7996,9.3132],[136.1684,-2.7969,4.5],[136.1746,-2.7964,9.2627],[136.178,-2.792,12.0025],[136.1828,-2.7937,16.5905],[136.1844,-2.7977,12.3371],[136.1797,-2.7996,8.7383],[136.1788,-2.8014,5.0],[136.1788,-2.8047,12.5999],[136.1825,-2.8096,6.601],[136.188,-2.8098,5.0],[136.1889,-2.8077,18.966],[136.1871,-2.8001,8.4245],[136.1893,-2.7977,11.9086],[136.1966,-2.801,7.4041],[136.2043,-2.8003999999999998,5.5],[136.2016,-2.806,5.5],[136.203,-2.8095,8.1841],[136.2065,-2.8052,9.7652],[136.2103,-2.8067,7.7867],[136.2173,-2.806,19.657],[136.2183,-2.8071,16.3865],[136.2158,-2.81,21.058],[136.2182,-2.8166,6.0],[136.2237,-2.821,15.1346],[136.2291,-2.8223,6.0],[136.2221,-2.8281,6.5],[136.2217,-2.8329,16.3627],[136.225,-2.8326,6.5],[136.2288,-2.8287,9.132],[136.2346,-2.8316,13.5448],[136.2341,-2.8336,16.5149],[136.2284,-2.8368,6.5],[136.2294,-2.8414,14.6476],[136.232,-2.8421,7.0],[136.2352,-2.8406,7.0],[136.2377,-2.8352,10.042],[136.2394,-2.8351,7.0],[136.2435,-2.8406,7.0],[136.2524,-2.8405,14.7712],[136.2533,-2.8418,8.3962],[136.2531,-2.8437,8.2449],[136.2511,-2.8447,15.0586],[136.246,-2.8433,9.7586],[136.2444,-2.8447,22.3537],[136.2393,-2.8536,16.5405],[136.2402,-2.859,11.854],[136.2486,-2.8632,13.8186],[136.2512,-2.8628,7.5],[136.2511,-2.8591,28.6373],[136.2428,-2.8542,17.7491],[136.2425,-2.8517,11.4635],[136.2441,-2.85,8.0],[136.248,-2.8507,8.0],[136.2508,-2.8549,8.0],[136.2531,-2.8552,8.0],[136.2559,-2.8545,29.1929],[136.2611,-2.8488,13.7753],[136.2662,-2.8498,8.5],[136.2658,-2.8513,15.2177],[136.2619,-2.8521,13.0264],[136.261,-2.8545,11.9093],[136.2632,-2.8609,19.3982],[136.2607,-2.8661,20.2575],[136.2657,-2.8715,12.1589],[136.2732,-2.8757,13.4022],[136.2721,-2.8792,13.441],[136.2657,-2.8789,23.4512],[136.2642,-2.8808,21.0041],[136.2661,-2.8864,21.4608],[136.2722,-2.8862,9.5],[136.2722,-2.883,9.5],[136.2775,-2.876,30.1641],[136.2785,-2.8709,17.1299],[136.2809,-2.8698,10.0],[136.2839,-2.8712,18.6902],[136.2845,-2.8749,12.9624],[136.2782,-2.8807,10.5],[136.2786,-2.8836,10.5],[136.2809,-2.8854,10.5],[136.2839,-2.8805,15.4471],[136.2869,-2.8792,24.9168],[136.2945,-2.8798,11.0],[136.2959,-2.8817,24.8524],[136.2957,-2.8834,37.8688],[136.29,-2.8865,20.8912],[136.2905,-2.8909,11.0],[136.2937,-2.8929,28.1883],[136.2876,-2.899,21.516],[136.2889,-2.9005,13.7566],[136.2968,-2.9015,12.6615],[136.2971,-2.9037,14.1835],[136.295,-2.9062,16.2919],[136.2895,-2.9066,20.3687],[136.2888,-2.908,14.863],[136.289,-2.9107,14.8112],[136.2924,-2.9146,20.5441],[136.295,-2.915,20.5391],[136.2947,-2.9103,18.003],[136.2975,-2.9099,21.2348],[136.3002,-2.9122,15.4531],[136.3057,-2.9107,18.4765],[136.3059,-2.9082,23.8741],[136.3128,-2.9142,20.9922],[136.315,-2.9124,29.0968],[136.3167,-2.9141,22.0692],[136.3174,-2.9106,29.4416],[136.3226,-2.9145,20.2241],[136.3253,-2.9131,24.8255],[136.326,-2.9185,29.7698],[136.3298,-2.9186,21.8911],[136.3286,-2.9207,31.2388],[136.3258,-2.9204,25.1801],[136.3275,-2.9264,28.0251],[136.3288,-2.9258,33.1663],[136.3282,-2.924,28.3269],[136.3314,-2.9223,34.3497],[136.3346,-2.9313,30.3282],[136.3339,-2.9357,27.3288],[136.3362,-2.9396,36.5025],[136.3415,-2.9419,31.7894],[136.345,-2.9398,27.8021],[136.3516,-2.9419,27.8452],[136.3497,-2.9446,29.8976],[136.3531,-2.9463,43.7773],[136.3533,-2.9534,26.0557],[136.3514,-2.9567,39.1524],[136.3466,-2.9589,34.6397],[136.3445,-2.9634,30.799],[136.3445,-2.9701,34.2001],[136.3463,-2.9713,31.0575],[136.3445,-2.973,32.8687],[136.3431,-2.9801,32.6552],[136.3466,-2.9825,39.9689],[136.3413,-2.9885,33.5214],[136.3445,-2.9877,37.9627],[136.347,-2.984,35.5699],[136.348,-2.9903,36.1879],[136.341,-2.9952,39.9771],[136.3395,-3.0057,29.8788],[136.3485,-3.0087,34.3872],[136.3483,-3.0114,38.7514],[136.3459,-3.0125,47.6283],[136.3463,-3.0184,47.0077],[136.3489,-3.0185,34.8742],[136.3491,-3.0201,40.9979],[136.3513,-3.0206,44.133],[136.3521,-3.024,40.748],[136.3534,-3.0236,43.6984],[136.3545,-3.0258,38.749],[136.3548,-3.0318,41.5233],[136.3575,-3.0344,49.084],[136.3608,-3.0345,55.7199],[136.365,-3.0421,53.1743],[136.3676,-3.0421,49.2462],[136.3713,-3.0468,55.9723],[136.3848,-3.0496,57.7532],[136.3981,-3.0603,66.8393],[136.4034,-3.0692,93.3245],[136.4082,-3.0725,84.6155],[136.4246,-3.0759,98.843],[136.4349,-3.0853,122.8007],[136.4318,-3.0969,144.6142],[136.4324,-3.1001,151.233],[136.4339,-3.1038,154.4688],[136.4372,-3.1063,160.0693],[136.4379,-3.1094,184.6224],[136.4417,-3.1125,175.3226],[136.4439,-3.1197,242.8],[136.4406,-3.1263,208.5756],[136.4401,-3.1357,234.3861],[136.4418,-3.1414,264.7943],[136.4407,-3.1584,308.9002],[136.4491,-3.1717,362.6475],[136.4453,-3.1746,378.2479],[136.4455,-3.1776,391.6591],[136.4507,-3.1775,398.5432],[136.4559,-3.1892,934.2338],[136.4655,-3.1939,1092.9047],[136.4685,-3.197,1161.5782],[136.4691,-3.2043,1469.8135],[136.482,-3.2181,1490.2073],[136.4835,-3.224,1650.9952],[136.4869,-3.2268,1673.1012],[136.4984,-3.228,1537.0703],[136.5095,-3.2325,1654.8564],[136.5315,-3.2305,2289.6775],[136.5345,-3.2274,2497.208],[136.5372,-3.2269,2545.4707],[136.5463,-3.2304,2757.7056],[136.5547,-3.2381,2667.8931],[136.5619,-3.2406,2808.0505],[136.5649,-3.2494,2611.9009],[136.5687,-3.2506,2596.0908],[136.5811,-3.2483,2491.4114],[136.5845,-3.2459,2496.2271],[136.5885,-3.2472,2543.396],[136.5975,-3.2464,2397.3682],[136.609,-3.2367,2579.7852],[136.6255,-3.2372,2525.7102],[136.6431,-3.2487,2342.8169],[136.6445,-3.2561,2051.1174],[136.6465,-3.2578,1966.219],[136.6702,-3.2581,1663.0703],[136.6816,-3.2621,1116.4545],[136.6849,-3.266,1041.1764],[136.6909,-3.2683,1100.6482],[136.6975,-3.2636,913.5082],[136.7067,-3.2683,978.3785],[136.7138,-3.2693,1018.9024],[136.7201,-3.2745,1138.2745],[136.7205,-3.2776,1198.0559],[136.7233,-3.2799,1180.8181],[136.7315,-3.2823,905.4156],[136.7513,-3.2813,469.9789],[136.7714,-3.2732,290.3489],[136.7773,-3.2785,311.4218],[136.782,-3.2764,287.4086],[136.7817,-3.2731,260.6585],[136.7884,-3.2657,254.4002],[136.7949,-3.2676,243.1644],[136.8011,-3.2657,248.1172],[136.8029,-3.2694,237.3502],[136.8053,-3.27,229.5015],[136.8121,-3.2772,226.7211],[136.8165,-3.2794,210.1903],[136.8197,-3.2791,202.6191],[136.8207,-3.2813,195.333],[136.8275,-3.2817,194.2189],[136.8297,-3.281,176.5019],[136.8327,-3.2751,167.6448],[136.8345,-3.2748,173.368],[136.8338,-3.27,162.9852],[136.8349,-3.269,176.108],[136.8391,-3.2688,158.9913],[136.8419,-3.2652,161.9135],[136.8501,-3.2616,138.2045],[136.8544,-3.2553,136.3217],[136.8599,-3.2546,137.17],[136.8644,-3.251,141.4881],[136.869,-3.2524,139.3229],[136.8741,-3.2422,134.3562],[136.8816,-3.2414,129.125],[136.883,-3.2345,132.4403],[136.8899,-3.2296,126.875],[136.8885,-3.2255,137.9408],[136.8863,-3.2239,134.0215],[136.8934,-3.2231,125.5],[136.8983,-3.2192,137.8397],[136.9001,-3.2154,124.0],[136.8975,-3.2128,131.4799],[136.8967,-3.2048,122.5],[136.8986,-3.1997,135.6464],[136.8974,-3.1939,121.5],[136.8993,-3.1922,121.7945],[136.9015,-3.1928,123.4555],[136.9017,-3.2033,134.6426],[136.9049,-3.2046,148.1403],[136.9079,-3.2032,136.6583],[136.9096,-3.1921,119.5],[136.925,-3.1861,140.7653],[136.9278,-3.1874,119.1683],[136.9277,-3.1916,144.2477],[136.9245,-3.1939,134.9827],[136.9259,-3.1961,131.6084],[136.9303,-3.1938,126.3118],[136.9317,-3.1899,122.8768],[136.9347,-3.1875,128.1664],[136.9389,-3.1869,119.3654],[136.9479,-3.1953,119.0437],[136.9531,-3.1894,122.0554],[136.9575,-3.1882,116.0],[136.9625,-3.1966,115.5],[136.9668,-3.1978,115.0],[136.9707,-3.1864,122.3537],[136.9755,-3.1861,116.451],[136.9783,-3.1914,117.1944],[136.9823,-3.1914,120.1102],[136.9811,-3.1868,116.2299]]],
[[[136.7491,-2.2611,1.5874],[136.7504,-2.2612,1.5874],[136.7514,-2.2597,0.0],[136.7503,-2.259,4.5336],[136.7491,-2.2611,1.5874]]],
[[[136.7548,-2.2587,1.2953],[136.7554,-2.2556,4.8927],[136.7532,-2.2563,1.9822],[136.753,-2.2595,1.0003],[136.7548,-2.2601,1.6285],[136.7548,-2.2587,1.2953]]],
[[[136.7539,-2.2549,3.3113],[136.7601,-2.2558,2.1432],[136.7602,-2.2535,5.1681],[136.7586,-2.25,14.2503],[136.7534,-2.2478,0.0],[136.7505,-2.2522,16.6613],[136.7467,-2.2536,5.5377],[136.7484,-2.2601,1.5874],[136.7515,-2.2566,0.6225],[136.7539,-2.2549,3.3113]]],
[[[136.65,-2.2504,1.5951],[136.6482,-2.2507,1.2991],[136.6482,-2.251,1.2991],[136.6503,-2.2515,0.0],[136.65,-2.2504,1.5951]]],
[[[136.7404,-2.245,0.7423],[136.7395,-2.244,0.0],[136.738,-2.2448,1.9205],[136.7397,-2.2461,2.5141],[136.7404,-2.245,0.7423]]],
[[[136.268,-2.2272,11.9074],[136.2696,-2.2211,0.0],[136.2614,-2.2168,5.0753],[136.2606,-2.2149,3.7816],[136.2566,-2.2168,13.9636],[136.2502,-2.2239,0.0],[136.2488,-2.2296,0.3324],[136.251,-2.233,0.0],[136.2553,-2.2331,0.0],[136.268,-2.2272,11.9074]]]]}}