{"type":"Feature","properties":{"GID_3":"IDN.11.22.25_1","GID_0":"IDN","country":"Indonesia","GID_1":"IDN.11_1","province":"JawaTimur","NL_NAME_1":"NA","GID_2":"IDN.11.22_1","county":"Malang","NL_NAME_2":"NA","city":"SumberPucung","VARNAME_3":"NA","NL_NAME_3":"NA","TYPE_3":"Kecamatan","ENGTYPE_3":"Sub-district","CC_3":"3507170","HASC_3":"NA","name":"Sumber_Pucung.city"},
"geometry":{"type": "MultiPolygon","coordinates": [[[[112.5376,-8.1716,291.553],[112.5413,-8.1651,306.4391],[112.5409,-8.1599,280.6818],[112.538,-8.1565,320.2392],[112.5359,-8.1558,315.9263],[112.5335,-8.1573,319.4956],[112.5306,-8.1561,320.2859],[112.5313,-8.1534,317.0865],[112.525,-8.1528,320.7735],[112.5256,-8.151,323.7243],[112.5209,-8.1477,327.4052],[112.507,-8.1413,290.5313],[112.507,-8.1436,305.3769],[112.5058,-8.142,287.9352],[112.505,-8.1436,285.6598],[112.5065,-8.1468,307.6232],[112.5041,-8.1461,282.0035],[112.4994,-8.1502,290.7859],[112.4964,-8.1467,279.0756],[112.493,-8.1496,306.7893],[112.4899,-8.1497,302.9542],[112.4892,-8.1479,275.0],[112.4848,-8.1485,275.0],[112.4846,-8.1505,289.8281],[112.4823,-8.1449,284.4859],[112.474,-8.146,279.0491],[112.4732,-8.1442,275.0],[112.47,-8.1446,299.3932],[112.4643,-8.1416,275.9696],[112.464,-8.1452,289.2041],[112.4621,-8.1375,275.0],[112.4612,-8.1444,294.5943],[112.4584,-8.1439,283.6633],[112.4538,-8.1466,275.0],[112.4522,-8.1445,282.0425],[112.4474,-8.148,239.836],[112.4403,-8.1488,220.0708],[112.4339,-8.1565,202.6594],[112.4376,-8.1576,201.5998],[112.4399,-8.1611,206.6428],[112.4457,-8.1616,247.4256],[112.4603,-8.1694,273.0],[112.464,-8.1796,273.0],[112.4729,-8.1778,273.0],[112.4776,-8.1836,273.0],[112.4846,-8.1837,273.0],[112.4926,-8.1944,273.0],[112.518,-8.1902,273.0],[112.5295,-8.1846,278.8184],[112.5316,-8.1851,277.2153],[112.5353,-8.1821,280.4254],[112.5376,-8.1716,291.553]]]]}}