{"type":"Feature","properties":{"GID_3":"IDN.32.29.25_1","GID_0":"IDN","country":"Indonesia","GID_1":"IDN.32_1","province":"SumateraUtara","NL_NAME_1":"NA","GID_2":"IDN.32.29_1","county":"Simalungun","NL_NAME_2":"NA","city":"Siantar","VARNAME_3":"NA","NL_NAME_3":"NA","TYPE_3":"Kecamatan","ENGTYPE_3":"Sub-district","CC_3":"1209160","HASC_3":"NA","name":"Siantar.city"},
"geometry":{"type": "MultiPolygon","coordinates": [[[[99.0316,2.8981,548.5889],[99.028,2.8922,558.0472],[99.0249,2.8921,566.121],[99.0197,2.8822,572.4078],[99.0291,2.8684,555.9001],[99.0366,2.8701,538.6606],[99.0759,2.8918,450.4356],[99.1177,2.9073,334.7158],[99.1299,2.9157,309.0391],[99.1415,2.9278,286.8242],[99.1482,2.9372,266.2436],[99.1526,2.9475,245.1919],[99.1585,2.955,251.6927],[99.169,2.9653,224.2679],[99.1862,2.9769,190.0426],[99.176,2.982,222.7382],[99.1608,2.9866,221.5848],[99.1542,2.9821,237.6061],[99.1484,3.0101,217.3076],[99.135,3.0028,233.6828],[99.136,2.9936,249.051],[99.128,2.9901,251.5082],[99.1189,2.9821,272.7958],[99.1105,2.9935,279.8935],[99.1054,2.9976,278.627],[99.0936,2.9974,288.8895],[99.0921,2.9878,313.9258],[99.0947,2.9811,315.4645],[99.0815,2.9786,353.2705],[99.0816,2.9748,354.0359],[99.0845,2.9739,344.3051],[99.0845,2.9726,344.6788],[99.0902,2.9724,327.4538],[99.0878,2.9672,344.3036],[99.0884,2.9646,352.6544],[99.0815,2.9567,365.729],[99.0842,2.9557,360.3902],[99.0879,2.9568,351.0297],[99.0927,2.9594,338.9791],[99.0941,2.962,331.3746],[99.0983,2.9629,328.7311],[99.1013,2.9597,320.7044],[99.0929,2.9546,340.3655],[99.0966,2.9436,348.4537],[99.0991,2.9431,345.4529],[99.0994,2.9415,342.7014],[99.106,2.9415,328.6685],[99.1003,2.9348,328.8539],[99.0963,2.9338,338.7714],[99.0935,2.9352,349.7471],[99.086,2.9334,364.2737],[99.0764,2.9247,404.2679],[99.0689,2.9216,413.3109],[99.0597,2.9149,444.4441],[99.0527,2.913,456.755],[99.051,2.9084,470.2385],[99.0489,2.9071,472.6069],[99.046,2.9065,484.816],[99.0396,2.9084,499.4517],[99.0365,2.9043,517.7797],[99.0351,2.9046,517.4329],[99.0316,2.8981,548.5889]]]]}}