{"type":"Feature","properties":{"GID_3":"IDN.26.6.1_1","GID_0":"IDN","country":"Indonesia","GID_1":"IDN.26_1","province":"SulawesiSelatan","NL_NAME_1":"NA","GID_2":"IDN.26.6_1","county":"Gowa","NL_NAME_2":"NA","city":"BajengBarat","VARNAME_3":"NA","NL_NAME_3":"NA","TYPE_3":"Kecamatan","ENGTYPE_3":"Sub-district","CC_3":"7306021","HASC_3":"NA","name":"Bajeng_Barat.city"},
"geometry":{"type": "MultiPolygon","coordinates": [[[[119.4171,-5.2874,10.7537],[119.4154,-5.2841,9.2453],[119.4117,-5.2826,8.3702],[119.4069,-5.2769,7.0632],[119.3915,-5.2829,8.2598],[119.3839,-5.2797,5.9578],[119.3802,-5.2818,3.9114],[119.3762,-5.2914,7.6022],[119.3778,-5.2971,5.5065],[119.3826,-5.3028,5.1772],[119.3858,-5.3042,4.7144],[119.3883,-5.3031,5.5316],[119.3905,-5.3057,12.3126],[119.3941,-5.3228,7.2886],[119.3988,-5.3271,8.2585],[119.406,-5.3304,13.8397],[119.4058,-5.3277,14.2582],[119.4099,-5.3287,9.0618],[119.4169,-5.3249,11.4792],[119.422,-5.3199,11.2433],[119.425,-5.3198,11.9583],[119.424,-5.3115,12.4912],[119.4264,-5.3081,16.802],[119.4234,-5.3058,14.1643],[119.4202,-5.3081,15.6901],[119.4174,-5.3063,20.5784],[119.4228,-5.3007,14.1441],[119.4146,-5.2985,10.8344],[119.417,-5.2959,11.6927],[119.4228,-5.2953,17.1383],[119.4249,-5.2897,11.7967],[119.4171,-5.2874,10.7537]]]]}}