{"type":"Feature","properties":{"GID_3":"IDN.29.13.5_1","GID_0":"IDN","country":"Indonesia","GID_1":"IDN.29_1","province":"SulawesiUtara","NL_NAME_1":"NA","GID_2":"IDN.29.13_1","county":"Minahasa","NL_NAME_2":"NA","city":"Kawangkoan","VARNAME_3":"NA","NL_NAME_3":"NA","TYPE_3":"Kecamatan","ENGTYPE_3":"Sub-district","CC_3":"7102120","HASC_3":"NA","name":"Kawangkoan.city"},
"geometry":{"type": "MultiPolygon","coordinates": [[[[124.7761,1.1591,882.8282],[124.7811,1.1667,815.3599],[124.7844,1.1796,775.809],[124.7913,1.1941,773.5962],[124.7993,1.1987,734.9164],[124.8284,1.2036,769.0731],[124.8322,1.2091,721.3459],[124.83,1.2148,767.3687],[124.8329,1.2215,784.2379],[124.8306,1.2303,873.5507],[124.8155,1.2374,1125.499],[124.8058,1.2355,939.7257],[124.7932,1.2297,747.0373],[124.7865,1.23,692.2545],[124.7774,1.2415,659.5407],[124.7746,1.2436,646.801],[124.7677,1.2438,547.4443],[124.7592,1.252,375.4123],[124.7551,1.2439,368.9396],[124.755,1.2361,414.0762],[124.7472,1.2301,585.7942],[124.7457,1.2234,614.8525],[124.7419,1.2177,588.7223],[124.7399,1.1945,780.7256],[124.7324,1.1886,781.7751],[124.7252,1.1875,740.9098],[124.7338,1.1767,851.1456],[124.7354,1.165,1094.2158],[124.7407,1.1469,1458.866],[124.7429,1.1437,1510.189],[124.7463,1.1447,1440.0925],[124.7492,1.1491,1413.626],[124.7539,1.1523,1390.7651],[124.764,1.1543,1365.0811],[124.7667,1.1512,1346.3191],[124.7722,1.1521,1190.3472],[124.7761,1.1591,882.8282]]]]}}