{"type":"Feature","properties":{"GID_3":"IDN.32.29.28_1","GID_0":"IDN","country":"Indonesia","GID_1":"IDN.32_1","province":"SumateraUtara","NL_NAME_1":"NA","GID_2":"IDN.32.29_1","county":"Simalungun","NL_NAME_2":"NA","city":"Silimakuta","VARNAME_3":"NA","NL_NAME_3":"NA","TYPE_3":"Kecamatan","ENGTYPE_3":"Sub-district","CC_3":"1209010","HASC_3":"NA","name":"Silimakuta.city"},
"geometry":{"type": "MultiPolygon","coordinates": [[[[98.6014,2.8729,901.0],[98.6048,2.8687,901.0],[98.6071,2.8696,901.0],[98.6135,2.8924,1384.6448],[98.622,2.9,1349.679],[98.6357,2.9181,1386.6978],[98.6411,2.928,1360.0134],[98.6439,2.9442,1348.3364],[98.6477,2.9498,1340.5938],[98.6531,2.954,1337.085],[98.6602,2.9642,1294.4045],[98.679,2.9784,1253.6083],[98.6867,2.995,1190.7679],[98.6989,3.0105,1101.4458],[98.6995,3.0155,1085.6287],[98.6973,3.0179,1107.7147],[98.6734,3.0095,1209.5366],[98.6659,3.005,1232.355],[98.6517,2.9893,1300.4668],[98.6381,2.9813,1325.9592],[98.6186,2.9841,1334.4421],[98.6114,3.0039,1326.182],[98.6065,3.0075,1320.6302],[98.592,3.0035,1271.4432],[98.5989,2.9871,1335.6858],[98.6072,2.9726,1369.5326],[98.6079,2.9671,1466.9246],[98.5992,2.9478,1386.3744],[98.586,2.9307,1402.8735],[98.5884,2.9309,1398.2939],[98.5908,2.9282,1398.5762],[98.6009,2.9043,1402.144],[98.6002,2.8986,1369.8503],[98.5973,2.8934,1010.7517],[98.6003,2.8847,997.4139],[98.6014,2.8729,901.0]]]]}}