{"type":"Feature","properties":{"GID_3":"IDN.10.30.9_1","GID_0":"IDN","country":"Indonesia","GID_1":"IDN.10_1","province":"JawaTengah","NL_NAME_1":"NA","GID_2":"IDN.10.30_1","county":"Sukoharjo","NL_NAME_2":"NA","city":"Polokarto","VARNAME_3":"NA","NL_NAME_3":"NA","TYPE_3":"Kecamatan","ENGTYPE_3":"Sub-district","CC_3":"3311070","HASC_3":"NA","name":"Polokarto.city"},
"geometry":{"type": "MultiPolygon","coordinates": [[[[110.9597,-7.6841,202.2144],[110.9584,-7.6815,211.2504],[110.9532,-7.6809,205.7953],[110.9477,-7.6699,190.8044],[110.9469,-7.6592,188.8032],[110.9483,-7.6553,183.8584],[110.9465,-7.6532,173.5928],[110.9446,-7.641,165.4834],[110.9423,-7.6376,146.836],[110.9447,-7.6364,151.7083],[110.9474,-7.6293,164.2317],[110.9479,-7.6236,152.2565],[110.9454,-7.6196,152.3883],[110.9467,-7.6183,156.7787],[110.9364,-7.6175,147.7395],[110.9163,-7.6126,130.3273],[110.8988,-7.6149,120.1987],[110.881,-7.6108,111.1836],[110.8797,-7.6184,107.1148],[110.8854,-7.6207,107.0664],[110.8843,-7.6246,105.7635],[110.8808,-7.6238,104.9137],[110.8787,-7.6262,101.346],[110.8786,-7.6235,101.6452],[110.8703,-7.624,100.2839],[110.8704,-7.6218,102.0838],[110.8555,-7.6207,93.0448],[110.8568,-7.6148,94.5551],[110.8549,-7.6144,93.5566],[110.8564,-7.6081,94.003],[110.8523,-7.6077,91.9849],[110.8496,-7.6139,92.6887],[110.8517,-7.6166,92.2065],[110.8489,-7.6158,92.2512],[110.8479,-7.6187,92.5063],[110.8437,-7.6181,90.9813],[110.8449,-7.6142,90.8787],[110.838,-7.6152,89.3634],[110.834,-7.6139,90.9408],[110.8341,-7.6178,92.2612],[110.8318,-7.6172,89.7649],[110.8305,-7.6198,89.4257],[110.8301,-7.6269,90.2302],[110.8325,-7.628,90.1116],[110.8353,-7.6327,93.0539],[110.8371,-7.6278,91.8726],[110.8384,-7.6277,91.7297],[110.8392,-7.6291,93.2895],[110.8375,-7.6317,93.8757],[110.8398,-7.6307,94.3434],[110.8417,-7.6322,93.3498],[110.843,-7.6306,94.7805],[110.8434,-7.6349,91.4833],[110.8449,-7.6363,91.6909],[110.847,-7.6345,95.6504],[110.8447,-7.6315,94.3691],[110.8479,-7.6333,96.3064],[110.8482,-7.6306,94.7118],[110.8518,-7.6296,95.3045],[110.8515,-7.6349,96.2937],[110.8475,-7.6356,96.3623],[110.8521,-7.638,98.0075],[110.8498,-7.6398,95.8231],[110.8535,-7.6393,98.0075],[110.8538,-7.6415,97.7896],[110.8568,-7.6411,99.3184],[110.8581,-7.6428,96.0238],[110.8564,-7.6435,98.927],[110.8598,-7.6443,100.015],[110.861,-7.6477,100.8371],[110.8643,-7.6478,99.3813],[110.8691,-7.6521,101.4072],[110.8714,-7.6523,101.1182],[110.8643,-7.6636,105.549],[110.8687,-7.6644,103.1341],[110.8699,-7.6665,105.4322],[110.8725,-7.6642,104.8039],[110.8729,-7.6676,107.008],[110.8713,-7.6682,103.9861],[110.876,-7.6747,105.7014],[110.8821,-7.6762,110.1173],[110.8839,-7.6782,106.8864],[110.8844,-7.6766,108.756],[110.8865,-7.6777,112.2703],[110.8886,-7.6738,110.9426],[110.8924,-7.675,112.2939],[110.8942,-7.6726,119.5947],[110.9042,-7.6761,120.5259],[110.9105,-7.673,119.3789],[110.9117,-7.6759,120.434],[110.9148,-7.6766,125.4722],[110.9177,-7.674,135.886],[110.918,-7.6761,128.0908],[110.92,-7.6768,135.5618],[110.923,-7.6724,143.5951],[110.9236,-7.6764,142.9856],[110.9249,-7.6757,149.624],[110.9256,-7.6774,139.2898],[110.9294,-7.6782,148.6156],[110.9339,-7.6816,158.4173],[110.9389,-7.6817,158.9287],[110.9403,-7.6839,160.919],[110.947,-7.6809,189.9974],[110.9492,-7.6832,183.5679],[110.9548,-7.6841,189.409],[110.9557,-7.6829,211.2473],[110.9576,-7.6844,187.87],[110.9582,-7.6827,211.2504],[110.9582,-7.684,187.87],[110.9597,-7.6841,202.2144]]]]}}