{"type":"Feature","properties":{"GID_2":"IDN.29.8_1","GID_0":"IDN","country":"Indonesia","GID_1":"IDN.29_1","province":"SulawesiUtara","NL_NAME_1":"NA","county":"Kotamobagu","VARNAME_2":"NA","NL_NAME_2":"NA","TYPE_2":"Kota","ENGTYPE_2":"City","CC_2":"7174","HASC_2":"ID.SW.KM","name":"Kotamobagu.county"},
"geometry":{"type": "MultiPolygon","coordinates": [[[[124.305,0.6963,220.484],[124.3066,0.6981,227.2406],[124.309,0.6978,240.2465],[124.3249,0.7041,274.7966],[124.3266,0.7085,276.4621],[124.3284,0.7095,279.7924],[124.3285,0.7126,282.5611],[124.332,0.7139,301.8384],[124.3385,0.71,317.1226],[124.349,0.7086,357.9327],[124.3448,0.7253,365.5834],[124.3499,0.7335,421.9301],[124.3501,0.7403,468.379],[124.3549,0.7549,665.8688],[124.3448,0.7552,770.6133],[124.3472,0.7663,578.6969],[124.3414,0.768,503.1683],[124.3358,0.7667,462.0007],[124.3287,0.7698,421.9603],[124.3259,0.7685,407.7552],[124.3219,0.7697,403.7466],[124.3174,0.7662,366.8977],[124.3181,0.7653,368.3579],[124.3079,0.7611,306.321],[124.3099,0.7597,308.5023],[124.3093,0.7559,275.2705],[124.2887,0.7505,324.8582],[124.2862,0.7476,320.9737],[124.2788,0.7455,298.0246],[124.2745,0.7406,240.5305],[124.2737,0.7364,174.3544],[124.2772,0.7372,172.4843],[124.277,0.7342,174.1095],[124.2787,0.7332,176.6857],[124.2777,0.7311,173.7361],[124.2737,0.7315,175.3193],[124.2747,0.728,184.2327],[124.2725,0.7241,181.1591],[124.2736,0.7224,188.8903],[124.2718,0.72,175.9172],[124.2717,0.716,184.1843],[124.2744,0.7146,190.0637],[124.2717,0.7112,178.6922],[124.2738,0.709,180.3133],[124.2774,0.7094,181.957],[124.2829,0.7052,190.9785],[124.289,0.7031,203.9837],[124.2889,0.7009,205.628],[124.2951,0.6979,214.916],[124.2935,0.6953,206.016],[124.2944,0.6936,211.0714],[124.3014,0.6943,217.3518],[124.305,0.6963,220.484]]]]}}