{"type":"Feature","properties":{"GID_3":"IDN.11.29.10_1","GID_0":"IDN","country":"Indonesia","GID_1":"IDN.11_1","province":"JawaTimur","NL_NAME_1":"NA","GID_2":"IDN.11.29_1","county":"Ponorogo","NL_NAME_2":"NA","city":"Ngebel","VARNAME_3":"NA","NL_NAME_3":"NA","TYPE_3":"Kecamatan","ENGTYPE_3":"Sub-district","CC_3":"3502200","HASC_3":"NA","name":"Ngebel.city"},
"geometry":{"type": "MultiPolygon","coordinates": [[[[111.6887,-7.8118,1589.8618],[111.6932,-7.8081,1609.3344],[111.6955,-7.8017,1532.4507],[111.6906,-7.7914,1476.8115],[111.676,-7.7844,1047.7928],[111.6751,-7.7826,1005.8989],[111.6782,-7.7779,957.5971],[111.6778,-7.7744,914.7159],[111.6691,-7.769,1194.4504],[111.6582,-7.767,1395.0482],[111.6527,-7.773,1153.6201],[111.6416,-7.7708,908.3615],[111.6378,-7.7745,860.2664],[111.6354,-7.7738,804.2926],[111.6272,-7.7771,678.9246],[111.6246,-7.7767,654.2744],[111.6195,-7.7802,634.84],[111.6152,-7.7794,595.2821],[111.6099,-7.7816,576.0126],[111.6046,-7.7813,514.9407],[111.6008,-7.7777,480.0613],[111.6,-7.7867,492.3745],[111.5936,-7.7903,422.4998],[111.592,-7.7954,422.8126],[111.5889,-7.7973,383.7639],[111.5911,-7.7968,423.0491],[111.5949,-7.801,451.9458],[111.5998,-7.8021,498.953],[111.6012,-7.805,463.704],[111.6002,-7.8077,447.0082],[111.5896,-7.8131,390.0978],[111.5864,-7.8119,352.5342],[111.5812,-7.8128,319.8479],[111.5803,-7.8115,319.8479],[111.5746,-7.8154,361.8049],[111.5756,-7.8166,374.0527],[111.5821,-7.8159,369.7328],[111.584,-7.8216,328.045],[111.5878,-7.8176,369.6453],[111.5916,-7.818,397.6381],[111.5971,-7.8145,433.7612],[111.6041,-7.8132,492.6797],[111.6055,-7.824,490.0167],[111.6118,-7.8247,473.3521],[111.6187,-7.821,526.4973],[111.6311,-7.8201,644.6613],[111.6333,-7.8245,593.8893],[111.6323,-7.828,742.2781],[111.6346,-7.8309,847.5872],[111.6438,-7.833,933.3666],[111.6567,-7.8318,1162.052],[111.6647,-7.8376,1261.1414],[111.6786,-7.8346,1219.6344],[111.6861,-7.8278,1238.278],[111.6878,-7.8215,1246.1169],[111.6856,-7.8126,1511.1812],[111.6887,-7.8118,1589.8618]]]]}}