{"type":"Feature","properties":{"GID_3":"IDN.9.9.30_1","GID_0":"IDN","country":"Indonesia","GID_1":"IDN.9_1","province":"JawaBarat","NL_NAME_1":"NA","GID_2":"IDN.9.9_1","county":"Cirebon","NL_NAME_2":"NA","city":"Plered","VARNAME_3":"NA","NL_NAME_3":"NA","TYPE_3":"Kecamatan","ENGTYPE_3":"Sub-district","CC_3":"3209151","HASC_3":"NA","name":"Plered.city"},
"geometry":{"type": "MultiPolygon","coordinates": [[[[108.5059,-6.7003,12.5281],[108.5097,-6.7023,14.1097],[108.5129,-6.7016,13.5407],[108.5147,-6.7036,13.2554],[108.513,-6.7075,17.4028],[108.5163,-6.709,15.3541],[108.5172,-6.7003,12.2485],[108.514,-6.6998,14.2019],[108.5128,-6.6969,10.0132],[108.5161,-6.692,6.9191],[108.5178,-6.6859,5.1745],[108.521,-6.6851,4.085],[108.5241,-6.6805,3.4532],[108.5216,-6.674,3.7589],[108.5167,-6.6733,6.8733],[108.5169,-6.6701,3.5815],[108.5143,-6.6671,3.6288],[108.5143,-6.662,3.0777],[108.5037,-6.6646,4.7553],[108.5018,-6.6616,4.8237],[108.4972,-6.6644,6.3961],[108.4969,-6.6616,7.8919],[108.5047,-6.6581,6.294],[108.503,-6.6501,2.8094],[108.4994,-6.6545,3.6994],[108.4953,-6.6554,4.2146],[108.4933,-6.6578,4.6614],[108.4947,-6.6626,8.6659],[108.4932,-6.6656,9.2152],[108.497,-6.6707,7.2417],[108.4905,-6.6752,7.8281],[108.4955,-6.6797,8.1702],[108.4943,-6.6817,8.8211],[108.4969,-6.6832,8.7347],[108.4943,-6.6903,10.7141],[108.4848,-6.7012,16.8031],[108.4877,-6.7004,17.273],[108.4975,-6.7027,17.2748],[108.4974,-6.7068,18.0873],[108.4999,-6.7056,15.7266],[108.5027,-6.7075,16.7989],[108.5053,-6.7048,16.3035],[108.5008,-6.7036,15.3491],[108.5014,-6.7013,13.6266],[108.503,-6.6994,13.9414],[108.5059,-6.7003,12.5281]]]]}}