{"type":"Feature","properties":{"GID_3":"IDN.13.3.18_1","GID_0":"IDN","country":"Indonesia","GID_1":"IDN.13_1","province":"KalimantanSelatan","NL_NAME_1":"NA","GID_2":"IDN.13.3_1","county":"Banjar","NL_NAME_2":"NA","city":"TatahMakmur","VARNAME_3":"NA","NL_NAME_3":"NA","TYPE_3":"Kecamatan","ENGTYPE_3":"Sub-district","CC_3":"6303031","HASC_3":"NA","name":"Tatah_Makmur.city"},
"geometry":{"type": "MultiPolygon","coordinates": [[[[114.619,-3.4306,1.8864],[114.6209,-3.4283,1.7243],[114.6305,-3.4242,1.9433],[114.6479,-3.4111,2.134],[114.6452,-3.4005,1.8741],[114.6444,-3.388,1.706],[114.6361,-3.3875,1.5489],[114.6251,-3.3898,1.0727],[114.6234,-3.3667,1.4641],[114.6114,-3.3682,1.5634],[114.5995,-3.3628,1.5297],[114.5893,-3.3982,1.5934],[114.588,-3.4072,1.3143],[114.5895,-3.4141,1.3212],[114.5952,-3.4158,1.6531],[114.6053,-3.4138,1.8592],[114.6104,-3.417,1.6099],[114.619,-3.4306,1.8864]]]]}}