{"type":"Feature","properties":{"GID_3":"IDN.1.20.2_1","GID_0":"IDN","country":"Indonesia","GID_1":"IDN.1_1","province":"Aceh","NL_NAME_1":"NA","GID_2":"IDN.1.20_1","county":"Pidie","NL_NAME_2":"NA","city":"Delima","VARNAME_3":"NA","NL_NAME_3":"NA","TYPE_3":"Kecamatan","ENGTYPE_3":"Sub-district","CC_3":"1109150","HASC_3":"NA","name":"Delima.city"},
"geometry":{"type": "MultiPolygon","coordinates": [[[[95.9139,5.3146,20.4371],[95.9202,5.3218,18.8931],[95.9197,5.3241,17.6843],[95.9216,5.3269,17.9808],[95.9206,5.3298,19.8465],[95.9259,5.3432,14.3401],[95.9248,5.3494,14.3128],[95.9186,5.3548,5.7392],[95.919,5.3595,5.0974],[95.9218,5.3636,4.88],[95.9193,5.3639,7.5159],[95.9171,5.3667,4.219],[95.9152,5.3621,6.7267],[95.9085,5.3625,5.1993],[95.9037,5.3602,7.1676],[95.9024,5.3579,12.366],[95.8961,5.3621,14.1476],[95.8935,5.3668,14.409],[95.8863,5.3679,30.3789],[95.885,5.3773,57.5207],[95.8841,5.3581,9.7959],[95.8783,5.3516,10.3652],[95.8769,5.3444,8.0304],[95.8801,5.3357,12.6988],[95.8794,5.3303,13.9988],[95.8845,5.3246,17.0855],[95.8795,5.3194,21.9228],[95.8766,5.3086,25.2196],[95.878,5.3072,28.0676],[95.8895,5.3082,29.2502],[95.895,5.3028,23.0604],[95.8995,5.3117,18.7237],[95.9023,5.3112,22.4106],[95.9035,5.3133,22.8846],[95.9109,5.3122,21.9439],[95.9139,5.3146,20.4371]]]]}}