{"type":"Feature","properties":{"GID_3":"IDN.12.8.3_1","GID_0":"IDN","country":"Indonesia","GID_1":"IDN.12_1","province":"KalimantanBarat","NL_NAME_1":"NA","GID_2":"IDN.12.8_1","county":"Melawi","NL_NAME_2":"NA","city":"EllaHilir","VARNAME_3":"NA","NL_NAME_3":"NA","TYPE_3":"Kecamatan","ENGTYPE_3":"Sub-district","CC_3":"6110060","HASC_3":"NA","name":"Ella_Hilir.city"},
"geometry":{"type": "MultiPolygon","coordinates": [[[[112.0229,-0.748,361.1597],[112.0162,-0.7295,315.7882],[112.0147,-0.7163,200.2494],[112.0195,-0.7057,256.0922],[112.0234,-0.7025,189.9779],[112.0281,-0.7012,190.0638],[112.0447,-0.6997,420.5732],[112.0692,-0.7041,572.1227],[112.1019,-0.715,585.4988],[112.1115,-0.7158,373.3876],[112.1225,-0.7241,590.0042],[112.1341,-0.7281,549.4217],[112.1548,-0.7289,1059.6423],[112.1588,-0.7273,1146.5248],[112.1618,-0.7235,1120.4822],[112.1532,-0.7062,588.1219],[112.146,-0.6823,260.7314],[112.1477,-0.6798,207.4667],[112.1526,-0.678,351.0514],[112.1571,-0.6831,548.5862],[112.1589,-0.6816,557.5134],[112.1587,-0.6583,507.0808],[112.1603,-0.6538,492.476],[112.1656,-0.6491,456.6183],[112.1732,-0.6365,716.934],[112.1832,-0.6364,798.9966],[112.1866,-0.6321,652.4175],[112.1913,-0.6193,427.3148],[112.1981,-0.6146,648.408],[112.2094,-0.6135,1035.7198],[112.2063,-0.6041,1109.1737],[112.1988,-0.5946,725.862],[112.1995,-0.577,598.4164],[112.1984,-0.573,555.8862],[112.177,-0.5474,407.4327],[112.1673,-0.5321,281.236],[112.1415,-0.4761,108.7581],[112.1379,-0.4636,92.9561],[112.1361,-0.4373,82.6691],[112.1321,-0.4157,61.4638],[112.1277,-0.4067,66.4321],[112.1214,-0.3991,63.2752],[112.1148,-0.3954,70.2204],[112.1091,-0.3858,52.3189],[112.1076,-0.3754,88.3165],[112.1102,-0.367,108.5282],[112.1154,-0.355,63.1779],[112.1217,-0.348,41.9019],[112.1273,-0.3284,61.7961],[112.1309,-0.2903,80.9169],[112.1288,-0.2819,72.1265],[112.1174,-0.2705,69.1848],[112.0946,-0.2621,69.5849],[112.0868,-0.2804,80.1517],[112.0796,-0.2846,77.2915],[112.0516,-0.2835,69.6517],[112.0382,-0.2968,72.4621],[112.0292,-0.2983,75.7002],[112.021,-0.2976,105.1553],[112.0086,-0.3232,110.7992],[112.0036,-0.3283,50.7505],[111.9926,-0.3354,45.5844],[111.9857,-0.3445,48.7495],[111.9814,-0.3599,37.973],[111.9766,-0.392,46.4296],[111.9645,-0.4172,46.9501],[111.9598,-0.4322,56.4173],[111.9543,-0.4668,81.9521],[111.9548,-0.4873,94.7612],[111.9533,-0.491,96.0875],[111.9423,-0.5034,79.7575],[111.9412,-0.5107,119.6763],[111.9395,-0.5367,296.5916],[111.9424,-0.5575,330.9327],[111.9469,-0.5687,286.9342],[111.9474,-0.5742,228.9817],[111.946,-0.5835,433.1136],[111.9464,-0.6195,638.4559],[111.9426,-0.6396,366.9037],[111.9415,-0.6572,321.2798],[111.9405,-0.6608,306.8095],[111.9373,-0.663,310.4491],[111.9219,-0.6667,465.4034],[111.917,-0.6726,593.0269],[111.9159,-0.6773,385.0179],[111.9173,-0.6814,334.0854],[111.9273,-0.6879,569.4667],[111.9359,-0.7022,923.906],[111.9391,-0.7048,681.9143],[111.9516,-0.708,936.9772],[111.9591,-0.7179,985.8507],[111.9627,-0.7358,534.9502],[111.9617,-0.7563,517.7308],[111.9713,-0.7695,572.3969],[111.9753,-0.7812,595.8673],[111.9753,-0.79,703.9148],[111.9703,-0.8025,584.0187],[111.9687,-0.8125,654.9512],[111.9897,-0.8032,861.0321],[112.0021,-0.8003,784.6773],[112.0089,-0.7996,813.2069],[112.0159,-0.8017,672.2727],[112.0323,-0.7928,535.8461],[112.0355,-0.787,430.0331],[112.0357,-0.7818,504.8011],[112.0229,-0.748,361.1597]]]]}}