{"type":"Feature","properties":{"GID_3":"IDN.16.4.4_1","GID_0":"IDN","country":"Indonesia","GID_1":"IDN.16_1","province":"KepulauanRiau","NL_NAME_1":"NA","GID_2":"IDN.16.4_1","county":"KepulauanAnambas","NL_NAME_2":"NA","city":"SiantanSelatan","VARNAME_3":"NA","NL_NAME_3":"NA","TYPE_3":"Kecamatan","ENGTYPE_3":"Sub-district","CC_3":"2105030","HASC_3":"NA","name":"Siantan_Selatan.city"},
"geometry":{"type": "MultiPolygon","coordinates": [[[[105.8834,2.3642,0.0],[105.8805,2.3646,4.6013],[105.8805,2.3631,108.7015],[105.8781,2.362,81.3602],[105.8783,2.3577,23.7224],[105.8802,2.3558,46.1373],[105.8834,2.3559,22.4792],[105.8863,2.3597,26.9884],[105.8834,2.3642,0.0]]],
[[[106.0517,2.505,0.0],[106.0504,2.5056,0.0],[106.049,2.504,14.099],[106.0491,2.4984,0.0],[106.0534,2.5026,3.7781],[106.0517,2.505,0.0]]],
[[[106.0414,2.5099,0.0],[106.0406,2.5115,0.0],[106.0397,2.5089,2.5768],[106.0407,2.5068,0.0],[106.0402,2.5085,0.0],[106.0414,2.5099,0.0]]],
[[[106.043,2.5087,2.9252],[106.0446,2.5094,6.2419],[106.0441,2.5114,0.0],[106.0428,2.5095,6.2419],[106.043,2.5087,2.9252]]],
[[[106.0527,2.5103,1.4345],[106.0532,2.5099,0.0],[106.0535,2.5113,0.0],[106.0523,2.511,0.0],[106.0527,2.5103,1.4345]]],
[[[106.1195,2.846,25.4456],[106.1167,2.8476,0.0],[106.1172,2.8502,0.0],[106.1162,2.8489,0.0],[106.1161,2.8472,0.0],[106.1197,2.845,13.887],[106.1209,2.8418,5.1418],[106.1241,2.8425,15.8772],[106.1222,2.8477,0.0],[106.1195,2.846,25.4456]]],
[[[106.1027,2.8738,0.0],[106.0991,2.8755,0.0],[106.097,2.8708,16.3833],[106.1025,2.8693,4.4809],[106.1054,2.8745,0.0],[106.1027,2.8738,0.0]]],
[[[106.1535,2.9012,1.5339],[106.1519,2.9019,1.5339],[106.1512,2.9004,0.0],[106.153,2.8991,11.9919],[106.1535,2.9012,1.5339]]],
[[[106.0502,2.5139,17.6909],[106.0509,2.5202,11.2195],[106.0482,2.5257,0.0],[106.0398,2.5144,0.4473],[106.0407,2.5135,0.0],[106.0443,2.515,12.2645],[106.0507,2.5127,0.0],[106.0502,2.5139,17.6909]]],
[[[106.0159,2.7906,0.0],[106.0175,2.7912,0.0],[106.0149,2.7906,0.0],[106.0138,2.7873,0.0],[106.0187,2.7821,27.3833],[106.0214,2.7842,7.3735],[106.0204,2.7886,0.0],[106.0178,2.7904,6.4796],[106.0155,2.789,0.4445],[106.0159,2.7906,0.0]]],
[[[105.9448,3.0215,2.8166],[105.9455,3.0209,2.8166],[105.9454,3.023,2.2113],[105.9446,3.0223,2.2113],[105.9448,3.0215,2.8166]]],
[[[105.9675,3.0223,0.0],[105.9681,3.0219,0.0],[105.9683,3.0227,0.0],[105.9677,3.023,0.0],[105.9675,3.0223,0.0]]],
[[[106.1333,2.9039,7.6223],[106.1355,2.9043,0.0],[106.1343,2.9064,0.3087],[106.132,2.9052,4.8118],[106.1333,2.9039,7.6223]]],
[[[106.1515,2.9179,0.0],[106.1521,2.9178,0.0],[106.1522,2.9182,0.0],[106.1518,2.9184,0.0],[106.1515,2.9179,0.0]]],
[[[106.1313,2.9379,4.8889],[106.125,2.9397,0.0],[106.1215,2.9388,0.0],[106.1146,2.9325,0.0],[106.1126,2.9274,1.1133],[106.1149,2.9252,1.9436],[106.125,2.9274,46.5781],[106.1288,2.9265,5.3859],[106.1335,2.9301,22.8309],[106.1339,2.9231,11.0409],[106.138,2.9235,4.931],[106.1392,2.922,6.2225],[106.1358,2.9202,27.5009],[106.1372,2.9182,11.3224],[106.1496,2.9193,20.6932],[106.1496,2.9253,12.6401],[106.1455,2.9305,0.0],[106.139,2.9343,0.0],[106.135,2.9347,45.6518],[106.1339,2.9375,0.0],[106.1313,2.9379,4.8889]]],
[[[106.1475,3.0042,4.4614],[106.146,3.0063,0.0],[106.1427,3.0052,3.7623],[106.1367,2.9966,17.4928],[106.1362,2.9906,36.2609],[106.1388,2.9888,30.3205],[106.1366,2.9806,18.6225],[106.139,2.9767,3.3413],[106.142,2.9771,7.2324],[106.1438,2.9798,0.0],[106.1427,2.9828,10.3508],[106.1448,2.9855,0.0],[106.1433,2.986,18.8185],[106.1432,2.9881,34.2308],[106.1457,2.9925,25.2614],[106.1497,2.9954,14.2059],[106.1475,3.0042,4.4614]]],
[[[106.2825,2.6172,0.0],[106.2808,2.621,0.0],[106.2805,2.6171,4.5447],[106.2774,2.6174,0.0],[106.278,2.6146,27.8977],[106.2737,2.6143,0.0],[106.2742,2.6069,1.4899],[106.2792,2.6108,32.9816],[106.2825,2.6172,0.0]]],
[[[106.2853,2.6163,1.9101],[106.2868,2.6169,0.0],[106.2864,2.6205,0.0],[106.2845,2.6192,0.0],[106.2853,2.6163,1.9101]]],
[[[106.3033,2.6355,0.0],[106.3011,2.6355,0.0],[106.3001,2.633,9.5858],[106.3007,2.6288,14.7588],[106.3051,2.6316,3.2651],[106.3033,2.6355,0.0]]],
[[[106.2473,2.7172,3.3528],[106.2479,2.717,0.4511],[106.2492,2.7198,0.2669],[106.2473,2.7184,3.3528],[106.2473,2.7172,3.3528]]],
[[[106.2675,2.7255,0.0],[106.2607,2.7254,15.992],[106.2585,2.7214,0.9053],[106.2528,2.7214,0.0],[106.2522,2.7157,15.7207],[106.2507,2.7156,15.7207],[106.2515,2.7124,36.3847],[106.2527,2.7118,0.0],[106.2537,2.7136,10.5213],[106.257,2.7122,56.6019],[106.2635,2.7158,24.7571],[106.2657,2.7148,11.6729],[106.2671,2.7165,0.0],[106.2647,2.7219,11.745],[106.2673,2.7245,0.0],[106.2688,2.7237,0.0],[106.2687,2.7258,0.0],[106.2675,2.7255,0.0]]],
[[[106.2703,2.7195,0.4208],[106.2694,2.7197,0.4208],[106.2697,2.718,3.8524],[106.2716,2.7187,0.0],[106.2703,2.7195,0.4208]]],
[[[106.2814,2.7205,0.0],[106.2767,2.7193,8.7069],[106.2798,2.7184,3.6656],[106.2832,2.72,12.4384],[106.2814,2.7205,0.0]]],
[[[106.288,2.7281,0.0],[106.2877,2.729,0.0],[106.2833,2.7277,0.0],[106.2854,2.7269,3.5138],[106.288,2.7281,0.0]]],
[[[106.2238,2.7374,1.7674],[106.2244,2.7385,1.7674],[106.2229,2.7394,0.0],[106.2205,2.7385,8.1877],[106.2215,2.7371,8.1877],[106.2238,2.7374,1.7674]]],
[[[106.1714,2.761,0.0],[106.1671,2.7622,0.0],[106.1759,2.7486,7.7294],[106.1763,2.7454,0.0],[106.1806,2.7457,82.924],[106.1854,2.7403,0.0],[106.189,2.7449,0.0],[106.1932,2.7462,0.0],[106.1919,2.7526,0.0],[106.188,2.7568,1.497],[106.1854,2.7579,0.0],[106.1808,2.7569,7.3703],[106.1782,2.7593,0.0],[106.1714,2.761,0.0]]],
[[[106.1983,2.7639,0.0],[106.1985,2.7633,1.795],[106.1994,2.7639,0.0],[106.1986,2.7644,0.0],[106.1983,2.7639,0.0]]],
[[[106.2148,2.8083,7.4108],[106.1981,2.8117,20.807],[106.1952,2.8098,16.2442],[106.1936,2.8015,15.7406],[106.1974,2.7964,21.81],[106.2029,2.7953,-0.1985],[106.2026,2.7934,0.2178],[106.1992,2.7911,27.3948],[106.2004,2.7895,27.1031],[106.216,2.7836,37.7458],[106.2233,2.7666,1.6529],[106.2209,2.764,1.6934],[106.203,2.7632,0.9222],[106.2006,2.7615,8.9224],[106.201,2.7595,13.6894],[106.2028,2.7572,36.5084],[106.2081,2.7588,87.7707],[106.2139,2.7559,46.9484],[106.2147,2.7515,4.8851],[106.2179,2.7504,51.3658],[106.2152,2.7479,0.0],[106.2268,2.7434,7.3105],[106.226,2.7382,55.4954],[106.2334,2.7343,0.0],[106.2381,2.7337,0.0],[106.2437,2.7255,112.5465],[106.2467,2.7245,2.353],[106.2491,2.727,8.5836],[106.2509,2.7248,26.3527],[106.2544,2.724,8.0307],[106.2496,2.7309,0.0],[106.2462,2.7306,3.8706],[106.2467,2.7332,0.0],[106.2441,2.7331,9.8753],[106.2442,2.7373,0.0],[106.2416,2.7387,2.8407],[106.2446,2.7411,20.3269],[106.2489,2.7405,5.177],[106.2473,2.7456,42.6608],[106.2524,2.7463,2.8605],[106.2482,2.7479,22.0381],[106.249,2.7507,0.0],[106.2439,2.7535,6.6719],[106.2549,2.7557,0.0],[106.2524,2.7589,15.8027],[106.255,2.7613,0.0],[106.2503,2.7602,38.4745],[106.2458,2.7611,0.0],[106.243,2.7579,44.8527],[106.2391,2.7612,8.7204],[106.2391,2.7649,17.8518],[106.2423,2.7653,4.6637],[106.2437,2.768,20.055],[106.2482,2.7701,29.8444],[106.2462,2.7764,14.3525],[106.2405,2.7776,0.0],[106.2331,2.7819,3.7302],[106.2329,2.7837,0.0],[106.2362,2.7874,0.0],[106.2309,2.7869,27.9098],[106.2269,2.7897,0.0],[106.2271,2.7915,18.3414],[106.2306,2.7928,13.8805],[106.2306,2.7964,3.4216],[106.2228,2.8001,35.8228],[106.2224,2.8018,8.3158],[106.2285,2.8042,0.0],[106.228,2.8052,0.0],[106.2258,2.8073,0.0],[106.2209,2.8062,2.6035],[106.2148,2.8083,7.4108]]],
[[[106.2774,2.7328,0.0],[106.2732,2.7336,14.1757],[106.2683,2.7322,0.0],[106.2754,2.7312,7.2812],[106.2781,2.7319,0.0],[106.2774,2.7328,0.0]]],
[[[106.2839,2.7382,4.3351],[106.2853,2.7393,5.1826],[106.2846,2.7402,5.1826],[106.2835,2.7391,5.1826],[106.2839,2.7382,4.3351]]],
[[[106.2457,2.7399,0.0],[106.246,2.7396,0.0],[106.2464,2.7397,0.0],[106.2461,2.7403,0.0],[106.2457,2.7399,0.0]]],
[[[106.2504,3.0028,17.3206],[106.251,3.0053,0.0],[106.241,3.0028,4.0528],[106.2394,2.9971,0.0],[106.2403,2.9924,9.6583],[106.2425,2.9926,0.0],[106.2455,2.9984,5.1775],[106.2494,2.9983,11.53],[106.2504,3.0028,17.3206]]],
[[[106.1817,2.8427,0.9334],[106.1827,2.8425,0.0],[106.1822,2.8439,0.0],[106.1815,2.8435,0.9334],[106.1817,2.8427,0.9334]]],
[[[106.1642,2.9008,0.0],[106.1646,2.9005,0.0],[106.165,2.9008,0.0],[106.1647,2.9012,0.0],[106.1642,2.9008,0.0]]],
[[[106.162,2.9041,1.4668],[106.1623,2.9035,0.0],[106.163,2.9042,0.0],[106.1625,2.9046,0.0],[106.162,2.9041,1.4668]]],
[[[106.1602,2.9051,1.4668],[106.1612,2.9044,1.4668],[106.1619,2.9061,5.3944],[106.1605,2.9105,0.0],[106.1581,2.9073,1.4743],[106.1602,2.9051,1.4668]]],
[[[106.1528,2.9133,0.0],[106.1527,2.913,0.0],[106.153,2.9128,0.0],[106.153,2.9132,0.0],[106.1528,2.9133,0.0]]],
[[[106.1839,2.9575,0.0],[106.1803,2.9587,0.0],[106.1749,2.9507,26.2046],[106.1756,2.9488,20.1278],[106.179,2.9474,28.0913],[106.179,2.9439,2.8417],[106.1838,2.9458,42.2361],[106.1883,2.9423,21.6535],[106.1928,2.9521,0.0],[106.1906,2.9533,0.0],[106.1891,2.9506,17.5855],[106.186,2.9508,6.4645],[106.1839,2.9575,0.0]]],
[[[106.1643,2.9728,0.0],[106.1638,2.9739,0.0],[106.1619,2.9726,0.0],[106.1627,2.9689,73.3501],[106.1607,2.9664,5.3295],[106.1608,2.9609,9.7281],[106.1594,2.9605,17.3705],[106.1597,2.964,2.305],[106.1566,2.9658,0.0],[106.1553,2.9655,0.0],[106.1562,2.9622,44.5897],[106.155,2.9602,11.8565],[106.1565,2.9579,36.4312],[106.1617,2.9566,1.0126],[106.1647,2.954,19.644],[106.1683,2.9559,0.0],[106.1696,2.9607,14.8788],[106.1681,2.9671,50.6845],[106.1702,2.9694,2.9145],[106.1664,2.9704,9.9826],[106.1643,2.9728,0.0]]],
[[[106.2407,2.9891,0.0],[106.2407,2.9886,0.0],[106.241,2.9885,0.0],[106.2412,2.9892,0.0],[106.2407,2.9891,0.0]]],
[[[106.2885,3.0741,0.0],[106.2871,3.0749,0.0],[106.2869,3.0734,6.9818],[106.2888,3.0727,9.0427],[106.2885,3.0741,0.0]]],
[[[106.2559,3.0893,38.5076],[106.2574,3.0896,8.2735],[106.2573,3.0951,10.1304],[106.2555,3.0971,0.0],[106.2536,3.0907,23.0865],[106.2559,3.0893,38.5076]]],
[[[106.2216,3.0406,0.0],[106.2241,3.0422,0.0],[106.2238,3.0481,0.0],[106.2199,3.0496,0.0],[106.2183,3.0461,12.8137],[106.2216,3.0406,0.0]]],
[[[106.2539,3.1536,384.0592],[106.2491,3.1577,413.9843],[106.2471,3.1664,388.2581],[106.2404,3.1741,296.8607],[106.2092,3.1687,7.1884],[106.2062,3.163,39.3299],[106.207,3.1533,18.0794],[106.2045,3.147,0.0],[106.2038,3.1381,7.3001],[106.2102,3.1261,64.4543],[106.2107,3.122,9.2865],[106.2137,3.1189,50.6784],[106.2164,3.1206,1.8539],[106.2217,3.1317,43.529],[106.2235,3.1312,5.5087],[106.2229,3.1087,0.0],[106.2248,3.1074,3.2281],[106.2263,3.1107,84.0105],[106.229,3.1065,16.4008],[106.2322,3.1058,107.2885],[106.2317,3.104,1.5628],[106.2373,3.0959,3.2741],[106.2396,3.1008,34.724],[106.2399,3.1086,23.6143],[106.2427,3.1061,77.6016],[106.2445,3.1011,1.9958],[106.2484,3.1057,40.3608],[106.2502,3.1114,46.2876],[106.248,3.1187,32.4445],[106.2485,3.1225,9.8129],[106.2557,3.1137,3.9172],[106.2582,3.1137,6.3871],[106.2595,3.1118,1.6847],[106.2624,3.1124,24.7917],[106.2606,3.1091,8.5121],[106.2614,3.1002,70.0874],[106.2593,3.0963,44.9515],[106.2598,3.0946,35.554],[106.2655,3.0921,18.9012],[106.2681,3.0965,7.067],[106.2743,3.1008,7.4554],[106.275,3.0936,0.0],[106.2728,3.089,0.0],[106.2731,3.0813,0.0],[106.2757,3.0774,62.2956],[106.279,3.0768,4.8747],[106.2783,3.0802,6.9609],[106.2824,3.0885,6.7528],[106.2803,3.0953,0.0],[106.2841,3.0945,10.5925],[106.2862,3.1,23.0189],[106.2717,3.1044,67.4122],[106.2677,3.1083,196.9495],[106.2664,3.1141,31.8992],[106.2606,3.1187,165.0115],[106.2589,3.14,233.8486],[106.2572,3.1487,341.3195],[106.2539,3.1536,384.0592]]],
[[[105.9558,3.0343,0.0],[105.9551,3.0416,0.0],[105.9577,3.0463,0.0],[105.9548,3.0458,0.0],[105.9511,3.0419,0.0],[105.9455,3.0233,2.2113],[105.9482,3.027,0.0],[105.9525,3.0262,0.0],[105.9544,3.0289,0.0],[105.9533,3.0298,2.3948],[105.9563,3.0324,0.0],[105.9558,3.0343,0.0]]],
[[[105.983,3.0874,0.0],[105.9814,3.0881,0.0],[105.977,3.0842,2.3895],[105.967,3.0708,4.0191],[105.9693,3.0644,49.8215],[105.9674,3.0596,1.6403],[105.9701,3.0524,30.3624],[105.968,3.0483,0.0],[105.9707,3.046,62.225],[105.9638,3.04,4.0054],[105.9684,3.0358,0.0],[105.9669,3.0315,9.8699],[105.9681,3.0287,5.4676],[105.9657,3.0249,1.8792],[105.9698,3.0257,0.0],[105.9704,3.0297,10.8784],[105.9739,3.0285,2.5144],[105.9759,3.0297,3.6557],[105.9757,3.0211,2.1514],[105.9767,3.0194,0.0],[105.9787,3.0197,15.8288],[105.9784,3.0177,0.0],[105.9832,3.0229,0.0],[105.9865,3.0295,24.2095],[105.9838,3.0346,0.0],[105.9811,3.0351,0.0],[105.9803,3.0396,1.6204],[105.9829,3.0435,17.7939],[105.9882,3.0453,0.0],[105.9869,3.0508,7.9329],[105.983,3.0564,33.2714],[105.9858,3.0602,0.0],[105.9894,3.0711,11.2453],[105.9919,3.0726,0.0],[105.9883,3.0743,0.0],[105.9847,3.0806,43.2376],[105.9853,3.086,0.0],[105.983,3.0874,0.0]]],
[[[105.9549,3.0907,0.0],[105.9551,3.0927,0.4611],[105.945,3.0904,11.7365],[105.9467,3.0895,37.0129],[105.95,3.0808,5.7337],[105.948,3.0739,0.0],[105.9544,3.0707,4.5168],[105.9582,3.0772,2.1625],[105.9536,3.0818,4.0549],[105.9559,3.0846,0.8112],[105.9543,3.0879,0.0],[105.9549,3.0907,0.0]]],
[[[105.9715,3.0905,0.0],[105.9707,3.0932,0.0],[105.9678,3.0921,0.0],[105.9681,3.0891,0.0],[105.9628,3.0818,7.0824],[105.9659,3.081,27.1635],[105.974,3.0873,0.0],[105.9715,3.0905,0.0]]],
[[[106.128,2.9945,0.0],[106.1259,2.9952,5.4987],[106.1243,2.9936,0.0],[106.1268,2.9882,2.5382],[106.1309,2.9925,1.8275],[106.128,2.9945,0.0]]],
[[[106.1154,3.1148,0.0],[106.1147,3.1162,0.0],[106.1106,3.1144,1.6004],[106.1096,3.109,5.6284],[106.1113,3.1108,44.9732],[106.1128,3.1098,5.2092],[106.1173,3.1115,3.5904],[106.1154,3.1148,0.0]]],
[[[106.147,3.1265,0.0],[106.1459,3.1282,0.0],[106.1433,3.1273,0.0],[106.1439,3.1225,10.4531],[106.1481,3.1235,0.0],[106.147,3.1265,0.0]]],
[[[106.1203,3.1336,3.3271],[106.1155,3.1414,0.0],[106.1139,3.141,0.0],[106.1103,3.1273,10.0619],[106.1137,3.1182,10.2992],[106.1232,3.1179,7.2151],[106.1263,3.1193,40.6586],[106.1237,3.1304,1.1249],[106.1203,3.1336,3.3271]]],
[[[105.9731,3.0968,8.4347],[105.9697,3.097,14.3184],[105.9723,3.0946,16.9636],[105.9748,3.0963,8.4347],[105.9731,3.0968,8.4347]]],
[[[105.9598,3.1016,6.4112],[105.9516,3.1016,0.0],[105.9479,3.0973,0.0],[105.9613,3.0918,0.0],[105.9639,3.095,0.0],[105.9624,3.0965,16.9521],[105.9624,3.1011,0.0],[105.9598,3.1016,6.4112]]],
[[[106.1088,3.1368,0.0],[106.1123,3.1414,8.8649],[106.1103,3.1442,3.0774],[106.1026,3.1385,46.8521],[106.1051,3.1367,38.5042],[106.1052,3.1344,12.8846],[106.1088,3.1368,0.0]]],
[[[106.0883,3.1574,0.0],[106.0871,3.1586,11.6],[106.0832,3.1568,4.7296],[106.0747,3.1474,33.831],[106.083,3.149,31.5822],[106.0851,3.1476,13.5648],[106.0801,3.1396,10.8363],[106.0797,3.134,0.0],[106.0822,3.1252,0.8917],[106.0867,3.1253,21.2643],[106.0891,3.1235,8.7857],[106.0933,3.1264,0.0],[106.0989,3.135,0.0],[106.0995,3.1389,8.7104],[106.0989,3.1415,0.0],[106.0956,3.1422,4.7818],[106.0921,3.1533,0.0],[106.088,3.1518,8.2828],[106.0883,3.1574,0.0]]]]}}