{"type":"Feature","properties":{"GID_3":"IDN.9.6.18_1","GID_0":"IDN","country":"Indonesia","GID_1":"IDN.9_1","province":"JawaBarat","NL_NAME_1":"NA","GID_2":"IDN.9.6_1","county":"Ciamis","NL_NAME_2":"NA","city":"Langkaplancar","VARNAME_3":"NA","NL_NAME_3":"NA","TYPE_3":"Kecamatan","ENGTYPE_3":"Sub-district","CC_3":"3207040","HASC_3":"NA","name":"Langkaplancar.city"},
"geometry":{"type": "MultiPolygon","coordinates": [[[[108.4622,-7.6357,99.3292],[108.4642,-7.6377,98.9037],[108.4716,-7.6378,106.8451],[108.4742,-7.6412,123.1432],[108.4842,-7.6357,110.9245],[108.4899,-7.6365,113.5249],[108.495,-7.6346,107.3257],[108.4982,-7.6323,126.402],[108.497,-7.6321,115.5838],[108.4974,-7.6274,124.0702],[108.501,-7.6275,130.4323],[108.5024,-7.6239,144.1488],[108.5105,-7.6157,163.911],[108.5141,-7.615,157.2027],[108.5138,-7.6127,163.4107],[108.5187,-7.6029,189.5701],[108.514,-7.5999,194.1331],[108.5142,-7.5924,225.1243],[108.5157,-7.59,202.8413],[108.5209,-7.5882,255.22],[108.5217,-7.5847,229.38],[108.5254,-7.5816,269.2817],[108.5285,-7.5733,482.1659],[108.5268,-7.5679,499.1102],[108.5277,-7.5648,469.3872],[108.5211,-7.5591,389.4088],[108.5191,-7.5549,412.074],[108.5218,-7.5555,385.1966],[108.5251,-7.5529,373.9546],[108.5221,-7.5508,370.2804],[108.5209,-7.5443,362.1564],[108.5252,-7.5389,353.7733],[108.5282,-7.5376,360.7012],[108.5406,-7.5389,337.5457],[108.5422,-7.5379,284.5337],[108.5357,-7.5358,235.3123],[108.5273,-7.5293,356.758],[108.5276,-7.5269,347.1242],[108.5193,-7.5274,374.7573],[108.5187,-7.5259,349.4239],[108.5163,-7.528,397.2413],[108.5103,-7.5278,342.3444],[108.5027,-7.5343,390.6504],[108.5001,-7.5343,379.4203],[108.4957,-7.5308,365.4647],[108.4851,-7.5361,465.064],[108.4842,-7.5343,461.0334],[108.4762,-7.5315,463.6881],[108.4746,-7.5241,412.1037],[108.4704,-7.5197,443.9094],[108.4724,-7.5182,444.918],[108.4607,-7.5175,470.1861],[108.4577,-7.5151,481.832],[108.4557,-7.5102,458.3574],[108.4425,-7.5099,490.3169],[108.4361,-7.5073,525.8377],[108.4283,-7.5001,553.4628],[108.4282,-7.4968,537.176],[108.4263,-7.4949,519.1295],[108.4195,-7.4926,494.7733],[108.4183,-7.4884,487.5294],[108.4148,-7.4892,555.0117],[108.4147,-7.4939,506.6921],[108.4135,-7.4953,484.2346],[108.4123,-7.4945,512.15],[108.4119,-7.4978,463.8201],[108.4104,-7.4981,480.4975],[108.4105,-7.4945,476.2664],[108.4069,-7.4937,487.2845],[108.4069,-7.4888,559.0935],[108.4014,-7.4855,525.7373],[108.4024,-7.4809,553.2721],[108.4006,-7.4782,580.545],[108.3907,-7.477,810.2557],[108.384,-7.4795,725.3242],[108.382,-7.4775,722.4327],[108.3801,-7.479,697.9602],[108.372,-7.4792,804.6271],[108.3632,-7.4886,847.5201],[108.3561,-7.4904,874.3934],[108.3517,-7.4933,1034.0011],[108.3516,-7.5005,783.1719],[108.3373,-7.507,744.7152],[108.3343,-7.5102,766.4135],[108.3329,-7.5163,721.355],[108.334,-7.5244,833.9595],[108.3365,-7.5283,735.0675],[108.3344,-7.5299,713.0212],[108.3326,-7.539,560.0594],[108.3302,-7.5449,480.0603],[108.3283,-7.5459,593.5218],[108.3298,-7.5464,475.6289],[108.3275,-7.5508,449.4472],[108.3341,-7.5489,407.9527],[108.3341,-7.551,403.172],[108.339,-7.5542,365.1306],[108.3424,-7.5536,337.9225],[108.3426,-7.5549,341.8217],[108.3459,-7.5513,411.8294],[108.3619,-7.5464,506.7467],[108.3671,-7.5486,372.1794],[108.3782,-7.5587,374.2679],[108.3835,-7.5702,346.2321],[108.3867,-7.5737,295.5181],[108.4049,-7.574,193.6265],[108.4069,-7.5759,220.6364],[108.4134,-7.575,311.6567],[108.4318,-7.5828,266.2002],[108.4359,-7.5827,279.9606],[108.4378,-7.5804,302.3513],[108.4399,-7.594,209.0683],[108.4418,-7.5962,212.446],[108.4402,-7.5988,230.7716],[108.4395,-7.6068,199.2641],[108.438,-7.607,199.2641],[108.4385,-7.6086,202.3286],[108.4373,-7.6077,195.6159],[108.4389,-7.6098,200.8433],[108.4366,-7.6096,189.3938],[108.4381,-7.6116,204.3674],[108.4368,-7.6138,190.9715],[108.4527,-7.6136,184.5665],[108.4557,-7.6149,181.4253],[108.4638,-7.6126,125.6173],[108.462,-7.6179,133.4062],[108.4635,-7.6241,142.4037],[108.459,-7.6279,124.6546],[108.4622,-7.6357,99.3292]]]]}}