{"type":"Feature","properties":{"GID_3":"IDN.26.4.2_1","GID_0":"IDN","country":"Indonesia","GID_1":"IDN.26_1","province":"SulawesiSelatan","NL_NAME_1":"NA","GID_2":"IDN.26.4_1","county":"Bulukumba","NL_NAME_2":"NA","city":"Bontotiro","VARNAME_3":"NA","NL_NAME_3":"NA","TYPE_3":"Kecamatan","ENGTYPE_3":"Sub-district","CC_3":"7302040","HASC_3":"NA","name":"Bontotiro.city"},
"geometry":{"type": "MultiPolygon","coordinates": [[[[120.4313,-5.5083,153.594],[120.4472,-5.5069,0.0],[120.4435,-5.4898,0.0],[120.446,-5.4817,16.8543],[120.4511,-5.4787,0.0],[120.4511,-5.4768,0.0],[120.4493,-5.4744,0.0],[120.4367,-5.4727,1.3296],[120.4333,-5.4691,3.096],[120.4283,-5.4689,45.4763],[120.4242,-5.4654,32.4102],[120.4249,-5.4638,0.0],[120.4226,-5.4591,0.0],[120.4247,-5.4521,1.926],[120.4236,-5.4445,10.7669],[120.4173,-5.4394,18.188],[120.4155,-5.4403,15.8851],[120.4154,-5.4379,34.6701],[120.41,-5.4407,12.8428],[120.4043,-5.4314,9.9832],[120.3995,-5.4326,20.719],[120.3951,-5.4309,59.897],[120.3836,-5.439,197.4336],[120.3771,-5.4396,171.8674],[120.3696,-5.4364,144.4112],[120.3665,-5.4309,151.6013],[120.3605,-5.4303,126.2157],[120.328,-5.4411,60.393],[120.3285,-5.4486,41.6496],[120.3319,-5.4519,44.4041],[120.3297,-5.4549,53.7096],[120.328,-5.4647,36.6201],[120.332,-5.4649,39.1493],[120.3303,-5.472,30.1578],[120.3325,-5.4769,27.2541],[120.3405,-5.4804,21.0009],[120.3419,-5.4845,24.9424],[120.3516,-5.4743,51.1579],[120.3545,-5.4739,84.1227],[120.3587,-5.4704,77.6227],[120.3672,-5.4823,96.284],[120.367,-5.4846,91.9488],[120.3731,-5.4877,110.4831],[120.3761,-5.4911,113.1681],[120.3787,-5.4977,102.137],[120.3739,-5.5016,88.0155],[120.3777,-5.5043,98.7801],[120.394,-5.5045,130.7606],[120.4061,-5.5076,190.6124],[120.4232,-5.5055,218.5679],[120.4313,-5.5083,153.594]]]]}}