{"type":"Feature","properties":{"featurecla":"Island group","name":"LESSER SUNDA ISLANDS","namealt":null,"region":"Asia","subregion":"Malay Archipelago","min_label":4.0,"max_label":6.0,"scalerank":3},
"geometry":{"type": "MultiPolygon","coordinates": [[[[127.48019768869892,-8.8610643032298,0.0],[127.4107728581256,-8.9218554824200282,0.0],[127.38828262699053,-8.94029851948818,0.0],[127.36436461938547,-8.9574379213553357,0.0],[127.36242282834087,-8.95872811605841,0.0],[127.16305515255885,-9.0904513419703221,0.0],[127.14000917577312,-9.10469953981675,0.0],[127.11405864917617,-9.1185703852665938,0.0],[127.08725648795121,-9.1307142865271089,0.0],[127.05971746306739,-9.1410792415483115,0.0],[127.05407300480908,-9.14295373883732,0.0],[126.931393154548,-9.1827962681344388,0.0],[126.90887965059574,-9.1894633952991285,0.0],[126.88556661462928,-9.19504853461575,0.0],[126.82908290576847,-9.2069978953185228,0.0],[126.80115783291967,-9.2342867006849474,0.0],[126.78336650717313,-9.2507586991208086,0.0],[126.76062068037334,-9.2694257167549949,0.0],[126.73670267276827,-9.286565118622093,0.0],[126.71171490493828,-9.3021035111717083,0.0],[126.68576437834133,-9.3159743566216662,0.0],[126.66458200378327,-9.32574568002974,0.0],[126.56019561055359,-9.3706524996913458,0.0],[126.55457582388658,-9.37302507754373,0.0],[126.52703679900264,-9.3833900325649324,0.0],[126.49887883679219,-9.3919316570186311,0.0],[126.47022251397209,-9.3986133743575238,0.0],[126.44119054131647,-9.4034065724418383,0.0],[126.43986156834251,-9.4035795206706325,0.0],[126.34583524279344,-9.41567333690682,0.0],[126.32144002097357,-9.4214900804444142,0.0],[126.29658510568379,-9.4342697902901591,0.0],[126.18668274798131,-9.5038537341939673,0.0],[126.17097271743603,-9.5133567663808662,0.0],[126.14502219083897,-9.52722761183071,0.0],[126.11822002961412,-9.5393715130911119,0.0],[126.09068100473019,-9.5497364681124282,0.0],[126.06252304251973,-9.5582780925661837,0.0],[126.03386671969963,-9.5649598099049058,0.0],[126.01673130002519,-9.5680247172340955,0.0],[125.9653649263272,-9.5761895935362418,0.0],[125.95346837334603,-9.57791788429148,0.0],[125.9241850702183,-9.5808020379114964,0.0],[125.89817413218407,-9.58175195521892,0.0],[125.87296101725508,-9.5891398689346943,0.0],[125.60724643893684,-9.6823833611997543,0.0],[125.46899191887644,-9.7717465154365186,0.0],[125.37663271423344,-9.8421400572420339,0.0],[125.36633847248891,-9.8645429219762377,0.0],[125.35246762703889,-9.8904934485731246,0.0],[125.33692923448939,-9.9154812164031227,0.0],[125.31978983262229,-9.9393992240081843,0.0],[125.30112281498816,-9.9621450508078624,0.0],[125.28100811662182,-9.9836212956796544,0.0],[125.25953187175026,-10.003735994045883,0.0],[125.23876887574488,-10.020872739491494,0.0],[125.15280376168073,-10.087600136213723,0.0],[125.04857147354585,-10.208181795648272,0.0],[125.04646135665382,-10.210605337267225,0.0],[125.02634665828748,-10.23208158213879,0.0],[125.0048704134158,-10.252196280505075,0.0],[124.98212458661612,-10.270863298139318,0.0],[124.97576630737524,-10.275653355910265,0.0],[124.89571929096257,-10.334853986380381,0.0],[124.82544793546697,-10.404815093065679,0.0],[124.80467591471711,-10.42422712360468,0.0],[124.78378567624259,-10.441462600031059,0.0],[124.70317044186731,-10.503991083104211,0.0],[124.70131485354204,-10.505422624312189,0.0],[124.67739684593698,-10.522562026179173,0.0],[124.65240907810698,-10.538100418728789,0.0],[124.62645855151004,-10.551971264178633,0.0],[124.59965639028508,-10.564115165439148,0.0],[124.57211736540091,-10.574480120460521,0.0],[124.54395940319068,-10.58302174491422,0.0],[124.51988357746882,-10.588767564888769,0.0],[124.41911453449984,-10.609903225696087,0.0],[124.41453403740172,-10.610839123060316,0.0],[124.38550206474599,-10.615632321144631,0.0],[124.36686944722737,-10.617691226157604,0.0],[124.30899279452888,-10.622867993242721,0.0],[124.18598528414691,-10.68979946258321,0.0],[124.16994894864354,-10.698112214700188,0.0],[124.14865309142453,-10.707932339652587,0.0],[124.03517164611173,-10.756714891736124,0.0],[124.02966534210543,-10.759038668043956,0.0],[124.00212631722161,-10.76940362306533,0.0],[123.97396835501115,-10.777945247519028,0.0],[123.94531203219128,-10.78462696485775,0.0],[123.91628005953544,-10.789420162942235,0.0],[123.88699675640839,-10.792304316562252,0.0],[123.87211910448309,-10.793032207121655,0.0],[123.84450545347977,-10.79392505713065,0.0],[123.84392870897273,-10.795826328970008,0.0],[123.83356375395147,-10.823365353854058,0.0],[123.82141985269106,-10.850167515078965,0.0],[123.80754900724105,-10.876118041675909,0.0],[123.79201061469155,-10.901105809505907,0.0],[123.77487121282434,-10.925023817111139,0.0],[123.75620419519032,-10.947769643910533,0.0],[123.73608949682398,-10.969245888782439,0.0],[123.71461325195241,-10.989360587148553,0.0],[123.69186742515262,-11.00802760478291,0.0],[123.66794941754756,-11.025167006649895,0.0],[123.64296164971756,-11.04070539919951,0.0],[123.61701112312062,-11.054576244649354,0.0],[123.59884177672393,-11.063038305217958,0.0],[123.58272584930836,-11.070111320522456,0.0],[123.67652428477126,-11.063042901568437,0.0],[123.8872176441462,-11.024468682818394,0.0],[124.32569321844122,-10.896977463593458,0.0],[125.70508873789626,-10.495904229693437,0.0],[126.13001549570876,-10.322198175005909,0.0],[126.5357772144587,-10.110284112505894,0.0],[126.9167586597712,-9.8585751281309513,0.0],[126.9953719410212,-9.799737237505866,0.0],[127.06434166758376,-9.7419979796934228,0.0],[127.12415612070876,-9.6771786437559513,0.0],[127.1753035816462,-9.597466729693366,0.0],[127.32115543247656,-9.31282772705741,0.0],[127.40967858164626,-9.1400692687559513,0.0],[127.44849694102126,-9.035943292193366,0.0],[127.47120201914626,-8.9412167296934371,0.0],[127.48019768869892,-8.8610643032298,0.0]]],
[[[114.85433119569856,-7.7047680122873956,0.0],[114.8603011782792,-7.72239535730364,0.0],[114.89684589487808,-7.6969134146618217,0.0],[114.90421780673341,-7.6918811168048933,0.0],[114.92920557456341,-7.6763427242554494,0.0],[114.95515610116047,-7.6624718788055466,0.0],[114.98195826238532,-7.6503279775452029,0.0],[115.00949728726948,-7.63996302252383,0.0],[115.03765524947971,-7.6314213980699606,0.0],[115.06631157229981,-7.6247396807313521,0.0],[115.09534354495543,-7.619946482646867,0.0],[115.12462684808281,-7.6170623290270214,0.0],[115.15403608608221,-7.6160995702600758,0.0],[115.17536467087314,-7.616605690051415,0.0],[115.21236499639429,-7.6183626887494142,0.0],[115.22044564960288,-7.61881932772485,0.0],[115.24972895273027,-7.6217034813447526,0.0],[115.27876092538577,-7.6264966794292377,0.0],[115.30741724820564,-7.63317839676796,0.0],[115.32868482555978,-7.6394428908341183,0.0],[115.47782300915435,-7.6873986200010336,0.0],[115.48471339401078,-7.6896757503885738,0.0],[115.49566234870497,-7.6935508233640348,0.0],[115.60335603360124,-7.733238323364219,0.0],[115.61994610379065,-7.7397282054101879,0.0],[115.64674826501584,-7.7518721066705334,0.0],[115.65655202921278,-7.7568567557893289,0.0],[115.75804454223396,-7.8100318046176653,0.0],[115.77419130463397,-7.8189180009488837,0.0],[115.79917907246397,-7.8344563934983276,0.0],[115.82309708006903,-7.8515957953654274,0.0],[115.84584290686871,-7.8702628129997274,0.0],[115.86731915174039,-7.8903775113659549,0.0],[115.88158212739802,-7.9053110843934178,0.0],[115.92648512093513,-7.95454049774537,0.0],[115.94607453871618,-7.9384638780480259,0.0],[115.96765953190743,-7.9228939196457873,0.0],[116.05220217513704,-7.8656364326663493,0.0],[116.05453518955062,-7.8640669892015467,0.0],[116.07952295738062,-7.8485285966519314,0.0],[116.10547348397745,-7.8346577512020872,0.0],[116.13227564520241,-7.8225138499416857,0.0],[116.15681459124039,-7.8131790996944233,0.0],[116.25396628394913,-7.7794343894078111,0.0],[116.25696636279497,-7.7784041846337,0.0],[116.28512432500554,-7.7698625601799449,0.0],[116.31378064782552,-7.7631808428412228,0.0],[116.34281262048125,-7.7583876447567377,0.0],[116.37209592360864,-7.7555034911368921,0.0],[116.40150516160804,-7.75454073236989,0.0],[116.43091439960756,-7.7555034911368921,0.0],[116.46019770273483,-7.7583876447567377,0.0],[116.48922967539045,-7.7631808428412228,0.0],[116.51788599821055,-7.7698625601799449,0.0],[116.53855092685455,-7.7759337390121459,0.0],[116.78401398024107,-7.8544819160958346,0.0],[116.79150701380763,-7.8569523617173331,0.0],[116.81904603869123,-7.8673173167387063,0.0],[116.84584819991642,-7.8794612179991077,0.0],[116.85693951969552,-7.8851231139271363,0.0],[116.89745384261244,-7.9065171568958021,0.0],[116.91231304943017,-7.9147261064177883,0.0],[116.93730081726017,-7.9302644989674036,0.0],[116.96121882486523,-7.9474039008345017,0.0],[116.9758667599026,-7.959425150448908,0.0],[116.99279159572677,-7.9517566071037322,0.0],[117.02033062061059,-7.9413916520824159,0.0],[117.04848858282116,-7.9328500276285467,0.0],[117.07714490564115,-7.9261683102898246,0.0],[117.10617687829688,-7.92137511220551,0.0],[117.12688331096899,-7.9193357065930741,0.0],[117.1337942211012,-7.90969154267259,0.0],[117.15246123873555,-7.8869457158728551,0.0],[117.17257593710167,-7.86546947100112,0.0],[117.19405218197346,-7.8453547726350052,0.0],[117.21679800877325,-7.8266877550007621,0.0],[117.24071601637831,-7.8095483531337777,0.0],[117.26570378420831,-7.7940099605840487,0.0],[117.26877238065174,-7.7922543531975634,0.0],[117.32437622179759,-7.7607317294995823,0.0],[117.34725815195111,-7.7486164914362234,0.0],[117.3740603131763,-7.7364725901757652,0.0],[117.40159933806012,-7.7261076351542783,0.0],[117.42975730027069,-7.7175660107006934,0.0],[117.45841362309045,-7.7108842933620281,0.0],[117.48744559574618,-7.706091095277543,0.0],[117.51672889887345,-7.7032069416575268,0.0],[117.53247100865451,-7.702451932221777,0.0],[117.65143015579042,-7.6988345819613642,0.0],[117.66438025557761,-7.6990615613561886,0.0],[117.6906349404594,-7.6877701269530689,0.0],[117.69621119208375,-7.6854162750713044,0.0],[117.72375021696757,-7.6750513200499313,0.0],[117.75190817917814,-7.6665096955962326,0.0],[117.7701972785685,-7.6620174348752244,0.0],[117.82290723950632,-7.6502352083125524,0.0],[117.83327446293572,-7.6480457516949514,0.0],[117.86230643559168,-7.6432525536106368,0.0],[117.89158973871872,-7.6403683999906207,0.0],[117.92099897671847,-7.6394056412236182,0.0],[117.95040821471787,-7.6403683999906207,0.0],[117.97969151784514,-7.6432525536106368,0.0],[117.99598156095351,-7.6457015238851227,0.0],[118.19245535652715,-7.6789294698489243,0.0],[118.20519728607474,-7.6812736976586393,0.0],[118.23385360889461,-7.6879554149973606,0.0],[118.26201157110484,-7.69649703945106,0.0],[118.289550595989,-7.7068619944724333,0.0],[118.31635275721385,-7.7190058957328347,0.0],[118.34230328381079,-7.7328767411828494,0.0],[118.36729105164079,-7.7484151337324647,0.0],[118.39120905924585,-7.7655545355993354,0.0],[118.40597238249984,-7.7773844617091186,0.0],[118.43914865203112,-7.8051347058499232,0.0],[118.44713115557693,-7.81197179737444,0.0],[118.45887440121362,-7.82297054716679,0.0],[118.4612707283045,-7.8227345295487112,0.0],[118.48350141953017,-7.8218290748561694,0.0],[118.54499637395747,-7.8208472226426693,0.0],[118.5521749207312,-7.8207899185682086,0.0],[118.58158415873072,-7.821752677335212,0.0],[118.61086746185799,-7.8246368309550576,0.0],[118.6277149629725,-7.8271804399283269,0.0],[118.68745291870198,-7.8373606970898209,0.0],[118.69963739024342,-7.83961028620098,0.0],[118.71540193791304,-7.8432860631720587,0.0],[118.71863143841006,-7.8398379605844184,0.0],[118.74010768328162,-7.81972326221819,0.0],[118.7628535100813,-7.8010562445840614,0.0],[118.78677151768636,-7.7839168427169616,0.0],[118.81175928551636,-7.7683784501673472,0.0],[118.83770981211364,-7.7545076047173316,0.0],[118.8636432497126,-7.7427246056364538,0.0],[118.90581121846265,-7.7251546186572568,0.0],[118.90667994208866,-7.7247937164777341,0.0],[118.93421896697259,-7.7144287614563609,0.0],[118.96237692918305,-7.7058871370026623,0.0],[118.99103325200281,-7.6992054196638833,0.0],[119.02006522465877,-7.6944122215795687,0.0],[119.04934852778581,-7.6915280679595526,0.0],[119.05435567819177,-7.6912279204732954,0.0],[119.07337260527527,-7.6901943918274469,0.0],[119.12718393086845,-7.6904945393137609,0.0],[119.15646723399584,-7.6933786929336074,0.0],[119.18549920665146,-7.6981718910180916,0.0],[119.21415552947121,-7.7048536083568138,0.0],[119.24231349168178,-7.7133952328105693,0.0],[119.26985251656561,-7.7237601878318856,0.0],[119.29665467779091,-7.7359040890924007,0.0],[119.32260520438774,-7.7497749345423017,0.0],[119.34759297221785,-7.76531332709186,0.0],[119.37151097982292,-7.7824527289588454,0.0],[119.39425680662259,-7.8011197465930877,0.0],[119.41573305149416,-7.8212344449593729,0.0],[119.4358477498605,-7.8427106898311649,0.0],[119.44843502597291,-7.8577103593242441,0.0],[119.4789241210251,-7.8956925370586077,0.0],[119.48500386254671,-7.90343869436515,0.0],[119.50214326441392,-7.9273567019702682,0.0],[119.51768165696342,-7.9523444698002663,0.0],[119.53155250241343,-7.97829499639721,0.0],[119.5362462929404,-7.9886544128455057,0.0],[119.56286809457708,-7.9948617463789446,0.0],[119.5910260567872,-8.00340337083253,0.0],[119.61856508167148,-8.0137683258539028,0.0],[119.64536724289633,-8.0259122271143042,0.0],[119.65183653115446,-8.0293701337298558,0.0],[119.67590154388745,-8.0165071164371966,0.0],[119.70270370511275,-8.0043632151769089,0.0],[119.73024272999658,-7.993998260155422,0.0],[119.75840069220703,-7.9854566357018371,0.0],[119.7870570150269,-7.9787749183630012,0.0],[119.81608898768286,-7.9739817202785161,0.0],[119.84537229081013,-7.9710975666587842,0.0],[119.87478152880954,-7.9701348078917817,0.0],[119.89883262141859,-7.9707784809487521,0.0],[119.98239248781806,-7.9152900183750026,0.0],[120.0063116943752,-7.9004634111053633,0.0],[120.03226222097248,-7.8865925656555191,0.0],[120.05906438219745,-7.8744486643951177,0.0],[120.08660340708127,-7.8640837093736309,0.0],[120.11476136929184,-7.8555420849200459,0.0],[120.11761559175113,-7.8547873322231681,0.0],[120.24060550060574,-7.8226962677699126,0.0],[120.26640760096655,-7.8167693031280123,0.0],[120.29543957362216,-7.8119761050435272,0.0],[120.29811804746828,-7.8116316565407828,0.0],[120.36891475970833,-7.8027433101866563,0.0],[120.39551958898926,-7.8002036050694414,0.0],[120.42492882698878,-7.7992408463024958,0.0],[120.45433806498818,-7.8002036050694414,0.0],[120.48362136811591,-7.8030877586892871,0.0],[120.49760570214892,-7.8051529454470483,0.0],[120.52251599940496,-7.7994576983102206,0.0],[120.55154797206058,-7.7946645002257364,0.0],[120.58083127518785,-7.79178034660589,0.0],[120.61024051318736,-7.7908175878390011,0.0],[120.63964975118688,-7.79178034660589,0.0],[120.66893305431415,-7.7946645002257364,0.0],[120.69796502697011,-7.7994576983102206,0.0],[120.72662134978998,-7.8061394156489428,0.0],[120.75477931200021,-7.8146810401026414,0.0],[120.78231833688437,-7.8250459951240154,0.0],[120.80912049810922,-7.837189896384416,0.0],[120.83507102470617,-7.85106074183426,0.0],[120.86005879253617,-7.8665991343838746,0.0],[120.86256478426799,-7.8682857873791932,0.0],[120.87428412539396,-7.8762307933557736,0.0],[120.90331825181636,-7.87734406507451,0.0],[120.91549854676089,-7.8779766356687446,0.0],[120.94478184988827,-7.8808607892886471,0.0],[120.97381382254389,-7.8856539873730753,0.0],[121.00247014536399,-7.8923357047117406,0.0],[121.02198057290673,-7.8980391571831214,0.0],[121.14455707030334,-7.9368998342665691,0.0],[121.15320460497071,-7.9397380062490024,0.0],[121.18074362985453,-7.9501029612704883,0.0],[121.20754579107984,-7.9622468625307761,0.0],[121.21915140011311,-7.9681807602954109,0.0],[121.29752745877352,-8.0096978894820268,0.0],[121.42259509164035,-8.05261085418391,0.0],[121.44873760772043,-8.0624992015051475,0.0],[121.47553976894528,-8.0746431027653784,0.0],[121.50149029554234,-8.0885139482153932,0.0],[121.50294053790287,-8.0893548544009946,0.0],[121.56304443680801,-8.07264988108443,0.0],[121.56707582242268,-8.0715495718999364,0.0],[121.59573214524244,-8.0648678545612711,0.0],[121.62476411789805,-8.0600746564768428,0.0],[121.65404742102544,-8.0571905028568267,0.0],[121.68345665902518,-8.0562277440899948,0.0],[121.68856611349088,-8.0562567741440034,0.0],[121.72515229783187,-8.056672526238799,0.0],[121.76735257482505,-8.052056870942863,0.0],[121.76788493926097,-8.0517947065696376,0.0],[121.79446233142323,-8.0397615712967081,0.0],[121.82200135630706,-8.029396616275335,0.0],[121.85015931851751,-8.0208549918216363,0.0],[121.87881564133738,-8.0141732744829142,0.0],[121.907847613993,-8.0093800763985428,0.0],[121.93713091712038,-8.0064959227785266,0.0],[121.96654015511979,-8.005533164011581,0.0],[121.99594939311964,-8.0064959227785266,0.0],[122.02523269624692,-8.0093800763985428,0.0],[122.05426466890253,-8.0141732744829142,0.0],[122.0829209917224,-8.0208549918216363,0.0],[122.10037964052412,-8.0259133607991089,0.0],[122.15391642437874,-8.0426048484293915,0.0],[122.16461573778747,-8.046088103905447,0.0],[122.19215476267129,-8.05645305892699,0.0],[122.21895692389626,-8.0685969601873921,0.0],[122.22986513594367,-8.0741622179262436,0.0],[122.26204143134032,-8.0911343297840972,0.0],[122.28212190202248,-8.07478630643402,0.0],[122.30603990962754,-8.0576469045668659,0.0],[122.32182055779299,-8.0475714060569317,0.0],[122.33295152799758,-8.04078658473918,0.0],[122.34310054067248,-8.01388215111183,0.0],[122.35524444193288,-7.9870799898867517,0.0],[122.36774187162507,-7.963525248734868,0.0],[122.40153825834375,-7.9041490280314974,0.0],[122.40291167410192,-7.9017532425864374,0.0],[122.4184500666513,-7.8767654747564393,0.0],[122.43558946851829,-7.8528474671513777,0.0],[122.45425648615253,-7.8301016403518133,0.0],[122.47437118451899,-7.8086253954800782,0.0],[122.49584742939055,-7.78851069711385,0.0],[122.51859325619023,-7.76984367947955,0.0],[122.54251126379529,-7.7527042776124517,0.0],[122.55434142958234,-7.7450648247680078,0.0],[122.60777486057202,-7.711733525939735,0.0],[122.62093246261497,-7.7038345862347342,0.0],[122.64688298921192,-7.6899637407847186,0.0],[122.67368515043711,-7.6778198395244317,0.0],[122.70122417532093,-7.6674548845029449,0.0],[122.7293821375315,-7.65891326004936,0.0],[122.75803846035126,-7.6522315427105241,0.0],[122.78707043300699,-7.647438344626039,0.0],[122.81635373613426,-7.6445541910063071,0.0],[122.84576297413378,-7.6435914322393614,0.0],[122.87517221213318,-7.6445541910063071,0.0],[122.90445551526091,-7.647438344626039,0.0],[122.92260488654324,-7.6502057803808157,0.0],[122.99381501024141,-7.6625564476985906,0.0],[123.00469761161446,-7.66458221002847,0.0],[123.03335393443444,-7.6712639273670788,0.0],[123.06151189664502,-7.6798055518208912,0.0],[123.08905092152884,-7.6901705068421506,0.0],[123.11585308275414,-7.7023144081025521,0.0],[123.14180360935097,-7.7161852535525668,0.0],[123.16679137718097,-7.7317236461021821,0.0],[123.18802652302156,-7.7468203521995056,0.0],[123.24057743592959,-7.7865215477861511,0.0],[123.24651905458268,-7.7867160562412323,0.0],[123.27580235771006,-7.7896002098610779,0.0],[123.30483433036568,-7.794393407945563,0.0],[123.33349065318578,-7.8010751252842851,0.0],[123.33929988486091,-7.8026734940885936,0.0],[123.40839121397369,-7.8221823402758446,0.0],[123.4145256738949,-7.8212778628559363,0.0],[123.44380897702217,-7.8183937092362612,0.0],[123.45848314848229,-7.8176724440543239,0.0],[123.51522387113903,-7.8158120924917966,0.0],[123.52580530107559,-7.815589783430255,0.0],[123.55175688096381,-7.800664184154698,0.0],[123.57705877046578,-7.7871671099258606,35.2723],[123.60386093169063,-7.7750232086654592,0.0],[123.63139995657457,-7.764658253644086,0.0],[123.65955791878503,-7.7561166291903874,0.0],[123.68821424160512,-7.7494349118514947,0.0],[123.71724621426085,-7.7446417137673507,0.0],[123.7465295173879,-7.7417575601473354,0.0],[123.77593875538764,-7.7407948013804457,0.0],[123.80534799338704,-7.7417575601473354,0.0],[123.83463129651443,-7.7446417137673507,0.0],[123.86366326917005,-7.7494349118516652,0.0],[123.89231959199014,-7.756116629190501,0.0],[123.91651466462247,-7.7633335358613067,0.0],[123.98607114248739,-7.7862261953664529,0.0],[123.99003403206564,-7.787550913149289,0.0],[124.01757305694923,-7.7979158681706622,0.0],[124.03228724505561,-7.804582780065914,0.0],[124.04069972098853,-7.80008621799891,0.0],[124.06750188221338,-7.7879423167383948,0.0],[124.09504090709731,-7.7775773617170776,0.0],[124.12319886930777,-7.769035737263323,0.0],[124.15185519212753,-7.7623540199246008,0.0],[124.18088716478348,-7.7575608218401158,0.0],[124.21017046791087,-7.75467666822027,0.0],[124.21108717207517,-7.7546175245800546,0.0],[124.23713209394998,-7.7529638787468116,0.0],[124.27214773947253,-7.7529996454024968,0.0],[124.2736791208082,-7.7520613189078631,0.0],[124.28377670090299,-7.7460542314171326,0.0],[124.30972722750005,-7.7321833859672324,0.0],[124.3189126750312,-7.7280215138363193,0.0],[124.1598006519587,-7.6946346984434086,0.0],[124.0642195972712,-7.6666805968808944,0.0],[123.8614608082087,-7.5761044250059086,0.0],[122.4896346363337,-7.0565731750059371,0.0],[122.35157311289626,-7.0160458312559513,0.0],[121.19073423615957,-6.8768769944397823,0.0],[121.19713553128452,-6.89100495384173,0.0],[121.20750048630589,-6.9185439787257224,0.0],[121.21604211075964,-6.946701940936066,0.0],[121.22272382809854,-6.97535826375605,0.0],[121.22751702618268,-7.00439023641178,0.0],[121.23040117980281,-7.0336735395391088,0.0],[121.23136393856976,-7.0630827775386251,0.0],[121.23040117980247,-7.0924920155381983,0.0],[121.227540878166,-7.1215938595109378,0.0],[121.22020282478047,-7.1775077592507159,0.0],[121.22017897279716,-7.1776892184052494,0.0],[121.21538577471279,-7.2067211910610354,0.0],[121.20870405737412,-7.2353775138808487,0.0],[121.20016243292037,-7.2635354760913629,0.0],[121.18979747789911,-7.2910745009753546,0.0],[121.1776535766387,-7.3178766622002627,0.0],[121.16378273118892,-7.3438271887972633,0.0],[121.14824433863919,-7.3688149566272614,15.1313],[121.1311049367722,-7.392732964232323,0.0],[121.11243791913773,-7.4154787910321147,0.0],[121.09232322077162,-7.436955035903793,0.0],[121.07084697589994,-7.4570697342698509,0.0],[121.04810114910026,-7.4757367519041509,0.0],[121.0241831414952,-7.4928761537712489,0.0],[120.9991953736652,-7.5084145463208642,0.0],[120.97324484706826,-7.5222853917707084,0.0],[120.94644268584329,-7.5344292930312244,0.0],[120.91890366095947,-7.5447942480524262,0.0],[120.8907456987489,-7.5533358725061817,0.0],[120.8620893759288,-7.5600175898449038,0.0],[120.83305740327319,-7.564810787929332,0.0],[120.80377410014592,-7.5676949415493482,0.0],[120.79938314727883,-7.5679611759288719,0.0],[120.69737386993461,-7.573645583480868,0.0],[120.64294634680277,-7.5733793491012884,0.0],[120.61366304367539,-7.5704951954814419,0.0],[120.58463107101988,-7.5657019973969568,0.0],[120.55597474819979,-7.5590202800582347,0.0],[120.55032423233411,-7.5574666953285714,0.0],[120.51880160863618,-7.5485783489743881,0.0],[120.49629416229118,-7.5415903092503527,0.0],[120.46875513740758,-7.5312253542288659,0.0],[120.44195297618228,-7.5190814529685213,0.0],[120.41600244958533,-7.50521060751862,0.0],[120.39101468175534,-7.4896722149690049,0.0],[120.36709667415028,-7.4725328131020774,0.0],[120.34435084735094,-7.4538657954676637,0.0],[120.32287460247903,-7.433751097101549,0.0],[120.30275990411292,-7.4122748522298139,0.0],[120.28409288647867,-7.3895290254303632,0.0],[120.26695348461169,-7.3656110178251879,0.0],[120.25141509206196,-7.34062324999519,0.0],[120.23754424661217,-7.3146727233980764,0.0],[120.22540034535177,-7.2878705621733388,0.0],[120.21503539033051,-7.2603315372892894,0.0],[120.20649376587642,-7.2321735750787752,0.0],[120.19981204853786,-7.2035172522588482,0.0],[120.19501885045338,-7.1744852796031751,0.0],[120.19247416439669,-7.149989595852503,0.0],[120.18503275814692,-7.0524244916854286,0.0],[120.18469329058348,-7.0476368723087717,0.0],[120.18373053181642,-7.0182276343093122,0.0],[120.18469329058348,-6.9888183963098527,0.0],[120.18757744420327,-6.9595350931824669,0.0],[120.19237064228776,-6.9305031205267369,0.0],[120.19905235962642,-6.90184679770681,0.0],[120.20759398408006,-6.8736888354962957,0.0],[120.21795893910144,-6.8461498106124168,0.0],[120.22526092923329,-6.8300339749695809,0.0],[120.21351431737901,-6.8216164719535186,0.0],[120.19076849057922,-6.8029494543193891,0.0],[120.17241092957683,-6.7857557221513591,0.0],[119.95630944102126,-6.7831356750059228,0.0],[118.94446862070876,-6.87749602656838,0.0],[115.03382408945876,-7.6263973937559513,0.0],[114.8985701832087,-7.6741268859433944,0.0],[114.85433119569856,-7.7047680122873956,0.0]]],
[[[122.47493666175762,-11.179627663697852,0.0],[122.46938585523719,-11.172863986382879,0.0],[122.45224645337032,-11.148945978777988,0.0],[122.43670806082048,-11.123958210947819,0.0],[122.42283721537046,-11.098007684350875,0.0],[122.4106933141104,-11.071205523125798,0.0],[122.4003283590888,-11.043666498241919,0.0],[122.39178673463528,-11.015508536031405,0.0],[122.3851050172965,-10.986852213211478,0.0],[122.38031181921201,-10.957820240555861,0.0],[122.37815142417776,-10.938036283255826,0.0],[122.3715484762356,-10.862013152895031,0.0],[122.29511887574643,-10.850254752819808,0.0],[122.27780172850885,-10.866474031158646,0.0],[122.25505590170928,-10.885141048792832,0.0],[122.23113789410422,-10.902280450659873,0.0],[122.22096863858496,-10.908878806657867,0.0],[122.12268006436602,-10.970787172543396,0.0],[122.10786155205528,-10.979727209095074,0.0],[122.08191102545823,-10.993598054544918,0.0],[122.05510886423303,-11.00574195580532,0.0],[122.02756983934921,-11.016106910826693,0.0],[121.99941187713864,-11.024648535280392,0.0],[121.98718176380146,-11.027742377765549,0.0],[121.93726233020755,-11.039627957192693,0.0],[121.92083612072497,-11.043215832046258,0.0],[121.89180414806924,-11.048009030130572,0.0],[121.86252084494186,-11.050893183750588,0.0],[121.83311160694245,-11.051855942517534,0.0],[121.80370236894305,-11.050893183750588,0.0],[121.77441906581532,-11.048009030130572,0.0],[121.74538709315971,-11.043215832046258,0.0],[121.71673077033995,-11.036534114707649,0.0],[121.71529472479403,-11.036146780773379,0.0],[121.60832450994985,-11.007104625825434,0.0],[121.5816025932852,-10.998950335305835,0.0],[121.55406356840138,-10.988585380284519,0.0],[121.52726140717618,-10.976441479024118,0.0],[121.50131088057913,-10.962570633574273,0.0],[121.47632311274913,-10.947032241024658,0.0],[121.45240510514407,-10.929892839157674,0.0],[121.44258846717844,-10.922140979818266,0.0],[121.42109107134502,-10.904674345703825,0.0],[121.40816188251131,-10.893759187408648,0.0],[121.38668563763974,-10.87364448904259,0.0],[121.36657093927329,-10.852168244170628,0.0],[121.34790392163904,-10.82942241737112,0.0],[121.33076451977206,-10.805504409766058,0.0],[121.31522612722233,-10.78051664193606,0.0],[121.30135528177266,-10.75456611533906,0.0],[121.28921138051226,-10.727763954114153,0.0],[121.27884642549077,-10.70022492923016,0.0],[121.27030480103713,-10.672066967019646,0.0],[121.26362308369823,-10.643410644199662,0.0],[121.25882988561409,-10.614378671544046,0.0],[121.25594573199396,-10.585095368416717,0.0],[121.25498297322702,-10.555686130417257,0.0],[121.25594573199396,-10.526276892417627,0.0],[121.25882988561409,-10.496993589290469,0.0],[121.26362308369823,-10.467961616634625,0.0],[121.27030480103713,-10.439305293814698,0.0],[121.27884642549077,-10.411147331604298,0.0],[121.28921138051226,-10.383608306720305,0.0],[121.30135528177266,-10.356806145495398,0.0],[121.31522612722233,-10.330855618898283,0.0],[121.33076451977206,-10.305867851068285,0.0],[121.34790392163904,-10.281949843463224,0.0],[121.36657093927329,-10.259204016663659,0.0],[121.38668563763974,-10.237727771791924,0.0],[121.40816188251131,-10.217613073425696,0.0],[121.43090770931065,-10.198946055791396,0.0],[121.45482571691571,-10.181806653924468,0.0],[121.4798134847457,-10.166268261374853,0.0],[121.49516051739238,-10.157802092387556,0.0],[121.5297101463832,-10.139611926954899,0.0],[121.55404805367891,-10.116021236111351,0.0],[121.57052923277217,-10.100824336445953,0.0],[121.59327505957185,-10.08215731881171,0.0],[121.61719306717691,-10.065017916944726,0.0],[121.64218083500691,-10.049479524395167,0.0],[121.66813136160386,-10.035608678945152,0.0],[121.69493352282916,-10.023464777684865,0.0],[121.72247254771298,-10.013099822663378,0.0],[121.75063050992344,-10.004558198209679,0.0],[121.77928683274331,-9.9978764808711276,0.0],[121.80831880539893,-9.9930832827866425,0.0],[121.83497432514025,-9.9903790940336421,0.0],[121.91744991107794,-9.9844879807524762,0.0],[121.92007769446434,-9.9843080158855173,0.0],[121.94948693246374,-9.9833452571185148,0.0],[121.97889617046314,-9.9843080158855173,0.0],[122.00817947359053,-9.9871921695055335,0.0],[122.03721144624626,-9.991985367589848,0.0],[122.06586776906636,-9.99866708492857,0.0],[122.07289757389162,-10.000611958706941,0.0],[122.12178347883969,-10.014564595425554,0.0],[122.14291163622477,-10.021161346101053,0.0],[122.1704506611087,-10.031526301122369,0.0],[122.19725282233355,-10.043670202382827,0.0],[122.2232033489305,-10.057541047832672,0.0],[122.24819111676049,-10.073079440382116,0.0],[122.27210912436556,-10.090218842249328,0.0],[122.29485495116535,-10.108885859883685,0.0],[122.31633119603691,-10.129000558249743,0.0],[122.33644589440325,-10.150476803121478,0.0],[122.3551129120375,-10.173222629921042,0.0],[122.37225231390448,-10.197140637526104,0.0],[122.38779070645421,-10.222128405356102,0.0],[122.401661551904,-10.248078931953216,0.0],[122.4138054531644,-10.274881093178124,0.0],[122.42417040818577,-10.302420118062116,0.0],[122.43271203263942,-10.330578080272517,0.0],[122.43939374997831,-10.359234403092444,0.0],[122.44418694806257,-10.388266375748117,0.0],[122.44424601991238,-10.3888661423033,0.0],[122.54906362816723,-10.423805345054916,0.0],[122.54917750751588,-10.423698685405611,0.0],[122.57192333431533,-10.405031667771311,0.0],[122.59584134192039,-10.387892265904384,0.0],[122.62082910975039,-10.372353873354768,0.0],[122.64677963634767,-10.358483027904754,0.0],[122.67358179757252,-10.346339126644352,0.0],[122.70112082245646,-10.335974171622979,0.0],[122.71899299536187,-10.33032000521149,0.0],[122.86036683940858,-10.288815136245489,0.0],[122.87590874734747,-10.272991136632811,0.0],[122.87587308438492,-10.266660960762124,0.0],[122.87682870726087,-10.234718461426951,0.0],[122.87971286088066,-10.205435158299451,0.0],[122.88450605896514,-10.176403185643835,0.0],[122.89118777630404,-10.147746862823908,0.0],[122.89972940075745,-10.119588900613394,0.0],[122.91009435577905,-10.092049875729515,0.0],[122.92223825703957,-10.065247714504551,0.0],[122.93610910248924,-10.039297187907493,0.0],[122.95164749503897,-10.014309420077325,0.0],[122.96623121242487,-9.9937546365533763,0.0],[123.03599439601908,-9.90104711702179,0.0],[123.03855008050004,-9.89768389294079,0.0],[123.0572170981344,-9.874938066141226,0.0],[123.0773317965004,-9.8534618212696614,0.0],[123.09880804137208,-9.833347122903433,0.0],[123.12155386817176,-9.814680105269133,0.0],[123.14547187577682,-9.797540703402035,0.0],[123.17045964360682,-9.78200231085259,0.0],[123.17974749484802,-9.7770205856953112,0.0],[123.20340171262524,-9.711524684916526,0.0],[123.22732006884667,-9.6059469235212873,0.0],[123.23152875937808,-9.58891792401971,0.0],[123.24007038383183,-9.5607599618090262,0.0],[123.25043533885321,-9.5332209369251473,0.0],[123.26066900616695,-9.5103401808588046,0.0],[123.30418056215672,-9.4199064243480279,0.0],[123.30609079610338,-9.4159850191892929,0.0],[123.31996164155339,-9.3900344925924628,0.0],[123.33550003410289,-9.3650467247622942,0.0],[123.35263943596988,-9.3411287171572326,0.0],[123.37130645360412,-9.318382890357725,0.0],[123.39142115197046,-9.2969066454860467,0.0],[123.39701001967558,-9.291414332784484,0.0],[123.56444166030133,-9.1297187761431928,0.0],[123.58032903746789,-9.115096390478584,0.0],[123.59597630073551,-9.1019902590323341,0.0],[123.69633193224604,-9.0217367596829945,0.0],[123.70343049577821,-9.0161758734949444,0.0],[123.72734850338327,-8.9990364716278464,0.0],[123.75233627121327,-8.9834980790784016,0.0],[123.76704935034809,-8.9753663282647267,0.0],[123.83676916628417,-8.9385172206838774,0.0],[123.82018387175196,-8.9282038217942272,0.0],[123.80282490582931,-8.9406430808601272,0.0],[123.77783713799931,-8.9561814734098562,0.0],[123.75188661140237,-8.9700523188597572,0.0],[123.72508445017741,-8.9821962201201018,0.0],[123.69754542529324,-8.9925611751415886,0.0],[123.66938746308301,-9.0011027995953441,0.0],[123.64073114026291,-9.0077845169339525,0.0],[123.6116991676073,-9.0125777150182671,0.0],[123.58241586448003,-9.0154618686384538,0.0],[123.55300662648028,-9.0164246274052289,0.0],[123.54314749786408,-9.016316530308643,0.0],[123.52707056855093,-9.0209465495952372,0.0],[123.49841424573117,-9.02762826693413,0.0],[123.46938227307555,-9.0324214650184445,0.0],[123.44009896994817,-9.03530561863846,0.0],[123.41068973194865,-9.0362683774054631,0.0],[123.38128049394925,-9.03530561863846,0.0],[123.35199719082198,-9.0324214650184445,0.0],[123.32296521816602,-9.02762826693413,0.0],[123.29430889534615,-9.0209465495952372,0.0],[123.26615093313569,-9.0124049251416523,0.0],[123.23861190825187,-9.002039970120336,0.0],[123.21180974702656,-8.9898960688599345,0.0],[123.20302455906972,-8.9854434254699527,0.0],[123.19459077806073,-8.9844140594194073,0.0],[123.18682335869642,-8.9831316532921619,0.0],[123.17032899997594,-8.99338850466006,0.0],[123.14437847337922,-9.0072593501099618,0.0],[123.11757631215403,-9.0194032513703064,0.0],[123.09003728727009,-9.0297682063917932,0.0],[123.06187932505964,-9.0383098308454919,0.0],[123.03322300223977,-9.0449915481841572,0.0],[123.00419102958415,-9.0497847462686423,0.0],[122.97490772645688,-9.0526688998884879,0.0],[122.94549848845702,-9.0536316586554335,0.0],[122.91608925045762,-9.0526688998884879,0.0],[122.88680594733023,-9.0497847462686423,0.0],[122.88553941423243,-9.049575640807916,0.0],[122.77737902614331,-9.076734334747016,0.0],[122.74080321323015,-9.0907787576087458,0.0],[122.6816056027842,-9.1223166687363459,0.0],[122.6690586491585,-9.1287506424281446,0.0],[122.64225648793365,-9.140894543688546,0.0],[122.61471746304949,-9.15125949870992,0.0],[122.58655950083892,-9.1598011231636178,0.0],[122.55790317801916,-9.1664828405023968,0.0],[122.54760743729662,-9.1684064173945217,0.0],[122.49469077062997,-9.1776564987748088,0.0],[122.47595453869656,-9.1805261199670554,0.0],[122.44667123556917,-9.183410273586901,0.0],[122.43398537703308,-9.1840619444653839,0.0],[122.33817727156395,-9.1876276182935044,0.0],[122.32145389210052,-9.1879387061820239,0.0],[122.29495870432538,-9.1871574450673847,0.0],[122.21725689720552,-9.1825710855458738,0.0],[122.02419549936951,-9.2700032193960737,0.0],[122.0107704853267,-9.2758217084027024,0.0],[121.98323146044288,-9.2861866634240755,0.0],[121.95507349823231,-9.2947282878777742,0.0],[121.92641717541255,-9.3014100052163826,0.0],[121.89738520275682,-9.3062032033008677,0.0],[121.88338998201129,-9.3078230935821011,0.0],[121.83132895765982,-9.3130238344285772,0.0],[121.79045862719533,-9.3263236806843679,0.0],[121.76769475474202,-9.3330722006383553,0.0],[121.73903843192193,-9.3397539179771343,0.0],[121.71000645926631,-9.3445471160615057,0.0],[121.68072315613892,-9.3474312696813513,0.0],[121.65131391813952,-9.3483940284482969,0.0],[121.62190468014,-9.3474312696813513,0.0],[121.59262137701262,-9.3445471160615057,0.0],[121.56358940435712,-9.3397539179771343,0.0],[121.53493308153702,-9.3330722006383553,0.0],[121.51335072379698,-9.3267063604761233,0.0],[121.50041404001229,-9.3323040488976972,0.0],[121.47287501512835,-9.3426690039190134,0.0],[121.44471705291778,-9.3512106283727121,0.0],[121.4160607300978,-9.3578923457114911,0.0],[121.38702875744218,-9.3626855437958056,0.0],[121.3577454543148,-9.3655696974158218,0.0],[121.32833621631528,-9.3665324561826537,0.0],[121.29892697831588,-9.3655696974158218,0.0],[121.26964367518849,-9.3626855437958056,0.0],[121.25918392503286,-9.361183256361187,0.0],[121.22036086569415,-9.3551408704341839,0.0],[121.20256129119809,-9.3603056804560651,0.0],[121.17390496837811,-9.366987397794901,0.0],[121.16823551086952,-9.3680773348794446,0.0],[121.11728254862965,-9.3775341219888446,0.0],[121.0939200334825,-9.3812373829886724,0.0],[121.06463673035523,-9.384121536608518,0.0],[121.03522749235572,-9.38508429537552,0.0],[121.0058182543562,-9.384121536608518,0.0],[120.97653495122893,-9.3812373829886724,0.0],[120.97616573935966,-9.3811886197711942,0.0],[120.92273230836975,-9.3741089485471889,0.0],[120.8940695475834,-9.3693645136802388,0.0],[120.86541322476353,-9.36268279634163,0.0],[120.83725526255307,-9.3541411718878749,0.0],[120.81622338793841,-9.34641224110021,0.0],[120.80894892413869,-9.34353128387221,0.0],[120.85042387057365,-9.3795533489034142,0.0],[120.8520489615762,-9.3809716346200958,0.0],[120.873525206448,-9.4010863329864947,0.0],[120.89303056502445,-9.4218691959669627,0.0],[120.97002844913914,-9.5093057194047788,0.0],[120.97063778892914,-9.509999101295989,0.0],[120.9893048065635,-9.5327449280956671,0.0],[121.00066375052245,-9.548221368855593,0.0],[121.01756025355735,-9.5723040370534136,0.0],[121.02706304125832,-9.5783921252426012,0.0],[121.03431172222452,-9.5831351858231528,0.0],[121.05822972982958,-9.60027458769008,0.0],[121.08097555662903,-9.61894160532438,0.0],[121.10245180150082,-9.6390563036906087,0.0],[121.12256649986728,-9.6605325485623439,0.0],[121.14123351750152,-9.6832783753619083,0.0],[121.1583729193685,-9.70719638296697,0.0],[121.17038021060694,-9.7261761080632709,0.0],[121.21854264550268,-9.8066879895740158,0.0],[121.22207374681409,-9.812696032307656,0.0],[121.2359445922641,-9.8386465589046,0.0],[121.24808849352451,-9.8654487201296774,0.0],[121.25845344854577,-9.89298774501367,0.0],[121.26699507299952,-9.92114570722407,0.0],[121.27367679033807,-9.9498020300439975,0.0],[121.27846998842256,-9.97883400269967,0.0],[121.2813541420428,-10.008117305827,0.0],[121.28231690080941,-10.037526543826459,0.0],[121.2813541420428,-10.066935781826089,0.0],[121.27846998842256,-10.096219084953418,0.0],[121.27367679033807,-10.125251057609034,0.0],[121.26699507299952,-10.153907380429018,0.0],[121.25845344854577,-10.182065342639362,0.0],[121.25007173695212,-10.20473610140084,0.0],[121.22164969919152,-10.275687842937543,0.0],[121.2196664557639,-10.280556109060058,0.0],[121.2075225545035,-10.307358270285249,0.0],[121.19365170905348,-10.333308796882136,0.0],[121.1781133165041,-10.358296564712248,0.0],[121.16097391463711,-10.382214572317196,0.0],[121.14230689700287,-10.404960399116874,0.0],[121.12219219863641,-10.426436643988495,0.0],[121.1093300435507,-10.438798345645921,0.0],[121.00308329875838,-10.536931890568269,0.0],[120.99446920897253,-10.544684887277072,0.0],[120.9717233821732,-10.563351904911372,0.0],[120.94780537456813,-10.580491306778299,0.0],[120.92281760673814,-10.596029699327914,0.0],[120.89686708014085,-10.609900544777872,0.0],[120.87006491891589,-10.622044446038331,0.0],[120.85396352308771,-10.628353919231927,0.0],[120.79639597751452,-10.649644609336008,0.0],[120.78495834845876,-10.653700091163785,0.0],[120.7568003862483,-10.662241715617483,0.0],[120.72814406342843,-10.668923432956205,0.0],[120.69911209077293,-10.673716631040691,0.0],[120.68423079996194,-10.675424151135246,0.0],[120.68409124943798,-10.67543781278323,0.0],[120.6327217775015,-10.699931435363396,0.0],[120.61126934599827,-10.70948096947609,0.0],[120.58373032111433,-10.719845924497406,0.0],[120.55557235890376,-10.728387548951162,0.0],[120.52691603608412,-10.735069266289941,0.0],[120.49788406342816,-10.739862464374255,0.0],[120.46860076030077,-10.742746617994271,0.0],[120.43919152230126,-10.743709376761046,0.0],[120.40978228430185,-10.742746617994271,0.0],[120.38049898117447,-10.739862464374255,0.0],[120.35146700851863,-10.735069266289941,0.0],[120.32281068569876,-10.728387548951162,0.0],[120.29465272348853,-10.719845924497463,0.0],[120.26711369860436,-10.70948096947609,0.0],[120.24031153737951,-10.697337068215575,0.0],[120.23328120311032,-10.693793242483707,0.0],[120.18772609015286,-10.686855056632169,0.0],[120.16770561528881,-10.683341157565678,0.0],[120.13904929246905,-10.67665944022707,0.0],[120.11089133025848,-10.668117815773371,0.0],[120.09505091333608,-10.662407786827714,0.0],[119.98446334823154,-10.620188141645372,0.0],[119.97276474026989,-10.615533215569485,0.0],[119.94596257904504,-10.603389314308913,0.0],[119.92001205244799,-10.589518468859239,0.0],[119.89502428461799,-10.573980076309624,0.0],[119.87110627701293,-10.556840674442526,0.0],[119.85746880013573,-10.545949346382145,0.0],[119.76455457487498,-10.468744756538115,0.0],[119.75544622495249,-10.46096906696431,0.0],[119.73396998008081,-10.440854368597911,0.0],[119.71385528171447,-10.419378123726347,0.0],[119.69518826408023,-10.396632296926782,0.0],[119.67804886221325,-10.372714289321721,0.0],[119.67385885611225,-10.366326702307731,0.0],[119.656601308792,-10.339524198795573,0.0],[119.64026267072302,-10.332736719001957,0.0],[119.61388982513756,-10.320770906104826,0.0],[119.5879392985405,-10.306900060654982,0.0],[119.56295153071051,-10.291361668105196,0.0],[119.55987622109126,-10.289288415737701,0.0],[119.45648459845631,-10.218963938037462,0.0],[119.44592416524472,-10.219781123200448,0.0],[119.42254432223569,-10.220703456806916,0.0],[119.36859412692309,-10.221426926858953,0.0],[119.33315549393285,-10.220504593252599,0.0],[119.30387219080558,-10.21762043963264,0.0],[119.27484021814996,-10.212827241548155,0.0],[119.26008902791318,-10.209634795079012,0.0],[118.98299999796393,-10.144780872552758,0.0],[118.96909486538095,-10.141291601683122,0.0],[118.9409369031705,-10.13274997722948,0.0],[118.91339787828656,-10.122385022208107,0.0],[118.88659571706171,-10.110241120947705,0.0],[118.86064519046465,-10.096370275497861,0.0],[118.83565742263465,-10.080831882948075,0.0],[118.81173941502959,-10.063692481081148,0.0],[118.78899358822991,-10.045025463446848,0.0],[118.78862711924887,-10.044703727056685,0.0],[118.74552897471744,-10.006824902186622,0.0],[118.72441919882692,-9.987031940210727,0.0],[118.70430450046047,-9.9655556953391056,0.0],[118.68563748282622,-9.9428098685394275,0.0],[118.67400089396642,-9.9269372460254885,0.0],[118.63999780151823,-9.878361399671121,0.0],[118.63449498851105,-9.8703160145801689,0.0],[118.63136838307673,-9.8655721113486265,0.0],[118.60036252370196,-9.8178747643431166,0.0],[118.58795073658655,-9.797630899744604,0.0],[118.57407989113676,-9.7716803731476034,0.0],[118.56193598987647,-9.7448782119225257,0.0],[118.55270955351511,-9.7206507351896221,0.0],[118.53410603789018,-9.6672173041998235,0.0],[118.53296751922971,-9.663905756048905,0.0],[118.52442589477607,-9.63574779383839,0.0],[118.51774417743741,-9.607091471018407,0.0],[118.51295097935292,-9.57805949836279,0.0],[118.51006682573313,-9.5487761952354617,0.0],[118.50910406696607,-9.5193669572360022,0.0],[118.51006682573313,-9.4899577192363722,0.0],[118.51295097935292,-9.4606744161092138,0.0],[118.51774417743741,-9.43164244345337,0.0],[118.52442589477607,-9.4029861206334431,0.0],[118.53296751922971,-9.3748281584230426,0.0],[118.54333247425109,-9.34728913353905,0.0],[118.55547637551183,-9.3204869723141428,0.0],[118.56796069499921,-9.2971304533419357,0.0],[118.56631219493261,-9.2974825963618173,0.0],[118.53728022227472,-9.3022757944466434,0.0],[118.50799691914744,-9.30515994806666,0.0],[118.47858768114759,-9.3061227068334347,0.0],[118.4695962587914,-9.3060328015994855,0.0],[118.41791982649966,-9.30499927295375,0.0],[118.39750201085633,-9.3041264194208111,0.0],[118.36821870772894,-9.3012422658007949,0.0],[118.33918673507344,-9.29644906771648,0.0],[118.31053041225334,-9.2897673503775877,0.0],[118.28237245004277,-9.28122572592406,0.0],[118.28233118829075,-9.2812101961002327,0.0],[118.24619174003681,-9.29074077625927,0.0],[118.21925327565782,-9.2969658320394615,0.0],[118.19022130300255,-9.3017590301236623,0.0],[118.16093799987482,-9.3046431837436785,0.0],[118.14094700753117,-9.3055072981125591,0.0],[118.02326939730403,-9.3509578065048231,0.0],[118.00579981980206,-9.3572934342576559,0.0],[117.97764185759149,-9.3658350587114114,0.0],[117.9489855347714,-9.3725167760501336,0.0],[117.91995356211578,-9.3773099741346186,0.0],[117.89067025898839,-9.3801941277544643,0.0],[117.86126102098899,-9.3811568865214667,0.0],[117.83185178298947,-9.3801941277544643,0.0],[117.80256847986209,-9.3773099741346186,0.0],[117.79838033511817,-9.3767385557132457,0.0],[117.67180845189978,-9.4262857478737487,0.0],[117.65243637578999,-9.4333611425914228,0.0],[117.62427841357976,-9.4419027670450077,0.0],[117.59746971433447,-9.4482129424608843,0.0],[117.47747703855282,-9.4726042185025676,0.0],[117.47562941497779,-9.47297576042547,0.0],[117.44659744232251,-9.4777689585099552,0.0],[117.41731413919479,-9.4806531121298,0.0],[117.4007471183445,-9.4814324480773848,0.0],[117.33925216391719,-9.4831894467752136,0.0],[117.3366477190483,-9.4832563089385076,0.0],[117.33332989285998,-9.4846461712940027,0.0],[117.30579086797616,-9.49501112631549,0.0],[117.28960234428803,-9.5001674307006283,0.0],[117.1896601242355,-9.5299330557007238,0.0],[117.17769068571317,-9.5333183757692836,0.0],[117.1490343628933,-9.5400000931080626,0.0],[117.12000239023746,-9.544793291192434,0.0],[117.09071908711041,-9.54767744481228,0.0],[117.06130984911056,-9.548640203579339,0.0],[117.03190061111115,-9.54767744481228,0.0],[117.00261730798377,-9.544793291192434,0.0],[116.97358533532815,-9.5400000931080626,0.0],[116.96513993648944,-9.538235806610885,0.0],[116.861993777635,-9.5156532056993228,0.0],[116.84178285365363,-9.5107357748577783,0.0],[116.81362489144351,-9.50219415040408,0.0],[116.810607093758,-9.5011577907466176,0.0],[116.72358398177857,-9.4709270778558334,0.0],[116.69906275457993,-9.4615984824919224,0.0],[116.67594120549961,-9.4512488712048253,0.0],[116.59325891383264,-9.4114063419078775,0.0],[116.58957830168777,-9.4096120519345732,0.0],[116.56362777509071,-9.3957412064845585,0.0],[116.53864000726071,-9.3802028139349432,0.0],[116.51472199965565,-9.3630634120680156,0.0],[116.51158116924989,-9.3604857991682024,0.0],[116.46749369772908,-9.369521009381117,0.0],[116.46494175221358,-9.3700363073000972,0.0],[116.43590977955796,-9.3748295053844117,0.0],[116.40662647643023,-9.3777136590044279,0.0],[116.37721723843083,-9.37867641777126,0.0],[116.34780800043131,-9.3777136590044279,0.0],[116.31852469730404,-9.3748295053844117,0.0],[116.28949272464831,-9.3700363073000972,0.0],[116.26344052402999,-9.3640440086194872,0.0],[116.25387886455144,-9.3615432669097345,0.0],[116.2099352790766,-9.3608154656449756,0.0],[116.18065197594933,-9.35793131202496,0.0],[116.15817836418512,-9.35439210600265,0.0],[115.94558152173624,-9.3153763996222665,0.0],[115.93902316084495,-9.3141224075603191,0.0],[115.91036683802497,-9.30744069022154,0.0],[115.89275787056783,-9.3023354266061347,0.0],[115.74062245390053,-9.2548447853299081,0.0],[115.73007345914721,-9.2514084244916148,0.0],[115.70253443426327,-9.2410434694703554,0.0],[115.69739500975788,-9.2387148265221981,0.0],[115.66964145924169,-9.2451860468827931,0.0],[115.64060948658573,-9.2499792449672782,0.0],[115.61132618345846,-9.2528633985871238,0.0],[115.58191694545894,-9.2538261573541831,0.0],[115.55250770745954,-9.2528633985871238,0.0],[115.52322440433215,-9.2499792449672782,0.0],[115.49419243167654,-9.2451860468827931,0.0],[115.46553610885644,-9.2385043295441278,0.0],[115.43737814664621,-9.22996270509043,0.0],[115.42089935628314,-9.2237605275753936,0.0],[115.41907086192441,-9.22484724489533,0.0],[115.41794018873242,-9.2254516023075759,0.0],[119.17586705112146,-10.657536911955077,0.0],[119.2613631519587,-10.690118096880894,0.0],[120.54798424570876,-11.069878839068409,0.0],[120.85889733164626,-11.127373956255894,0.0],[121.5011092457087,-11.185845635943409,0.0],[121.66863504681285,-11.190932119620413,0.0],[121.9996444019587,-11.20098235469338,0.0],[122.47493666175762,-11.179627663697852,0.0]]]]}}