{"type":"Feature","properties":{"GID_3":"IDN.30.13.5_1","GID_0":"IDN","country":"Indonesia","GID_1":"IDN.30_1","province":"SumateraBarat","NL_NAME_1":"NA","GID_2":"IDN.30.13_1","county":"Pasaman","NL_NAME_2":"NA","city":"MapatTunggul","VARNAME_3":"NA","NL_NAME_3":"NA","TYPE_3":"Kecamatan","ENGTYPE_3":"Sub-district","CC_3":"1309122","HASC_3":"NA","name":"Mapat_Tunggul.city"},
"geometry":{"type": "MultiPolygon","coordinates": [[[[100.1817,0.6052,643.1051],[100.1868,0.6266,296.4052],[100.2013,0.6409,149.5452],[100.2015,0.6432,143.8298],[100.2158,0.6631,135.6372],[100.2378,0.6733,220.6562],[100.2408,0.6793,242.6779],[100.2427,0.6943,243.3532],[100.2399,0.7332,760.3215],[100.2321,0.737,695.7792],[100.2238,0.7388,775.3616],[100.2205,0.7418,839.0658],[100.2158,0.7398,937.0626],[100.2132,0.7356,825.2189],[100.2072,0.7378,786.8539],[100.2005,0.7447,884.14],[100.1933,0.7638,874.943],[100.1697,0.7647,1052.6471],[100.1494,0.771,923.2807],[100.136,0.7755,1020.897],[100.1197,0.7859,962.0449],[100.0744,0.8012,463.6057],[100.0667,0.8055,416.5672],[100.0595,0.7897,325.4561],[100.0602,0.7849,310.0981],[100.0629,0.7822,310.7691],[100.0625,0.7758,321.2647],[100.0612,0.7711,351.0832],[100.0572,0.7687,377.7166],[100.0545,0.7627,454.8141],[100.0535,0.7488,868.2455],[100.0706,0.7438,559.7326],[100.0756,0.7407,337.471],[100.0773,0.7377,385.0208],[100.0758,0.7314,574.4951],[100.0812,0.7208,778.8973],[100.082,0.7114,743.7971],[100.0871,0.7052,736.8681],[100.0854,0.6998,857.0676],[100.0897,0.6912,670.0614],[100.09,0.6839,749.8175],[100.0959,0.6812,563.1202],[100.0972,0.6687,520.3936],[100.1012,0.6654,419.3603],[100.1012,0.6611,361.8611],[100.1075,0.6551,389.8209],[100.1124,0.652,571.2925],[100.1156,0.652,584.7183],[100.1189,0.6458,473.9734],[100.1178,0.6342,528.185],[100.1232,0.6269,635.3678],[100.1197,0.6086,339.1434],[100.1248,0.597,364.4666],[100.1243,0.5926,413.1585],[100.1264,0.5851,191.724],[100.1264,0.5729,376.2165],[100.1229,0.5681,437.5356],[100.1207,0.5576,539.6163],[100.123,0.5557,451.0749],[100.1228,0.5533,442.2743],[100.1403,0.5382,470.6997],[100.1554,0.5287,374.1922],[100.1597,0.5284,291.1176],[100.1632,0.5342,252.5561],[100.1686,0.5361,426.2217],[100.1723,0.5321,213.51],[100.1694,0.5286,225.1762],[100.1772,0.5279,218.857],[100.181,0.5329,209.0321],[100.183,0.5309,318.4478],[100.1819,0.5273,283.7674],[100.1859,0.5283,191.2124],[100.1881,0.5325,202.9987],[100.1979,0.5377,179.7777],[100.1989,0.5429,187.4473],[100.2063,0.5467,233.0797],[100.2197,0.5415,176.32],[100.2259,0.5437,181.5762],[100.2346,0.5428,269.6266],[100.2381,0.5394,167.9423],[100.235,0.5457,485.5307],[100.2211,0.5563,814.6846],[100.2115,0.5591,871.2132],[100.2056,0.5582,900.061],[100.2001,0.5599,999.8544],[100.1948,0.5578,1045.8774],[100.1917,0.56,1022.8987],[100.1841,0.561,848.1339],[100.1825,0.5627,838.6633],[100.1765,0.5739,786.2432],[100.1817,0.6052,643.1051]]]]}}