{"type":"Feature","properties":{"GID_3":"IDN.18.8.8_1","GID_0":"IDN","country":"Indonesia","GID_1":"IDN.18_1","province":"MalukuUtara","NL_NAME_1":"NA","GID_2":"IDN.18.8_1","county":"Ternate","NL_NAME_2":"NA","city":"TernateUtara","VARNAME_3":"NA","NL_NAME_3":"NA","TYPE_3":"Kecamatan","ENGTYPE_3":"Sub-district","CC_3":"8271030","HASC_3":"NA","name":"Ternate_Utara.city"},
"geometry":{"type": "MultiPolygon","coordinates": [[[[127.3843,0.7973,6.534],[127.3885,0.7982,1.5008],[127.3864,0.8007,2.54],[127.3879,0.8012,0.0],[127.3871,0.8046,2.4277],[127.3902,0.8169,0.9133],[127.3886,0.8289,1.0969],[127.3859,0.8339,0.0],[127.3795,0.8393,0.0],[127.3651,0.847,11.9485],[127.3647,0.8433,52.2069],[127.3581,0.8305,250.4909],[127.3507,0.8229,520.1778],[127.3579,0.8221,386.3508],[127.3531,0.8144,579.6517],[127.353,0.8097,700.8254],[127.3659,0.8147,318.7838],[127.3689,0.8114,273.6518],[127.3708,0.803,253.0633],[127.3731,0.8021,211.9193],[127.3727,0.7982,152.0996],[127.3809,0.7957,33.2273],[127.3843,0.7973,6.534]]],
[[[127.3883,0.8084,0.0],[127.3884,0.8083,0.0],[127.3884,0.8085,0.0],[127.3881,0.8084,0.0],[127.3883,0.8084,0.0]]]]}}