{"type":"Feature","properties":{"GID_3":"IDN.14.8.13_1","GID_0":"IDN","country":"Indonesia","GID_1":"IDN.14_1","province":"KalimantanTengah","NL_NAME_1":"NA","GID_2":"IDN.14.8_1","county":"KotawaringinTimur","NL_NAME_2":"NA","city":"Seranau","VARNAME_3":"NA","NL_NAME_3":"NA","TYPE_3":"Kecamatan","ENGTYPE_3":"Sub-district","CC_3":"6202061","HASC_3":"NA","name":"Seranau.city"},
"geometry":{"type": "MultiPolygon","coordinates": [[[[113.0911,-2.6733,32.3564],[113.1376,-2.606,20.5204],[113.2027,-2.4994,22.8524],[113.2128,-2.4513,20.0207],[113.1942,-2.3875,20.8868],[113.1871,-2.3698,21.641],[113.173,-2.3632,24.8609],[113.1315,-2.3537,26.6098],[113.1054,-2.3539,10.9107],[113.1006,-2.3569,9.1193],[113.0994,-2.3612,15.9615],[113.0944,-2.3631,5.1658],[113.0925,-2.3657,5.1064],[113.0908,-2.3645,5.4746],[113.0864,-2.3679,4.8673],[113.0782,-2.3661,5.1132],[113.0688,-2.3738,4.2657],[113.0646,-2.3693,4.583],[113.0475,-2.3721,6.1165],[113.0425,-2.3742,12.3798],[113.0377,-2.3798,10.6929],[113.0369,-2.3839,11.5698],[113.0333,-2.389,10.4641],[113.0337,-2.3908,1.0],[113.0427,-2.3913,1.0],[113.0471,-2.3942,1.0],[113.0604,-2.4169,1.0],[113.0606,-2.4245,1.0],[113.0537,-2.4351,1.0],[113.0524,-2.4436,1.0],[113.0605,-2.459,1.0],[113.0598,-2.4669,1.9667],[113.0558,-2.4731,8.1153],[113.0529,-2.4748,1.0],[113.0359,-2.4748,1.0],[113.0325,-2.4763,1.0],[113.0231,-2.4863,1.5165],[113.0165,-2.4897,1.0],[112.9998,-2.491,1.0],[112.9698,-2.521,1.0],[112.967,-2.5337,1.2834],[112.9658,-2.5546,2.145],[112.9702,-2.56,0.5],[112.99,-2.5688,0.5],[112.9961,-2.5773,5.3629],[112.9962,-2.5849,0.5],[112.9954,-2.5883,0.5],[112.986,-2.6007,0.5],[112.9772,-2.6231,0.5],[112.9703,-2.6741,0.5],[112.9576,-2.6923,0.0],[112.9375,-2.7147,0.0],[112.9645,-2.7182,6.6645],[113.0117,-2.712,19.018],[113.0565,-2.7141,21.6048],[113.0817,-2.7107,19.5729],[113.0911,-2.6733,32.3564]]]]}}