{"type":"Feature","properties":{"GID_3":"IDN.9.19.8_1","GID_0":"IDN","country":"Indonesia","GID_1":"IDN.9_1","province":"JawaBarat","NL_NAME_1":"NA","GID_2":"IDN.9.19_1","county":"KotaTasikmalaya","NL_NAME_2":"NA","city":"Purbaratu","VARNAME_3":"NA","NL_NAME_3":"NA","TYPE_3":"Kecamatan","ENGTYPE_3":"Sub-district","CC_3":"3278031","HASC_3":"NA","name":"Purbaratu.city"},
"geometry":{"type": "MultiPolygon","coordinates": [[[[108.2498,-7.3469,333.5003],[108.2533,-7.3462,330.3506],[108.2543,-7.3386,316.7143],[108.2562,-7.3368,319.2594],[108.2567,-7.3402,317.1749],[108.2698,-7.3406,301.1912],[108.2732,-7.3421,292.7452],[108.2744,-7.3411,291.4189],[108.2754,-7.3425,285.8033],[108.2815,-7.34,271.5834],[108.2848,-7.3416,272.6584],[108.2858,-7.3391,278.2439],[108.2874,-7.3443,261.9613],[108.2923,-7.3406,256.3156],[108.2959,-7.3418,272.7419],[108.2971,-7.3408,244.1287],[108.2972,-7.3433,262.5148],[108.2999,-7.3428,244.6869],[108.3011,-7.3444,250.3946],[108.3036,-7.3416,229.74],[108.3079,-7.3401,238.7867],[108.3091,-7.3376,205.9848],[108.3106,-7.3377,252.9039],[108.3109,-7.34,235.7471],[108.313,-7.3396,239.3254],[108.3121,-7.3372,252.9039],[108.3061,-7.3343,233.7993],[108.2997,-7.3355,251.0113],[108.3007,-7.3326,230.6604],[108.2985,-7.3318,222.4381],[108.2978,-7.3341,226.8659],[108.2951,-7.3323,236.7794],[108.288,-7.3359,238.5282],[108.2879,-7.3337,259.3497],[108.2844,-7.3362,240.6532],[108.2815,-7.3334,241.1593],[108.278,-7.334,239.9828],[108.2785,-7.3328,256.8704],[108.2751,-7.3309,265.7707],[108.2753,-7.3281,261.0493],[108.2696,-7.3195,253.406],[108.2667,-7.3182,318.0545],[108.2657,-7.3208,277.2305],[108.2634,-7.3194,319.2918],[108.2622,-7.3218,290.3458],[108.253,-7.3215,319.6443],[108.2534,-7.3176,302.6328],[108.2507,-7.3155,301.0684],[108.249,-7.3185,322.8556],[108.2465,-7.3186,327.2874],[108.2456,-7.3213,331.5141],[108.243,-7.3207,326.5449],[108.2434,-7.3219,330.2983],[108.2379,-7.324,340.2847],[108.2373,-7.3263,340.0446],[108.2399,-7.3293,337.3664],[108.2366,-7.3324,336.9224],[108.2445,-7.3413,331.6839],[108.2472,-7.3466,335.1397],[108.2498,-7.3469,333.5003]]]]}}