{"type":"Feature","properties":{"GID_3":"IDN.17.13.6_1","GID_0":"IDN","country":"Indonesia","GID_1":"IDN.17_1","province":"Lampung","NL_NAME_1":"NA","GID_2":"IDN.17.13_1","county":"Tulangbawang","NL_NAME_2":"NA","city":"GedungAji","VARNAME_3":"NA","NL_NAME_3":"NA","TYPE_3":"Kecamatan","ENGTYPE_3":"Sub-district","CC_3":"1808040","HASC_3":"NA","name":"Gedung_Aji.city"},
"geometry":{"type": "MultiPolygon","coordinates": [[[[105.3264,-4.3265,26.1509],[105.3303,-4.3356,9.9521],[105.3233,-4.3306,24.2881],[105.3248,-4.3526,3.111],[105.3399,-4.3546,2.4654],[105.3489,-4.353,1.9656],[105.3506,-4.3493,2.3478],[105.3583,-4.3462,2.5387],[105.36279999999999,-4.334,2.1741],[105.371,-4.3309,3.1933],[105.3696,-4.3257,1.0527],[105.3875,-4.3251,5.28],[105.3903,-4.3205,4.5131],[105.382,-4.31,4.5002],[105.3881,-4.3101,2.0745],[105.401,-4.307,2.1642],[105.4081,-4.3027,26.068],[105.4052,-4.2667,18.2347],[105.3818,-4.2672,2.2467],[105.3744,-4.2717,2.6316],[105.3746,-4.2786,6.9875],[105.3653,-4.2793,2.3979],[105.3602,-4.2815,3.8655],[105.3583,-4.2727,2.6776],[105.3384,-4.276,13.5469],[105.3366,-4.2697,10.2217],[105.3191,-4.2699,19.5772],[105.3198,-4.2929,27.8315],[105.3264,-4.3265,26.1509]]],
[[[105.5467,-4.2344,6.9709],[105.5433,-4.2403,2.2812],[105.5405,-4.2417,2.405],[105.539,-4.246,3.728],[105.543,-4.2497,9.2709],[105.551,-4.2501,1.581],[105.6094,-4.2399,24.0057],[105.6066,-4.2193,21.759],[105.5995,-4.2189,20.9276],[105.5987,-4.2259,23.0739],[105.5901,-4.2192,20.5646],[105.5522,-4.2014,4.7324],[105.5448,-4.1993,24.2255],[105.5455,-4.2172,3.2726],[105.5402,-4.2205,2.0218],[105.5395,-4.223,3.9485],[105.5416,-4.2266,2.5936],[105.5468,-4.2304,1.8867],[105.5467,-4.2344,6.9709]]]]}}