{"type":"Feature","properties":{"GID_3":"IDN.29.6.1_1","GID_0":"IDN","country":"Indonesia","GID_1":"IDN.29_1","province":"SulawesiUtara","NL_NAME_1":"NA","GID_2":"IDN.29.6_1","county":"KepulauanSangihe","NL_NAME_2":"NA","city":"Kendahe","VARNAME_3":"NA","NL_NAME_3":"NA","TYPE_3":"Kecamatan","ENGTYPE_3":"Sub-district","CC_3":"7103110","HASC_3":"NA","name":"Kendahe.city"},
"geometry":{"type": "MultiPolygon","coordinates": [[[[125.4126,3.6486,26.566],[125.413,3.6454,9.8442],[125.4195,3.6504,127.2915],[125.4458,3.6542,462.7015],[125.4558,3.6623,838.47],[125.4585,3.6769,1029.3281],[125.4549,3.689,1185.4744],[125.4538,3.7097,467.1108],[125.4588,3.735,16.6884],[125.4462,3.737,12.4853],[125.4405,3.7339,2.6029],[125.427,3.7344,7.2985],[125.4207,3.7307,16.8834],[125.4128,3.7216,21.2078],[125.404,3.7189,3.0776],[125.398,3.7039,18.4265],[125.3974,3.6943,0.0],[125.3987,3.6919,6.2652],[125.3991,3.6815,0.0],[125.3976,3.6732,0.0],[125.3989,3.6686,0.0],[125.4024,3.6674,74.2444],[125.405,3.6614,13.5835],[125.4079,3.6599,0.0],[125.4055,3.6562,3.0804],[125.4126,3.6486,26.566]]],
[[[125.3909,3.9128,14.7432],[125.39,3.9153,6.8205],[125.3881,3.9157,6.1726],[125.3876,3.9134,53.9915],[125.3842,3.9123,0.0],[125.3847,3.9094,0.0],[125.3874,3.9069,0.0],[125.3911,3.9078,11.8875],[125.3909,3.9128,14.7432]]],
[[[125.3205,4.2368,59.5661],[125.3174,4.2351,3.0144],[125.3188,4.2311,9.4324],[125.3244,4.2272,51.3916],[125.3306,4.2279,7.8395],[125.3321,4.2315,0.0],[125.331,4.2344,32.0485],[125.327,4.2366,54.1188],[125.3238,4.2357,46.8244],[125.3205,4.2368,59.5661]]]]}}