{"type":"Feature","properties":{"GID_3":"IDN.29.6.15_1","GID_0":"IDN","country":"Indonesia","GID_1":"IDN.29_1","province":"SulawesiUtara","NL_NAME_1":"NA","GID_2":"IDN.29.6_1","county":"KepulauanSangihe","NL_NAME_2":"NA","city":"Tatoareng","VARNAME_3":"NA","NL_NAME_3":"NA","TYPE_3":"Kecamatan","ENGTYPE_3":"Sub-district","CC_3":"7103041","HASC_3":"NA","name":"Tatoareng.city"},
"geometry":{"type": "MultiPolygon","coordinates": [[[[125.4862,3.0625,14.145],[125.4831,3.0625,8.9287],[125.4902,3.0593,2.4794],[125.4889,3.0616,10.0465],[125.4862,3.0625,14.145]]],
[[[125.501,3.0773,88.0528],[125.5016,3.074,9.4996],[125.5044,3.0748,6.4057],[125.5054,3.0731,18.2672],[125.5044,3.07,35.764],[125.5027,3.0728,0.0],[125.5014,3.0695,33.0046],[125.4999,3.0693,8.1147],[125.5,3.0631,16.1661],[125.5048,3.0581,0.0],[125.5076,3.0587,0.0],[125.5046,3.0628,72.9379],[125.5104,3.0712,0.0],[125.5095,3.074,3.4581],[125.5123,3.0797,0.0],[125.5106,3.0788,5.5101],[125.5078,3.0817,8.626],[125.5094,3.087,0.0],[125.5064,3.0842,5.3825],[125.5033,3.0859,3.4441],[125.5032,3.0937,2.461],[125.4974,3.0863,0.0],[125.495,3.0803,0.0],[125.4958,3.0773,0.0],[125.4988,3.0786,7.5434],[125.501,3.0773,88.0528]]],
[[[125.4833,3.0959,3.9771],[125.4847,3.0967,0.0],[125.4828,3.1006,0.0],[125.4829,3.0978,3.5582],[125.4776,3.0949,5.9328],[125.477,3.0929,7.39],[125.4811,3.0918,0.0],[125.4833,3.0959,3.9771]]],
[[[125.4974,3.0962,17.5129],[125.4928,3.1013,0.0],[125.4927,3.0984,35.5374],[125.4872,3.095,0.0],[125.4906,3.0953,5.7956],[125.4969,3.0916,0.0],[125.4984,3.0968,17.5129],[125.4974,3.0962,17.5129]]],
[[[125.5382,3.1739,0.0],[125.5349,3.1784,0.0],[125.5386,3.1791,9.0693],[125.5395,3.1809,0.0],[125.5371,3.1803,19.2293],[125.5335,3.182,25.4894],[125.5348,3.1856,0.0],[125.5323,3.1876,0.0],[125.5312,3.1857,4.5677],[125.5295,3.1867,52.7637],[125.5297,3.1902,0.0],[125.5281,3.1895,10.8141],[125.5268,3.1923,0.0],[125.5208,3.1907,0.0],[125.5242,3.1866,2.7948],[125.5248,3.1837,9.926],[125.5234,3.1822,9.926],[125.5273,3.1794,5.8836],[125.5264,3.1736,59.5342],[125.5242,3.1742,0.0],[125.5235,3.1721,1.3604],[125.5181,3.1727,4.8117],[125.5162,3.1819,33.3237],[125.5128,3.1889,0.0],[125.509,3.1865,37.8694],[125.5086,3.1845,22.05],[125.5037,3.1855,0.0],[125.5032,3.1812,0.0],[125.5071,3.182,4.1046],[125.5092,3.1807,46.0051],[125.5029,3.177,3.1197],[125.5051,3.1759,12.4115],[125.5081,3.1773,25.7041],[125.5111,3.1748,0.0],[125.513,3.1756,18.3543],[125.5156,3.1741,11.811],[125.5143,3.1732,0.0],[125.5162,3.172,3.7389],[125.5158,3.1706,3.7389],[125.5091,3.1718,33.0208],[125.5069,3.1741,0.0],[125.4988,3.1719,15.3669],[125.5004,3.171,15.3669],[125.5002,3.1687,0.0],[125.5061,3.1692,9.8527],[125.5016,3.1656,7.9129],[125.5015,3.1639,7.4001],[125.5035,3.1644,10.9969],[125.5047,3.1616,0.0],[125.5106,3.1644,3.9407],[125.5087,3.1594,5.9155],[125.5128,3.1588,38.0229],[125.5122,3.1567,0.0],[125.5145,3.157,0.0],[125.516,3.1554,0.0],[125.5167,3.1585,39.9095],[125.5196,3.1576,0.0],[125.5209,3.1593,26.7619],[125.5235,3.1565,0.0],[125.5255,3.1592,0.0],[125.523,3.1623,38.5348],[125.5238,3.1634,0.0],[125.5309,3.1581,0.0],[125.532,3.1603,0.0],[125.5336,3.1596,0.0],[125.5343,3.1655,13.4806],[125.5362,3.1657,0.0],[125.5369,3.1685,0.0],[125.5394,3.1689,9.2148],[125.5387,3.1723,26.9489],[125.5403,3.173,0.0],[125.5382,3.1739,0.0]]],
[[[125.5135,3.1903,0.0],[125.514,3.1907,0.0],[125.5138,3.1911,0.0],[125.5134,3.1908,0.0],[125.5135,3.1903,0.0]]],
[[[125.4573,3.141,0.0],[125.4556,3.1473,0.0],[125.4529,3.1495,5.1365],[125.4494,3.1489,2.6615],[125.4473,3.1464,18.5398],[125.448,3.1419,0.0],[125.4528,3.1395,0.0],[125.4573,3.141,0.0]]],
[[[125.4602,3.2543,16.9742],[125.4601,3.2555,0.0],[125.4567,3.2534,27.2014],[125.4531,3.254,0.0],[125.4525,3.2518,46.1237],[125.4495,3.253,16.1248],[125.4475,3.2497,35.9599],[125.4486,3.2425,13.4273],[125.4463,3.2391,0.0],[125.4482,3.2388,24.8837],[125.4546,3.2315,0.0],[125.4646,3.2338,0.0],[125.4686,3.2367,0.0],[125.4726,3.2438,0.0],[125.4711,3.2448,85.2045],[125.4724,3.2469,0.0],[125.4695,3.2483,87.5929],[125.4656,3.2545,7.5636],[125.4602,3.2543,16.9742]]]]}}