{"type":"Feature","properties":{"GID_3":"IDN.1.20.4_1","GID_0":"IDN","country":"Indonesia","GID_1":"IDN.1_1","province":"Aceh","NL_NAME_1":"NA","GID_2":"IDN.1.20_1","county":"Pidie","NL_NAME_2":"NA","city":"GlumpangBaro","VARNAME_3":"NA","NL_NAME_3":"NA","TYPE_3":"Kecamatan","ENGTYPE_3":"Sub-district","CC_3":"1109071","HASC_3":"NA","name":"Glumpang_Baro.city"},
"geometry":{"type": "MultiPolygon","coordinates": [[[[96.021,5.2642,20.2049],[96.0469,5.2729,7.4678],[96.048,5.2772,9.2916],[96.0517,5.2781,3.4842],[96.0533,5.2857,2.3187],[96.0508,5.2892,1.6465],[96.0521,5.2925,3.1353],[96.0441,5.2947,1.8644],[96.0249,5.2928,7.4547],[96.018,5.2942,7.8875],[96.0124,5.2745,13.7458],[96.0087,5.2685,15.3267],[96.01,5.2639,16.1972],[96.021,5.2642,20.2049]]]]}}