{"type":"Feature","properties":{"GID_3":"IDN.16.3.2_1","GID_0":"IDN","country":"Indonesia","GID_1":"IDN.16_1","province":"KepulauanRiau","NL_NAME_1":"NA","GID_2":"IDN.16.3_1","county":"Karimun","NL_NAME_2":"NA","city":"Durai","VARNAME_3":"NA","NL_NAME_3":"NA","TYPE_3":"Kecamatan","ENGTYPE_3":"Sub-district","CC_3":"2101011","HASC_3":"NA","name":"Durai.city"},
"geometry":{"type": "MultiPolygon","coordinates": [[[[103.6276,0.4802,0.0],[103.6269,0.4807,0.0],[103.6266,0.4806,0.0],[103.6272,0.4798,0.0],[103.6276,0.4802,0.0]]],
[[[103.6313,0.4971,0.0],[103.6296,0.4978,1.5832],[103.6241,0.4883,0.9641],[103.6255,0.4842,2.8265],[103.6298,0.4846,0.4126],[103.6352,0.4905,0.3902],[103.6313,0.4971,0.0]]],
[[[103.6197,0.4911,12.7469],[103.6198,0.4896,0.9533],[103.6213,0.4898,0.0],[103.6233,0.4937,0.0],[103.6209,0.4931,8.4003],[103.6197,0.4911,12.7469]]],
[[[103.6377,0.5045,0.7493],[103.6361,0.508,0.4498],[103.6299,0.5063,1.8731],[103.6329,0.4998,0.0],[103.6355,0.498,0.5291],[103.6397,0.5029,0.0],[103.6377,0.5045,0.7493]]],
[[[103.6081,0.5168,6.3322],[103.6025,0.5257,0.0],[103.602,0.5315,3.1715],[103.5955,0.5316,6.2808],[103.5922,0.5339,0.0],[103.5816,0.5532,4.7394],[103.5785,0.5577,1.2989],[103.5763,0.5581,21.4815],[103.5697,0.5502,9.0046],[103.5761,0.5363,4.0972],[103.5875,0.5291,1.8994],[103.5942,0.5194,7.5883],[103.5962,0.5134,4.9674],[103.5969,0.4959,2.6825],[103.5989,0.4902,0.0],[103.6045,0.4908,0.2444],[103.6076,0.4958,7.1353],[103.6115,0.4967,0.8677],[103.6193,0.495,0.0],[103.6243,0.5048,1.4859],[103.6202,0.5106,0.0],[103.6081,0.5168,6.3322]]],
[[[103.6256,0.512,0.0],[103.6281,0.5099,0.0],[103.6335,0.5112,0.2931],[103.6213,0.5221,0.0],[103.6229,0.5163,7.032],[103.6256,0.512,0.0]]],
[[[103.6369,0.5288,6.2783],[103.6342,0.5358,0.2716],[103.6255,0.5306,1.3919],[103.6219,0.5314,3.2928],[103.6202,0.5258,2.6],[103.6343,0.5151,0.0],[103.637,0.5203,3.0368],[103.6369,0.5288,6.2783]]],
[[[103.6194,0.5333,4.1352],[103.6209,0.5323,0.0],[103.6223,0.5339,0.0],[103.6198,0.5346,3.9788],[103.6194,0.5333,4.1352]]],
[[[103.5688,0.5344,4.0137],[103.571,0.5339,4.7113],[103.5699,0.537,2.1579],[103.5679,0.5366,9.0222],[103.5688,0.5344,4.0137]]],
[[[103.5705,0.537,2.1579],[103.5706,0.5362,2.1579],[103.5715,0.5361,0.0],[103.5714,0.5372,0.0],[103.5705,0.537,2.1579]]],
[[[103.569,0.5399,3.35],[103.5692,0.5387,0.0],[103.5702,0.539,1.1777],[103.5701,0.5403,1.1777],[103.569,0.5399,3.35]]],
[[[103.5672,0.5481,0.0],[103.5623,0.5482,2.6182],[103.5577,0.5432,9.366],[103.5592,0.5388,20.2142],[103.5632,0.5368,0.0],[103.5669,0.5376,4.7584],[103.5695,0.5437,0.0],[103.5672,0.5481,0.0]]],
[[[103.5528,0.5491,0.7461],[103.5535,0.5477,6.2859],[103.5566,0.5484,1.5585],[103.5548,0.5508,1.5833],[103.5528,0.5491,0.7461]]],
[[[103.5531,0.553,1.4158],[103.5534,0.5522,1.4158],[103.5541,0.5524,1.4158],[103.5538,0.5535,1.4158],[103.5531,0.553,1.4158]]],
[[[103.5719,0.5597,4.4187],[103.5737,0.5585,0.0],[103.5747,0.5628,6.5639],[103.5729,0.5633,0.4701],[103.5719,0.5597,4.4187]]],
[[[103.6573,0.5571,0.0],[103.6574,0.5561,1.0035],[103.6579,0.5559,0.0],[103.6582,0.5572,2.2654],[103.6573,0.5571,0.0]]],
[[[103.6554,0.5592,2.8737],[103.6564,0.5582,0.0],[103.6571,0.5587,0.0],[103.6564,0.5603,1.049],[103.6554,0.5592,2.8737]]],
[[[103.6586,0.5699,3.1866],[103.6558,0.5722,0.0],[103.6529,0.5711,0.0],[103.6528,0.5682,0.0],[103.6583,0.5603,3.4928],[103.6602,0.5528,2.3817],[103.6627,0.5525,0.3675],[103.6664,0.5549,0.0],[103.6674,0.5621,0.6329],[103.6644,0.5669,0.4123],[103.6586,0.5699,3.1866]]],
[[[103.6464,0.5709,5.9514],[103.6492,0.5701,0.0],[103.6509,0.5732,2.7813],[103.649,0.5773,0.5888],[103.6462,0.5777,1.5083],[103.645,0.5755,0.0],[103.6464,0.5709,5.9514]]],
[[[103.774,0.5428,16.3565],[103.7764,0.5394,1.217],[103.7814,0.5404,0.0],[103.7733,0.5538,0.0],[103.7731,0.5451,13.9855],[103.774,0.5428,16.3565]]],
[[[103.7741,0.5791,0.0],[103.7727,0.5802,0.0],[103.7709,0.5793,2.8047],[103.7749,0.5748,2.6515],[103.7781,0.5759,0.0],[103.7761,0.5789,0.0],[103.7741,0.5791,0.0]]],
[[[103.7005,0.6071,0.0],[103.698,0.6079,2.3859],[103.6973,0.6062,2.2117],[103.7011,0.6045,0.0],[103.7005,0.6071,0.0]]],
[[[103.7084,0.6121,0.0],[103.7051,0.611,0.0],[103.704,0.6086,1.9394],[103.7052,0.6065,0.8103],[103.712,0.605,0.0],[103.7178,0.6056,0.0],[103.7142,0.6094,4.2362],[103.7084,0.6121,0.0]]],
[[[103.6423,0.5867,1.3016],[103.6447,0.5905,20.8353],[103.6438,0.5918,20.8353],[103.6392,0.5903,10.8764],[103.6383,0.5885,24.0892],[103.6396,0.5864,4.3729],[103.6423,0.5867,1.3016]]],
[[[103.6356,0.5958,0.0],[103.6344,0.5929,0.0],[103.6386,0.5919,0.0],[103.6389,0.5947,0.0],[103.6356,0.5958,0.0]]],
[[[103.6618,0.5978,7.5872],[103.6581,0.5993,1.241],[103.6575,0.5981,0.0],[103.6594,0.5952,0.0],[103.6615,0.5957,10.3447],[103.6618,0.5978,7.5872]]],
[[[103.6688,0.6142,1.2095],[103.6692,0.6135,0.0],[103.6699,0.6143,1.2095],[103.6695,0.6146,1.2095],[103.6688,0.6142,1.2095]]],
[[[103.7025,0.6103,0.0],[103.7026,0.6098,0.0],[103.703,0.6096,0.0],[103.7032,0.6108,0.0],[103.7025,0.6103,0.0]]],
[[[103.6766,0.6093,5.3281],[103.6805,0.6091,0.0],[103.6686,0.6126,0.0],[103.6702,0.6104,0.0],[103.6766,0.6093,5.3281]]],
[[[103.6795,0.6351,10.629],[103.6744,0.6364,6.3341],[103.6719,0.6351,0.0],[103.6739,0.6226,2.5705],[103.6711,0.6176,0.6585],[103.6752,0.6129,1.9234],[103.6829,0.6131,7.3035],[103.6853,0.6103,4.0358],[103.6865,0.6044,0.0],[103.6899,0.6093,2.4465],[103.6937,0.611,2.1678],[103.6995,0.6089,0.0],[103.7018,0.6135,0.0],[103.707,0.6147,3.2061],[103.7049,0.6199,4.3863],[103.698,0.6234,10.0272],[103.6942,0.6275,0.6246],[103.6809,0.633,1.1382],[103.6795,0.6351,10.629]]],
[[[103.761,0.6258,0.0],[103.7598,0.6261,0.0],[103.7573,0.624,0.0],[103.7604,0.6234,0.0],[103.761,0.6258,0.0]]],
[[[103.5657,0.5848,1.6033],[103.5668,0.5845,1.6033],[103.5673,0.5855,0.0],[103.5659,0.5855,0.0],[103.5657,0.5848,1.6033]]],
[[[103.5691,0.5885,1.3823],[103.5712,0.5878,7.8654],[103.5715,0.5896,1.8753],[103.5697,0.59,14.9969],[103.5691,0.5885,1.3823]]],
[[[103.5636,0.5895,7.4142],[103.5649,0.5896,7.4142],[103.5642,0.5912,4.6587],[103.563,0.5903,0.0],[103.5636,0.5895,7.4142]]],
[[[103.6258,0.5364,0.8711],[103.6283,0.5372,0.0],[103.6292,0.5407,0.0],[103.6254,0.5486,6.3825],[103.6239,0.548,1.8294],[103.623,0.5394,9.9343],[103.6258,0.5364,0.8711]]],
[[[103.6293,0.5633,1.1817],[103.6316,0.564,0.7843],[103.6321,0.568,1.4787],[103.6311,0.5679,1.4787],[103.6293,0.5633,1.1817]]],
[[[103.6252,0.643,0.0],[103.6252,0.6398,0.0],[103.6293,0.6395,0.0],[103.6284,0.6427,0.0],[103.6252,0.643,0.0]]],
[[[103.6514,0.6218,12.6109],[103.6462,0.6213,2.7051],[103.636,0.6256,0.0],[103.6324,0.6243,0.0],[103.6353,0.6183,18.6613],[103.6458,0.6123,10.358],[103.6616,0.611,7.4365],[103.6639,0.6138,5.6395],[103.6636,0.6164,2.8842],[103.6542,0.6178,1.7454],[103.6514,0.6218,12.6109]]],
[[[103.642,0.6286,0.579],[103.6426,0.6321,2.4947],[103.6402,0.6351,3.6275],[103.6298,0.6353,10.5716],[103.6292,0.6337,10.6706],[103.6311,0.631,2.4945],[103.6366,0.6316,0.0],[103.642,0.6286,0.579]]],
[[[103.658,0.6324,3.1265],[103.6605,0.6347,1.082],[103.6583,0.6377,1.0923],[103.656,0.6338,8.8828],[103.658,0.6324,3.1265]]],
[[[103.6705,0.6349,0.0],[103.6718,0.6368,5.0658],[103.6705,0.6374,0.0],[103.6695,0.6359,0.0],[103.6705,0.6349,0.0]]]]}}