{"type":"Feature","properties":{"GID_3":"IDN.32.21.7_1","GID_0":"IDN","country":"Indonesia","GID_1":"IDN.32_1","province":"SumateraUtara","NL_NAME_1":"NA","GID_2":"IDN.32.21_1","county":"PadangLawasUtara","NL_NAME_2":"NA","city":"PadangBolak","VARNAME_3":"NA","NL_NAME_3":"NA","TYPE_3":"Kecamatan","ENGTYPE_3":"Sub-district","CC_3":"1220040","HASC_3":"NA","name":"Padang_Bolak.city"},
"geometry":{"type": "MultiPolygon","coordinates": [[[[99.5695,1.345,225.0165],[99.5783,1.3407,161.9473],[99.5805,1.3346,158.4258],[99.5894,1.3317,118.5009],[99.5989,1.3335,115.1947],[99.6097,1.3256,108.5738],[99.617,1.3249,105.4673],[99.6212,1.3281,115.1478],[99.6247,1.3256,117.2723],[99.6256,1.3228,99.5327],[99.6292,1.3226,101.4172],[99.625,1.3338,156.3989],[99.6219,1.338,151.6106],[99.6063,1.3459,121.9927],[99.6043,1.3504,136.459],[99.5824,1.3581,190.8928],[99.5788,1.3605,235.0449],[99.5788,1.3631,209.5206],[99.5802,1.3659,191.2254],[99.6053,1.3759,99.315],[99.6105,1.3844,91.9575],[99.6123,1.3852,98.907],[99.6132,1.3899,88.0186],[99.618,1.3921,87.2271],[99.6144,1.4023,76.4954],[99.6149,1.4073,73.3624],[99.612,1.4092,72.6801],[99.6039,1.409,73.6273],[99.6017,1.4142,75.6813],[99.6015,1.4226,101.5932],[99.6049,1.4352,82.5822],[99.6127,1.4484,102.2672],[99.6316,1.4759,91.2051],[99.6407,1.4842,82.907],[99.6434,1.4886,80.8788],[99.6472,1.4857,84.2136],[99.6435,1.4774,70.6535],[99.6442,1.4754,99.6413],[99.6475,1.4761,73.5388],[99.6506,1.4807,72.2885],[99.6538,1.4823,70.3546],[99.6586,1.4805,71.7285],[99.6586,1.4774,71.7213],[99.6532,1.4713,71.3926],[99.6528,1.4622,74.9935],[99.6588,1.4625,65.2812],[99.6596,1.467,64.4271],[99.6639,1.468,69.2114],[99.6819,1.4639,113.9635],[99.6879,1.4585,102.4605],[99.6959,1.456,101.2732],[99.6978,1.4534,100.3526],[99.6982,1.4492,103.4263],[99.7071,1.4422,96.834],[99.7135,1.4416,109.5707],[99.7219,1.4362,113.0119],[99.7358,1.4354,121.2388],[99.7397,1.4311,107.6192],[99.752,1.4275,107.6892],[99.7711,1.4428,86.5541],[99.7913,1.4618,67.1996],[99.8169,1.4802,60.5854],[99.8376,1.4976,61.5461],[99.8444,1.5076,60.6558],[99.8461,1.5194,69.8323],[99.8489,1.5243,67.9095],[99.8708,1.5344,70.5961],[99.866,1.5372,66.7367],[99.8588,1.5384,68.0788],[99.8373,1.5379,49.7081],[99.8156,1.5354,58.0061],[99.7953,1.5284,67.5127],[99.7757,1.5255,77.1202],[99.7418,1.5358,72.5899],[99.6857,1.5564,119.6795],[99.6699,1.5791,245.6935],[99.6676,1.5859,303.5142],[99.6676,1.6071,251.0186],[99.6656,1.6229,276.1117],[99.661,1.6361,149.4977],[99.6435,1.6413,177.9242],[99.6422,1.643,199.8065],[99.6327,1.6411,237.9742],[99.6206,1.6467,489.4303],[99.6119,1.6548,819.7332],[99.6073,1.6567,868.9048],[99.6014,1.6678,781.4215],[99.6019,1.6886,932.0527],[99.5987,1.7064,676.3903],[99.6014,1.7259,677.7787],[99.6003,1.7359,581.1381],[99.5915,1.7481,486.5017],[99.5788,1.753,735.0145],[99.568,1.7549,1023.1232],[99.5659,1.7567,1115.3833],[99.5582,1.7502,1345.0178],[99.5519,1.7417,996.1044],[99.5524,1.7372,959.5081],[99.5509,1.7341,942.3429],[99.553,1.73,804.2797],[99.5494,1.7236,543.1519],[99.5504,1.7171,442.0195],[99.5388,1.7176,388.0013],[99.5376,1.7212,407.0482],[99.5332,1.7247,408.8484],[99.5224,1.7261,456.4447],[99.5186,1.7288,502.4402],[99.5106,1.7259,500.9265],[99.506,1.7218,525.9832],[99.5022,1.7147,569.0438],[99.4893,1.7094,735.9944],[99.4774,1.7022,694.7073],[99.4733,1.6964,734.4244],[99.4714,1.6879,775.6102],[99.4681,1.6839,796.7744],[99.465,1.6726,1029.3181],[99.4592,1.6697,1130.4507],[99.4428,1.6668,1482.4431],[99.4391,1.6633,1354.7906],[99.4353,1.655,1159.2683],[99.4372,1.6468,957.8078],[99.44,1.6438,880.67],[99.4492,1.6422,788.8004],[99.4558,1.6345,738.3759],[99.4597,1.6265,695.0653],[99.4587,1.6225,621.6295],[99.4627,1.6142,620.5481],[99.4625,1.6111,557.1516],[99.4737,1.6022,573.8112],[99.4974,1.5876,472.0955],[99.51,1.5682,390.0629],[99.5108,1.5643,314.6702],[99.5217,1.5564,223.5114],[99.5274,1.5457,230.3836],[99.5319,1.5232,240.5507],[99.5286,1.5112,281.4877],[99.5112,1.4879,162.2377],[99.5031,1.4586,150.4344],[99.5054,1.4561,159.9336],[99.5045,1.4537,172.8205],[99.5101,1.4477,129.9724],[99.5209,1.4469,130.485],[99.524,1.4424,116.6143],[99.5264,1.4419,120.5059],[99.5276,1.4435,114.6696],[99.5318,1.4369,121.4521],[99.5359,1.4103,133.6654],[99.5346,1.4,105.5386],[99.5379,1.3891,113.0294],[99.5379,1.3827,120.5978],[99.562,1.3598,193.0495],[99.5638,1.346,223.3472],[99.5695,1.345,225.0165]]]]}}