{"type":"Feature","properties":{"GID_3":"IDN.10.33.4_1","GID_0":"IDN","country":"Indonesia","GID_1":"IDN.10_1","province":"JawaTengah","NL_NAME_1":"NA","GID_2":"IDN.10.33_1","county":"Temanggung","NL_NAME_2":"NA","city":"Candiroto","VARNAME_3":"NA","NL_NAME_3":"NA","TYPE_3":"Kecamatan","ENGTYPE_3":"Sub-district","CC_3":"3323120","HASC_3":"NA","name":"Candiroto.city"},
"geometry":{"type": "MultiPolygon","coordinates": [[[[110.0078,-7.294,2467.5327],[110.0049,-7.2909,2379.3599],[110.0096,-7.2893,2211.7725],[110.0042,-7.2835,2047.7551],[110.0032,-7.2681,1685.1418],[110.006,-7.2621,1508.2848],[110.0223,-7.2457,1147.834],[110.0267,-7.2383,1055.2819],[110.031,-7.2362,999.3942],[110.0336,-7.2324,972.6468],[110.0427,-7.2253,905.3028],[110.043,-7.2228,888.8865],[110.0552,-7.2183,840.8571],[110.0594,-7.2149,819.2964],[110.0656,-7.2151,791.1047],[110.0722,-7.211,782.7021],[110.074,-7.2052,870.3589],[110.0724,-7.1957,790.8284],[110.0779,-7.1949,764.2502],[110.0835,-7.1971,843.4274],[110.0867,-7.1966,955.8965],[110.0893,-7.1949,969.0613],[110.0908,-7.1885,830.0779],[110.1029,-7.1914,712.6049],[110.1059,-7.1894,754.0127],[110.1066,-7.1859,656.9332],[110.111,-7.1822,576.5386],[110.1109,-7.1764,461.668],[110.1138,-7.175,400.1808],[110.1154,-7.1632,317.931],[110.1197,-7.161,318.4462],[110.1216,-7.1479,419.4097],[110.1198,-7.1409,341.2979],[110.1167,-7.1433,385.0622],[110.1108,-7.1422,392.4049],[110.1091,-7.1435,408.9781],[110.1079,-7.1424,423.3555],[110.106,-7.1446,451.1366],[110.1038,-7.1438,430.2767],[110.1035,-7.1461,452.2475],[110.1022,-7.1453,471.8059],[110.0957,-7.1475,521.5154],[110.0929,-7.1516,552.0433],[110.0842,-7.1524,536.8351],[110.0828,-7.1554,561.126],[110.0776,-7.1529,631.4785],[110.074,-7.1546,674.9313],[110.0701,-7.1639,693.2344],[110.0577,-7.1623,736.3086],[110.0496,-7.1673,810.191],[110.0489,-7.1705,774.5908],[110.0465,-7.1724,855.4561],[110.0462,-7.1851,753.269],[110.0523,-7.184,757.5183],[110.0555,-7.1865,736.4856],[110.0554,-7.1885,734.1592],[110.0474,-7.1933,773.6484],[110.0478,-7.2015,821.8213],[110.0425,-7.205,806.7479],[110.0405,-7.2114,857.6741],[110.0365,-7.215,890.534],[110.0371,-7.2162,867.0667],[110.032,-7.2188,903.9397],[110.0247,-7.2285,979.832],[110.0241,-7.2333,1040.3436],[110.0182,-7.2358,1089.5616],[110.0176,-7.2403,1115.8394],[110.0,-7.2443,1529.0294],[109.9881,-7.2437,1700.384],[109.9819,-7.2411,1871.6171],[109.9748,-7.245,1988.814],[109.9773,-7.2457,1948.9888],[109.9948,-7.261,1733.0306],[109.9956,-7.2659,1668.5975],[109.9981,-7.2683,1687.3455],[109.9943,-7.2814,2134.8804],[109.9945,-7.2885,2447.689],[109.9964,-7.2919,2662.5312],[109.9962,-7.3068,2796.0413],[109.9984,-7.3135,2388.9551],[110.002,-7.3162,2192.1155],[110.0008,-7.3114,2429.269],[110.0049,-7.3045,2639.439],[110.0093,-7.3014,2483.7795],[110.0078,-7.294,2467.5327]]]]}}