{"type":"Feature","properties":{"GID_3":"IDN.24.9.7_1","GID_0":"IDN","country":"Indonesia","GID_1":"IDN.24_1","province":"Riau","NL_NAME_1":"NA","GID_2":"IDN.24.9_1","county":"Pelalawan","NL_NAME_2":"NA","city":"PangkalanKerinci","VARNAME_3":"NA","NL_NAME_3":"NA","TYPE_3":"Kecamatan","ENGTYPE_3":"Sub-district","CC_3":"1404011","HASC_3":"NA","name":"Pangkalan_Kerinci.city"},
"geometry":{"type": "MultiPolygon","coordinates": [[[[101.7836,0.3281,4.5357],[101.7569,0.304,5.6714],[101.7657,0.2963,9.037],[101.7747,0.2967,9.0669],[101.78,0.3006,7.5122],[101.7873,0.3031,4.0407],[101.7978,0.3017,4.2079],[101.7996,0.2999,5.1443],[101.8009,0.2899,5.8479],[101.8044,0.2808,8.5133],[101.8123,0.2749,4.8694],[101.8311,0.2685,7.7978],[101.8501,0.2723,8.2119],[101.882,0.2753,6.5234],[101.8815,0.2825,5.868],[101.8787,0.2882,8.0375],[101.888,0.2974,9.1131],[101.8889,0.3076,9.4571],[101.8868,0.3156,8.4344],[101.8928,0.3164,7.3358],[101.9035,0.3226,6.9759],[101.9081,0.3388,5.187],[101.9172,0.3432,6.4461],[101.918,0.3457,4.7005],[101.9142,0.3528,3.9559],[101.9087,0.3556,2.0],[101.9039,0.3558,2.6178],[101.9011,0.353,10.7007],[101.8995,0.3472,4.3622],[101.8959,0.347,10.4203],[101.8951,0.3493,13.5852],[101.8983,0.3524,12.151],[101.8998,0.3571,3.8992],[101.8969,0.3567,9.1062],[101.8924,0.3604,5.9874],[101.891,0.3681,5.7392],[101.8903,0.3817,5.3471],[101.8934,0.3941,16.1381],[101.902,0.4083,7.1323],[101.9121,0.4158,13.6552],[101.9104,0.4236,13.8135],[101.9121,0.4393,8.0203],[101.9112,0.445,8.2947],[101.8673,0.4435,32.3023],[101.8674,0.4833,42.5469],[101.8451,0.4915,52.3419],[101.8417,0.4951,53.2937],[101.8433,0.4828,61.3918],[101.8499,0.4752,48.2432],[101.8443,0.4496,36.1725],[101.8366,0.4363,31.0071],[101.8194,0.4327,32.6474],[101.815,0.4301,41.5564],[101.8128,0.4245,27.4123],[101.7985,0.4177,37.6955],[101.7947,0.4085,41.2857],[101.8119,0.3989,32.5692],[101.8056,0.3787,13.937],[101.8067,0.3762,21.1005],[101.8138,0.3736,9.125],[101.8039,0.3448,5.8635],[101.7836,0.3281,4.5357]]],
[[[101.7941,0.4076,41.2857],[101.7943,0.4075,41.2857],[101.7947,0.4085,41.2857],[101.7942,0.4077,41.2857],[101.7941,0.4076,41.2857]]]]}}