{"type":"Feature","properties":{"GID_3":"IDN.32.18.17_1","GID_0":"IDN","country":"Indonesia","GID_1":"IDN.32_1","province":"SumateraUtara","NL_NAME_1":"NA","GID_2":"IDN.32.18_1","county":"NiasSelatan","NL_NAME_2":"NA","city":"TelukDalam","VARNAME_3":"NA","NL_NAME_3":"NA","TYPE_3":"Kecamatan","ENGTYPE_3":"Sub-district","CC_3":"1214030","HASC_3":"NA","name":"Teluk_Dalam.city"},
"geometry":{"type": "MultiPolygon","coordinates": [[[[97.8259,0.5664,0.809],[97.8297,0.5648,0.0],[97.8323,0.5655,4.6144],[97.8294,0.5598,0.0],[97.8367,0.5584,0.0],[97.8381,0.5624,47.2054],[97.8367,0.5702,0.0],[97.8454,0.5741,5.675],[97.8527,0.5883,8.2384],[97.8604,0.5949,3.5856],[97.8633,0.5952,0.0],[97.8688,0.599,12.7311],[97.8786,0.6012,6.7772],[97.884,0.6063,0.0],[97.8663,0.6204,161.6213],[97.8569,0.6222,212.2609],[97.8612,0.6242,179.1316],[97.8581,0.6268,199.0981],[97.856,0.6335,278.299],[97.8565,0.6407,302.19],[97.8645,0.6603,244.1717],[97.8661,0.6697,173.6658],[97.8589,0.6738,167.0903],[97.8453,0.6702,358.1776],[97.8334,0.6729,219.1214],[97.833,0.6664,247.619],[97.8296,0.6602,325.7817],[97.8238,0.6549,294.5135],[97.819,0.6545,342.2608],[97.8165,0.6499,228.9971],[97.8215,0.6339,98.149],[97.8107,0.6258,186.2185],[97.7988,0.6248,232.1669],[97.8071,0.6186,186.3117],[97.809,0.612,150.1325],[97.8066,0.6031,99.8989],[97.8045,0.6033,83.5513],[97.8012,0.5992,57.0198],[97.7859,0.6006,99.7963],[97.7893,0.5934,21.6917],[97.7913,0.5925,16.9399],[97.792,0.5938,21.8063],[97.7955,0.5907,18.4406],[97.7926,0.5845,9.3705],[97.7937,0.5838,12.5327],[97.7918,0.5826,12.101],[97.794,0.5811,11.532],[97.7934,0.5794,12.8864],[97.7964,0.5785,20.6747],[97.7979,0.5746,24.3161],[97.7963,0.5713,8.4787],[97.7973,0.5713,8.4787],[97.7969,0.5687,6.6114],[97.7958,0.5704,11.1121],[97.7928,0.5707,8.3823],[97.7956,0.5676,6.6114],[97.7935,0.5617,3.2761],[97.7956,0.5594,10.2361],[97.7937,0.5564,2.3803],[97.7946,0.5515,0.0],[97.7973,0.5503,0.0],[97.7994,0.5517,0.0],[97.798,0.5558,0.0],[97.7989,0.5578,4.2371],[97.8038,0.5596,5.4942],[97.8074,0.551,2.5054],[97.8149,0.5452,0.0],[97.821,0.5433,0.0],[97.8271,0.5443,11.432],[97.8278,0.5462,7.6752],[97.8259,0.5468,36.1613],[97.8216,0.5532,30.2771],[97.822,0.5548,5.354],[97.8216,0.5553,5.354],[97.8202,0.5548,5.354],[97.8182,0.5583,0.0],[97.821,0.5627,3.0903],[97.8197,0.5677,4.9253],[97.8259,0.5664,0.809]]]]}}