{"type":"Feature","properties":{"GID_3":"IDN.21.1.17_1","GID_0":"IDN","country":"Indonesia","GID_1":"IDN.21_1","province":"NusaTenggaraTimur","NL_NAME_1":"NA","GID_2":"IDN.21.1_1","county":"Alor","NL_NAME_2":"NA","city":"TelukMutiara","VARNAME_3":"NA","NL_NAME_3":"NA","TYPE_3":"Kecamatan","ENGTYPE_3":"Sub-district","CC_3":"5307050","HASC_3":"NA","name":"Teluk_Mutiara.city"},
"geometry":{"type": "MultiPolygon","coordinates": [[[[124.5581,-8.2795,175.6888],[124.5581,-8.2831,285.9318],[124.5615,-8.2854,266.0097],[124.565,-8.2919,487.1891],[124.5744,-8.2722,277.4059],[124.5888,-8.2602,806.8448],[124.5872,-8.2576,795.6597],[124.5899,-8.2436,614.3112],[124.6,-8.2324,636.5148],[124.6026,-8.2158,153.8573],[124.5914,-8.2176,85.1999],[124.5801,-8.2146,23.5351],[124.5728,-8.2104,49.7666],[124.572,-8.2082,36.9457],[124.5761,-8.207,37.9364],[124.5756,-8.2043,142.3669],[124.5681,-8.2023,219.8369],[124.5474,-8.2017,264.5827],[124.545,-8.1988,185.953],[124.526,-8.2015,130.2909],[124.5226,-8.193,337.6403],[124.5213,-8.1749,671.46],[124.5124,-8.1772,689.0112],[124.509,-8.1824,659.5031],[124.5096,-8.1857,615.8041],[124.5052,-8.1927,598.9669],[124.5117,-8.1994,301.0125],[124.5136,-8.207,136.0831],[124.5071,-8.213,123.5946],[124.5024,-8.2136,121.7595],[124.4952,-8.2062,339.8333],[124.4863,-8.1841,628.1385],[124.484,-8.1852,623.9535],[124.4784,-8.1979,690.505],[124.4615,-8.213,866.3708],[124.463,-8.2244,581.1284],[124.4696,-8.2306,437.0577],[124.4706,-8.2416,8.308],[124.4767,-8.2396,0.0],[124.4896,-8.2307,45.4123],[124.4931,-8.23,2.596],[124.4936,-8.2316,0.0],[124.4963,-8.2317,0.0],[124.4999,-8.229,1.8825],[124.504,-8.2207,20.6757],[124.5084,-8.2247,0.0],[124.5139,-8.2186,5.0468],[124.5191,-8.2208,0.936],[124.5239,-8.2184,4.6784],[124.533,-8.2176,8.4928],[124.5366,-8.2225,6.3854],[124.5408,-8.2243,6.483],[124.5474,-8.2228,3.5223],[124.5487,-8.2173,5.6792],[124.5566,-8.2136,3.1348],[124.5596,-8.2179,0.0],[124.564,-8.2181,5.9423],[124.5615,-8.2212,1.5571],[124.5552,-8.2236,0.9065],[124.5502,-8.2232,1.568],[124.5421,-8.228,0.0],[124.5426,-8.2331,0.0],[124.5406,-8.2379,0.0],[124.5352,-8.2379,0.0],[124.5338,-8.2398,12.5428],[124.5287,-8.2402,0.0],[124.5278,-8.2442,7.8172],[124.5322,-8.2472,12.7388],[124.5324,-8.2518,28.043],[124.5355,-8.254,28.3388],[124.5385,-8.2629,53.9101],[124.5436,-8.2666,92.1915],[124.5465,-8.2652,93.325],[124.5463,-8.2697,102.0141],[124.5496,-8.2698,98.3643],[124.5518,-8.2731,197.7757],[124.5557,-8.2741,133.1319],[124.5533,-8.2758,143.6866],[124.5581,-8.2795,175.6888]]],
[[[124.559,-8.2202,1.0132],[124.5615,-8.22,1.5571],[124.5595,-8.2186,0.0],[124.5579,-8.2195,0.0],[124.559,-8.2202,1.0132]]]]}}