{"type":"Feature","properties":{"GID_3":"IDN.28.10.2_1","GID_0":"IDN","country":"Indonesia","GID_1":"IDN.28_1","province":"SulawesiTenggara","NL_NAME_1":"NA","GID_2":"IDN.28.10_1","county":"Konawe","NL_NAME_2":"NA","city":"Amonggedo","VARNAME_3":"NA","NL_NAME_3":"NA","TYPE_3":"Kecamatan","ENGTYPE_3":"Sub-district","CC_3":"7403142","HASC_3":"NA","name":"Amonggedo.city"},
"geometry":{"type": "MultiPolygon","coordinates": [[[[122.2819,-3.9453,40.0193],[122.3182,-3.8696,297.8391],[122.314,-3.8686,267.4082],[122.3121,-3.8628999999999998,286.0282],[122.3107,-3.8372,418.9588],[122.3075,-3.8326,309.8486],[122.2045,-3.838,37.5853],[122.2206,-3.855,41.8371],[122.2185,-3.858,40.3803],[122.1953,-3.8665,38.2259],[122.1838,-3.9039,28.4496],[122.2063,-3.9274,29.6936],[122.2213,-3.931,28.6827],[122.2286,-3.9507,23.7621],[122.2798,-3.9503,36.4589],[122.2819,-3.9453,40.0193]]]]}}