{"type":"Feature","properties":{"GID_3":"IDN.26.13.3_1","GID_0":"IDN","country":"Indonesia","GID_1":"IDN.26_1","province":"SulawesiSelatan","NL_NAME_1":"NA","GID_2":"IDN.26.13_1","county":"Maros","NL_NAME_2":"NA","city":"Camba","VARNAME_3":"NA","NL_NAME_3":"NA","TYPE_3":"Kecamatan","ENGTYPE_3":"Sub-district","CC_3":"7308060","HASC_3":"NA","name":"Camba.city"},
"geometry":{"type": "MultiPolygon","coordinates": [[[[119.8877,-4.973,591.419],[119.884,-4.9622,392.0723],[119.8861,-4.9612,382.0321],[119.8853,-4.9587,369.261],[119.8895,-4.9529,334.2056],[119.8889,-4.9509,335.6928],[119.8919,-4.9475,312.4862],[119.8915,-4.9453,306.8021],[119.8948,-4.9436,304.5555],[119.8964,-4.9447,322.2136],[119.8974,-4.9422,330.613],[119.9006,-4.9419,301.463],[119.9006,-4.9396,296.9486],[119.8948,-4.9386,335.0959],[119.898,-4.9337,275.6636],[119.8967,-4.9298,265.1186],[119.8944,-4.9308,300.6315],[119.8946,-4.9275,304.2695],[119.8961,-4.9205,264.0059],[119.8992,-4.9191,251.2671],[119.8971,-4.916,289.7354],[119.9004,-4.9166,248.8985],[119.9032,-4.914,262.149],[119.8927,-4.9073,385.4233],[119.8876,-4.9007,256.3367],[119.8816,-4.8963,294.9911],[119.8766,-4.8959,476.0496],[119.8639,-4.8814,724.2938],[119.865,-4.8728,665.2236],[119.8619,-4.8684,552.3921],[119.8642,-4.8626,351.7986],[119.8608,-4.8531,580.0726],[119.8616,-4.8486,700.2894],[119.8554,-4.8483,802.1309],[119.8525,-4.8507,881.7703],[119.8439,-4.8521,894.6538],[119.8375,-4.8571,903.9371],[119.8277,-4.8557,999.8613],[119.8199,-4.8501,943.4919],[119.8148,-4.8494,874.4968],[119.8011,-4.8549,801.1165],[119.799,-4.8606,837.0208],[119.7941,-4.8655,685.6754],[119.7937,-4.8679,663.3895],[119.7983,-4.8714,642.6407],[119.7976,-4.8747,693.6695],[119.8047,-4.8863,797.1567],[119.8002,-4.9066,871.839],[119.8018,-4.9099,866.2056],[119.8003,-4.9134,781.0299],[119.8054,-4.9241,940.0127],[119.8027,-4.9267,952.0746],[119.7981,-4.9239,900.0731],[119.7928,-4.9271,949.8265],[119.7861,-4.9276,895.7603],[119.7838,-4.9295,870.2927],[119.7865,-4.9341,842.6262],[119.7969,-4.9403,626.1179],[119.8006,-4.9402,557.0405],[119.8088,-4.9449,436.8432],[119.8115,-4.9523,350.1061],[119.8164,-4.9484,344.6252],[119.8218,-4.9581,642.2011],[119.8224,-4.9623,756.9625],[119.8294,-4.9652,609.522],[119.8397,-4.9665,472.8985],[119.846,-4.975,584.4135],[119.8541,-4.9789,589.8986],[119.8616,-4.9798,873.0032],[119.8838,-4.9929,1055.55],[119.8882,-4.9803,803.6771],[119.8877,-4.973,591.419]]]]}}