{"type":"Feature","properties":{"GID_2":"IDN.8.1_1","GID_0":"IDN","country":"Indonesia","GID_1":"IDN.8_1","province":"Jambi","NL_NAME_1":"NA","county":"BatangHari","VARNAME_2":"NA","NL_NAME_2":"NA","TYPE_2":"Kabupaten","ENGTYPE_2":"Regency","CC_2":"1504","HASC_2":"ID.JA.BA","name":"Batang_Hari.county"},
"geometry":{"type": "MultiPolygon","coordinates": [[[[103.3146,-1.8753,57.7501],[103.3147,-1.8685,63.2374],[103.3955,-1.8687,43.3078],[103.3988,-1.8631,41.5273],[103.3982,-1.834,45.9429],[103.3998,-1.8262,31.2065],[103.4151,-1.8175,17.8834],[103.4292,-1.8126,14.5395],[103.43,-1.8101,23.3313],[103.4223,-1.7861,31.9119],[103.4172,-1.7784,29.659],[103.4012,-1.7668,43.1526],[103.396,-1.7576,35.5819],[103.3985,-1.7386,55.9462],[103.4009,-1.7324,46.3387],[103.4003,-1.727,53.894],[103.3969,-1.7201,66.1221],[103.3979,-1.713,72.798],[103.4119,-1.7009,64.4503],[103.4145,-1.6918,48.8724],[103.4185,-1.6855,58.1737],[103.4177,-1.6743,48.5202],[103.4191,-1.664,43.1442],[103.4163,-1.6585,30.9334],[103.4163,-1.6496,33.9586],[103.4148,-1.644,41.596],[103.3863,-1.6443,27.0206],[103.3863,-1.6409,32.687],[103.3881,-1.632,32.985],[103.4144,-1.6322,33.4022],[103.4243,-1.6215,25.9201],[103.4169,-1.616,12.8392],[103.4188,-1.6127,6.5344],[103.4178,-1.6085,8.6974],[103.4217,-1.6051,7.9157],[103.4355,-1.6025,10.9225],[103.439,-1.5988,11.6242],[103.4442,-1.6008,11.6463],[103.4493,-1.5992,12.3816],[103.4486,-1.5942,14.7009],[103.4558,-1.5878,14.1836],[103.4515,-1.5828,19.2927],[103.452,-1.5778,20.6179],[103.4478,-1.5684,14.9354],[103.4532,-1.5649,15.5298],[103.4566,-1.559,10.0498],[103.4657,-1.5353,11.982],[103.4664,-1.5294,16.23],[103.4647,-1.5241,8.8275],[103.4567,-1.5157,9.8407],[103.457,-1.5064,9.4373],[103.4595,-1.4999,11.5831],[103.4592,-1.4918,16.4387],[103.4571,-1.4899,13.4645],[103.4521,-1.4895,7.4375],[103.4584,-1.4799,5.5],[103.4625,-1.4765,6.3411],[103.4687,-1.4744,5.5],[103.4678,-1.4712,16.4391],[103.4599,-1.4718,11.8627],[103.4594,-1.4695,11.8543],[103.4515,-1.4676,13.5491],[103.4457,-1.4696,11.3834],[103.4466,-1.4725,9.7351],[103.4444,-1.476,9.0567],[103.4434,-1.4716,8.7918],[103.4388,-1.4734,9.077],[103.4363,-1.4681,12.7042],[103.4342,-1.4692,9.2851],[103.4324,-1.4666,10.7832],[103.4247,-1.4749,9.5969],[103.4157,-1.4759,20.9078],[103.4106,-1.4727,14.9992],[103.4011,-1.4725,28.8398],[103.3955,-1.4748,21.975],[103.3911,-1.4819,12.6205],[103.3881,-1.4829,16.313],[103.3835,-1.4812,13.5198],[103.3809,-1.4734,14.9778],[103.3757,-1.4651,17.925],[103.3715,-1.4626,25.781],[103.3663,-1.4509,18.8561],[103.3538,-1.443,21.0934],[103.3541,-1.4344,15.457],[103.3458,-1.4138,17.7775],[103.3477,-1.4028,20.5235],[103.3426,-1.3981,28.7875],[103.3419,-1.3886,20.1842],[103.3369,-1.3815,23.1203],[103.3399,-1.3767,26.7717],[103.3389,-1.3718,42.2285],[103.3316,-1.3655,34.1663],[103.3236,-1.3662,33.3212],[103.3191,-1.3683,33.3399],[103.3142,-1.365,30.9899],[103.3125,-1.3586,42.1273],[103.309,-1.3539,32.1696],[103.2951,-1.3498,33.716],[103.293,-1.3527,32.299],[103.2604,-1.3539,47.8499],[103.2582,-1.3558,62.5429],[103.254,-1.3734,52.5262],[103.2501,-1.3823,52.6891],[103.2503,-1.3856,55.9189],[103.2548,-1.3933,75.7271],[103.2598,-1.3977,65.5259],[103.2656,-1.399,52.8531],[103.2668,-1.4017,59.6617],[103.2658,-1.4057,57.6509],[103.2584,-1.4087,63.518],[103.2539,-1.4084,67.601],[103.2444,-1.3955,72.7338],[103.2175,-1.3781,74.0352],[103.2156,-1.374,86.9752],[103.216,-1.365,64.5661],[103.2054,-1.3555,55.1253],[103.1948,-1.3672,64.6118],[103.1753,-1.3784,49.282],[103.1675,-1.3865,73.1799],[103.1629,-1.384,60.3406],[103.156,-1.3765,49.5334],[103.149,-1.3739,55.9338],[103.1485,-1.3685,52.6872],[103.1462,-1.3684,57.0774],[103.137,-1.3805,67.0042],[103.128,-1.3892,49.3272],[103.12,-1.3915,53.314],[103.1195,-1.3975,78.7457],[103.1178,-1.3996,88.9879],[103.079,-1.393,102.1225],[103.0654,-1.3884,137.3536],[103.0598,-1.3885,138.5055],[103.0637,-1.3953,93.7166],[103.07,-1.3987,145.699],[103.071,-1.404,151.9031],[103.0659,-1.4094,93.3602],[103.0542,-1.4126,97.3489],[103.0519,-1.4157,84.8102],[103.0537,-1.4226,82.4849],[103.0513,-1.4332,85.3146],[103.0475,-1.436,75.9171],[103.0435,-1.4508,100.0318],[103.0392,-1.4521,101.0672],[103.0353,-1.4519,116.7301],[103.0317,-1.4477,83.9909],[103.0306,-1.4391,71.2134],[103.0283,-1.4369,67.9271],[103.0212,-1.4363,109.8629],[103.0118,-1.4393,76.2769],[103.0102,-1.4348,73.96],[102.9969,-1.4309,93.0424],[102.9883,-1.4232,73.9796],[102.9816,-1.4213,69.2913],[102.972,-1.4236,68.4861],[102.9614,-1.4202,83.1605],[102.9543,-1.4105,79.1701],[102.9462,-1.4059,77.1819],[102.9324,-1.3906,75.0272],[102.9211,-1.3814,80.4179],[102.901,-1.3776,76.6851],[102.893,-1.3697,67.3948],[102.8675,-1.3709,58.1038],[102.8677,-1.3768,70.6411],[102.8638,-1.3789,67.4062],[102.859,-1.3775,68.5392],[102.8575,-1.3801,66.4511],[102.8607,-1.3854,69.2475],[102.8578,-1.3891,72.2084],[102.8475,-1.3854,69.0997],[102.8448,-1.386,75.2846],[102.8346,-1.3977,72.293],[102.8263,-1.3948,80.6108],[102.8236,-1.3957,77.61],[102.822,-1.399,81.7893],[102.8226,-1.4181,126.5987],[102.819,-1.4226,151.2382],[102.8136,-1.4232,242.9788],[102.8121,-1.4259,252.657],[102.8174,-1.4451,197.2724],[102.8248,-1.4526,157.4506],[102.8229,-1.4676,72.3928],[102.8231,-1.4988,91.5697],[102.8125,-1.523,100.5237],[102.8023,-1.5395,96.8441],[102.8023,-1.5565,81.9358],[102.8039,-1.5605,78.0665],[102.8053,-1.5785,72.8839],[102.7832,-1.6194,35.9334],[102.7819,-1.6333,36.0461],[102.779,-1.6371,33.6271],[102.771,-1.6415,29.814],[102.7584,-1.6664,20.4486],[102.75,-1.6748,26.4284],[102.7492,-1.6776,24.8918],[102.746,-1.6793,28.6985],[102.7466,-1.6852,21.3331],[102.7419,-1.692,31.7874],[102.737,-1.6947,37.6216],[102.7363,-1.6915,24.4932],[102.7335,-1.6907,25.5822],[102.7339,-1.6871,32.3588],[102.7316,-1.6872,33.911],[102.7304,-1.6896,30.0431],[102.7319,-1.6963,30.0055],[102.7273,-1.7009,29.8122],[102.727,-1.7044,27.567],[102.7242,-1.702,33.7122],[102.7216,-1.7048,23.2809],[102.7186,-1.7023,24.6591],[102.7159,-1.7057,25.508],[102.7132,-1.7035,26.0326],[102.7065,-1.7045,33.998],[102.7062,-1.7066,27.1241],[102.7125,-1.7131,30.3465],[102.714,-1.7182,28.4342],[102.7105,-1.716,32.7846],[102.7095,-1.7204,28.8575],[102.7069,-1.723,34.8416],[102.6985,-1.7219,32.2844],[102.6957,-1.7242,26.2448],[102.6959,-1.728,32.1228],[102.687,-1.745,45.4441],[102.688,-1.7666,48.8549],[102.687,-1.7739,51.3547],[102.678,-1.7876,51.7985],[102.6688,-1.7967,59.4709],[102.6639,-1.8128,54.5413],[102.6585,-1.8206,61.3478],[102.6346,-1.8349,57.2308],[102.6271,-1.8432,72.6638],[102.6155,-1.8603,65.8707],[102.5975,-1.876,70.8442],[102.5851,-1.8816,80.8574],[102.5634,-1.8806,87.4097],[102.5377,-1.8638,80.2975],[102.5207,-1.8573,105.9581],[102.5099,-1.8662,98.9742],[102.5081,-1.871,89.3206],[102.5099,-1.8903,86.7818],[102.5081,-1.898,78.7418],[102.5097,-1.912,114.5359],[102.5174,-1.9156,75.0372],[102.5229,-1.9149,72.4556],[102.5357,-1.9086,98.3951],[102.5403,-1.9087,102.9134],[102.5569,-1.9162,104.7835],[102.5627,-1.9173,90.7196],[102.5903,-1.9102,81.92],[102.5952,-1.9102,95.35],[102.6077,-1.9129,90.9316],[102.6404,-1.9249,115.1545],[102.6461,-1.9233,179.7952],[102.6523,-1.9246,228.5862],[102.6741,-1.9344,231.9258],[102.6796,-1.9395,246.6811],[102.6967,-1.9451,293.6933],[102.7052,-1.9518,338.2071],[102.7064,-1.9564,204.7629],[102.7117,-1.9596,312.5753],[102.7153,-1.9598,338.8329],[102.7208,-1.9571,303.1288],[102.7326,-1.9492,262.5737],[102.7446,-1.9509,94.6429],[102.7504,-1.9543,89.7718],[102.761,-1.9501,80.7483],[102.7773,-1.9473,81.2243],[102.7966,-1.955,84.2474],[102.8146,-1.949,80.5968],[102.8166,-1.9496,74.8819],[102.8206,-1.9691,93.6937],[102.8195,-1.9739,64.7885],[102.8153,-1.9777,63.9813],[102.8114,-1.9925,99.3736],[102.8223,-2.0014,80.3065],[102.8429,-2.0024,60.0513],[102.8582,-2.0094,55.2642],[102.871,-2.0063,59.3039],[102.8772,-2.0073,61.8488],[102.8856,-2.005,61.6146],[102.9048,-2.005,52.2778],[102.9097,-2.0013,64.6752],[102.9118,-1.9848,65.2091],[102.9144,-1.9822,64.1357],[102.9194,-1.9836,70.3331],[102.9285,-1.9822,66.3483],[102.9306,-1.9854,49.6212],[102.9399,-1.9858,48.8233],[102.9463,-1.9825,49.1516],[102.9612,-1.9645,22.582],[102.9649,-1.9552,25.6684],[102.9794,-1.9434,38.0466],[103.0019,-1.9498,48.0698],[103.0145,-1.9462,51.7634],[103.0155,-1.9431,56.132],[103.0195,-1.9413,50.7965],[103.0258,-1.9426,59.0652],[103.0418,-1.9376,59.9111],[103.0514,-1.9375,65.9488],[103.0639,-1.9406,65.1726],[103.0742,-1.9508,63.532],[103.0835,-1.9553,58.4218],[103.1233,-1.9577,73.7435],[103.1565,-1.9558,89.8747],[103.1642,-1.9535,86.414],[103.1786,-1.9449,73.4184],[103.1954,-1.9376,49.2257],[103.1956,-1.9438,64.9014],[103.1935,-1.9475,65.0054],[103.1637,-1.9762,69.9539],[103.1607,-1.9814,73.3868],[103.1595,-1.997,74.3436],[103.1605,-2.0172,92.3646],[103.1635,-2.0248,102.579],[103.1755,-2.04,100.6111],[103.2011,-2.0614,90.5198],[103.2113,-2.0811,93.0868],[103.2151,-2.091,102.7442],[103.216,-2.1028,85.1777],[103.2203,-2.1158,92.9495],[103.2195,-2.122,102.4948],[103.2222,-2.1314,84.1887],[103.2221,-2.1418,77.5568],[103.2327,-2.1422,74.2379],[103.2402,-2.1406,80.3824],[103.2469,-2.1366,86.5938],[103.2499,-2.137,94.6569],[103.2535,-2.1315,93.3821],[103.2585,-2.134,100.3684],[103.2614,-2.1558,77.3128],[103.2639,-2.1572,69.3159],[103.2657,-2.1554,76.2527],[103.2733,-2.1582,93.0262],[103.2751,-2.1632,82.7151],[103.2793,-2.1657,78.8947],[103.2872,-2.1789,78.1282],[103.2883,-2.179,78.3941],[103.2878,-2.1768,75.8487],[103.2893,-2.1747,76.0369],[103.2922,-2.1748,92.9349],[103.2951,-2.1844,97.394],[103.293,-2.1879,77.7956],[103.2948,-2.2003,92.5748],[103.2975,-2.2063,79.6868],[103.308,-2.2166,64.0407],[103.3263,-2.2223,68.0934],[103.3315,-2.2361,76.5179],[103.3354,-2.2403,79.0647],[103.3372,-2.2494,71.4815],[103.3424,-2.2543,78.3253],[103.3445,-2.2606,74.0418],[103.3478,-2.2655,89.557],[103.3538,-2.2701,73.7685],[103.3558,-2.2747,70.012],[103.3617,-2.2771,75.155],[103.3661,-2.2839,73.2408],[103.3803,-2.2844,75.707],[103.3862,-2.2956,72.4567],[103.3931,-2.2959,83.0012],[103.3942,-2.3032,80.4542],[103.3981,-2.3035,85.6508],[103.4002,-2.3061,88.2601],[103.3995,-2.31,87.1421],[103.4011,-2.3137,74.7758],[103.4089,-2.3183,68.0639],[103.4113,-2.3216,72.5231],[103.412,-2.3255,74.4002],[103.4096,-2.3309,70.8896],[103.4102,-2.3339,69.2191],[103.4188,-2.3341,69.88],[103.4215,-2.336,68.5004],[103.4313,-2.3354,57.8146],[103.4436,-2.3543,69.5032],[103.4474,-2.3564,64.1771],[103.4497,-2.3529,69.2466],[103.4467,-2.3464,71.2778],[103.4506,-2.343,53.3233],[103.4486,-2.339,66.2375],[103.4506,-2.3359,61.8741],[103.4522,-2.3258,60.8687],[103.4467,-2.3132,46.7334],[103.4512,-2.3081,40.8009],[103.4532,-2.3014,35.8002],[103.4602,-2.2969,47.5312],[103.4591,-2.286,42.4995],[103.4612,-2.2794,35.8839],[103.4589,-2.2731,27.9552],[103.4633,-2.2676,22.4066],[103.4659,-2.2519,19.271],[103.4605,-2.2435,31.6624],[103.4614,-2.2385,27.3066],[103.4602,-2.2268,24.8008],[103.4536,-2.2181,23.737],[103.4514,-2.2094,18.7388],[103.4535,-2.1942,12.7252],[103.4582,-2.1882,15.7439],[103.459,-2.1812,28.1314],[103.4479,-2.1779,24.8463],[103.447,-2.1741,28.983],[103.4465,-2.0623,31.26],[103.4418,-2.0658,24.3918],[103.4414,-2.0585,13.1432],[103.3916,-2.0586,38.2763],[103.3749,-2.0559,45.9812],[103.3746,-2.0523,38.8875],[103.3694,-2.0508,22.8423],[103.3695,-2.002,38.1224],[103.3328,-2.0017,54.9645],[103.3349,-1.9654,45.8183],[103.3143,-1.9654,47.8462],[103.3146,-1.8753,57.7501]]]]}}