{"type":"Feature","properties":{"GID_3":"IDN.13.8.5_1","GID_0":"IDN","country":"Indonesia","GID_1":"IDN.13_1","province":"KalimantanSelatan","NL_NAME_1":"NA","GID_2":"IDN.13.8_1","county":"HuluSungaiUtara","NL_NAME_2":"NA","city":"Banjang","VARNAME_3":"NA","NL_NAME_3":"NA","TYPE_3":"Kecamatan","ENGTYPE_3":"Sub-district","CC_3":"6308060","HASC_3":"NA","name":"Banjang.city"},
"geometry":{"type": "MultiPolygon","coordinates": [[[[115.3618,-2.4929,8.1973],[115.3744,-2.4944,8.0612],[115.3791,-2.4923,9.5477],[115.3877,-2.4759,8.5108],[115.3891,-2.4765,9.5947],[115.4037,-2.4427,9.1103],[115.3854,-2.435,7.9755],[115.3714,-2.4258,7.2901],[115.3313,-2.4091,5.9212],[115.3203,-2.4015,10.785],[115.3188,-2.4024,12.2406],[115.3163,-2.4009,11.791],[115.3155,-2.3972,13.3771],[115.3125,-2.396,6.9775],[115.3069,-2.3969,11.865],[115.3015,-2.3955,6.2872],[115.2986,-2.4011,8.4158],[115.2942,-2.4024,5.9209],[115.2831,-2.3977,5.7817],[115.2764,-2.3988,5.5858],[115.2725,-2.4015,5.1833],[115.2633,-2.4122,6.1196],[115.263,-2.4171,8.8265],[115.2643,-2.4182,8.2118],[115.2653,-2.4171,8.2094],[115.2655,-2.421,7.4789],[115.2687,-2.4249,8.8339],[115.2661,-2.4283,15.0098],[115.2671,-2.4319,9.6055],[115.266,-2.436,7.6786],[115.2617,-2.4407,5.7696],[115.2766,-2.4369,3.8604],[115.2767,-2.4395,4.3963],[115.3316,-2.501,5.9948],[115.3507,-2.4922,6.1051],[115.3491,-2.4828,10.3351],[115.3618,-2.4929,8.1973]]]]}}