{"type":"Feature","properties":{"GID_3":"IDN.27.7.13_1","GID_0":"IDN","country":"Indonesia","GID_1":"IDN.27_1","province":"SulawesiTengah","NL_NAME_1":"NA","GID_2":"IDN.27.7_1","county":"ParigiMoutong","NL_NAME_2":"NA","city":"Sausu","VARNAME_3":"NA","NL_NAME_3":"NA","TYPE_3":"Kecamatan","ENGTYPE_3":"Sub-district","CC_3":"7208010","HASC_3":"NA","name":"Sausu.city"},
"geometry":{"type": "MultiPolygon","coordinates": [[[[120.5343,-1.1277,182.6574],[120.568,-1.1128,32.0683],[120.5709,-1.1096,21.8366],[120.5822,-1.108,0.0],[120.5777,-1.1007,0.953],[120.5665,-1.0966,2.9932],[120.5658,-1.0938,2.5014],[120.5601,-1.0923,3.0588],[120.561,-1.0895,1.9878],[120.5569,-1.0853,1.9118],[120.5582,-1.0824,0.0],[120.5559,-1.077,3.1274],[120.5523,-1.0734,4.1033],[120.5501,-1.0733,2.3818],[120.5505,-1.07,5.1533],[120.5468,-1.0647,1.061],[120.5442,-1.065,1.516],[120.5443,-1.0629,0.0],[120.5437,-1.064,0.0],[120.5401,-1.0614,2.7584],[120.5399,-1.0547,0.0],[120.534,-1.0527,2.1946],[120.5296,-1.0471,0.0],[120.5289,-1.0443,0.4505],[120.5307,-1.0408,1.524],[120.5327,-1.0412,2.7996],[120.5314,-1.0436,1.7513],[120.5329,-1.0446,0.0],[120.534,-1.0432,1.6678],[120.5316,-1.0337,0.0],[120.5241,-1.0217,1.0326],[120.5167,-1.0159,0.1622],[120.509,-0.9984,0.0],[120.5078,-0.997,2.1798],[120.4918,-0.9953,2.301],[120.4869,-0.9897,5.9601],[120.4861,-0.9915,7.3821],[120.4848,-0.9896,2.4151],[120.4809,-0.9923,2.425],[120.4724,-0.9906,0.0],[120.4718,-0.9925,1.8696],[120.4739,-0.9923,8.7967],[120.4726,-0.9955,5.8538],[120.467,-0.9912,0.0],[120.4649,-0.9935,3.506],[120.4609,-0.9936,5.4578],[120.4598,-0.989,2.9835],[120.4565,-0.9866,11.1565],[120.4542,-0.9818,1.9672],[120.4434,-0.9724,2.0547],[120.4253,-0.9809,239.0747],[120.4252,-0.9941,88.2934],[120.4345,-1.0075,55.5011],[120.4326,-1.0089,50.6114],[120.432,-1.0136,27.6669],[120.4366,-1.0211,28.9967],[120.4391,-1.0325,30.8842],[120.4354,-1.0353,29.7771],[120.4291,-1.0448,37.3715],[120.4255,-1.0452,36.3948],[120.4256,-1.048,44.498],[120.4226,-1.0491,41.5338],[120.4233,-1.0517,46.9849],[120.4196,-1.0602,46.125],[120.4194,-1.0667,57.6062],[120.4103,-1.105,477.0516],[120.4073,-1.1578,297.9781],[120.4272,-1.1497,171.8073],[120.4341,-1.1526,301.0839],[120.4461,-1.1462,449.1625],[120.4656,-1.148,388.3853],[120.4916,-1.1412,380.1809],[120.4929,-1.142,371.5966],[120.5025,-1.1378,282.5505],[120.5118,-1.1314,388.9127],[120.5301,-1.1299,176.798],[120.5343,-1.1277,182.6574]]]]}}