{"type":"Feature","properties":{"GID_3":"IDN.7.2.5_1","GID_0":"IDN","country":"Indonesia","GID_1":"IDN.7_1","province":"JakartaRaya","NL_NAME_1":"NA","GID_2":"IDN.7.2_1","county":"JakartaPusat","NL_NAME_2":"NA","city":"Menteng","VARNAME_3":"NA","NL_NAME_3":"NA","TYPE_3":"Kecamatan","ENGTYPE_3":"Sub-district","CC_3":"3173020","HASC_3":"NA","name":"Menteng.city"},
"geometry":{"type": "MultiPolygon","coordinates": [[[[106.844,-6.1957,10.6583],[106.8437,-6.1936,9.8768],[106.8452,-6.1922,10.9192],[106.8411,-6.1894,11.2089],[106.8407,-6.1856,8.9437],[106.8363,-6.1848,10.3192],[106.8366,-6.1817,10.8695],[106.8214,-6.1832,5.2436],[106.8224,-6.1889,6.6203],[106.8206,-6.1944,14.0515],[106.8231,-6.198,7.8757],[106.8227,-6.2027,8.3463],[106.8466,-6.2086,12.0291],[106.8499,-6.2056,11.8202],[106.8551,-6.2058,11.5976],[106.8553,-6.2026,10.6576],[106.8515,-6.2024,10.6247],[106.8488,-6.1985,11.169],[106.8454,-6.1992,12.7314],[106.8458,-6.196,14.1245],[106.844,-6.1957,10.6583]]]]}}