{"type":"Feature","properties":{"GID_3":"IDN.21.5.3_1","GID_0":"IDN","country":"Indonesia","GID_1":"IDN.21_1","province":"NusaTenggaraTimur","NL_NAME_1":"NA","GID_2":"IDN.21.5_1","county":"KotaKupang","NL_NAME_2":"NA","city":"Maulafa","VARNAME_3":"NA","NL_NAME_3":"NA","TYPE_3":"Kecamatan","ENGTYPE_3":"Sub-district","CC_3":"5371020","HASC_3":"NA","name":"Maulafa.city"},
"geometry":{"type": "MultiPolygon","coordinates": [[[[123.5883,-10.216,233.1892],[123.6006,-10.2419,280.516],[123.6097,-10.2549,338.2233],[123.6169,-10.2596,340.9601],[123.6209,-10.265,371.0812],[123.6257,-10.2672,365.694],[123.6266,-10.2703,389.4849],[123.6317,-10.2715,443.0445],[123.6391,-10.2443,368.3907],[123.6305,-10.2412,348.9531],[123.6205,-10.2312,336.4563],[123.6335,-10.2254,325.3211],[123.6362,-10.2216,318.5245],[123.6388,-10.2217,321.1128],[123.6395,-10.2178,313.9986],[123.6629,-10.2267,431.4424],[123.6648,-10.2287,447.3467],[123.6685,-10.2269,432.9951],[123.6682,-10.2227,403.0429],[123.6632,-10.221,382.9093],[123.6594,-10.2127,331.6887],[123.6548,-10.2082,313.9441],[123.6508,-10.1885,182.224],[123.6551,-10.1868,167.7339],[123.6587,-10.1905,194.6967],[123.6619,-10.1879,172.0932],[123.6623,-10.1855,157.4017],[123.67,-10.184,133.1304],[123.6739,-10.1769,103.0195],[123.6774,-10.1802,114.2679],[123.6814,-10.1754,103.21],[123.6834,-10.1652,95.6335],[123.6757,-10.1647,100.6189],[123.6671,-10.1662,107.307],[123.6625,-10.1589,94.1592],[123.658,-10.1565,83.937],[123.6568,-10.166,87.217],[123.6519,-10.167,80.7957],[123.6482,-10.1725,88.7944],[123.6431,-10.1745,100.9407],[123.6418,-10.1783,118.9698],[123.6356,-10.1808,127.5446],[123.6221,-10.182,127.4821],[123.6168,-10.1794,98.2217],[123.6136,-10.1823,104.7229],[123.6083,-10.182,107.6517],[123.6066,-10.1786,102.4971],[123.5977,-10.1882,133.1072],[123.599,-10.1932,144.2064],[123.598,-10.1999,173.2729],[123.6007,-10.2046,190.9604],[123.6009,-10.2089,205.9306],[123.5883,-10.216,233.1892]]]]}}