{"type":"Feature","properties":{"GID_3":"IDN.10.23.2_1","GID_0":"IDN","country":"Indonesia","GID_1":"IDN.10_1","province":"JawaTengah","NL_NAME_1":"NA","GID_2":"IDN.10.23_1","county":"Pemalang","NL_NAME_2":"NA","city":"Bantarbolang","VARNAME_3":"NA","NL_NAME_3":"NA","TYPE_3":"Kecamatan","ENGTYPE_3":"Sub-district","CC_3":"3327060","HASC_3":"NA","name":"Bantarbolang.city"},
"geometry":{"type": "MultiPolygon","coordinates": [[[[109.4277,-7.109,209.5102],[109.4341,-7.1075,332.3197],[109.4464,-7.0992,160.9674],[109.4482,-7.0958,168.952],[109.4474,-7.0872,269.3304],[109.4493,-7.0812,205.8351],[109.449,-7.0777,178.7245],[109.4424,-7.0649,116.1159],[109.4434,-7.0604,99.6159],[109.4402,-7.0541,67.9232],[109.4418,-7.046,78.3479],[109.4408,-7.0412,91.2445],[109.4436,-7.0336,66.5732],[109.4426,-7.0269,38.9333],[109.4392,-7.0205,46.6475],[109.4299,-7.0156,73.5288],[109.4284,-7.0111,99.6305],[109.4295,-6.992,65.687],[109.4271,-6.9797,53.2887],[109.4284,-6.9774,41.9287],[109.4293,-6.9785,43.9347],[109.4312,-6.9771,35.4886],[109.4313,-6.9732,31.0741],[109.4212,-6.9693,46.685],[109.413,-6.9631,62.0326],[109.3926,-6.962,29.9161],[109.3941,-6.967,31.8506],[109.3973,-6.9657,32.564],[109.4025,-6.9727,32.3094],[109.4002,-6.974,33.655],[109.3969,-6.9712,36.0094],[109.3922,-6.9809,38.5033],[109.3898,-6.9821,44.2626],[109.388,-6.9798,39.3029],[109.3856,-6.9811,39.4449],[109.3844,-6.9794,40.913],[109.3795,-6.9826,46.1982],[109.3751,-6.9799,47.5637],[109.3722,-6.9806,50.2128],[109.3674,-6.9854,51.3525],[109.3682,-6.9877,54.0395],[109.3661,-6.9899,56.2652],[109.3626,-6.9904,68.9318],[109.3629,-6.9915,70.1993],[109.3602,-6.9927,74.3074],[109.3528,-6.993,84.7458],[109.3508,-6.9982,94.9754],[109.3516,-7.0015,108.4983],[109.3466,-7.0052,107.0448],[109.3462,-7.0078,116.0189],[109.3425,-7.011,241.0829],[109.3414,-7.0142,228.7685],[109.3434,-7.0229,138.8195],[109.3426,-7.028,138.5712],[109.3345,-7.0434,150.7882],[109.3374,-7.0458,138.1999],[109.3409,-7.0443,139.4378],[109.343,-7.046,128.3627],[109.3413,-7.0488,157.5989],[109.3411,-7.0539,174.0462],[109.3441,-7.0602,224.5529],[109.3475,-7.063,204.5336],[109.3493,-7.0796,176.3552],[109.3519,-7.0804,182.1024],[109.3543,-7.0761,168.5181],[109.3667,-7.075,89.5278],[109.3658,-7.0805,94.4612],[109.3693,-7.0826,95.4721],[109.3683,-7.0856,97.7835],[109.3664,-7.086,102.2984],[109.3638,-7.092,143.4916],[109.3648,-7.0925,112.1101],[109.3692,-7.0924,105.6745],[109.3723,-7.0888,100.1698],[109.3806,-7.0866,92.1771],[109.3844,-7.0949,92.8982],[109.3807,-7.0975,100.7825],[109.3828,-7.107,196.6476],[109.3901,-7.1196,330.8715],[109.4007,-7.1328,459.3329],[109.417,-7.1321,320.7347],[109.416,-7.1222,268.7764],[109.4144,-7.1214,247.8163],[109.4168,-7.1203,221.4516],[109.4172,-7.1156,184.9893],[109.4146,-7.113,167.7244],[109.4176,-7.1104,352.9625],[109.4277,-7.109,209.5102]]]]}}