{"type":"Feature","properties":{"GID_3":"IDN.2.2.1_1","GID_0":"IDN","country":"Indonesia","GID_1":"IDN.2_1","province":"Bali","NL_NAME_1":"NA","GID_2":"IDN.2.2_1","county":"Bangli","NL_NAME_2":"NA","city":"Bangli","VARNAME_3":"NA","NL_NAME_3":"NA","TYPE_3":"Kecamatan","ENGTYPE_3":"Sub-district","CC_3":"5106020","HASC_3":"NA","name":"Bangli.city"},
"geometry":{"type": "MultiPolygon","coordinates": [[[[115.3484,-8.5235,187.4162],[115.3576,-8.5209,162.6925],[115.3572,-8.5165,170.3479],[115.3535,-8.5098,204.5753],[115.3568,-8.5053,225.9539],[115.3562,-8.4996,244.7108],[115.3582,-8.4926,264.4918],[115.3637,-8.488,289.7602],[115.3639,-8.4834,288.9316],[115.3615,-8.482,328.6836],[115.3599,-8.4732,359.2142],[115.3625,-8.4646,382.9145],[115.3667,-8.4611,391.1166],[115.3687,-8.4534,411.9542],[115.3699,-8.4514,417.4235],[115.3739,-8.451,431.211],[115.3751,-8.4467,452.0962],[115.372,-8.4369,488.4575],[115.3729,-8.4286,543.1271],[115.3679,-8.4161,578.3505],[115.3694,-8.4042,644.196],[115.3706,-8.4035,655.9675],[115.3698,-8.4017,641.1732],[115.3748,-8.3935,660.9946],[115.3721,-8.3903,659.4941],[115.374,-8.3899,649.4437],[115.3731,-8.3887,664.4273],[115.3749,-8.3868,708.81],[115.3715,-8.3814,730.0089],[115.3718,-8.3784,728.6884],[115.3696,-8.3769,758.2091],[115.37,-8.3743,764.7681],[115.376,-8.3736,778.7313],[115.3771,-8.371,773.2424],[115.379,-8.353,869.8227],[115.3936,-8.3518,872.1505],[115.3901,-8.3494,907.7119],[115.3887,-8.3413,945.4015],[115.3917,-8.335,992.7026],[115.3923,-8.3261,1054.9167],[115.3847,-8.3262,1061.4126],[115.3853,-8.3146,1113.2335],[115.3819,-8.317,1082.2207],[115.3815,-8.3211,1078.4941],[115.3779,-8.3224,1042.2196],[115.379,-8.3121,1144.8878],[115.3778,-8.3097,1159.4971],[115.3739,-8.3087,1139.2765],[115.3754,-8.3013,1183.6893],[115.3735,-8.3034,1179.2554],[115.3623,-8.2999,1187.1366],[115.3587,-8.2997,1167.9919],[115.3579,-8.3044,1144.8298],[115.3491,-8.318,1044.6583],[115.3466,-8.3338,975.7809],[115.3393,-8.3323,964.8985],[115.3381,-8.329,977.5515],[115.3394,-8.3215,1005.5641],[115.3365,-8.32,1024.033],[115.3342,-8.3208,1012.616],[115.3332,-8.3237,1006.3829],[115.3343,-8.3342,953.9786],[115.3338,-8.3371,940.1475],[115.3319,-8.338,929.5015],[115.3309,-8.3444,901.6105],[115.331,-8.3456,894.7169],[115.3374,-8.3446,921.0867],[115.3411,-8.3393,933.7292],[115.3476,-8.3414,938.088],[115.3476,-8.3375,960.4629],[115.3549,-8.337,959.0594],[115.353,-8.3413,920.8578],[115.3578,-8.3535,846.9052],[115.3578,-8.3605,815.2079],[115.3554,-8.3626,824.2467],[115.355,-8.3653,804.0643],[115.3598,-8.3733,771.9681],[115.3605,-8.3865,711.3689],[115.3623,-8.3898,721.6474],[115.3574,-8.4182,555.7007],[115.3547,-8.4295,529.7553],[115.3522,-8.433,499.902],[115.3536,-8.4399,444.4243],[115.352,-8.4419,457.6122],[115.3525,-8.446,444.7045],[115.3489,-8.4521,394.0803],[115.3458,-8.4535,380.0683],[115.3462,-8.4565,405.8254],[115.3424,-8.4638,371.599],[115.346,-8.4885,312.3755],[115.3407,-8.5019,252.7337],[115.341,-8.5081,226.2772],[115.3377,-8.5102,226.0786],[115.3345,-8.517,205.5077],[115.3345,-8.5214,196.5597],[115.3363,-8.5227,188.5961],[115.3431,-8.525,175.0642],[115.3484,-8.5235,187.4162]]]]}}