{"type":"Feature","properties":{"GID_3":"IDN.9.14.9_1","GID_0":"IDN","country":"Indonesia","GID_1":"IDN.9_1","province":"JawaBarat","NL_NAME_1":"NA","GID_2":"IDN.9.14_1","county":"KotaBandung","NL_NAME_2":"NA","city":"Batununggal","VARNAME_3":"NA","NL_NAME_3":"NA","TYPE_3":"Kecamatan","ENGTYPE_3":"Sub-district","CC_3":"3273160","HASC_3":"NA","name":"Batununggal.city"},
"geometry":{"type": "MultiPolygon","coordinates": [[[[107.6394,-6.9462,678.8624],[107.642,-6.9454,677.816],[107.6446,-6.9269,684.0656],[107.6433,-6.9087,693.8528],[107.6243,-6.9189,697.2172],[107.6243,-6.9238,694.5374],[107.6367,-6.928,685.2444],[107.6349,-6.9439,681.4185],[107.6363,-6.9471,679.2711],[107.6394,-6.9462,678.8624]]]]}}