{"type":"Feature","properties":{"GID_3":"IDN.10.17.8_1","GID_0":"IDN","country":"Indonesia","GID_1":"IDN.10_1","province":"JawaTengah","NL_NAME_1":"NA","GID_2":"IDN.10.17_1","county":"KotaSemarang","NL_NAME_2":"NA","city":"Ngaliyan","VARNAME_3":"NA","NL_NAME_3":"NA","TYPE_3":"Kecamatan","ENGTYPE_3":"Sub-district","CC_3":"3374160","HASC_3":"NA","name":"Ngaliyan.city"},
"geometry":{"type": "MultiPolygon","coordinates": [[[[110.3738,-7.0201,27.6641],[110.378,-7.0231,28.2763],[110.3792,-7.0176,33.8369],[110.3819,-7.0205,22.8065],[110.3833,-7.0177,26.0129],[110.3875,-7.0162,13.4908],[110.3755,-7.0037,54.1596],[110.3715,-7.0018,37.3885],[110.3686,-6.9956,18.4067],[110.3682,-6.9877,15.0048],[110.3581,-6.9862,30.3653],[110.3516,-6.9824,12.0762],[110.3476,-6.9855,22.6658],[110.3417,-6.9859,22.7207],[110.3376,-6.9843,26.7403],[110.33,-6.9763,13.8675],[110.3179,-6.9754,9.6401],[110.3127,-6.9724,6.797],[110.2987,-6.9735,10.3215],[110.2859,-6.969,17.5636],[110.2896,-6.9713,10.2319],[110.294,-6.9789,13.3301],[110.2933,-6.9821,22.0568],[110.2862,-6.9824,47.5725],[110.2845,-6.984,38.8034],[110.2845,-6.9865,40.8568],[110.2824,-6.9863,77.5535],[110.2838,-6.9894,44.2662],[110.2817,-6.9904,50.4319],[110.2837,-6.9927,73.3108],[110.2849,-6.9917,61.6387],[110.287,-6.9931,58.6183],[110.2876,-6.9971,79.5495],[110.2838,-6.997,102.3902],[110.2809,-6.9989,157.1273],[110.2802,-7.0042,123.7961],[110.2856,-7.0087,125.5045],[110.2849,-7.0133,107.9618],[110.2936,-7.0158,148.895],[110.2929,-7.022,153.1397],[110.2978,-7.0235,155.6763],[110.3101,-7.0226,160.0769],[110.3094,-7.0198,168.2114],[110.3141,-7.0188,183.1853],[110.3199,-7.0203,176.8634],[110.3285,-7.0197,194.2695],[110.3358,-7.0223,186.1332],[110.3372,-7.0196,186.3106],[110.3453,-7.0193,191.8542],[110.3545,-7.0213,170.5072],[110.3565,-7.0176,132.3597],[110.3624,-7.0143,67.6761],[110.3642,-7.0197,37.1982],[110.3663,-7.019,32.1451],[110.369,-7.022,37.6804],[110.3738,-7.0201,27.6641]],
[[110.2849,-6.9887,44.2662],[110.2851,-6.9888,44.2662],[110.2846,-6.989,44.2662],[110.2848,-6.9887,44.2662],[110.2849,-6.9887,44.2662]]]]}}