{"type":"Feature","properties":{"GID_3":"IDN.32.30.4_1","GID_0":"IDN","country":"Indonesia","GID_1":"IDN.32_1","province":"SumateraUtara","NL_NAME_1":"NA","GID_2":"IDN.32.30_1","county":"TapanuliSelatan","NL_NAME_2":"NA","city":"AngkolaTimur","VARNAME_3":"NA","NL_NAME_3":"NA","TYPE_3":"Kecamatan","ENGTYPE_3":"Sub-district","CC_3":"1203070","HASC_3":"NA","name":"Angkola_Timur.city"},
"geometry":{"type": "MultiPolygon","coordinates": [[[[99.3624,1.3795,641.5452],[99.3527,1.3981,605.9606],[99.3474,1.405,654.0115],[99.3462,1.4301,810.7109],[99.3563,1.4341,621.7974],[99.3667,1.4324,471.7864],[99.3698,1.4299,463.9623],[99.3828,1.4253,376.5248],[99.3867,1.4187,365.6438],[99.3946,1.4131,327.554],[99.3998,1.4136,326.073],[99.4002,1.4259,339.918],[99.3966,1.4307,329.2735],[99.3976,1.4334,351.832],[99.4005,1.4349,363.3239],[99.4054,1.4316,346.2272],[99.407,1.4322,342.8817],[99.4039,1.4424,364.7087],[99.4045,1.4469,374.9062],[99.4012,1.4543,383.1323],[99.4036,1.4836,466.4068],[99.4081,1.4899,392.6451],[99.4189,1.4962,330.0037],[99.4192,1.4982,323.4357],[99.4165,1.4993,344.4755],[99.4142,1.5031,346.2598],[99.4295,1.5117,386.8815],[99.4329,1.5151,400.8545],[99.4381,1.5157,272.081],[99.4376,1.5198,274.0991],[99.4268,1.526,347.5481],[99.4217,1.5316,406.4699],[99.4171,1.5475,568.0938],[99.4096,1.5575,699.9652],[99.404,1.559,736.5322],[99.3906,1.5721,818.4725],[99.3829,1.5607,583.1656],[99.3761,1.5573,628.0427],[99.3724,1.5529,586.2631],[99.3712,1.5487,695.859],[99.3746,1.5402,720.2904],[99.3669,1.5313,401.8804],[99.3516,1.5259,587.2393],[99.3326,1.5219,630.3922],[99.3218,1.517,736.4529],[99.3166,1.512,752.4507],[99.3047,1.5121,876.8729],[99.2871,1.5078,1004.4983],[99.2765,1.5091,1025.8099],[99.272,1.5119,1031.5648],[99.2647,1.5123,1125.0693],[99.2622,1.5141,1150.0264],[99.2589,1.5191,1200.1034],[99.26,1.5429,1650.9846],[99.2566,1.5498,1663.1034],[99.2499,1.5547,1560.531],[99.246,1.5542,1554.3297],[99.2317,1.5577,1173.9144],[99.2215,1.5582,1038.0725],[99.2165,1.5567,942.4003],[99.2092,1.5581,861.6473],[99.215,1.5501,1028.7462],[99.2217,1.5315,1003.1292],[99.2295,1.5235,1131.6018],[99.2256,1.5152,1028.8672],[99.2256,1.5114,977.022],[99.2198,1.509,979.78],[99.2148,1.5031,1012.11],[99.2103,1.4806,1666.5366],[99.2055,1.4763,1758.8931],[99.2075,1.4693,1408.4449],[99.2164,1.4538,921.658],[99.2195,1.4441,761.9781],[99.226,1.4381,649.0957],[99.2258,1.4557,1017.6714],[99.2313,1.4643,942.178],[99.24,1.4692,855.5741],[99.2464,1.4703,739.9963],[99.2988,1.4667,619.2524],[99.3019,1.4386,532.9999],[99.3248,1.4101,373.7694],[99.3259,1.4041,371.6081],[99.3204,1.4,390.6878],[99.3191,1.4058,389.3918],[99.3148,1.4049,378.136],[99.3083,1.407,364.8548],[99.3078,1.4051,376.6362],[99.3058,1.4063,359.9121],[99.3059,1.3978,337.1402],[99.3113,1.3909,326.2924],[99.3083,1.3876,311.2979],[99.3295,1.3506,304.9236],[99.3463,1.326,263.6209],[99.3495,1.3135,314.1432],[99.3585,1.3131,481.3635],[99.3705,1.3067,483.8643],[99.3815,1.3124,623.1452],[99.3908,1.3144,699.2208],[99.3928,1.3242,852.3888],[99.3906,1.333,908.7669],[99.3859,1.3369,862.2082],[99.3778,1.353,866.2489],[99.3689,1.3621,732.1694],[99.3624,1.3795,641.5452]]],
[[[99.4374,1.4327,236.5469],[99.4418,1.4335,294.32],[99.4443,1.446,198.5867],[99.4408,1.4539,201.173],[99.4331,1.4612,283.4618],[99.4318,1.4683,315.3661],[99.4367,1.4754,272.2542],[99.4341,1.4803,336.6844],[99.4231,1.4765,326.7771],[99.4242,1.4709,324.2739],[99.4204,1.4644,433.3214],[99.4213,1.4542,417.6675],[99.4189,1.4469,350.9362],[99.425299999999993,1.439,287.1854],[99.4268,1.4342,309.9484],[99.4374,1.4327,236.5469]]]]}}