{"type":"Feature","properties":{"GID_3":"IDN.10.20.17_1","GID_0":"IDN","country":"Indonesia","GID_1":"IDN.10_1","province":"JawaTengah","NL_NAME_1":"NA","GID_2":"IDN.10.20_1","county":"Magelang","NL_NAME_2":"NA","city":"Secang","VARNAME_3":"NA","NL_NAME_3":"NA","TYPE_3":"Kecamatan","ENGTYPE_3":"Sub-district","CC_3":"3308170","HASC_3":"NA","name":"Secang.city"},
"geometry":{"type": "MultiPolygon","coordinates": [[[[110.2296,-7.4581,371.8177],[110.2289,-7.4601,367.1434],[110.2301,-7.4611,367.1434],[110.2286,-7.461,367.1434],[110.2288,-7.4642,361.2451],[110.2274,-7.4653,363.9404],[110.2289,-7.4659,360.0856],[110.2273,-7.4664,361.9922],[110.2313,-7.4753,353.4159],[110.2322,-7.4698,359.9814],[110.2303,-7.4683,359.029],[110.2301,-7.4639,361.2451],[110.2323,-7.4625,374.3128],[110.2308,-7.4584,372.1738],[110.2355,-7.4523,379.4077],[110.2344,-7.4502,388.4518],[110.2404,-7.4476,386.9361],[110.2426,-7.4448,391.3813],[110.2489,-7.4434,410.0773],[110.252,-7.4359,409.0317],[110.2565,-7.4382,424.8605],[110.2579,-7.4372,421.6901],[110.2577,-7.432,417.65],[110.2614,-7.4329,435.2398],[110.2621,-7.4348,432.2845],[110.2711,-7.4285,451.395],[110.2826,-7.4287,467.7178],[110.2836,-7.422,494.4944],[110.2863,-7.4206,483.8232],[110.2872,-7.4218,487.7546],[110.2905,-7.4142,505.3344],[110.2919,-7.4085,519.5051],[110.2902,-7.4057,514.9261],[110.2908,-7.4001,508.7844],[110.2966,-7.397,554.5529],[110.2964,-7.3953,568.203],[110.3053,-7.3887,679.9432],[110.2973,-7.3891,635.0194],[110.2914,-7.3863,557.5707],[110.2881,-7.3823,595.2479],[110.2858,-7.3823,587.1216],[110.2801,-7.3859,562.5745],[110.278,-7.39,540.437],[110.2748,-7.3867,548.4836],[110.2687,-7.385,532.9675],[110.2704,-7.3797,539.3644],[110.27034624277456,-7.3794312138728326,538.1005],[110.2673,-7.3812,540.6223],[110.2629,-7.3809,542.5205],[110.2571,-7.3772,564.5059],[110.2546,-7.3703,641.0922],[110.2499,-7.3691,643.6444],[110.2364,-7.3727,506.2017],[110.2348,-7.379,490.8477],[110.2318,-7.3821,456.3699],[110.2263,-7.3834,441.055],[110.2234,-7.379,430.7922],[110.225,-7.3866,426.4352],[110.2224,-7.3916,433.7272],[110.2164,-7.3952,387.8774],[110.2151,-7.4022,376.137],[110.2164,-7.4064,368.4394],[110.2126,-7.4193,366.1148],[110.2144,-7.4222,357.5995],[110.2132,-7.4295,368.9867],[110.2169,-7.4309,346.1937],[110.2121,-7.4427,344.7635],[110.2187,-7.4443,368.7356],[110.2177,-7.4415,370.0073],[110.2193,-7.4387,368.8696],[110.2281,-7.4384,394.7222],[110.2274,-7.4426,384.9783],[110.2309,-7.4456,378.588],[110.2278,-7.4493,379.7385],[110.2296,-7.4581,371.8177]]],
[[[110.27034624277456,-7.3794312138728326,538.1005],[110.2704,-7.3794,538.1005],[110.2701,-7.3782,538.1005],[110.27034624277456,-7.3794312138728326,538.1005]]]]}}