{"type":"Feature","properties":{"GID_3":"IDN.21.3.17_1","GID_0":"IDN","country":"Indonesia","GID_1":"IDN.21_1","province":"NusaTenggaraTimur","NL_NAME_1":"NA","GID_2":"IDN.21.3_1","county":"Ende","NL_NAME_2":"NA","city":"PulauEnde","VARNAME_3":"NA","NL_NAME_3":"NA","TYPE_3":"Kecamatan","ENGTYPE_3":"Sub-district","CC_3":"5311011","HASC_3":"NA","name":"Pulau_Ende.city"},
"geometry":{"type": "MultiPolygon","coordinates": [[[[121.5298,-8.8982,0.0],[121.5347,-8.8886,30.2706],[121.535,-8.8851,61.2787],[121.5303,-8.8799,21.9995],[121.5284,-8.872,1.836],[121.5334,-8.8623,0.0],[121.5309,-8.8573,12.9578],[121.5242,-8.8501,3.5797],[121.5191,-8.8536,13.588],[121.519,-8.8605,46.1599],[121.5173,-8.8619,6.0592],[121.5208,-8.8635,0.0],[121.5207,-8.8669,0.0],[121.5228,-8.8704,0.0],[121.5223,-8.8742,0.0],[121.518,-8.8791,6.9678],[121.5156,-8.8798,12.0708],[121.5132,-8.8778,0.0],[121.5091,-8.8814,8.4101],[121.5089,-8.8902,79.7505],[121.507,-8.8927,9.2327],[121.5098,-8.8995,14.1309],[121.5126,-8.9032,0.0],[121.5153,-8.9041,124.5573],[121.5162,-8.907,0.0],[121.5224,-8.9062,42.9034],[121.5244,-8.9029,73.7615],[121.528,-8.9022,0.0],[121.5298,-8.8982,0.0]]]]}}