{"type":"Feature","properties":{"GID_3":"IDN.11.4.5_1","GID_0":"IDN","country":"Indonesia","GID_1":"IDN.11_1","province":"JawaTimur","NL_NAME_1":"NA","GID_2":"IDN.11.4_1","county":"Blitar","NL_NAME_2":"NA","city":"Garum","VARNAME_3":"NA","NL_NAME_3":"NA","TYPE_3":"Kecamatan","ENGTYPE_3":"Sub-district","CC_3":"3505160","HASC_3":"NA","name":"Garum.city"},
"geometry":{"type": "MultiPolygon","coordinates": [[[[112.2448,-8.0884,242.5654],[112.2438,-8.0826,257.6859],[112.2451,-8.077,267.6906],[112.2656,-8.0415,367.0633],[112.2683,-8.042,368.2059],[112.2766,-8.0305,410.676],[112.2769,-8.0162,467.3856],[112.2802,-8.0098,492.0583],[112.2786,-8.0071,499.3151],[112.2793,-8.0035,516.0336],[112.2751,-8.0008,579.4714],[112.2749,-7.9964,608.5246],[112.276,-7.9925,642.8254],[112.278,-7.9921,631.4477],[112.2781,-7.9799,748.1061],[112.2819,-7.9696,741.61],[112.2869,-7.9626,846.8293],[112.2977,-7.9598,1013.5482],[112.3048,-7.955,1279.8347],[112.3091,-7.9488,1338.6158],[112.3121,-7.9372,1474.7671],[112.316,-7.9314,1381.645],[112.3045,-7.9297,1504.3528],[112.2989,-7.9371,1308.6005],[112.3025,-7.943,1380.7893],[112.297,-7.9547,1015.7945],[112.2955,-7.9562,1020.7202],[112.2854,-7.9575,973.1465],[112.2782,-7.967,841.3981],[112.2751,-7.969,802.0231],[112.2733,-7.9684,784.7566],[112.2713,-7.971,752.686],[112.2699,-7.9703,752.686],[112.2668,-7.9724,721.3032],[112.2662,-7.9749,737.3956],[112.2611,-7.977,645.8984],[112.2573,-7.9862,589.488],[112.2545,-7.9879,561.9121],[112.2554,-7.989,545.5847],[112.2535,-7.9906,519.5358],[112.2544,-7.992,511.7698],[112.2527,-7.9933,522.8933],[112.2512,-8.0,471.5687],[112.2469,-8.0029,490.4015],[112.242,-8.0125,421.3327],[112.2347,-8.0182,383.9805],[112.2347,-8.022,377.2328],[112.2312,-8.024,364.3327],[112.2314,-8.0273,356.8894],[112.23,-8.0271,352.5259],[112.2271,-8.0362,327.5714],[112.2213,-8.0368,319.3481],[112.2207,-8.0402,313.1344],[112.2223,-8.0416,309.7617],[112.2202,-8.043,305.9326],[112.2192,-8.0521,287.6357],[112.21,-8.0613,265.2068],[112.2063,-8.0622,255.6523],[112.2032,-8.0677,249.4393],[112.1926,-8.0725,227.3128],[112.1912,-8.0764,221.4337],[112.1931,-8.0806,211.6507],[112.1911,-8.0853,209.5808],[112.1973,-8.0884,205.9685],[112.1969,-8.0913,206.2387],[112.2006,-8.0928,211.8675],[112.2027,-8.0885,218.0359],[112.2052,-8.0882,221.1778],[112.2066,-8.0932,210.5614],[112.215,-8.0974,207.8738],[112.2178,-8.0966,216.591],[112.2196,-8.0937,216.0677],[112.228,-8.0955,225.939],[112.2356,-8.0957,239.1659],[112.2368,-8.0943,237.8801],[112.2444,-8.0956,233.8484],[112.2448,-8.0884,242.5654]]]]}}