{"type":"Feature","properties":{"GID_3":"IDN.26.11.11_1","GID_0":"IDN","country":"Indonesia","GID_1":"IDN.26_1","province":"SulawesiSelatan","NL_NAME_1":"NA","GID_2":"IDN.26.11_1","county":"Luwu","NL_NAME_2":"NA","city":"LarompongSelatan","VARNAME_3":"NA","NL_NAME_3":"NA","TYPE_3":"Kecamatan","ENGTYPE_3":"Sub-district","CC_3":"7317011","HASC_3":"NA","name":"Larompong_Selatan.city"},
"geometry":{"type": "MultiPolygon","coordinates": [[[[120.4118,-3.651,12.0654],[120.4144,-3.6457,0.0],[120.4123,-3.6451,3.2717],[120.4117,-3.6416,15.4649],[120.4151,-3.6418,0.0],[120.4118,-3.6403,12.6229],[120.4178,-3.6322,6.9508],[120.4158,-3.6293,7.6183],[120.4182,-3.6265,0.0],[120.4156,-3.6198,2.7417],[120.4179,-3.617,2.5139],[120.4196,-3.6071,4.5959],[120.4186,-3.5857,1.1212],[120.416,-3.5683,1.3451],[120.4128,-3.5642,0.0741],[120.4097,-3.5641,1.722],[120.4088,-3.5619,2.6521],[120.4055,-3.561,1.1533],[120.4049,-3.5589,0.9409],[120.3899,-3.5613,248.5696],[120.3897,-3.5648,137.3348],[120.3875,-3.5675,256.58],[120.3886,-3.5696,282.6977],[120.3832,-3.5782,298.7234],[120.3804,-3.59,67.7572],[120.3763,-3.5944,29.0834],[120.3666,-3.594,64.9843],[120.3585,-3.5955,41.3915],[120.3569,-3.5971,51.6223],[120.3369,-3.5851,374.1012],[120.3289,-3.5855,237.7018],[120.3249,-3.5883,165.4659],[120.3247,-3.5827,166.5446],[120.3113,-3.5778,295.4166],[120.3063,-3.5798,357.2573],[120.3014,-3.5862,398.8361],[120.2976,-3.5971,481.0294],[120.2958,-3.6104,422.2209],[120.2928,-3.6123,400.1469],[120.2861,-3.6044,205.2801],[120.2824,-3.6054,189.5776],[120.2857,-3.6104,156.533],[120.2862,-3.6151,134.0533],[120.2848,-3.6159,134.0533],[120.2868,-3.6174,142.6353],[120.286,-3.6192,152.1038],[120.2872,-3.6207,124.8958],[120.2893,-3.6202,117.5618],[120.2893,-3.6232,114.5998],[120.2916,-3.6255,121.2601],[120.294,-3.6245,148.0858],[120.2947,-3.6278,147.518],[120.2864,-3.6299,433.7964],[120.2806,-3.6255,407.9001],[120.2781,-3.6318,259.6461],[120.2828,-3.6329,342.4411],[120.2898,-3.6398,529.1123],[120.3047,-3.6486,134.1827],[120.3218,-3.6497,356.2115],[120.3227,-3.6518,350.1247],[120.3281,-3.6499,220.1646],[120.3347,-3.6536,201.5924],[120.3437,-3.65,176.6167],[120.3499,-3.6504,78.0137],[120.3506,-3.6522,125.7204],[120.3578,-3.6523,55.5161],[120.3613,-3.6549,45.7473],[120.3876,-3.6588,26.4422],[120.3922,-3.6625,13.7739],[120.3979,-3.6608,5.87],[120.402,-3.6615,0.5],[120.4083,-3.6674,1.3763],[120.41,-3.6652,0.5],[120.4094,-3.6638,1.289],[120.4141,-3.6626,0.0],[120.4152,-3.6598,0.8504],[120.4124,-3.6582,2.6668],[120.4118,-3.651,12.0654]]]]}}