{"type":"Feature","properties":{"GID_2":"IDN.26.16_1","GID_0":"IDN","country":"Indonesia","GID_1":"IDN.26_1","province":"SulawesiSelatan","NL_NAME_1":"NA","county":"Parepare","VARNAME_2":"NA","NL_NAME_2":"NA","TYPE_2":"Kota","ENGTYPE_2":"City","CC_2":"7372","HASC_2":"ID.SE.PP","name":"Parepare.county"},
"geometry":{"type": "MultiPolygon","coordinates": [[[[119.6334,-4.0742,255.6011],[119.6396,-4.0753,57.6479],[119.6406,-4.077,80.9643],[119.6463,-4.0769,82.2209],[119.6696,-4.0723,264.2839],[119.6765,-4.0735,449.3395],[119.6817,-4.0763,273.3716],[119.7004,-4.0766,676.9032],[119.7048,-4.0794,699.2437],[119.7146,-4.0768,740.6932],[119.7149,-4.0723,694.9999],[119.7084,-4.0709,629.4672],[119.7065,-4.0606,471.565],[119.6979,-4.0515,445.0107],[119.6978,-4.0454,374.2518],[119.7017,-4.0403,215.3493],[119.6986,-4.0392,197.4685],[119.698,-4.0342,169.4419],[119.7005,-4.0306,144.4953],[119.6994,-4.0227,137.141],[119.7022,-4.0217,145.4828],[119.7019,-4.0192,107.3558],[119.6956,-4.0179,89.6933],[119.6985,-4.0138,92.703],[119.6935,-4.0161,64.4387],[119.6855,-4.0114,59.6463],[119.6895,-4.0082,92.3838],[119.691,-4.0017,133.1259],[119.6932,-3.9998,162.0352],[119.6921,-3.9946,169.1442],[119.6856,-3.9931,92.2742],[119.6833,-3.9863,116.6038],[119.6707,-3.973,143.0833],[119.6641,-3.9613,138.2034],[119.6514,-3.9729,63.8263],[119.6452,-3.9739,31.8403],[119.6404,-3.9799,15.5045],[119.6353,-3.981,5.0084],[119.6351,-3.988,3.4589],[119.6296,-4.003,4.4128],[119.625,-4.0046,5.8964],[119.6212,-4.0023,0.0],[119.622,-4.0051,3.6051],[119.6199,-4.0148,3.7811],[119.6239,-4.0235,6.1845],[119.6259,-4.0379,22.903199999999998],[119.6236,-4.0476,0.0],[119.6172,-4.0525,1.8465],[119.6219,-4.0564,1.4259],[119.6229,-4.0595,0.0],[119.6202,-4.0671,3.3453],[119.6259,-4.0698,101.13],[119.6293,-4.0742,109.5203],[119.6334,-4.0742,255.6011]]],
[[[119.6235,-4.0459,0.0],[119.6234,-4.046,0.0],[119.6235,-4.0462,0.0],[119.6236,-4.046,0.0],[119.6235,-4.0459,0.0]]],
[[[119.6214,-4.0036,0.0],[119.6213,-4.0036,0.0],[119.6213,-4.0043,0.0],[119.6214,-4.0043,0.0],[119.6214,-4.0036,0.0]]],
[[[119.6288,-4.0022,0.6448],[119.6291,-4.0024,0.6448],[119.6288,-4.0021,0.6448],[119.6288,-4.0022,0.6448]]]]}}