{"type":"Feature","properties":{"GID_3":"IDN.5.3.7_1","GID_0":"IDN","country":"Indonesia","GID_1":"IDN.5_1","province":"Bengkulu","NL_NAME_1":"NA","GID_2":"IDN.5.3_1","county":"BengkuluUtara","NL_NAME_2":"NA","city":"Hutan","VARNAME_3":"NA","NL_NAME_3":"NA","TYPE_3":"Kecamatan","ENGTYPE_3":"Sub-district","CC_3":"1703999","HASC_3":"NA","name":"Hutan.city"},
"geometry":{"type": "MultiPolygon","coordinates": [[[[102.0234,-2.9079,1354.6051],[102.0152,-2.9,1157.2156],[102.0106,-2.8931,884.2979],[102.0082,-2.8846,767.1375],[102.0111,-2.8632,656.2814],[102.0074,-2.8522,1120.5513],[101.9996,-2.8436,1006.8494],[101.9862,-2.839,1278.891],[101.9788,-2.8326,1378.4806],[101.9641,-2.8155,1121.6663],[101.9628,-2.8096,1155.5438],[101.9503,-2.791,1443.4424],[101.9466,-2.7757,1930.1846],[101.9326,-2.765,1992.2448],[101.9287,-2.7576,2000.1184],[101.9253,-2.7424,2302.8184],[101.9228,-2.7378,2419.7969],[101.9072,-2.7387,2254.2456],[101.8934,-2.7333,2240.9402],[101.8863,-2.7346,2206.7642],[101.882,-2.7338,2168.0908],[101.8632,-2.7252,2010.8774],[101.8556,-2.7169,1885.0132],[101.8577,-2.7276,2139.3459],[101.8604,-2.7303,2235.0027],[101.858,-2.7448,2046.9204],[101.8635,-2.7679,1609.4846],[101.86279999999999,-2.7792,1437.0402],[101.8661,-2.7845,1351.9312],[101.8661,-2.789,1181.7075],[101.8582,-2.8073,1149.9316],[101.8536,-2.8122,1077.9656],[101.8499,-2.8293,895.7653],[101.8408,-2.8382,842.7997],[101.8333,-2.851,711.8896],[101.8288,-2.8532,687.0945],[101.8204,-2.8638,625.0156],[101.8093,-2.8721,456.6799],[101.8059,-2.8799,522.8669],[101.8027,-2.8887,481.6152],[101.8042,-2.899,453.7159],[101.8026,-2.9222,400.9499],[101.7983,-2.9309,335.8607],[101.787,-2.9333,346.25],[101.7846,-2.9375,331.7531],[101.7854,-2.9509,321.122],[101.7835,-2.9547,310.336],[101.784,-2.9637,277.9386],[101.7897,-2.9698,243.8343],[101.792,-2.9788,243.0135],[101.7908,-2.983,234.9435],[101.7838,-2.9877,233.2639],[101.7814,-2.9943,232.9187],[101.7783,-2.995,232.7618],[101.7748,-3.0,224.7859],[101.7656,-3.0034,281.0843],[101.7549,-3.0047,229.2736],[101.7471,-3.0207,163.1903],[101.738,-3.0297,146.1599],[101.7243,-3.0383,113.0833],[101.7179,-3.0446,97.8007],[101.702,-3.0539,96.2747],[101.7064,-3.0595,82.1564],[101.7136,-3.0756,142.9402],[101.7174,-3.0779,149.1189],[101.7217,-3.0835,147.8819],[101.736,-3.1063,172.165],[101.7394,-3.1147,98.8543],[101.7466,-3.1089,55.0589],[101.7735,-3.0961,166.2169],[101.804,-3.1139,140.6651],[101.8096,-3.1114,144.6334],[101.8221,-3.0955,147.3323],[101.8291,-3.0739,225.2946],[101.8395,-3.0609,300.3472],[101.8425,-3.0579,308.3529],[101.8484,-3.0658,347.4132],[101.8542,-3.0706,261.2623],[101.8611,-3.0621,219.9285],[101.8731,-3.0372,240.8212],[101.8798,-3.0309,242.1032],[101.9026,-3.0281,369.2185],[101.9129,-3.0335,237.7233],[101.9198,-3.0345,338.4402],[101.922,-3.0267,384.0996],[101.9219,-3.0177,358.154],[101.9189,-3.0031,457.8517],[101.9102,-2.9954,522.6891],[101.9026,-2.9911,414.3038],[101.9963,-2.9252,974.328],[102.0234,-2.9079,1354.6051]]]]}}