{"type":"Feature","properties":{"GID_3":"IDN.8.1.8_1","GID_0":"IDN","country":"Indonesia","GID_1":"IDN.8_1","province":"Jambi","NL_NAME_1":"NA","GID_2":"IDN.8.1_1","county":"BatangHari","NL_NAME_2":"NA","city":"Pemayung","VARNAME_3":"NA","NL_NAME_3":"NA","TYPE_3":"Kecamatan","ENGTYPE_3":"Sub-district","CC_3":"1504050","HASC_3":"NA","name":"Pemayung.city"},
"geometry":{"type": "MultiPolygon","coordinates": [[[[103.4113,-1.6977,65.3524],[103.4132,-1.698,63.9597],[103.4145,-1.6918,48.8724],[103.4186,-1.6842,55.0544],[103.4177,-1.6743,48.5202],[103.4191,-1.6639,43.1442],[103.4163,-1.6585,30.9334],[103.4149,-1.6445,41.596],[103.3863,-1.6443,27.0206],[103.3881,-1.632,32.985],[103.4144,-1.6322,33.4022],[103.4243,-1.6215,25.9201],[103.4169,-1.616,12.8392],[103.4188,-1.6127,6.5344],[103.4178,-1.6085,8.6974],[103.4217,-1.6051,7.9157],[103.4355,-1.6025,10.9225],[103.439,-1.5988,11.6242],[103.4442,-1.6008,11.6463],[103.4493,-1.5992,12.3816],[103.4486,-1.5942,14.7009],[103.4558,-1.5878,14.1836],[103.4515,-1.5828,19.2927],[103.452,-1.5778,20.6179],[103.4478,-1.5684,14.9354],[103.4532,-1.5649,15.5298],[103.4566,-1.559,10.0498],[103.4657,-1.5353,11.982],[103.4664,-1.5294,16.23],[103.4647,-1.5241,8.8275],[103.4567,-1.5157,9.8407],[103.457,-1.5064,9.4373],[103.4595,-1.4999,11.5831],[103.4592,-1.4918,16.4387],[103.4571,-1.4899,13.4645],[103.4521,-1.4895,7.4375],[103.4584,-1.4799,5.5],[103.4625,-1.4765,6.3411],[103.4687,-1.4749,5.5],[103.4681,-1.4714,17.7882],[103.4599,-1.4718,11.8627],[103.4594,-1.4695,11.8543],[103.4515,-1.4676,13.5491],[103.4457,-1.4696,11.3834],[103.4466,-1.4725,9.7351],[103.4444,-1.476,9.0567],[103.4434,-1.4716,8.7918],[103.4388,-1.4734,9.077],[103.4363,-1.4681,12.7042],[103.4342,-1.4692,9.2851],[103.4324,-1.4666,10.7832],[103.4247,-1.4749,9.5969],[103.4157,-1.4759,20.9078],[103.4106,-1.4727,14.9992],[103.4011,-1.4725,28.8398],[103.3955,-1.4748,21.975],[103.3911,-1.4819,12.6205],[103.3881,-1.4829,16.313],[103.3835,-1.4812,13.5198],[103.3809,-1.4734,14.9778],[103.3757,-1.4651,17.925],[103.3715,-1.4626,25.781],[103.3663,-1.4509,18.8561],[103.3538,-1.443,21.0934],[103.3541,-1.4344,15.457],[103.3458,-1.4138,17.7775],[103.3477,-1.4028,20.5235],[103.3426,-1.3981,28.7875],[103.3419,-1.3886,20.1842],[103.3369,-1.3815,23.1203],[103.3399,-1.3767,26.7717],[103.3389,-1.3718,42.2285],[103.3316,-1.3655,34.1663],[103.3236,-1.3662,33.3212],[103.3191,-1.3683,33.3399],[103.3142,-1.365,30.9899],[103.3125,-1.3586,42.1273],[103.309,-1.3539,32.1696],[103.2962,-1.3498,35.7901],[103.293,-1.3527,32.299],[103.2604,-1.3539,47.8499],[103.2582,-1.3558,62.5429],[103.254,-1.3734,52.5262],[103.2501,-1.3823,52.6891],[103.2503,-1.3856,55.9189],[103.2548,-1.3933,75.7271],[103.2598,-1.3977,65.5259],[103.2656,-1.399,52.8531],[103.2668,-1.4017,59.6617],[103.2658,-1.4057,57.6509],[103.2584,-1.4087,63.518],[103.2539,-1.4084,67.601],[103.2444,-1.3955,72.7338],[103.2175,-1.3781,74.0352],[103.2156,-1.374,86.9752],[103.216,-1.365,64.5661],[103.2054,-1.3555,55.1253],[103.1948,-1.3672,64.6118],[103.1753,-1.3784,49.282],[103.1675,-1.3865,73.1799],[103.1629,-1.384,60.3406],[103.156,-1.3765,49.5334],[103.149,-1.3739,55.9338],[103.1485,-1.3685,52.6872],[103.1462,-1.3684,57.0774],[103.137,-1.3805,67.0042],[103.128,-1.3892,49.3272],[103.12,-1.3915,53.314],[103.1195,-1.3975,78.7457],[103.1178,-1.3996,88.9879],[103.079,-1.393,102.1225],[103.0654,-1.3884,137.3536],[103.0598,-1.3885,138.5055],[103.0637,-1.3953,93.7166],[103.07,-1.3987,145.699],[103.071,-1.404,151.9031],[103.0659,-1.4094,93.3602],[103.0542,-1.4126,97.3489],[103.0519,-1.4157,84.8102],[103.0537,-1.4226,82.4849],[103.0513,-1.4332,85.3146],[103.0475,-1.436,75.9171],[103.0435,-1.4508,100.0318],[103.0358,-1.452,116.7301],[103.0359,-1.4556,104.451],[103.0517,-1.473,187.8556],[103.0777,-1.4929,95.6534],[103.0938,-1.5011,85.9159],[103.0977,-1.507,76.4883],[103.106,-1.5141,65.3278],[103.1116,-1.5052,78.7427],[103.1163,-1.502,80.4108],[103.2292,-1.5037,28.8726],[103.2403,-1.5188,25.3593],[103.2523,-1.5313,39.4455],[103.2533,-1.5348,41.1086],[103.2506,-1.5371,43.5824],[103.2513,-1.539,47.0747],[103.2474,-1.544,61.209],[103.2437,-1.5443,61.1089],[103.2396,-1.5513,81.8892],[103.2396,-1.5557,87.5937],[103.2353,-1.5586,95.5494],[103.2505,-1.5703,83.7568],[103.2542,-1.5696,70.1868],[103.2617,-1.5756,81.129],[103.2708,-1.576,61.9206],[103.2754,-1.5844,87.9546],[103.2708,-1.6026,57.0274],[103.2688,-1.6035,39.666],[103.2695,-1.607,47.544],[103.2809,-1.6072,31.6618],[103.2922,-1.6143,23.961],[103.2974,-1.6157,25.1935],[103.2987,-1.6194,21.7565],[103.302,-1.6208,24.6884],[103.3221,-1.6229,15.5612],[103.315,-1.6491,10.9284],[103.3173,-1.6543,13.4501],[103.3238,-1.6589,19.2375],[103.3277,-1.6646,18.7523],[103.3453,-1.666,19.8271],[103.3717,-1.6617,50.0339],[103.3723,-1.6655,54.4849],[103.3742,-1.6671,49.1462],[103.3852,-1.6639,46.0752],[103.3925,-1.6654,52.2075],[103.3947,-1.6678,46.1456],[103.3949,-1.6711,37.1235],[103.3996,-1.6728,45.8805],[103.3998,-1.6754,46.4142],[103.4028,-1.6761,58.8508],[103.4035,-1.6934,48.2523],[103.406,-1.6962,60.5154],[103.4113,-1.6977,65.3524]]]]}}