{"type":"Feature","properties":{"GID_3":"IDN.32.34.2_1","GID_0":"IDN","country":"Indonesia","GID_1":"IDN.32_1","province":"SumateraUtara","NL_NAME_1":"NA","GID_2":"IDN.32.34_1","county":"TobaSamosir","NL_NAME_2":"NA","city":"Balige","VARNAME_3":"NA","NL_NAME_3":"NA","TYPE_3":"Kecamatan","ENGTYPE_3":"Sub-district","CC_3":"1206030","HASC_3":"NA","name":"Balige.city"},
"geometry":{"type": "MultiPolygon","coordinates": [[[[99.0367,2.2577,1402.205],[99.053,2.2676,1366.4246],[99.0647,2.2704,1380.9919],[99.067,2.2723,1394.397],[99.0843,2.2722,1436.5793],[99.0957,2.2676,1446.1766],[99.0968,2.2609,1413.9346],[99.1027,2.2551,1438.5996],[99.1183,2.2562,1446.6431],[99.1252,2.2593,1427.3932],[99.129,2.256,1410.8145],[99.1353,2.256,1427.0017],[99.1469,2.2704,1376.0449],[99.1473,2.2889,1189.0575],[99.1396,2.3009,1020.7942],[99.1404,2.3033,1082.9041],[99.1392,2.3053,1068.7869],[99.1226,2.3202,969.3125],[99.1058,2.3614,901.6208],[99.1003,2.355,906.3206],[99.0849,2.3524,901.0],[99.0839,2.3512,901.0],[99.0856,2.3489,907.0085],[99.0828,2.3448,904.2703],[99.0795,2.345,906.0079],[99.0737,2.349,901.0],[99.0696,2.3475,903.6282],[99.0629,2.3416,903.8515],[99.063,2.3377,908.9131],[99.0593,2.3351,905.9976],[99.053,2.3382,902.6514],[99.0409,2.3504,929.2012],[99.0358,2.3394,988.4858],[99.034,2.339,981.0979],[99.029,2.3315,1057.7258],[99.0291,2.3105,1233.2378],[99.0226,2.2902,1293.3657],[99.0138,2.2536,1389.7814],[99.0253,2.253,1398.1448],[99.0327,2.2544,1397.1755],[99.0367,2.2577,1402.205]]]]}}