{"type":"Feature","properties":{"GID_3":"IDN.12.9.9_1","GID_0":"IDN","country":"Indonesia","GID_1":"IDN.12_1","province":"KalimantanBarat","NL_NAME_1":"NA","GID_2":"IDN.12.9_1","county":"Pontianak","NL_NAME_2":"NA","city":"Toho","VARNAME_3":"NA","NL_NAME_3":"NA","TYPE_3":"Kecamatan","ENGTYPE_3":"Sub-district","CC_3":"6104120","HASC_3":"NA","name":"Toho.city"},
"geometry":{"type": "MultiPolygon","coordinates": [[[[109.2849,0.3456,18.0362],[109.2913,0.3488,39.77],[109.2958,0.3552,91.0858],[109.3046,0.3602,81.4071],[109.3223,0.3622,33.529],[109.3187,0.3918,40.7508],[109.3118,0.4079,23.2155],[109.3013,0.4203,28.8816],[109.297,0.4201,29.3439],[109.296,0.4252,28.7208],[109.291,0.4318,17.4742],[109.2786,0.4383,15.6064],[109.2717,0.4511,28.0254],[109.263,0.4561,13.4354],[109.2564,0.455,20.3535],[109.2531,0.4525,17.0733],[109.2475,0.4542,17.9123],[109.2471,0.4615,19.7943],[109.2406,0.465,15.8792],[109.2414,0.4721,16.1796],[109.2371,0.4729,16.89],[109.2326,0.4701,18.9779],[109.2306,0.4714,18.6249],[109.2295,0.4689,16.3382],[109.2234,0.4692,14.2257],[109.2235,0.4664,17.0992],[109.226,0.4669,15.7758],[109.227,0.4641,16.6472],[109.2234,0.4648,16.1289],[109.2206,0.461,12.2041],[109.2169,0.4615,12.6597],[109.2151,0.46,15.898],[109.2136,0.462,15.8046],[109.2115,0.4598,21.2533],[109.2085,0.4645,14.872],[109.2078,0.4613,17.1348],[109.2036,0.4611,16.3943],[109.2045,0.4594,15.7244],[109.202,0.4573,14.0587],[109.2025,0.4547,13.5888],[109.2007,0.4566,15.5394],[109.1988,0.4557,13.0515],[109.1981,0.4572,15.3679],[109.1955,0.4567,20.0224],[109.1938,0.4583,17.5133],[109.1921,0.4533,17.5708],[109.1891,0.4553,13.9023],[109.1875,0.4529,16.5336],[109.1832,0.4551,18.0757],[109.1839,0.4517,19.1957],[109.1816,0.452,15.2532],[109.1772,0.458,17.6756],[109.1738,0.4577,14.2332],[109.1685,0.4601,13.2198],[109.1546,0.4687,95.0033],[109.1466,0.4636,19.3359],[109.1307,0.464,21.8561],[109.1177,0.4602,19.1762],[109.1132,0.4573,30.2074],[109.1125,0.4535,17.3121],[109.116,0.4503,12.5682],[109.1166,0.4477,12.9465],[109.1111,0.4444,16.1297],[109.1076,0.4363,18.0525],[109.1018,0.4351,14.2218],[109.1,0.4307,12.4975],[109.0927,0.4255,13.0592],[109.0923,0.4211,11.4638],[109.0941,0.4175,10.3909],[109.0965,0.4171,11.7128],[109.0969,0.422,12.1454],[109.1014,0.4217,10.4375],[109.0993,0.4189,14.386],[109.0998,0.4171,13.2028],[109.1044,0.4212,10.1982],[109.1085,0.421,13.799],[109.1066,0.4167,11.3875],[109.1093,0.4169,16.0663],[109.1105,0.4141,13.639],[109.1126,0.4159,14.4936],[109.1109,0.4181,11.8224],[109.1155,0.4197,10.4809],[109.1155,0.4168,20.4846],[109.1191,0.4153,17.0148],[109.1202,0.4167,16.1838],[109.1222,0.4161,11.2752],[109.1211,0.414,12.9548],[109.1233,0.4133,13.8807],[109.1286,0.4068,17.8931],[109.1296,0.4114,11.4073],[109.132,0.4098,16.9706],[109.1368,0.4116,20.2005],[109.1397,0.4099,17.696],[109.1458,0.4124,17.1523],[109.1467,0.4098,21.8849],[109.1517,0.4117,22.1118],[109.152,0.4157,16.1926],[109.1548,0.4131,19.5205],[109.156,0.4157,15.2702],[109.1589,0.4148,22.4278],[109.1606,0.4183,15.2939],[109.166,0.4223,14.5929],[109.174,0.4214,22.3554],[109.1812,0.4163,36.5109],[109.1813,0.4145,23.6566],[109.1782,0.412,19.0462],[109.1769,0.4025,19.4856],[109.1782,0.3924,18.6201],[109.1797,0.3906,15.1701],[109.202,0.3921,27.7404],[109.2156,0.3904,102.748],[109.218,0.3888,161.9159],[109.221,0.3797,198.8636],[109.2295,0.3751,166.8793],[109.2392,0.3761,167.9923],[109.2429,0.3749,185.9328],[109.2446,0.3719,272.272],[109.2419,0.3626,310.3578],[109.2446,0.3514,355.3792],[109.2486,0.3451,203.8754],[109.2487,0.3385,38.9264],[109.2631,0.3369,217.9087],[109.2849,0.3456,18.0362]]]]}}