{"type":"Feature","properties":{"GID_3":"IDN.29.3.1_1","GID_0":"IDN","country":"Indonesia","GID_1":"IDN.29_1","province":"SulawesiUtara","NL_NAME_1":"NA","GID_2":"IDN.29.3_1","county":"BolaangMongondowTimur","NL_NAME_2":"NA","city":"Kotabunan","VARNAME_3":"NA","NL_NAME_3":"NA","TYPE_3":"Kecamatan","ENGTYPE_3":"Sub-district","CC_3":"7111030","HASC_3":"NA","name":"Kotabunan.city"},
"geometry":{"type": "MultiPolygon","coordinates": [[[[124.6456,0.7971,0.6416],[124.6524,0.8037,0.1935],[124.651,0.8042,10.8842],[124.6542,0.8044,12.036],[124.6595,0.8087,0.0],[124.6635,0.8168,0.0],[124.6696,0.8239,0.0],[124.6682,0.8257,3.1904],[124.6708,0.827,0.0],[124.6705,0.8287,9.2146],[124.6776,0.8296,2.9309],[124.6808,0.8281,0.0],[124.6839,0.8304,3.1811],[124.6905,0.8296,3.9596],[124.691,0.8306,4.2759],[124.6883,0.8315,14.6215],[124.6875,0.8341,13.2059],[124.6902,0.8349,0.0],[124.6919,0.8381,21.3767],[124.6997,0.841,9.9671],[124.6965,0.847,6.5733],[124.6948,0.8591,14.5618],[124.6868,0.8604,17.3935],[124.6864,0.8631,23.0122],[124.6881,0.8655,25.968],[124.6855,0.8673,15.6941],[124.6854,0.8709,18.6469],[124.6825,0.8728,21.7806],[124.674,0.8694,34.4],[124.6709,0.8715,37.6165],[124.6698,0.8736,34.7269],[124.6708,0.8786,67.2686],[124.6671,0.8812,177.4707],[124.6646,0.8886,228.13],[124.6604,0.8909,314.9994],[124.6604,0.8997,467.971],[124.6566,0.9026,545.8846],[124.6586,0.9083,544.4472],[124.6538,0.9132,581.6238],[124.6523,0.9237,675.1053],[124.6479,0.9286,747.1322],[124.647,0.9393,853.9864],[124.6498,0.949,952.9489],[124.6524,0.9515,986.8706],[124.6516,0.9556,849.2445],[124.6492,0.9569,875.6806],[124.645,0.9565,889.4808],[124.6328,0.9477,839.5029],[124.6292,0.9471,872.9955],[124.6221,0.9489,951.7926],[124.6174,0.9466,940.4929],[124.613,0.9479,966.5869],[124.5945,0.9414,1054.03],[124.5917,0.9398,1059.1158],[124.5871,0.9321,1124.7866],[124.5802,0.934,1200.4243],[124.5779,0.9142,1252.7916],[124.5732,0.9113,1238.1381],[124.5662,0.8941,1419.045],[124.5585,0.8864,1452.3611],[124.5583,0.8839,1464.146],[124.5613,0.8805,1475.3224],[124.5584,0.8766,1399.381],[124.5602,0.8669,1353.9598],[124.5556,0.8649,1339.8247],[124.5547,0.8614,1296.5479],[124.559,0.8605,1188.5917],[124.5641,0.8542,1141.9855],[124.5735,0.8486,999.6766],[124.5827,0.8348,633.0125],[124.5909,0.8297,578.4536],[124.599,0.8193,422.0263],[124.6023,0.8174,415.6815],[124.605,0.8105,362.3727],[124.6127,0.8026,204.3326],[124.62,0.7985,74.2052],[124.6339,0.7847,5.4227],[124.6353,0.784,0.5924],[124.6392,0.7908,1.3172],[124.6456,0.7971,0.6416]]],
[[[124.6599,0.778,12.861],[124.6569,0.7824,0.0],[124.6491,0.7806,0.0],[124.6509,0.7773,13.5508],[124.6559,0.7766,0.0],[124.6598,0.7694,0.0],[124.6623,0.773,12.8641],[124.6599,0.778,12.861]]],
[[[124.6855,0.8104,60.7819],[124.685,0.8121,0.0],[124.6825,0.8121,0.0],[124.6729,0.8086,46.2969],[124.6641,0.808,7.5068],[124.6603,0.8046,0.0],[124.6637,0.8038,23.2909],[124.6703,0.8062,5.0181],[124.6847,0.8073,17.7522],[124.687,0.8085,7.9434],[124.6855,0.8104,60.7819]]]]}}