{"type":"Feature","properties":{"GID_3":"IDN.11.18.21_1","GID_0":"IDN","country":"Indonesia","GID_1":"IDN.11_1","province":"JawaTimur","NL_NAME_1":"NA","GID_2":"IDN.11.18_1","county":"Lamongan","NL_NAME_2":"NA","city":"Sekaran","VARNAME_3":"NA","NL_NAME_3":"NA","TYPE_3":"Kecamatan","ENGTYPE_3":"Sub-district","CC_3":"3524210","HASC_3":"NA","name":"Sekaran.city"},
"geometry":{"type": "MultiPolygon","coordinates": [[[[112.2385,-7.084,5.141],[112.2422,-7.0827,5.9556],[112.2436,-7.08,6.2726],[112.2598,-7.0828,5.4538],[112.2692,-7.0775,5.1264],[112.2742,-7.0815,4.6573],[112.2801,-7.0836,4.6518],[112.2816,-7.0828,4.411],[112.2871,-7.0789,4.5161],[112.2919,-7.0688,6.4902],[112.2933,-7.0641,4.2937],[112.293,-7.051,4.402],[112.2972,-7.0518,3.5874],[112.2983,-7.0411,3.3066],[112.3295,-7.0465,4.233],[112.3293,-7.0381,2.2975],[112.3315,-7.038,2.7149],[112.3339,-7.0287,2.5017],[112.3247,-7.0275,2.9126],[112.3159,-7.0221,3.1196],[112.3143,-7.0295,4.3754],[112.2986,-7.0272,5.0225],[112.2956,-7.0243,4.7221],[112.2953,-7.017,4.3039],[112.2912,-7.0169,4.0471],[112.291,-7.0184,3.9908],[112.2852,-7.0178,4.1961],[112.2787,-7.0202,7.0655],[112.2653,-7.0195,4.6934],[112.2634,-7.0292,4.098],[112.2604,-7.029,4.3435],[112.2587,-7.0332,4.054],[112.259,-7.0413,3.3866],[112.2603,-7.0422,3.7827],[112.2588,-7.0442,3.0],[112.2456,-7.0419,4.7155],[112.2456,-7.0429,4.7155],[112.2414,-7.043,4.7618],[112.2224,-7.0359,9.614],[112.222,-7.0385,8.3804],[112.2172,-7.0406,9.3922],[112.2158,-7.043,7.6871],[112.2153,-7.0547,7.0],[112.219,-7.0666,7.0],[112.217,-7.0795,6.497],[112.2299,-7.0808,5.512],[112.2313,-7.0832,5.0],[112.2343,-7.0833,5.0],[112.2347,-7.0871,5.0],[112.2383,-7.0858,5.0309],[112.2385,-7.084,5.141]]]]}}