{"type":"Feature","properties":{"GID_3":"IDN.14.13.3_1","GID_0":"IDN","country":"Indonesia","GID_1":"IDN.14_1","province":"KalimantanTengah","NL_NAME_1":"NA","GID_2":"IDN.14.13_1","county":"Seruyan","NL_NAME_2":"NA","city":"SeruyanHilir","VARNAME_3":"NA","NL_NAME_3":"NA","TYPE_3":"Kecamatan","ENGTYPE_3":"Sub-district","CC_3":"6208010","HASC_3":"NA","name":"Seruyan_Hilir.city"},
"geometry":{"type": "MultiPolygon","coordinates": [[[[111.9047,-3.3705,5.3083],[111.8988,-3.3827,5.584],[111.8792,-3.4089,5.1556],[111.8187,-3.534,0.0],[111.8599,-3.5419,0.0],[111.8903,-3.5436,0.0],[111.9035,-3.5396,0.0],[111.9193,-3.5291,0.911],[111.9366,-3.5112,2.1754],[111.9593,-3.4914,0.0],[111.9918,-3.4658,0.7913],[112.0296,-3.4385,0.0],[112.0892,-3.3994,7.9842],[112.1865,-3.34,0.0],[112.2245,-3.323,0.0],[112.2593,-3.3128,3.9538],[112.3055,-3.3106,0.7651],[112.3374,-3.3159,1.3575],[112.3756,-3.3336,0.0],[112.4105,-3.3471,0.4219],[112.4283,-3.3577,6.7878],[112.4396,-3.3801,4.3705],[112.456,-3.396,0.9312],[112.4887,-3.4164,0.0],[112.5417,-3.4444,1.6645],[112.5616,-3.447,0.0],[112.5669,-3.4311,4.0355],[112.5755,-3.432,3.0662],[112.5822,-3.4275,25.7516],[112.5922,-3.4242,4.7877],[112.6237,-3.4092,3.7299],[112.6363,-3.4076,0.0],[112.6507,-3.3937,0.0],[112.6595,-3.3807,11.0882],[112.6801,-3.3651,0.0],[112.7067,-3.3532,0.0],[112.7189,-3.3521,0.0],[112.7246,-3.345,0.0],[112.7422,-3.3367,0.0],[112.7937,-3.3073,1.1524],[112.8147,-3.2998,0.0],[112.8737,-3.2649,0.5303],[112.8407,-3.1655,11.2711],[112.8101,-3.0428,19.4478],[112.8476,-2.937,12.6009],[112.8706,-2.8306,20.2457],[112.782,-2.7803,9.7243],[112.7331,-2.7482,9.3354],[112.6881,-2.7215,8.0236],[112.6075,-2.683,23.5395],[112.5781,-2.658,24.8891],[112.5427,-2.6358,21.2512],[112.5338,-2.6514,21.1554],[112.5348,-2.6558,23.9846],[112.4916,-2.7135,27.0243],[112.4331,-2.7536,22.6606],[112.3255,-2.8503,29.7654],[112.2763,-2.8798,22.9931],[112.1089,-2.874,32.9039],[112.0548,-2.8888,21.695],[112.0549,-2.9301,23.2629],[112.0468,-3.0072,25.9935],[111.9947,-3.1318,2.2454],[111.9687,-3.2187,5.6116],[111.9329,-3.3121,5.7202],[111.9047,-3.3705,5.3083]]]]}}