{"type":"Feature","properties":{"GID_3":"IDN.29.1.2_1","GID_0":"IDN","country":"Indonesia","GID_1":"IDN.29_1","province":"SulawesiUtara","NL_NAME_1":"NA","GID_2":"IDN.29.1_1","county":"Bitung","NL_NAME_2":"NA","city":"Girian","VARNAME_3":"NA","NL_NAME_3":"NA","TYPE_3":"Kecamatan","ENGTYPE_3":"Sub-district","CC_3":"7172012","HASC_3":"NA","name":"Girian.city"},
"geometry":{"type": "MultiPolygon","coordinates": [[[[125.1084,1.4247,60.9633],[125.1225,1.4147,0.0],[125.1256,1.4281,4.7226],[125.1321,1.4314,0.814],[125.1254,1.4628,133.5894],[125.1212,1.4522,66.3152],[125.1032,1.4467,143.6458],[125.1003,1.444,142.5556],[125.1021,1.4317,105.4279],[125.0984,1.4288,125.5736],[125.1084,1.4247,60.9633]]]]}}