{"type":"Feature","properties":{"GID_3":"IDN.11.28.5_1","GID_0":"IDN","country":"Indonesia","GID_1":"IDN.11_1","province":"JawaTimur","NL_NAME_1":"NA","GID_2":"IDN.11.28_1","county":"Pasuruan","NL_NAME_2":"NA","city":"Grati","VARNAME_3":"NA","NL_NAME_3":"NA","TYPE_3":"Kecamatan","ENGTYPE_3":"Sub-district","CC_3":"3514220","HASC_3":"NA","name":"Grati.city"},
"geometry":{"type": "MultiPolygon","coordinates": [[[[113.0114,-7.7664,67.312],[113.0145,-7.7653,62.0828],[113.0377,-7.7723,91.6089],[113.0368,-7.7659,70.8741],[113.0417,-7.7652,92.7002],[113.0402,-7.7511,62.9831],[113.0356,-7.7495,58.3979],[113.0372,-7.7425,46.2345],[113.0347,-7.7415,46.7628],[113.0368,-7.7325,34.4395],[113.0333,-7.731,36.5759],[113.034,-7.7288,35.9582],[113.0363,-7.7291,34.2826],[113.0373,-7.7277,31.6504],[113.031,-7.7248,32.612],[113.0317,-7.7198,39.3417],[113.0343,-7.721,41.7458],[113.0351,-7.7142,47.8971],[113.0246,-7.7161,34.8272],[113.0174,-7.715,19.3727],[113.0158,-7.7165,14.7004],[113.0061,-7.7141,17.3043],[113.01,-7.7111,24.7378],[112.9753,-7.6989,6.9168],[112.9735,-7.7007,8.6304],[112.9738,-7.7038,8.0355],[112.9663,-7.7011,8.7105],[112.9624,-7.7103,5.1549],[112.9625,-7.718,7.4414],[112.9718,-7.7204,10.1683],[112.9717,-7.7187,12.8308],[112.9739,-7.7183,8.7965],[112.9756,-7.7206,9.7468],[112.9728,-7.7217,11.3924],[112.974,-7.7278,11.4671],[112.9825,-7.7311,15.2536],[112.983,-7.7362,19.0019],[112.9812,-7.7376,19.5052],[112.9777,-7.7364,17.8166],[112.977,-7.7332,12.0886],[112.9735,-7.7296,9.7222],[112.969,-7.7306,10.3877],[112.9689,-7.735,13.1701],[112.9664,-7.735,11.4947],[112.968,-7.7432,25.8819],[112.9861,-7.7474,43.0927],[112.982,-7.7518,54.5035],[112.9818,-7.7549,64.6633],[112.9789,-7.7594,76.0661],[112.9804,-7.7663,113.0238],[112.9797,-7.7715,142.6656],[112.9821,-7.7776,171.5806],[112.9883,-7.7773,170.2387],[112.9901,-7.7711,107.7144],[112.9987,-7.7691,100.3136],[113.0103,-7.7695,80.2088],[113.0114,-7.7664,67.312]]]]}}