{"type":"Feature","properties":{"GID_3":"IDN.23.7.2_1","GID_0":"IDN","country":"Indonesia","GID_1":"IDN.23_1","province":"Papua","NL_NAME_1":"NA","GID_2":"IDN.23.7_1","county":"Jayapura","NL_NAME_2":"NA","city":"Demta","VARNAME_3":"NA","NL_NAME_3":"NA","TYPE_3":"Distrik","ENGTYPE_3":"District","CC_3":"9403200","HASC_3":"NA","name":"Demta.city"},
"geometry":{"type": "MultiPolygon","coordinates": [[[[140.1485,-2.3575,0.0],[140.1482,-2.3559,0.0],[140.1465,-2.3574,1.9261],[140.1461,-2.3545,32.7413],[140.1497,-2.3517,65.5662],[140.1505,-2.3459,53.851],[140.154,-2.3429,0.0],[140.1552,-2.339,6.7408],[140.1545,-2.3266,0.0],[140.1514,-2.3234,7.1634],[140.144,-2.3255,7.2869],[140.143,-2.3225,1.5733],[140.1398,-2.3237,7.4806],[140.1406,-2.3295,19.2779],[140.1436,-2.331,7.5175],[140.148,-2.3374,10.4965],[140.146,-2.3392,2.2743],[140.1465,-2.341,9.8662],[140.1438,-2.3414,28.9549],[140.1449,-2.3425,28.9549],[140.1429,-2.3441,0.0],[140.1443,-2.3455,24.8818],[140.1438,-2.3483,10.4779],[140.1395,-2.347,1.7683],[140.1377,-2.348,10.9005],[140.1341,-2.3473,1.8097],[140.1224,-2.3393,2.7327],[140.1206,-2.336,0.0],[140.1151,-2.3365,10.9831],[140.111,-2.3271,0.0],[140.1144,-2.3247,1.409],[140.1158,-2.3207,2.2395],[140.1112,-2.3192,0.0],[140.0831,-2.33,9.8598],[140.0797,-2.3385,0.0],[140.08,-2.3491,6.5818],[140.0698,-2.3563,15.8401],[140.0583,-2.3597,18.0822],[140.0353,-2.3602,1.2545],[140.0283,-2.3588,5.014],[140.001,-2.3605,1.9188],[139.9999,-2.3646,2.9762],[140.0038,-2.3692,12.5983],[140.0008,-2.3714,10.6404],[140.0006,-2.3757,2.0],[139.9985,-2.3735,11.5232],[139.9937,-2.3729,5.8978],[139.9963,-2.3758,19.6517],[139.9957,-2.38,17.0824],[139.994,-2.3802,12.4155],[139.994,-2.3827,6.382],[139.9928,-2.3815,10.2419],[139.9892,-2.3848,13.2293],[139.9866,-2.3915,13.3699],[139.9841,-2.3918,14.3649],[139.9849,-2.3958,27.4906],[139.9832,-2.4041,14.4467],[139.9847,-2.4098,26.121],[139.9866,-2.4107,14.0519],[139.9852,-2.4134,10.4272],[139.9887,-2.4212,8.8032],[139.9836,-2.4299,5.5],[140.0098,-2.433,31.3531],[140.0126,-2.435,31.3295],[140.0542,-2.4384,32.9622],[140.0561,-2.4418,31.785],[140.064,-2.4397,39.1168],[140.0672,-2.4444,42.5651],[140.0714,-2.4425,67.2733],[140.0715,-2.4464,31.2195],[140.07,-2.4471,31.2195],[140.0713,-2.4489,35.0261],[140.0693,-2.4495,36.438],[140.0703,-2.4505,29.1124],[140.0689,-2.451,33.3018],[140.0693,-2.4543,36.4403],[140.0673,-2.4572,32.4306],[140.0637,-2.4579,34.2277],[140.1536,-2.458,213.6721],[140.191,-2.3869,5.6771],[140.1893,-2.3803,0.0],[140.1809,-2.3773,0.0],[140.1786,-2.3749,34.6842],[140.1665,-2.3751,13.6481],[140.1664,-2.3732,2.6596],[140.1618,-2.3712,58.3017],[140.1618,-2.3674,0.0],[140.1598,-2.3678,0.0],[140.1585,-2.3722,7.7784],[140.1525,-2.37,6.7833],[140.152,-2.3656,23.9201],[140.1557,-2.3637,32.5411],[140.1551,-2.3613,11.7958],[140.1575,-2.3578,19.2225],[140.1566,-2.3534,0.0],[140.155,-2.355,28.055],[140.152,-2.3549,0.0],[140.1504,-2.3583,4.9984],[140.1504,-2.3567,0.0],[140.1485,-2.3575,0.0]]]]}}