{"type":"Feature","properties":{"GID_3":"IDN.1.3.18_1","GID_0":"IDN","country":"Indonesia","GID_1":"IDN.1_1","province":"Aceh","NL_NAME_1":"NA","GID_2":"IDN.1.3_1","county":"AcehBesar","NL_NAME_2":"NA","city":"Montasik","VARNAME_3":"NA","NL_NAME_3":"NA","TYPE_3":"Kecamatan","ENGTYPE_3":"Sub-district","CC_3":"1108080","HASC_3":"NA","name":"Montasik.city"},
"geometry":{"type": "MultiPolygon","coordinates": [[[[95.4132,5.4555,12.2282],[95.4228,5.4552,8.2725],[95.4283,5.4534,9.9067],[95.4312,5.4428,9.5179],[95.4509,5.443,18.8713],[95.4509,5.4524,22.2495],[95.4563,5.455,27.6743],[95.4577,5.4616,29.6264],[95.4682,5.4666,39.8218],[95.4706,5.4699,42.4726],[95.4773,5.4709,62.7112],[95.4842,5.4751,58.0605],[95.4921,5.4922,138.5286],[95.5119,5.5138,279.6184],[95.5163,5.5267,326.2888],[95.5275,5.5336,264.5273],[95.5221,5.5372,255.4846],[95.5107,5.5375,324.3243],[95.5014,5.5404,390.4445],[95.4962,5.5504,398.3077],[95.467,5.5105,111.951],[95.4608,5.4998,63.5731],[95.4539,5.4927,34.7713],[95.4456,5.4877,25.9483],[95.4412,5.4879,25.3554],[95.4343,5.4838,23.7495],[95.4284,5.4856,23.739],[95.4193,5.4858,20.7235],[95.4141,5.4895,14.9349],[95.4118,5.4947,18.2607],[95.4057,5.4933,15.0376],[95.4009,5.4845,14.8844],[95.3978,5.4854,14.9953],[95.3949,5.4828,8.558],[95.395,5.4721,7.8512],[95.3917,5.4664,11.5438],[95.3917,5.4623,16.8782],[95.3926,5.4603,13.8078],[95.3951,5.4598,12.9469],[95.3973,5.462,8.2602],[95.4004,5.4615,8.7847],[95.4105,5.4691,17.0396],[95.4127,5.4664,15.7407],[95.4118,5.4632,12.7753],[95.4039,5.4576,7.6695],[95.4062,5.4549,8.4755],[95.4132,5.4555,12.2282]]]]}}