{"type":"Feature","properties":{"GID_3":"IDN.19.2.5_1","GID_0":"IDN","country":"Indonesia","GID_1":"IDN.19_1","province":"Maluku","NL_NAME_1":"NA","GID_2":"IDN.19.2_1","county":"BuruSelatan","NL_NAME_2":"NA","city":"Waisama","VARNAME_3":"NA","NL_NAME_3":"NA","TYPE_3":"Kecamatan","ENGTYPE_3":"Sub-district","CC_3":"8109040","HASC_3":"NA","name":"Waisama.city"},
"geometry":{"type": "MultiPolygon","coordinates": [[[[126.8595,-3.6526,768.3916],[126.8581,-3.6856,830.6079],[126.8524,-3.7072,450.7629],[126.8463,-3.723,329.9151],[126.8921,-3.7903,0.0],[126.8954,-3.7856,3.7126],[126.9031,-3.7805,2.9016],[126.9201,-3.7742,25.5659],[126.9235,-3.7766,0.0],[126.9364,-3.7736,3.1437],[126.9441,-3.77,2.6211],[126.9477,-3.7721,5.6947],[126.9552,-3.7705,12.0473],[126.9594,-3.7627,5.279],[126.9582,-3.7576,3.1722],[126.962,-3.7539,3.4556],[126.9731,-3.745,0.8576],[126.9839,-3.7443,0.0],[126.9952,-3.7265,1.166],[126.9993,-3.7229,4.0458],[127.05029999999999,-3.6895,10.4691],[127.0711,-3.683,3.9641],[127.0951,-3.6833,0.0],[127.0965,-3.6813,0.0],[127.1002,-3.6815,0.0],[127.1166,-3.6655,2.4689],[127.1237,-3.6637,4.7413],[127.1307,-3.6641,0.0],[127.1363,-3.6612,8.7539],[127.1448,-3.6619,3.6666],[127.1477,-3.6653,0.0],[127.162,-3.6666,14.3094],[127.1724,-3.6736,0.0],[127.1927,-3.6757,0.0],[127.197,-3.673,0.0],[127.1996,-3.6735,0.0],[127.2034,-3.6688,113.5025],[127.2059,-3.6684,51.5703],[127.2098,-3.6645,95.5927],[127.2151,-3.6632,17.0942],[127.2266,-3.6469,51.6105],[127.2333,-3.6435,9.1192],[127.2343,-3.6369,9.5336],[127.2387,-3.6336,0.0],[127.1959,-3.6093,727.5768],[127.1456,-3.5931,387.6952],[126.9019,-3.5188,75.9775],[126.8348,-3.504,295.04],[126.8465,-3.5372,48.1612],[126.8481,-3.5992,419.7375],[126.8575,-3.6356,505.893],[126.8595,-3.6526,768.3916]]]]}}