{"type":"Feature","properties":{"GID_3":"IDN.23.12.1_1","GID_0":"IDN","country":"Indonesia","GID_1":"IDN.23_1","province":"Papua","NL_NAME_1":"NA","GID_2":"IDN.23.12_1","county":"LannyJaya","NL_NAME_2":"NA","city":"Balingga","VARNAME_3":"NA","NL_NAME_3":"NA","TYPE_3":"Distrik","ENGTYPE_3":"District","CC_3":"9430040","HASC_3":"NA","name":"Balingga.city"},
"geometry":{"type": "MultiPolygon","coordinates": [[[[138.4872,-4.1891,3584.5024],[138.505,-4.1884,3118.3025],[138.5546,-4.192,3898.144],[138.5812,-4.1831,3752.1172],[138.5954,-4.1601,3488.5813],[138.5995,-4.1409,3200.0513],[138.5903,-4.1272,3216.4556],[138.5759,-4.1128,3146.4121],[138.5528,-4.1022,3135.9231],[138.4971,-4.083,3207.5601],[138.4836,-4.0657,3264.1746],[138.4586,-4.0464,3205.24],[138.3808,-4.0426,3052.4941],[138.3491,-4.0301,3141.1685],[138.2991,-4.0195,3030.6562],[138.2129,-4.0059,2894.9241],[138.2097,-4.0301,2811.072],[138.1809,-4.058,3264.7341],[138.1751,-4.0753,3515.9663],[138.1732,-4.0945,3779.6711],[138.1612,-4.1371,3187.6084],[138.2374,-4.1548,2965.0737],[138.2941,-4.1884,2472.0112],[138.3295,-4.192,2630.6755],[138.3774,-4.1831,2693.6147],[138.4146,-4.1814,2830.77],[138.4589,-4.1902,2897.7878],[138.4872,-4.1891,3584.5024]]]]}}