{"type":"Feature","properties":{"GID_3":"IDN.25.1.3_1","GID_0":"IDN","country":"Indonesia","GID_1":"IDN.25_1","province":"SulawesiBarat","NL_NAME_1":"NA","GID_2":"IDN.25.1_1","county":"Majene","NL_NAME_2":"NA","city":"Malunda","VARNAME_3":"NA","NL_NAME_3":"NA","TYPE_3":"Kecamatan","ENGTYPE_3":"Sub-district","CC_3":"7601040","HASC_3":"NA","name":"Malunda.city"},
"geometry":{"type": "MultiPolygon","coordinates": [[[[118.8636,-3.0369,151.2096],[118.8814,-3.0328,211.324],[118.8848,-3.0296,195.6229],[118.8927,-3.0304,268.1539],[118.8983,-3.0327,307.9806],[118.9024,-3.0364,603.7576],[118.9038,-3.0385,592.0894],[118.9016,-3.0459,771.0959],[118.9045,-3.0465,698.3541],[118.9237,-3.0361,767.1262],[118.9428,-3.0325,948.2966],[118.9538,-3.0196,1193.3075],[118.9616,-3.0139,1220.9749],[118.9641,-3.0154,1141.953],[118.9745,-3.0321,882.4471],[118.9774,-3.0321,848.7656],[118.9987,-3.0216,769.3159],[119.0068,-3.0072,809.4487],[119.022,-3.001,1160.5227],[119.0565,-3.0046,962.5905],[119.0787,-3.0021,758.9877],[119.0967,-3.0035,563.8196],[119.095,-2.9999,628.4905],[119.0762,-2.9953,771.7612],[119.0734,-2.9958,701.9733],[119.0695,-2.9939,598.3422],[119.0691,-2.988,530.9885],[119.0676,-2.9869,512.2014],[119.0522,-2.9804,937.1061],[119.0467,-2.9755,949.6721],[119.0289,-2.9654,1472.1244],[119.0263,-2.9613,1520.9939],[119.0272,-2.9637,1438.3789],[119.0098,-2.9569,999.5239],[119.0075,-2.955,1074.6439],[119.0054,-2.9465,1104.9706],[118.9965,-2.9342,755.3107],[118.9968,-2.9302,615.5435],[118.9942,-2.9275,521.0783],[118.9814,-2.9276,393.0887],[118.9769,-2.923,326.5472],[118.9738,-2.9255,356.1918],[118.969,-2.9265,305.4091],[118.9629,-2.9239,258.4857],[118.9565,-2.9275,232.8555],[118.9557,-2.9256,233.8901],[118.9528,-2.9259,223.2054],[118.9498,-2.9239,224.2043],[118.9489,-2.922,255.241],[118.9504,-2.9205,221.9096],[118.9477,-2.9202,192.7596],[118.945,-2.9158,180.4358],[118.9419,-2.9155,164.1206],[118.9377,-2.9185,165.8902],[118.93,-2.9141,313.1718],[118.9256,-2.9145,474.5555],[118.9121,-2.9226,469.6667],[118.8936,-2.9286,143.7073],[118.8841,-2.9281,12.4498],[118.8837,-2.9261,19.8344],[118.8792,-2.9225,9.1026],[118.876,-2.9231,4.8069],[118.8751,-2.9339,5.0997],[118.8688,-2.9462,6.8512],[118.8694,-2.9569,9.5721],[118.8481,-2.9918,1.3662],[118.8489,-3.0024,0.8176],[118.8477,-3.0075,0.0],[118.8505,-3.0111,2.9455],[118.8549,-3.0114,3.7021],[118.8565,-3.0185,5.6448],[118.8593,-3.02,1.3083],[118.8609,-3.0234,8.3655],[118.8592,-3.0279,3.1221],[118.8607,-3.0318,74.155],[118.8568,-3.0389,28.1215],[118.8636,-3.0369,151.2096]]]]}}