{"type":"Feature","properties":{"GID_3":"IDN.23.28.8_1","GID_0":"IDN","country":"Indonesia","GID_1":"IDN.23_1","province":"Papua","NL_NAME_1":"NA","GID_2":"IDN.23.28_1","county":"Yahukimo","NL_NAME_2":"NA","city":"Hereapini","VARNAME_3":"NA","NL_NAME_3":"NA","TYPE_3":"Distrik","ENGTYPE_3":"District","CC_3":"9416058","HASC_3":"NA","name":"Hereapini.city"},
"geometry":{"type": "MultiPolygon","coordinates": [[[[139.6728,-4.0608,2253.5557],[139.6833,-4.0566,2017.277],[139.7026,-4.0409,1317.72],[139.728,-4.0264,1462.0353],[139.7486,-4.0198,1335.8577],[139.755,-4.0124,947.8181],[139.7581,-4.0019,715.7079],[139.7941,-3.9881,993.4069],[139.8269,-3.9828,641.0356],[139.8556,-3.966,601.4521],[139.8603,-3.9473,531.6761],[139.8588,-3.9285,524.5078],[139.8712,-3.9036,610.181],[139.851,-3.8817,587.7685],[139.8229,-3.8614,587.3292],[139.8057,-3.8349,431.4604],[139.7839,-3.8204,419.4641],[139.6847,-4.0,896.5749],[139.6576,-4.019,1138.569],[139.6699,-4.0418,1861.807],[139.6728,-4.0608,2253.5557]]]]}}