{"type":"Feature","properties":{"GID_3":"IDN.26.23.7_1","GID_0":"IDN","country":"Indonesia","GID_1":"IDN.26_1","province":"SulawesiSelatan","NL_NAME_1":"NA","GID_2":"IDN.26.23_1","county":"TorajaUtara","NL_NAME_2":"NA","city":"DendePionganNapo","VARNAME_3":"NA","NL_NAME_3":"NA","TYPE_3":"Kecamatan","ENGTYPE_3":"Sub-district","CC_3":"7326170","HASC_3":"NA","name":"Dende_Piongan_Napo.city"},
"geometry":{"type": "MultiPolygon","coordinates": [[[[119.8033,-3.0266,783.4525],[119.804,-3.0294,782.3019],[119.8224,-3.0294,963.7179],[119.8312,-3.0171,1138.1074],[119.8342,-3.0068,1129.2361],[119.8371,-3.0007,1213.782],[119.8386,-3.0004,1150.1321],[119.8374,-2.9906,1090.8928],[119.8327,-2.9796,1228.4001],[119.8354,-2.9707,1150.5402],[119.8342,-2.9631,1207.8405],[119.8354,-2.9595,1315.2262],[119.8335,-2.9553,1247.0171],[119.831,-2.9361,1566.6445],[119.8235,-2.9286,1601.1827],[119.804,-2.9292,1078.63],[119.7979,-2.9258,1159.0948],[119.792,-2.9264,1142.5143],[119.7887,-2.9245,1139.8068],[119.7855,-2.9263,955.3601],[119.7821,-2.9237,1000.6871],[119.7845,-2.9299,986.4723],[119.7833,-2.9333,1135.3767],[119.7841,-2.939,1129.9404],[119.7901,-2.948,1078.6725],[119.7928,-2.9564,1028.1202],[119.797,-2.959,1016.8536],[119.7997,-2.965,987.1843],[119.7997,-2.9664,1012.6948],[119.79,-2.9693,1050.6234],[119.7873,-2.9729,1039.4253],[119.7912,-2.9788,1005.5129],[119.7942,-2.9899,892.1202],[119.7954,-3.0034,962.8993],[119.8011,-3.0142,912.8477],[119.8008,-3.0186,822.3431],[119.8033,-3.0266,783.4525]]]]}}