{"type":"Feature","properties":{"GID_3":"IDN.31.7.6_1","GID_0":"IDN","country":"Indonesia","GID_1":"IDN.31_1","province":"SumateraSelatan","NL_NAME_1":"NA","GID_2":"IDN.31.7_1","county":"MusiRawas","NL_NAME_2":"NA","city":"MuaraBeliti","VARNAME_3":"NA","NL_NAME_3":"NA","TYPE_3":"Kecamatan","ENGTYPE_3":"Sub-district","CC_3":"1605050","HASC_3":"NA","name":"Muara_Beliti.city"},
"geometry":{"type": "MultiPolygon","coordinates": [[[[102.985,-3.3666,83.1242],[102.9882,-3.3687,88.9104],[102.9894,-3.3667,81.6712],[102.9943,-3.3669,83.7657],[102.9919,-3.3609,97.2135],[102.991,-3.3394,80.5284],[103.0217,-3.3191,80.1081],[103.0281,-3.3039,76.6447],[103.0294,-3.2745,71.352],[103.034,-3.2686,65.4688],[103.0401,-3.2669,63.344],[103.041,-3.2632,59.5004],[103.0444,-3.2626,57.3756],[103.0451,-3.2603,48.674],[103.0478,-3.2595,60.3732],[103.048,-3.263,60.0261],[103.0513,-3.2651,54.7864],[103.055,-3.2651,63.7363],[103.1114,-3.2544,61.3993],[103.1346,-3.2525,54.0],[103.1362,-3.2467,56.1187],[103.1259,-3.2428,62.4018],[103.1274,-3.241,62.7558],[103.1275,-3.2362,52.7799],[103.1298,-3.2346,50.6568],[103.059,-3.2198,61.729],[103.0124,-3.2007,65.1639],[103.0195,-3.1876,59.279],[103.0082,-3.1556,60.2525],[103.0049,-3.1596,54.3519],[103.0092,-3.1633,56.127],[103.0058,-3.1653,53.206],[103.0031,-3.1726,61.8894],[102.9998,-3.1757,58.9002],[102.9976,-3.1759,58.8463],[102.9979,-3.1812,65.7525],[102.9957,-3.1851,62.2036],[102.9893,-3.1885,62.7764],[102.9784,-3.1991,63.2615],[102.9754,-3.1989,63.2147],[102.9691,-3.2025,65.9272],[102.9626,-3.2104,77.8554],[102.9548,-3.216,74.1681],[102.9531,-3.2146,72.563],[102.9465,-3.216,76.0322],[102.9456,-3.2178,75.8063],[102.9476,-3.218,76.5896],[102.9447,-3.2265,78.0995],[102.9462,-3.2327,79.9018],[102.956,-3.2354,76.5184],[102.956,-3.2378,86.2836],[102.9508,-3.2467,79.277],[102.9466,-3.2465,80.2785],[102.9493,-3.2506,80.7633],[102.9483,-3.2535,81.6048],[102.9411,-3.2552,85.0625],[102.9378,-3.2594,86.5048],[102.9378,-3.2612,86.1487],[102.9405,-3.2624,84.2469],[102.9499,-3.2625,79.6167],[102.9563,-3.2595,85.6825],[102.9704,-3.2607,85.8669],[102.966,-3.3621,87.402],[102.9683,-3.3635,92.7281],[102.969,-3.3621,88.5233],[102.9711,-3.3645,81.5812],[102.9786,-3.3644,81.0699],[102.9832,-3.3672,84.0964],[102.985,-3.3666,83.1242]]]]}}