{"type":"Feature","properties":{"GID_3":"IDN.12.10.4_1","GID_0":"IDN","country":"Indonesia","GID_1":"IDN.12_1","province":"KalimantanBarat","NL_NAME_1":"NA","GID_2":"IDN.12.10_1","county":"Sambas","NL_NAME_2":"NA","city":"Paloh","VARNAME_3":"NA","NL_NAME_3":"NA","TYPE_3":"Kecamatan","ENGTYPE_3":"Sub-district","CC_3":"6101090","HASC_3":"NA","name":"Paloh.city"},
"geometry":{"type": "MultiPolygon","coordinates": [[[[109.1628,1.6045,3.1462],[109.1624,1.6032,6.992],[109.167,1.6001,5.6271],[109.1853,1.5973,2.0171],[109.2041,1.6032,7.53],[109.2404,1.6076,4.5677],[109.2918,1.6308,6.617],[109.3124,1.6469,2.9958],[109.3312,1.6529,11.3015],[109.3421,1.6672,4.964],[109.3437,1.6729,4.0996],[109.3532,1.6814,15.4191],[109.3521,1.6938,20.9019],[109.3532,1.6982,29.5967],[109.3602,1.7039,68.5285],[109.369,1.7155,109.2476],[109.3848,1.7227,35.6708],[109.3923,1.7311,88.3197],[109.4007,1.7352,141.464],[109.4049,1.7419,218.2554],[109.4125,1.7384,114.7594],[109.4218,1.7366,82.2097],[109.4272,1.7387,121.549],[109.437,1.7395,221.763],[109.4608,1.7345,325.3233],[109.457,1.7454,33.3979],[109.4573,1.7763,2.413],[109.4672,1.8055,149.9317],[109.4742,1.8118,379.97],[109.4773,1.8133,395.6957],[109.502,1.8133,50.443],[109.5182,1.8092,34.9215],[109.5245,1.806,32.4329],[109.5421,1.8043,171.2436],[109.559,1.8073,63.3793],[109.5629,1.8107,67.7711],[109.5794,1.8186,32.3271],[109.574,1.8186,36.0507],[109.5724,1.8204,36.3256],[109.5776,1.8243,40.8908],[109.5781,1.8272,51.8178],[109.5758,1.8299,54.7728],[109.576,1.8328,174.8676],[109.5802,1.8373,296.6924],[109.577,1.8451,278.4849],[109.569,1.8436,213.0889],[109.5622,1.8449,212.7605],[109.5605,1.8508,195.9147],[109.5573,1.8527,50.6156],[109.5521,1.8596,40.9647],[109.5531,1.8715,35.5205],[109.5514,1.8744,35.2043],[109.5473,1.8768,35.8692],[109.5444,1.8913,44.743899999999996],[109.5421,1.8938,45.1764],[109.5442,1.8981,50.2829],[109.5406,1.9021,43.696],[109.5398,1.9062,46.7512],[109.5561,1.9178,37.9264],[109.5535,1.9281,53.1576],[109.5567,1.9351,42.9976],[109.5597,1.9369,44.2541],[109.5582,1.941,29.9891],[109.5634,1.9442,36.6439],[109.5638,1.946,40.133],[109.5604,1.9484,38.9173],[109.5607,1.9525,44.7196],[109.5544,1.9558,47.0168],[109.5484,1.9557,37.768],[109.5478,1.9582,38.9988],[109.5516,1.9666,33.7493],[109.5611,1.9732,29.1708],[109.5728,1.9723,31.6033],[109.5808,1.9754,23.3468],[109.5897,1.9708,21.8532],[109.5939,1.9745,22.9499],[109.612,1.9825,20.8792],[109.6184,1.9872,144.557],[109.6246,1.9968,200.4555],[109.6257,2.0014,30.2729],[109.6288,2.0047,22.2452],[109.6287,2.0136,29.5777],[109.6358,2.0269,481.3875],[109.6359,2.0294,511.2643],[109.6294,2.0366,470.3792],[109.629,2.0462,501.7548],[109.6439,2.081,16.1044],[109.6362,2.076,28.1137],[109.6312,2.0686,27.4195],[109.6284,2.0679,12.0586],[109.6254,2.0645,55.2366],[109.6245,2.0569,15.8285],[109.6207,2.054,2.2748],[109.6166,2.0435,3.2877],[109.6066,2.0272,0.0],[109.6047,2.0265,10.377],[109.6021,2.014,2.8844],[109.5987,2.0121,1.7786],[109.5926,1.9958,5.5478],[109.5875,1.991,2.2693],[109.5789,1.9889,0.0],[109.5392,1.9899,0.0],[109.5131,1.9887,0.0],[109.5077,1.9865,0.0],[109.4991,1.9871,0.0],[109.4932,1.9845,0.0],[109.4824,1.9845,0.0],[109.4626,1.9784,1.0404],[109.4543,1.9781,0.0],[109.4551,1.976,0.0],[109.4529,1.9748,5.7118],[109.4534,1.9728,11.2368],[109.4506,1.9672,6.2913],[109.4355,1.9521,2.7331],[109.4294,1.9497,9.9127],[109.4106,1.9465,3.5309],[109.3829,1.9443,2.7212],[109.3496,1.9446,11.2512],[109.3386,1.9419,7.5846],[109.3345,1.9338,1.4915],[109.3236,1.9263,13.2536],[109.3244,1.9207,5.871],[109.3444,1.8762,2.7079],[109.3448,1.8734,3.326],[109.3402,1.8652,1.6311],[109.3406,1.8618,2.068],[109.3384,1.8564,4.8195],[109.3388,1.8438,2.1077],[109.3371,1.8323,0.0],[109.3322,1.8247,3.1061],[109.2952,1.7829,7.2204],[109.2974,1.7735,0.0],[109.3015,1.768,2.7489],[109.2978,1.7614,2.6303],[109.2885,1.7526,0.0],[109.2879,1.7438,6.866],[109.2848,1.7405,0.0],[109.2861,1.7357,12.6428],[109.285,1.7329,0.0],[109.2858,1.7249,11.9148],[109.2802,1.7191,4.6096],[109.2702,1.7157,0.0],[109.2703,1.7078,7.0983],[109.2667,1.6914,0.0],[109.2586,1.6697,3.9135],[109.2417,1.6495,5.8174],[109.2196,1.632,7.9187],[109.2073,1.6242,3.762],[109.1628,1.6045,3.1462]]]]}}