{"type":"Feature","properties":{"GID_3":"IDN.32.15.6_1","GID_0":"IDN","country":"Indonesia","GID_1":"IDN.32_1","province":"SumateraUtara","NL_NAME_1":"NA","GID_2":"IDN.32.15_1","county":"Langkat","NL_NAME_2":"NA","city":"BrandanBarat","VARNAME_3":"NA","NL_NAME_3":"NA","TYPE_3":"Kecamatan","ENGTYPE_3":"Sub-district","CC_3":"1213180","HASC_3":"NA","name":"Brandan_Barat.city"},
"geometry":{"type": "MultiPolygon","coordinates": [[[[98.2132,3.9603,27.628],[98.2189,3.956,13.0399],[98.2224,3.9638,11.0593],[98.2215,3.9676,14.7138],[98.2254,3.9699,13.2918],[98.2279,3.9738,18.3301],[98.2368,3.974,22.466],[98.2389,3.9719,11.2194],[98.2414,3.9731,25.209],[98.2446,3.98,6.8072],[98.2488,3.9806,8.1093],[98.2478,3.9853,12.5201],[98.2508,3.9972,2.0078],[98.253,4.0,1.8511],[98.2468,4.0061,0.8933],[98.2474,4.0089,3.4512],[98.2685,4.0169,0.0],[98.2712,4.0192,0.4656],[98.2635,4.0278,0.3951],[98.2639,4.0324,0.4691],[98.2832,4.0277,0.6966],[98.2872,4.0294,2.2261],[98.2945,4.0368,0.0],[98.3072,4.0428,0.0],[98.311,4.0516,0.0],[98.3099,4.0788,0.0],[98.3072,4.0902,0.0],[98.2981,4.1055,0.0],[98.2884,4.101,2.7096],[98.2748,4.0915,3.4981],[98.2572,4.0736,6.0292],[98.2361,4.0632,15.7947],[98.2328,4.063,11.1552],[98.228,4.0577,22.9845],[98.2232,4.0564,34.8154],[98.2236,4.0427,17.724],[98.2211,4.0342,33.8527],[98.2197,4.0123,18.802],[98.2163,4.012,30.3561],[98.2136,4.0155,30.6693],[98.208,4.0186,32.7447],[98.206,4.0031,22.9218],[98.2061,3.9863,38.9815],[98.2057,3.9849,37.1448],[98.2002,3.9833,51.027],[98.1999,3.9817,45.6117],[98.2012,3.978,40.5419],[98.2061,3.9765,30.255],[98.2059,3.9661,28.3635],[98.197,3.9628,32.6938],[98.1979,3.9567,49.9909],[98.2059,3.9567,33.5819],[98.2059,3.962,38.6441],[98.2109,3.9621,31.1565],[98.2132,3.9603,27.628]]]]}}