{"type":"Feature","properties":{"GID_3":"IDN.10.2.7_1","GID_0":"IDN","country":"Indonesia","GID_1":"IDN.10_1","province":"JawaTengah","NL_NAME_1":"NA","GID_2":"IDN.10.2_1","county":"Banyumas","NL_NAME_2":"NA","city":"Kalibagor","VARNAME_3":"NA","NL_NAME_3":"NA","TYPE_3":"Kecamatan","ENGTYPE_3":"Sub-district","CC_3":"3302100","HASC_3":"NA","name":"Kalibagor.city"},
"geometry":{"type": "MultiPolygon","coordinates": [[[[109.2822,-7.5089,13.5],[109.2977,-7.5091,16.8245],[109.3031,-7.5173,19.8188],[109.3112,-7.5126,18.4593],[109.318,-7.513,23.3167],[109.3193,-7.5167,23.3168],[109.3137,-7.5232,16.3483],[109.3162,-7.5261,14.0],[109.3223,-7.5196,14.0],[109.328,-7.5181,18.2097],[109.3367,-7.5126,21.0862],[109.342,-7.5115,23.2204],[109.3419,-7.5091,16.602],[109.3342,-7.5056,22.4034],[109.3335,-7.4993,16.3522],[109.3372,-7.4933,39.1969],[109.3355,-7.4863,18.6594],[109.3285,-7.4835,23.322],[109.3219,-7.4831,37.5989],[109.3205,-7.4811,19.6439],[109.3213,-7.4733,20.7529],[109.3273,-7.4714,20.0537],[109.3255,-7.466,20.9774],[109.3266,-7.4625,24.2965],[109.3297,-7.4606,20.6475],[109.3316,-7.4611,24.4678],[109.3293,-7.4659,27.8227],[109.3313,-7.469,27.8983],[109.3366,-7.463,25.4527],[109.3348,-7.4605,23.7318],[109.3372,-7.4602,23.7805],[109.3344,-7.4589,24.5541],[109.3349,-7.4579,24.2009],[109.341,-7.4583,24.2519],[109.341,-7.4498,24.0557],[109.3379,-7.4481,24.9745],[109.3387,-7.4466,25.8552],[109.3343,-7.4462,26.8434],[109.3302,-7.4531,26.5294],[109.3285,-7.4523,26.9016],[109.3281,-7.4484,26.6763],[109.3273,-7.4502,26.5296],[109.318,-7.4489,29.3314],[109.3159,-7.459,28.8865],[109.3086,-7.4613,31.4932],[109.3071,-7.4638,30.7447],[109.3038,-7.4643,31.6339],[109.3035,-7.4669,29.3685],[109.2995,-7.4677,33.5445],[109.2994,-7.4694,32.7469],[109.2973,-7.4666,33.2862],[109.2905,-7.4651,35.6773],[109.2787,-7.4658,35.374],[109.2748,-7.4702,44.92],[109.2757,-7.4752,48.5613],[109.2685,-7.4743,47.9041],[109.2676,-7.4852,42.4383],[109.2705,-7.4845,76.5732],[109.2755,-7.4886,84.7185],[109.2598,-7.5043,16.1031],[109.2615,-7.5105,15.2743],[109.2667,-7.5133,20.3108],[109.2738,-7.509,14.6254],[109.2822,-7.5089,13.5]]]]}}