{"type":"Feature","properties":{"GID_3":"IDN.23.3.11_1","GID_0":"IDN","country":"Indonesia","GID_1":"IDN.23_1","province":"Papua","NL_NAME_1":"NA","GID_2":"IDN.23.3_1","county":"BovenDigoel","NL_NAME_2":"NA","city":"Kombut","VARNAME_3":"NA","NL_NAME_3":"NA","TYPE_3":"Distrik","ENGTYPE_3":"District","CC_3":"9413022","HASC_3":"NA","name":"Kombut.city"},
"geometry":{"type": "MultiPolygon","coordinates": [[[[140.9233,-5.7937,70.6813],[140.9075,-5.7861,47.0635],[140.9017,-5.7753,67.951],[140.8986,-5.7632,82.3988],[140.8973,-5.741,86.1468],[140.8903,-5.7302,78.0832],[140.8776,-5.7239,83.3799],[140.8656,-5.7232,75.5823],[140.8427,-5.7346,73.0198],[140.7598,-5.7538,73.1917],[140.7555,-5.7677,80.5699],[140.7502,-5.7784,70.1831],[140.7491,-5.7906,69.1706],[140.7146,-5.8466,55.3277],[140.7358,-5.8617,54.3604],[140.7672,-5.8657,67.5895],[140.7655,-5.88,70.1178],[140.7911,-5.884,71.8193],[140.8049,-5.8909,65.9766],[140.8141,-5.9047,63.3882],[140.8407,-5.9095,45.3628],[140.8427,-5.9111,48.0984],[140.8456,-5.91,47.2366],[140.8444,-5.9136,53.8394],[140.847,-5.9166,53.7893],[140.8489,-5.9148,50.6802],[140.8513,-5.9161,46.3617],[140.8512,-5.9176,51.8489],[140.8545,-5.9184,47.7929],[140.8551,-5.9172,42.9099],[140.856,-5.9217,47.3485],[140.8581,-5.924,49.7577],[140.8601,-5.9222,47.2628],[140.8601,-5.9199,49.5488],[140.8616,-5.9201,49.5488],[140.8633,-5.9222,50.2082],[140.8619,-5.9258,43.5726],[140.859,-5.9283,52.7172],[140.8643,-5.9307,42.5321],[140.8646,-5.9326,45.0362],[140.8664,-5.9303,46.2285],[140.8674,-5.931,46.2285],[140.8652,-5.9336,43.7056],[140.8662,-5.9371,46.3782],[140.8628,-5.9388,52.387],[140.8652,-5.9399,45.9929],[140.8631,-5.9401,53.5679],[140.8628,-5.9444,47.4701],[140.8681,-5.9451,43.629],[140.8646,-5.9487,42.1328],[140.8676,-5.9505,40.796],[140.8648,-5.9505,44.4284],[140.8643,-5.9528,39.2608],[140.8674,-5.9545,44.1872],[140.8681,-5.9528,44.7346],[140.8692,-5.9535,43.1539],[140.8692,-5.9581,44.8543],[140.8714,-5.9576,48.1684],[140.8716,-5.9543,45.2735],[140.8737,-5.9586,40.4983],[140.8785,-5.9595,38.7585],[140.8793,-5.9619,47.5314],[140.8808,-5.9618,45.6736],[140.8813,-5.9658,41.0642],[140.8838,-5.9677,53.0335],[140.8881,-5.9638,43.1435],[140.8888,-5.9601,31.578],[140.8916,-5.9603,37.2492],[140.8911,-5.9628,53.1906],[140.8869,-5.9649,39.3588],[140.8878,-5.9672,42.5544],[140.8866,-5.9686,41.2462],[140.8893,-5.9714,62.0329],[140.8911,-5.9702,31.6804],[140.8916,-5.973,52.6905],[140.8956,-5.9769,37.0037],[140.8957,-5.9783,28.8329],[140.8906,-5.9818,40.0458],[140.8853,-5.982,42.5998],[140.8836,-5.9841,39.4631],[140.8772,-5.9813,34.2144],[140.8744,-5.9818,39.6965],[140.873,-5.9838,27.5609],[140.8729,-5.9866,34.701],[140.8787,-5.9924,39.9414],[140.8896,-5.9886,43.5199],[140.8919,-5.9918,31.0469],[140.8927,-5.9967,37.479],[140.897,-6.0007,31.6577],[140.899,-6.0123,47.0907],[140.8946,-6.0148,53.4088],[140.8951,-6.0161,34.8495],[140.8965,-6.0178,40.5487],[140.903,-6.0173,22.8859],[140.9038,-6.0186,36.2541],[140.9027,-6.0229,43.2466],[140.8924,-6.0173,47.6145],[140.8881,-6.0179,57.8666],[140.8864,-6.0202,51.9072],[140.8871,-6.0231,49.0908],[140.8916,-6.0267,36.8758],[140.8883,-6.029,42.3634],[140.8909,-6.0378,30.1962],[140.8961,-6.0373,38.2341],[140.8957,-6.0295,41.8894],[140.8984,-6.03,41.8914],[140.8956,-6.0462,36.15],[140.8825,-6.0438,35.2981],[140.8823,-6.0482,42.8037],[140.8871,-6.0507,30.2842],[140.883,-6.0542,29.5319],[140.8775,-6.0459,45.507],[140.8742,-6.0467,29.9284],[140.8739,-6.0527,46.7957],[140.8836,-6.065,25.2645],[140.88,-6.0696,43.6606],[140.8797,-6.0772,38.6846],[140.8762,-6.0772,39.199],[140.8719,-6.0746,38.2916],[140.872,-6.0828,45.5602],[140.874,-6.0863,27.0868],[140.8633,-6.0895,34.9069],[140.8624,-6.0931,40.0136],[140.8641,-6.0944,38.5132],[140.8659,-6.0921,28.2958],[140.8677,-6.0954,37.5297],[140.8674,-6.0981,26.9901],[140.8651,-6.0997,29.5019],[140.8561,-6.0984,23.9561],[140.8537,-6.1014,28.3183],[140.8505,-6.1011,37.4555],[140.8446,-6.1078,23.1453],[140.8359,-6.0946,20.8226],[140.833,-6.0953,22.4561],[140.8298,-6.0996,28.9943],[140.821,-6.0986,30.3406],[140.8187,-6.1004,25.7431],[140.8172,-6.1047,33.7185],[140.8176,-6.109,36.4488],[140.8085,-6.1155,23.5859],[140.8071,-6.1191,28.5735],[140.8022,-6.1216,14.7791],[140.7984,-6.1184,19.9318],[140.7877,-6.126,32.3709],[140.7891,-6.1284,34.0179],[140.8002,-6.1314,29.1065],[140.8004,-6.1328,29.1065],[140.7942,-6.1338,28.0035],[140.7928,-6.1361,18.9879],[140.7902,-6.1365,28.8786],[140.7981,-6.1382,27.687],[140.7997,-6.1408,19.4473],[140.7921,-6.1482,22.1309],[140.7951,-6.1498,21.8371],[140.7977,-6.1464,28.8062],[140.8007,-6.1456,28.9366],[140.8068,-6.1482,25.0511],[140.8095,-6.1542,20.2841],[140.8084,-6.1561,36.2547],[140.7993,-6.1587,18.3295],[140.7972,-6.1689,30.1387],[140.7948,-6.1709,20.4037],[140.7898,-6.1748,38.9045],[140.7833,-6.1744,22.3792],[140.7811,-6.1762,20.7699],[140.7825,-6.1835,23.9193],[140.7834,-6.1846,33.2458],[140.7889,-6.1828,33.1183],[140.793,-6.186,36.8661],[140.8222,-6.1973,37.8165],[140.8794,-6.2148,47.5125],[140.9129,-6.2194,38.2289],[140.9412,-6.2211,37.5937],[140.9679,-6.2205,44.9019],[140.9889,-6.2148,34.6542],[141.0,-6.2148,41.3466],[141.0,-5.8026,85.8291],[140.9608,-5.8032,73.092],[140.9386,-5.8013,57.482],[140.9233,-5.7937,70.6813]]]]}}