{"type":"Feature","properties":{"GID_3":"IDN.12.1.2_1","GID_0":"IDN","country":"Indonesia","GID_1":"IDN.12_1","province":"KalimantanBarat","NL_NAME_1":"NA","GID_2":"IDN.12.1_1","county":"Bengkayang","NL_NAME_2":"NA","city":"Capkala","VARNAME_3":"NA","NL_NAME_3":"NA","TYPE_3":"Kecamatan","ENGTYPE_3":"Sub-district","CC_3":"6102011","HASC_3":"NA","name":"Capkala.city"},
"geometry":{"type": "MultiPolygon","coordinates": [[[[109.0304,0.575,14.6232],[109.0303,0.5745,14.6232],[109.0305,0.5744,14.6232],[109.0305,0.5749,14.6232],[109.0304,0.575,14.6232]]],
[[[109.0319,0.5764,10.6124],[109.032,0.5768,10.6124],[109.0321,0.5773,7.252],[109.0312,0.5767,10.6124],[109.0319,0.5764,10.6124]]],
[[[109.0135,0.5988,11.6616],[109.0239,0.6027,42.5431],[109.0303,0.6012,43.9629],[109.0293,0.5978,17.3857],[109.0312,0.5952,8.9141],[109.0307,0.5898,10.4262],[109.0331,0.5845,6.2796],[109.0333,0.587,9.5784],[109.0382,0.5929,14.1695],[109.0432,0.5959,12.4868],[109.0715,0.5986,21.4191],[109.0805,0.6067,18.931],[109.1044,0.6354,21.2591],[109.0861,0.6655,21.1123],[109.0727,0.6805,23.3452],[109.0564,0.7042,33.9035],[109.0553,0.7094,34.8002],[109.0506,0.7145,34.1608],[109.036,0.7082,31.6878],[109.0175,0.706,25.8614],[109.0078,0.7,21.4583],[108.9919,0.6861,11.782],[108.9693,0.6794,10.3507],[108.9668,0.6746,7.8661],[108.9558,0.6629,8.2318],[108.9522,0.6559,28.3077],[108.9567,0.6457,4.0488],[108.9826,0.6154,5.7731],[108.9894,0.6047,8.1161],[108.993,0.5909,10.6302],[109.0135,0.5988,11.6616]]],
[[[109.0338,0.5809,8.2421],[109.0338,0.5812,8.2421],[109.0336,0.5818,8.2421],[109.0338,0.5808,8.2421],[109.0338,0.5809,8.2421]]]]}}