{"type":"Feature","properties":{"GID_3":"IDN.9.2.7_1","GID_0":"IDN","country":"Indonesia","GID_1":"IDN.9_1","province":"JawaBarat","NL_NAME_1":"NA","GID_2":"IDN.9.2_1","county":"Bandung","NL_NAME_2":"NA","city":"Cikancung","VARNAME_3":"NA","NL_NAME_3":"NA","TYPE_3":"Kecamatan","ENGTYPE_3":"Sub-district","CC_3":"3204090","HASC_3":"NA","name":"Cikancung.city"},
"geometry":{"type": "MultiPolygon","coordinates": [[[[107.8351,-7.0691,1087.918],[107.838,-7.0666,1085.5946],[107.8405,-7.067,1077.6677],[107.8469,-7.0641,1071.5757],[107.8499,-7.0588,1130.3882],[107.8526,-7.0591,1198.0087],[107.8479,-7.0468,1056.6577],[107.8464,-7.0298,873.8115],[107.8417,-7.0239,816.9853],[107.8394,-7.0181,794.9993],[107.8384,-7.0108,736.1892],[107.8418,-7.0033,721.6478],[107.8326,-6.9945,690.2889],[107.8287,-6.9939,681.4996],[107.8255,-6.9895,684.7567],[107.824,-6.9913,683.1479],[107.8189,-6.9918,678.9827],[107.8188,-6.9883,676.2614],[107.8159,-6.988,672.6748],[107.8151,-6.9929,675.5698],[107.8021,-6.9949,669.2725],[107.8008,-7.0033,665.4856],[107.7978,-7.0055,665.6326],[107.793,-7.0057,664.8992],[107.7965,-7.0171,668.9423],[107.7987,-7.0174,669.7868],[107.8009,-7.0359,696.7869],[107.8061,-7.0441,725.0286],[107.805,-7.0483,755.7496],[107.8077,-7.0543,787.7166],[107.8201,-7.0622,1039.7837],[107.8209,-7.0723,1104.9948],[107.8258,-7.0792,1244.4521],[107.83,-7.0818,1358.1381],[107.8355,-7.0805,1136.9491],[107.8351,-7.0691,1087.918]]]]}}