{"type":"Feature","properties":{"GID_3":"IDN.29.15.4_1","GID_0":"IDN","country":"Indonesia","GID_1":"IDN.29_1","province":"SulawesiUtara","NL_NAME_1":"NA","GID_2":"IDN.29.15_1","county":"Tomohon","NL_NAME_2":"NA","city":"TomohonTimur","VARNAME_3":"NA","NL_NAME_3":"NA","TYPE_3":"Kecamatan","ENGTYPE_3":"Sub-district","CC_3":"7173021","HASC_3":"NA","name":"Tomohon_Timur.city"},
"geometry":{"type": "MultiPolygon","coordinates": [[[[124.8385,1.3248,770.1301],[124.8382,1.3205,760.6252],[124.8434,1.3208,769.189],[124.8448,1.3177,777.6096],[124.8466,1.3177,781.5946],[124.856,1.3233,832.7401],[124.8727,1.3247,1116.5232],[124.8788,1.3293,1073.1797],[124.8822,1.3365,1009.4603],[124.8904,1.3401,894.7072],[124.8878,1.3435,918.3138],[124.8925,1.3498,792.9168],[124.8921,1.3544,919.0345],[124.8888,1.3584,977.6263],[124.8715,1.3527,1271.8335],[124.8648,1.3519,1290.2933],[124.863,1.353,1247.6982],[124.8618,1.3371,1033.4574],[124.8599,1.334,958.7952],[124.8483,1.3303,821.9747],[124.8457,1.3277,817.3241],[124.8425,1.3281,810.5304],[124.8412,1.3253,776.8744],[124.8385,1.3248,770.1301]]]]}}