{"type":"Feature","properties":{"GID_3":"IDN.28.2.17_1","GID_0":"IDN","country":"Indonesia","GID_1":"IDN.28_1","province":"SulawesiTenggara","NL_NAME_1":"NA","GID_2":"IDN.28.2_1","county":"Bombana","NL_NAME_2":"NA","city":"Poleang","VARNAME_3":"NA","NL_NAME_3":"NA","TYPE_3":"Kecamatan","ENGTYPE_3":"Sub-district","CC_3":"7406060","HASC_3":"NA","name":"Poleang.city"},
"geometry":{"type": "MultiPolygon","coordinates": [[[[121.5766,-4.782,0.0],[121.5778,-4.7847,0.0],[121.5869,-4.7898,0.0],[121.6013,-4.7884,1.8235],[121.6164,-4.7956,1.435],[121.62,-4.7948,0.0],[121.6194,-4.7878,8.7167],[121.6212,-4.778,19.4196],[121.6196,-4.7758,41.7238],[121.6263,-4.7633,11.8606],[121.6226,-4.7578,31.8474],[121.6238,-4.7532,36.4285],[121.6225,-4.75,22.1789],[121.6251,-4.7465,27.3186],[121.6125,-4.7479,78.6202],[121.6081,-4.7447,112.3648],[121.6105,-4.7384,142.5151],[121.6078,-4.7329,158.657],[121.6074,-4.7278,192.462],[121.6099,-4.7234,229.87],[121.6174,-4.7189,87.6669],[121.6225,-4.7198,65.6948],[121.625,-4.7159,89.4191],[121.6251,-4.7122,99.1977],[121.6316,-4.7066,147.6544],[121.6481,-4.7073,292.2846],[121.65,-4.7008,300.4742],[121.6639,-4.6807,260.2888],[121.6741,-4.669,381.1841],[121.6809,-4.6634,297.3819],[121.6844,-4.6632,283.13],[121.6868,-4.661,281.2308],[121.6874,-4.6583,288.4622],[121.6856,-4.6559,294.8694],[121.6874,-4.655,302.6975],[121.6871,-4.6532,295.0544],[121.6841,-4.651,364.1931],[121.6817,-4.6137,361.5879],[121.6757,-4.615,356.7517],[121.6727,-4.6173,353.1505],[121.6655,-4.6287,454.0797],[121.6585,-4.6459,457.2668],[121.6512,-4.6542,493.0451],[121.6207,-4.6783,435.8125],[121.6066,-4.6938,324.5255],[121.5828,-4.7019,281.9853],[121.5445,-4.7276,132.76],[121.5394,-4.7278,114.1073],[121.531,-4.7332,89.0984],[121.5183,-4.735,22.7223],[121.515,-4.7371,0.0],[121.5198,-4.7396,0.0],[121.5198,-4.7444,0.0],[121.5267,-4.7532,0.0],[121.533,-4.7538,0.872],[121.536,-4.7571,1.197],[121.5369,-4.7601,0.9631],[121.533,-4.7595,0.0],[121.5348,-4.7632,0.0],[121.5378,-4.7638,2.2458],[121.5408,-4.7686,0.0],[121.5417,-4.7677,0.0],[121.5454,-4.7698,0.0],[121.549,-4.7735,0.0],[121.5586,-4.7735,0.0],[121.567,-4.7795,2.8024],[121.5721,-4.7789,0.0],[121.5766,-4.782,0.0]]]]}}