{"type":"Feature","properties":{"GID_3":"IDN.3.2.4_1","GID_0":"IDN","country":"Indonesia","GID_1":"IDN.3_1","province":"BangkaBelitung","NL_NAME_1":"NA","GID_2":"IDN.3.2_1","county":"BangkaSelatan","NL_NAME_2":"NA","city":"PulauBesar","VARNAME_3":"NA","NL_NAME_3":"NA","TYPE_3":"Kecamatan","ENGTYPE_3":"Sub-district","CC_3":"1905011","HASC_3":"NA","name":"Pulau_Besar.city"},
"geometry":{"type": "MultiPolygon","coordinates": [[[[106.2643,-2.8245,24.802],[106.2543,-2.8238,12.629],[106.2468,-2.8254,16.2514],[106.2371,-2.8303,16.5331],[106.2358,-2.8239,19.1166],[106.2306,-2.814,22.9011],[106.23,-2.7774,24.472],[106.2268,-2.7416,40.6301],[106.2255,-2.7383,48.2125],[106.2169,-2.7326,45.4367],[106.2124,-2.7274,29.4737],[106.2027,-2.7261,25.4898],[106.1784,-2.733,38.6536],[106.1721,-2.73,33.5117],[106.17,-2.724,24.9795],[106.1671,-2.7265,59.1868],[106.1603,-2.7261,17.6552],[106.1538,-2.7292,29.361],[106.1261,-2.7282,51.2343],[106.1128,-2.733,24.053],[106.0994,-2.7336,20.2164],[106.0793,-2.7266,13.082],[106.0677,-2.7163,18.8387],[106.0513,-2.7092,15.9403],[106.0529,-2.7114,6.1074],[106.0501,-2.7177,11.8095],[106.0425,-2.7206,3.7907],[106.0446,-2.722,5.5634],[106.0471,-2.7281,3.8867],[106.0432,-2.7353,6.3148],[106.0416,-2.7525,5.8938],[106.0359,-2.7557,5.8721],[106.0317,-2.7616,6.9856],[106.0275,-2.7751,2.5604],[106.0286,-2.7888,11.2669],[106.0305,-2.793,8.7172],[106.0289,-2.7961,9.9446],[106.0297,-2.7982,11.7637],[106.0314,-2.7981,7.8437],[106.0289,-2.8009,9.7151],[106.0316,-2.804,8.4508],[106.0319,-2.8097,9.9374],[106.0291,-2.8126,12.0418],[106.0318,-2.8324,4.4588],[106.0368,-2.8332,0.0],[106.0569,-2.8303,5.3023],[106.0701,-2.8341,1.7052],[106.0915,-2.837,0.0],[106.1225,-2.8509,6.106],[106.1366,-2.8638,4.0798],[106.142,-2.8759,0.8568],[106.1655,-2.872,2.5841],[106.1813,-2.8715,0.331],[106.1952,-2.8757,4.6581],[106.1984,-2.8803,4.2737],[106.2173,-2.8858,2.8028],[106.2302,-2.8965,1.6456],[106.25,-2.8744,10.2891],[106.273,-2.8362,22.4981],[106.278,-2.8325,22.3599],[106.2759,-2.8267,29.6077],[106.2643,-2.8245,24.802]]]]}}