{"type":"Feature","properties":{"GID_2":"IDN.3.3_1","GID_0":"IDN","country":"Indonesia","GID_1":"IDN.3_1","province":"BangkaBelitung","NL_NAME_1":"NA","county":"BangkaTengah","VARNAME_2":"NA","NL_NAME_2":"NA","TYPE_2":"Kabupaten","ENGTYPE_2":"Regency","CC_2":"1904","HASC_2":"ID.BB.BG","name":"Bangka_Tengah.county"},
"geometry":{"type": "MultiPolygon","coordinates": [[[[106.6022,-2.6909,19.8388],[106.6216,-2.6947,15.4618],[106.6334,-2.6952,13.7814],[106.6368,-2.7014,16.7494],[106.638,-2.7132,8.2365],[106.6438,-2.7187,13.3044],[106.6489,-2.7179,9.0369],[106.6561,-2.7212,6.8968],[106.6561,-2.7196,6.8968],[106.6654,-2.7121,9.7963],[106.6743,-2.6933,17.7792],[106.6814,-2.686,1.0153],[106.6822,-2.6814,12.2825],[106.6893,-2.6688,2.238],[106.6975,-2.6633,0.0],[106.699,-2.6573,10.5861],[106.7029,-2.6532,10.6227],[106.7034,-2.6503,8.1783],[106.7086,-2.6464,0.5724],[106.7077,-2.6431,1.0948],[106.7203,-2.6345,8.4458],[106.7232,-2.6307,17.9863],[106.7275,-2.6298,1.4411],[106.7328,-2.6241,0.389],[106.7338,-2.6209,6.9985],[106.7468,-2.6084,1.2066],[106.763,-2.5984,4.6943],[106.7689,-2.6016,2.3311],[106.7709,-2.6076,1.299],[106.7731,-2.6077,7.0963],[106.7847,-2.594,3.3566],[106.7835,-2.5919,0.0],[106.7856,-2.5891,0.0],[106.7975,-2.5825,4.8579],[106.8088,-2.5786,0.3914],[106.8159,-2.578,0.0],[106.8196,-2.5794,2.641],[106.8232,-2.5838,7.3397],[106.8243,-2.5882,0.4389],[106.8065,-2.5941,0.0],[106.8018,-2.5936,0.0],[106.8018,-2.5948,0.0],[106.8072,-2.5946,0.0],[106.8237,-2.5887,0.4389],[106.8306,-2.5881,1.1262],[106.8327,-2.5898,0.0],[106.8343,-2.5872,2.9139],[106.8376,-2.5874,0.0],[106.8413,-2.5847,0.0],[106.8441,-2.5754,1.2061],[106.8493,-2.5719,4.9859],[106.841,-2.5722,2.9541],[106.7551,-2.5568,2.406],[106.6975,-2.5422,1.1619],[106.6403,-2.5352,1.7815],[106.6226,-2.5316,4.582],[106.6201,-2.5325,6.4003],[106.6185,-2.5308,2.6023],[106.5689,-2.521,2.1476],[106.5425,-2.5133,13.4468],[106.49,-2.5014,17.9382],[106.4792,-2.4969,2.5131],[106.4466,-2.4727,0.0],[106.4365,-2.4775,1.4756],[106.4236,-2.4803,4.008],[106.4152,-2.4802,4.3027],[106.405,-2.4773,1.3294],[106.4013,-2.4787,6.5577],[106.395,-2.4782,2.1602],[106.3718,-2.4726,3.7529],[106.346,-2.4602,8.6933],[106.3273,-2.4446,3.3938],[106.3067,-2.422,3.2425],[106.3016,-2.4227,3.4952],[106.2995,-2.4208,4.4107],[106.2795,-2.3917,0.893],[106.2581,-2.3528,2.904],[106.2383,-2.329,0.0],[106.2347,-2.3164,1.4995],[106.2322,-2.3157,1.2722],[106.2318,-2.3088,11.0383],[106.2258,-2.2987,9.3833],[106.2256,-2.278,3.3161],[106.223,-2.275,9.7315],[106.2225,-2.2692,6.9745],[106.2245,-2.2634,0.6909],[106.2282,-2.2602,0.2312],[106.2255,-2.2598,4.9181],[106.2257,-2.2548,2.5313],[106.2144,-2.2429,5.0923],[106.2113,-2.2362,5.928],[106.2118,-2.233,4.0792],[106.2062,-2.2224,0.0],[106.2047,-2.2157,7.5334],[106.2062,-2.2131,0.142],[106.2051,-2.2105,5.6464],[106.2076,-2.209,0.0],[106.2073,-2.2048,0.0],[106.204,-2.2006,2.5052],[106.2041,-2.1942,0.0],[106.2006,-2.1908,1.3855],[106.1991,-2.1867,0.0],[106.1991,-2.1832,0.0],[106.2025,-2.183,0.0],[106.1938,-2.1804,0.9353],[106.1912,-2.1773,0.0],[106.1884,-2.1704,6.4316],[106.1899,-2.1657,0.0],[106.1927,-2.1658,0.0],[106.1907,-2.1643,0.0],[106.1928,-2.1626,0.0],[106.1902,-2.1626,0.0],[106.1925,-2.1611,0.0],[106.1868,-2.1622,0.0],[106.1818,-2.1536,0.0],[106.1702,-2.1553,24.2998],[106.1682,-2.1576,26.0779],[106.1605,-2.1533,15.3846],[106.157,-2.1591,16.0992],[106.1519,-2.1593,28.9238],[106.1493,-2.1546,24.7842],[106.1487,-2.1564,24.6957],[106.1421,-2.1532,20.1427],[106.1364,-2.148,30.1986],[106.1302,-2.1468,11.0314],[106.1172,-2.1544,45.8699],[106.1104,-2.1535,31.7054],[106.109,-2.155,30.3609],[106.1034,-2.154,16.6978],[106.1012,-2.1512,12.3313],[106.1005,-2.1462,7.2777],[106.0986,-2.1479,12.3486],[106.0926,-2.1445,14.8629],[106.0888,-2.1456,16.6423],[106.0782,-2.1513,8.0816],[106.0792,-2.1539,12.8695],[106.0735,-2.1567,18.7555],[106.073,-2.1588,26.4848],[106.0747,-2.161,12.7116],[106.07,-2.1663,25.016],[106.0723,-2.1686,20.4653],[106.0736,-2.1745,31.6449],[106.0486,-2.1812,42.8838],[106.0446,-2.1845,37.9537],[106.0394,-2.1861,24.2667],[106.0397,-2.1917,32.8753],[106.0381,-2.1942,33.3244],[106.0306,-2.1979,46.7947],[106.0211,-2.2075,21.9575],[106.0198,-2.2127,38.0475],[106.0209,-2.2144,25.4467],[106.0162,-2.2168,35.3053],[105.9919,-2.2217,21.7621],[105.9814,-2.2269,43.7869],[105.9804,-2.2307,39.6333],[105.9737,-2.2299,37.3182],[105.9653,-2.2245,55.4353],[105.9632,-2.23,38.6399],[105.9491,-2.2288,22.2392],[105.9415,-2.2234,13.7796],[105.9298,-2.2189,18.8126],[105.9277,-2.2166,15.5991],[105.9263,-2.2084,15.2525],[105.9252,-2.2089,4.975],[105.9231,-2.2114,5.8806],[105.9227,-2.2251,20.9242],[105.9179,-2.2304,12.0414],[105.9193,-2.2432,28.1202],[105.9173,-2.2456,19.5598],[105.913,-2.2457,32.4862],[105.9115,-2.2473,23.8952],[105.9118,-2.2501,28.0118],[105.9174,-2.2609,57.7936],[105.9227,-2.2616,45.7802],[105.9279,-2.2658,39.1021],[105.9351,-2.268,28.4221],[105.9355,-2.2763,20.5672],[105.9386,-2.2792,13.8614],[105.9352,-2.2861,15.2683],[105.9249,-2.2883,14.2062],[105.9214,-2.2911,14.1522],[105.9223,-2.2928,14.683],[105.9204,-2.3002,19.4251],[105.9215,-2.3034,19.9259],[105.92,-2.3063,21.5878],[105.9121,-2.3115,20.0013],[105.9037,-2.3217,22.3416],[105.8997,-2.3384,16.2293],[105.9023,-2.3425,17.1573],[105.8966,-2.3418,19.6721],[105.8941,-2.3388,18.8129],[105.8874,-2.3385,22.288],[105.8826,-2.3342,19.8344],[105.8664,-2.3331,22.6105],[105.8599,-2.3384,19.1824],[105.8531,-2.3401,3.3345],[105.8455,-2.3394,4.4688],[105.8432,-2.3455,10.9438],[105.8396,-2.346,6.6718],[105.8365,-2.3487,13.4363],[105.83,-2.3477,12.9788],[105.8292,-2.3502,11.6161],[105.8278,-2.3476,10.8488],[105.8257,-2.3474,10.4219],[105.8254,-2.3496,13.9519],[105.8233,-2.3499,15.0832],[105.8126,-2.3637,10.4879],[105.8033,-2.3668,4.9144],[105.8088,-2.3741,0.0],[105.8184,-2.381,0.0],[105.8267,-2.3934,5.2109],[105.8352,-2.4132,2.178],[105.8685,-2.4284,2.0042],[105.8743,-2.4291,6.0606],[105.8802,-2.4242,8.8636],[105.882,-2.4282,0.0],[105.9125,-2.4443,12.5937],[105.9264,-2.4587,15.3263],[105.9322,-2.4701,5.3411],[105.9355,-2.4823,9.4651],[105.9717,-2.4882,14.112],[106.0121,-2.4789,18.1423],[106.0198,-2.4827,11.0867],[106.0288,-2.5013,4.1155],[106.0316,-2.5025,2.7813],[106.0303,-2.5105,5.0732],[106.0314,-2.5124,6.275],[106.0464,-2.5164,5.6397],[106.0511,-2.5157,5.5363],[106.0544,-2.5129,3.2276],[106.0559,-2.5084,4.568],[106.0518,-2.5063,3.6648],[106.0508,-2.5021,2.6695],[106.0529,-2.4989,2.2411],[106.059,-2.4996,3.3101],[106.0609,-2.4908,2.2084],[106.0677,-2.4931,2.4273],[106.0678,-2.499,2.1652],[106.0713,-2.5001,2.5906],[106.0867,-2.4956,6.2117],[106.0884,-2.4913,4.9843],[106.0947,-2.492,9.896],[106.1114,-2.4877,7.11],[106.1201,-2.5009,10.1167],[106.1383,-2.5024,37.4283],[106.1493,-2.5073,12.7455],[106.1513,-2.521,25.376],[106.1631,-2.5252,9.0188],[106.1629,-2.5276,11.5481],[106.1665,-2.5338,10.5329],[106.1733,-2.5377,14.5478],[106.1746,-2.5415,14.0821],[106.1773,-2.5434,12.8331],[106.1786,-2.552,23.4461],[106.1828,-2.5538,23.3357],[106.1864,-2.5594,21.6647],[106.1908,-2.5621,25.6728],[106.1961,-2.5625,19.6292],[106.201,-2.5663,34.7762],[106.2018,-2.5692,28.2202],[106.2065,-2.5703,35.4098],[106.2092,-2.5744,34.5005],[106.2139,-2.5711,34.5522],[106.2215,-2.5737,36.9711],[106.2277,-2.5811,82.0903],[106.2367,-2.5847,42.3685],[106.2475,-2.5847,37.4643],[106.2512,-2.5804,27.8083],[106.264,-2.5751,17.3251],[106.2746,-2.5758,18.3847],[106.2812,-2.5731,13.9219],[106.2811,-2.5694,20.6915],[106.2834,-2.5681,16.0645],[106.289,-2.5704,11.9657],[106.2971,-2.5641,15.9879],[106.2975,-2.5579,7.9007],[106.3014,-2.5518,9.682],[106.305,-2.5513,24.8542],[106.309,-2.5481,21.3425],[106.3189,-2.55,15.0],[106.3238,-2.554,28.1225],[106.3328,-2.5538,26.1199],[106.3372,-2.5475,25.4557],[106.3513,-2.5539,30.9164],[106.3699,-2.5543,24.9033],[106.373,-2.5557,17.3882],[106.3728,-2.5592,12.3343],[106.3791,-2.5659,26.1343],[106.397,-2.5687,18.0886],[106.4006,-2.5662,16.5922],[106.4013,-2.568,20.2902],[106.4088,-2.5693,24.9753],[106.4157,-2.5672,37.1558],[106.421,-2.5701,34.3422],[106.4243,-2.5686,26.2372],[106.4248,-2.5632,25.3945],[106.4263,-2.5625,25.0836],[106.4332,-2.5641,49.6459],[106.4375,-2.5688,53.4588],[106.4495,-2.5633,29.8356],[106.4564,-2.5578,26.0712],[106.4584,-2.5635,27.9265],[106.4565,-2.5668,32.7215],[106.458,-2.5736,31.0191],[106.4553,-2.5778,41.6718],[106.4487,-2.581,36.3723],[106.4431,-2.5956,51.6032],[106.4445,-2.6167,103.1775],[106.4526,-2.6197,89.5604],[106.4567,-2.6191,84.4302],[106.4579,-2.6173,122.9707],[106.4665,-2.6189,85.7009],[106.4708,-2.6171,66.2637],[106.4785,-2.6176,54.6463],[106.482,-2.6137,56.3408],[106.4863,-2.6141,48.614],[106.4889,-2.6118,45.1829],[106.4944,-2.6123,44.8406],[106.4954,-2.6218,160.5063],[106.5007,-2.6341,82.0709],[106.4963,-2.6569,67.1289],[106.5106,-2.6605,65.3561],[106.5134,-2.6574,81.0744],[106.5256,-2.6584,56.6005],[106.5311,-2.6547,51.6529],[106.5366,-2.6589,48.7486],[106.5406,-2.6584,54.4705],[106.5465,-2.6611,44.0802],[106.5559,-2.6607,41.0858],[106.5599,-2.6619,38.1975],[106.5653,-2.6685,37.6807],[106.5703,-2.6717,27.5844],[106.5713,-2.6743,30.8336],[106.5792,-2.6792,30.7992],[106.5806,-2.6848,23.3939],[106.5972,-2.6844,17.8671],[106.6022,-2.6909,19.8388]]],
[[[106.444,-2.2872,0.6682],[106.448,-2.2841,3.9814],[106.4478,-2.28,1.008],[106.445,-2.283,1.6969],[106.444,-2.2872,0.6682]]],
[[[106.4278,-2.2814,0.0],[106.4279,-2.2816,0.0],[106.4281,-2.2817,0.0],[106.4281,-2.2811,0.0],[106.4278,-2.2814,0.0]]],
[[[106.4219,-2.2529,0.0],[106.4223,-2.2533,0.0],[106.4222,-2.2523,0.0],[106.422,-2.2526,0.0],[106.4219,-2.2529,0.0]]],
[[[106.325,-2.2679,6.2146],[106.3266,-2.2693,0.0],[106.3291,-2.2681,0.0],[106.3286,-2.2625,3.6549],[106.3253,-2.2636,5.1863],[106.325,-2.2679,6.2146]]],
[[[106.3565,-2.2595,0.0],[106.3617,-2.2545,0.0],[106.3565,-2.259,0.0],[106.3472,-2.2577,0.0],[106.3493,-2.2596,0.0],[106.3565,-2.2595,0.0]]],
[[[106.3952,-2.257,0.0],[106.3951,-2.2561,0.0],[106.3942,-2.2561,0.0],[106.3941,-2.2566,0.0],[106.3952,-2.257,0.0]]],
[[[106.3725,-2.2528,0.0],[106.37,-2.252,0.0],[106.3613,-2.2563,0.0],[106.3698,-2.2531,0.0],[106.3726,-2.2536,0.0],[106.3725,-2.2528,0.0]]],
[[[106.3743,-2.2528,0.0],[106.3735,-2.2525,0.0],[106.3732,-2.2529,0.0],[106.3745,-2.2537,0.0],[106.3743,-2.2528,0.0]]],
[[[106.3879,-2.251,0.0],[106.3857,-2.2499,0.0],[106.382,-2.2535,0.0],[106.3751,-2.2532,0.0],[106.3768,-2.2541,0.0],[106.3815,-2.2541,0.0],[106.3879,-2.251,0.0]]],
[[[106.2781,-2.1502,0.8769],[106.2736,-2.1486,0.0],[106.2703,-2.1495,0.0],[106.2665,-2.1531,0.0],[106.2669,-2.1567,0.0],[106.2627,-2.1578,0.0],[106.2576,-2.1627,0.0],[106.2596,-2.1621,0.0],[106.2642,-2.1576,0.0],[106.2743,-2.1585,1.6443],[106.2791,-2.1534,1.6011],[106.2781,-2.1502,0.8769]]],
[[[106.2993,-2.154,0.0],[106.2958,-2.1543,0.0],[106.2926,-2.157,0.0],[106.2971,-2.1572,1.6593],[106.2998,-2.1556,2.8907],[106.2993,-2.154,0.0]]],
[[[105.7911,-2.4003,9.6281],[105.7857,-2.3983,2.5953],[105.7824,-2.4015,0.0],[105.7868,-2.4062,4.3933],[105.7856,-2.4097,2.934],[105.7877,-2.4109,27.2483],[105.7877,-2.4186,15.3027],[105.7895,-2.4191,15.3027],[105.7908,-2.4229,12.1112],[105.7909,-2.4181,15.0462],[105.8016,-2.4162,14.3688],[105.801,-2.4128,14.6649],[105.802,-2.4076,0.0],[105.8031,-2.4078,0.0],[105.8012,-2.4046,7.5744],[105.7911,-2.4003,9.6281]]],
[[[105.7702,-2.3984,0.0],[105.7703,-2.3987,0.0],[105.7708,-2.3986,0.0],[105.7707,-2.3982,0.0],[105.7702,-2.3984,0.0]]],
[[[105.7821,-2.3978,0.0],[105.781,-2.3977,0.0],[105.7807,-2.398,0.0],[105.7823,-2.3985,0.0],[105.7821,-2.3978,0.0]]],
[[[105.7639,-2.3918,7.5102],[105.762,-2.3906,0.0],[105.7602,-2.3917,1.3002],[105.7609,-2.3937,1.9254],[105.7627,-2.3937,1.9254],[105.7633,-2.3965,0.0],[105.7635,-2.3943,5.6657],[105.7661,-2.393,0.0],[105.7639,-2.3918,7.5102]]],
[[[105.7534,-2.3879,0.0],[105.7509,-2.3862,0.0],[105.7493,-2.3877,0.0],[105.7514,-2.3897,0.0],[105.7541,-2.3891,7.6806],[105.7534,-2.3879,0.0]]],
[[[105.7613,-2.3872,0.0],[105.7615,-2.3874,0.0],[105.7619,-2.3874,0.0],[105.7615,-2.3868,0.0],[105.7613,-2.3872,0.0]]]]}}