{"type":"Feature","properties":{"GID_3":"IDN.9.10.4_1","GID_0":"IDN","country":"Indonesia","GID_1":"IDN.9_1","province":"JawaBarat","NL_NAME_1":"NA","GID_2":"IDN.9.10_1","county":"Depok","NL_NAME_2":"NA","city":"Cimanggis","VARNAME_3":"NA","NL_NAME_3":"NA","TYPE_3":"Kecamatan","ENGTYPE_3":"Sub-district","CC_3":"3276040","HASC_3":"NA","name":"Cimanggis.city"},
"geometry":{"type": "MultiPolygon","coordinates": [[[[106.8798,-6.3848,75.6688],[106.8881,-6.3856,78.2401],[106.895,-6.3891,81.2152],[106.9036,-6.3886,74.289],[106.9051,-6.3844,69.9041],[106.9039,-6.3803,71.237],[106.9082,-6.3766,69.48],[106.9076,-6.3708,61.7209],[106.9101,-6.3679,65.5129],[106.9119,-6.3671,62.4908],[106.9125,-6.3684,66.898],[106.9143,-6.3655,61.2281],[106.9066,-6.3608,63.2862],[106.9012,-6.3695,86.079],[106.8976,-6.3688,74.3468],[106.8943,-6.3708,78.4759],[106.8891,-6.3675,71.6671],[106.8877,-6.3697,75.9917],[106.8835,-6.3702,69.8498],[106.8836,-6.3651,68.1342],[106.8811,-6.3666,68.9357],[106.8807,-6.3646,63.642],[106.878,-6.3632,63.7202],[106.8788,-6.361,62.7462],[106.8766,-6.3619,62.23],[106.8715,-6.36,61.5372],[106.8739,-6.3564,57.9435],[106.8712,-6.3529,55.2965],[106.8622,-6.3573,69.2438],[106.8602,-6.3537,70.4241],[106.8556,-6.3524,61.3029],[106.8567,-6.3472,60.7853],[106.8545,-6.3469,55.8201],[106.8546,-6.3438,57.2618],[106.85,-6.3401,52.3235],[106.8521,-6.3382,53.924],[106.8516,-6.3366,53.0681],[106.8494,-6.3361,52.1278],[106.847,-6.338,53.4287],[106.8461,-6.342,58.2489],[106.8368,-6.3421,57.9836],[106.8359,-6.345,58.7782],[106.8381,-6.3433,47.3693],[106.8398,-6.3439,59.2657],[106.8375,-6.3471,52.1004],[106.8393,-6.3513,66.5443],[106.8353,-6.352,51.1789],[106.8377,-6.3556,61.6321],[106.8354,-6.3563,53.4165],[106.8352,-6.3582,59.1121],[106.837,-6.3575,60.9825],[106.8391,-6.3597,69.1084],[106.8369,-6.3626,67.5156],[106.8384,-6.3639,54.8349],[106.8383,-6.3618,52.469],[106.8396,-6.3615,62.3457],[106.8387,-6.3674,59.1974],[106.8415,-6.3678,72.0909],[106.837,-6.3699,61.1326],[106.8403,-6.3725,59.8424],[106.8622,-6.3724,76.5031],[106.8636,-6.3764,80.1176],[106.8668,-6.3792,82.5557],[106.8675,-6.3866,88.1474],[106.8648,-6.3937,90.2077],[106.8648,-6.398,93.1251],[106.8703,-6.3982,93.1722],[106.8735,-6.3961,86.7297],[106.8739,-6.387,86.7394],[106.8798,-6.3848,75.6688]]]]}}