{"type":"Feature","properties":{"GID_3":"IDN.33.5.1_1","GID_0":"IDN","country":"Indonesia","GID_1":"IDN.33_1","province":"Yogyakarta","NL_NAME_1":"NA","GID_2":"IDN.33.5_1","county":"Sleman","NL_NAME_2":"NA","city":"Berbah","VARNAME_3":"NA","NL_NAME_3":"NA","TYPE_3":"Kecamatan","ENGTYPE_3":"Sub-district","CC_3":"3404080","HASC_3":"NA","name":"Berbah.city"},
"geometry":{"type": "MultiPolygon","coordinates": [[[[110.4224,-7.7985,102.2456],[110.4211,-7.8167,87.7679],[110.4232,-7.8185,85.7409],[110.4213,-7.8208,86.0776],[110.4251,-7.8228,85.5162],[110.4282,-7.8218,84.5958],[110.427,-7.8289,80.3248],[110.4307,-7.8304,80.9291],[110.4299,-7.8375,74.6632],[110.435,-7.8367,73.5303],[110.4342,-7.8331,74.944],[110.4362,-7.8319,76.6211],[110.437,-7.8282,79.7076],[110.4409,-7.8274,81.2905],[110.4447,-7.8286,79.2418],[110.4438,-7.8239,81.6826],[110.4526,-7.8246,86.3015],[110.4537,-7.8206,84.6473],[110.456,-7.8214,100.4527],[110.4602,-7.8197,94.3871],[110.4613,-7.8226,87.3674],[110.4619,-7.8211,87.896],[110.4654,-7.822,89.0484],[110.4663,-7.8277,83.0593],[110.4676,-7.828,84.7663],[110.4706,-7.8228,86.3848],[110.476,-7.8237,88.7154],[110.4767,-7.8255,86.7379],[110.477,-7.824,88.7154],[110.4794,-7.8249,89.3556],[110.4813,-7.8175,94.7673],[110.4871,-7.8185,94.6276],[110.4869,-7.8117,100.2784],[110.4856,-7.8117,100.2784],[110.4857,-7.8141,101.1338],[110.4841,-7.8137,99.1219],[110.4847,-7.8104,99.4111],[110.4759,-7.8066,108.3083],[110.4762,-7.8034,99.955],[110.4742,-7.8016,105.6019],[110.4728,-7.8029,103.3705],[110.4658,-7.8008,105.6663],[110.4676,-7.7964,98.5025],[110.4658,-7.7922,108.5506],[110.4687,-7.7868,111.7668],[110.4583,-7.7819,120.7463],[110.4597,-7.7784,123.3157],[110.4567,-7.78,123.8672],[110.4585,-7.7773,126.0579],[110.4448,-7.7845,122.615],[110.4393,-7.7849,118.3969],[110.4407,-7.7906,110.0854],[110.4206,-7.7909,105.7433],[110.4207,-7.7938,104.3433],[110.4229,-7.7957,101.5733],[110.4224,-7.7985,102.2456]]]]}}