{"type":"Feature","properties":{"GID_3":"IDN.21.3.14_1","GID_0":"IDN","country":"Indonesia","GID_1":"IDN.21_1","province":"NusaTenggaraTimur","NL_NAME_1":"NA","GID_2":"IDN.21.3_1","county":"Ende","NL_NAME_2":"NA","city":"NdonaTimur","VARNAME_3":"NA","NL_NAME_3":"NA","TYPE_3":"Kecamatan","ENGTYPE_3":"Sub-district","CC_3":"5311041","HASC_3":"NA","name":"Ndona_Timur.city"},
"geometry":{"type": "MultiPolygon","coordinates": [[[[121.7766,-8.8307,1366.9296],[121.778,-8.827,1442.3354],[121.8074,-8.8322,641.9612],[121.8086,-8.8161,805.8108],[121.8134,-8.8087,973.9431],[121.8189,-8.7918,1560.1268],[121.8128,-8.7832,1235.0454],[121.8067,-8.766,1597.0703],[121.8025,-8.7622,1647.7167],[121.768,-8.7812,1341.6038],[121.7662,-8.7866,1170.4952],[121.7591,-8.7947,1085.2775],[121.7417,-8.8007,1194.7501],[121.738,-8.8115,1027.2316],[121.723,-8.8108,936.2951],[121.7211,-8.8141,761.3167],[121.7214,-8.8205,565.2393],[121.7282,-8.8193,678.4661],[121.7387,-8.8209,938.3383],[121.7379,-8.8257,1034.7944],[121.7394,-8.8381,833.1753],[121.73779999999999,-8.8412,852.4865],[121.748,-8.8448,317.5197],[121.7527,-8.8438,349.9339],[121.7607,-8.8476,847.7521],[121.7669,-8.8457,1221.2006],[121.7763,-8.8407,1258.1271],[121.7766,-8.8307,1366.9296]]]]}}