{"type":"Feature","properties":{"GID_3":"IDN.17.6.20_1","GID_0":"IDN","country":"Indonesia","GID_1":"IDN.17_1","province":"Lampung","NL_NAME_1":"NA","GID_2":"IDN.17.6_1","county":"LampungUtara","NL_NAME_2":"NA","city":"SungkaiSelatan","VARNAME_3":"NA","NL_NAME_3":"NA","TYPE_3":"Kecamatan","ENGTYPE_3":"Sub-district","CC_3":"1806070","HASC_3":"NA","name":"Sungkai_Selatan.city"},
"geometry":{"type": "MultiPolygon","coordinates": [[[[104.7744,-4.7809,51.6818],[104.7927,-4.7754,68.3577],[104.8099,-4.7525,52.9173],[104.8176,-4.7386,51.4906],[104.8124,-4.7217,46.2942],[104.8119,-4.7071,65.3793],[104.8159,-4.6953,47.8333],[104.8369,-4.6552,47.8656],[104.8361,-4.6512,51.753],[104.839,-4.6494,46.5514],[104.853,-4.6247,45.2197],[104.8509,-4.6206,45.8942],[104.8355,-4.6259,27.6934],[104.8275,-4.6206,33.0095],[104.8208,-4.6136,32.9889],[104.8168,-4.612,22.4658],[104.8112,-4.6316,48.4975],[104.7886,-4.6566,39.3158],[104.7862,-4.6682,60.4145],[104.7886,-4.6711,54.1173],[104.7825,-4.6801,42.2105],[104.7832,-4.6835,42.5343],[104.773,-4.7077,48.4788],[104.7601,-4.7157,58.2178],[104.7395,-4.7198,63.8131],[104.7359,-4.7288,74.0568],[104.7098,-4.7364,67.5856],[104.7204,-4.7483,71.4854],[104.7222,-4.753,84.7624],[104.7311,-4.7579,76.4896],[104.7342,-4.7622,89.9561],[104.7317,-4.7845,84.8369],[104.7374,-4.7896,85.4762],[104.7427,-4.7917,72.2319],[104.7489,-4.7905,73.7746],[104.7563,-4.7827,72.7023],[104.7622,-4.7792,63.0276],[104.7688,-4.7815,58.2544],[104.7744,-4.7809,51.6818]]]]}}