{"type":"Feature","properties":{"GID_3":"IDN.26.5.7_1","GID_0":"IDN","country":"Indonesia","GID_1":"IDN.26_1","province":"SulawesiSelatan","NL_NAME_1":"NA","GID_2":"IDN.26.5_1","county":"Enrekang","NL_NAME_2":"NA","city":"Cendana","VARNAME_3":"NA","NL_NAME_3":"NA","TYPE_3":"Kecamatan","ENGTYPE_3":"Sub-district","CC_3":"7316021","HASC_3":"NA","name":"Cendana.city"},
"geometry":{"type": "MultiPolygon","coordinates": [[[[119.7836,-3.6048,157.2226],[119.7699,-3.5894,96.048],[119.7687,-3.5849,42.4483],[119.7543,-3.577,142.3653],[119.7367,-3.5772,134.9781],[119.7203,-3.5808,290.6935],[119.7225,-3.593,168.9106],[119.7231,-3.6268,108.5014],[119.7207,-3.6325,108.5838],[119.7227,-3.6361,85.8819],[119.7226,-3.6463,53.9125],[119.7477,-3.6677,43.552],[119.7559,-3.6682,25.25],[119.7608,-3.6715,26.0363],[119.7628,-3.6749,28.1055],[119.7595,-3.6762,33.0949],[119.7593,-3.699,104.5872],[119.7735,-3.7108,64.8244],[119.79,-3.7041,71.9493],[119.8003,-3.7036,115.9957],[119.8143,-3.6995,174.3912],[119.8133,-3.6832,236.2757],[119.8152,-3.664,191.9799],[119.8192,-3.6519,266.7752],[119.8274,-3.6495,544.8771],[119.8277,-3.6457,670.3616],[119.8276,-3.6431,636.9387],[119.8184,-3.6281,629.4908],[119.8062,-3.5992,487.8176],[119.7859,-3.6073,150.9766],[119.7836,-3.6048,157.2226]]]]}}