{"type":"Feature","properties":{"GID_3":"IDN.11.25.2_1","GID_0":"IDN","country":"Indonesia","GID_1":"IDN.11_1","province":"JawaTimur","NL_NAME_1":"NA","GID_2":"IDN.11.25_1","county":"Ngawi","NL_NAME_2":"NA","city":"Geneng","VARNAME_3":"NA","NL_NAME_3":"NA","TYPE_3":"Kecamatan","ENGTYPE_3":"Sub-district","CC_3":"3521050","HASC_3":"NA","name":"Geneng.city"},
"geometry":{"type": "MultiPolygon","coordinates": [[[[111.4347,-7.5241,69.5453],[111.4377,-7.5206,64.4662],[111.4441,-7.5174,62.3158],[111.4479,-7.5175,62.1878],[111.4483,-7.5158,61.8257],[111.4528,-7.5152,61.9622],[111.4602,-7.5176,59.3074],[111.4616,-7.51,56.2294],[111.4688,-7.5101,52.9954],[111.4691,-7.5072,53.0695],[111.4668,-7.5079,55.1454],[111.4666,-7.5048,54.8696],[111.4694,-7.5045,50.5697],[111.4751,-7.4932,48.2059],[111.4694,-7.4922,49.3309],[111.4691,-7.4873,50.884],[111.467,-7.4873,51.5883],[111.4664,-7.4887,51.6054],[111.4638,-7.4878,49.3781],[111.4644,-7.4836,48.3957],[111.4699,-7.4848,49.0265],[111.4718,-7.4829,49.7103],[111.4704,-7.4803,54.3201],[111.4714,-7.4763,50.7016],[111.4684,-7.4719,50.8178],[111.4695,-7.4675,48.3223],[111.4613,-7.4586,43.5546],[111.4645,-7.4553,48.2877],[111.4623,-7.4504,46.5318],[111.4655,-7.4484,45.1549],[111.4618,-7.4474,47.8809],[111.4647,-7.4458,47.8154],[111.4629,-7.4431,43.6945],[111.4656,-7.4387,43.6163],[111.4637,-7.438,44.2757],[111.4625,-7.4404,46.169],[111.4594,-7.4337,45.5649],[111.4549,-7.4343,43.6447],[111.4547,-7.4284,45.9936],[111.4492,-7.4258,43.5718],[111.4463,-7.4268,46.7053],[111.44,-7.4244,51.6892],[111.4386,-7.4263,48.4305],[111.4352,-7.426,49.2799],[111.4351,-7.4291,46.3481],[111.4326,-7.4297,45.6568],[111.4332,-7.4325,45.3843],[111.4349,-7.4313,47.5327],[111.4362,-7.4323,46.4067],[111.4361,-7.4307,50.7658],[111.4385,-7.4329,50.7433],[111.4317,-7.4387,50.6397],[111.4304,-7.4418,50.1947],[111.4291,-7.4415,54.9827],[111.4298,-7.4439,51.1135],[111.4252,-7.4461,56.6213],[111.4249,-7.4489,54.3223],[111.4223,-7.4486,56.8541],[111.4234,-7.4515,56.3376],[111.4224,-7.4532,55.6346],[111.4287,-7.4559,48.7099],[111.4293,-7.4581,48.7689],[111.4406,-7.4623,48.2358],[111.4343,-7.4683,49.2115],[111.4329,-7.4768,51.4106],[111.4341,-7.479,50.7855],[111.4305,-7.4781,52.8251],[111.4313,-7.4693,50.927],[111.4279,-7.4711,50.7133],[111.4246,-7.4704,51.004],[111.4238,-7.4738,51.5598],[111.4144,-7.4715,52.738],[111.414,-7.469,58.1904],[111.4064,-7.4703,53.9122],[111.3988,-7.4762,57.9527],[111.3996,-7.4838,56.1705],[111.3954,-7.4854,60.4657],[111.3961,-7.4911,62.3204],[111.3891,-7.4954,64.1267],[111.3867,-7.4993,68.118],[111.3898,-7.5023,69.4444],[111.405,-7.5044,63.5746],[111.4083,-7.5012,66.4085],[111.4134,-7.5009,64.109],[111.4121,-7.4991,61.3009],[111.4164,-7.5,59.7252],[111.4206,-7.4981,62.1778],[111.4217,-7.5042,60.3136],[111.4192,-7.5102,61.4702],[111.4195,-7.5145,62.6554],[111.4261,-7.5157,62.3081],[111.4294,-7.51,62.8802],[111.4296,-7.5148,61.7],[111.4276,-7.516,62.3081],[111.4235,-7.5309,74.2237],[111.4322,-7.5277,69.8154],[111.4347,-7.5241,69.5453]]]]}}