{"type":"Feature","properties":{"GID_3":"IDN.5.7.9_1","GID_0":"IDN","country":"Indonesia","GID_1":"IDN.5_1","province":"Bengkulu","NL_NAME_1":"NA","GID_2":"IDN.5.7_1","county":"Lebong","NL_NAME_2":"NA","city":"Pelabai","VARNAME_3":"NA","NL_NAME_3":"NA","TYPE_3":"Kecamatan","ENGTYPE_3":"Sub-district","CC_3":"1707042","HASC_3":"NA","name":"Pelabai.city"},
"geometry":{"type": "MultiPolygon","coordinates": [[[[102.1402,-3.1952,951.5432],[102.1416,-3.1969,909.8807],[102.1498,-3.1946,715.3619],[102.1615,-3.1766,560.0904],[102.1597,-3.1675,535.7542],[102.1526,-3.1684,522.7012],[102.1548,-3.16,514.6824],[102.165,-3.1613,544.1355],[102.1667,-3.1583,542.4954],[102.1733,-3.1583,557.962],[102.1751,-3.1554,554.4263],[102.1806,-3.1579,574.1207],[102.1836,-3.1553,577.4431],[102.1906,-3.1416,517.2986],[102.1966,-3.1339,420.2503],[102.191,-3.1262,544.1803],[102.1894,-3.1283,571.8163],[102.1864,-3.1243,746.8306],[102.1833,-3.1164,545.3651],[102.1839,-3.1075,441.986],[102.1737,-3.1045,638.4731],[102.1659,-3.1074,740.2074],[102.1595,-3.0983,753.7852],[102.1414,-3.0915,644.6028],[102.1381,-3.1039,848.2891],[102.1421,-3.1088,935.3502],[102.1422,-3.112,882.9565],[102.1403,-3.1198,857.0822],[102.1325,-3.132,552.844],[102.1361,-3.1392,645.526],[102.1364,-3.1439,676.1075],[102.1321,-3.1511,644.0239],[102.1262,-3.1734,769.2077],[102.1329,-3.1857,807.9401],[102.1402,-3.1952,951.5432]]]]}}