{"type":"Feature","properties":{"GID_3":"IDN.10.9.13_1","GID_0":"IDN","country":"Indonesia","GID_1":"IDN.10_1","province":"JawaTengah","NL_NAME_1":"NA","GID_2":"IDN.10.9_1","county":"Grobogan","NL_NAME_2":"NA","city":"Pulokulon","VARNAME_3":"NA","NL_NAME_3":"NA","TYPE_3":"Kecamatan","ENGTYPE_3":"Sub-district","CC_3":"3315060","HASC_3":"NA","name":"Pulokulon.city"},
"geometry":{"type": "MultiPolygon","coordinates": [[[[111.0304,-7.2564,163.8366],[111.0331,-7.2579,154.1913],[111.032,-7.2645,157.8674],[111.0414,-7.267,160.9615],[111.0457,-7.2661,154.9483],[111.0578,-7.2706,163.2643],[111.0655,-7.2671,165.6243],[111.0722,-7.2671,164.8083],[111.0749,-7.2626,144.3987],[111.0794,-7.262,138.3049],[111.0775,-7.2553,137.5908],[111.08,-7.2425,128.5539],[111.0801,-7.2334,128.0016],[111.0784,-7.2301,129.4683],[111.0808,-7.2266,119.6238],[111.0775,-7.2178,94.6351],[111.086,-7.2124,109.0253],[111.0883,-7.2077,94.5931],[111.09,-7.1992,64.9507],[111.0885,-7.1952,70.3951],[111.0842,-7.1905,60.1523],[111.0829,-7.1914,61.3386],[111.0829,-7.1896,61.3889],[111.0876,-7.1864,65.8603],[111.0884,-7.1837,65.2805],[111.0933,-7.1848,62.6548],[111.0951,-7.1834,60.4467],[111.0965,-7.1793,59.404],[111.0938,-7.1724,57.1076],[111.097,-7.1538,55.1841],[111.0989,-7.1526,56.618],[111.0986,-7.1488,55.2828],[111.1049,-7.1472,53.0009],[111.1113,-7.1481,53.2061],[111.1125,-7.15,54.8041],[111.1229,-7.1501,66.8419],[111.1202,-7.1368,52.3751],[111.1254,-7.1291,47.8961],[111.1267,-7.1232,49.4471],[111.1233,-7.1224,47.2046],[111.1138,-7.1246,49.7621],[111.1019,-7.1186,45.737],[111.0901,-7.1173,41.1064],[111.0897,-7.114,39.8623],[111.0881,-7.1132,39.756],[111.0767,-7.1125,39.4553],[111.0746,-7.1137,36.3209],[111.0764,-7.1118,39.4553],[111.0732,-7.1099,35.6234],[111.0719,-7.1107,35.6234],[111.0739,-7.1081,41.1448],[111.0716,-7.1092,35.2054],[111.0709,-7.106,37.0516],[111.0672,-7.1043,37.0818],[111.0677,-7.0983,32.8939],[111.0632,-7.0983,32.3985],[111.0631,-7.1001,38.5774],[111.0618,-7.099,32.3985],[111.0604,-7.095,35.133],[111.0629,-7.0947,31.9362],[111.0617,-7.0921,29.2611],[111.0562,-7.0941,31.344],[111.0541,-7.0922,32.8471],[111.0537,-7.0968,31.1716],[111.0497,-7.0918,31.3981],[111.0462,-7.101,31.8416],[111.0402,-7.1031,30.8708],[111.0382,-7.1019,31.6852],[111.0419,-7.1077,31.3103],[111.0394,-7.1081,33.5015],[111.0379,-7.1059,33.0216],[111.0371,-7.1116,28.1241],[111.0327,-7.1078,31.0722],[111.0331,-7.1118,32.9423],[111.0291,-7.1104,30.795],[111.0291,-7.1142,32.9067],[111.0267,-7.1104,28.3514],[111.0289,-7.1059,33.7935],[111.0253,-7.1035,28.89],[111.0281,-7.1013,27.8554],[111.0247,-7.1015,31.4411],[111.0242,-7.0992,27.696],[111.0196,-7.1018,31.4297],[111.0155,-7.1019,27.7112],[111.0179,-7.1047,30.6507],[111.0171,-7.1066,31.3895],[111.0131,-7.1013,27.7063],[111.0073,-7.1024,31.992],[111.0075,-7.1053,31.2324],[111.0042,-7.1042,29.9742],[111.0041,-7.0998,31.5543],[110.997,-7.1019,29.4351],[110.9955,-7.1032,28.0896],[110.997,-7.1055,29.208],[110.994,-7.1036,28.0896],[110.9929,-7.107,29.3179],[110.9938,-7.1099,27.6982],[110.9956,-7.1103,27.6982],[110.9938,-7.1137,34.4392],[110.9957,-7.1152,31.9433],[110.9922,-7.1155,28.0455],[110.986,-7.1213,34.2205],[110.9862,-7.1261,35.0436],[110.9918,-7.1301,32.8909],[110.991,-7.1314,39.0634],[110.9935,-7.1315,36.4284],[110.9944,-7.1337,34.8468],[110.9965,-7.1319,38.4663],[110.9955,-7.1345,34.8468],[110.9977,-7.1344,39.1167],[110.9981,-7.139,35.906],[111.0006,-7.138,34.9786],[111.0008,-7.1404,35.1434],[110.9985,-7.1401,35.0378],[111.0002,-7.1427,34.6534],[111.0018,-7.1417,34.6534],[111.0027,-7.1495,44.1683],[111.0067,-7.1516,45.22],[111.0055,-7.1563,45.8333],[111.0,-7.155,42.7254],[110.9972,-7.1596,44.9196],[110.9987,-7.1619,45.7957],[111.0031,-7.1621,47.5486],[111.0062,-7.1644,49.1348],[111.0017,-7.1674,49.2797],[111.005,-7.1689,44.8964],[111.0047,-7.1736,51.2182],[111.0219,-7.1742,157.9823],[111.0223,-7.18,84.2393],[111.0201,-7.1818,86.4149],[111.0201,-7.1845,79.2857],[111.0245,-7.1837,69.0651],[111.0278,-7.1796,82.4036],[111.0324,-7.1783,113.4752],[111.0344,-7.1793,118.5808],[111.0345,-7.1819,110.762],[111.0398,-7.184,115.1217],[111.0388,-7.1894,94.5851],[111.0371,-7.1904,109.9439],[111.0389,-7.1997,105.0961],[111.0341,-7.2057,127.8071],[111.0382,-7.2111,116.1961],[111.0347,-7.2165,115.9409],[111.0359,-7.2183,122.3779],[111.0353,-7.2221,119.8634],[111.041,-7.2257999999999996,132.8727],[111.0386,-7.2315,118.7901],[111.04,-7.2328,121.6265],[111.0394,-7.2382,125.9477],[111.0409,-7.2423,137.3822],[111.0387,-7.2464,143.2494],[111.032,-7.2505,135.1649],[111.0304,-7.2564,163.8366]]]]}}