{"type":"Feature","properties":{"GID_3":"IDN.9.14.19_1","GID_0":"IDN","country":"Indonesia","GID_1":"IDN.9_1","province":"JawaBarat","NL_NAME_1":"NA","GID_2":"IDN.9.14_1","county":"KotaBandung","NL_NAME_2":"NA","city":"Coblong","VARNAME_3":"NA","NL_NAME_3":"NA","TYPE_3":"Kecamatan","ENGTYPE_3":"Sub-district","CC_3":"3273230","HASC_3":"NA","name":"Coblong.city"},
"geometry":{"type": "MultiPolygon","coordinates": [[[[107.626,-6.8869,752.8843],[107.6218,-6.882,775.6936],[107.6211,-6.8731,827.933],[107.6226,-6.8682,849.7496],[107.6264,-6.8639,890.7369],[107.6189,-6.864,864.4716],[107.612,-6.869,800.8859],[107.6116,-6.8745,805.0037],[107.6099,-6.8745,781.6942],[107.6067,-6.8809,774.7729],[107.6077,-6.8845,772.4247],[107.6067,-6.8846,757.0121],[107.6051,-6.8833,770.6666],[107.6046,-6.885,762.8477],[107.601,-6.8827,795.1233],[107.6023,-6.9002,745.7986],[107.6043,-6.9002,740.2936],[107.604,-6.8957,759.9911],[107.6062,-6.8951,745.3772],[107.6116,-6.899,747.7981],[107.6238,-6.8992,728.4494],[107.6254,-6.8956,727.0851],[107.6279,-6.8952,721.1832],[107.6276,-6.8923,733.4629],[107.6308,-6.8921,732.0128],[107.6298,-6.8896,739.2653],[107.626,-6.8869,752.8843]]]]}}