{"type":"Feature","properties":{"GID_3":"IDN.33.5.14_1","GID_0":"IDN","country":"Indonesia","GID_1":"IDN.33_1","province":"Yogyakarta","NL_NAME_1":"NA","GID_2":"IDN.33.5_1","county":"Sleman","NL_NAME_2":"NA","city":"Seyegan","VARNAME_3":"NA","NL_NAME_3":"NA","TYPE_3":"Kecamatan","ENGTYPE_3":"Sub-district","CC_3":"3404030","HASC_3":"NA","name":"Seyegan.city"},
"geometry":{"type": "MultiPolygon","coordinates": [[[[110.307,-7.7656,124.3351],[110.3074,-7.7669,122.3567],[110.3092,-7.7631,127.7337],[110.313,-7.7618,129.5152],[110.3133,-7.752,137.5825],[110.3156,-7.7512,141.6845],[110.3152,-7.745,145.1562],[110.3125,-7.7441,146.6527],[110.3086,-7.7468,140.3249],[110.3083,-7.7418,151.1245],[110.305,-7.7409,144.1928],[110.3055,-7.7358,148.9858],[110.3063,-7.7352,148.9858],[110.3075,-7.7379,150.3858],[110.3083,-7.7348,152.1537],[110.3095,-7.7353,152.6006],[110.3089,-7.7373,152.3336],[110.3108,-7.7379,162.4016],[110.3181,-7.7305,170.1639],[110.32,-7.7234,179.9677],[110.3223,-7.7243,183.2491],[110.3244,-7.7168,191.1961],[110.3222,-7.7098,196.6379],[110.3251,-7.707,204.8362],[110.324,-7.7046,204.7906],[110.3265,-7.7002,213.5978],[110.3142,-7.6964,208.7187],[110.3122,-7.6986,203.6645],[110.3097,-7.6986,200.4336],[110.3071,-7.6942,202.0793],[110.3058,-7.6961,198.784],[110.3043,-7.6941,198.7211],[110.2969,-7.6994,180.4508],[110.2963,-7.7032,172.8551],[110.2925,-7.7026,168.0674],[110.2911,-7.7078,156.8147],[110.288,-7.7073,155.4904],[110.2826,-7.7101,137.7463],[110.2745,-7.7091,131.2746],[110.2763,-7.71,136.8611],[110.276,-7.7122,136.8407],[110.2773,-7.7108,136.8611],[110.2818,-7.7117,143.4826],[110.2791,-7.7169,143.5679],[110.2746,-7.7147,146.1657],[110.2733,-7.7155,144.9954],[110.2742,-7.7166,142.5714],[110.2722,-7.7245,134.1013],[110.2756,-7.7245,136.1941],[110.2789,-7.7217,138.1117],[110.2809,-7.7225,142.0705],[110.2803,-7.7321,134.6355],[110.2761,-7.7376,131.8053],[110.2785,-7.7384,140.5012],[110.2779,-7.7423,175.6224],[110.282,-7.7462,154.5553],[110.2821,-7.7503,194.6075],[110.2844,-7.751,135.1504],[110.2861,-7.7492,125.5717],[110.2891,-7.7532,120.0899],[110.29,-7.7563,120.4154],[110.2889,-7.7572,119.1534],[110.2902,-7.7583,122.1056],[110.2993,-7.7591,128.9093],[110.2987,-7.7575,131.9198],[110.3007,-7.7559,133.1339],[110.3071,-7.7583,126.9471],[110.3056,-7.761,126.9391],[110.307,-7.7656,124.3351]]]]}}