{"type":"Feature","properties":{"GID_3":"IDN.24.6.4_1","GID_0":"IDN","country":"Indonesia","GID_1":"IDN.24_1","province":"Riau","NL_NAME_1":"NA","GID_2":"IDN.24.6_1","county":"KepulauanMeranti","NL_NAME_2":"NA","city":"TebingTinggiBarat","VARNAME_3":"NA","NL_NAME_3":"NA","TYPE_3":"Kecamatan","ENGTYPE_3":"Sub-district","CC_3":"1410010","HASC_3":"NA","name":"Tebing_Tinggi_Barat.city"},
"geometry":{"type": "MultiPolygon","coordinates": [[[[102.596,0.8381,22.0026],[102.6189,0.8412,13.8085],[102.6445,0.8416,18.9925],[102.6634,0.8692,20.5092],[102.6778,0.8937,11.3636],[102.6821,0.9075,3.7459],[102.6797,0.912,4.004],[102.6803,0.9202,4.1266],[102.6831,0.9255,1.9388],[102.6949,0.9321,0.0],[102.6938,0.942,0.0],[102.6965,0.9477,0.0],[102.7029,0.9554,0.0],[102.6847,0.9584,1.8035],[102.6525,0.9529,0.9334],[102.6479,0.9583,6.3809],[102.6682,0.969,4.9279],[102.6798,0.9783,6.4618],[102.6784,0.99,6.9817],[102.6732,1.0021,0.0],[102.6523,0.9928,1.7424],[102.6371,0.9912,0.0],[102.6354,0.9886,0.3852],[102.6336,0.9915,0.5963],[102.6225,0.9933,3.8287],[102.6138,0.9968,2.8378],[102.609,1.0001,3.0915],[102.6085,1.0033,0.7247],[102.5887,1.0011,0.646],[102.5778,0.9924,4.0358],[102.5694,0.9799,5.8203],[102.5616,0.9726,3.1327],[102.5568,0.9697,2.2178],[102.5376,0.9653,3.28],[102.5297,0.9619,2.1902],[102.5107,0.9479,2.1598],[102.4992,0.9435,0.0],[102.4878,0.9309,2.6773],[102.4721,0.9282,2.795],[102.452,0.9363,0.0],[102.4405,0.9355,0.0],[102.4326,0.9188,0.0],[102.4208,0.9052,1.0265],[102.4084,0.8862,0.0],[102.4079,0.8771,0.0],[102.4123,0.8549,0.0],[102.4286,0.8334,0.0],[102.4372,0.8252,0.0],[102.4567,0.813,1.1896],[102.4802,0.8024,4.6802],[102.5011,0.7905,3.3249],[102.5178,0.7831,2.8547],[102.5564,0.7697,0.0],[102.571,0.7672,2.1527],[102.5706,0.7709,3.0948],[102.572,0.7717,5.6845],[102.573,0.7788,3.6971],[102.571,0.7805,5.5677],[102.5714,0.7821,3.1451],[102.5845,0.8089,20.318],[102.596,0.8253,21.7488],[102.596,0.8381,22.0026]]]]}}