{"type":"Feature","properties":{"GID_3":"IDN.10.2.22_1","GID_0":"IDN","country":"Indonesia","GID_1":"IDN.10_1","province":"JawaTengah","NL_NAME_1":"NA","GID_2":"IDN.10.2_1","county":"Banyumas","NL_NAME_2":"NA","city":"Sokaraja","VARNAME_3":"NA","NL_NAME_3":"NA","TYPE_3":"Kecamatan","ENGTYPE_3":"Sub-district","CC_3":"3302230","HASC_3":"NA","name":"Sokaraja.city"},
"geometry":{"type": "MultiPolygon","coordinates": [[[[109.2795,-7.4658,35.374],[109.2905,-7.4651,35.6773],[109.2973,-7.4666,33.2862],[109.2994,-7.4694,32.7469],[109.2995,-7.4677,33.5445],[109.3035,-7.4669,29.3685],[109.3038,-7.4643,31.6339],[109.3071,-7.4638,30.7447],[109.3086,-7.4613,31.4932],[109.3159,-7.459,28.8865],[109.318,-7.4489,29.3314],[109.3273,-7.4502,26.5296],[109.3281,-7.4484,26.6763],[109.3285,-7.4523,26.9016],[109.3306,-7.4529,26.2843],[109.3343,-7.4462,26.8434],[109.3312,-7.4414,29.2724],[109.333,-7.4414,29.2724],[109.3319,-7.4375,34.2284],[109.3352,-7.4375,35.735],[109.3335,-7.4301,38.6195],[109.3292,-7.4268,38.9079],[109.3239,-7.426,43.1349],[109.3211,-7.4202,47.1505],[109.3173,-7.4215,57.8509],[109.3136,-7.426,51.8631],[109.3057,-7.4305,49.6618],[109.3025,-7.4306,49.6924],[109.3014,-7.4326,53.8998],[109.3027,-7.4341,50.0083],[109.296,-7.4358,48.9335],[109.296,-7.4417,44.084],[109.2932,-7.4422,47.902],[109.2926,-7.4441,45.9396],[109.2916,-7.4424,50.235],[109.2859,-7.4418,50.4494],[109.2839,-7.4389,56.8367],[109.2787,-7.4393,54.7858],[109.2744,-7.4335,60.0036],[109.2692,-7.4346,68.8169],[109.2689,-7.4384,68.8555],[109.2715,-7.4423,59.1743],[109.2651,-7.445,52.406],[109.2627,-7.4436,54.0868],[109.2611,-7.4447,54.4725],[109.2621,-7.4474,57.4502],[109.2578,-7.4459,60.7529],[109.2591,-7.4474,56.1849],[109.2565,-7.4547,60.2529],[109.2506,-7.4562,57.7252],[109.2501,-7.4593,67.5042],[109.2548,-7.4633,61.3158],[109.2492,-7.4785,61.368899999999996],[109.2569,-7.4806,46.8265],[109.2617,-7.4797,67.2739],[109.2672,-7.4825,81.3592],[109.2685,-7.4743,47.9041],[109.2757,-7.4752,48.5613],[109.2748,-7.4702,44.92],[109.2795,-7.4658,35.374]]]]}}