{"type":"Feature","properties":{"GID_2":"IDN.17.4_1","GID_0":"IDN","country":"Indonesia","GID_1":"IDN.17_1","province":"Lampung","NL_NAME_1":"NA","county":"LampungTengah","VARNAME_2":"NA","NL_NAME_2":"NA","TYPE_2":"Kabupaten","ENGTYPE_2":"Regency","CC_2":"1805","HASC_2":"ID.LA.LT","name":"Lampung_Tengah.county"},
"geometry":{"type": "MultiPolygon","coordinates": [[[[104.9678,-5.2454,120.8223],[104.9723,-5.2444,112.6046],[104.9722,-5.2495,118.6666],[104.9856,-5.2421,115.9024],[105.0099,-5.2382,119.6787],[105.0291,-5.224,114.9349],[105.0327,-5.2201,106.9271],[105.0339,-5.2154,112.7576],[105.0373,-5.2108,109.8093],[105.0414,-5.1983,95.714],[105.0524,-5.1838,91.925],[105.0585,-5.1711,73.3198],[105.0667,-5.1675,82.0606],[105.0708,-5.161,81.4698],[105.076,-5.16,79.5441],[105.0747,-5.1597,79.5974],[105.0802,-5.1492,72.6068],[105.0791,-5.1386,60.9012],[105.0807,-5.1294,64.0301],[105.0838,-5.1242,61.4701],[105.0864,-5.1254,62.9774],[105.0851,-5.1319,63.0011],[105.0864,-5.1436,58.1354],[105.0896,-5.1446,66.1156],[105.0953,-5.1322,60.4039],[105.1,-5.137,61.876],[105.091,-5.1519,65.9167],[105.0892,-5.1578,74.3637],[105.0935,-5.1597,74.1486],[105.0947,-5.1653,67.5716],[105.0995,-5.1602,60.5754],[105.1089,-5.1548,58.338],[105.13,-5.1508,71.5061],[105.1416,-5.1532,57.3869],[105.1439,-5.1547,55.9788],[105.1437,-5.1569,57.4027],[105.1477,-5.1564,58.9341],[105.1471,-5.1513,56.2153],[105.1502,-5.1483,62.559],[105.1535,-5.1392,56.6931],[105.1572,-5.1421,59.4423],[105.1619,-5.1384,60.24],[105.177,-5.1357,55.6509],[105.1775,-5.1238,55.6111],[105.1796,-5.1208,52.5982],[105.1844,-5.1222,58.2889],[105.1855,-5.1247,52.8395],[105.1932,-5.1274,56.0439],[105.2059,-5.1351,56.774],[105.2086,-5.1402,58.1782],[105.2076,-5.1491,60.5698],[105.2106,-5.1548,56.2502],[105.214,-5.1561,55.7572],[105.2221,-5.1534,55.0484],[105.22,-5.1561,55.6879],[105.224,-5.1614,57.7384],[105.2404,-5.17,62.7156],[105.2406,-5.1758,62.5383],[105.2442,-5.1823,34.6883],[105.2501,-5.1801,32.0833],[105.2572,-5.1804,32.9113],[105.2603,-5.1774,33.6645],[105.2671,-5.1784,28.2353],[105.2697,-5.1758,30.8586],[105.2716,-5.1766,34.9566],[105.2721,-5.18,34.9417],[105.2761,-5.18,33.8145],[105.2751,-5.1737,29.6035],[105.2778,-5.1684,37.4153],[105.2748,-5.1656,44.5452],[105.2757,-5.1605,54.2086],[105.2714,-5.1581,56.8732],[105.2632,-5.1625,56.553],[105.2624,-5.1589,52.5526],[105.2684,-5.1528,52.4139],[105.2693,-5.1495,53.0798],[105.2751,-5.147,55.0571],[105.2751,-5.1452,55.0868],[105.2711,-5.141,55.6031],[105.2754,-5.1374,51.4832],[105.2738,-5.1327,49.5496],[105.2779,-5.1301,50.0055],[105.2786,-5.1239,57.2442],[105.2846,-5.1202,47.751],[105.2878,-5.112,49.1319],[105.2893,-5.1113,49.1319],[105.2888,-5.1095,51.4904],[105.2905,-5.1088,47.1772],[105.2839,-5.1039,47.0986],[105.2735,-5.107,50.4358],[105.269,-5.1025,49.5245],[105.2695,-5.0968,46.9545],[105.2784,-5.0927,43.7125],[105.2803,-5.0884,43.9439],[105.2821,-5.0877,51.5954],[105.2805,-5.0835,43.6771],[105.2958,-5.0731,49.72],[105.3009,-5.0648,42.5891],[105.3041,-5.0629,42.451],[105.3061,-5.0573,47.5784],[105.315,-5.0553,41.518],[105.3182,-5.0516,50.2102],[105.3203,-5.0532,40.9218],[105.3242,-5.0519,39.3812],[105.3247,-5.0505,39.1216],[105.3291,-5.0496,44.8121],[105.329,-5.0476,40.221],[105.3423,-5.0438,37.1922],[105.3485,-5.0359,35.3843],[105.3504,-5.0364,40.1789],[105.3495,-5.0342,36.0391],[105.3516,-5.0336,37.1757],[105.3512,-5.0311,44.3652],[105.3573,-5.0335,33.92],[105.3585,-5.0305,34.5245],[105.362,-5.0293,36.4903],[105.3643,-5.0304,37.6084],[105.3646,-5.0278,35.0573],[105.3659,-5.0288,33.9095],[105.3663,-5.0266,33.6508],[105.3629,-5.0222,41.7286],[105.363,-5.0119,37.2225],[105.3529,-5.0138,45.2657],[105.3541,-5.0088,38.596],[105.3445,-5.0087,39.6661],[105.3439,-5.0072,33.8717],[105.3397,-5.0089,38.8809],[105.3373,-5.012,36.3042],[105.3331,-5.0113,46.3503],[105.3329,-5.0072,45.7455],[105.3231,-5.0067,41.1589],[105.3291,-4.9837,42.7811],[105.3336,-4.9762,40.6686],[105.3399,-4.9723,47.2603],[105.3454,-4.9642,39.1992],[105.349,-4.9648,34.9647],[105.3494,-4.9698,37.5759],[105.3545,-4.9706,36.9636],[105.3564,-4.9677,35.6662],[105.3616,-4.973,37.363],[105.3733,-4.9739,36.8386],[105.3793,-4.9728,35.4956],[105.3866,-4.9677,35.4364],[105.4047,-4.9717,33.8221],[105.4105,-4.9708,21.1431],[105.4144,-4.968,29.1778],[105.4142,-4.9641,21.2976],[105.4089,-4.9564,30.815],[105.4083,-4.942,29.0631],[105.4015,-4.9332,29.8301],[105.3994,-4.9281,32.0528],[105.4023,-4.9216,32.0487],[105.4255,-4.9021,26.9398],[105.4288,-4.8938,22.8964],[105.438,-4.8897,25.9016],[105.4446,-4.9019,19.2634],[105.4498,-4.905,19.6257],[105.454,-4.9049,23.1328],[105.4648,-4.8957,12.1228],[105.4702,-4.8945,21.8031],[105.4768,-4.8945,18.7359],[105.4854,-4.9,17.4107],[105.4926,-4.8988,8.2155],[105.4941,-4.894,20.1482],[105.5033,-4.8909,16.2423],[105.5075,-4.8864,14.3292],[105.5076,-4.8815,30.7511],[105.515,-4.8824,23.9363],[105.5178,-4.8812,8.3036],[105.5221,-4.8864,5.5869],[105.5277,-4.8873,4.9899],[105.5254,-4.8853,5.0725],[105.5269,-4.8832,8.5626],[105.5359,-4.885,10.318],[105.5352,-4.8837,20.9316],[105.5406,-4.8835,9.0839],[105.5423,-4.8829,16.8057],[105.5438,-4.8775,28.0668],[105.5475,-4.8743,22.2805],[105.5548,-4.8727,19.3819],[105.5753,-4.8783,3.617],[105.5791,-4.8838,4.2155],[105.5903,-4.8823,4.3644],[105.5932,-4.8792,6.6927],[105.5943,-4.8669,4.0663],[105.5997,-4.8626,1.4499],[105.6012,-4.8549,5.475],[105.6052,-4.8519,6.0926],[105.6148,-4.8523,8.1779],[105.6254,-4.8593,2.1602],[105.6265,-4.8557,1.4687],[105.6302,-4.8525,2.6322],[105.6377,-4.8515,10.5995],[105.6394,-4.837,9.4393],[105.6352,-4.8327,1.9941],[105.6373,-4.8266,3.8067],[105.6463,-4.8158,3.988],[105.6526,-4.8131,3.9976],[105.6548,-4.8058,6.8679],[105.6496,-4.7938,3.2884],[105.6633,-4.7828,2.6065],[105.6751,-4.7849,6.4907],[105.6786,-4.7823,5.3619],[105.6776,-4.7741,3.3242],[105.6815,-4.7629,6.1704],[105.6821,-4.7473,2.2927],[105.6839,-4.746,1.6352],[105.6905,-4.7462,1.9044],[105.6988,-4.7393,1.4911],[105.7206,-4.7352,3.401],[105.7262,-4.7379,4.0742],[105.7288,-4.7459,2.8716],[105.7371,-4.7459,5.2205],[105.7433,-4.7394,4.2224],[105.7471,-4.7317,2.7625],[105.7581,-4.7311,2.4569],[105.7622,-4.7379,7.1207],[105.7698,-4.7358,2.315],[105.7737,-4.7411,5.1188],[105.7781,-4.7423,2.807],[105.7811,-4.7392,3.4969],[105.7839,-4.7392,2.4317],[105.7886,-4.744,4.464],[105.7886,-4.7501,4.9557],[105.7947,-4.7538,7.5522],[105.8005,-4.7544,6.941],[105.8123,-4.7507,12.5905],[105.8153,-4.7434,6.7971],[105.8072,-4.7362,4.0721],[105.812,-4.7334,4.9741],[105.8124,-4.7312,13.7176],[105.8089,-4.7256,5.5704],[105.8047,-4.7234,8.5536],[105.8069,-4.7197,5.9975],[105.81,-4.706,1.9424],[105.819,-4.6991,3.7267],[105.8178,-4.6944,8.1737],[105.8149,-4.6968,0.0],[105.8177,-4.6806,2.208],[105.8135,-4.6771,4.2859],[105.8175,-4.6625,1.7888],[105.8169,-4.65,0.9204],[105.8119,-4.6529,2.7202],[105.8042,-4.6536,0.0],[105.7999,-4.6445,1.9641],[105.7911,-4.6357,0.5289],[105.7854,-4.6335,0.0],[105.7818,-4.634,0.0],[105.782,-4.6252,2.4918],[105.7792,-4.6225,1.7741],[105.7835,-4.6146,3.2423],[105.783,-4.613,4.5824],[105.7796,-4.6123,2.7281],[105.7791,-4.6049,2.3686],[105.7833,-4.6033,2.3362],[105.7851,-4.5964,2.2897],[105.7931,-4.5885,1.7323],[105.8007,-4.5913,2.6169],[105.8049,-4.5857,2.576],[105.8032,-4.5803,2.0325],[105.7954,-4.5811,3.6385],[105.794,-4.5799,3.6385],[105.7943,-4.5734,5.4763],[105.7989,-4.5715,1.9855],[105.8001,-4.5693,0.8938],[105.7998,-4.5603,3.467],[105.7971,-4.5561,2.7367],[105.7895,-4.5495,2.6504],[105.7861,-4.5504,5.0575],[105.7835,-4.5567,3.1343],[105.7717,-4.5534,2.9184],[105.7676,-4.543,7.9384],[105.7737,-4.5373,3.004],[105.7736,-4.5324,3.5959],[105.7694,-4.5284,2.8473],[105.766,-4.5287,3.5993],[105.7616,-4.532,4.7821],[105.7586,-4.5318,6.2704],[105.7565,-4.5299,4.8345],[105.7542,-4.5224,4.3309],[105.7522,-4.5214,5.9706],[105.746,-4.5218,3.68],[105.7448,-4.5303,3.8743],[105.7397,-4.5348,2.6886],[105.7314,-4.5373,5.6316],[105.7281,-4.5363,4.0701],[105.7267,-4.5297,3.7756],[105.7242,-4.5278,4.3606],[105.7181,-4.5314,2.4241],[105.7132,-4.531,3.6632],[105.7082,-4.528,2.4594],[105.7066,-4.5181,3.544],[105.6933,-4.5124,6.9435],[105.6934,-4.5092,5.6352],[105.6987,-4.5045,4.4849],[105.6974,-4.4955,5.5115],[105.6937,-4.4909,2.9325],[105.6824,-4.4853,3.4864],[105.6742,-4.4865,5.7268],[105.6742,-4.4942,6.0135],[105.6697,-4.5004,5.8401],[105.6609,-4.5006,6.856],[105.6585,-4.5065,5.2748],[105.6546,-4.5091,4.928],[105.6461,-4.5089,7.8578],[105.6414,-4.5015,9.1278],[105.6418,-4.4986,6.4481],[105.6455,-4.4955,8.541],[105.6466,-4.4868,4.5317],[105.6433,-4.4812,8.0857],[105.6387,-4.4828,7.1513],[105.6331,-4.4821,6.2761],[105.6278,-4.487,7.2704],[105.6271,-4.5009,5.7257],[105.6208,-4.5178,7.9376],[105.6122,-4.5183,7.0664],[105.6076,-4.5217,3.5428],[105.6032,-4.522,6.4635],[105.5977,-4.5142,3.8685],[105.5892,-4.5145,7.7574],[105.5853,-4.5188,3.657],[105.5847,-4.5309,7.3053],[105.5813,-4.5353,5.5042],[105.5773,-4.5346,3.9478],[105.5744,-4.5318,5.0063],[105.5734,-4.5216,6.561],[105.5714,-4.5192,4.3734],[105.5616,-4.5171,7.0492],[105.5519,-4.5205,6.1177],[105.5343,-4.5206,4.7542],[105.5338,-4.5186,5.8508],[105.5368,-4.5137,2.9988],[105.5352,-4.5093,5.1992],[105.5311,-4.5072,3.7523],[105.5241,-4.5073,5.3402],[105.5215,-4.4981,6.183],[105.5143,-4.4972,5.1446],[105.51,-4.4915,6.0774],[105.5073,-4.4922,6.6407],[105.5052,-4.4955,4.1563],[105.4971,-4.4948,5.8955],[105.4922,-4.4826,5.2975],[105.4892,-4.4833,8.2856],[105.4876,-4.4893,6.0196],[105.4827,-4.4875,4.8871],[105.4824,-4.4921,4.7453],[105.4782,-4.4968,6.5761],[105.4737,-4.4958,5.4677],[105.4751,-4.4913,4.7891],[105.4725,-4.4899,5.6814],[105.4712,-4.494,4.2077],[105.4688,-4.4915,7.7454],[105.465,-4.4924,4.2166],[105.4636,-4.4947,6.0645],[105.4663,-4.4937,3.341],[105.4644,-4.497,6.7361],[105.4567,-4.4921,8.1531],[105.4559,-4.4937,5.4536],[105.4491,-4.4948,7.0827],[105.4449,-4.5023,9.5842],[105.4416,-4.5031,8.3161],[105.4369,-4.5017,5.7851],[105.4343,-4.5061,7.4629],[105.4277,-4.5101,6.5988],[105.4262,-4.5061,10.5251],[105.4232,-4.5102,7.8445],[105.4213,-4.508,7.3447],[105.4184,-4.5081,4.3946],[105.4146,-4.5111,7.9754],[105.412,-4.5185,11.7323],[105.4081,-4.5178,7.9314],[105.4103,-4.5114,8.9271],[105.4085,-4.5136,8.469],[105.3996,-4.511,7.2415],[105.3988,-4.5135,7.4043],[105.3956,-4.5154,8.0873],[105.3917,-4.5152,6.9509],[105.3882,-4.5179,6.945],[105.3848,-4.5158,7.4944],[105.3806,-4.5173,9.2324],[105.3791,-4.5165,9.5724],[105.3792,-4.5187,8.6468],[105.3755,-4.522,9.7831],[105.3693,-4.5218,9.5973],[105.37,-4.5257,10.0294],[105.3649,-4.5285,9.5644],[105.3607,-4.5369,13.1196],[105.3538,-4.5389,9.6293],[105.3558,-4.5438,11.9543],[105.3535,-4.5506,9.9107],[105.3479,-4.5483,10.3378],[105.3467,-4.5516,10.3749],[105.3452,-4.5505,10.1591],[105.3401,-4.5528,12.4895],[105.3379,-4.5583,12.3645],[105.3396,-4.5601,11.8824],[105.3382,-4.5638,11.8932],[105.3314,-4.5671,12.4707],[105.3297,-4.5659,13.0493],[105.3298,-4.5703,12.7994],[105.3287,-4.5687,12.8672],[105.3274,-4.5698,11.5631],[105.3281,-4.5756,13.7905],[105.3266,-4.5755,17.0606],[105.3267,-4.5734,11.9362],[105.325,-4.5742,14.0697],[105.3235,-4.5725,11.8432],[105.3224,-4.5775,14.9095],[105.3198,-4.5765,13.443],[105.3185,-4.5785,14.3347],[105.3156,-4.5775,12.9078],[105.3121,-4.5797,14.9998],[105.3104,-4.5922,14.875],[105.304,-4.595,17.9188],[105.303,-4.5989,13.6975],[105.3046,-4.6002,15.9198],[105.3031,-4.6019,13.655],[105.3041,-4.6044,13.7633],[105.2992,-4.6049,13.1595],[105.2996,-4.6084,15.9721],[105.2964,-4.6071,13.3983],[105.2968,-4.6104,14.3087],[105.2952,-4.6112,14.2941],[105.2967,-4.6128,15.794],[105.294,-4.6134,14.3017],[105.2935,-4.6169,15.4131],[105.2917,-4.6161,16.3064],[105.2914,-4.6138,14.8506],[105.2888,-4.6137,15.1334],[105.2856,-4.6157,16.056],[105.2859,-4.6175,15.9343],[105.2882,-4.6173,16.0731],[105.2878,-4.619,16.2589],[105.2862,-4.619,14.548],[105.2866,-4.6221,15.7234],[105.2841,-4.6206,13.6677],[105.2784,-4.622,16.9311],[105.2777,-4.6206,15.6332],[105.2753,-4.6208,14.7679],[105.2729,-4.6268,18.3005],[105.27,-4.622,17.3724],[105.2654,-4.6234,19.1009],[105.2651,-4.622,14.9537],[105.2633,-4.6224,15.9619],[105.2626,-4.6236,15.5741],[105.2644,-4.6256,18.2074],[105.2615,-4.6267,18.5354],[105.2602,-4.6292,15.672],[105.2638,-4.6314,18.3013],[105.2618,-4.6357,20.4278],[105.255,-4.6353,17.2054],[105.2507,-4.6376,18.3844],[105.2472,-4.6364,17.2823],[105.2459,-4.638,17.6982],[105.2471,-4.6393,17.3627],[105.2453,-4.6403,16.639],[105.2429,-4.6387,16.203],[105.2406,-4.6408,16.9632],[105.2345,-4.6402,20.3345],[105.2283,-4.6431,19.1253],[105.2266,-4.6391,21.9165],[105.214,-4.6379,31.1835],[105.2089,-4.6343,34.546],[105.2139,-4.6155,31.1656],[105.2105,-4.6108,21.01],[105.1962,-4.6143,28.2652],[105.1828,-4.615,33.2889],[105.1772,-4.6194,32.1052],[105.1762,-4.6246,26.2715],[105.1772,-4.6348,33.2219],[105.1824,-4.6389,24.1666],[105.1733,-4.6454,27.1762],[105.1639,-4.6637,29.3061],[105.1605,-4.6664,24.5303],[105.1606,-4.6697,19.0952],[105.1559,-4.6771,18.8295],[105.1512,-4.6753,19.2842],[105.1498,-4.677,21.0941],[105.1448,-4.6763,21.8548],[105.1426,-4.6805,18.857],[105.1409,-4.6787,20.1352],[105.1383,-4.6797,21.2309],[105.1398,-4.6831,21.3935],[105.1376,-4.6851,22.6124],[105.1418,-4.6906,20.1144],[105.141,-4.6967,27.1553],[105.143,-4.7047,20.2514],[105.1382,-4.7151,25.9193],[105.1233,-4.7308,24.2802],[105.1248,-4.7391,26.9073],[105.1201,-4.7517,35.5198],[105.1236,-4.7627,28.5999],[105.1206,-4.7711,33.2989],[105.1018,-4.8077,35.7627],[105.0913,-4.8201,36.9153],[105.0856,-4.8331,35.0157],[105.0676,-4.864,43.2945],[105.0588,-4.8709,44.2532],[105.0533,-4.8726,48.4837],[105.0571,-4.8949,41.1202],[105.0521,-4.8986,43.1193],[105.0525,-4.9268,40.8205],[105.0514,-4.9262,42.4695],[105.0497,-4.931,40.2028],[105.0484,-4.9303,47.9486],[105.0461,-4.9332,50.2232],[105.0467,-4.9354,45.4083],[105.0448,-4.9362,45.4083],[105.0449,-4.9384,41.2033],[105.0425,-4.9389,41.0776],[105.0438,-4.9411,39.1797],[105.0423,-4.9451,40.9918],[105.032,-4.9439,51.6859],[105.0259,-4.952,54.0633],[105.0205,-4.956,56.5036],[105.005,-4.9552,51.9444],[105.0011,-4.9518,61.0942],[105.0018,-4.9431,70.3761],[104.9936,-4.9293,58.2346],[104.9758,-4.9197,62.074],[104.9678,-4.9213,62.6461],[104.9661,-4.919,58.731],[104.9676,-4.9154,52.1834],[104.9658,-4.9129,50.0948],[104.9631,-4.9135,47.7088],[104.9599,-4.9175,45.9614],[104.9539,-4.9163,53.9594],[104.9526,-4.9205,53.2766],[104.9494,-4.9172,55.4581],[104.947,-4.9176,51.2083],[104.9467,-4.9191,50.2085],[104.9442,-4.9187,55.0457],[104.9443,-4.9202,52.018],[104.9424,-4.9199,58.2837],[104.9414,-4.9219,57.6382],[104.9356,-4.9194,60.2991],[104.9324,-4.9197,56.9391],[104.9308,-4.9228,60.3998],[104.9281,-4.9239,55.1205],[104.9271,-4.9223,60.1573],[104.9246,-4.9246,54.9888],[104.924,-4.9321,56.1571],[104.9212,-4.9332,56.7321],[104.9226,-4.9358,55.6618],[104.9203,-4.937,60.4013],[104.9183,-4.9422,58.3488],[104.9173,-4.941,55.9174],[104.9157,-4.9441,63.1988],[104.9137,-4.9441,68.6407],[104.9139,-4.9482,57.3251],[104.9118,-4.9503,59.6252],[104.9118,-4.9527,57.6154],[104.9075,-4.9537,64.5507],[104.9035,-4.9584,61.8971],[104.9061,-4.9616,65.6497],[104.9062,-4.964,62.1914],[104.9045,-4.965,63.5462],[104.9078,-4.9769,65.1441],[104.9021,-4.985,65.921],[104.8919,-4.9869,64.8973],[104.8861,-4.9897,64.9971],[104.8789,-4.9895,69.3082],[104.8599,-5.0013,73.0991],[104.8551,-5.0013,73.9719],[104.8536,-5.0004,85.4198],[104.8545,-4.9939,97.3011],[104.8752,-4.9793,90.3535],[104.8766,-4.9763,82.9947],[104.8754,-4.9723,86.138],[104.8711,-4.9701,93.7134],[104.8641,-4.9717,103.8171],[104.86,-4.971,99.5737],[104.8498,-4.9784,94.6463],[104.8297,-4.9889,99.9318],[104.8243,-4.99,113.7994],[104.8201,-4.9884,86.8694],[104.8154,-4.9939,91.7415],[104.8117,-4.9943,77.5867],[104.8074,-4.9976,84.1171],[104.8072,-5.0054,102.8846],[104.8058,-5.007,107.3164],[104.8,-5.005,87.2595],[104.782,-5.0128,167.1223],[104.7808,-5.0167,298.8169],[104.7831,-5.0323,258.6925],[104.7823,-5.0414,106.6935],[104.7794,-5.0419,94.6774],[104.7784,-5.0371,101.2817],[104.7769,-5.0371,142.3444],[104.777,-5.0388,111.6848],[104.7734,-5.0382,116.2632],[104.7687,-5.0333,109.2597],[104.7673,-5.0359,127.6734],[104.7613,-5.0376,131.3937],[104.7564,-5.0439,115.5316],[104.7502,-5.0457,137.8665],[104.7473,-5.0496,171.7264],[104.7462,-5.0479,185.4879],[104.7394,-5.0504,181.1374],[104.7354,-5.048,196.4642],[104.7328,-5.052,242.4841],[104.729,-5.0504,228.8248],[104.7267,-5.0526,220.2111],[104.7277,-5.0541,224.9012],[104.7262,-5.0584,266.0083],[104.7225,-5.0585,260.8147],[104.7221,-5.0639,265.6166],[104.7149,-5.0639,290.0908],[104.7141,-5.0668,276.7482],[104.7121,-5.0662,277.7951],[104.7124,-5.0699,274.4831],[104.7095,-5.0705,280.3138],[104.708,-5.0686,275.4331],[104.7087,-5.0661,293.6025],[104.7056,-5.0635,287.6535],[104.7044,-5.066,290.3575],[104.6973,-5.0638,295.0678],[104.6916,-5.0694,340.3431],[104.6879,-5.0818,373.1916],[104.6828,-5.0845,394.9291],[104.6674,-5.0843,457.1802],[104.6636,-5.0796,473.7254],[104.6595,-5.0791,496.2305],[104.656,-5.081,486.9724],[104.6516,-5.0799,517.5155],[104.6435,-5.0814,590.6041],[104.6403,-5.087,570.2634],[104.6366,-5.0889,605.4583],[104.6284,-5.086,805.2856],[104.6225,-5.0867,734.5254],[104.6074,-5.0844,861.5646],[104.597,-5.0772,860.5764],[104.5928,-5.073,844.64],[104.591,-5.0683,863.9324],[104.5816,-5.0615,921.9722],[104.5804,-5.0578,959.58],[104.5777,-5.0632,903.8901],[104.573,-5.0664,965.8994],[104.569,-5.0875,943.8819],[104.5668,-5.0918,924.6349],[104.5455,-5.1078,1087.3037],[104.5502,-5.1109,1017.1474],[104.5602,-5.1135,893.0349],[104.5694,-5.1262,841.7194],[104.5785,-5.1351,774.0114],[104.5829,-5.1465,752.8322],[104.5853,-5.1486,742.224],[104.5987,-5.1478,746.9658],[104.6069,-5.1545,696.0333],[104.625,-5.15,763.8334],[104.6371,-5.1505,604.666],[104.6451,-5.1564,568.81],[104.6505,-5.1638,550.4114],[104.6613,-5.1706,575.2991],[104.6687,-5.1728,670.9785],[104.6727,-5.1723,502.0261],[104.6796,-5.1681,502.9717],[104.6936,-5.1694,585.075],[104.6994,-5.1672,894.7902],[104.7111,-5.1561,589.4116],[104.7195,-5.1381,613.9355],[104.728,-5.1332,559.7892],[104.7394,-5.1356,556.5295],[104.7511,-5.1321,944.745],[104.7569,-5.1418,764.4498],[104.7668,-5.1492,739.9572],[104.7712,-5.1485,770.5673],[104.7822,-5.1414,1096.8335],[104.7842,-5.1449,1058.7587],[104.782,-5.1562,666.8527],[104.7853,-5.1584,551.3405],[104.7923,-5.1579,808.1398],[104.7945,-5.171,589.4838],[104.8013,-5.171,791.8042],[104.8043,-5.1728,687.6774],[104.8113,-5.1833,458.3963],[104.8288,-5.2011,336.2025],[104.8618,-5.2145,420.3562],[104.8678,-5.2219,237.954],[104.8688,-5.2326,214.3871],[104.8841,-5.2512,233.3527],[104.8854,-5.2492,258.9604],[104.898,-5.2431,152.1944],[104.9109,-5.255,149.0014],[104.914,-5.2671,119.3748],[104.9274,-5.2655,115.4071],[104.9373,-5.261,112.9099],[104.949,-5.2606,127.7961],[104.9485,-5.2584,123.7507],[104.9678,-5.2454,120.8223]]]]}}