{"type":"Feature","properties":{"GID_3":"IDN.27.7.18_1","GID_0":"IDN","country":"Indonesia","GID_1":"IDN.27_1","province":"SulawesiTengah","NL_NAME_1":"NA","GID_2":"IDN.27.7_1","county":"ParigiMoutong","NL_NAME_2":"NA","city":"Tomini","VARNAME_3":"NA","NL_NAME_3":"NA","TYPE_3":"Kecamatan","ENGTYPE_3":"Sub-district","CC_3":"7208050","HASC_3":"NA","name":"Tomini.city"},
"geometry":{"type": "MultiPolygon","coordinates": [[[[120.6387,0.5827,905.7704],[120.6368,0.5975,1115.5012],[120.6296,0.593,1044.2297],[120.6263,0.5876,994.3831],[120.6188,0.5871,992.8954],[120.6147,0.5909,911.7963],[120.6139,0.5997,912.5432],[120.6073,0.6011,959.8438],[120.6012,0.5956,974.5757],[120.5968,0.5956,965.1296],[120.5897,0.6043,1011.1844],[120.5804,0.6053,1131.4055],[120.5749,0.6093,1178.5381],[120.563,0.6055,1275.8878],[120.557,0.5947,1225.7349],[120.5474,0.5952,1170.6825],[120.5456,0.5966,1260.5192],[120.5422,0.6064,1055.5217],[120.541,0.6142,1089.2003],[120.5434,0.6204,1069.2788],[120.5409,0.632,1187.1411],[120.5382,0.6351,1154.3357],[120.5276,0.6362,1244.9434],[120.5222,0.6333,1389.3716],[120.5166,0.6364,1386.8344],[120.5093,0.6342,1419.6274],[120.5058,0.6358,1365.4507],[120.496,0.6363,1474.5814],[120.4927,0.6416,1471.7098],[120.4844,0.6446,1274.0577],[120.482,0.6434,1282.2645],[120.4717,0.6443,988.8149],[120.4592,0.6416,930.0247],[120.4489,0.6428,1027.1558],[120.4554,0.6312,814.6578],[120.4614,0.6068,738.4868],[120.4722,0.5845,1027.1023],[120.4756,0.569,1394.8844],[120.4836,0.5515,1200.8214],[120.4874,0.5373,1395.6406],[120.4926,0.5258,812.4685],[120.4969,0.5205,413.0597],[120.4991,0.508,0.0],[120.5065,0.5096,0.0],[120.5117,0.5139,25.8599],[120.5242,0.5133,0.0],[120.5257,0.5159,3.0086],[120.5294,0.5172,11.6224],[120.551,0.5115,0.5219],[120.5511,0.5131,4.4254],[120.5519,0.512,0.0],[120.5576,0.5131,4.7869],[120.569,0.5118,10.724],[120.5742,0.5087,0.0],[120.5779,0.5114,0.212],[120.5882,0.5144,0.0],[120.5902,0.5172,1.3171],[120.5908,0.5162,0.0],[120.5995,0.5192,1.3129],[120.6034,0.5179,0.0],[120.6066,0.5214,1.0943],[120.6169,0.5199,1.7962],[120.6184,0.5179,0.0],[120.6236,0.5194,3.844],[120.6328,0.5159,0.0],[120.6408,0.5171,0.0],[120.6387,0.5827,905.7704]]]]}}