{"type":"Feature","properties":{"GID_3":"IDN.17.13.7_1","GID_0":"IDN","country":"Indonesia","GID_1":"IDN.17_1","province":"Lampung","NL_NAME_1":"NA","GID_2":"IDN.17.13_1","county":"Tulangbawang","NL_NAME_2":"NA","city":"GedungMeneng","VARNAME_3":"NA","NL_NAME_3":"NA","TYPE_3":"Kecamatan","ENGTYPE_3":"Sub-district","CC_3":"1808053","HASC_3":"NA","name":"Gedung_Meneng.city"},
"geometry":{"type": "MultiPolygon","coordinates": [[[[105.6686,-4.5009,5.8401],[105.672,-4.4984,5.7248],[105.6742,-4.4942,6.0135],[105.6742,-4.4865,5.7268],[105.677,-4.4853,6.7348],[105.6861,-4.4749,2.1375],[105.6855,-4.4677,15.4898],[105.6772,-4.4593,3.4487],[105.6807,-4.4561,11.2134],[105.6889,-4.4541,9.5574],[105.6934,-4.4504,7.2996],[105.7024,-4.4504,22.9362],[105.7089,-4.4412,24.6305],[105.7208,-4.4436,18.6822],[105.7309,-4.4421,24.8854],[105.7279,-4.4371,25.5094],[105.7384,-4.4266,21.1692],[105.743,-4.418,24.4528],[105.7443,-4.41,19.913],[105.7536,-4.4026,21.1386],[105.7547,-4.3999,9.5978],[105.7514,-4.3816,4.8757],[105.7519,-4.3708,3.1085],[105.7646,-4.3306,2.0079],[105.7735,-4.3123,11.3002],[105.7792,-4.3092,12.1412],[105.7762,-4.3003,11.7424],[105.768,-4.2912,3.0],[105.7505,-4.2858,4.7138],[105.7262,-4.2852,1.5812],[105.7111,-4.287,2.0429],[105.7075,-4.2643,3.5712],[105.6922,-4.2659,1.4471],[105.6914,-4.2602,1.3137],[105.6819,-4.2613,1.4031],[105.6823,-4.2727,4.2785],[105.681,-4.2747,9.6357],[105.6775,-4.2752,2.9498],[105.6768,-4.2786,3.7493],[105.6802,-4.2821,3.7256],[105.6846,-4.3296,1.8081],[105.6706,-4.3346,3.162],[105.6447,-4.3374,2.979],[105.6413,-4.3245,1.8167],[105.6238,-4.3261,2.7691],[105.6243,-4.3308,3.0227],[105.6191,-4.3314,2.7589],[105.6198,-4.3499,2.6114],[105.5887,-4.3525,2.6619],[105.5892,-4.3693,2.0983],[105.5684,-4.3704,1.8429],[105.5674,-4.3499,3.5036],[105.5405,-4.3537,2.2852],[105.5404,-4.3562,1.7629],[105.5281,-4.3568,2.4919],[105.5272,-4.3536,2.9969],[105.5114,-4.3545,1.6916],[105.5105,-4.3685,2.438],[105.4908,-4.3677,2.0647],[105.4889,-4.3483,1.8681],[105.4703,-4.346,1.9419],[105.4695,-4.3221,3.2853],[105.4619,-4.3182,2.1397],[105.4569,-4.3105,2.807],[105.4393,-4.3013,5.5424],[105.4364,-4.3121,1.7682],[105.4331,-4.3147,1.9844],[105.4282,-4.3131,1.0708],[105.4228,-4.3059,1.0571],[105.4146,-4.3022,8.3415],[105.4081,-4.3027,26.068],[105.401,-4.307,2.1642],[105.3881,-4.3101,2.0745],[105.3822,-4.3098,1.6954],[105.3903,-4.3205,4.5131],[105.3875,-4.3251,5.28],[105.3696,-4.3257,1.0527],[105.371,-4.3309,3.1933],[105.36279999999999,-4.334,2.1741],[105.3583,-4.3462,2.5387],[105.3506,-4.3493,2.3478],[105.3489,-4.353,1.9656],[105.3399,-4.3546,2.4654],[105.3248,-4.3526,3.111],[105.3254,-4.3612,5.4479],[105.3687,-4.3663,2.6702],[105.3687,-4.375,2.8584],[105.3555,-4.3858,3.253],[105.3537,-4.3971,3.1562],[105.3342,-4.4004,3.5614],[105.3318,-4.4214,3.4816],[105.3257,-4.4228,6.9528],[105.3233,-4.4258,3.0666],[105.3212,-4.4305,3.1414],[105.319,-4.4488,3.9218],[105.3149,-4.4502,3.1181],[105.3121,-4.4541,3.3343],[105.3056,-4.4561,4.0498],[105.3022,-4.4535,2.7579],[105.2996,-4.4539,2.9365],[105.2977,-4.4565,2.3153],[105.2975,-4.4622,2.9337],[105.2763,-4.4504,3.0792],[105.2727,-4.4626,3.5706],[105.2735,-4.4692,8.0769],[105.279,-4.4728,5.7993],[105.2841,-4.4734,16.6839],[105.2779,-4.4775,1.6834],[105.2708,-4.4915,22.2544],[105.2713,-4.4963,9.4697],[105.2776,-4.5028,1.7274],[105.2771,-4.5084,1.6695],[105.2716,-4.5058,3.7613],[105.2645,-4.5052,2.3349],[105.2601,-4.5128,6.9617],[105.2493,-4.5164,4.0816],[105.2492,-4.5211,2.0842],[105.2465,-4.5208,2.5225],[105.2421,-4.5246,4.9594],[105.2432,-4.525,4.3671],[105.2426,-4.527,6.3053],[105.2393,-4.5273,5.7925],[105.24,-4.5359,4.7399],[105.2353,-4.5416,5.8805],[105.2372,-4.5471,6.8031],[105.2308,-4.5532,7.7586],[105.2301,-4.5661,7.858],[105.2373,-4.5781,12.7693],[105.2435,-4.5844,20.3698],[105.2415,-4.6118,31.7727],[105.2451,-4.6359,25.0417],[105.2462,-4.6378,19.4718],[105.247,-4.6373,17.2823],[105.2472,-4.6364,17.2823],[105.2507,-4.6376,18.3844],[105.255,-4.6353,17.2054],[105.262,-4.6355,20.4278],[105.2638,-4.6314,18.3013],[105.2602,-4.6292,15.672],[105.2615,-4.6267,18.5354],[105.2644,-4.6256,18.2074],[105.2626,-4.6236,15.5741],[105.2633,-4.6224,15.9619],[105.2651,-4.622,14.9537],[105.2654,-4.6234,19.1009],[105.27,-4.622,17.3724],[105.2729,-4.6268,18.3005],[105.2753,-4.6208,14.7679],[105.2777,-4.6206,15.6332],[105.2784,-4.622,16.9311],[105.2841,-4.6206,13.6677],[105.2866,-4.6221,15.7234],[105.2862,-4.619,14.548],[105.2878,-4.619,16.2589],[105.2882,-4.6173,16.0731],[105.2859,-4.6175,15.9343],[105.2856,-4.6157,16.056],[105.2888,-4.6137,15.1334],[105.2914,-4.6138,14.8506],[105.2917,-4.6161,16.3064],[105.2935,-4.6169,15.4131],[105.294,-4.6134,14.3017],[105.2967,-4.6128,15.794],[105.2952,-4.6112,14.2941],[105.2968,-4.6104,14.3087],[105.2964,-4.6071,13.3983],[105.2996,-4.6084,15.9721],[105.2992,-4.6049,13.1595],[105.3041,-4.6044,13.7633],[105.3031,-4.6019,13.655],[105.3046,-4.6002,15.9198],[105.303,-4.5989,13.6975],[105.304,-4.595,17.9188],[105.3104,-4.5922,14.875],[105.3121,-4.5797,14.9998],[105.3156,-4.5775,12.9078],[105.3185,-4.5785,14.3347],[105.3198,-4.5765,13.443],[105.3224,-4.5775,14.9095],[105.3235,-4.5725,11.8432],[105.325,-4.5742,14.0697],[105.3267,-4.5734,11.9362],[105.3266,-4.5755,17.0606],[105.3281,-4.5756,13.7905],[105.3274,-4.5698,11.5631],[105.3287,-4.5687,12.8672],[105.3298,-4.5703,12.7994],[105.3297,-4.5659,13.0493],[105.3314,-4.5671,12.4707],[105.3382,-4.5638,11.8932],[105.3396,-4.5601,11.8824],[105.3379,-4.5583,12.3645],[105.3401,-4.5528,12.4895],[105.3452,-4.5505,10.1591],[105.3467,-4.5516,10.3749],[105.3479,-4.5483,10.3378],[105.3535,-4.5506,9.9107],[105.3558,-4.5438,11.9543],[105.3538,-4.5389,9.6293],[105.3607,-4.5369,13.1196],[105.3649,-4.5285,9.5644],[105.37,-4.5257,10.0294],[105.3693,-4.5218,9.5973],[105.3755,-4.522,9.7831],[105.3792,-4.5187,8.6468],[105.3791,-4.5165,9.5724],[105.3806,-4.5173,9.2324],[105.3848,-4.5158,7.4944],[105.3882,-4.5179,6.945],[105.3917,-4.5152,6.9509],[105.3956,-4.5154,8.0873],[105.3988,-4.5135,7.4043],[105.3996,-4.511,7.2415],[105.4085,-4.5136,8.469],[105.4103,-4.5114,8.9271],[105.4081,-4.5178,7.9314],[105.412,-4.5185,11.7323],[105.4146,-4.5111,7.9754],[105.4184,-4.5081,4.3946],[105.4213,-4.508,7.3447],[105.4232,-4.5102,7.8445],[105.4262,-4.5061,10.5251],[105.4277,-4.5101,6.5988],[105.4343,-4.5061,7.4629],[105.4369,-4.5017,5.7851],[105.4416,-4.5031,8.3161],[105.4449,-4.5023,9.5842],[105.4491,-4.4948,7.0827],[105.4559,-4.4937,5.4536],[105.4567,-4.4921,8.1531],[105.4644,-4.497,6.7361],[105.4663,-4.4937,3.341],[105.4636,-4.4947,6.0645],[105.465,-4.4924,4.2166],[105.4688,-4.4915,7.7454],[105.4712,-4.494,4.2077],[105.4725,-4.4899,5.6814],[105.4751,-4.4913,4.7891],[105.4737,-4.4958,5.4677],[105.4782,-4.4968,6.5761],[105.4824,-4.4921,4.7453],[105.4827,-4.4875,4.8871],[105.4876,-4.4893,6.0196],[105.4892,-4.4833,8.2856],[105.4922,-4.4826,5.2975],[105.4971,-4.4948,5.8955],[105.5052,-4.4955,4.1563],[105.5073,-4.4922,6.6407],[105.51,-4.4915,6.0774],[105.5143,-4.4972,5.1446],[105.5215,-4.4981,6.183],[105.5241,-4.5073,5.3402],[105.5311,-4.5072,3.7523],[105.5352,-4.5093,5.1992],[105.5368,-4.5137,2.9988],[105.5338,-4.5186,5.8508],[105.5343,-4.5206,4.7542],[105.5519,-4.5205,6.1177],[105.5616,-4.5171,7.0492],[105.5714,-4.5192,4.3734],[105.5734,-4.5216,6.561],[105.5744,-4.5318,5.0063],[105.5773,-4.5346,3.9478],[105.5813,-4.5353,5.5042],[105.5847,-4.5309,7.3053],[105.5853,-4.5188,3.657],[105.5892,-4.5145,7.7574],[105.5977,-4.5142,3.8685],[105.6032,-4.522,6.4635],[105.6076,-4.5217,3.5428],[105.6122,-4.5183,7.0664],[105.6213,-4.5173,6.2382],[105.6271,-4.5009,5.7257],[105.6269,-4.4884,6.226],[105.6331,-4.4821,6.2761],[105.6387,-4.4828,7.1513],[105.6433,-4.4812,8.0857],[105.6462,-4.4843,6.2683],[105.6455,-4.4955,8.541],[105.6413,-4.5003,8.1844],[105.6429,-4.5054,7.1704],[105.6461,-4.5089,7.8578],[105.6546,-4.5091,4.928],[105.6585,-4.5065,5.2748],[105.6609,-4.5006,6.856],[105.6686,-4.5009,5.8401]]]]}}