{"type":"Feature","properties":{"GID_3":"IDN.33.1.3_1","GID_0":"IDN","country":"Indonesia","GID_1":"IDN.33_1","province":"Yogyakarta","NL_NAME_1":"NA","GID_2":"IDN.33.1_1","county":"Bantul","NL_NAME_2":"NA","city":"Bantul","VARNAME_3":"NA","NL_NAME_3":"NA","TYPE_3":"Kecamatan","ENGTYPE_3":"Sub-district","CC_3":"3402070","HASC_3":"NA","name":"Bantul.city"},
"geometry":{"type": "MultiPolygon","coordinates": [[[[110.3469,-7.9195,28.3965],[110.3449,-7.9164,29.8033],[110.348,-7.9092,36.1248],[110.3473,-7.9102,34.2527],[110.3464,-7.9076,37.3109],[110.344,-7.9076,35.6378],[110.3453,-7.9053,36.8147],[110.3507,-7.9063,36.7879],[110.3524,-7.9004,42.4636],[110.3534,-7.9028,40.5295],[110.3536,-7.8998,42.4636],[110.3578,-7.9,40.1028],[110.3581,-7.898,41.012],[110.3612,-7.8975,39.8609],[110.3635,-7.8902,45.035],[110.3613,-7.8812,50.0483],[110.3595,-7.8821,46.8799],[110.3595,-7.8859,48.1028],[110.358,-7.8864,44.266],[110.3565,-7.8859,47.2027],[110.3569,-7.882,49.8873],[110.3551,-7.8815,49.2708],[110.3553,-7.8854,46.0052],[110.3535,-7.8852,49.0257],[110.3519,-7.8878,47.9977],[110.3503,-7.8842,50.8695],[110.348,-7.8843,52.0774],[110.3478,-7.8798,53.1371],[110.3426,-7.8816,50.7443],[110.3416,-7.8798,50.5197],[110.3366,-7.8795,51.7717],[110.3369,-7.8754,55.4783],[110.3334,-7.8744,56.2125],[110.33,-7.8708,56.2111],[110.3321,-7.8691,55.4453],[110.3308,-7.8692,55.4806],[110.3304,-7.8656,62.6614],[110.3281,-7.8652,59.6731],[110.3274,-7.8616,59.7519],[110.327,-7.8634,63.0137],[110.3235,-7.862,59.0825],[110.3207,-7.8676,53.3975],[110.3253,-7.8711,55.9933],[110.3227,-7.8723,51.9213],[110.322,-7.8763,49.6804],[110.3197,-7.8786,50.7423],[110.3154,-7.8779,49.0623],[110.3131,-7.8819,50.0688],[110.3104,-7.8811,57.4577],[110.3108,-7.8841,47.691],[110.3089,-7.8846,46.4307],[110.3105,-7.885,47.0126],[110.3114,-7.8879,43.2543],[110.3096,-7.8952,42.6704],[110.3114,-7.8958,42.9096],[110.311,-7.899,42.2987],[110.3134,-7.8992,39.1674],[110.3145,-7.9049,38.8402],[110.3148,-7.9158,32.8087],[110.3144,-7.9171,30.7693],[110.3119,-7.9151,35.2574],[110.3115,-7.9178,34.2942],[110.315,-7.9178,32.2598],[110.3149,-7.9211,33.9627],[110.3165,-7.9174,32.2598],[110.3185,-7.9189,30.2186],[110.3231,-7.9189,29.7758],[110.3231,-7.9201,32.0019],[110.3269,-7.9184,28.1928],[110.3273,-7.9207,27.4829],[110.3304,-7.9191,28.8927],[110.3305,-7.9207,27.5972],[110.3336,-7.9212,28.5287],[110.3354,-7.9182,30.997],[110.3386,-7.9184,31.3088],[110.3389,-7.9161,31.6786],[110.344,-7.9208,28.5128],[110.3463,-7.9214,28.6203],[110.3469,-7.9195,28.3965]]]]}}