{"type":"Feature","properties":{"GID_3":"IDN.11.21.5_1","GID_0":"IDN","country":"Indonesia","GID_1":"IDN.11_1","province":"JawaTimur","NL_NAME_1":"NA","GID_2":"IDN.11.21_1","county":"Magetan","NL_NAME_2":"NA","city":"Kartoharjo","VARNAME_3":"NA","NL_NAME_3":"NA","TYPE_3":"Kecamatan","ENGTYPE_3":"Sub-district","CC_3":"3520131","HASC_3":"NA","name":"Kartoharjo.city"},
"geometry":{"type": "MultiPolygon","coordinates": [[[[111.504,-7.5537,54.9385],[111.5058,-7.5514,54.23],[111.5128,-7.5518,54.6714],[111.5125,-7.5496,54.5052],[111.5072,-7.546,52.778],[111.5096,-7.5375,53.0722],[111.5082,-7.5369,53.0722],[111.5083,-7.5341,52.598],[111.512,-7.5239,50.993899999999996],[111.5019,-7.5143,50.3046],[111.4772,-7.5159,49.9488],[111.4671,-7.5099,52.9954],[111.4621,-7.5098,56.2294],[111.4602,-7.5176,59.3074],[111.4528,-7.5152,61.9622],[111.4483,-7.5158,61.8257],[111.4479,-7.5175,62.1878],[111.4441,-7.5174,62.3158],[111.4377,-7.5206,64.4662],[111.4322,-7.5277,69.8154],[111.4235,-7.5309,74.2237],[111.4247,-7.5371,71.1764],[111.4266,-7.5367,70.0034],[111.427,-7.5382,71.5915],[111.4346,-7.5361,67.1831],[111.4348,-7.5334,66.633],[111.4406,-7.5306,63.9218],[111.4407,-7.5352,63.9292],[111.4469,-7.5348,61.2838],[111.4472,-7.538,61.6071],[111.453,-7.5387,61.8524],[111.4567,-7.5299,58.9203],[111.4687,-7.5288,54.1371],[111.4672,-7.5355,55.9165],[111.4653,-7.5354,56.4218],[111.4649,-7.5375,57.1588],[111.4743,-7.5391,56.2902],[111.4724,-7.5466,58.9823],[111.4763,-7.5472,57.3436],[111.4769,-7.5507,57.8101],[111.482,-7.5516,55.0895],[111.4837,-7.5482,56.3272],[111.4958,-7.5532,54.596],[111.504,-7.5537,54.9385]]]]}}