{"type":"Feature","properties":{"GID_2":"IDN.12.5_1","GID_0":"IDN","country":"Indonesia","GID_1":"IDN.12_1","province":"KalimantanBarat","NL_NAME_1":"NA","county":"KotaPontianak","VARNAME_2":"NA","NL_NAME_2":"NA","TYPE_2":"Kota","ENGTYPE_2":"City","CC_2":"6171","HASC_2":"ID.KB.PN","name":"Kota_Pontianak.county"},
"geometry":{"type": "MultiPolygon","coordinates": [[[[109.3603,-0.0715,5.128],[109.368,-0.0586,4.6491],[109.3634,-0.0514,3.9963],[109.3506,-0.0377,1.2309],[109.3428,-0.0233,6.7114],[109.315,-0.003,3.6941],[109.306,-0.0009,0.0],[109.2979,-0.002,2.0882],[109.2871,0.0016,1.1861],[109.2854,-0.0169,3.857],[109.2808,-0.0171,2.8315],[109.2721,-0.0273,10.9411],[109.2823,-0.0435,5.2471],[109.285,-0.0409,5.5867],[109.3036,-0.0631,4.9116],[109.3109,-0.0696,4.1643],[109.307,-0.0771,3.8698],[109.3139,-0.082,4.5181],[109.3172,-0.0752,7.254],[109.3431,-0.0983,5.0548],[109.3603,-0.0715,5.128]]],
[[[109.3756,-0.0596,4.3486],[109.3841,-0.0522,9.0961],[109.371,-0.0361,3.6697],[109.3761,-0.0313,4.177],[109.3789,-0.0321,3.192],[109.3827,-0.0296,3.2268],[109.3836,-0.0265,4.258],[109.3643,-0.0209,0.0],[109.3455,-0.0237,1.6705],[109.3537,-0.0384,3.7678],[109.365,-0.0502,2.7385],[109.3732,-0.0616,2.4615],[109.3756,-0.0596,4.3486]]],
[[[109.3523,0.027,7.9589],[109.3093,0.0381,10.003],[109.3103,0.0341,7.9362],[109.3058,0.0333,7.9265],[109.3057,0.0288,8.0583],[109.2975,0.0298,7.0008],[109.29,0.0085,0.0],[109.3214,-0.0002,2.3644],[109.3452,-0.0212,2.6266],[109.3649,-0.0183,1.1251],[109.3766,-0.0215,1.5514],[109.379,-0.0136,3.0585],[109.3777,-0.0137,4.1512],[109.3786,-0.0125,4.0707],[109.3762,-0.0026,4.1688],[109.3732,-0.0005,2.9904],[109.3695,0.0096,3.6602],[109.3711,0.0209,3.6431],[109.3523,0.027,7.9589]]]]}}