{"type":"Feature","properties":{"GID_3":"IDN.17.1.7_1","GID_0":"IDN","country":"Indonesia","GID_1":"IDN.17_1","province":"Lampung","NL_NAME_1":"NA","GID_2":"IDN.17.1_1","county":"BandarLampung","NL_NAME_2":"NA","city":"TanjungKarangBarat","VARNAME_3":"NA","NL_NAME_3":"NA","TYPE_3":"Kecamatan","ENGTYPE_3":"Sub-district","CC_3":"1871070","HASC_3":"NA","name":"Tanjung_Karang_Barat.city"},
"geometry":{"type": "MultiPolygon","coordinates": [[[[105.2164,-5.4088,315.2967],[105.2147,-5.4087,321.0762],[105.2134,-5.4147,316.8647],[105.2153,-5.4269,205.8452],[105.2196,-5.4297,196.4288],[105.2263,-5.4303,110.25],[105.2306,-5.4332,108.0014],[105.2313,-5.4313,94.3357],[105.2383,-5.43,132.5817],[105.2411,-5.4242,167.5918],[105.2399,-5.4216,159.4992],[105.2406,-5.4163,200.7667],[105.2381,-5.4114,184.4056],[105.2394,-5.4077,139.8624],[105.2418,-5.4065,136.5471],[105.2443,-5.4096,123.1386],[105.2492,-5.4105,112.8591],[105.2558,-5.4096,107.9358],[105.2538,-5.4073,105.5293],[105.2548,-5.4054,116.5107],[105.2531,-5.4048,121.5479],[105.2542,-5.4022,134.1692],[105.251,-5.4008,156.6172],[105.2523,-5.3988,137.024],[105.2488,-5.3947,131.1479],[105.2489,-5.3935,130.3724],[105.2519,-5.3937,130.3276],[105.2497,-5.3919,134.4299],[105.2553,-5.3855,119.4945],[105.2494,-5.386,124.3643],[105.247,-5.3839,127.3218],[105.2477,-5.3819,128.2871],[105.2439,-5.3817,129.8798],[105.2419,-5.3787,134.8923],[105.2305,-5.3795,130.5778],[105.2281,-5.3897,175.5713],[105.2327,-5.3909,163.5506],[105.2336,-5.3935,164.5834],[105.2361,-5.3947,162.6393],[105.2314,-5.4007,169.6819],[105.2276,-5.3994,181.2119],[105.222,-5.4061,283.6981],[105.2215,-5.4092,291.4556],[105.2164,-5.4088,315.2967]]]]}}