{"type":"Feature","properties":{"GID_2":"IDN.27.1_1","GID_0":"IDN","country":"Indonesia","GID_1":"IDN.27_1","province":"SulawesiTengah","NL_NAME_1":"NA","county":"BanggaiKepulauan","VARNAME_2":"NA","NL_NAME_2":"NA","TYPE_2":"Kabupaten","ENGTYPE_2":"Regency","CC_2":"7201","HASC_2":"ID.ST.BK","name":"Banggai_Kepulauan.county"},
"geometry":{"type": "MultiPolygon","coordinates": [[[[123.145,-2.2239,0.0],[123.1483,-2.223,0.0],[123.1564,-2.2103,2.2929],[123.1605,-2.2068,0.0],[123.1608,-2.199,5.3625],[123.1563,-2.1964,10.2608],[123.1484,-2.202,0.0],[123.1448,-2.21,4.9622],[123.1427,-2.2169,5.2048],[123.1432,-2.2219,3.1294],[123.145,-2.2239,0.0]]],
[[[123.4396,-2.2205,0.0],[123.442,-2.22,0.0],[123.4429,-2.2188,0.0],[123.4392,-2.2193,0.0],[123.4396,-2.2205,0.0]]],
[[[123.6693,-2.1646,0.3047],[123.6681,-2.1634,0.0],[123.6692,-2.1614,0.2717],[123.6637,-2.1529,0.0],[123.662,-2.1562,1.8851],[123.6658,-2.1634,2.8045],[123.6648,-2.1639,0.0],[123.6665,-2.1646,3.4755],[123.668,-2.1744,1.8473],[123.6695,-2.1747,4.1145],[123.6701,-2.1783,0.7952],[123.6729,-2.1791,2.3862],[123.6779,-2.177,0.0],[123.6797,-2.1753,0.0],[123.681,-2.1673,1.7559],[123.6768,-2.1642,3.8713],[123.6812,-2.1632,0.3436],[123.6739,-2.1583,1.9033],[123.6724,-2.1618,0.0],[123.6732,-2.1645,0.9741],[123.6693,-2.1646,0.3047]]],
[[[123.6707,-2.1512,2.5546],[123.6686,-2.1489,0.9906],[123.6662,-2.1497,3.1741],[123.667,-2.1512,3.1741],[123.6691,-2.1502,3.9526],[123.6679,-2.1523,4.2025],[123.6716,-2.154,0.8615],[123.6713,-2.1522,4.4615],[123.6729,-2.1511,0.0],[123.6707,-2.1512,2.5546]]],
[[[123.4682,-2.206,0.0],[123.4671,-2.2086,0.0],[123.4676,-2.2051,0.0],[123.4647,-2.2061,0.0],[123.465,-2.2144,0.0],[123.4631,-2.2164,0.0],[123.4514,-2.22,0.0],[123.4457,-2.2236,0.0],[123.4434,-2.2217,0.0],[123.4388,-2.2248,0.0],[123.4329,-2.2232,0.0],[123.4329,-2.2218,0.0],[123.4272,-2.2262,0.0],[123.4221,-2.2271,0.0],[123.422,-2.2289,0.0],[123.4079,-2.2347,0.0],[123.4084,-2.229,0.0],[123.4019,-2.2187,0.0],[123.4003,-2.2096,0.0],[123.3983,-2.2087,0.0],[123.3964,-2.218,0.0],[123.3969,-2.224,0.0],[123.4006,-2.2302,0.0],[123.4034,-2.2403,0.0],[123.4057,-2.2418,0.0],[123.4118,-2.2415,0.0],[123.4671,-2.2189,0.0],[123.4716,-2.2133,0.0],[123.4716,-2.2082,0.0],[123.4682,-2.206,0.0]]],
[[[123.4564,-2.2108,0.0],[123.46,-2.2091,0.0],[123.4599,-2.2074,0.0],[123.4512,-2.2142,0.0],[123.4545,-2.213,0.0],[123.4564,-2.2108,0.0]]],
[[[123.4611,-2.2057,0.0],[123.4599,-2.207,0.0],[123.4635,-2.206,0.0],[123.4629,-2.2048,0.0],[123.4611,-2.2057,0.0]]],
[[[123.3996,-2.2083,0.0],[123.4017,-2.2082,0.0],[123.4066,-2.2009,0.0],[123.4054,-2.1988,0.0],[123.4007,-2.2027,0.0],[123.3982,-2.2079,0.0],[123.3996,-2.2083,0.0]]],
[[[123.6558,-2.1446,0.7108],[123.6569,-2.1459,0.7108],[123.6593,-2.1447,0.0],[123.6585,-2.1425,0.5806],[123.6547,-2.1401,0.9881],[123.654,-2.1419,1.884],[123.6558,-2.1446,0.7108]]],
[[[123.6059,-2.1426,0.0],[123.6063,-2.1423,0.0],[123.6055,-2.1422,0.0],[123.6056,-2.1424,0.0],[123.6059,-2.1426,0.0]]],
[[[123.6003,-2.1342,0.0],[123.6001,-2.134,0.0],[123.5991,-2.1339,0.0],[123.5993,-2.1344,0.0],[123.6003,-2.1342,0.0]]],
[[[123.6025,-2.1359,0.0],[123.6017,-2.1358,0.0],[123.6008,-2.1353,0.0],[123.6019,-2.1363,0.0],[123.6025,-2.1359,0.0]]],
[[[123.6062,-2.1386,0.0],[123.6058,-2.1352,0.0],[123.603,-2.1365,0.0],[123.6049,-2.1398,0.0],[123.6079,-2.1405,0.0],[123.6093,-2.1388,0.0],[123.6062,-2.1386,0.0]]],
[[[123.6091,-2.1362,0.0],[123.6088,-2.1372,0.0],[123.6098,-2.1361,0.0],[123.609,-2.1334,0.0],[123.6089,-2.1338,0.0],[123.6091,-2.1362,0.0]]],
[[[123.4443,-2.1314,0.0],[123.4441,-2.1318,0.0],[123.4445,-2.1319,0.0],[123.4446,-2.1314,0.0],[123.4443,-2.1314,0.0]]],
[[[123.6005,-2.1196,0.0],[123.6019,-2.1185,0.0],[123.6017,-2.118,0.0],[123.5988,-2.1184,0.0],[123.6005,-2.1196,0.0]]],
[[[123.8055,-2.1171,0.0],[123.8058,-2.1167,0.0],[123.8052,-2.1164,0.0],[123.805,-2.1169,0.0],[123.8055,-2.1171,0.0]]],
[[[123.5907,-2.1209,0.0],[123.5904,-2.1209,0.0],[123.5903,-2.1213,0.0],[123.5908,-2.1214,0.0],[123.5907,-2.1209,0.0]]],
[[[123.5927,-2.1203,0.0],[123.5921,-2.1189,0.0],[123.5916,-2.1189,0.0],[123.5909,-2.1205,0.0],[123.5927,-2.1203,0.0]]],
[[[123.5596,-2.095,0.0],[123.5504,-2.0942,0.0],[123.5444,-2.0957,0.0],[123.5433,-2.101,0.0],[123.5505,-2.1026,0.0],[123.5546,-2.1052,0.0],[123.5539,-2.1059,0.0],[123.5598,-2.1054,0.0],[123.5597,-2.1061,0.0],[123.5578,-2.1061,0.0],[123.5589,-2.1072,0.0],[123.5614,-2.1056,0.0],[123.563,-2.1016,0.0],[123.5617,-2.0964,0.0],[123.5596,-2.095,0.0]]],
[[[123.563,-2.1097,0.0],[123.5627,-2.1098,0.0],[123.563,-2.1104,0.0],[123.5632,-2.1099,0.0],[123.563,-2.1097,0.0]]],
[[[123.8095,-2.1085,0.0],[123.8077,-2.1083,1.3416],[123.8047,-2.1107,0.0],[123.8077,-2.1105,0.0],[123.8095,-2.1085,0.0]]],
[[[123.928,-2.0987,0.0],[123.9274,-2.0993,0.0],[123.9273,-2.0995,0.0],[123.9281,-2.0993,0.0],[123.928,-2.0987,0.0]]],
[[[123.9273,-2.0982,0.0],[123.9275,-2.0975,0.3443],[123.9267,-2.0975,0.3443],[123.9268,-2.0983,0.0],[123.9273,-2.0982,0.0]]],
[[[123.6469,-2.1283,0.0],[123.6465,-2.1288,1.4788],[123.6465,-2.1292,1.4788],[123.647,-2.1285,0.0],[123.6469,-2.1283,0.0]]],
[[[123.4496,-2.1295,1.8716],[123.4495,-2.1293,1.8716],[123.4494,-2.1295,1.8716],[123.4496,-2.1295,1.8716]]],
[[[123.5943,-2.1296,0.0],[123.5945,-2.1289,0.0],[123.5938,-2.1289,0.0],[123.5937,-2.1292,0.0],[123.5943,-2.1296,0.0]]],
[[[123.4465,-2.1278,0.4422],[123.4466,-2.1283,0.0],[123.447,-2.1286,0.0],[123.4466,-2.1271,0.4422],[123.4465,-2.1278,0.4422]]],
[[[123.5962,-2.1292,0.0],[123.5971,-2.1296,0.0],[123.5973,-2.1287,0.0],[123.5964,-2.1287,0.0],[123.5962,-2.1292,0.0]]],
[[[123.4489,-2.1291,0.0],[123.4488,-2.1289,0.0],[123.4485,-2.1289,0.0],[123.4487,-2.1293,0.0],[123.4489,-2.1291,0.0]]],
[[[123.4493,-2.1271,2.2188],[123.4492,-2.1275,2.2188],[123.4496,-2.1276,2.2188],[123.4496,-2.1274,2.2188],[123.4493,-2.1271,2.2188]]],
[[[123.5947,-2.1266,0.0],[123.5944,-2.1267,0.0],[123.5945,-2.127,0.0],[123.5948,-2.127,0.0],[123.5947,-2.1266,0.0]]],
[[[123.4508,-2.1322,3.3041],[123.451,-2.13,3.1908],[123.4493,-2.1342,0.9484],[123.4505,-2.1338,0.9484],[123.4508,-2.1322,3.3041]]],
[[[123.6001,-2.1304,0.0],[123.5974,-2.13,0.0],[123.598,-2.1326,0.0],[123.6001,-2.132,0.0],[123.6022,-2.1346,0.0],[123.6019,-2.1332,0.0],[123.6001,-2.1304,0.0]]],
[[[123.4409,-2.1313,3.0419],[123.4394,-2.1312,1.3107],[123.438,-2.1282,0.0],[123.4396,-2.133,0.0],[123.4409,-2.1313,3.0419]]],
[[[123.4432,-2.1308,0.8818],[123.4435,-2.1317,0.0],[123.4441,-2.1304,0.8818],[123.4437,-2.1303,0.8818],[123.4432,-2.1308,0.8818]]],
[[[123.6383,-2.1263,2.6939],[123.635,-2.1256,2.8514],[123.6315,-2.1279,3.8873],[123.6352,-2.1331,0.0],[123.6418,-2.1368,0.0],[123.6438,-2.1337,1.3563],[123.6424,-2.1322,2.1978],[123.6399,-2.1329,4.5984],[123.6383,-2.1263,2.6939]]],
[[[123.6428,-2.1257,1.1057],[123.6409,-2.1244,0.0],[123.6385,-2.1256,1.6367],[123.6422,-2.1314,2.1978],[123.6467,-2.1321,1.5611],[123.6427,-2.1296,2.2268],[123.6454,-2.1303,0.0],[123.6457,-2.1288,1.4788],[123.6454,-2.1262,0.0],[123.6428,-2.1257,1.1057]]],
[[[123.6075,-2.1236,0.0],[123.6043,-2.1225,0.0],[123.607,-2.1252,0.0],[123.6088,-2.1322,0.0],[123.6083,-2.1242,0.0],[123.6075,-2.1236,0.0]]],
[[[123.6431,-2.1245,0.0],[123.6434,-2.1253,1.1057],[123.6438,-2.1251,1.1057],[123.6436,-2.1246,1.1057],[123.6431,-2.1245,0.0]]],
[[[123.4391,-2.1255,3.8418],[123.439,-2.1258,3.8418],[123.4393,-2.1262,3.8418],[123.4395,-2.1259,3.8418],[123.4391,-2.1255,3.8418]]],
[[[123.4399,-2.1258,3.8418],[123.4399,-2.1256,3.8418],[123.4397,-2.1256,3.8418],[123.4397,-2.1258,3.8418],[123.4399,-2.1258,3.8418]]],
[[[123.6026,-2.1235,0.0],[123.6019,-2.1202,0.0],[123.6016,-2.1218,0.0],[123.5983,-2.1221,0.0],[123.6038,-2.1307,0.0],[123.6045,-2.1288,0.0],[123.6026,-2.1235,0.0]]],
[[[123.5957,-2.1248,0.0],[123.5956,-2.1254,0.0],[123.5961,-2.1257,0.0],[123.5962,-2.1247,0.0],[123.5957,-2.1248,0.0]]],
[[[123.4439,-2.1199,5.8517],[123.4406,-2.1212,0.9891],[123.4399,-2.1232,2.9406],[123.4417,-2.1233,4.0585],[123.4392,-2.1247,3.8418],[123.4407,-2.1248,3.8418],[123.4402,-2.1269,3.3008],[123.4421,-2.1283,0.0],[123.4443,-2.127,1.3384],[123.4446,-2.1249,3.6215],[123.4455,-2.1265,0.4422],[123.4484,-2.1257,3.1956],[123.4479,-2.1242,1.2216],[123.4508,-2.1296,3.1908],[123.4505,-2.1258,1.1563],[123.4439,-2.1199,5.8517]]],
[[[123.5904,-2.122,0.0],[123.5902,-2.1222,0.0],[123.5906,-2.1226,0.0],[123.5907,-2.1225,0.0],[123.5904,-2.122,0.0]]],
[[[123.5972,-2.1171,0.0],[123.5925,-2.1168,0.0],[123.5942,-2.1205,0.0],[123.5921,-2.122,0.0],[123.5914,-2.125,0.0],[123.5948,-2.121,0.0],[123.5935,-2.1176,0.0],[123.5984,-2.1184,0.0],[123.5972,-2.1171,0.0]]],
[[[123.8972,-2.092,0.2276],[123.8969,-2.0921,0.2276],[123.897,-2.0924,0.2276],[123.8973,-2.0922,0.2276],[123.8972,-2.092,0.2276]]],
[[[123.8977,-2.0903,0.0],[123.8976,-2.0907,0.0],[123.8982,-2.0909,0.0],[123.8982,-2.0906,0.0],[123.8977,-2.0903,0.0]]],
[[[123.8988,-2.0894,0.0],[123.8986,-2.0895,0.0],[123.8988,-2.0898,0.0],[123.899,-2.0895,0.0],[123.8988,-2.0894,0.0]]],
[[[123.8994,-2.0893,0.0],[123.8991,-2.0892,0.0],[123.8992,-2.0896,0.0],[123.8994,-2.0895,0.0],[123.8994,-2.0893,0.0]]],
[[[123.9106,-2.0882,0.0],[123.9101,-2.0883,0.0],[123.9102,-2.0887,0.0],[123.9109,-2.0886,0.0],[123.9106,-2.0882,0.0]]],
[[[123.9146,-2.0929,0.7094],[123.9143,-2.0929,0.7094],[123.9143,-2.0933,0.4589],[123.9147,-2.0933,0.4589],[123.9146,-2.0929,0.7094]]],
[[[123.9115,-2.0929,1.4741],[123.9112,-2.092,1.4741],[123.9096,-2.092,0.1441],[123.911,-2.0938,0.6975],[123.9115,-2.0929,1.4741]]],
[[[123.9117,-2.092,1.4741],[123.912,-2.0928,1.4741],[123.9132,-2.0935,0.0],[123.913,-2.0923,0.2632],[123.9117,-2.092,1.4741]]],
[[[123.9154,-2.0919,0.7094],[123.915,-2.0919,0.7094],[123.915,-2.0923,0.7094],[123.9154,-2.0923,0.7094],[123.9154,-2.0919,0.7094]]],
[[[123.8976,-2.0916,0.2276],[123.8975,-2.092,0.2276],[123.8982,-2.0922,0.0],[123.8983,-2.0914,0.0],[123.8976,-2.0916,0.2276]]],
[[[123.7518,-2.1043,0.6879],[123.7495,-2.1016,1.7818],[123.7512,-2.1063,0.0],[123.7555,-2.1082,0.0],[123.7617,-2.1073,2.3032],[123.7634,-2.1051,0.0],[123.7602,-2.1023,0.4879],[123.7561,-2.1024,1.7043],[123.7567,-2.1051,0.4649],[123.7599,-2.1053,2.5036],[123.7594,-2.1037,4.1122],[123.7611,-2.1053,2.5036],[123.7593,-2.1071,1.1462],[123.7558,-2.1073,1.4184],[123.7519,-2.1058,3.2181],[123.7518,-2.1043,0.6879]]],
[[[123.7556,-2.1024,0.4313],[123.7556,-2.102,0.4313],[123.7552,-2.1019,0.4313],[123.7554,-2.1025,0.4313],[123.7556,-2.1024,0.4313]]],
[[[123.9242,-2.0999,1.3992],[123.9228,-2.0994,0.5564],[123.9223,-2.1014,0.0],[123.924,-2.1018,3.2032],[123.9229,-2.1043,5.1747],[123.9257,-2.1097,0.0],[123.9317,-2.1097,0.0],[123.9336,-2.105,0.0],[123.9327,-2.1018,4.7731],[123.9284,-2.0995,0.0],[123.9284,-2.1055,1.9081],[123.927,-2.1053,1.9081],[123.9242,-2.0999,1.3992]]],
[[[123.8654,-2.0994,0.5704],[123.8654,-2.1001,0.0],[123.8658,-2.1001,0.0],[123.866,-2.0997,0.0],[123.8654,-2.0994,0.5704]]],
[[[123.8669,-2.0954,4.6006],[123.8644,-2.0949,3.1877],[123.8603,-2.0971,3.4509],[123.858,-2.1035,0.0],[123.8614,-2.1031,0.0],[123.8629,-2.0993,3.2687],[123.8686,-2.0958,4.6006],[123.8669,-2.0954,4.6006]]],
[[[123.9252,-2.0988,0.0],[123.925,-2.0986,0.0],[123.9248,-2.0988,0.0],[123.9249,-2.0989,0.0],[123.9252,-2.0988,0.0]]],
[[[123.8702,-2.0982,0.0],[123.872,-2.097,0.0],[123.8712,-2.096,0.0],[123.8661,-2.1,0.0],[123.868,-2.1001,0.0],[123.8702,-2.0982,0.0]]],
[[[123.9234,-2.0988,0.5564],[123.9244,-2.0981,0.5564],[123.9235,-2.0972,0.445],[123.9237,-2.0979,0.445],[123.9234,-2.0988,0.5564]]],
[[[123.9227,-2.0974,0.445],[123.922,-2.0965,1.176],[123.9211,-2.0982,0.9777],[123.9219,-2.0994,0.9777],[123.9227,-2.0988,0.5564],[123.9227,-2.0974,0.445]]],
[[[123.925,-2.0971,0.3228],[123.9249,-2.0976,0.3228],[123.9252,-2.0982,0.0],[123.9256,-2.097,0.3228],[123.925,-2.0971,0.3228]]],
[[[123.7478,-2.092,1.5087],[123.7448,-2.0912,0.0],[123.7442,-2.0924,0.0],[123.7448,-2.0977,0.0],[123.7484,-2.1022,1.7818],[123.7502,-2.097,0.528],[123.75,-2.094,0.3581],[123.7478,-2.092,1.5087]]],
[[[123.7519,-2.0966,0.0],[123.7526,-2.0968,0.0],[123.7536,-2.0977,0.0],[123.7516,-2.0952,0.0],[123.7519,-2.0966,0.0]]],
[[[123.9203,-2.0977,0.3959],[123.9212,-2.0977,1.176],[123.9214,-2.0968,1.176],[123.9195,-2.0972,0.3959],[123.9203,-2.0977,0.3959]]],
[[[123.9234,-2.0946,0.0],[123.9229,-2.095,0.0],[123.9229,-2.0952,0.0],[123.9238,-2.095,0.0],[123.9234,-2.0946,0.0]]],
[[[123.9192,-2.0951,1.4972],[123.9178,-2.0954,0.2405],[123.9191,-2.0971,0.3959],[123.9206,-2.0963,1.176],[123.9192,-2.0951,1.4972]]],
[[[123.9004,-2.0956,0.0],[123.9003,-2.096,0.0],[123.9009,-2.0962,0.0],[123.9007,-2.096,0.0],[123.9004,-2.0956,0.0]]],
[[[123.8916,-2.0938,0.4827],[123.8946,-2.0921,0.0],[123.8879,-2.0954,1.6071],[123.8956,-2.0988,1.7355],[123.9006,-2.0978,1.1775],[123.8999,-2.0966,1.1775],[123.893,-2.0965,2.6309],[123.8905,-2.0945,1.3943],[123.8916,-2.0938,0.4827]]],
[[[123.9177,-2.093,1.3522],[123.9159,-2.0925,0.7094],[123.9158,-2.0941,0.4589],[123.9174,-2.0951,0.2405],[123.9177,-2.093,1.3522]]],
[[[123.9094,-2.0949,0.1943],[123.9098,-2.0936,1.3925],[123.9078,-2.0942,0.0],[123.9088,-2.0953,0.1943],[123.9094,-2.0949,0.1943]]],
[[[123.9126,-2.0805,0.0],[123.9131,-2.08,0.0],[123.9123,-2.0797,0.0],[123.9123,-2.0801,0.0],[123.9126,-2.0805,0.0]]],
[[[123.9211,-2.0737,0.0],[123.9165,-2.0729,0.0],[123.9139,-2.0766,0.0],[123.9171,-2.0757,0.9028],[123.9173,-2.0736,3.0884],[123.9211,-2.0737,0.0]]],
[[[123.5961,-2.0594,0.0],[123.5947,-2.0578,0.0],[123.5918,-2.0579,0.0],[123.5903,-2.0615,0.9188],[123.5953,-2.0653,0.0],[123.5971,-2.0626,0.0],[123.5961,-2.0594,0.0]]],
[[[123.9015,-2.0071,0.0],[123.8996,-2.0024,0.0],[123.8939,-2.0063,0.0],[123.8916,-2.0042,0.0],[123.8895,-2.0045,0.0],[123.8912,-2.0105,0.0],[123.8935,-2.0098,0.0],[123.8891,-2.0155,0.0],[123.8891,-2.0181,0.0],[123.8948,-2.0237,0.0],[123.9012,-2.0187,0.0],[123.906,-2.0063,0.0],[123.9034,-2.005,0.0],[123.9015,-2.0071,0.0]]],
[[[123.4868,-1.9497,0.0],[123.4858,-1.948,3.3081],[123.4827,-1.9507,3.7552],[123.4854,-1.9493,3.3081],[123.4868,-1.9497,0.0]]],
[[[123.5354,-1.9277,0.0],[123.5354,-1.9282,0.0],[123.5361,-1.9282,0.0],[123.5361,-1.9278,0.0],[123.5354,-1.9277,0.0]]],
[[[123.635,-1.9348,1.2504],[123.6351,-1.9356,1.2504],[123.6357,-1.9355,1.2504],[123.6354,-1.9347,1.2504],[123.635,-1.9348,1.2504]]],
[[[123.5656,-1.9332,1.775],[123.5666,-1.9346,0.0],[123.5697,-1.931,5.6467],[123.5686,-1.9284,1.0704],[123.5652,-1.9302,8.097],[123.5656,-1.9332,1.775]]],
[[[123.6392,-1.9331,1.1259],[123.6404,-1.9302,0.887],[123.636,-1.9366,0.0],[123.6385,-1.9357,0.4872],[123.6392,-1.9331,1.1259]]],
[[[123.6365,-1.9323,1.0609],[123.6369,-1.931,0.7807],[123.6354,-1.9324,1.4171],[123.6362,-1.9338,0.0],[123.6358,-1.9325,1.4171],[123.6365,-1.9323,1.0609]]],
[[[123.6363,-1.9308,1.2436],[123.6367,-1.9303,0.7807],[123.636,-1.93,1.2436],[123.6358,-1.9308,1.2436],[123.6363,-1.9308,1.2436]]],
[[[123.6365,-1.9268,0.0],[123.6362,-1.927,0.0],[123.6363,-1.9273,0.0],[123.6368,-1.927,0.0],[123.6365,-1.9268,0.0]]],
[[[123.4923,-2.0028,0.0],[123.4929,-2.0019,0.0],[123.4913,-2.0021,0.0],[123.4914,-2.0025,0.0],[123.4923,-2.0028,0.0]]],
[[[123.495,-1.9895,0.0],[123.4929,-1.9891,9.4932],[123.4929,-1.9907,10.7229],[123.4954,-1.9916,0.0],[123.495,-1.9895,0.0]]],
[[[123.4961,-1.9837,4.597],[123.4915,-1.9835,8.7487],[123.4954,-1.9886,0.0],[123.4966,-1.9881,0.0],[123.4961,-1.9837,4.597]]],
[[[123.6392,-1.9545,0.7461],[123.6404,-1.9541,0.7461],[123.6404,-1.9531,0.7461],[123.6379,-1.9547,0.0],[123.6392,-1.9545,0.7461]]],
[[[123.6361,-1.9536,0.9846],[123.6363,-1.9541,0.9846],[123.6367,-1.9541,0.508],[123.6365,-1.9535,0.508],[123.6361,-1.9536,0.9846]]],
[[[123.4871,-1.9991,1.7325],[123.483,-1.9978,0.8391],[123.4837,-2.0002,1.3317],[123.4865,-2.0014,2.4618],[123.4853,-2.0027,0.9884],[123.4889,-2.0023,2.3184],[123.4892,-2.0009,1.3082],[123.4876,-2.0005,4.2116],[123.4892,-1.9997,1.3082],[123.4871,-1.9991,1.7325]]],
[[[123.4919,-1.9946,4.8935],[123.489,-1.9941,3.1469],[123.4885,-1.9949,3.0276],[123.4918,-1.9973,0.0],[123.4919,-1.9946,4.8935]]],
[[[123.4895,-2.0017,2.3184],[123.4897,-2.0023,2.3184],[123.4908,-2.0024,0.0],[123.49,-2.001,1.3082],[123.4895,-2.0017,2.3184]]],
[[[123.4866,-1.9953,0.0],[123.4879,-1.9949,0.0],[123.488,-1.9941,5.9264],[123.4858,-1.9945,0.0],[123.4866,-1.9953,0.0]]],
[[[123.4877,-1.9828,10.0817],[123.4884,-1.9808,0.0],[123.4862,-1.9796,4.8194],[123.4818,-1.9822,0.0],[123.4769,-1.996,3.4078],[123.4788,-2.0016,0.0],[123.4781,-1.9979,5.4932],[123.4801,-1.9985,1.3437],[123.4803,-1.9956,4.9948],[123.4832,-1.9999,1.3317],[123.4825,-1.9938,0.0],[123.4833,-1.9899,0.8412],[123.4811,-1.9886,7.4856],[123.4839,-1.9857,8.1115],[123.4842,-1.9878,19.2943],[123.4897,-1.9883,2.5316],[123.4877,-1.9828,10.0817]]],
[[[123.7871,-2.0259,14.8299],[123.7883,-2.0262,14.8299],[123.7892,-2.0238,0.0],[123.7873,-2.0213,32.4458],[123.7859,-2.0265,0.0],[123.7871,-2.0259,14.8299]]],
[[[123.7524,-2.0195,1.393],[123.7507,-2.0155,0.3056],[123.7489,-2.0191,1.5845],[123.751,-2.0235,0.0],[123.7549,-2.0225,0.5196],[123.7564,-2.0162,0.0],[123.7541,-2.0224,0.5196],[123.7524,-2.0195,1.393]]],
[[[123.7565,-2.0138,0.0],[123.7545,-2.0121,1.4979],[123.7518,-2.016,1.6668],[123.7558,-2.0162,0.0],[123.7565,-2.0138,0.0]]],
[[[123.7701,-2.0095,0.5589],[123.7663,-2.0053,0.0],[123.7646,-2.0058,2.2974],[123.7646,-2.0126,15.3073],[123.7677,-2.0136,10.8965],[123.7679,-2.0151,13.3031],[123.7644,-2.0163,3.97],[123.7634,-2.0239,31.6782],[123.7621,-2.0253,69.4139],[123.7604,-2.023,11.3253],[123.7578,-2.0256,0.1937],[123.7596,-2.0263,19.859],[123.7568,-2.0269,7.5442],[123.7573,-2.0429,2.5124],[123.7602,-2.0484,0.0],[123.7616,-2.0479,7.5218],[123.7623,-2.0453,34.2205],[123.7643,-2.0462,57.4601],[123.7611,-2.0509,0.0],[123.7624,-2.0604,0.0],[123.7682,-2.0528,11.4813],[123.7697,-2.0529,11.4813],[123.775,-2.0462,34.6379],[123.7805,-2.0427,0.0],[123.7792,-2.0381,21.786],[123.7848,-2.0283,0.0],[123.7844,-2.0264,13.6272],[123.7833,-2.027,13.6272],[123.784,-2.0219,0.0],[123.7804,-2.0163,5.3436],[123.7701,-2.0095,0.5589]]],
[[[123.7595,-2.0237,2.4244],[123.76,-2.0232,11.3253],[123.7592,-2.0229,0.0],[123.7591,-2.0235,2.4244],[123.7595,-2.0237,2.4244]]],
[[[123.7597,-2.0223,0.0],[123.7595,-2.0225,0.0],[123.7599,-2.0227,0.0],[123.7599,-2.0223,0.0],[123.7597,-2.0223,0.0]]],
[[[123.7606,-2.0206,6.3074],[123.7615,-2.0216,0.0],[123.7617,-2.0199,6.3074],[123.7605,-2.0194,0.0],[123.7606,-2.0206,6.3074]]],
[[[123.7615,-2.0183,0.0],[123.7612,-2.0186,0.0],[123.7617,-2.0189,0.0],[123.7617,-2.0185,0.0],[123.7615,-2.0183,0.0]]],
[[[123.7634,-2.0131,0.0],[123.7633,-2.0134,0.0],[123.7639,-2.0135,0.0],[123.7638,-2.0131,0.0],[123.7634,-2.0131,0.0]]],
[[[123.7927,-2.017,0.0],[123.7992,-2.0104,0.0],[123.7957,-2.0089,0.0],[123.7927,-2.0108,0.0],[123.7896,-2.0103,0.0],[123.7891,-2.0133,0.0],[123.7927,-2.017,0.0]]],
[[[123.7837,-2.0046,0.0],[123.7866,-2.005,0.0],[123.7867,-2.0016,0.0],[123.7771,-2.0027,0.0],[123.7782,-2.0056,0.0],[123.7837,-2.0046,0.0]]],
[[[123.4839,-1.9371,2.9855],[123.4798,-1.9366,0.0],[123.4784,-1.9394,0.0],[123.4764,-1.9381,5.6884],[123.4752,-1.9401,6.9355],[123.4717,-1.9391,0.6243],[123.4664,-1.9445,6.6813],[123.4658,-1.9499,6.3882],[123.4693,-1.953,0.0],[123.4763,-1.9531,0.0],[123.4819,-1.951,3.4287],[123.4776,-1.951,3.0178],[123.4807,-1.9492,1.2312],[123.4799,-1.9456,3.4551],[123.4831,-1.9479,2.3439],[123.4883,-1.9474,0.0],[123.4901,-1.941,2.5949],[123.4865,-1.9367,0.5691],[123.4839,-1.9371,2.9855]]],
[[[123.6341,-1.9433,6.0407],[123.6315,-1.9433,8.6284],[123.6313,-1.9472,4.0443],[123.6359,-1.9536,0.9846],[123.6361,-1.9466,2.1773],[123.6349,-1.9509,5.3335],[123.6328,-1.9473,1.1012],[123.6333,-1.9449,5.7648],[123.6354,-1.9464,2.1773],[123.6354,-1.9436,0.4737],[123.6341,-1.9433,6.0407]]],
[[[124.1639,-1.7885,0.0],[124.1795,-1.7741,5.0988],[124.1815,-1.7679,10.9574],[124.177,-1.7517,0.0],[124.1737,-1.7444,0.8299],[124.1681,-1.7371,0.0],[124.1511,-1.7355,0.0],[124.1433,-1.7415,0.0],[124.1404,-1.7459,0.0],[124.1404,-1.7504,0.0],[124.144,-1.751,0.0],[124.1451,-1.759,2.0234],[124.1488,-1.7666,2.8794],[124.1553,-1.7684,0.0],[124.157,-1.763,8.8317],[124.1528,-1.7612,0.0],[124.1515,-1.757,1.0597],[124.1664,-1.7544,0.0],[124.1651,-1.7493,2.4223],[124.1686,-1.7515,2.9478],[124.1675,-1.7684,6.0384],[124.1613,-1.777,3.8296],[124.1602,-1.7817,1.939],[124.16,-1.7779,0.0],[124.1551,-1.7755,3.9121],[124.1542,-1.7703,0.0],[124.15,-1.7706,0.0],[124.1502,-1.7754,0.0],[124.1597,-1.7863,0.7811],[124.1639,-1.7885,0.0]]],
[[[124.0265,-1.8952,0.0],[124.0327,-1.894,1.1454],[124.0338,-1.8878,0.0],[124.0268,-1.8549,6.0],[124.0234,-1.8487,0.8176],[124.0238,-1.8439,0.2531],[124.0148,-1.8302,9.9782],[124.0123,-1.8308,5.1294],[124.0107,-1.8277,1.2394],[124.0079,-1.8275,0.4964],[124.0063,-1.8301,16.8618],[124.0035,-1.8273,5.8224],[124.0013,-1.8299,12.4055],[124.0016,-1.8332,13.9455],[124.0005,-1.8329,7.5856],[124.0012,-1.8256,1.7162],[124.0032,-1.8247,0.0],[124.0014,-1.8239,5.1871],[124.0036,-1.8225,0.0],[124.0021,-1.8223,7.8032],[124.0027,-1.8205,0.0],[124.0048,-1.8199,0.0],[124.0041,-1.8177,9.1011],[124.006,-1.8174,2.2903],[124.0068,-1.8215,0.0],[124.009,-1.8224,0.0],[124.0091,-1.8168,0.0],[124.0066,-1.814,9.0498],[123.997,-1.811,2.8764],[123.9887,-1.8202,2.0449],[123.9881,-1.8231,0.0],[123.9977,-1.8395,0.4521],[124.0023,-1.8525,1.03],[124.003,-1.8597,1.8675],[124.01,-1.8757,1.7704],[124.0182,-1.8905,4.6192],[124.0265,-1.8952,0.0]]],
[[[123.2956,-1.2776,3.6508],[123.2977,-1.2822,0.0],[123.3008,-1.2837,0.989],[123.311,-1.2732,1.5932],[123.316,-1.25,0.0],[123.3153,-1.2353,8.4357],[123.3242,-1.2116,0.0],[123.3262,-1.1996,0.0],[123.3252,-1.1885,4.6957],[123.3197,-1.1783,2.0095],[123.3146,-1.1743,10.848],[123.304,-1.1771,6.9457],[123.2804,-1.1939,0.0],[123.2788,-1.1971,4.5828],[123.2789,-1.2056,5.2097],[123.2747,-1.2154,1.4527],[123.2773,-1.2173,0.5202],[123.2768,-1.2201,0.2462],[123.2804,-1.222,0.0],[123.281,-1.2287,19.2702],[123.2856,-1.238,0.0],[123.2918,-1.2577,3.4865],[123.2956,-1.2776,3.6508]]],
[[[123.4798,-1.6883,0.0],[123.4856,-1.6975,26.3213],[123.4845,-1.6989,21.0412],[123.4859,-1.7009,6.2222],[123.4854,-1.7061,6.2008],[123.4874,-1.7073,0.0],[123.4879,-1.7031,21.1082],[123.4891,-1.7041,11.9364],[123.4893,-1.7101,2.7789],[123.491,-1.7125,66.6089],[123.4889,-1.7129,4.9198],[123.4878,-1.7086,7.8805],[123.487,-1.7099,3.3004],[123.4888,-1.7137,0.0],[123.5102,-1.7216,2.4583],[123.5132,-1.725,0.0],[123.5144,-1.7228,4.3261],[123.5111,-1.7186,0.0],[123.5128,-1.7141,9.2972],[123.5111,-1.7134,9.2972],[123.5154,-1.7109,1.6848],[123.5135,-1.7091,11.525],[123.5155,-1.7071,3.6344],[123.5138,-1.7069,20.6123],[123.5157,-1.7041,18.417],[123.5181,-1.7039,2.8554],[123.5175,-1.7007,35.3596],[123.5209,-1.7023,15.4831],[123.5194,-1.707,11.3835],[123.5237,-1.7071,12.6629],[123.5228,-1.7102,3.0068],[123.5186,-1.7079,0.0],[123.5195,-1.7098,0.8313],[123.5327,-1.7168,0.0],[123.5364,-1.7225,42.1982],[123.5366,-1.7255,27.1058],[123.5479,-1.7244,3.1914],[123.5548,-1.7175,3.1716],[123.5596,-1.7202,0.0],[123.5642,-1.7251,9.9955],[123.5641,-1.7269,0.0],[123.5681,-1.7284,0.0],[123.5758,-1.7267,0.0],[123.5791,-1.7137,0.0],[123.5808,-1.7118,0.7802],[123.5798,-1.7099,2.3803],[123.5812,-1.7103,0.8256],[123.5819,-1.7079,16.521],[123.5865,-1.7113,1.9279],[123.5811,-1.7114,1.0904],[123.5892,-1.7157,0.683],[123.598,-1.7146,0.0],[123.6038,-1.7045,3.4369],[123.6068,-1.7046,0.0],[123.609,-1.7024,5.1729],[123.6087,-1.7003,2.0379],[123.6127,-1.6986,3.443],[123.6134,-1.6967,39.7979],[123.6103,-1.6903,31.1653],[123.6113,-1.6849,16.8261],[123.6088,-1.6828,11.2501],[123.609,-1.6709,20.3142],[123.6125,-1.6615,3.5563],[123.615,-1.6594,9.9603],[123.6179,-1.6606,0.0],[123.6161,-1.6583,4.3276],[123.6169,-1.6564,0.0],[123.6193,-1.6563,0.0],[123.6174,-1.654,16.419],[123.6201,-1.6519,0.0],[123.6182,-1.6525,5.9913],[123.6184,-1.65,0.0],[123.6163,-1.6505,31.9801],[123.6145,-1.6488,7.1161],[123.6145,-1.6457,0.0],[123.6097,-1.6432,13.9335],[123.6038,-1.6314,21.1171],[123.6067,-1.6303,20.8172],[123.6122,-1.6367,0.0],[123.6205,-1.6398,0.0],[123.6216,-1.6376,16.7607],[123.6196,-1.634,52.9947],[123.6215,-1.6291,71.8976],[123.6232,-1.6288,0.0],[123.6229,-1.6244,0.0],[123.6162,-1.6207,3.0146],[123.6137,-1.6162,106.3892],[123.615,-1.608,0.0],[123.613,-1.6077,15.4311],[123.6121,-1.6054,17.4588],[123.6028,-1.6056,97.5495],[123.6034,-1.6023,1.963],[123.5992,-1.6023,39.8444],[123.5978,-1.5974,0.0],[123.5938,-1.5966,29.0884],[123.5916,-1.594,4.2661],[123.5875,-1.5953,53.7237],[123.59,-1.5997,13.2372],[123.5895,-1.6016,30.228],[123.5879,-1.6008,38.3929],[123.5893,-1.6031,5.7799],[123.5917,-1.5986,15.2974],[123.5938,-1.6005,0.0],[123.5891,-1.6069,129.5307],[123.5838,-1.6035,6.4168],[123.5772,-1.6105,7.4996],[123.5673,-1.6056,6.0405],[123.5597,-1.5988,30.0352],[123.5563,-1.589,6.401],[123.5576,-1.5864,33.906],[123.5573,-1.5779,7.9109],[123.5545,-1.5652,0.0],[123.5558,-1.5601,1.559],[123.5592,-1.5577,9.4274],[123.5591,-1.5533,19.2177],[123.5609,-1.5517,2.7002],[123.562,-1.5524,2.7002],[123.5619,-1.5498,0.0],[123.5635,-1.5499,0.0],[123.5638,-1.5483,10.7134],[123.5613,-1.547,0.0],[123.5622,-1.5439,5.4146],[123.5586,-1.5413,12.625],[123.5585,-1.5378,7.7752],[123.5598,-1.5371,7.7752],[123.5572,-1.536,6.8256],[123.5575,-1.533,12.5012],[123.5529,-1.5279,0.0],[123.5504,-1.5202,7.4901],[123.55,-1.5125,0.0],[123.547,-1.5097,36.6737],[123.5456,-1.5037,3.0502],[123.5478,-1.4955,14.1173],[123.5471,-1.4912,1.2616],[123.5351,-1.484,2.7251],[123.5317,-1.4772,1.9947],[123.5245,-1.4812,0.0],[123.5217,-1.4867,4.074],[123.5233,-1.4923,9.768],[123.5265,-1.493,0.0],[123.5229,-1.4893,5.6798],[123.5256,-1.4901,1.8431],[123.5244,-1.4856,5.3324],[123.5269,-1.4849,1.8283],[123.5254,-1.4872,6.6628],[123.5264,-1.4895,7.0451],[123.5276,-1.4906,1.5571],[123.5295,-1.4892,2.5929],[123.5284,-1.491,1.5571],[123.5307,-1.4915,2.3244],[123.5284,-1.4939,0.8987],[123.5312,-1.4943,1.8358],[123.5302,-1.4992,6.9991],[123.5282,-1.4984,2.3599],[123.5271,-1.5004,12.5483],[123.5228,-1.4984,0.0],[123.5241,-1.501,3.7184],[123.5258,-1.5003,12.5483],[123.5258,-1.5021,7.7058],[123.5282,-1.503,32.3804],[123.5266,-1.5039,3.8764],[123.5283,-1.5084,23.6572],[123.5267,-1.5084,3.0452],[123.5249,-1.511,4.9243],[123.5216,-1.5112,4.3073],[123.5167,-1.5077,8.3344],[123.5133,-1.4986,1.883],[123.5078,-1.4966,18.7867],[123.5054,-1.4974,3.1732],[123.4994,-1.5076,0.0],[123.4986,-1.5118,5.9795],[123.5003,-1.5187,0.0],[123.5001,-1.5269,0.0],[123.4951,-1.533,4.2023],[123.4891,-1.532,0.8273],[123.4889,-1.5335,8.0479],[123.4839,-1.5358,1.3248],[123.479,-1.5474,1.9418],[123.4778,-1.5713,0.0],[123.4797,-1.5728,26.5736],[123.4787,-1.577,13.4691],[123.4799,-1.5836,0.0],[123.481,-1.5847,0.0],[123.4826,-1.5832,0.0],[123.4834,-1.5773,2.5823],[123.4854,-1.5755,11.1491],[123.4868,-1.5777,31.3386],[123.4925,-1.5797,3.7652],[123.4989,-1.5871,1.9184],[123.4995,-1.5917,1.3931],[123.498,-1.5959,0.0],[123.5006,-1.5972,4.1975],[123.4996,-1.5986,8.7588],[123.4979,-1.5966,1.0505],[123.4972,-1.5987,0.4658],[123.4985,-1.599,0.4658],[123.4963,-1.601,0.0],[123.4989,-1.6018,6.4766],[123.4973,-1.6042,2.7999],[123.4985,-1.6052,5.3074],[123.497,-1.605,5.3074],[123.4954,-1.6073,12.8133],[123.4908,-1.6047,7.7712],[123.4917,-1.603,3.5708],[123.4871,-1.6038,0.5347],[123.4845,-1.6063,18.3974],[123.4856,-1.6134,4.3741],[123.4796,-1.6152,0.0],[123.4791,-1.6242,1.6754],[123.4824,-1.6291,4.9776],[123.485,-1.6278,16.2962],[123.486,-1.6332,0.8414],[123.486585,-1.63401,8.9212],[123.4833,-1.6362,2.3956],[123.485,-1.6376,22.8901],[123.4816,-1.6432,54.3374],[123.4788,-1.6432,27.1056],[123.4786,-1.6406,6.4263],[123.4755,-1.6414,7.3232],[123.4745,-1.6468,11.0958],[123.4764,-1.6474,24.7697],[123.4726,-1.6536,0.0],[123.4763,-1.6592,53.2244],[123.4766,-1.6657,12.0187],[123.4799,-1.6664,0.0],[123.4826,-1.6726,81.4026],[123.4835,-1.6803,5.8872],[123.485,-1.6817,19.297],[123.4825,-1.6847,42.9383],[123.4829,-1.6871,27.6588],[123.4798,-1.6883,0.0]],
[[123.486585,-1.63401,8.9212],[123.4866,-1.634,8.9212],[123.4886,-1.6368,42.6841],[123.486585,-1.63401,8.9212]]],
[[[123.2572,-1.6272,11.6425],[123.2604,-1.6261,8.7284],[123.2606,-1.6239,8.5675],[123.2566,-1.6145,0.0],[123.2582,-1.6091,0.0],[123.2555,-1.6069,26.4656],[123.254,-1.6019,0.0],[123.251,-1.6014,77.8918],[123.2488,-1.5967,18.5651],[123.2454,-1.5959,2.109],[123.2367,-1.6028,27.3951],[123.2374,-1.5988,1.7147],[123.2345,-1.5953,21.7226],[123.2356,-1.5949,12.5304],[123.235,-1.5923,35.9475],[123.2368,-1.5949,12.5304],[123.2386,-1.5906,22.5453],[123.2404,-1.5917,15.8118],[123.2396,-1.5938,5.1696],[123.2417,-1.5937,0.0],[123.2421,-1.5883,15.4969],[123.2441,-1.5868,8.5545],[123.2437,-1.5822,7.7759],[123.2456,-1.5805,0.0],[123.2455,-1.5726,0.0],[123.2427,-1.5737,24.6582],[123.2398,-1.5717,8.786],[123.2416,-1.571,0.0],[123.24,-1.5695,4.329],[123.2427,-1.5649,14.9679],[123.2399,-1.5634,17.6062],[123.2408,-1.5623,7.4601],[123.2383,-1.5559,3.7585],[123.2391,-1.5542,6.1224],[123.2406,-1.5564,0.0],[123.2406,-1.5544,0.5059],[123.2377,-1.551,0.0],[123.2396,-1.55,4.6538],[123.2396,-1.5473,33.0192],[123.2405,-1.5506,4.6538],[123.2427,-1.5513,0.0],[123.2411,-1.5428,48.3567],[123.244,-1.542,0.749],[123.2439,-1.5393,3.3333],[123.2458,-1.5408,0.0],[123.2472,-1.5347,1.6241],[123.246,-1.5342,1.6189],[123.2472,-1.532,7.6959],[123.2461,-1.5294,4.5578],[123.248,-1.529,0.0],[123.2466,-1.5277,5.8272],[123.2478,-1.5222,3.1085],[123.2507,-1.519,13.4287],[123.2503,-1.5174,5.9623],[123.248,-1.5172,11.0368],[123.2503,-1.5147,0.0],[123.2475,-1.5105,7.9428],[123.2491,-1.5075,3.2444],[123.248,-1.5062,0.0],[123.2468,-1.5074,12.2839],[123.248,-1.5047,0.0],[123.2458,-1.5043,3.1409],[123.2448,-1.5016,56.3817],[123.2469,-1.4976,26.2373],[123.2455,-1.5013,12.6941],[123.248,-1.5032,0.0],[123.2486,-1.5007,5.7321],[123.2472,-1.4997,28.6872],[123.249,-1.4967,14.2734],[123.2475,-1.4955,10.3118],[123.2519,-1.4937,0.0],[123.251,-1.4912,10.4873],[123.2479,-1.489,12.9899],[123.2568,-1.4877,9.585],[123.2587,-1.4831,0.0],[123.255,-1.4832,41.9652],[123.2563,-1.4785,0.0],[123.2539,-1.4726,0.0],[123.2521,-1.4723,15.6811],[123.2547,-1.4696,2.011],[123.2555,-1.4656,15.7813],[123.2565,-1.468,0.0],[123.2588,-1.467,5.3093],[123.257,-1.4615,21.5607],[123.2566,-1.4423,9.6598],[123.2589,-1.4443,5.2512],[123.262,-1.4424,10.6974],[123.2636,-1.4433,2.3416],[123.2646,-1.442,7.6643],[123.2653,-1.4433,7.8161],[123.2672,-1.4403,4.7957],[123.2714,-1.444,0.0],[123.2758,-1.443,0.0],[123.2824,-1.4368,9.3287],[123.2835,-1.4204,7.4455],[123.2872,-1.4189,1.8165],[123.2893,-1.4146,0.0],[123.2894,-1.4162,0.0],[123.2949,-1.4135,0.0],[123.2945,-1.4114,16.0437],[123.2959,-1.4131,0.0],[123.2996,-1.4104,27.4714],[123.303,-1.414,0.0],[123.3041,-1.4125,10.8139],[123.3054,-1.414,6.2715],[123.3078,-1.4126,31.2924],[123.3114,-1.4147,17.3381],[123.315,-1.4207,0.0],[123.3182,-1.4222,2.6182],[123.3215,-1.4215,0.0],[123.3208,-1.4199,1.7498],[123.3227,-1.4205,0.0],[123.3228,-1.4183,17.549],[123.3257,-1.4153,48.378],[123.3246,-1.4175,15.8906],[123.3261,-1.4186,54.8607],[123.3241,-1.4196,21.9496],[123.3255,-1.4245,3.8158],[123.3233,-1.4232,1.3958],[123.3205,-1.4259,0.0],[123.3225,-1.426,1.737],[123.3212,-1.4341,0.0],[123.3224,-1.4353,2.8459],[123.3212,-1.4357,0.0],[123.3236,-1.4419,0.0],[123.3254,-1.443,4.1359],[123.3251,-1.4457,1.2564],[123.3268,-1.447,2.4705],[123.3289,-1.4545,0.0],[123.3319,-1.4561,5.0948],[123.3343,-1.4609,1.6333],[123.3367,-1.4612,0.5981],[123.3382,-1.4641,2.4528],[123.3409,-1.4652,0.0],[123.341,-1.4695,0.0],[123.3435,-1.4717,0.0],[123.348,-1.4734,0.0],[123.354,-1.4702,3.9653],[123.3554,-1.4732,10.8523],[123.3526,-1.4833,81.3916],[123.3556,-1.5133,21.3672],[123.354,-1.5187,3.5624],[123.3543,-1.5256,0.0],[123.3577,-1.5259,0.0],[123.359,-1.5242,0.0],[123.3652,-1.5005,0.0],[123.3679,-1.5006,0.6575],[123.3711,-1.498,0.0],[123.3752,-1.4989,1.2726],[123.3805,-1.5029,5.4529],[123.3843,-1.5014,3.4421],[123.384,-1.4994,20.8319],[123.3887,-1.5023,15.1287],[123.3913,-1.5061,4.8106],[123.3892,-1.506,0.0],[123.3928,-1.5089,9.1832],[123.3932,-1.5115,0.0],[123.397,-1.5116,19.9562],[123.3963,-1.5137,5.4594],[123.3987,-1.5135,18.9047],[123.3975,-1.5151,0.0],[123.3992,-1.5149,0.0],[123.4045,-1.5217,38.691],[123.4055,-1.5241,24.7538],[123.4041,-1.5238,24.7538],[123.4041,-1.5251999999999999,27.7849],[123.4057,-1.5272,3.2388],[123.408,-1.5273,6.1406],[123.4125,-1.5307,3.6445],[123.4151,-1.5298,0.0],[123.4116,-1.5226,13.319],[123.4165,-1.5187,3.8422],[123.4187,-1.5193,4.9039],[123.426,-1.5151,9.4316],[123.4367,-1.5199,0.0],[123.4396,-1.5174,0.0],[123.4364,-1.5111,34.612],[123.4376,-1.5112,8.5454],[123.4377,-1.5068,14.1735],[123.4397,-1.505,3.0405],[123.4433,-1.5064,16.1436],[123.4443,-1.5103,0.0],[123.4498,-1.5156,10.9779],[123.458,-1.5189,0.0],[123.4576,-1.5152,0.0],[123.4631,-1.5032,7.8339],[123.4652,-1.5035,0.0],[123.4664,-1.5003,5.0889],[123.4683,-1.5017,0.0],[123.47,-1.4979,0.0],[123.4691,-1.4906,26.4551],[123.4704,-1.4878,7.7164],[123.4717,-1.488,2.9681],[123.4709,-1.4901,0.2383],[123.4719,-1.4894,0.6054],[123.4723,-1.4881,0.6054],[123.4694,-1.4863,22.7318],[123.4717,-1.486,8.5862],[123.471,-1.4839,31.9015],[123.473,-1.4805,10.4791],[123.4712,-1.4787,42.2599],[123.4712,-1.4769,29.8565],[123.4726,-1.4774,2.2805],[123.4708,-1.4701,23.2155],[123.4739,-1.4606,31.6499],[123.479,-1.4638,4.1717],[123.4796,-1.4671,0.0],[123.4816,-1.4677,2.2073],[123.483,-1.4661,16.7392],[123.4864,-1.47,0.3331],[123.4973,-1.4667,0.0],[123.5023,-1.4608,12.6349],[123.5065,-1.4588,8.2178],[123.5088,-1.46,0.0],[123.5115,-1.4571,0.0],[123.5242,-1.4339,0.5061],[123.5233,-1.4317,1.0773],[123.5256,-1.4304,0.0],[123.53,-1.413,0.0],[123.5363,-1.4038,0.0],[123.5395,-1.3958,20.5849],[123.5368,-1.3878,2.283],[123.5396,-1.3839,14.7155],[123.5398,-1.3791,0.0],[123.5372,-1.3752,10.1367],[123.5363,-1.369,0.0],[123.5344,-1.3672,15.5539],[123.5344,-1.3634,4.0134],[123.536,-1.3641,0.0],[123.5368,-1.3627,0.0],[123.5351,-1.3603,6.4251],[123.5385,-1.3574,0.0],[123.539,-1.3537,2.4463],[123.5516,-1.3436,3.6429],[123.5532,-1.3393,0.0],[123.5526,-1.3363,0.0],[123.5574,-1.3304,16.0754],[123.5586,-1.3192,0.0],[123.5573,-1.3157,10.1775],[123.5598,-1.3095,8.4807],[123.5574,-1.3072,15.0801],[123.5563,-1.2961,0.0],[123.5573,-1.2949,0.0],[123.5556,-1.293,22.5297],[123.5586,-1.2879,0.0],[123.5593,-1.2814,34.1407],[123.5533,-1.2763,22.2204],[123.5499,-1.2785,42.5656],[123.5445,-1.2772,22.96],[123.5405,-1.2741,4.1776],[123.5337,-1.2749,17.3571],[123.5246,-1.269,9.404],[123.512,-1.2815,78.8008],[123.5246,-1.2689,9.404],[123.5221,-1.2644,0.0],[123.518,-1.2627,3.7677],[123.5138,-1.2662,0.0],[123.4994,-1.2703,14.2711],[123.4923,-1.2688,6.2952],[123.4874,-1.2697,27.1016],[123.4804,-1.2637,2.7996],[123.473,-1.2498,15.6295],[123.4679,-1.2482,7.7632],[123.4575,-1.2405,1.8682],[123.4481,-1.2388,7.0234],[123.4423,-1.2344,0.0],[123.4434,-1.2389,4.0041],[123.4401,-1.2413,0.0],[123.441,-1.245,9.8451],[123.4395,-1.2476,8.8095],[123.4396,-1.2525,19.1585],[123.4413,-1.2585,0.7303],[123.4454,-1.2623,3.0998],[123.4456,-1.2668,21.1687],[123.4436,-1.2673,3.39],[123.4413,-1.2629,0.0],[123.4417,-1.2674,1.7808],[123.4404,-1.2685,3.4915],[123.4282,-1.2694,2.9258],[123.4258,-1.2679,4.3996],[123.4264,-1.2662,7.6596],[123.4207,-1.2629,0.0],[123.4204,-1.2649,13.5295],[123.4199,-1.2607,2.2473],[123.4217,-1.2571,0.0],[123.4196,-1.2574,3.4724],[123.416,-1.2548,3.2636],[123.4096,-1.2586,2.8818],[123.4073,-1.2572,1.9623],[123.4073,-1.2541,1.8982],[123.4038,-1.2524,7.9899],[123.4028,-1.2469,5.9667],[123.4043,-1.2432,0.0],[123.4116,-1.2355,11.1185],[123.4115,-1.2324,49.8253],[123.4147,-1.2289,0.0],[123.4119,-1.2274,32.2261],[123.4127,-1.2247,0.0],[123.4082,-1.2245,0.0],[123.409,-1.2222,6.9208],[123.4041,-1.2186,5.4035],[123.4059,-1.2237,5.478],[123.4046,-1.2303,40.4136],[123.4011,-1.2344,0.0],[123.3983,-1.2351,2.177],[123.3917,-1.2292,2.8636],[123.391,-1.2229,0.0],[123.3889,-1.2238,26.1241],[123.3811,-1.2206,9.2719],[123.3753,-1.2217,20.7898],[123.3648,-1.2273,34.6161],[123.3451,-1.253,77.721],[123.3306,-1.2672,1.2701],[123.324,-1.282,9.4869],[123.323,-1.2927,0.0],[123.3139,-1.3041,12.6068],[123.3036,-1.3079,4.101],[123.3005,-1.3073,10.0892],[123.30029999999999,-1.3052,0.0],[123.2968,-1.305,1.4937],[123.2892,-1.3091,2.3859],[123.2826,-1.3172,1.5527],[123.2819,-1.3213,1.8875],[123.2835,-1.3173,1.5527],[123.2909,-1.3116,10.9107],[123.291,-1.3136,16.3931],[123.2874,-1.3166,0.946],[123.2885,-1.3183,12.1086],[123.2853,-1.3197,1.3543],[123.2868,-1.3217,18.9129],[123.2846,-1.3209,1.3543],[123.2816,-1.3226,1.8875],[123.2829,-1.3243,11.749],[123.2819,-1.3254,10.6295],[123.2811,-1.3242,0.9169],[123.2814,-1.3261,10.6295],[123.2792,-1.3292,0.0],[123.2803,-1.3326,0.0],[123.2812,-1.3312,23.1974],[123.2823,-1.3327,10.7011],[123.2809,-1.3353,8.1399],[123.2838,-1.3345,24.6174],[123.2807,-1.3363,8.2439],[123.283,-1.341,21.2919],[123.2825,-1.3443,21.0315],[123.2842,-1.3471,0.3358],[123.2856,-1.3443,15.2775],[123.2874,-1.346,7.7866],[123.2838,-1.3584,25.2985],[123.2734,-1.3691,7.2229],[123.2692,-1.3776,1.2815],[123.2667,-1.3793,0.963],[123.2702,-1.3788,4.8956],[123.2699,-1.382,9.2921],[123.2606,-1.3898,55.1861],[123.2471,-1.3905,1.1429],[123.2444,-1.3982,6.2974],[123.2416,-1.3996,12.7743],[123.2417,-1.3976,0.7703],[123.237,-1.3968,34.1997],[123.237,-1.3929,6.0697],[123.2336,-1.3933,46.7221],[123.2304,-1.3905,6.5078],[123.2303,-1.3883,8.5907],[123.2282,-1.3881,23.1352],[123.2314,-1.3853,0.0],[123.2366,-1.3848,0.0],[123.2388,-1.3827,6.3225],[123.23,-1.3755,23.2343],[123.2294,-1.3704,0.0],[123.2272,-1.3691,0.0],[123.2292,-1.3664,0.0],[123.2273,-1.3593,0.0],[123.2244,-1.3587,19.2468],[123.2198,-1.3518,20.6738],[123.2192,-1.3652,63.8366],[123.2166,-1.3648,36.3444],[123.2175,-1.3621,6.7576],[123.2145,-1.3596,43.6288],[123.217,-1.3598,0.0],[123.2167,-1.3585,0.0],[123.2153,-1.3589,7.5837],[123.2158,-1.3549,2.8921],[123.2141,-1.3561,11.527],[123.2135,-1.3548,11.527],[123.2125,-1.3569,42.1236],[123.2128,-1.3543,1.357],[123.2147,-1.354,0.0],[123.2124,-1.3534,30.1944],[123.2128,-1.3513,0.0],[123.209,-1.3482,57.2144],[123.2106,-1.346,0.0],[123.2088,-1.3465,31.6205],[123.2076,-1.3427,9.4161],[123.2063,-1.3431,62.563],[123.2073,-1.3407,9.5638],[123.205,-1.3391,11.7014],[123.2068,-1.3374,3.8798],[123.2036,-1.3376999999999999,12.4148],[123.202,-1.3333,41.7259],[123.198,-1.332,34.3775],[123.1971,-1.3281,11.6673],[123.1961,-1.331,25.8095],[123.1947,-1.3301,9.8749],[123.1948,-1.3258,0.0],[123.1907,-1.3196,39.053],[123.1881,-1.3202,15.1488],[123.19,-1.3265,32.7827],[123.1884,-1.3229,4.7323],[123.1836,-1.3206,42.8124],[123.186,-1.3064,0.0],[123.1872,-1.3041,30.0426],[123.1911,-1.3029,12.2422],[123.1907,-1.3008,30.6901],[123.1924,-1.3012,0.0],[123.1956,-1.2965,0.0],[123.1979,-1.2844,32.3624],[123.1966,-1.2798,6.3138],[123.1954,-1.2796,70.2406],[123.1969,-1.277,1.3713],[123.1967,-1.2748,0.7386],[123.195,-1.2746,41.8362],[123.1965,-1.2732,4.9549],[123.1954,-1.2731,8.0459],[123.1955,-1.2716,10.327],[123.1967,-1.2722,0.0],[123.1961,-1.2703,0.0],[123.1902,-1.2674,19.4728],[123.1861,-1.2622,18.8094],[123.1883,-1.2642,5.8141],[123.19,-1.2638,0.727],[123.1917,-1.2617,4.3532],[123.1912,-1.2593,13.8772],[123.1953,-1.2609,11.0748],[123.1962,-1.263,0.0],[123.1986,-1.2613,10.2517],[123.198,-1.2641,0.0],[123.2076,-1.2684,0.0],[123.211,-1.2719,0.7438],[123.2134,-1.2726,0.95009999999999994],[123.2176,-1.2705,4.1436],[123.2238,-1.2628,5.5269],[123.2263,-1.25,26.0765],[123.2279,-1.2475,11.928],[123.23,-1.2479,2.2808],[123.2319,-1.241,5.5439],[123.2351,-1.237,7.3745],[123.2344,-1.2361,3.8689],[123.2328,-1.2377,10.0692],[123.232,-1.236,3.0371],[123.2314,-1.238,10.8421],[123.2316,-1.2356,3.0371],[123.2299,-1.2355,4.8043],[123.2292,-1.2322,15.2491],[123.2303,-1.2347,4.8043],[123.2314,-1.232,6.8233],[123.233,-1.2323,6.8233],[123.2336,-1.236,3.8689],[123.2345,-1.2337,9.0309],[123.2351,-1.2354,3.8689],[123.2392,-1.2328,2.9781],[123.2391,-1.2358,0.8371],[123.2425,-1.2323,1.1498],[123.2487,-1.2294,0.0],[123.246,-1.2245,0.0],[123.2294,-1.2153,4.2282],[123.2214,-1.2086,1.0344],[123.2188,-1.2038,0.0],[123.2165,-1.1913,22.1471],[123.2056,-1.1802,16.6691],[123.1992,-1.1709,6.0337],[123.1936,-1.1537,2.7434],[123.1905,-1.1511,1.5618],[123.1712,-1.149,2.8613],[123.1638,-1.1516,2.5705],[123.1608,-1.1866,1.8139],[123.1462,-1.2059,0.0],[123.1486,-1.2063,0.0],[123.1487,-1.2091,0.0],[123.1447,-1.2112,13.6896],[123.1427,-1.2086,3.1774],[123.1389,-1.2079,6.5824],[123.1385,-1.2035,10.8235],[123.1355,-1.2029,15.4723],[123.1372,-1.2027,8.3753],[123.137,-1.1998,6.5166],[123.1333,-1.1924,0.5395],[123.1205,-1.1792,1.1838],[123.109,-1.1628,2.0344],[123.1053,-1.1607,1.796],[123.0981,-1.1625,2.1237],[123.0852,-1.1703,12.1884],[123.0743,-1.1702,8.4826],[123.0603,-1.1755,5.8927],[123.0594,-1.1768,0.0],[123.0632,-1.1759,13.1613],[123.0583,-1.1794,10.1367],[123.0565,-1.1768,3.4329],[123.0574,-1.1762,0.0],[123.0548,-1.1757,2.9263],[123.0459,-1.1787,13.4174],[123.0329,-1.1778,0.0],[123.0175,-1.1901,7.8166],[123.006,-1.1923,0.711],[123.0044,-1.1943,0.5284],[123.009,-1.1922,7.0849],[123.0082,-1.1939,4.3125],[123.0062,-1.1939,0.4779],[123.0069,-1.1949,27.2255],[122.9994,-1.197,6.9352],[123.0038,-1.1941,0.5284],[123.0023,-1.1937,2.9707],[122.9848,-1.2039,18.1251],[122.9809,-1.2026,6.638],[122.9778,-1.2034,2.8909],[122.9753,-1.2071,11.7836],[122.9768,-1.2115,53.9008],[122.9761,-1.2124,53.9008],[122.9743,-1.2109,1.2708],[122.9718,-1.2162,7.2566],[122.9704,-1.2143,1.8009],[122.9671,-1.2152,10.3279],[122.9649,-1.2098,20.7118],[122.9615,-1.2088,7.4146],[122.9626,-1.2084,7.4146],[122.9617,-1.2063,1.7553],[122.9546,-1.1947,37.663],[122.9459,-1.1855,21.8319],[122.9371,-1.1824,5.3084],[122.927,-1.1841,14.7032],[122.9121,-1.1803,5.5288],[122.9052,-1.1825,5.9181],[122.8994,-1.1901,0.0],[122.8988,-1.1988,23.364],[122.8914,-1.208,14.26],[122.8848,-1.2115,8.018],[122.8821,-1.2151,10.8862],[122.8822,-1.2277,5.2741],[122.8763,-1.2349,0.0],[122.8748,-1.2405,2.8279],[122.8716,-1.2414,4.9754],[122.8725,-1.2452,0.0],[122.871,-1.2498,64.8089],[122.8626,-1.2587,19.8364],[122.8573,-1.2598,2.2168],[122.8429,-1.271,6.094],[122.8363,-1.2732,9.0168],[122.8306,-1.2784,2.0503],[122.8242,-1.2885,7.6985],[122.8248,-1.295,3.3608],[122.8204,-1.3042,2.9785],[122.8157,-1.3078,6.3023],[122.8133,-1.318,0.0],[122.8135,-1.3253,2.1134],[122.8169,-1.3301,10.9257],[122.8167,-1.3335,64.5056],[122.8031,-1.3501,4.0562],[122.8039,-1.3577,52.9127],[122.8,-1.3633,43.1308],[122.7981,-1.3696,13.6017],[122.7961,-1.3711,1.0559],[122.7973,-1.3775,25.0374],[122.7935,-1.3854,17.334],[122.7935,-1.4022,55.9543],[122.791,-1.4082,29.6998],[122.7903,-1.4181,37.3579],[122.7913,-1.4239,34.0329],[122.7941,-1.4267,4.2912],[122.7944,-1.4325,27.3984],[122.7933,-1.4396,78.9883],[122.788,-1.4449,0.0],[122.791,-1.4535,33.4299],[122.789,-1.4552,17.8406],[122.7869,-1.4546,15.1706],[122.7859,-1.4568,5.3178],[122.7892,-1.459,25.1103],[122.7862,-1.464,2.3823],[122.7901,-1.4624,22.6506],[122.7911,-1.4654,18.9251],[122.7901,-1.4674,9.2139],[122.794,-1.4682,19.6042],[122.793,-1.4732,10.3169],[122.7916,-1.4727,2.7267],[122.79,-1.4747,6.6805],[122.7903,-1.4813,0.0],[122.795,-1.4883,0.0],[122.7977,-1.4882,1.2387],[122.799,-1.4919,0.0],[122.8009,-1.4918,0.0],[122.8008,-1.4897,1.858],[122.8044,-1.4893,5.9131],[122.8047,-1.4875,8.0407],[122.8027,-1.4858,1.7771],[122.8019,-1.4882,1.5781],[122.8004,-1.4851,5.3071],[122.8049,-1.4823,28.443],[122.8084,-1.4814,30.4458],[122.8068,-1.4837,0.0],[122.8105,-1.4855,2.2235],[122.8133,-1.4835,10.0965],[122.8149,-1.4874,0.0],[122.8128,-1.4883,0.0],[122.8135,-1.4892,5.8047],[122.8174,-1.4886,0.0],[122.8164,-1.4844,0.5446],[122.8138,-1.4841,5.469],[122.815,-1.4824,23.2232],[122.8173,-1.4839,0.5446],[122.8205,-1.4823,21.0307],[122.8227,-1.4921,0.5402],[122.8263,-1.4931,23.9531],[122.8251,-1.4988,7.714],[122.8262,-1.5002,15.2512],[122.8246,-1.4988,7.714],[122.8221,-1.4999,10.9025],[122.8203,-1.4982,6.1321],[122.8186,-1.4996,1.111],[122.824,-1.5049,3.3696],[122.8276,-1.5058,4.5453],[122.8275,-1.5084,0.7819],[122.8302,-1.5076,11.9286],[122.8302,-1.5098,6.6298],[122.8268,-1.5096,3.3295],[122.8278,-1.5133,2.9344],[122.8325,-1.5162,5.9572],[122.8316,-1.5169,0.0],[122.8379,-1.5244,1.1143],[122.8362,-1.5198,2.1082],[122.8377,-1.5195,10.8799],[122.8371,-1.5127,10.0669],[122.8389,-1.5107,15.8989],[122.8391,-1.5125,12.5028],[122.8379,-1.5145,5.4518],[122.8393,-1.5148,8.1719],[122.8391,-1.5199,0.0],[122.8406,-1.5215,11.4801],[122.8389,-1.5232,0.0],[122.8398,-1.5246,0.0],[122.8418,-1.5234,4.3017],[122.8394,-1.5264,3.62],[122.8436,-1.5296,4.6726],[122.841,-1.5297,4.6977],[122.839,-1.5267,3.62],[122.8371,-1.5275,2.1999],[122.8385,-1.5305,2.0858],[122.8436,-1.5333,1.5888],[122.8457,-1.538,0.0],[122.846,-1.5354,3.9008],[122.8469,-1.5383,4.8474],[122.8463,-1.5406,4.6568],[122.8471,-1.5426,1.1507],[122.8494,-1.5427,4.1122],[122.8484,-1.5438,1.8492],[122.8524,-1.5504,0.8791],[122.8542,-1.5589,1.0141],[122.8495,-1.5675,0.0],[122.8491,-1.5782,0.0],[122.8628,-1.5867,12.2682],[122.8687,-1.5957,0.0],[122.879,-1.6006,0.0],[122.9061,-1.5998,0.0],[122.9171,-1.5931,0.0],[122.9167,-1.5918,4.0907],[122.9245,-1.585,0.0],[122.9237,-1.5837,0.2128],[122.9228,-1.5849,0.1447],[122.9217,-1.5818,0.0],[122.9186,-1.5831,58.0777],[122.9191,-1.5809,24.2269],[122.9225,-1.5798,0.0],[122.9226,-1.5781,35.1312],[122.9274,-1.5823,4.2982],[122.9275,-1.5743,21.0029],[122.9312,-1.5662,3.1161],[122.9339,-1.5652,0.0],[122.9319,-1.5621,16.4453],[122.935,-1.5629,3.5666],[122.9382,-1.5612,12.7599],[122.9372,-1.5586,15.7594],[122.9391,-1.557,0.0],[122.9402,-1.552,2.5739],[122.9418,-1.5524,0.0],[122.943,-1.5491,10.9307],[122.9446,-1.5497,0.0],[122.9464,-1.5448,15.4427],[122.9497,-1.543,20.7496],[122.9495,-1.545,3.691],[122.9527,-1.546,1.7648],[122.9502,-1.5439,20.7496],[122.9512,-1.5433,4.0426],[122.9523,-1.5441,4.0426],[122.9533,-1.5425,10.4284],[122.9515,-1.5419,20.6464],[122.9532,-1.5418,20.6464],[122.9577,-1.5434,16.891],[122.9586,-1.5466,0.0],[122.9638,-1.5463,0.0],[122.9637,-1.5424,5.9058],[122.9673,-1.542,2.8719],[122.9648,-1.5386,32.6226],[122.9692,-1.5378,7.5786],[122.9713,-1.5309,30.2849],[122.9718,-1.5336,0.0],[122.9749,-1.5331,0.0],[122.9743,-1.5303,0.0],[122.9776,-1.5269,1.8268],[122.9756,-1.5278,20.7272],[122.9762,-1.5269,1.8268],[122.9776,-1.5261,14.5092],[122.9772,-1.524,23.6741],[122.979,-1.5253,1.5912],[122.9837,-1.5238,2.2257],[122.9848,-1.5207,6.5536],[122.9868,-1.5204,0.0],[122.9863,-1.5188,2.1138],[122.9911,-1.5143,22.0256],[122.9917,-1.516,5.0292],[122.9944,-1.5138,11.5193],[122.9987,-1.516,0.0],[122.9994,-1.509,0.0],[123.001,-1.5083,0.0],[123.0032,-1.5004,2.6271],[123.0054,-1.4992,26.0505],[123.0048,-1.5014,0.0],[123.0071,-1.5025,13.3073],[123.0072,-1.5043,5.8963],[123.0089,-1.5032,0.0],[123.0114,-1.4957,3.9136],[123.0168,-1.493,0.0],[123.0172,-1.4873,0.0],[123.0227,-1.4756,18.5051],[123.0247,-1.464,40.1572],[123.0287,-1.4568,0.0],[123.0279,-1.4485,0.0],[123.0295,-1.4426,0.0],[123.0284,-1.4373,9.2085],[123.0315,-1.4381,25.4384],[123.0317,-1.4462,11.5142],[123.0341,-1.4487,0.0],[123.0326,-1.4419,0.0],[123.0354,-1.4388,9.6268],[123.0346,-1.4371,9.6933],[123.0368,-1.4337,0.0],[123.0371,-1.4214,22.2498],[123.0386,-1.419,9.9474],[123.0431,-1.418,0.0],[123.041,-1.4168,28.8119],[123.0436,-1.4164,8.4384],[123.044,-1.413,0.0],[123.0449,-1.4136,0.0],[123.0537,-1.3998,0.0],[123.0574,-1.3894,25.0229],[123.0612,-1.3874,0.0],[123.0612,-1.3855,0.0],[123.0639,-1.384,6.1657],[123.0663,-1.3794,44.9074],[123.0681,-1.3801,0.0],[123.0716,-1.3713,0.0],[123.0764,-1.3672,10.2709],[123.0793,-1.3613,0.0],[123.0854,-1.3566,0.0],[123.0886,-1.3484,3.8157],[123.0913,-1.3484,0.0],[123.0923,-1.35,0.0],[123.093,-1.3461,23.6955],[123.0968,-1.3455,0.0],[123.0967,-1.3413,0.0],[123.0981,-1.3389,1.3591],[123.1004,-1.3387,0.0],[123.0992,-1.3369,11.6128],[123.1036,-1.3319,0.0],[123.1089,-1.3199,1.9858],[123.108,-1.3169,11.5973],[123.1098,-1.3174,0.0],[123.11,-1.3141,8.9914],[123.1135,-1.3133,2.2356],[123.1143,-1.3067,0.0],[123.1184,-1.3013,0.0],[123.12,-1.2952,3.7718],[123.1216,-1.2946,3.7718],[123.1194,-1.3016,0.0],[123.1193,-1.3094,0.0],[123.1219,-1.3186,0.0],[123.1299,-1.3132,3.6345],[123.137,-1.2995,11.141],[123.143,-1.297,1.0714],[123.1493,-1.2967,0.4015],[123.1611,-1.3025,0.0],[123.1624,-1.3001,4.7042],[123.1658,-1.3031,10.2788],[123.1585,-1.3088,5.4287],[123.1598,-1.3108,36.1057],[123.1593,-1.3189,17.6764],[123.1607,-1.3199,15.383],[123.1592,-1.3261,42.2075],[123.1578,-1.3258,8.0678],[123.1556,-1.3364,0.0],[123.1584,-1.3527,32.4204],[123.1564,-1.3685,0.0],[123.1579,-1.3742,14.1263],[123.1605,-1.3734,5.2519],[123.1651,-1.3756,7.3638],[123.1634,-1.3773,19.211],[123.1622,-1.3754,13.0677],[123.1612,-1.3773,26.7272],[123.1599,-1.3754,8.3041],[123.1579,-1.3768,5.2803],[123.1593,-1.3776,18.325],[123.16,-1.3845,1.0928],[123.1609,-1.3838,1.0928],[123.1633,-1.3867,1.727],[123.168,-1.3864,5.139],[123.1653,-1.3919,0.8682],[123.1692,-1.3952,2.1071],[123.1689,-1.3982,3.9431],[123.1647,-1.398,2.2486],[123.1637,-1.4015,1.9768],[123.1648,-1.4079,0.0],[123.1672,-1.4091,0.0],[123.1665,-1.413,0.0],[123.1689,-1.4138,7.8078],[123.1666,-1.4144,0.0],[123.1671,-1.4218,0.0],[123.1726,-1.4283,1.3843],[123.167,-1.4464,49.2438],[123.1667,-1.4384,4.6307],[123.1653,-1.4387,4.6307],[123.1632,-1.4532,12.3923],[123.1656,-1.4557,5.1587],[123.167,-1.4503,62.0772],[123.1723,-1.4534,0.8478],[123.1722,-1.4564,0.0],[123.1743,-1.4597,1.864],[123.1729,-1.4642,0.0],[123.1765,-1.4702,14.9454],[123.1745,-1.476,0.0],[123.1786,-1.4848,14.6327],[123.1783,-1.4876,21.1263],[123.1765,-1.4889,26.4854],[123.176,-1.4984,10.3107],[123.1805,-1.5006,3.1681],[123.1848,-1.5144,16.5379],[123.1829,-1.5193,0.0],[123.1778,-1.5225,32.148],[123.175,-1.5287,25.5547],[123.1709,-1.5324,7.3124],[123.1702,-1.536,48.3176],[123.1609,-1.5411,12.4672],[123.1532,-1.5421,27.7346],[123.1447,-1.5463,56.2302],[123.1432,-1.5511,18.2332],[123.131,-1.5608,4.368],[123.1306,-1.5655,19.3532],[123.1282,-1.5681,55.5716],[123.126,-1.5685,29.8032],[123.1228,-1.5655,1.4079],[123.1192,-1.5647,59.0185],[123.1074,-1.5666,0.0],[123.1064,-1.5722,32.0635],[123.1017,-1.576,16.7063],[123.0997,-1.581,24.6764],[123.0978,-1.5926,12.9957],[123.0986,-1.6005,0.0],[123.1015,-1.6038,0.0],[123.1114,-1.5912,26.3509],[123.1088,-1.6052,3.6553],[123.1149,-1.6122,0.0],[123.1227,-1.6134,0.0],[123.1299,-1.612,5.2138],[123.1331,-1.6074,15.7989],[123.1379,-1.6094,8.6729],[123.1392,-1.6137,0.0],[123.1404,-1.6105,22.8532],[123.1442,-1.6098,1.8232],[123.1449,-1.6102,20.7715],[123.1437,-1.6126,11.4631],[123.147,-1.6155,0.0],[123.151,-1.6116,21.8984],[123.1533,-1.6127,48.3895],[123.1546,-1.6139,14.857],[123.151,-1.6143,13.219],[123.1507,-1.6171,0.0],[123.1536,-1.6243,7.3896],[123.1563,-1.6239,14.8964],[123.1533,-1.6266,6.8065],[123.1553,-1.6313,43.743],[123.1533,-1.6367,1.9214],[123.1548,-1.6408,0.0],[123.1566,-1.6388,22.7708],[123.1606,-1.639,7.7229],[123.1629,-1.6365,11.8319],[123.1635,-1.6382,3.2704],[123.162,-1.638,13.5781],[123.1615,-1.6401,0.0],[123.163,-1.6402,0.0],[123.1647,-1.637,12.8079],[123.1641,-1.6357,23.4669],[123.1687,-1.6336,0.0],[123.1704,-1.6284,7.9138],[123.1717,-1.6285,22.0177],[123.171,-1.633,0.0],[123.1732,-1.6315,7.5175],[123.1768,-1.6345,5.2069],[123.1799,-1.6328,2.8513],[123.1798,-1.6302,0.0],[123.182,-1.63,0.0],[123.1837,-1.6247,21.8736],[123.1829,-1.6226,39.4658],[123.1841,-1.6239,2.8761],[123.1853,-1.6228,21.9093],[123.1853,-1.6245,2.8761],[123.1885,-1.6202,0.0],[123.1889,-1.616,21.0968],[123.1905,-1.6153,6.6581],[123.191,-1.6165,0.0],[123.1922,-1.6149,0.0],[123.1908,-1.6141,16.1905],[123.1933,-1.6136,0.0],[123.1901,-1.613,16.1905],[123.1926,-1.6087,4.0454],[123.1948,-1.6081,11.8039],[123.1941,-1.6118,18.661],[123.1973,-1.6085,16.009],[123.1968,-1.6102,25.312],[123.194,-1.6124,18.661],[123.1942,-1.6143,1.5372],[123.1968,-1.6124,22.9382],[123.1963,-1.6146,3.114],[123.1982,-1.6155,19.0593],[123.1999,-1.6192,0.0],[123.2014,-1.6172,26.1852],[123.2049,-1.6167,0.0],[123.2045,-1.6154,21.9346],[123.2088,-1.62,0.0],[123.2086,-1.6143,4.6589],[123.206,-1.6104,20.21],[123.2081,-1.6102,0.0],[123.2081,-1.6082,27.5098],[123.2125,-1.6089,0.0],[123.2122,-1.6066,15.5344],[123.2139,-1.6075,0.0],[123.2135,-1.6055,7.1468],[123.2158,-1.6043,20.2405],[123.2185,-1.6059,2.8791],[123.2202,-1.6045,0.0],[123.2192,-1.6015,3.125],[123.2227,-1.6027,5.9559],[123.2218,-1.6017,5.9559],[123.2235,-1.5984,5.8821],[123.2233,-1.6015,0.0],[123.2247,-1.6015,0.0],[123.2241,-1.5993,5.8821],[123.2254,-1.5997,0.0],[123.2264,-1.5972,18.3019],[123.2257,-1.5953,19.2632],[123.2281,-1.5986,0.0],[123.2272,-1.5963,9.7357],[123.2298,-1.5982,36.8663],[123.2317,-1.6019,14.5041],[123.2318,-1.6102,1.9552],[123.2332,-1.611,25.0258],[123.2315,-1.6125,3.7698],[123.2316,-1.6175,14.5347],[123.2336,-1.6222,28.758],[123.2337,-1.6328,31.1107],[123.2368,-1.6442,0.0],[123.241,-1.6455,4.4827],[123.2406,-1.648,0.0],[123.243,-1.6493,2.7751],[123.2467,-1.6434,6.8427],[123.249,-1.645,0.0],[123.2501,-1.6428,0.0],[123.2478,-1.6395,11.0754],[123.2491,-1.6385,11.0754],[123.2514,-1.6389,7.8678],[123.2501,-1.64,11.7202],[123.2509,-1.6414,0.0],[123.2544,-1.6396,0.0],[123.2572,-1.635,2.57],[123.2572,-1.6272,11.6425]]],
[[[123.0649,-1.9253,0.0],[123.0721,-1.9215,0.0],[123.0768,-1.9209,1.9755],[123.0857,-1.915,0.0],[123.0895,-1.91,0.0],[123.0891,-1.906,0.0],[123.0911,-1.9018,6.0693],[123.0885,-1.8978,2.3526],[123.087,-1.9018,5.7894],[123.0842,-1.9019,37.9959],[123.0856,-1.8999,0.9862],[123.0848,-1.8969,27.1493],[123.088,-1.8971,2.3526],[123.0889,-1.8953,3.763],[123.089,-1.8974,2.3526],[123.0904,-1.8977,8.8508],[123.0918,-1.8962,22.7899],[123.0917,-1.9007,0.0],[123.093,-1.8983,4.9378],[123.0948,-1.8982,0.0],[123.0983,-1.892,0.0],[123.0932,-1.8856,12.1245],[123.0958,-1.887,0.0],[123.0979,-1.8844,12.2721],[123.0994,-1.8866,0.0],[123.1036,-1.8853,0.0],[123.1056,-1.8818,0.0],[123.1044,-1.88,13.4788],[123.1063,-1.8782,0.0],[123.1061,-1.8744,23.5447],[123.1078,-1.8758,11.9653],[123.1115,-1.8748,0.0],[123.112,-1.8714,15.8744],[123.1138,-1.8759,0.0],[123.1166,-1.8718,0.0],[123.1205,-1.8719,0.0],[123.1213,-1.867,17.4838],[123.1214,-1.87,2.914],[123.1255,-1.8689,5.4223],[123.1287,-1.8704,0.0],[123.1304,-1.8682,0.6708],[123.1282,-1.8657,0.842],[123.1281,-1.8629,33.5196],[123.1304,-1.8619,11.2463],[123.1322,-1.8699,0.0],[123.1344,-1.869,0.0],[123.139,-1.8612,7.9277],[123.1363,-1.8587,35.4978],[123.1371,-1.8569,13.5184],[123.14,-1.8588,7.2855],[123.1415,-1.8568,0.0],[123.1409,-1.8526,0.0],[123.1375,-1.8536,28.9384],[123.1398,-1.8506,11.6644],[123.1439,-1.8536,0.0],[123.1452,-1.8439,0.0],[123.144,-1.8421,11.9731],[123.1468,-1.8403,0.0],[123.1444,-1.8353,1.9515],[123.1425,-1.8357,3.2295],[123.1401,-1.8337,2.3982],[123.1395,-1.8349,27.2432],[123.1368,-1.833,18.1008],[123.1401,-1.8305,14.6506],[123.1397,-1.8281,14.397],[123.1428,-1.824,6.7357],[123.1412,-1.8311,6.2024],[123.1452,-1.832,0.0],[123.1467,-1.8211,14.5783],[123.1496,-1.8206,0.0],[123.1443,-1.8067,6.8873],[123.1426,-1.8075,6.8873],[123.1414,-1.8062,2.5289],[123.1419,-1.8027,17.2827],[123.144,-1.8034,8.9861],[123.1446,-1.7991,1.9485],[123.1375,-1.7983,7.6207],[123.1354,-1.7994,9.6773],[123.1352,-1.7975,1.0874],[123.1323,-1.7956,0.0],[123.1297,-1.7992,17.0958],[123.1272,-1.7939,60.9526],[123.1302,-1.7849,59.6191],[123.1301,-1.7798,13.4344],[123.126,-1.7752,9.4732],[123.1219,-1.777,18.634],[123.1134,-1.7752,19.6575],[123.1132,-1.7741,8.561],[123.1079,-1.7752,37.5215],[123.1047,-1.7742,9.4695],[123.1005,-1.7709,0.6175],[123.0959,-1.7605,0.0],[123.0874,-1.7688,2.1129],[123.072,-1.8119,3.9033],[123.0682,-1.8164,0.0],[123.0631,-1.8283,7.1495],[123.0587,-1.8304,14.0004],[123.0619,-1.8438,2.6123],[123.0589,-1.853,0.966],[123.0592,-1.8652,2.1206],[123.0571,-1.8717,5.222],[123.06,-1.8811,0.0],[123.0591,-1.883,0.0],[123.0613,-1.8834,30.1661],[123.0625,-1.8862,0.0],[123.0653,-1.8822,13.9137],[123.0644,-1.8804,52.2297],[123.0694,-1.8872,3.8302],[123.0658,-1.8926,25.2652],[123.0619,-1.8914,75.0342],[123.0606,-1.8887,0.9368],[123.0551,-1.8904,28.2548],[123.0479,-1.9107,37.5842],[123.052,-1.9215,0.0],[123.0608,-1.9259,2.4887],[123.0649,-1.9253,0.0]]],
[[[123.319,-1.772,5.9383],[123.3203,-1.7658,7.6942],[123.3248,-1.7634,0.0],[123.3259,-1.7593,4.4657],[123.3295,-1.7549,27.9521],[123.3315,-1.7433,32.0229],[123.3385,-1.7356,0.194],[123.3388,-1.7329,13.8944],[123.3427,-1.7337,19.2921],[123.3437,-1.7366,0.0],[123.3501,-1.7389,1.8171],[123.3516,-1.7421,0.8963],[123.3549,-1.7367,0.0],[123.3588,-1.7365,0.0],[123.3602,-1.7328,33.079],[123.3641,-1.7336,4.1586],[123.3654,-1.7259,9.3781],[123.3726,-1.7216,3.0903],[123.3733,-1.7193,6.1143],[123.3712,-1.7201,30.3089],[123.3725,-1.7178,32.5052],[123.376,-1.7175,25.7685],[123.3768,-1.7196,17.8541],[123.3747,-1.7222,0.0],[123.3758,-1.7239,6.0352],[123.3797,-1.7237,0.0],[123.3832,-1.7213,1.7616],[123.3846,-1.7224,6.0984],[123.3855,-1.7122,0.0],[123.3876,-1.7103,0.0],[123.3859,-1.6898,0.0],[123.3797,-1.6726,0.0],[123.376,-1.672,0.0],[123.3692,-1.6739,0.8898],[123.3656,-1.673,11.7385],[123.3556,-1.6776,0.0],[123.3435,-1.6906,3.0786],[123.3351,-1.6948,7.2867],[123.3326,-1.7006,0.0],[123.3182,-1.7129,0.0],[123.3171,-1.7159,0.0],[123.3117,-1.7183,7.9043],[123.2975,-1.7396,16.8506],[123.2895,-1.746,8.4707],[123.2825,-1.7581,49.4437],[123.2745,-1.7782,3.2171],[123.2756,-1.7792,3.2171],[123.2698,-1.7849,0.0],[123.2761,-1.789,3.6895],[123.2735,-1.7893,0.3966],[123.2717,-1.7932,0.0],[123.2778,-1.7926,1.9062],[123.2749,-1.7965,3.3053],[123.2759,-1.798,0.0],[123.2804,-1.7947,0.5785],[123.2911,-1.7948,0.0],[123.2985,-1.7917,2.0022],[123.3109,-1.7834,1.1973],[123.3159,-1.7821,0.0],[123.319,-1.772,5.9383]]],
[[[123.6969,-1.8782,0.0],[123.6967,-1.8782,0.0],[123.6966,-1.8784,0.0],[123.6971,-1.8785,0.0],[123.6969,-1.8782,0.0]]],
[[[123.6931,-1.8747,7.0333],[123.6914,-1.8738,2.1454],[123.691,-1.874,2.1454],[123.692,-1.8753,7.0333],[123.6931,-1.8747,7.0333]]],
[[[123.6895,-1.8732,0.0],[123.6898,-1.8739,0.0],[123.6906,-1.8738,2.1454],[123.6904,-1.8732,2.1454],[123.6895,-1.8732,0.0]]],
[[[123.6898,-1.8713,0.0],[123.6897,-1.8718,0.0],[123.6902,-1.8718,0.0],[123.6903,-1.8715,0.0],[123.6898,-1.8713,0.0]]],
[[[123.6787,-1.8859,2.4159],[123.678,-1.8831,2.9194],[123.6751,-1.8813,2.2494],[123.6715,-1.8826,0.0],[123.6681,-1.8871,22.4153],[123.6626,-1.8906,0.0],[123.6661,-1.9079,5.6763],[123.669,-1.9102,0.0],[123.6698,-1.9081,28.4131],[123.6707,-1.9117,0.0],[123.67218983050847,-1.912409443099276,13.3535],[123.6708,-1.9137,0.7164],[123.6744,-1.9157,1.1455],[123.676,-1.91,4.6025],[123.6778,-1.9108,12.9992],[123.6769,-1.908,7.8857],[123.679,-1.9094,17.8657],[123.6783,-1.9139,21.4159],[123.6765,-1.914,7.7707],[123.6768,-1.9169,39.6484],[123.6743,-1.918,0.0],[123.6766,-1.9271,6.2805],[123.6811,-1.9299,0.0],[123.6826,-1.9285,2.3551],[123.682,-1.9232,10.8691],[123.6842,-1.927,6.4804],[123.6867,-1.9273,0.0],[123.6875,-1.922,6.7788],[123.6864,-1.9202,0.0],[123.6887,-1.9142,0.0],[123.6873,-1.9106,3.9155],[123.6838,-1.9104,11.7321],[123.6824,-1.9037,5.7775],[123.6769,-1.8958,13.3153],[123.6747,-1.8868,28.3848],[123.6803,-1.89,11.2172],[123.6792,-1.8918,2.9212],[123.6812,-1.8975,0.0],[123.6836,-1.8951,24.1259],[123.6787,-1.8859,2.4159]],
[[123.67218983050847,-1.912409443099276,13.3535],[123.6722,-1.9124,13.3535],[123.67221666666667,-1.912422222222228,13.3535],[123.67218983050847,-1.912409443099276,13.3535]],
[[123.67221666666667,-1.912422222222228,13.3535],[123.6749,-1.9137,5.1593],[123.674,-1.9148,1.1455],[123.67221666666667,-1.912422222222228,13.3535]]],
[[[123.7721,-1.9044,28.9009],[123.7688,-1.9035,6.6205],[123.7702,-1.9109,5.9076],[123.7674,-1.9237,0.0],[123.7695,-1.9334,0.0],[123.7715,-1.9347,0.0],[123.7729,-1.9339,0.0],[123.7723,-1.9257,9.9818],[123.7741,-1.927,0.0],[123.7768,-1.9222,0.2402],[123.7732,-1.9105,0.4409],[123.7745,-1.9068,0.0],[123.7721,-1.9044,28.9009]]],
[[[123.5396,-1.9128,0.0],[123.5365,-1.9126,2.3193],[123.5317,-1.9151,3.7149],[123.5302,-1.9222,6.8064],[123.5285,-1.9238,6.0534],[123.5351,-1.9361,3.6685],[123.5374,-1.9332,1.038],[123.5356,-1.9334,1.038],[123.5329,-1.9308,4.1598],[123.5322,-1.9276,2.8152],[123.5343,-1.9255,1.0414],[123.5334,-1.9243,4.6067],[123.534,-1.9221,0.5652],[123.5331,-1.9214,6.4988],[123.5348,-1.9187,7.2721],[123.5373,-1.92,0.0],[123.5388,-1.9186,3.4387],[123.5392,-1.9236,0.6395],[123.5411,-1.9225,2.7487],[123.5423,-1.9152,2.2442],[123.5396,-1.9128,0.0]]],
[[[123.5343,-1.924,0.0],[123.5339,-1.9242,0.0],[123.534,-1.9245,0.0],[123.5344,-1.9244,0.0],[123.5343,-1.924,0.0]]],
[[[123.6938,-1.8972,0.0],[123.6934,-1.8972,0.0],[123.6934,-1.8976,0.0],[123.6938,-1.8975,0.0],[123.6938,-1.8972,0.0]]],
[[[123.6849,-1.8968,0.0],[123.6863,-1.8969,0.0],[123.6865,-1.8961,0.0],[123.6853,-1.8957,9.3125],[123.6849,-1.8968,0.0]]],
[[[123.6401,-1.9243,0.0],[123.6401,-1.9255,0.0],[123.6408,-1.9271,0.0],[123.6412,-1.9236,0.0],[123.6401,-1.9243,0.0]]],
[[[123.6364,-1.925,0.0],[123.6369,-1.926,0.6425],[123.6373,-1.9227,0.565],[123.6364,-1.9243,0.0],[123.6364,-1.925,0.0]]],
[[[123.6372,-1.9211,0.6322],[123.6375,-1.9223,0.565],[123.6374,-1.9198,0.6322],[123.637,-1.9203,0.6322],[123.6372,-1.9211,0.6322]]],
[[[123.6381,-1.9186,0.0],[123.6378,-1.9188,0.0],[123.6379,-1.9193,0.0],[123.6384,-1.9188,0.0],[123.6381,-1.9186,0.0]]],
[[[123.6438,-1.9116,0.9816],[123.6441,-1.9113,0.9816],[123.6431,-1.9106,0.0],[123.6429,-1.9114,0.9816],[123.6438,-1.9116,0.9816]]],
[[[123.639,-1.9108,1.0743],[123.6389,-1.9111,1.0743],[123.6394,-1.9114,1.8205],[123.6394,-1.9107,1.0743],[123.639,-1.9108,1.0743]]],
[[[123.6416,-1.9099,0.0],[123.6419,-1.9065,0.0],[123.6399,-1.9045,0.0],[123.6348,-1.9081,17.9706],[123.6378,-1.9137,0.4448],[123.64,-1.9119,1.8205],[123.638,-1.9132,0.4448],[123.6375,-1.911,5.8454],[123.6416,-1.9099,0.0]]],
[[[123.8384,-2.0073,3.1816],[123.8366,-1.9946,6.567],[123.8378,-1.9954,6.567],[123.841,-1.9912,32.3165],[123.8416,-1.9948,0.0],[123.8447,-1.9938,37.9773],[123.8422,-1.997,15.6438],[123.8489,-2.0029,16.9593],[123.8555,-2.0129,7.3984],[123.86,-2.0052,0.0],[123.8611,-1.9932,0.0],[123.8641,-1.9831,0.0],[123.86279999999999,-1.9775,0.0],[123.8547,-1.9712,0.0],[123.8505,-1.9585,0.0],[123.8466,-1.9535,7.36],[123.8444,-1.9543,54.3559],[123.8439,-1.9483,37.9682],[123.8451,-1.9471,26.5893],[123.8463,-1.9485,12.1953],[123.8493,-1.9476,10.3843],[123.8469,-1.9456,1.4381],[123.846,-1.9411,0.0],[123.845,-1.9453,21.0281],[123.8422,-1.9479,32.7394],[123.839,-1.9465,6.5645],[123.8372,-1.9435,2.4656],[123.8379,-1.9359,3.0523],[123.8265,-1.9279,0.0],[123.8192,-1.9135,0.0],[123.8173,-1.915,77.975],[123.8147,-1.9114,11.2961],[123.8114,-1.914,2.9562],[123.8094,-1.913,14.0875],[123.8107,-1.91,10.2407],[123.8076,-1.905,30.1292],[123.8039,-1.8928,4.2459],[123.7929,-1.89,13.9329],[123.7888,-1.8854,1.8872],[123.7884,-1.8819,35.9977],[123.7838,-1.8793,1.3324],[123.776,-1.8922,0.0],[123.7791,-1.905,1.0437],[123.7763,-1.9086,0.0],[123.7799,-1.9107,7.7639],[123.779,-1.913,55.6519],[123.7751,-1.9096,12.0861],[123.778,-1.9262,2.7203],[123.7764,-1.9255,2.7203],[123.7742,-1.9291,0.5476],[123.7764,-1.9351,38.2311],[123.7744,-1.9389,10.5076],[123.7712,-1.9368,0.0],[123.7708,-1.9431,0.0],[123.7729,-1.9479,32.0399],[123.7777,-1.949,8.9175],[123.7792,-1.9286,30.2764],[123.7804,-1.9283,30.2764],[123.7803,-1.9309,22.5085],[123.7821,-1.9295,25.8386],[123.7799,-1.9399,13.564],[123.7828,-1.9409,49.2179],[123.781,-1.9427,24.0919],[123.7827,-1.9502,14.4971],[123.7853,-1.9542,1.8941],[123.7855,-1.9521,8.8098],[123.7871,-1.9525,19.2326],[123.7873,-1.9537,18.4574],[123.7837,-1.9565,2.8418],[123.7849,-1.9831,1.591],[123.7933,-1.9913,5.3507],[123.7925,-1.9919,0.4639],[123.7943,-1.9929,5.3507],[123.8001,-2.0046,0.0],[123.8116,-2.0135,19.4631],[123.812,-2.0163,0.0],[123.8163,-2.0186,15.3225],[123.8159,-2.0212,9.7933],[123.8219,-2.0212,13.9534],[123.8248,-2.0228,18.9183],[123.8246,-2.027,0.0],[123.827,-2.0261,5.2371],[123.8282,-2.0233,0.0],[123.8276,-2.0179,7.1603],[123.8341,-2.0141,12.3881],[123.8365,-2.0145,2.5391],[123.8384,-2.0073,3.1816]]],
[[[123.6511,-1.9076,0.0],[123.6538,-1.8978,0.0],[123.6475,-1.8957,0.0],[123.6438,-1.9071,0.0],[123.6474,-1.9036,3.8755],[123.6473,-1.9047,0.0],[123.6485,-1.9031,3.8755],[123.6498,-1.9039,2.9685],[123.6442,-1.9132,3.7996],[123.644,-1.9164,3.4902],[123.6481,-1.9278,1.0751],[123.6468,-1.9363,33.9617],[123.6483,-1.9556,6.9462],[123.6463,-1.9572,1.3832],[123.6447,-1.9556,1.2819],[123.6479,-1.9613,0.0],[123.6586,-1.9663,0.0],[123.6636,-1.9633,0.0],[123.6638,-1.9578,0.0],[123.6575,-1.9354,0.0],[123.6555,-1.9326,0.0],[123.655,-1.9206,0.0],[123.6511,-1.9119,0.0],[123.6511,-1.9076,0.0]]],
[[[123.7251,-1.9605,0.6255],[123.7303,-1.9582,0.0],[123.7342,-1.9499,3.0717],[123.7365,-1.9545,3.3843],[123.7392,-1.9547,0.0],[123.7386,-1.9398,0.0],[123.7363,-1.9358,19.0514],[123.7363,-1.9275,0.0],[123.7386,-1.9259,6.8701],[123.7386,-1.9157,1.913],[123.7367,-1.9105,0.0],[123.732,-1.9093,8.3923],[123.7315,-1.8983,0.0],[123.7284,-1.8977,0.0],[123.7245,-1.8997,0.0],[123.7212,-1.9072,41.7643],[123.7081,-1.9209,0.0],[123.7077,-1.9321,24.5274],[123.7046,-1.9346,0.0],[123.7037,-1.9416,0.0],[123.6979,-1.9452,0.0],[123.699,-1.9582,0.0],[123.7025,-1.9618,0.0],[123.712,-1.9634,0.0],[123.7251,-1.9605,0.6255]]],
[[[123.6956,-1.8896,0.0],[123.6966,-1.8896,0.0],[123.6971,-1.8885,0.0],[123.6956,-1.8884,9.995],[123.6956,-1.8896,0.0]]],
[[[123.6911,-1.8963,0.0],[123.6912,-1.8956,0.0],[123.6901,-1.8955,0.0],[123.6901,-1.896,0.0],[123.6911,-1.8963,0.0]]],
[[[123.6928,-1.8952,11.9303],[123.6925,-1.8956,11.9303],[123.6929,-1.8959,11.9303],[123.6932,-1.8954,11.9303],[123.6928,-1.8952,11.9303]]],
[[[123.7661,-1.8694,0.0],[123.7646,-1.8646,0.0],[123.7555,-1.876,8.3009],[123.7587,-1.8854,0.0],[123.7605,-1.8841,6.3324],[123.7659,-1.8843,6.939],[123.7677,-1.886,3.1471],[123.7708,-1.8852,2.0413],[123.77,-1.8778,20.9706],[123.7661,-1.8694,0.0]]],
[[[123.6968,-1.8642,0.7802],[123.6948,-1.8616,2.3929],[123.685,-1.8632,2.8575],[123.6856,-1.8651,2.5926],[123.6816,-1.8753,0.0],[123.6827,-1.879,0.4407],[123.6841,-1.8793,0.0],[123.6826,-1.8744,1.2487],[123.6857,-1.874,1.0028],[123.6878,-1.8703,1.2019],[123.6873,-1.8689,0.612],[123.6847,-1.8701,1.8014],[123.6862,-1.8656,7.4909],[123.6875,-1.8659,7.4909],[123.6875,-1.8685,0.612],[123.6909,-1.8708,7.2248],[123.6922,-1.869,0.0],[123.691,-1.8668,4.5303],[123.694,-1.8675,1.652],[123.6915,-1.8648,3.467],[123.6954,-1.8677,6.7237],[123.6953,-1.8697,5.5275],[123.6919,-1.8708,7.2248],[123.6929,-1.8735,0.0],[123.6953,-1.872,20.8909],[123.6937,-1.8765,0.0],[123.6985,-1.8739,5.1874],[123.7007,-1.8754,3.2803],[123.6978,-1.881,0.0],[123.7003,-1.8907,12.0031],[123.6962,-1.8947,18.9857],[123.6927,-1.8931,6.4742],[123.6955,-1.8985,16.7413],[123.6939,-1.9025,0.0],[123.6954,-1.9057,5.4093],[123.6924,-1.9052,3.8126],[123.6939,-1.9082,0.0],[123.7017,-1.8992,2.9235],[123.7043,-1.8924,0.2629],[123.7022,-1.8871,6.4455],[123.7031,-1.883,0.0],[123.7005,-1.8799,1.7598],[123.7017,-1.8725,9.7306],[123.6974,-1.8673,4.487],[123.6968,-1.8642,0.7802]]],
[[[123.918,-2.086,0.0],[123.9184,-2.0868,0.0],[123.9187,-2.0867,0.0],[123.9184,-2.086,0.0],[123.918,-2.086,0.0]]],
[[[123.9042,-2.0846,0.0],[123.9042,-2.0851,0.0],[123.905,-2.0854,0.0],[123.9049,-2.0848,0.0],[123.9042,-2.0846,0.0]]],
[[[123.9081,-2.0839,0.0],[123.9078,-2.0842,0.8471],[123.908,-2.0846,0.0],[123.9084,-2.0843,0.0],[123.9081,-2.0839,0.0]]],
[[[123.9162,-2.0838,2.4573],[123.9156,-2.0828,0.6108],[123.9147,-2.0826,0.6108],[123.9168,-2.0854,0.0],[123.9162,-2.0838,2.4573]]],
[[[123.9023,-2.088,0.0],[123.9029,-2.0873,0.8046],[123.9015,-2.0877,0.0],[123.9015,-2.0879,0.0],[123.9023,-2.088,0.0]]],
[[[123.9193,-2.0881,4.4806],[123.9154,-2.0877,0.7471],[123.9229,-2.0941,0.0],[123.9224,-2.0916,4.74],[123.9193,-2.0881,4.4806]]],
[[[123.9108,-2.0807,1.4132],[123.9119,-2.0802,1.4132],[123.9103,-2.0798,1.4132],[123.9059,-2.0834,0.0],[123.9072,-2.0841,0.8471],[123.9108,-2.0807,1.4132]]],
[[[123.7449,-2.0841,0.0],[123.7454,-2.0835,0.0],[123.7438,-2.0805,0.0],[123.7437,-2.0825,2.4577],[123.7449,-2.0841,0.0]]],
[[[123.881,-2.0343,18.5104],[123.8799,-2.029,0.0],[123.8685,-2.0197,119.5926],[123.8621,-2.008,13.2583],[123.8581,-2.012,0.0],[123.855,-2.0218,29.9706],[123.8552,-2.0286,31.3555],[123.8529,-2.0362,20.2998],[123.8495,-2.0409,0.0],[123.8517,-2.0435,19.5544],[123.8516,-2.0483,12.4295],[123.8485,-2.0516,4.215],[123.8496,-2.0528,4.215],[123.8483,-2.0551,3.7963],[123.844,-2.0581,2.4171],[123.8459,-2.062,8.4784],[123.8448,-2.0645,18.8926],[123.8476,-2.0687,3.3398],[123.8549,-2.0698,1.7085],[123.8608,-2.0745,0.0],[123.8629,-2.0729,0.0],[123.8608,-2.0682,0.0],[123.8593,-2.0687,12.7084],[123.8612,-2.0707,2.5019],[123.8597,-2.0726,15.664],[123.8552,-2.0687,8.4474],[123.8557,-2.0684,8.4474],[123.8575,-2.0695,9.4427],[123.8583,-2.0673,29.2345],[123.8607,-2.0678,16.7676],[123.8601,-2.0653,9.8112],[123.8612,-2.0647,24.8154],[123.8674,-2.0735,0.0],[123.8692,-2.0733,3.6567],[123.8704,-2.0752,0.0],[123.874,-2.0741,0.0],[123.8736,-2.077,0.0],[123.8761,-2.0818,0.0],[123.8796,-2.0835,0.0],[123.8808,-2.0785,0.0],[123.8819,-2.0828,0.0],[123.8828,-2.0817,0.0],[123.8847,-2.0827,6.1039],[123.8846,-2.086,0.0],[123.8895,-2.0877,9.6144],[123.8898,-2.0856,24.9637],[123.8973,-2.0823,6.3443],[123.8971,-2.0746,0.0],[123.8931,-2.0704,24.044],[123.8821,-2.0496,35.4703],[123.8783,-2.0378,30.1569],[123.881,-2.0343,18.5104]]]]}}