{"type":"Feature","properties":{"GID_3":"IDN.10.13.13_1","GID_0":"IDN","country":"Indonesia","GID_1":"IDN.10_1","province":"JawaTengah","NL_NAME_1":"NA","GID_2":"IDN.10.13_1","county":"Kendal","NL_NAME_2":"NA","city":"Patebon","VARNAME_3":"NA","NL_NAME_3":"NA","TYPE_3":"Kecamatan","ENGTYPE_3":"Sub-district","CC_3":"3324160","HASC_3":"NA","name":"Patebon.city"},
"geometry":{"type": "MultiPolygon","coordinates": [[[[110.1795,-6.9608,10.7864],[110.1797,-6.9606,10.7864],[110.1797,-6.9603,10.7864],[110.1792,-6.9591,10.4005],[110.179,-6.9593,10.4005],[110.1796,-6.9606,10.7864],[110.1793,-6.9609,10.7864],[110.1794,-6.9619,11.2446],[110.1797,-6.9616,11.2446],[110.1795,-6.9608,10.7864]]],
[[[110.1797,-6.9583,10.4005],[110.1798,-6.9579,11.0037],[110.1796,-6.9583,10.4005],[110.1798,-6.9588,10.4005],[110.1799,-6.9586,10.4005],[110.1797,-6.9583,10.4005]]],
[[[110.1883,-6.937,4.5167],[110.186,-6.9358,4.3035],[110.1865,-6.9308,4.3008],[110.1839,-6.93,6.2008],[110.1858,-6.9237,5.1635],[110.1856,-6.922,6.423],[110.1829,-6.9222,6.153],[110.1845,-6.9129,2.9621],[110.1879,-6.9132999999999996,2.2862],[110.1882,-6.9113,2.257],[110.1919,-6.9123,2.5141],[110.1936,-6.9086,1.666],[110.1922,-6.9068,1.7655],[110.1955,-6.9049,1.3513],[110.1951,-6.8996,1.5981],[110.2049,-6.8846,0.9645],[110.2133,-6.8821,0.8264],[110.2185,-6.8835,0.9192],[110.2265,-6.8803,0.5792],[110.2221,-6.8679,0.0],[110.2188,-6.8636,0.0],[110.2188,-6.8605,0.218],[110.2019,-6.8562,0.2404],[110.1975,-6.8539,0.0],[110.1977,-6.8511,0.0],[110.19,-6.8505,0.0],[110.1896,-6.8521,0.0],[110.171,-6.8446,0.0],[110.1578,-6.85,0.0],[110.1689,-6.8643,2.1549],[110.1672,-6.8734,2.6949],[110.1696,-6.8802,6.4656],[110.1664,-6.8867,4.6034],[110.175,-6.8929,9.4535],[110.177,-6.8991,5.0852],[110.1752,-6.9001,6.4636],[110.1707,-6.8989,6.8998],[110.1683,-6.9004,8.1258],[110.17,-6.9079,9.7136],[110.165,-6.9132999999999996,8.7689],[110.165,-6.9198,8.7349],[110.1615,-6.9218,9.7552],[110.1628,-6.9269,10.606],[110.1562,-6.9291,9.8726],[110.1547,-6.9311,10.5338],[110.1516,-6.9543,13.9809],[110.156,-6.9554,9.6958],[110.1606,-6.9535,12.5635],[110.1669,-6.9558,9.222],[110.1687,-6.9533,8.7449],[110.1793,-6.9555,12.1917],[110.1807,-6.9564,11.0037],[110.1799,-6.9578,11.0037],[110.1813,-6.9555,12.0128],[110.1816,-6.954,10.2741],[110.1817,-6.9476,9.4399],[110.1858,-6.9457,7.5153],[110.1919,-6.9483,6.2579],[110.1885,-6.9451,5.5486],[110.1914,-6.9407,3.7367],[110.1885,-6.9399,4.5642],[110.1883,-6.937,4.5167]]]]}}