{"type":"Feature","properties":{"GID_3":"IDN.24.5.4_1","GID_0":"IDN","country":"Indonesia","GID_1":"IDN.24_1","province":"Riau","NL_NAME_1":"NA","GID_2":"IDN.24.5_1","county":"Kampar","NL_NAME_2":"NA","city":"GunungSahilan","VARNAME_3":"NA","NL_NAME_3":"NA","TYPE_3":"Kecamatan","ENGTYPE_3":"Sub-district","CC_3":"1406013","HASC_3":"NA","name":"Gunung_Sahilan.city"},
"geometry":{"type": "MultiPolygon","coordinates": [[[[101.3913,-0.0146,34.9223],[101.387,-0.0029,56.7983],[101.3829,0.0032,60.3461],[101.3749,0.0104,36.3297],[101.3596,0.0371,60.263],[101.3394,0.0529,74.9414],[101.3348,0.0583,59.8162],[101.3316,0.0594,53.9929],[101.3253,0.0718,48.2726],[101.3068,0.1188,24.1089],[101.2959,0.1383,21.8937],[101.2832,0.1491,44.9588],[101.2589,0.1611,50.7193],[101.2512,0.1728,62.8497],[101.2461,0.1778,90.2311],[101.2388,0.1816,79.6583],[101.2286,0.1831,75.847],[101.2185,0.19,68.6649],[101.212,0.1999,72.862799999999993],[101.208,0.2185,117.3856],[101.1984,0.2113,77.4146],[101.1989,0.2074,63.0543],[101.196,0.1997,57.7743],[101.1926,0.1968,49.367],[101.1902,0.1973,72.6494],[101.1874,0.2016,89.5765],[101.1821,0.2002,84.3044],[101.1783,0.1949,48.9587],[101.1782,0.1881,35.4647],[101.1816,0.1799,33.2846],[101.1787,0.1736,27.006],[101.1864,0.1693,29.0335],[101.1907,0.1616,27.2637],[101.1893,0.1544,39.7663],[101.1792,0.15,39.9434],[101.1964,0.1341,70.668],[101.2051,0.1312,46.0334],[101.2113,0.1249,58.4678],[101.2166,0.1225,67.9498],[101.2204,0.1119,54.8009],[101.2477,0.0647,27.3708],[101.2472,0.0594,19.5219],[101.2496,0.0574,16.0],[101.255,0.0376,51.8315],[101.2645,0.0171,82.1519],[101.2679,-0.0085,55.1033],[101.2722,-0.0045,99.9552],[101.2803,-0.0056,72.3549],[101.2799,-0.0091,73.8094],[101.2906,-0.0192,75.4001],[101.2912,-0.0248,92.2641],[101.2956,-0.0285,100.3999],[101.2987,-0.0373,106.9308],[101.3078,-0.0427,90.4811],[101.3034,-0.0517,73.6631],[101.3115,-0.056,90.6843],[101.3113,-0.065,71.8401],[101.3136,-0.0672,92.217],[101.3141,-0.0757,111.5249],[101.3204,-0.0921,91.4265],[101.3391,-0.1079,108.5614],[101.3463,-0.1074,104.964],[101.3486,-0.1094,86.6233],[101.3593,-0.1341,55.4169],[101.3648,-0.1394,73.2086],[101.3682,-0.1488,81.0254],[101.3724,-0.1476,82.5635],[101.3723,-0.1395,82.452],[101.3769,-0.1291,71.8508],[101.3842,-0.1269,46.7773],[101.3908,-0.1279,62.2483],[101.394,-0.0992,36.6537],[101.4062,-0.0882,29.4349],[101.4079,-0.0834,27.2803],[101.4073,-0.08,27.194],[101.4099,-0.0739,32.0235],[101.4143,-0.0763,27.4275],[101.4159,-0.0829,26.5544],[101.4223,-0.0874,32.8231],[101.424,-0.0924,26.6045],[101.4512,-0.1273,38.4861],[101.4602,-0.1259,50.1379],[101.4688,-0.1296,48.7057],[101.4497,-0.1023,50.0017],[101.4427,-0.0989,56.8641],[101.4384,-0.0862,78.2921],[101.438,-0.0776,63.0986],[101.4028,-0.0413,57.5676],[101.3913,-0.0146,34.9223]]]]}}