{"type":"Feature","properties":{"GID_3":"IDN.17.2.16_1","GID_0":"IDN","country":"Indonesia","GID_1":"IDN.17_1","province":"Lampung","NL_NAME_1":"NA","GID_2":"IDN.17.2_1","county":"LampungBarat","NL_NAME_2":"NA","city":"SumberJaya","VARNAME_3":"NA","NL_NAME_3":"NA","TYPE_3":"Kecamatan","ENGTYPE_3":"Sub-district","CC_3":"1801060","HASC_3":"NA","name":"Sumber_Jaya.city"},
"geometry":{"type": "MultiPolygon","coordinates": [[[[104.5291,-5.0995,951.5411],[104.5329,-5.1071,1100.6152],[104.5463,-5.1072,1087.3037],[104.5645,-5.0939,943.8932],[104.5682,-5.0895,923.4684],[104.573,-5.0664,965.8994],[104.5777,-5.0632,903.8901],[104.5804,-5.0578,959.58],[104.5794,-5.0532,998.9738],[104.5728,-5.0432,1169.3168],[104.5695,-5.0237,1686.194],[104.5681,-5.0251,1614.9039],[104.5651,-5.0249,1571.7975],[104.5589,-5.0197,1610.5551],[104.5526,-5.0204,1397.3214],[104.5377,-5.0154,1120.0872],[104.5359,-5.0161,1100.1526],[104.5345,-5.0211,1042.5093],[104.5278,-5.0228,1081.9563],[104.5134,-5.0219,1076.5142],[104.4995,-5.0166,1143.499],[104.4982,-5.0132,1017.9795],[104.4991,-5.0079,973.77],[104.4966,-5.0042,943.0077],[104.4999,-4.9982,897.8212],[104.4994,-4.9929,904.2459],[104.4946,-4.9825,868.7307],[104.5016,-4.9587,616.3948],[104.5002,-4.9495,721.1075],[104.4977,-4.9472,686.6729],[104.4988,-4.9431,603.6837],[104.487,-4.9375,1079.4709],[104.4822,-4.9332,1152.465],[104.4758,-4.9323,1174.2405],[104.4681,-4.9335,1330.4547],[104.4594,-4.9401,1408.3002],[104.4429,-4.9448,1578.6082],[104.4379,-4.9572,1183.8894],[104.435,-4.9606,1112.0129],[104.4173,-4.9725,1095.2256],[104.4247,-4.977,1063.5924],[104.4278,-4.9822,1038.2355],[104.4189,-4.987,1072.7753],[104.4199,-4.9949,909.3776],[104.4252,-5.0073,821.249],[104.4298,-5.0118,822.0648],[104.4351,-5.0128,813.6759],[104.4359,-5.0148,811.4689],[104.4349,-5.0178,789.2307],[104.4292,-5.0187,792.9438],[104.4244,-5.0229,793.956],[104.4205,-5.0304,797.0303],[104.4271,-5.0391,825.1066],[104.4338,-5.0417,842.4038],[104.4393,-5.0474,919.6989],[104.4611,-5.0536,1234.7994],[104.4661,-5.0535,1274.874],[104.4784,-5.0457,954.4174],[104.4785,-5.0423,991.0853],[104.484,-5.0405,882.808],[104.4853,-5.0385,856.5745],[104.4897,-5.0398,842.7804],[104.4998,-5.0609,903.8752],[104.5085,-5.075,969.2401],[104.5137,-5.0764,903.3777],[104.5229,-5.0943,841.9074],[104.5291,-5.0995,951.5411]]]]}}