{"type":"Feature","properties":{"GID_3":"IDN.33.1.2_1","GID_0":"IDN","country":"Indonesia","GID_1":"IDN.33_1","province":"Yogyakarta","NL_NAME_1":"NA","GID_2":"IDN.33.1_1","county":"Bantul","NL_NAME_2":"NA","city":"Banguntapan","VARNAME_3":"NA","NL_NAME_3":"NA","TYPE_3":"Kecamatan","ENGTYPE_3":"Sub-district","CC_3":"3402130","HASC_3":"NA","name":"Banguntapan.city"},
"geometry":{"type": "MultiPolygon","coordinates": [[[[110.4069,-7.8548,60.9437],[110.409,-7.8551,63.8217],[110.4087,-7.8618,61.3479],[110.4163,-7.863,58.4008],[110.4171,-7.8616,57.8492],[110.4171,-7.8637,58.4008],[110.4206,-7.8641,55.2711],[110.4213,-7.8612,61.4218],[110.4299,-7.852,65.1967],[110.4275,-7.8476,64.4511],[110.4295,-7.8433,65.3679],[110.427,-7.8435,66.0305],[110.4255,-7.8409,70.0994],[110.4287,-7.8395,76.6063],[110.4307,-7.8304,80.9291],[110.427,-7.8289,80.3248],[110.4282,-7.8218,84.5958],[110.4251,-7.8228,85.5162],[110.4213,-7.8208,86.0776],[110.4232,-7.8185,85.7409],[110.4211,-7.8167,87.7679],[110.422,-7.8125,90.7712],[110.4209,-7.807,97.82],[110.4229,-7.7957,101.5733],[110.4207,-7.7938,104.3433],[110.421,-7.7863,113.3668],[110.4165,-7.7867,122.1891],[110.4162,-7.7833,124.6346],[110.4128,-7.7833,126.386],[110.4113,-7.7896,118.4233],[110.4094,-7.7863,121.4515],[110.4086,-7.7888,117.572],[110.4068,-7.7879,120.2787],[110.4064,-7.7849,121.8758],[110.4057,-7.787,120.2787],[110.4029,-7.7863,118.8786],[110.4014,-7.7925,114.6936],[110.3991,-7.7858,121.471],[110.397,-7.7863,120.0038],[110.3974,-7.7898,116.1427],[110.3958,-7.7925,110.1898],[110.3986,-7.8001,96.8226],[110.3976,-7.8022,99.9872],[110.4023,-7.8026,105.8162],[110.4014,-7.8192,90.7168],[110.4036,-7.8201,88.8863],[110.4034,-7.8224,86.7801],[110.4015,-7.8227,87.3876],[110.4048,-7.8226,86.7801],[110.4049,-7.8255,84.413],[110.4051,-7.8305,80.9564],[110.4035,-7.833,79.045],[110.4006,-7.8315,79.5486],[110.3999,-7.8334,78.0743],[110.3979,-7.8334,77.8547],[110.397,-7.8313,79.1308],[110.3995,-7.8278,83.8265],[110.3934,-7.8263,79.9479],[110.3931,-7.8293,79.3417],[110.3958,-7.8325,76.3304],[110.3954,-7.8367,69.8631],[110.3908,-7.8359,79.5661],[110.3898,-7.8402,72.1387],[110.3885,-7.8401,69.8853],[110.3879,-7.835,74.7722],[110.3838,-7.8349,74.4557],[110.387,-7.834,76.5519],[110.3845,-7.829,81.4607],[110.3798,-7.8285,82.5752],[110.3802,-7.83,81.0784],[110.3779,-7.8307,80.5633],[110.3783,-7.8318,78.8838],[110.3765,-7.83,80.5633],[110.3768,-7.8314,78.8838],[110.375,-7.8308,80.2949],[110.3765,-7.8331,76.3241],[110.375,-7.8364,74.664],[110.3766,-7.8376,75.2182],[110.3764,-7.841,74.2185],[110.3801,-7.8398,71.9491],[110.3816,-7.8462,73.7445],[110.3802,-7.852,65.8153],[110.3753,-7.8515,67.5655],[110.3758,-7.854,65.841],[110.3876,-7.8575,59.7408],[110.3898,-7.8569,60.1589],[110.39,-7.8552,61.5861],[110.394,-7.8559,62.626],[110.3938,-7.8581,55.9493],[110.3976,-7.8587,60.2825],[110.3964,-7.8614,54.6371],[110.4021,-7.863,55.9633],[110.4054,-7.8626,60.3176],[110.4044,-7.8548,61.118],[110.4069,-7.8548,60.9437]]]]}}