{"type":"Feature","properties":{"GID_3":"IDN.20.6.18_1","GID_0":"IDN","country":"Indonesia","GID_1":"IDN.20_1","province":"NusaTenggaraBarat","NL_NAME_1":"NA","GID_2":"IDN.20.6_1","county":"LombokTimur","NL_NAME_2":"NA","city":"Suralaga","VARNAME_3":"NA","NL_NAME_3":"NA","TYPE_3":"Kecamatan","ENGTYPE_3":"Sub-district","CC_3":"5203061","HASC_3":"NA","name":"Suralaga.city"},
"geometry":{"type": "MultiPolygon","coordinates": [[[[116.556,-8.6098,126.4234],[116.5497,-8.6047,159.6638],[116.5334,-8.5982,214.1395],[116.5258,-8.5911,235.3307],[116.5231,-8.5927,235.0767],[116.5185,-8.5927,245.4899],[116.5153,-8.5968,248.1097],[116.5129,-8.5973,255.3936],[116.4943,-8.5825,322.523],[116.4883,-8.5845,320.6213],[116.496,-8.5935,279.7065],[116.4951,-8.5953,271.748],[116.498,-8.5986,266.864],[116.4992,-8.6042,260.8688],[116.5038,-8.6086,244.4516],[116.505,-8.6142,228.4532],[116.5078,-8.6155,219.3899],[116.5121,-8.6222,193.406],[116.5228,-8.6288,182.1438],[116.5312,-8.6371,154.6012],[116.5342,-8.6366,158.2108],[116.5359,-8.6342,146.7557],[116.5457,-8.6377,135.6642],[116.5483,-8.641,119.7895],[116.5566,-8.6391,112.1765],[116.5575,-8.6421,109.1981],[116.5616,-8.6434,102.0182],[116.5687,-8.6407,84.5502],[116.5791,-8.6401,73.8238],[116.5852,-8.6277,46.9161],[116.5802,-8.6237,73.4269],[116.5767,-8.6235,65.6215],[116.5726,-8.6192,96.6428],[116.5632,-8.6158,116.9861],[116.556,-8.6098,126.4234]]]]}}