{"type":"Feature","properties":{"GID_3":"IDN.9.23.16_1","GID_0":"IDN","country":"Indonesia","GID_1":"IDN.9_1","province":"JawaBarat","NL_NAME_1":"NA","GID_2":"IDN.9.23_1","county":"Subang","NL_NAME_2":"NA","city":"Legonkulon","VARNAME_3":"NA","NL_NAME_3":"NA","TYPE_3":"Kecamatan","ENGTYPE_3":"Sub-district","CC_3":"3213210","HASC_3":"NA","name":"Legonkulon.city"},
"geometry":{"type": "MultiPolygon","coordinates": [[[[107.8072,-6.2681,2.8412],[107.8107,-6.2694,3.125],[107.8097,-6.2687,2.9717],[107.8219,-6.2676,4.7072],[107.8232,-6.2728,6.6289],[107.827,-6.2738,5.7818],[107.8268,-6.2704,4.5795],[107.8416,-6.2658,2.2052],[107.8409,-6.2555,1.7184],[107.8413,-6.2539,1.7784],[107.8449,-6.2527,1.6148],[107.8462,-6.2458,2.1106],[107.8418,-6.2321,2.1551],[107.8425,-6.2307,1.8621],[107.8566,-6.228,2.723],[107.8574,-6.2224,3.0025],[107.8559,-6.2197,2.7687],[107.859,-6.218,1.1699],[107.8507,-6.1986,0.0],[107.8531,-6.1909,0.0],[107.8218,-6.1873,1.8529],[107.815,-6.1908,1.1328],[107.8157,-6.1966,1.0],[107.8132,-6.1996,1.577],[107.8123,-6.1985,1.3883],[107.8068,-6.1995,2.4153],[107.8057,-6.2021,1.2589],[107.8043,-6.2016,1.2589],[107.7991,-6.2051,0.8542],[107.7934,-6.2052,0.0],[107.7932,-6.2039,0.0],[107.7841,-6.2064,0.0],[107.7756,-6.2113,0.0],[107.7652,-6.2144,3.7613],[107.7602,-6.2179,4.8238],[107.7607,-6.221,1.263],[107.7536,-6.2291,1.9492],[107.7517,-6.2281,3.6451],[107.7482,-6.2315,2.4022],[107.7454,-6.2319,2.4484],[107.7474,-6.2358,1.9346],[107.7507,-6.237,2.2901],[107.7535,-6.2452,1.9718],[107.7569,-6.2481,2.581],[107.7596,-6.247,2.7331],[107.7613,-6.2505,1.8873],[107.7619,-6.2588,1.3088],[107.7662,-6.2668,1.589],[107.7707,-6.2691,1.4038],[107.7792,-6.2701,1.5208],[107.7811,-6.2691,1.2212],[107.7816,-6.2711,1.2674],[107.7849,-6.2728,1.6332],[107.7953,-6.2651,1.697],[107.8009,-6.2703,2.1101],[107.8072,-6.2681,2.8412]]]]}}