{"type":"Feature","properties":{"GID_3":"IDN.29.4.4_1","GID_0":"IDN","country":"Indonesia","GID_1":"IDN.29_1","province":"SulawesiUtara","NL_NAME_1":"NA","GID_2":"IDN.29.4_1","county":"BolaangMongondowUtara","NL_NAME_2":"NA","city":"Kaidipang","VARNAME_3":"NA","NL_NAME_3":"NA","TYPE_3":"Kecamatan","ENGTYPE_3":"Sub-district","CC_3":"7107050","HASC_3":"NA","name":"Kaidipang.city"},
"geometry":{"type": "MultiPolygon","coordinates": [[[[123.2967,0.8749,29.6283],[123.2905,0.8936,11.0009],[123.2917,0.9109,1.0297],[123.2738,0.9146,7.5909],[123.2701,0.9177,12.1408],[123.2692,0.9244,2.8387],[123.2617,0.9138,3.4191],[123.2584,0.9164,4.7598],[123.2581,0.9213,1.4763],[123.256,0.9224,3.89],[123.2556,0.9196,6.6466],[123.2543,0.9219,2.4218],[123.2561,0.9316,0.0],[123.2621,0.933,0.0],[123.2552,0.9438,0.0],[123.2522,0.9433,13.0209],[123.2512,0.9499,9.1094],[123.2546,0.953,0.0],[123.2514,0.9582,17.9763],[123.2473,0.9589,0.0],[123.24,0.9564,28.3793],[123.2392,0.9536,0.0],[123.2423,0.9503,4.7616],[123.2416,0.9444,8.2081],[123.2373,0.9418,7.576],[123.2299,0.9455,0.0],[123.2153,0.9465,14.3343],[123.2143,0.9459,0.0],[123.2154,0.9434,4.3711],[123.2105,0.9383,8.5878],[123.2091,0.9416,15.297],[123.1959,0.9401,11.2964],[123.1924,0.9445,0.0],[123.1862,0.9401,115.2591],[123.1931,0.9336,78.1491],[123.2064,0.9273,223.5942],[123.2062,0.9249,103.0933],[123.2028,0.9228,53.367],[123.2023,0.919,29.6599],[123.198,0.9153,32.1546],[123.1946,0.9155,4.2717],[123.197,0.9088,9.2959],[123.2075,0.9003,17.1374],[123.2207,0.8923,14.1089],[123.2256,0.887,36.0194],[123.2331,0.8874,105.2008],[123.2347,0.8861,69.7235],[123.2361,0.8823,37.7333],[123.2452,0.8726,225.8164],[123.2464,0.8663,364.1949],[123.2516,0.8581,500.3105],[123.2624,0.8498,303.6741],[123.2668,0.8482,203.5919],[123.2698,0.8301,488.4501],[123.2679,0.8191,458.2227],[123.2701,0.8142,500.0817],[123.2715,0.803,747.9645],[123.2781,0.811,747.2527],[123.2791,0.8158,848.117],[123.2864,0.8172,679.8658],[123.2899,0.82,459.9684],[123.2975,0.8325,783.5775],[123.2972,0.8369,898.3912],[123.2994,0.8401,815.0538],[123.2957,0.8591,362.6031],[123.2967,0.8749,29.6283]]],
[[[123.2602,0.9265,13.0203],[123.2589,0.9266,1.7968],[123.2587,0.9246,2.9796],[123.2597,0.9208,1.4763],[123.2621,0.9204,0.0],[123.2622,0.9263,0.0],[123.2602,0.9265,13.0203]]],
[[[123.2567,0.9247,0.0],[123.2561,0.9247,0.0],[123.2559,0.9239,0.0],[123.2568,0.9241,0.0],[123.2567,0.9247,0.0]]],
[[[123.2638,0.9207,3.128],[123.2649,0.9206,0.0],[123.2649,0.9232,0.0],[123.2635,0.9217,3.128],[123.2638,0.9207,3.128]]],
[[[123.2578,0.9231,0.0],[123.2566,0.9233,3.89],[123.2562,0.9229,3.89],[123.2577,0.9218,14.8896],[123.2578,0.9231,0.0]]]]}}