{"type":"Feature","properties":{"GID_3":"IDN.14.12.4_1","GID_0":"IDN","country":"Indonesia","GID_1":"IDN.14_1","province":"KalimantanTengah","NL_NAME_1":"NA","GID_2":"IDN.14.12_1","county":"PulangPisau","NL_NAME_2":"NA","city":"KahayanKuala","VARNAME_3":"NA","NL_NAME_3":"NA","TYPE_3":"Kecamatan","ENGTYPE_3":"Sub-district","CC_3":"6210010","HASC_3":"NA","name":"Kahayan_Kuala.city"},
"geometry":{"type": "MultiPolygon","coordinates": [[[[113.924,-3.3876,0.6044],[113.9497,-3.3713,0.0],[113.9744,-3.3608,2.6367],[113.9972,-3.3549,0.6145],[114.0194,-3.3529,6.3488],[114.0211,-3.3514,0.0],[114.0339,-3.3515,1.4344],[114.0447,-3.3467,1.1563],[114.0472,-3.3212,0.7307],[114.0529,-3.3108,5.877],[114.0746,-3.312,0.0],[114.0773,-3.3166,5.6216],[114.0691,-3.3216,4.2634],[114.0683,-3.3243,7.6145],[114.0713,-3.3357,3.8514],[114.0778,-3.3459,6.1905],[114.1041,-3.3659,9.3052],[114.1156,-3.3728,9.2768],[114.1329,-3.3803,13.7337],[114.1755,-3.2734,0.9073],[114.1918,-3.2157,1.9454],[114.2038,-3.1875,3.4002],[114.1512,-3.1668,3.5345],[114.1267,-3.1592,1.9135],[114.019,-3.1114,3.7902],[113.9648,-3.0784,7.1989],[113.9561,-3.1101,7.8817],[113.9514,-3.1138,6.9803],[113.937,-3.1353,6.4477],[113.9208,-3.1523,6.1068],[113.9072,-3.1614,6.1921],[113.8968,-3.1726,6.3239],[113.8644,-3.2276,5.769],[113.8367,-3.3088,4.4621],[113.8204,-3.3169,5.9701],[113.8143,-3.3226,5.8667],[113.7845,-3.3297,3.8237],[113.7484,-3.3426,4.229],[113.7156,-3.3699,2.6753999999999998],[113.705,-3.423,7.633],[113.7094,-3.4683,3.273],[113.7494,-3.4655,0.5674],[113.756,-3.463,0.6967],[113.7696,-3.4629,11.3675],[113.7902,-3.4599,0.0],[113.8135,-3.4508,4.8992],[113.8209,-3.4498,0.6511],[113.8507,-3.4352,2.3618],[113.854,-3.4304,4.6978],[113.8569,-3.4304,8.4635],[113.8593,-3.4325,0.0],[113.8637,-3.4311,0.0],[113.8655,-3.426,8.8568],[113.8726,-3.4217,0.0],[113.8737,-3.4194,3.4407],[113.924,-3.3876,0.6044]]]]}}