{"type":"Feature","properties":{"GID_3":"IDN.11.4.17_1","GID_0":"IDN","country":"Indonesia","GID_1":"IDN.11_1","province":"JawaTimur","NL_NAME_1":"NA","GID_2":"IDN.11.4_1","county":"Blitar","NL_NAME_2":"NA","city":"Talun","VARNAME_3":"NA","NL_NAME_3":"NA","TYPE_3":"Kecamatan","ENGTYPE_3":"Sub-district","CC_3":"3505090","HASC_3":"NA","name":"Talun.city"},
"geometry":{"type": "MultiPolygon","coordinates": [[[[112.259,-8.1449,164.4223],[112.2665,-8.1465,164.2749],[112.2714,-8.1419,169.984],[112.2742,-8.1413,176.2912],[112.2756,-8.139,172.047],[112.2751,-8.1355,173.3116],[112.2775,-8.1342,173.772],[112.2753,-8.1317,183.0887],[112.2765,-8.1267,189.9859],[112.2784,-8.1267,192.0234],[112.2796,-8.1245,199.0647],[112.2857,-8.1243,198.6997],[112.2899,-8.1188,204.1669],[112.293,-8.1195,203.3784],[112.2914,-8.1251,200.2708],[112.2977,-8.1261,200.2811],[112.303,-8.1149,221.2852],[112.3053,-8.1007,243.2888],[112.3096,-8.094,255.4702],[112.3108,-8.0797,276.6241],[112.318,-8.0682,300.2549],[112.3095,-8.0662,301.4674],[112.3102,-8.0606,314.6802],[112.3078,-8.0589,320.8614],[112.3067,-8.0626,308.9636],[112.3004,-8.0682,294.2932],[112.2998,-8.0659,305.7174],[112.2974,-8.0655,303.4089],[112.2983,-8.0614,311.6223],[112.2969,-8.0614,311.5934],[112.2961,-8.0572,322.8771],[112.2972,-8.0535,337.4639],[112.2949,-8.053,331.8289],[112.2945,-8.0645,309.382],[112.2924,-8.0648,304.7901],[112.2915,-8.0725,285.4095],[112.2888,-8.0732,279.3318],[112.289,-8.075,277.6233],[112.2842,-8.0757,277.0485],[112.2844,-8.0724,284.8008],[112.2808,-8.0718,286.8567],[112.2806,-8.0675,295.6011],[112.2785,-8.0666,295.9064],[112.2774,-8.0635,305.0028],[112.2586,-8.0619,313.3531],[112.26,-8.0563,325.3348],[112.2577,-8.0557,326.7638],[112.2448,-8.0776,267.6906],[112.2437,-8.1082,209.1489],[112.2454,-8.1118,201.9841],[112.2434,-8.1215,181.7926],[112.244,-8.129,173.3575],[112.2414,-8.1401,162.1226],[112.2376,-8.1433,156.7229],[112.2367,-8.1422,152.1942],[112.2338,-8.144,145.342],[112.237,-8.1479,149.782],[112.2462,-8.1416,145.0696],[112.2513,-8.1415,162.0],[112.259,-8.1449,164.4223]]]]}}