{"type":"Feature","properties":{"GID_3":"IDN.13.11.1_1","GID_0":"IDN","country":"Indonesia","GID_1":"IDN.13_1","province":"KalimantanSelatan","NL_NAME_1":"NA","GID_2":"IDN.13.11_1","county":"TanahBumbu","NL_NAME_2":"NA","city":"Angsana","VARNAME_3":"NA","NL_NAME_3":"NA","TYPE_3":"Kecamatan","ENGTYPE_3":"Sub-district","CC_3":"6310031","HASC_3":"NA","name":"Angsana.city"},
"geometry":{"type": "MultiPolygon","coordinates": [[[[115.5902,-3.7735,0.0],[115.6084,-3.7702,0.0],[115.6359,-3.7528,0.0],[115.6624,-3.7432,0.0],[115.66,-3.7416,0.2713],[115.6538,-3.7314,2.0851],[115.6494,-3.7118,15.6645],[115.6505,-3.7028,11.5362],[115.6476,-3.6888,16.696],[115.6492,-3.6341,10.3528],[115.6431,-3.6284,10.2302],[115.6367,-3.6075,14.3928],[115.6278,-3.6043,14.6072],[115.6233,-3.6072,20.8682],[115.6163,-3.6069,18.643],[115.585,-3.6017,30.3336],[115.5704,-3.6068,40.0503],[115.5703,-3.6308,17.3435],[115.5438,-3.6446,17.8945],[115.5438,-3.6682,9.8062],[115.5559,-3.6683,18.4153],[115.5562,-3.6917,22.1722],[115.553,-3.7019,11.7574],[115.5481,-3.7069,6.7854],[115.5484,-3.7257,1.3233],[115.5528,-3.7413,12.8388],[115.5588,-3.7445,19.7682],[115.5592,-3.7513,16.2795],[115.5576,-3.7565,16.206],[115.5625,-3.7843,0.0],[115.5792,-3.7763,0.0],[115.5902,-3.7735,0.0]]]]}}