{"type":"Feature","properties":{"GID_3":"IDN.9.11.16_1","GID_0":"IDN","country":"Indonesia","GID_1":"IDN.9_1","province":"JawaBarat","NL_NAME_1":"NA","GID_2":"IDN.9.11_1","county":"Garut","NL_NAME_2":"NA","city":"Cisompet","VARNAME_3":"NA","NL_NAME_3":"NA","TYPE_3":"Kecamatan","ENGTYPE_3":"Sub-district","CC_3":"3205090","HASC_3":"NA","name":"Cisompet.city"},
"geometry":{"type": "MultiPolygon","coordinates": [[[[107.7798,-7.6051,349.0905],[107.7809,-7.6011,379.5838],[107.788,-7.601,233.2562],[107.7908,-7.5963,291.8621],[107.794,-7.595,382.7024],[107.7992,-7.5984,446.9862],[107.8039,-7.6057,218.5182],[107.8162,-7.6071,367.365],[107.8202,-7.6039,422.5954],[107.8242,-7.6045,376.8488],[107.8344,-7.6085,204.5262],[107.8414,-7.6143,107.5571],[107.8457,-7.6151,189.6545],[107.8542,-7.6151,262.3634],[107.8681,-7.6124,480.4279],[107.8769,-7.6143,535.2227],[107.8803,-7.6092,471.9061],[107.8846,-7.6092,447.3151],[107.8879,-7.6071,487.5979],[107.8954,-7.6105,203.2495],[107.8986,-7.6028,250.3307],[107.9026,-7.5985,245.2844],[107.9019,-7.5935,262.1422],[107.8994,-7.5927,278.7182],[107.9001,-7.5885,292.5248],[107.895,-7.5838,305.5731],[107.8948,-7.5788,352.0673],[107.8868,-7.5764,500.0511],[107.8783,-7.5636,691.1511],[107.8775,-7.5556,851.6593],[107.8751,-7.5503,901.6497],[107.8721,-7.5493,903.3505],[107.8681,-7.5504,725.3617],[107.8526,-7.5461,270.4184],[107.8516,-7.5429,270.9542],[107.846,-7.5402,297.4303],[107.8402,-7.5348,348.3688],[107.8368,-7.5268,417.8052],[107.8323,-7.5241,466.4259],[107.8319,-7.5214,492.1632],[107.8257,-7.5207,564.5987],[107.8229,-7.5159,633.5283],[107.8202,-7.5155,661.0886],[107.8177,-7.511,695.3279],[107.8156,-7.5105,726.3855],[107.8076,-7.4941,1193.5232],[107.8072,-7.4786,1406.067],[107.8034,-7.475,1334.1378],[107.8037,-7.4717,1335.5443],[107.8056,-7.4702,1304.776],[107.8049,-7.4658,1397.8501],[107.8084,-7.4586,1302.1492],[107.8018,-7.4538,1417.7183],[107.7915,-7.4496,1481.0317],[107.7844,-7.4525,1391.0142],[107.778,-7.4593,1351.7339],[107.7762,-7.4675,1294.0977],[107.7775,-7.4725,1198.1985],[107.7771,-7.4819,1064.7434],[107.7705,-7.4871,1043.5721],[107.7695,-7.4947,978.6108],[107.7607,-7.5043,996.5781],[107.7579,-7.5138,939.6693],[107.7518,-7.5198,886.2444],[107.7417,-7.5237,886.6088],[107.7481,-7.5373,664.7592],[107.7487,-7.5432,578.9677],[107.7467,-7.5496,598.3525],[107.7374,-7.5586,450.2429],[107.7376,-7.5688,379.5547],[107.7354,-7.5719,339.2405],[107.7495,-7.573,386.0721],[107.7512,-7.5743,354.4393],[107.7526,-7.5819,213.2675],[107.7607,-7.5891,322.6803],[107.7591,-7.5947,346.8509],[107.7525,-7.5978,406.7065],[107.75,-7.604,290.4181],[107.7415,-7.6064,186.4062],[107.7393,-7.6096,145.2548],[107.7428,-7.6161,99.1602],[107.751,-7.6238,127.2085],[107.7556,-7.6237,203.1925],[107.7621,-7.6166,230.3669],[107.7656,-7.6161,203.9108],[107.7684,-7.6181,273.5127],[107.7751,-7.6086,278.8279],[107.7798,-7.6051,349.0905]]]]}}