{"type":"Feature","properties":{"GID_3":"IDN.33.3.3_1","GID_0":"IDN","country":"Indonesia","GID_1":"IDN.33_1","province":"Yogyakarta","NL_NAME_1":"NA","GID_2":"IDN.33.3_1","county":"KotaYogyakarta","NL_NAME_2":"NA","city":"Gondokusuman","VARNAME_3":"NA","NL_NAME_3":"NA","TYPE_3":"Kecamatan","ENGTYPE_3":"Sub-district","CC_3":"3471060","HASC_3":"NA","name":"Gondokusuman.city"},
"geometry":{"type": "MultiPolygon","coordinates": [[[[110.3972,-7.7888,117.4236],[110.3928,-7.7863,120.1124],[110.3905,-7.7804,129.5298],[110.3807,-7.7802,126.9523],[110.3757,-7.7765,130.5174],[110.3754,-7.7746,132.5364],[110.3701,-7.7752,127.4216],[110.3713,-7.7776,120.4922],[110.37,-7.7805,125.0154],[110.3715,-7.7818,116.9853],[110.3681,-7.787,112.7324],[110.3689,-7.79,108.4566],[110.3785,-7.7881,117.8891],[110.378,-7.7979,112.4238],[110.3805,-7.7982,108.5449],[110.3814,-7.7956,112.4759],[110.3825,-7.7972,108.2089],[110.3843,-7.7938,113.8133],[110.3948,-7.7926,115.3053],[110.3972,-7.7888,117.4236]]]]}}