{"type":"Feature","properties":{"GID_3":"IDN.28.10.23_1","GID_0":"IDN","country":"Indonesia","GID_1":"IDN.28_1","province":"SulawesiTenggara","NL_NAME_1":"NA","GID_2":"IDN.28.10_1","county":"Konawe","NL_NAME_2":"NA","city":"WawoniiSelatan","VARNAME_3":"NA","NL_NAME_3":"NA","TYPE_3":"Kecamatan","ENGTYPE_3":"Sub-district","CC_3":"7403071","HASC_3":"NA","name":"Wawonii_Selatan.city"},
"geometry":{"type": "MultiPolygon","coordinates": [[[[123.0653,-4.2458,3.8097],[123.0701,-4.248,0.0],[123.1097,-4.1427,509.6976],[123.0984,-4.1163,526.3791],[123.0787,-4.106,351.4861],[123.0167,-4.1273,259.6934],[122.9798,-4.1442,24.941],[122.9747,-4.1435,17.4198],[122.9723,-4.1413,13.5804],[122.9636,-4.149,0.0],[122.965,-4.1523,0.0],[122.9707,-4.1553,0.0],[122.9749,-4.166,0.0],[122.9813,-4.1685,0.0],[122.99,-4.1914,0.0],[122.9902,-4.201,0.0],[122.9938,-4.2033,0.0],[123.0024,-4.2019,0.0],[123.01,-4.2045,1.8774],[123.0217,-4.2147,0.0],[123.0254,-4.2213,1.2981],[123.0399,-4.23,0.0],[123.0447,-4.2312,10.173],[123.0483,-4.2362,6.1915],[123.0556,-4.2385,0.0],[123.0603,-4.2437,2.0998],[123.0653,-4.2458,3.8097]]]]}}