{"type":"Feature","properties":{"GID_3":"IDN.9.14.15_1","GID_0":"IDN","country":"Indonesia","GID_1":"IDN.9_1","province":"JawaBarat","NL_NAME_1":"NA","GID_2":"IDN.9.14_1","county":"KotaBandung","NL_NAME_2":"NA","city":"Cibiru","VARNAME_3":"NA","NL_NAME_3":"NA","TYPE_3":"Kecamatan","ENGTYPE_3":"Sub-district","CC_3":"3273110","HASC_3":"NA","name":"Cibiru.city"},
"geometry":{"type": "MultiPolygon","coordinates": [[[[107.7376,-6.9051,927.2934],[107.7393,-6.9021,977.9266],[107.7381,-6.8996,968.1614],[107.7342,-6.8993,974.2892],[107.7299,-6.8957,963.4132],[107.7272,-6.8964,930.3747],[107.7261,-6.895,953.7095],[107.723,-6.8989,872.2329],[107.7193,-6.899,846.7017],[107.7167,-6.9051,783.5856],[107.7213,-6.9051,821.0883],[107.7232,-6.9063,801.8709],[107.723,-6.908,788.0603],[107.7126,-6.9152,707.0076],[107.7092,-6.9206,693.8229],[107.7131,-6.9313,675.6772],[107.7187,-6.935,677.2286],[107.7226,-6.9336,689.1315],[107.7269,-6.9247,728.4935],[107.7262,-6.9176,778.6536],[107.7285,-6.917,781.2056],[107.7297,-6.9132,802.7899],[107.7342,-6.9086,874.3613],[107.7365,-6.9093,897.3774],[107.7376,-6.9051,927.2934]]]]}}