{"type":"Feature","properties":{"GID_3":"IDN.14.4.7_1","GID_0":"IDN","country":"Indonesia","GID_1":"IDN.14_1","province":"KalimantanTengah","NL_NAME_1":"NA","GID_2":"IDN.14.4_1","county":"GunungMas","NL_NAME_2":"NA","city":"MiriManasa","VARNAME_3":"NA","NL_NAME_3":"NA","TYPE_3":"Kecamatan","ENGTYPE_3":"Sub-district","CC_3":"6211062","HASC_3":"NA","name":"Miri_Manasa.city"},
"geometry":{"type": "MultiPolygon","coordinates": [[[[113.6694,-0.8196,117.6565],[113.6948,-0.8148,177.3788],[113.679,-0.7736,190.4309],[113.6609,-0.7554,153.3052],[113.6504,-0.738,230.7509],[113.671,-0.6792,201.8219],[113.7017,-0.6403,207.6001],[113.7372,-0.6013,239.0468],[113.7559,-0.5462,945.6418],[113.761,-0.4836,803.7031],[113.7472,-0.4549,690.2249],[113.7357,-0.4402,942.714],[113.7268,-0.4322,610.2346],[113.722,-0.4224,350.3177],[113.7135,-0.4114,357.5593],[113.6975,-0.4049,377.2677],[113.6812,-0.4015,292.7487],[113.6237,-0.393,440.0695],[113.5964,-0.3837,625.0469],[113.5787,-0.3741,721.0439],[113.5359,-0.3419,343.7014],[113.4902,-0.3258,1128.1287],[113.4827,-0.3207,1055.1934],[113.452,-0.3076,780.7958],[113.4446,-0.3252,731.761],[113.444,-0.392,354.928],[113.4384,-0.4059,391.4181],[113.4398,-0.417,307.027],[113.433,-0.4389,428.1501],[113.425,-0.4468,700.5084],[113.4495,-0.5023,353.5432],[113.4522,-0.5348,506.8827],[113.4489,-0.5707,292.6441],[113.4298,-0.6077,273.3219],[113.4189,-0.6351,450.1076],[113.4233,-0.6668,355.1573],[113.4342,-0.7167,337.4331],[113.5292,-0.7164,119.9896],[113.5316,-0.7199,130.6258],[113.532,-0.7716,141.685],[113.5293,-0.8093,133.2758],[113.5303,-0.8366,118.6084],[113.5564,-0.8361,86.4636],[113.5652,-0.8329,98.4833],[113.5898,-0.8302,90.0179],[113.6197,-0.8243,127.1934],[113.6363,-0.8193,121.5949],[113.6694,-0.8196,117.6565]]]]}}