{"type":"Feature","properties":{"GID_3":"IDN.17.5.6_1","GID_0":"IDN","country":"Indonesia","GID_1":"IDN.17_1","province":"Lampung","NL_NAME_1":"NA","GID_2":"IDN.17.5_1","county":"LampungTimur","NL_NAME_2":"NA","city":"GunungPelindung","VARNAME_3":"NA","NL_NAME_3":"NA","TYPE_3":"Kecamatan","ENGTYPE_3":"Sub-district","CC_3":"1804074","HASC_3":"NA","name":"Gunung_Pelindung.city"},
"geometry":{"type": "MultiPolygon","coordinates": [[[[105.7674,-5.4192,30.3824],[105.766,-5.4103,39.0923],[105.7743,-5.4038,12.1982],[105.7842,-5.4018,12.1421],[105.7875,-5.3874,12.0211],[105.7658,-5.3802,33.1085],[105.7485,-5.3883,54.9686],[105.7443,-5.387,50.3528],[105.7413,-5.394,57.0722],[105.7399,-5.394,57.2619],[105.7337,-5.4101,127.1204],[105.7465,-5.4346,53.0573],[105.7433,-5.436,81.3026],[105.7384,-5.4429,73.389],[105.7389,-5.4511,40.6112],[105.7419,-5.4539,36.1729],[105.7413,-5.4629,24.9201],[105.7432,-5.4733,24.1881],[105.7642,-5.4712,7.0418],[105.7686,-5.4588,13.8962],[105.7733,-5.4263,16.4612],[105.7734,-5.424,10.8103],[105.7697,-5.4224,20.1542],[105.7674,-5.4192,30.3824]]]]}}