{"type":"Feature","properties":{"GID_3":"IDN.1.2.8_1","GID_0":"IDN","country":"Indonesia","GID_1":"IDN.1_1","province":"Aceh","NL_NAME_1":"NA","GID_2":"IDN.1.2_1","county":"AcehBarat","NL_NAME_2":"NA","city":"Samatiga","VARNAME_3":"NA","NL_NAME_3":"NA","TYPE_3":"Kecamatan","ENGTYPE_3":"Sub-district","CC_3":"1107060","HASC_3":"NA","name":"Samatiga.city"},
"geometry":{"type": "MultiPolygon","coordinates": [[[[96.0328,4.2005,3.3616],[96.0373,4.2067,0.0],[96.0464,4.2088,1.0178],[96.0602,4.2024,0.0],[96.0752,4.1893,0.7227],[96.0792,4.1985,11.6496],[96.0909,4.2116,8.3298],[96.0992,4.2185,10.8915],[96.103,4.2275,19.8108],[96.1107,4.231,9.4346],[96.1186,4.2383,20.6415],[96.1313,4.2536,27.6801],[96.1546,4.2676,14.9769],[96.1032,4.278,19.1015],[96.0809,4.2804,5.5817],[96.0722,4.2855,20.2899],[96.0703,4.2898,18.7915],[96.0703,4.2958,15.862],[96.0661,4.2967,11.8396],[96.0486,4.3127,14.172],[96.0303,4.3068,11.8974],[96.0254,4.2847,12.2797],[96.0215,4.2799,10.5677],[96.017,4.2775,8.6573],[95.9934,4.2758,4.479],[95.9788,4.2784,0.9107],[95.9737,4.2746,1.086],[95.9692,4.2686,4.7757],[95.9683,4.2644,0.0],[95.9862,4.2475,0.0],[96.0131,4.2181,0.0],[96.0222,4.2053,0.0],[96.0222,4.1979,0.0],[96.0238,4.1948,0.3769],[96.0261,4.1942,0.0],[96.0298,4.1981,0.0],[96.0325,4.1975,1.7115],[96.0328,4.2005,3.3616]]]]}}