{"type":"Feature","properties":{"GID_3":"IDN.23.2.19_1","GID_0":"IDN","country":"Indonesia","GID_1":"IDN.23_1","province":"Papua","NL_NAME_1":"NA","GID_2":"IDN.23.2_1","county":"BiakNumfor","NL_NAME_2":"NA","city":"Yendidori","VARNAME_3":"NA","NL_NAME_3":"NA","TYPE_3":"Distrik","ENGTYPE_3":"District","CC_3":"9409070","HASC_3":"NA","name":"Yendidori.city"},
"geometry":{"type": "MultiPolygon","coordinates": [[[[135.9141,-1.1593,32.3207],[135.9224,-1.1583,0.0],[135.9318,-1.1547,0.0],[135.9354,-1.1492,22.5047],[135.9426,-1.1475,0.0],[135.9429,-1.1457,0.0],[135.9404,-1.1431,0.0],[135.9416,-1.1416,1.9533],[135.944,-1.1421,20.0973],[135.9451,-1.1463,0.0],[135.9513,-1.1466,0.0],[135.9549,-1.1491,7.6806],[135.9655,-1.1486,0.0],[135.9704,-1.1466,6.7104],[135.9783,-1.1473,14.3556],[135.9828,-1.1443,23.6571],[135.989,-1.1447,0.0],[136.0002,-1.1423,13.2677],[136.0172,-1.1445,24.0871],[136.0218,-1.1472,5.3689],[136.0283,-1.1463,0.0],[136.0327,-1.1483,0.0],[136.0357,-1.1474,9.582],[136.0393,-1.1389,101.2094],[136.0382,-1.0995,100.8819],[136.0332,-1.0891,101.2631],[136.0238,-1.0836,104.2739],[136.0183,-1.0758,131.2558],[136.0116,-1.0492,111.3898],[136.0105,-1.0359,134.9182],[135.995,-1.022,127.0048],[135.9817,-1.0159,93.9476],[135.9722,-1.0087,84.1928],[135.9634,-1.006,84.2861],[135.9168,-1.0071,89.4299],[135.9057,-1.0059,86.0535],[135.9051,-1.0269,96.85],[135.9336,-1.0643,97.3478],[135.9219,-1.0815,85.4533],[135.8653,-1.153,106.7362],[135.8574,-1.166,72.5778],[135.8732,-1.1729,18.546],[135.8905,-1.1741,55.519],[135.8983,-1.1777,17.6112],[135.906,-1.178,0.0],[135.9075,-1.1676,15.0032],[135.9123,-1.1633,2.8016],[135.9141,-1.1593,32.3207]]]]}}