{"type":"Feature","properties":{"GID_3":"IDN.31.1.8_1","GID_0":"IDN","country":"Indonesia","GID_1":"IDN.31_1","province":"SumateraSelatan","NL_NAME_1":"NA","GID_2":"IDN.31.1_1","county":"BanyuAsin","NL_NAME_2":"NA","city":"MuaraSugihan","VARNAME_3":"NA","NL_NAME_3":"NA","TYPE_3":"Kecamatan","ENGTYPE_3":"Sub-district","CC_3":"1607081","HASC_3":"NA","name":"Muara_Sugihan.city"},
"geometry":{"type": "MultiPolygon","coordinates": [[[[105.1308,-2.5798,4.6943],[105.1729,-2.5853,5.477],[105.1774,-2.5878,3.8745],[105.1915,-2.5905,4.4669],[105.2013,-2.5905,1.5821],[105.2037,-2.5833,1.7213],[105.2184,-2.5867,1.8669],[105.2284,-2.5871,4.0976],[105.2295,-2.5819,1.9898],[105.2409,-2.5664,2.4066],[105.2473,-2.5548,1.3322],[105.2517,-2.5541,0.7865],[105.2586,-2.5493,2.1922],[105.2623,-2.5436,0.9508],[105.2706,-2.5367,0.861],[105.2722,-2.5262,1.9581],[105.2799,-2.5187,2.0878],[105.2856,-2.5101,1.8241],[105.2896,-2.5081,1.2879],[105.299,-2.5083,0.9242],[105.3029,-2.5036,1.722],[105.3132,-2.4983,2.1384],[105.3145,-2.4954,2.2773],[105.3108,-2.4844,1.4398],[105.3232,-2.4684,2.749],[105.3335,-2.4626,0.8873],[105.3347,-2.4606,2.1547],[105.3347,-2.4501,2.5498],[105.3364,-2.4479,2.1751],[105.3429,-2.4476,3.345],[105.3521,-2.4446,1.3098],[105.3608,-2.4521,3.7331],[105.3675,-2.4455,4.3852],[105.3737,-2.444,3.0545],[105.38,-2.4455,1.0699],[105.3857,-2.4505,2.7346],[105.3926,-2.4487,1.8796],[105.4002,-2.4564,1.3152],[105.4152,-2.4485,1.2472],[105.4168,-2.4481,1.2472],[105.4219,-2.4518,4.3253],[105.4249,-2.4484,4.1728],[105.4285,-2.4474,6.17],[105.4324,-2.4506,3.9972],[105.4441,-2.4505,9.8795],[105.4489,-2.4545,4.2349],[105.4519,-2.4597,1.2387],[105.4592,-2.4581,1.6326],[105.4717,-2.4626,1.3524],[105.473,-2.4619,6.7711],[105.4704,-2.4587,4.5055],[105.47,-2.4551,1.4068],[105.4803,-2.4473,3.3777],[105.4842,-2.4458,12.8612],[105.4875,-2.4488,18.0591],[105.4942,-2.4501,8.0338],[105.4953,-2.4397,11.8787],[105.5207,-2.4269,5.1628],[105.5327,-2.4178,16.805],[105.5577,-2.4132,5.3306],[105.5637,-2.417,0.0],[105.5684,-2.4111,13.4849],[105.5679,-2.4028,0.0],[105.5531,-2.3982,0.0],[105.5111,-2.3908,0.0],[105.4903,-2.3834,0.0],[105.4713,-2.3797,0.0],[105.4484,-2.3876,11.4428],[105.4307,-2.3888,6.1211],[105.4034,-2.387,0.0],[105.4001,-2.3824,0.0],[105.39,-2.3826,0.0],[105.3604,-2.3774,0.0],[105.346,-2.378,9.6288],[105.3322,-2.3737,0.0],[105.3148,-2.3743,3.7289],[105.3038,-2.3714,0.0],[105.2972,-2.3718,1.5785],[105.2856,-2.3652,0.0],[105.2762,-2.3662,8.5033],[105.2761,-2.3616,0.0],[105.2669,-2.3579,0.0],[105.2627,-2.3543,0.0],[105.2521,-2.352,11.5663],[105.2326,-2.3427,4.3504],[105.2214,-2.3303,0.0],[105.2109,-2.3261,0.0],[105.2048,-2.3261,0.0],[105.1595,-2.3469,0.0],[105.1322,-2.3692,14.7125],[105.1209,-2.3738,3.9981],[105.1103,-2.369,0.0],[105.1083,-2.3667,0.0],[105.1021,-2.3671,4.8136],[105.0901,-2.3629,0.0],[105.081,-2.3617,6.975],[105.0839,-2.3648,15.2516],[105.0872,-2.4075,6.3098],[105.0862,-2.4499,10.8592],[105.0835,-2.4669,1.6265],[105.0833,-2.4805,0.0],[105.085,-2.4885,4.0427],[105.0891,-2.4943,1.9479],[105.0856,-2.4982,1.8175],[105.082,-2.5155,2.1973],[105.0827,-2.5227,2.0064],[105.0885,-2.5242,1.9088],[105.0871,-2.5256,2.1448],[105.0849,-2.5589,1.7058],[105.0906,-2.5683,2.6366],[105.0933,-2.5701,3.118],[105.1308,-2.5798,4.6943]]]]}}