{"type":"Feature","properties":{"GID_3":"IDN.21.3.20_1","GID_0":"IDN","country":"Indonesia","GID_1":"IDN.21_1","province":"NusaTenggaraTimur","NL_NAME_1":"NA","GID_2":"IDN.21.3_1","county":"Ende","NL_NAME_2":"NA","city":"Wolowaru","VARNAME_3":"NA","NL_NAME_3":"NA","TYPE_3":"Kecamatan","ENGTYPE_3":"Sub-district","CC_3":"5311050","HASC_3":"NA","name":"Wolowaru.city"},
"geometry":{"type": "MultiPolygon","coordinates": [[[[121.9059,-8.8093,517.5574],[121.9052,-8.8053,498.8199],[121.9088,-8.802,488.5236],[121.9088,-8.799,530.6616],[121.9143,-8.7898,578.3912],[121.9161,-8.7818,585.8793],[121.9115,-8.7709,832.9049],[121.9137,-8.7648,1043.1802],[121.9121,-8.7587,950.0622],[121.9129,-8.7547,899.668],[121.9079,-8.7517,746.8245],[121.9057,-8.7522,698.689],[121.9072,-8.7397,848.2405],[121.9116,-8.7372,1088.2399],[121.9127,-8.7341,1241.3115],[121.9135,-8.7185,1471.7268],[121.9104,-8.7141,1444.9489],[121.9053,-8.717,1289.2891],[121.8994,-8.7134,1417.3496],[121.8953,-8.7181,1524.6676],[121.8888,-8.72,1313.2085],[121.8756,-8.7322,1101.0355],[121.8743,-8.7385,995.6559],[121.8593,-8.7591,627.7979],[121.8604,-8.7649,657.3463],[121.8549,-8.7651,700.9153],[121.8462,-8.7697,861.5696],[121.8447,-8.7724,880.1497],[121.8447,-8.781,812.6655],[121.8451,-8.7868,622.3461],[121.8661,-8.8091,240.7245],[121.8649,-8.8167,131.795],[121.8669,-8.8174,109.1307],[121.8658,-8.8194,113.4889],[121.8734,-8.821,96.5468],[121.8722,-8.825,47.3148],[121.8749,-8.8329,8.3176],[121.8825,-8.8285,1.422],[121.8863,-8.828,0.0],[121.8946,-8.8309,12.2789],[121.9058,-8.8297,10.5536],[121.9101,-8.8319,0.0],[121.9089,-8.8255,125.9492],[121.9014,-8.8186,379.6239],[121.9015,-8.8142,494.5412],[121.9052,-8.8121,545.0714],[121.9059,-8.8093,517.5574]]]]}}