{"type":"Feature","properties":{"GID_3":"IDN.10.9.19_1","GID_0":"IDN","country":"Indonesia","GID_1":"IDN.10_1","province":"JawaTengah","NL_NAME_1":"NA","GID_2":"IDN.10.9_1","county":"Grobogan","NL_NAME_2":"NA","city":"Wirosari","VARNAME_3":"NA","NL_NAME_3":"NA","TYPE_3":"Kecamatan","ENGTYPE_3":"Sub-district","CC_3":"3315100","HASC_3":"NA","name":"Wirosari.city"},
"geometry":{"type": "MultiPolygon","coordinates": [[[[111.1124,-7.1099,42.7634],[111.1114,-7.1063,43.8984],[111.11279999999999,-7.0958,40.7591],[111.109,-7.0906,37.9363],[111.1138,-7.0846,34.4111],[111.1169,-7.087,38.7972],[111.1151,-7.0891,34.0678],[111.116,-7.0921,37.487],[111.1208,-7.0962,36.362],[111.1219,-7.095,36.6375],[111.1197,-7.0929,38.9449],[111.1202,-7.0905,36.5478],[111.127,-7.0901,35.9839],[111.1257,-7.0957,35.8693],[111.1288,-7.0947,35.7222],[111.1307,-7.0966,38.8479],[111.1354,-7.09,43.4104],[111.1327,-7.0764,41.4211],[111.1348,-7.0744,42.8537],[111.1368,-7.0632,49.547],[111.1319,-7.058,57.4068],[111.1292,-7.0511,67.3018],[111.1217,-7.0439,90.9026],[111.1223,-7.0371,83.6846],[111.1375,-7.0268,72.7924],[111.1401,-7.0183,106.5792],[111.1393,-7.016,111.9811],[111.1302,-7.0093,155.0238],[111.1252,-7.0083,140.3928],[111.1214,-7.004,156.6828],[111.1153,-7.0027,167.1183],[111.1135,-6.997,179.1825],[111.1101,-6.9933,164.7665],[111.111,-6.9871,218.5977],[111.1135,-6.9835,215.7216],[111.1135,-6.979,233.758],[111.1113,-6.978,239.5165],[111.1065,-6.9621,264.065],[111.1099,-6.9536,247.6094],[111.1106,-6.9449,267.6755],[111.1131,-6.9403,317.7691],[111.113,-6.9235,228.0673],[111.1159,-6.9148,279.4105],[111.111,-6.9126,189.6365],[111.1108,-6.9159,204.89],[111.1053,-6.9188,177.6733],[111.1007,-6.9265,266.4221],[111.1015,-6.9275,266.4221],[111.099,-6.9284,296.7349],[111.0967,-6.9332,248.1234],[111.0926,-6.9342,260.0621],[111.0904,-6.9371,319.9218],[111.0837,-6.9378,309.4971],[111.0779,-6.9424,300.1051],[111.0785,-6.9455,297.2482],[111.0845,-6.9484,288.9416],[111.085,-6.9502,274.1468],[111.0887,-6.9488,266.6449],[111.0918,-6.9496,259.8054],[111.0912,-6.9539,271.0409],[111.082,-6.9593,364.8148],[111.0755,-6.9613,410.973],[111.0701,-6.9689,415.8693],[111.0637,-6.9691,415.4952],[111.0617,-6.9707,429.6585],[111.0624,-6.9773,439.588],[111.0586,-6.9794,382.9401],[111.0487,-6.9976,217.1834],[111.0495,-7.0017,149.0647],[111.054,-7.0083,112.4332],[111.0531,-7.0113,108.6826],[111.0484,-7.0151,97.6942],[111.0515,-7.0241,92.1635],[111.0499,-7.0301,95.4576],[111.0456,-7.0354,90.0907],[111.0421,-7.0499,89.3159],[111.0334,-7.0544,65.8229],[111.0247,-7.0717,48.533],[111.0243,-7.0828,46.2051],[111.0262,-7.0858,41.8447],[111.0226,-7.0987,27.696],[111.0247,-7.1015,31.4411],[111.0281,-7.1013,27.8554],[111.0253,-7.1033,28.89],[111.0289,-7.1059,33.7935],[111.0267,-7.1099,28.3514],[111.0287,-7.1142,32.9067],[111.0298,-7.1137,32.9067],[111.0291,-7.1104,30.795],[111.0331,-7.1118,32.9423],[111.0327,-7.1078,31.0722],[111.0371,-7.1116,28.1241],[111.0379,-7.1059,33.0216],[111.0394,-7.1081,33.5015],[111.0419,-7.1077,31.3103],[111.0382,-7.1019,31.6852],[111.0402,-7.1031,30.8708],[111.0462,-7.101,31.8416],[111.0501,-7.0917,31.3981],[111.0537,-7.0968,31.1716],[111.0541,-7.0922,32.8471],[111.0562,-7.0941,31.344],[111.0619,-7.0923,29.2611],[111.0627,-7.0951,31.9362],[111.0604,-7.0948,35.133],[111.0618,-7.099,32.3985],[111.0631,-7.1001,38.5774],[111.0632,-7.0983,32.3985],[111.0677,-7.0983,32.8939],[111.0672,-7.1043,37.0818],[111.0709,-7.106,37.0516],[111.0716,-7.1092,35.2054],[111.0739,-7.1081,41.1448],[111.0719,-7.1107,35.6234],[111.0732,-7.1099,35.6234],[111.0764,-7.1118,39.4553],[111.0746,-7.1137,36.3209],[111.0767,-7.1125,39.4553],[111.0881,-7.1132,39.756],[111.0897,-7.114,39.8623],[111.0901,-7.1173,41.1064],[111.0977,-7.1174,42.9743],[111.1077,-7.1211,43.0696],[111.105,-7.1133,42.5726],[111.1114,-7.1126,43.1008],[111.1124,-7.1099,42.7634]]]]}}