{"type":"Feature","properties":{"GID_3":"IDN.23.21.17_1","GID_0":"IDN","country":"Indonesia","GID_1":"IDN.23_1","province":"Papua","NL_NAME_1":"NA","GID_2":"IDN.23.21_1","county":"PegununganBintang","NL_NAME_2":"NA","city":"OkAon","VARNAME_3":"NA","NL_NAME_3":"NA","TYPE_3":"Distrik","ENGTYPE_3":"District","CC_3":"9417028","HASC_3":"NA","name":"Ok_Aon.city"},
"geometry":{"type": "MultiPolygon","coordinates": [[[[140.6744,-4.865,1087.0261],[140.6809,-4.8588,1262.2201],[140.6803,-4.8325,2211.5007],[140.6888,-4.8191,2081.0366],[140.6731,-4.8127,1836.667],[140.6612,-4.8121,1315.8508],[140.6473,-4.7836,1608.9104],[140.6367,-4.7663,1959.9952],[140.6287,-4.7325,2336.8154],[140.6235,-4.7248,2582.2979],[140.6183,-4.7332,2271.2271],[140.5946,-4.7521,2591.5613],[140.5805,-4.7601,2139.842],[140.5436,-4.7762,1770.2908],[140.5614,-4.7873,2033.4485],[140.577,-4.8054,2138.9985],[140.5829,-4.8178,1717.5576],[140.6167,-4.8642,1678.3527],[140.6497,-4.8886,1398.9507],[140.6744,-4.865,1087.0261]]]]}}