{"type":"Feature","properties":{"GID_2":"IDN.28.5_1","GID_0":"IDN","country":"Indonesia","GID_1":"IDN.28_1","province":"SulawesiTenggara","NL_NAME_1":"NA","county":"Kendari","VARNAME_2":"NA","NL_NAME_2":"NA","TYPE_2":"Kota","ENGTYPE_2":"City","CC_2":"7471","HASC_2":"ID.SG.KM","name":"Kendari.county"},
"geometry":{"type": "MultiPolygon","coordinates": [[[[122.5465,-4.0777,127.1185],[122.5739,-4.069,348.698],[122.5751,-4.0699,329.7396],[122.5756,-4.0826,388.8836],[122.5892,-4.084,365.05],[122.5963,-4.0764,420.9],[122.6159,-4.0256,159.8447],[122.6361,-4.0185,132.3508],[122.6511,-4.0027,0.0],[122.6427,-4.003,15.8942],[122.6391,-4.0056,9.9726],[122.637,-4.0033,2.9137],[122.6318,-4.003,0.0],[122.6287,-4.0059,0.7149],[122.6276,-4.0011,0.0],[122.6198,-4.0031,6.2081],[122.6158,-3.9973,0.0],[122.6076,-3.9918,1.99],[122.6078,-3.9891,0.0],[122.6047,-3.9853,3.1883],[122.5996,-3.9846,1.4511],[122.5968,-3.9812,0.0],[122.5936,-3.9811,0.4044],[122.5934,-3.9796,0.4044],[122.5899,-3.9782,0.839],[122.5873,-3.982,16.3595],[122.5871,-3.9802,1.8197],[122.5836,-3.9791,0.0],[122.5839,-3.9804,2.5952],[122.5791,-3.981,0.0],[122.5793,-3.9821,2.2585],[122.5755,-3.983,1.3193],[122.576,-3.984,1.3193],[122.575,-3.9838,1.3193],[122.5737,-3.9807,0.5429],[122.5695,-3.9841,1.0],[122.5663,-3.9842,1.7248],[122.5662,-3.9829,0.0],[122.5597,-3.9853,0.4936],[122.5549,-3.9875,0.7951],[122.5529,-3.9928,1.296],[122.5507,-3.993,4.5863],[122.5507,-3.9912,0.0],[122.5471,-3.9898,0.5],[122.5359,-3.9894,0.0],[122.5371,-3.9834,2.4573],[122.534,-3.9785,1.5979],[122.5327,-3.9788,1.174],[122.5337,-3.9762,0.8317],[122.5317,-3.9744,2.8533],[122.5328,-3.9727,0.0],[122.5312,-3.973,5.0623],[122.53,-3.97,2.094],[122.5364,-3.9669,1.2185],[122.5576,-3.9671,1.9898],[122.5653,-3.9701,0.0],[122.5748,-3.9712,5.0076],[122.5763,-3.9736,0.0],[122.5813,-3.9715,5.9927],[122.584,-3.9743,3.2389],[122.5875,-3.975,0.0],[122.589,-3.9708,4.4415],[122.5908,-3.9735,0.0],[122.592,-3.9731,1.8585],[122.5923,-3.9765,0.0],[122.5992,-3.9791,7.9264],[122.6031,-3.9718,9.0376],[122.6098,-3.9695,0.0],[122.6109,-3.967,0.0],[122.6088,-3.9628,8.8648],[122.6202,-3.962,0.0],[122.622,-3.9595,2.0409],[122.6251,-3.9587,0.0],[122.6261,-3.9492,0.0],[122.6172,-3.9492,62.6298],[122.5949,-3.9412,189.0618],[122.5807,-3.9396,355.6483],[122.5486,-3.9419,271.0201],[122.5389,-3.9411,191.5173],[122.5224,-3.9346,190.264],[122.5067,-3.9091,165.8591],[122.4812,-3.9091,66.3768],[122.4686,-3.9188,4.1456],[122.4518,-3.9403,19.5662],[122.4523,-3.9664,31.9096],[122.4407,-4.0069,97.9078],[122.4405,-4.0183,115.5614],[122.4442,-4.0221,89.4268],[122.4629,-4.0275,54.4648],[122.4701,-4.0323,33.437],[122.4816,-4.0544,24.3062],[122.4863,-4.0515,20.9572],[122.5,-4.0713,30.6605],[122.5141,-4.0681,6.5464],[122.5067,-4.0824,11.3543],[122.5099,-4.0851,6.6933],[122.5152,-4.0858,8.0744],[122.5191,-4.0887,10.3225],[122.5279,-4.0913,14.767],[122.532,-4.0858,32.4766],[122.5465,-4.0777,127.1185]]],
[[[122.6079,-3.9765,4.2407],[122.6041,-3.9759,0.0],[122.5996,-3.9835,5.3324],[122.6039,-3.9825,14.8434],[122.6103,-3.985,4.0968],[122.6115,-3.9923,0.0],[122.6182,-3.9907,0.6893],[122.6176,-3.9857,0.847],[122.61279999999999,-3.9829,3.7892],[122.6133,-3.9805,4.423],[122.6114,-3.9775,0.8981],[122.6079,-3.9765,4.2407]]]]}}