{"type":"Feature","properties":{"GID_3":"IDN.9.14.26_1","GID_0":"IDN","country":"Indonesia","GID_1":"IDN.9_1","province":"JawaBarat","NL_NAME_1":"NA","GID_2":"IDN.9.14_1","county":"KotaBandung","NL_NAME_2":"NA","city":"Regol","VARNAME_3":"NA","NL_NAME_3":"NA","TYPE_3":"Kecamatan","ENGTYPE_3":"Sub-district","CC_3":"3273060","HASC_3":"NA","name":"Regol.city"},
"geometry":{"type": "MultiPolygon","coordinates": [[[[107.6124,-6.9571,676.5989],[107.6164,-6.9562,676.712],[107.6163,-6.9541,677.6763],[107.6224,-6.9531,676.2806],[107.6214,-6.94,687.8728],[107.6171,-6.9335,692.8619],[107.6099,-6.9274,697.7503],[107.6087,-6.9213,705.8121],[107.6042,-6.9208,710.697],[107.6031,-6.9373,692.8604],[107.6063,-6.9376,693.284],[107.6124,-6.9571,676.5989]]]]}}