{"type":"Feature","properties":{"GID_3":"IDN.17.4.27_1","GID_0":"IDN","country":"Indonesia","GID_1":"IDN.17_1","province":"Lampung","NL_NAME_1":"NA","GID_2":"IDN.17.4_1","county":"LampungTengah","NL_NAME_2":"NA","city":"WayPengubuan","VARNAME_3":"NA","NL_NAME_3":"NA","TYPE_3":"Kecamatan","ENGTYPE_3":"Sub-district","CC_3":"1805082","HASC_3":"NA","name":"Way_Pengubuan.city"},
"geometry":{"type": "MultiPolygon","coordinates": [[[[105.0617,-4.9415,54.9785],[105.0704,-4.944,52.6951],[105.0804,-4.9399,49.1894],[105.0674,-4.9097,33.3636],[105.0692,-4.9093,34.8468],[105.0707,-4.912,39.7475],[105.0718,-4.9074,33.3279],[105.0789,-4.9038,33.6946],[105.081,-4.8994,31.557],[105.0861,-4.8978,34.2698],[105.0884,-4.8947,36.708],[105.0872,-4.8937,31.313],[105.0899,-4.8909,32.486],[105.1214,-4.9101,40.3579],[105.1294,-4.9001,35.7887],[105.1415,-4.8997,34.2443],[105.1442,-4.9021,34.8788],[105.1431,-4.9034,32.9931],[105.1451,-4.9057,33.8501],[105.1477,-4.9041,33.2499],[105.1519,-4.9044,33.1526],[105.1574,-4.9003,32.4755],[105.16,-4.9001,30.1537],[105.1608,-4.9024,33.3558],[105.1676,-4.9055,29.8884],[105.1757,-4.9004,27.2489],[105.1768,-4.8986,26.4384],[105.1751,-4.8962,31.5537],[105.1697,-4.8937,29.9648],[105.1643,-4.8936,32.8571],[105.1598,-4.8879,23.9005],[105.1628,-4.8888,23.6631],[105.1624,-4.887,24.2917],[105.1654,-4.886,32.2123],[105.1674,-4.8882,22.4894],[105.1684,-4.8871,27.1058],[105.1691,-4.8698,46.4743],[105.1428,-4.8202,37.6775],[105.1461,-4.8198,38.0461],[105.1531,-4.8151,35.4888],[105.2542,-4.817,28.6732],[105.2592,-4.8182,30.6556],[105.2644,-4.8226,30.4984],[105.2699,-4.822,30.6446],[105.2757,-4.8268,24.7579],[105.2816,-4.8271,24.6399],[105.2858,-4.8218,22.2536],[105.2961,-4.8247,14.3023],[105.2984,-4.8234,15.9457],[105.2981,-4.821,15.9408],[105.2999,-4.8209,15.7407],[105.3004,-4.8191,13.8718],[105.302,-4.8202,24.8502],[105.3045,-4.8179,14.738],[105.3054,-4.8192,17.1938],[105.3066,-4.8107,15.6457],[105.3049,-4.8088,15.2553],[105.308,-4.8081,15.159],[105.3077,-4.806,13.7385],[105.3093,-4.8064,16.3671],[105.3095,-4.8046,13.2492],[105.3113,-4.8044,12.6125],[105.3127,-4.8013,17.142],[105.3118,-4.7988,14.2434],[105.314,-4.7978,19.9509],[105.3177,-4.7992,12.662],[105.3174,-4.7954,16.3119],[105.3197,-4.7952,14.362],[105.3193,-4.7936,19.3835],[105.3212,-4.7943,16.3177],[105.3212,-4.7905,16.2084],[105.3221,-4.7923,12.7036],[105.3229,-4.79,12.6367],[105.3241,-4.7907,12.6367],[105.3245,-4.7772,17.6879],[105.3267,-4.7765,13.318],[105.3287,-4.7781,12.1539],[105.328,-4.7793,10.9391],[105.3293,-4.7783,12.1539],[105.3319,-4.7795,11.9037],[105.3346,-4.7756,11.1003],[105.3389,-4.7745,12.1361],[105.3396,-4.7729,11.3848],[105.3405,-4.7741,10.8868],[105.342,-4.771,15.7528],[105.3396,-4.7696,11.132],[105.3411,-4.7686,16.7077],[105.339,-4.7656,10.5724],[105.3403,-4.7624,16.4007],[105.3367,-4.76,14.6029],[105.3343,-4.7549,11.4314],[105.3107,-4.7569,31.1505],[105.3036,-4.7613,28.0862],[105.3023,-4.7417,26.9944],[105.2975,-4.7442,24.6541],[105.2937,-4.7442,22.7543],[105.2929,-4.7462,26.6069],[105.2891,-4.7472,24.2744],[105.2862,-4.7532,21.4939],[105.2875,-4.7555,21.7457],[105.2872,-4.7624,28.2848],[105.2848,-4.7704,26.0754],[105.2873,-4.773,29.765],[105.2848,-4.7835,28.99],[105.2855,-4.7909,29.7604],[105.2733,-4.794,29.9849],[105.2696,-4.7985,32.3023],[105.2452,-4.8062,33.0161],[105.2373,-4.7851,34.7626],[105.2383,-4.7793,26.9476],[105.2291,-4.7703,30.5985],[105.2121,-4.7834,31.7231],[105.2131,-4.7859,31.2551],[105.2105,-4.7876,31.4306],[105.2073,-4.787,31.8468],[105.2062,-4.784,32.3064],[105.1897,-4.7859,31.9008],[105.1897,-4.7809,31.3888],[105.1837,-4.7801,32.5982],[105.1817,-4.7768,28.4618],[105.1179,-4.7764,31.0244],[105.1018,-4.8077,35.7627],[105.0913,-4.8201,36.9153],[105.0856,-4.8331,35.0157],[105.0676,-4.864,43.2945],[105.0588,-4.8709,44.2532],[105.0533,-4.8726,48.4837],[105.0571,-4.8949,41.1202],[105.0521,-4.8986,43.1193],[105.0525,-4.9268,40.8205],[105.0514,-4.9262,42.4695],[105.0497,-4.931,40.2028],[105.0556,-4.9383,47.4655],[105.0617,-4.9415,54.9785]]]]}}