{"type":"Feature","properties":{"GID_3":"IDN.10.35.8_1","GID_0":"IDN","country":"Indonesia","GID_1":"IDN.10_1","province":"JawaTengah","NL_NAME_1":"NA","GID_2":"IDN.10.35_1","county":"Wonogiri","NL_NAME_2":"NA","city":"Jatipurno","VARNAME_3":"NA","NL_NAME_3":"NA","TYPE_3":"Kecamatan","ENGTYPE_3":"Sub-district","CC_3":"3312230","HASC_3":"NA","name":"Jatipurno.city"},
"geometry":{"type": "MultiPolygon","coordinates": [[[[111.1002,-7.7971,436.7982],[111.0959,-7.8115,368.7887],[111.0934,-7.8161,360.7446],[111.0916,-7.8162,358.4949],[111.0933,-7.8177,354.3105],[111.101,-7.82,372.2876],[111.1032,-7.8188,375.2677],[111.1123,-7.8224,363.2025],[111.1145,-7.82,373.0878],[111.1169,-7.8093,441.6299],[111.1209,-7.8095,445.2744],[111.1221,-7.8126,415.4705],[111.125,-7.8081,434.9646],[111.1273,-7.8114,455.0754],[111.1372,-7.8164,469.4898],[111.142,-7.8172,461.573],[111.1433,-7.8134,482.3603],[111.1492,-7.8168,475.1898],[111.1498,-7.815,485.2936],[111.1548,-7.8161,478.2946],[111.1568,-7.8138,495.2777],[111.1591,-7.8148,497.5092],[111.1587,-7.8176,487.8112],[111.1638,-7.8198,476.4793],[111.1661,-7.8191,470.6971],[111.1637,-7.8139,493.3479],[111.1661,-7.806,530.8808],[111.1636,-7.8014,547.3113],[111.1692,-7.7968,580.4506],[111.1717,-7.7871,631.1852],[111.1756,-7.7834,670.0474],[111.1764,-7.7787,720.444],[111.1735,-7.7677,867.1407],[111.1755,-7.7602,989.5457],[111.1747,-7.7565,998.7281],[111.1722,-7.7559,1080.6936],[111.1682,-7.7585,904.3741],[111.1661,-7.7577,931.5137],[111.1654,-7.7491,1139.5748],[111.1609,-7.7464,1029.3916],[111.1632,-7.7414,1059.3781],[111.1603,-7.7347,1190.2311],[111.1668,-7.7243,1590.1189],[111.1664,-7.7169,1785.1775],[111.1641,-7.7146,1837.0712],[111.1608,-7.7173,1740.2172],[111.1607,-7.7191,1654.6251],[111.1573,-7.7208,1613.75],[111.1548,-7.7199,1599.5295],[111.1469,-7.7246,1149.4602],[111.1363,-7.7428,979.437],[111.126,-7.751,756.8883],[111.1294,-7.7544,821.4742],[111.1271,-7.7593,791.7889],[111.1196,-7.7654,669.6041],[111.1206,-7.7671,683.5777],[111.1191,-7.7745,619.3524],[111.1167,-7.773,610.924],[111.116,-7.7701,599.2791],[111.109,-7.7748,564.6406],[111.1118,-7.7779,567.1119],[111.1096,-7.7814,550.1651],[111.1149,-7.7839,543.188],[111.1121,-7.789,516.0079],[111.1142,-7.7938,480.0209],[111.11279999999999,-7.7984,452.7876],[111.1059,-7.8007,430.2896],[111.1063,-7.7967,460.9834],[111.1027,-7.794,458.6361],[111.1002,-7.7971,436.7982]]]]}}