{"type":"Feature","properties":{"GID_3":"IDN.21.10.5_1","GID_0":"IDN","country":"Indonesia","GID_1":"IDN.21_1","province":"NusaTenggaraTimur","NL_NAME_1":"NA","GID_2":"IDN.21.10_1","county":"Manggarai","NL_NAME_2":"NA","city":"Reok","VARNAME_3":"NA","NL_NAME_3":"NA","TYPE_3":"Kecamatan","ENGTYPE_3":"Sub-district","CC_3":"5313140","HASC_3":"NA","name":"Reok.city"},
"geometry":{"type": "MultiPolygon","coordinates": [[[[120.356,-8.4278,111.1879],[120.3571,-8.4296,125.8742],[120.3644,-8.4289,122.213],[120.3696,-8.4311,102.5177],[120.377,-8.4289,92.8171],[120.3869,-8.4292,84.9687],[120.3861,-8.4261,120.7211],[120.3893,-8.4253,99.779],[120.3908,-8.4304,72.6213],[120.3943,-8.4216,84.0678],[120.398,-8.4218,125.2849],[120.4011,-8.4182,81.2813],[120.4181,-8.4172,70.0888],[120.4215,-8.4126,104.8522],[120.4282,-8.4091,78.9389],[120.4374,-8.4084,60.0223],[120.4404,-8.4119,46.264],[120.4461,-8.4074,54.8148],[120.4513,-8.4073,32.5912],[120.4544,-8.4052,28.7764],[120.4589,-8.4073,24.7356],[120.4686,-8.392,19.8128],[120.4732,-8.3908,23.1356],[120.4745,-8.3861,17.5527],[120.4781,-8.3821,13.4662],[120.478,-8.3675,12.4673],[120.4795,-8.3627,13.7357],[120.4773,-8.3578,12.9521],[120.4787,-8.3536,9.4768],[120.4826,-8.3515,52.6276],[120.4836,-8.3491,10.9169],[120.4819,-8.3417,31.2733],[120.483,-8.3332,26.3906],[120.4797,-8.3288,11.8867],[120.481,-8.318,3.0626],[120.4835,-8.3133,4.9897],[120.4919,-8.3158,0.5],[120.4959,-8.306,0.5],[120.4954,-8.2984,0.0],[120.4928,-8.2927,0.0],[120.4825,-8.2948,9.3522],[120.4657,-8.2952,2.7206],[120.461,-8.2912,4.8429],[120.4593,-8.2867,0.0],[120.4514,-8.2852,2.3897],[120.4501,-8.2814,0.0],[120.4531,-8.2747,0.0],[120.4497,-8.2605,0.0],[120.4449,-8.2555,3.0802],[120.4432,-8.2492,0.0],[120.4321,-8.2445,2.6667],[120.4286,-8.2409,0.0],[120.4194,-8.2441,0.0],[120.4137,-8.2514,13.4512],[120.4144,-8.2625,26.0831],[120.4126,-8.2677,32.3226],[120.4129,-8.2728,33.5766],[120.4079,-8.2807,7.4582],[120.3953,-8.2831,5.1754],[120.388,-8.2881,19.316],[120.3808,-8.2887,6.2371],[120.3781,-8.2868,12.9198],[120.3708,-8.2935,11.0925],[120.3697,-8.2922,3.2276],[120.3674,-8.2942,1.889],[120.3633,-8.2936,3.4237],[120.3607,-8.2955,11.6485],[120.352,-8.289,2.5363],[120.3408,-8.2873,1.6939],[120.3376,-8.2824,3.4433],[120.3349,-8.2814,6.9748],[120.3305,-8.2809,0.0],[120.3235,-8.2835,9.7625],[120.3065,-8.2823,0.0],[120.2983,-8.2849,9.2728],[120.2916,-8.2807,0.0],[120.2897,-8.2862,70.6494],[120.2888,-8.2988,238.6234],[120.2926,-8.3131,341.9325],[120.2908,-8.3177,374.2243],[120.291,-8.3275,206.686],[120.288,-8.3315,244.9127],[120.2861,-8.3398,139.9277],[120.2889,-8.3448,246.4709],[120.289,-8.3571,419.0324],[120.2858,-8.3862,588.1567],[120.283,-8.3917,504.932],[120.2848,-8.4055,525.4242],[120.283,-8.4177,620.438],[120.284,-8.4226,634.1857],[120.2931,-8.4313,392.7383],[120.2958,-8.4397,473.1026],[120.3063,-8.4514,174.8413],[120.3088,-8.4494,189.7263],[120.3126,-8.45,157.1985],[120.3164,-8.4476,154.0931],[120.3174,-8.4447,149.0188],[120.3218,-8.4445,134.7368],[120.3269,-8.4369,161.0509],[120.3313,-8.4358,137.3215],[120.3313,-8.4411,134.4209],[120.3334,-8.4405,129.2132],[120.3382,-8.4365,147.2546],[120.337,-8.4335,126.3963],[120.3456,-8.4262,141.1877],[120.3498,-8.4276,120.2456],[120.3525,-8.4258,116.8076],[120.356,-8.4278,111.1879]]]]}}