{"type":"Feature","properties":{"GID_3":"IDN.21.14.6_1","GID_0":"IDN","country":"Indonesia","GID_1":"IDN.21_1","province":"NusaTenggaraTimur","NL_NAME_1":"NA","GID_2":"IDN.21.14_1","county":"SabuRaijua","NL_NAME_2":"NA","city":"SabuTimur","VARNAME_3":"NA","NL_NAME_3":"NA","TYPE_3":"Kecamatan","ENGTYPE_3":"Sub-district","CC_3":"5320060","HASC_3":"NA","name":"Sabu_Timur.city"},
"geometry":{"type": "MultiPolygon","coordinates": [[[[121.9372,-10.5625,6.2144],[121.9423,-10.5623,3.8963],[121.9474,-10.5578,0.5324],[121.9462,-10.5568,5.011],[121.9505,-10.5564,0.0],[121.9572,-10.5514,0.8262],[121.9621,-10.5499,0.953],[121.9726,-10.549,12.6371],[121.9764,-10.5506,10.9902],[121.9856,-10.551,8.8857],[121.987,-10.5494,1.5443],[121.9882,-10.5457,0.0],[121.9849,-10.5446,12.8683],[121.9853,-10.5426,1.5733],[121.994,-10.5348,1.8028],[121.9926,-10.5327,0.0],[121.9962,-10.5275,4.6683],[121.9972,-10.523,1.2549],[121.993,-10.5172,0.0],[121.9967,-10.5015,0.0],[121.9935,-10.4891,1.8126],[121.9966,-10.482,0.0],[122.0062,-10.4704,0.7546],[122.0082,-10.4641,3.1524],[122.0059,-10.453,2.0214],[122.0019,-10.4456,0.0],[121.9979,-10.4422,1.1001],[121.9881,-10.4409,0.0],[121.9723,-10.4424,0.0],[121.9678,-10.4573,94.3738],[121.9675,-10.4602,88.6792],[121.9693,-10.4625,84.4934],[121.9654,-10.4778,107.0571],[121.9565,-10.4978,120.9634],[121.9576,-10.5059,109.6419],[121.9631,-10.5119,97.0656],[121.9552,-10.5216,111.3204],[121.9541,-10.5309,104.3405],[121.9507,-10.5347,108.6916],[121.9483,-10.5439,96.6402],[121.9427,-10.5511,15.2806],[121.9345,-10.5581,29.5788],[121.9372,-10.5625,6.2144]]]]}}