{"type":"Feature","properties":{"GID_3":"IDN.30.15.2_1","GID_0":"IDN","country":"Indonesia","GID_1":"IDN.30_1","province":"SumateraBarat","NL_NAME_1":"NA","GID_2":"IDN.30.15_1","county":"PesisirSelatan","NL_NAME_2":"NA","city":"BatangKapas","VARNAME_3":"NA","NL_NAME_3":"NA","TYPE_3":"Kecamatan","ENGTYPE_3":"Sub-district","CC_3":"1302080","HASC_3":"NA","name":"Batang_Kapas.city"},
"geometry":{"type": "MultiPolygon","coordinates": [[[[100.4385,-1.503,0.0],[100.4404,-1.5011,0.0],[100.4375,-1.498,3.8277],[100.4362,-1.4999,21.6942],[100.4385,-1.503,0.0]]],
[[[100.5772,-1.4612,7.3524],[100.5945,-1.4818,4.5596],[100.5979,-1.4889,0.0],[100.5976,-1.4924,0.5216],[100.6001,-1.4901,0.0],[100.6034,-1.49,2.6909],[100.6126,-1.4948,0.0],[100.6168,-1.4942,4.5922],[100.621,-1.4979,5.9544],[100.6241,-1.5062,0.0],[100.6235,-1.5105,3.4841],[100.6204,-1.5117,0.0],[100.6205,-1.5186,0.0],[100.635,-1.5165,199.395],[100.6444,-1.517,244.8148],[100.6521,-1.5229,159.498],[100.6563,-1.5181,164.1178],[100.6629,-1.5149,181.8414],[100.6634,-1.5108,236.9796],[100.6716,-1.5045,307.5749],[100.6708,-1.4943,323.3621],[100.6751,-1.4824,496.1282],[100.6752,-1.472,502.6839],[100.6815,-1.4675,529.9921],[100.6898,-1.4561,438.5628],[100.6894,-1.4504,452.6964],[100.6999,-1.4232,342.9476],[100.7007,-1.3992,892.8503],[100.7035,-1.3864,943.707],[100.7154,-1.3595,1151.5261],[100.7353,-1.323,1741.7821],[100.7459,-1.3108,1860.3828],[100.7561,-1.3016,1673.4526],[100.7822,-1.2831,2281.9141],[100.7982,-1.2741,2526.5339],[100.8017,-1.2654,2455.7197],[100.8012,-1.2561,2478.1494],[100.8086,-1.2477,2421.2334],[100.8085,-1.2403,2292.542],[100.8066,-1.2352,2360.0815],[100.793,-1.2391,2007.7809],[100.7523,-1.2601,1669.5544],[100.7341,-1.2665,1485.2908],[100.7159,-1.2761,1283.2433],[100.688,-1.3056,874.9314],[100.6794,-1.328,619.7426],[100.6805,-1.3322,620.3843],[100.6713,-1.3476,514.0477],[100.6711,-1.352,477.7701],[100.6645,-1.3657,401.2925],[100.6623,-1.3674,394.2846],[100.6454,-1.372,331.7704],[100.6396,-1.3711,271.1033],[100.6351,-1.3725,247.6027],[100.6262,-1.3676,527.2708],[100.6164,-1.3692,619.1294],[100.6064,-1.3677,599.4838],[100.5983,-1.36,523.1516],[100.5934,-1.3626,378.541],[100.5869,-1.375,127.2759],[100.5798,-1.3816,0.0],[100.5836,-1.3805,3.3453],[100.5863,-1.3819,10.2536],[100.5873,-1.3894,1.5221],[100.5921,-1.3923,2.9772],[100.5918,-1.3962,1.5361],[100.5879,-1.3964,5.5194],[100.5838,-1.3943,0.0],[100.5736,-1.3942,0.0],[100.5644,-1.3981,0.0],[100.5614,-1.4045,12.0925],[100.5581,-1.4069,0.0],[100.5599,-1.4122,12.8865],[100.562,-1.4138,2.8171],[100.5689,-1.4118,2.1964],[100.5731,-1.4173,0.0],[100.5811,-1.4157,1.7878],[100.5835,-1.4184,0.0],[100.5838,-1.4229,0.0],[100.5784,-1.4264,1.5869],[100.5716,-1.4367,7.966],[100.5677,-1.4394,1.9138],[100.5637,-1.4381,20.6989],[100.5613,-1.4403,51.3758],[100.575,-1.4605,0.0],[100.5772,-1.4612,7.3524]]]]}}