{"type":"Feature","properties":{"GID_3":"IDN.30.15.5_1","GID_0":"IDN","country":"Indonesia","GID_1":"IDN.30_1","province":"SumateraBarat","NL_NAME_1":"NA","GID_2":"IDN.30.15_1","county":"PesisirSelatan","NL_NAME_2":"NA","city":"IvJurai","VARNAME_3":"NA","NL_NAME_3":"NA","TYPE_3":"Kecamatan","ENGTYPE_3":"Sub-district","CC_3":"1302090","HASC_3":"NA","name":"Iv_Jurai.city"},
"geometry":{"type": "MultiPolygon","coordinates": [[[[100.4933,-1.4073,0.0],[100.4926,-1.4054,0.0],[100.491,-1.4062,0.0],[100.4921,-1.4122,5.9564],[100.4937,-1.4097,0.0],[100.4933,-1.4073,0.0]]],
[[[100.4911,-1.3899,0.0],[100.4865,-1.3858,0.0],[100.4828,-1.3869,10.3209],[100.4872,-1.3898,3.1109],[100.4889,-1.3945,99.2268],[100.4878,-1.3944,0.0],[100.4884,-1.3981,0.0],[100.4915,-1.3986,0.0],[100.4924,-1.3933,13.5765],[100.4911,-1.3899,0.0]]],
[[[100.5576,-1.355,1.0957],[100.5603,-1.3542,5.081],[100.5602,-1.3523,0.0],[100.5591,-1.3525,0.0],[100.5576,-1.355,1.0957]]],
[[[100.5635,-1.354,0.0],[100.564,-1.3546,0.0],[100.5646,-1.353,0.0],[100.5637,-1.3534,0.0],[100.5635,-1.354,0.0]]],
[[[100.538,-1.3062,8.7282],[100.5357,-1.3093,6.2422],[100.5416,-1.3096,1.0823],[100.5478,-1.3129,1.6626],[100.5631,-1.3293,1.2466],[100.5685,-1.3378,2.3638],[100.5663,-1.3441,0.0],[100.5634,-1.3452,17.8385],[100.5645,-1.3522,0.0],[100.5684,-1.3497,0.0],[100.5709,-1.3498,0.0],[100.5746,-1.3583,0.0],[100.569,-1.3675,0.6915],[100.5648,-1.3644,0.0],[100.5622,-1.3659,0.0],[100.5626,-1.3692,0.0],[100.5605,-1.3716,0.0],[100.5632,-1.3749,0.0],[100.5733,-1.3699,0.0],[100.5778,-1.3695,6.7756],[100.5799,-1.3726,10.9935],[100.5798,-1.3816,0.0],[100.5869,-1.375,127.2759],[100.5934,-1.3626,378.541],[100.5983,-1.36,523.1516],[100.6064,-1.3677,599.4838],[100.6164,-1.3692,619.1294],[100.6262,-1.3676,527.2708],[100.6351,-1.3725,247.6027],[100.6396,-1.3711,271.1033],[100.6454,-1.372,331.7704],[100.6623,-1.3674,394.2846],[100.6645,-1.3657,401.2925],[100.6711,-1.352,477.7701],[100.6713,-1.3476,514.0477],[100.6805,-1.3322,620.3843],[100.6794,-1.328,619.7426],[100.688,-1.3056,874.9314],[100.7159,-1.2761,1283.2433],[100.7341,-1.2665,1485.2908],[100.7523,-1.2601,1669.5544],[100.793,-1.2391,2007.7809],[100.8066,-1.2352,2360.0815],[100.796,-1.2208,2217.4958],[100.7972,-1.2128,2152.0791],[100.8013,-1.205,2102.2927],[100.7911,-1.1846,2154.3752],[100.7838,-1.1802,2201.4761],[100.7765,-1.1705,2155.5044],[100.7775,-1.1631,2160.7656],[100.7742,-1.1601,2311.8977],[100.7718,-1.1586,2189.3516],[100.7636,-1.1584,2215.4587],[100.7556,-1.1628,2348.5735],[100.7495,-1.1606,2140.1826],[100.7447,-1.1565,1984.1743],[100.7368,-1.1538,1768.288],[100.738,-1.163,2167.8105],[100.7446,-1.1708,2355.2288],[100.7328,-1.1711,2091.9043],[100.71,-1.1831,1801.6697],[100.702,-1.184,1777.2241],[100.6969,-1.1926,1924.1259],[100.6905,-1.1974,1910.9729],[100.6717,-1.1989,1762.6445],[100.6642,-1.1967,1715.2014],[100.6549,-1.199,1614.2911],[100.652,-1.1972,1682.676],[100.6389,-1.1971,1670.8762],[100.6137,-1.2191,995.4706],[100.6103,-1.2178,945.0909],[100.6048,-1.2219,857.0986],[100.6009,-1.2209,816.7792],[100.5923,-1.2301,735.9935],[100.5882,-1.2323,623.6517],[100.5817,-1.2331,536.6887],[100.5801,-1.2348,532.3005],[100.5745,-1.234,478.6971],[100.5702,-1.2395,456.7701],[100.5605,-1.246,283.6212],[100.5477,-1.2621,89.1786],[100.5529,-1.278,9.6792],[100.5555,-1.2917,206.2511],[100.5542,-1.2954,125.8171],[100.5482,-1.3003,66.7795],[100.539,-1.302,12.2796],[100.538,-1.3062,8.7282]]]]}}