{"type":"Feature","properties":{"GID_3":"IDN.30.15.7_1","GID_0":"IDN","country":"Indonesia","GID_1":"IDN.30_1","province":"SumateraBarat","NL_NAME_1":"NA","GID_2":"IDN.30.15_1","county":"PesisirSelatan","NL_NAME_2":"NA","city":"Lengayang","VARNAME_3":"NA","NL_NAME_3":"NA","TYPE_3":"Kecamatan","ENGTYPE_3":"Sub-district","CC_3":"1302060","HASC_3":"NA","name":"Lengayang.city"},
"geometry":{"type": "MultiPolygon","coordinates": [[[[100.7775,-1.738,12.7071],[100.786,-1.7362,14.8076],[100.8015,-1.7261,66.0974],[100.8076,-1.7249,153.6035],[100.8169,-1.7285,274.5403],[100.8223,-1.7409,172.975],[100.8301,-1.7464,235.7555],[100.8421,-1.7499,225.0128],[100.847,-1.7493,343.4211],[100.8504,-1.742,335.8096],[100.8504,-1.7322,308.023],[100.8522,-1.7265,367.0836],[100.8546,-1.7219,325.1636],[100.8618,-1.7176,425.5935],[100.8634,-1.6929,680.119],[100.8579,-1.6672,569.5656],[100.8581,-1.6624,629.9056],[100.863,-1.6506,601.672],[100.8688,-1.641,823.9423],[100.8767,-1.6326,871.4371],[100.8939,-1.6278,1110.2736],[100.8976,-1.625,1122.0366],[100.911,-1.6058,1019.246],[100.9113,-1.5984,1088.3931],[100.9076,-1.5912,1236.5496],[100.9084,-1.5902,1236.5496],[100.9129,-1.5907,997.2101],[100.9287,-1.6003,665.5326],[100.9326,-1.5916,702.0859],[100.9326,-1.5836,786.8448],[100.9261,-1.563,932.3845],[100.9278,-1.5499,950.6626],[100.9248,-1.5422,1026.964],[100.937,-1.5236,1329.8002],[100.9403,-1.5154,1341.8193],[100.9408,-1.508,1315.6781],[100.9368,-1.4943,1562.4309],[100.9376,-1.491,1720.0585],[100.9428,-1.4868,1786.3296],[100.9463,-1.4761,1862.6609],[100.9506,-1.4743,1864.3341],[100.9344,-1.4627,1886.3575],[100.9342,-1.4601,1867.9487],[100.9396,-1.4485,1701.2249],[100.9375,-1.4377,1665.8252],[100.942,-1.4311,1693.9435],[100.9417,-1.4229,1594.1929],[100.9337,-1.4144,1681.7683],[100.8999,-1.3938,1945.4617],[100.8952,-1.3902,1975.6505],[100.8937,-1.3857,1974.0547999999999],[100.8904,-1.3967,2050.7043],[100.8876,-1.3987,2071.6047],[100.8748,-1.4034,1950.0344],[100.8564,-1.4064,1814.7234],[100.8411,-1.4134,1642.3091],[100.8361,-1.4185,1518.6125],[100.8351,-1.4272,1473.2427],[100.828,-1.4282,1381.3652],[100.8263,-1.43,1374.0801],[100.8234,-1.4411,1255.3865],[100.8195,-1.4413,1095.385],[100.8176,-1.4394,1199.5115],[100.8137,-1.4405,1208.2712],[100.8142,-1.448,1077.4569],[100.8128,-1.4521,1125.3373],[100.8047,-1.4585,1235.5408],[100.7878,-1.4632,1098.5316],[100.7809,-1.47,934.1233],[100.7765,-1.4785,958.2683],[100.77,-1.4829,922.5175],[100.7686,-1.485,823.3785],[100.7693,-1.4907,797.4517],[100.767,-1.4955,593.4132],[100.76,-1.5008,576.5303],[100.7587,-1.504,663.5182],[100.7551,-1.5223,547.328],[100.7447,-1.5309,480.4131],[100.7403,-1.5397,536.0659],[100.7412,-1.5512,508.7115],[100.7518,-1.5649,594.8785],[100.7542,-1.571,552.3765],[100.7532,-1.6238,124.39],[100.7502,-1.6333,69.2923],[100.7446,-1.6408,61.4679],[100.7379,-1.6458,14.978],[100.7122,-1.6539,6.2279],[100.7016,-1.6615,5.972],[100.686,-1.6614,0.0],[100.6992,-1.6825,4.9719],[100.7072,-1.6998,1.2166],[100.729,-1.7254,0.0],[100.7545,-1.7619,6.0366],[100.7645,-1.7549,5.6768],[100.7678,-1.7488,7.3372],[100.7775,-1.738,12.7071]]]]}}