{"type":"Feature","properties":{"GID_3":"IDN.30.15.12_1","GID_0":"IDN","country":"Indonesia","GID_1":"IDN.30_1","province":"SumateraBarat","NL_NAME_1":"NA","GID_2":"IDN.30.15_1","county":"PesisirSelatan","NL_NAME_2":"NA","city":"Sutera","VARNAME_3":"NA","NL_NAME_3":"NA","TYPE_3":"Kecamatan","ENGTYPE_3":"Sub-district","CC_3":"1302070","HASC_3":"NA","name":"Sutera.city"},
"geometry":{"type": "MultiPolygon","coordinates": [[[[100.5154,-1.7479,0.0],[100.5174,-1.7485,0.0],[100.5195,-1.7456,0.0],[100.5185,-1.7419,0.0],[100.5155,-1.7393,0.0],[100.5129,-1.741,0.0],[100.5126,-1.7434,0.0],[100.5154,-1.7479,0.0]]],
[[[100.5894,-1.7212,0.6046],[100.5906,-1.7212,3.714],[100.5902,-1.7195,0.0],[100.5893,-1.7199,0.6046],[100.5894,-1.7212,0.6046]]],
[[[100.5069,-1.6636,2.7603],[100.5093,-1.6633,1.9807],[100.5079,-1.6606,0.0],[100.5064,-1.6615,8.6032],[100.5069,-1.6636,2.7603]]],
[[[100.5539,-1.6058,2.0146],[100.5549,-1.6058,0.0],[100.555,-1.6042,0.0],[100.5536,-1.6045,0.0],[100.5539,-1.6058,2.0146]]],
[[[100.6882,-1.6613,3.5208],[100.7016,-1.6615,5.972],[100.7122,-1.6539,6.2279],[100.7379,-1.6458,14.978],[100.7446,-1.6408,61.4679],[100.7502,-1.6333,69.2923],[100.7532,-1.6238,124.39],[100.7542,-1.571,552.3765],[100.7518,-1.5649,594.8785],[100.7412,-1.5512,508.7115],[100.7403,-1.5397,536.0659],[100.7447,-1.5309,480.4131],[100.7551,-1.5223,547.328],[100.7587,-1.504,663.5182],[100.76,-1.5008,576.5303],[100.767,-1.4955,593.4132],[100.7693,-1.4907,797.4517],[100.7686,-1.485,823.3785],[100.77,-1.4829,922.5175],[100.7765,-1.4785,958.2683],[100.7809,-1.47,934.1233],[100.7878,-1.4632,1098.5316],[100.8047,-1.4585,1235.5408],[100.8128,-1.4521,1125.3373],[100.8142,-1.448,1077.4569],[100.8137,-1.4405,1208.2712],[100.8176,-1.4394,1199.5115],[100.8195,-1.4413,1095.385],[100.8234,-1.4411,1255.3865],[100.8263,-1.43,1374.0801],[100.828,-1.4282,1381.3652],[100.8351,-1.4272,1473.2427],[100.8361,-1.4185,1518.6125],[100.8411,-1.4134,1642.3091],[100.8564,-1.4064,1814.7234],[100.8748,-1.4034,1950.0344],[100.8876,-1.3987,2071.6047],[100.8904,-1.3967,2050.7043],[100.8937,-1.3857,1974.0547999999999],[100.8979,-1.3801,1990.4346],[100.9062,-1.3795,1956.761],[100.9105,-1.3764,1957.783],[100.9056,-1.3596,2074.2832],[100.892,-1.3414,2122.3176],[100.8923,-1.3383,1997.9584],[100.896,-1.3338,2088.7666],[100.8959,-1.3298,2069.1047],[100.8932,-1.3284,2078.498],[100.8845,-1.3286,1987.5146],[100.8804,-1.3252,1921.4165],[100.8749,-1.319,1917.8203],[100.8719,-1.312,2023.0297],[100.8652,-1.3077,2119.4482],[100.859,-1.2979,2072.4934],[100.8537,-1.2966,2140.8076],[100.8465,-1.3046,2317.1895],[100.841,-1.3066,2300.3623],[100.837,-1.3056,2429.9307],[100.829,-1.2971,2486.2246],[100.8283,-1.2871,2336.8469],[100.8205,-1.2818,2474.3328],[100.8141,-1.289,2236.8093],[100.8028,-1.283,2589.1079],[100.8013,-1.2835,2536.7524],[100.7988,-1.2804,2536.6082],[100.7982,-1.2741,2526.5339],[100.7822,-1.2831,2281.9141],[100.7561,-1.3016,1673.4526],[100.7459,-1.3108,1860.3828],[100.7353,-1.323,1741.7821],[100.7299,-1.3317,1356.8258],[100.7035,-1.3864,943.707],[100.7007,-1.3992,892.8503],[100.6999,-1.4232,342.9476],[100.6894,-1.4504,452.6964],[100.6898,-1.4561,438.5628],[100.6815,-1.4675,529.9921],[100.6752,-1.472,502.6839],[100.6751,-1.4824,496.1282],[100.6708,-1.4943,323.3621],[100.6716,-1.5045,307.5749],[100.6634,-1.5108,236.9796],[100.6629,-1.5149,181.8414],[100.6563,-1.5181,164.1178],[100.6521,-1.5229,159.498],[100.6444,-1.517,244.8148],[100.6304,-1.5171,82.8797],[100.6196,-1.5198,0.0],[100.6193,-1.5272,0.0],[100.6359,-1.5595,0.0],[100.6369,-1.5744,0.0],[100.6353,-1.5832,0.0],[100.6411,-1.5964,0.0],[100.6405,-1.6013,0.0],[100.6369,-1.6058,0.0],[100.6436,-1.6166,5.0312],[100.6441,-1.6214,0.0],[100.6673,-1.6405,0.7873],[100.686,-1.6614,0.0],[100.6882,-1.6613,3.5208]]],
[[[100.6281,-1.5865,0.0],[100.6288,-1.5864,0.0],[100.6288,-1.5856,0.0],[100.6284,-1.5858,0.0],[100.6281,-1.5865,0.0]]],
[[[100.6165,-1.5475,0.0],[100.6169,-1.5474,0.0],[100.6169,-1.5471,0.0],[100.6166,-1.5471,0.0],[100.6165,-1.5475,0.0]]]]}}