{"type":"Feature","properties":{"GID_3":"IDN.10.22.4_1","GID_0":"IDN","country":"Indonesia","GID_1":"IDN.10_1","province":"JawaTengah","NL_NAME_1":"NA","GID_2":"IDN.10.22_1","county":"Pekalongan","NL_NAME_2":"NA","city":"Kajen","VARNAME_3":"NA","NL_NAME_3":"NA","TYPE_3":"Kecamatan","ENGTYPE_3":"Sub-district","CC_3":"3326080","HASC_3":"NA","name":"Kajen.city"},
"geometry":{"type": "MultiPolygon","coordinates": [[[[109.601,-7.0492,98.6075],[109.5997,-7.0477,82.3374],[109.5995,-7.0391,65.5727],[109.6009,-7.0297,66.9024],[109.6042,-7.0217,59.6368],[109.5948,-7.0164,44.9538],[109.5955,-7.0139,44.3621],[109.5991,-7.0118,47.2792],[109.5974,-7.0099,40.5909],[109.5986,-7.0071,38.3955],[109.5941,-7.0049,32.6609],[109.6021,-7.003,34.1646],[109.6032,-6.9976,32.2916],[109.6017,-6.995,28.3161],[109.6032,-6.9907,24.7696],[109.5999,-6.9916,30.4465],[109.5939,-6.988,48.8045],[109.5856,-6.9912,57.9632],[109.5803,-6.9908,48.4045],[109.5748,-6.9941,72.9893],[109.5679,-7.0063,17.2351],[109.5633,-7.0079,14.4955],[109.5603,-7.0048,14.3076],[109.5578,-7.0044,23.7978],[109.5562,-7.0061,14.9977],[109.5522,-7.0053,18.0636],[109.551,-7.0064,15.6385],[109.5545,-7.0081,17.2147],[109.5568,-7.0134,16.4083],[109.5515,-7.0184,17.2267],[109.5526,-7.0218,18.9981],[109.5504,-7.0208,18.7701],[109.5504,-7.0233,20.9578],[109.5483,-7.0237,19.6916],[109.5519,-7.0241,20.5923],[109.5508,-7.0267,21.5114],[109.553,-7.028,21.1597],[109.5537,-7.031,19.9448],[109.5517,-7.0353,22.0203],[109.5536,-7.0352,20.4376],[109.5534,-7.0367,23.3718],[109.5501,-7.0374,22.5094],[109.5508,-7.0419,23.6748],[109.5491,-7.0415,24.1642],[109.5471,-7.0434,22.9331],[109.5439,-7.0426,23.0437],[109.5446,-7.0296,17.7158],[109.5388,-7.0279,17.9101],[109.5378,-7.032,18.9392],[109.5415,-7.041,20.9649],[109.5401,-7.0453,21.1464],[109.5435,-7.0457,20.2976],[109.544,-7.0525,20.2956],[109.5385,-7.0534,21.0401],[109.5387,-7.0565,20.918],[109.5326,-7.0579,29.4929],[109.5313,-7.0609,67.4534],[109.5248,-7.0657,92.0886],[109.5246,-7.0711,73.0844],[109.5306,-7.0717,166.3065],[109.5366,-7.0789,193.1223],[109.5344,-7.0921,165.4299],[109.5379,-7.0929,201.6245],[109.5399,-7.096,205.9522],[109.5417,-7.0952,216.8754],[109.5487,-7.0994,238.6284],[109.5489,-7.0975,277.8312],[109.5532,-7.0965,293.6559],[109.5588,-7.0998,310.1054],[109.5607,-7.1033,347.4272],[109.568,-7.1038,382.4124],[109.5753,-7.1103,451.1162],[109.5797,-7.1107,468.9767],[109.5841,-7.1142,486.9066],[109.5889,-7.1132,508.8125],[109.5888,-7.1158,513.2052],[109.5934,-7.1163,543.137],[109.5939,-7.1186,559.9831],[109.5965,-7.1186,557.9681],[109.5988,-7.1218,595.5229],[109.616,-7.1221,947.8818],[109.6199,-7.125,1064.8585],[109.6202,-7.117,917.7878],[109.611,-7.1051,731.3785],[109.6097,-7.092,671.5931],[109.606,-7.0881,455.7863],[109.6038,-7.0814,398.3359],[109.6047,-7.0707,239.5335],[109.6035,-7.0652,241.3008],[109.6066,-7.0559,124.6628],[109.601,-7.0492,98.6075]]]]}}