{"type":"Feature","properties":{"GID_3":"IDN.10.20.16_1","GID_0":"IDN","country":"Indonesia","GID_1":"IDN.10_1","province":"JawaTengah","NL_NAME_1":"NA","GID_2":"IDN.10.20_1","county":"Magelang","NL_NAME_2":"NA","city":"Sawangan","VARNAME_3":"NA","NL_NAME_3":"NA","TYPE_3":"Kecamatan","ENGTYPE_3":"Sub-district","CC_3":"3308090","HASC_3":"NA","name":"Sawangan.city"},
"geometry":{"type": "MultiPolygon","coordinates": [[[[110.3124,-7.5452,477.978],[110.3149,-7.5437,490.2828],[110.3199,-7.5439,510.5215],[110.3334,-7.5382999999999996,569.4584],[110.3398,-7.5346,603.0416],[110.3427,-7.531,618.5262],[110.3482,-7.5297,650.2119],[110.3531,-7.5233,685.969],[110.3592,-7.5198,718.921],[110.3705,-7.5178,783.2164],[110.3779,-7.5136,866.3813],[110.3803,-7.5138,871.1917],[110.3801,-7.5117,857.7109],[110.3894,-7.5068,981.127],[110.394,-7.5003,1022.8079],[110.3953,-7.5007,1027.6772],[110.3957,-7.4984,1052.2228],[110.4022,-7.499,1077.3643],[110.4063,-7.4974,1108.5508],[110.4082,-7.4991,1134.5],[110.411,-7.4968,1159.0059],[110.4158,-7.496,1217.1626],[110.4328,-7.4785,1903.7693],[110.4353,-7.4694,2414.6011],[110.4342,-7.4652,2574.2383],[110.4393,-7.4536,3063.446],[110.4352,-7.4504,2822.0957],[110.4113,-7.4563,1782.1895],[110.4059,-7.4589,1555.0481],[110.4052,-7.4606,1527.5493],[110.3968,-7.4623,1413.7346],[110.3851,-7.47,1250.0107],[110.3765,-7.4714,1186.7889],[110.3703,-7.4763,1115.88],[110.3599,-7.4778,1027.2468],[110.3472,-7.492,810.6465],[110.3339,-7.4944,727.9763],[110.3266,-7.4984,669.7532],[110.32,-7.5046,659.8988],[110.3074,-7.5115,550.7095],[110.2941,-7.5165,487.2282],[110.2912,-7.5198,452.0681],[110.2885,-7.5186,430.9481],[110.2802,-7.525,403.9885],[110.2688,-7.527,362.9059],[110.2722,-7.5345,383.5457],[110.2768,-7.5341,394.2166],[110.2803,-7.5368,390.7712],[110.2792,-7.5427,382.5252],[110.2812,-7.5449,385.0463],[110.2799,-7.5458,385.0463],[110.2815,-7.5459,385.0463],[110.2837,-7.5495,391.523],[110.2799,-7.5502,383.757],[110.2819,-7.5561,385.7401],[110.2791,-7.5586,373.3344],[110.2799,-7.5618,365.0637],[110.2851,-7.5619,380.3875],[110.2862,-7.5584,390.285],[110.2888,-7.5566,396.6294],[110.3002,-7.5509,435.9356],[110.3049,-7.5468,455.3715],[110.3124,-7.5452,477.978]]]]}}