{"type":"Feature","properties":{"GID_3":"IDN.26.4.1_1","GID_0":"IDN","country":"Indonesia","GID_1":"IDN.26_1","province":"SulawesiSelatan","NL_NAME_1":"NA","GID_2":"IDN.26.4_1","county":"Bulukumba","NL_NAME_2":"NA","city":"BontoBahari","VARNAME_3":"NA","NL_NAME_3":"NA","TYPE_3":"Kecamatan","ENGTYPE_3":"Sub-district","CC_3":"7302030","HASC_3":"NA","name":"Bonto_Bahari.city"},
"geometry":{"type": "MultiPolygon","coordinates": [[[[120.479,-5.6762,1.0708],[120.4768,-5.676,0.0],[120.4737,-5.6807,9.3757],[120.4793,-5.6808,9.1567],[120.479,-5.6762,1.0708]]],
[[[120.4293,-5.6393,0.0],[120.425,-5.6403,2.7165],[120.4205,-5.6482,0.6107],[120.4205,-5.6511,0.5549],[120.4215,-5.6555,0.0],[120.4249,-5.6594,2.7297],[120.4298,-5.6609,0.8048],[120.4335,-5.6596,0.0],[120.442,-5.6517,0.0],[120.4456,-5.6447,4.7882999999999996],[120.4435,-5.6418,5.2102],[120.4353,-5.6422,4.5028],[120.4293,-5.6393,0.0]]],
[[[120.4594,-5.5733,0.0],[120.4483,-5.5684,19.0261],[120.4452,-5.5572,0.0],[120.446,-5.5511,41.6527],[120.4509,-5.5484,13.3002],[120.4489,-5.5403,21.9825],[120.4501,-5.538,0.0],[120.4489,-5.5308,5.8922],[120.4467,-5.5265,32.4445],[120.4485,-5.5117,8.938],[120.4472,-5.5069,0.0],[120.4313,-5.5083,153.594],[120.4216,-5.5054,210.9361],[120.4061,-5.5076,190.6124],[120.394,-5.5045,130.7606],[120.3777,-5.5043,98.7801],[120.3739,-5.5016,88.0155],[120.3787,-5.4977,102.137],[120.3761,-5.4911,113.1681],[120.3731,-5.4877,110.4831],[120.367,-5.4846,91.9488],[120.3672,-5.4823,96.284],[120.3587,-5.4704,77.6227],[120.3545,-5.4739,84.1227],[120.3516,-5.4743,51.1579],[120.341,-5.4856,18.8227],[120.3297,-5.4932,6.2667],[120.3316,-5.4951,11.3005],[120.3304,-5.4984,7.0285],[120.3333,-5.4985,6.9965],[120.3312,-5.5033,1.479],[120.3292,-5.5033,0.5],[120.3307,-5.505,1.1763],[120.3298,-5.5062,1.1763],[120.3271,-5.5065,1.1967],[120.3276,-5.5042,0.5],[120.3248,-5.5046,0.5],[120.3232,-5.5091,1.4747],[120.3182,-5.5066,2.0931],[120.3193,-5.5094,1.6334],[120.3421,-5.5123,13.4823],[120.3521,-5.5195,0.0],[120.3648,-5.5357,3.468],[120.3801,-5.5707,3.4931],[120.3943,-5.5869,0.0],[120.4271,-5.609,2.573],[120.4354,-5.6118,0.0],[120.4425,-5.608,0.0],[120.4485,-5.6085,3.2687],[120.4559,-5.6145,1.3986],[120.4603,-5.6205,3.7139],[120.4674,-5.6196,0.0],[120.4721,-5.6227,3.4958],[120.4732,-5.6195,20.2787],[120.4683,-5.6147,15.0989],[120.4673,-5.6098,10.6211],[120.4684,-5.6086,0.0],[120.467,-5.6097,10.6211],[120.4632,-5.6071,33.2725],[120.4639,-5.6053,0.5369],[120.4667,-5.6052,0.0],[120.4681,-5.6076,0.0],[120.4668,-5.605,0.0],[120.4642,-5.6051,0.5369],[120.4626,-5.6027,8.3146],[120.4616,-5.5932,0.0],[120.463,-5.5838,24.0528],[120.4594,-5.5733,0.0]]]]}}