{"type":"Feature","properties":{"GID_3":"IDN.9.23.13_1","GID_0":"IDN","country":"Indonesia","GID_1":"IDN.9_1","province":"JawaBarat","NL_NAME_1":"NA","GID_2":"IDN.9.23_1","county":"Subang","NL_NAME_2":"NA","city":"Jalancagak","VARNAME_3":"NA","NL_NAME_3":"NA","TYPE_3":"Kecamatan","ENGTYPE_3":"Sub-district","CC_3":"3213020","HASC_3":"NA","name":"Jalancagak.city"},
"geometry":{"type": "MultiPolygon","coordinates": [[[[107.6744,-6.7083,758.6721],[107.6724,-6.7117,785.7294],[107.6818,-6.7125,704.3795],[107.6888,-6.7038,653.814],[107.6899,-6.7051,610.4409],[107.6889,-6.7072,651.6829],[107.6942,-6.7057,588.6212],[107.6925,-6.713,648.4598],[107.6994,-6.7116,601.2867],[107.7026,-6.7082,583.9602],[107.6953,-6.7054,585.4382],[107.6985,-6.6979,568.7279],[107.7025,-6.697,562.9997],[107.7046,-6.6906,541.7025],[107.7029,-6.6856,517.0734],[107.7039,-6.6839,515.756],[107.7127,-6.6872,523.3721],[107.7188,-6.6949,501.0076],[107.7233,-6.6862,504.0831],[107.7333,-6.6905,485.2339],[107.7359,-6.6894,488.7542],[107.7416,-6.6785,484.5653],[107.7487,-6.6818,496.9252],[107.7483,-6.6765,466.6389],[107.7496,-6.6748,519.5963],[107.7479,-6.672,491.3811],[107.7489,-6.6691,573.4264],[107.7479,-6.6659,535.4401],[107.7442,-6.666,514.3649],[107.7343,-6.6489,436.6942],[107.7321,-6.6495,447.6509],[107.7289,-6.6476,413.5133],[107.7247,-6.6429,379.6052],[107.7233,-6.6387,434.8078],[107.7199,-6.638,553.3846],[107.7132,-6.633,533.8724],[107.7118,-6.6267,297.6674],[107.6965,-6.6248,365.3889],[107.6887,-6.6338,446.2498],[107.6821,-6.6331,503.8344],[107.6764,-6.6359,480.761],[107.6772,-6.6406,547.7613],[107.6727,-6.6469,473.5811],[107.6759,-6.6552,426.3545],[107.6744,-6.6614,460.319],[107.666,-6.6729,495.4234],[107.6657,-6.6701,496.6997],[107.6634,-6.6737,512.888],[107.6613,-6.6737,507.595],[107.6623,-6.677,545.2708],[107.6562,-6.6828,580.1778],[107.6556,-6.6863,626.114],[107.6614,-6.6896,612.7107],[107.6605,-6.6946,640.7893],[107.6645,-6.7,678.7371],[107.6707,-6.6981,719.717],[107.6744,-6.7001,696.3491],[107.6799,-6.6985,658.4863],[107.6793,-6.7036,693.5925],[107.6744,-6.7083,758.6721]]]]}}