{"type":"Feature","properties":{"GID_3":"IDN.17.2.1_1","GID_0":"IDN","country":"Indonesia","GID_1":"IDN.17_1","province":"Lampung","NL_NAME_1":"NA","GID_2":"IDN.17.2_1","county":"LampungBarat","NL_NAME_2":"NA","city":"BalikBukit","VARNAME_3":"NA","NL_NAME_3":"NA","TYPE_3":"Kecamatan","ENGTYPE_3":"Sub-district","CC_3":"1801040","HASC_3":"NA","name":"Balik_Bukit.city"},
"geometry":{"type": "MultiPolygon","coordinates": [[[[104.0977,-5.0869,791.8897],[104.1047,-5.0728,862.2072],[104.115,-5.0599,988.3567],[104.1199,-5.0428,1101.2272],[104.1285,-5.0344,865.9098],[104.1291,-5.0314,847.2762],[104.125,-5.0158,852.2624],[104.1301,-5.0066,799.6379],[104.13,-4.9997,837.4751],[104.1397,-4.991,818.976],[104.1404,-4.9846,808.7361],[104.1374,-4.9814,871.6704],[104.1415,-4.9783,905.3912],[104.1421,-4.9751,929.2422],[104.1413,-4.9657,1091.1001],[104.144,-4.9539,1288.4236],[104.1431,-4.9448,1527.9388],[104.1452,-4.9388,1831.1548],[104.1422,-4.9332,1940.1539],[104.1426,-4.9249,2094.8398],[104.1406,-4.9229,1934.8984],[104.1324,-4.9221,1553.3538],[104.1228,-4.9266,1319.9375],[104.118,-4.9257,1237.8644],[104.1156,-4.9291,1141.7959],[104.1031,-4.9368,965.3045],[104.104,-4.9548,838.7715],[104.0984,-4.9558,825.0732],[104.0934,-4.9535,810.4659],[104.0933,-4.9561,809.4867],[104.0856,-4.961,789.7643],[104.0925,-4.9767,862.746],[104.0871,-4.9978,849.8718],[104.0708,-5.0103,897.3699],[104.0571,-5.0011,911.5897],[104.0394,-4.995,914.8026],[104.0238,-4.967,941.3411],[104.0134,-4.9654,942.5119],[104.0113,-4.9672,921.811],[104.0104,-4.9722,954.5753],[104.0082,-4.9735,965.1737],[103.9914,-4.9693,1037.2604],[103.9809,-4.9761,1178.8881],[103.9797,-4.9793,1218.3259],[103.9814,-4.9868,1116.2347],[103.9793,-5.0007,1035.3704],[103.9839,-5.0034,989.1381],[103.9958,-5.0159,1084.5874],[104.0121,-5.0245,1114.9204],[104.0215,-5.0398,1152.0151],[104.0227,-5.0438,1135.0327],[104.0218,-5.0496,1004.9207],[104.0189,-5.0531,948.5712],[104.0178,-5.0581,857.0919],[104.0174,-5.07,620.2538],[104.0088,-5.0821,441.6133],[104.0168,-5.093,761.696],[104.0295,-5.0835,825.7979],[104.0344,-5.0843,821.6564],[104.0433,-5.0907,918.4869],[104.0583,-5.0921,975.2943],[104.0793,-5.1092,710.4376],[104.0831,-5.1159,643.9874],[104.0863,-5.1158,666.4848],[104.0918,-5.1097,704.0624],[104.09,-5.101,699.1906],[104.0932,-5.0918,724.9641],[104.0977,-5.0869,791.8897]]]]}}