{"type":"Feature","properties":{"GID_3":"IDN.20.6.11_1","GID_0":"IDN","country":"Indonesia","GID_1":"IDN.20_1","province":"NusaTenggaraBarat","NL_NAME_1":"NA","GID_2":"IDN.20.6_1","county":"LombokTimur","NL_NAME_2":"NA","city":"Sakra","VARNAME_3":"NA","NL_NAME_3":"NA","TYPE_3":"Kecamatan","ENGTYPE_3":"Sub-district","CC_3":"5203020","HASC_3":"NA","name":"Sakra.city"},
"geometry":{"type": "MultiPolygon","coordinates": [[[[116.4865,-8.7064,157.642],[116.488,-8.706,155.5726],[116.4879,-8.7033,163.2362],[116.4972,-8.7024,155.5036],[116.4952,-8.6989,163.9946],[116.4969,-8.6951,161.0961],[116.4925,-8.6904,166.7883],[116.4896,-8.6828,180.2437],[116.4904,-8.6804,179.6514],[116.4987,-8.6796,170.1121],[116.5112,-8.6744,153.5038],[116.5092,-8.6686,159.2946],[116.5072,-8.6675,162.286],[116.5074,-8.6621,169.4787],[116.5091,-8.659,167.6667],[116.507,-8.6584,169.6152],[116.5068,-8.6533,170.91],[116.5034,-8.6538,174.4011],[116.5015,-8.651,187.3608],[116.4996,-8.6512,189.948],[116.4922,-8.6573,190.9128],[116.4931,-8.66,178.75],[116.4849,-8.6641,190.5524],[116.4788,-8.6549,209.6613],[116.4691,-8.6553,227.5867],[116.4654,-8.6582,234.4098],[116.4671,-8.6631,230.2201],[116.471,-8.6632,222.8867],[116.4719,-8.6673,214.0944],[116.4706,-8.6683,212.5006],[116.4546,-8.6749,243.9673],[116.4489,-8.674,258.7141],[116.4349,-8.6792,257.6466],[116.435,-8.6874,253.8683],[116.4381,-8.6879,258.3109],[116.4373,-8.6901,252.2874],[116.4397,-8.693,252.5895],[116.4389,-8.6953,244.3052],[116.4412,-8.6957,244.5065],[116.4419,-8.6978,234.1953],[116.449,-8.7,228.4695],[116.4543,-8.6996,219.1054],[116.4558,-8.6947,217.409],[116.4571,-8.6971,217.6619],[116.4614,-8.6993,212.8575],[116.4643,-8.6995,199.0659],[116.4656,-8.6979,208.4528],[116.4715,-8.6989,195.2629],[116.4727,-8.7006,186.8128],[116.4731,-8.6993,195.2629],[116.4752,-8.7,183.5286],[116.4792,-8.6975,177.9425],[116.4813,-8.7039,178.8285],[116.4865,-8.7064,157.642]]]]}}