{"type":"Feature","properties":{"GID_3":"IDN.1.11.3_1","GID_0":"IDN","country":"Indonesia","GID_1":"IDN.1_1","province":"Aceh","NL_NAME_1":"NA","GID_2":"IDN.1.11_1","county":"AcehUtara","NL_NAME_2":"NA","city":"BandaBaro","VARNAME_3":"NA","NL_NAME_3":"NA","TYPE_3":"Kecamatan","ENGTYPE_3":"Sub-district","CC_3":"1111022","HASC_3":"NA","name":"Banda_Baro.city"},
"geometry":{"type": "MultiPolygon","coordinates": [[[[96.9675,5.1642,36.4094],[96.9697,5.1708,33.6613],[96.9644,5.1842,30.6701],[96.971,5.1859,31.3117],[96.9907,5.1854,27.1296],[96.999,5.2014,7.0768],[97.006,5.2023,22.3872],[97.0068,5.2039,22.7084],[97.0009,5.2111,17.701],[96.9998,5.2152,19.5642],[96.9969,5.2152,3.4503],[96.9967,5.2205,11.87],[96.9898,5.2165,3.0056],[96.9901,5.2227,21.8327],[96.9866,5.2255,19.6451],[96.9839,5.2262,16.936],[96.9832,5.2202,19.059],[96.98,5.2166,2.8611],[96.9783,5.2167,2.3581],[96.9756,5.2101,3.4702],[96.9705,5.2106,6.6089],[96.9686,5.2061,6.7249],[96.9659,5.206,9.5567],[96.962,5.2015,11.103],[96.9613,5.1979,13.2738],[96.9575,5.198,14.9114],[96.9555,5.1936,20.2381],[96.9418,5.1963,19.4956],[96.9418,5.1816,30.1099],[96.9458,5.1705,39.1115],[96.9483,5.1427,92.2142],[96.9558,5.1418,126.4869],[96.962,5.1435,125.9653],[96.9604,5.1558,79.5831],[96.9675,5.1642,36.4094]]]]}}