{"type":"Feature","properties":{"GID_3":"IDN.4.4.5_1","GID_0":"IDN","country":"Indonesia","GID_1":"IDN.4_1","province":"Banten","NL_NAME_1":"NA","GID_2":"IDN.4.4_1","county":"Lebak","NL_NAME_2":"NA","city":"Cibeber","VARNAME_3":"NA","NL_NAME_3":"NA","TYPE_3":"Kecamatan","ENGTYPE_3":"Sub-district","CC_3":"3602040","HASC_3":"NA","name":"Cibeber.city"},
"geometry":{"type": "MultiPolygon","coordinates": [[[[106.2969,-6.8999,83.5667],[106.3009,-6.9016,101.9402],[106.3023,-6.8994,155.594],[106.3013,-6.8969,125.4305],[106.3102,-6.8851,128.8039],[106.3095,-6.8814,146.4809],[106.3135,-6.8804,172.7668],[106.3155,-6.8774,161.9955],[106.3217,-6.8761,189.0787],[106.3266,-6.8699,319.0968],[106.3308,-6.8701,285.0668],[106.3332,-6.8671,272.6875],[106.3354,-6.8682,314.2245],[106.3404,-6.8641,345.6534],[106.3476,-6.8648,521.3398],[106.3486,-6.8684,638.2994],[106.3516,-6.871,678.688],[106.3519,-6.8757,618.2876],[106.3592,-6.8794,616.3036],[106.3585,-6.8777,628.6956],[106.3612,-6.8774,638.6785],[106.363,-6.875,639.2821],[106.3669,-6.876,634.1615],[106.3724,-6.8724,647.6279],[106.3748,-6.8729,636.6833],[106.3759,-6.8691,652.3144],[106.3809,-6.865,655.356],[106.3803,-6.8637,650.9157],[106.3822,-6.863,650.9157],[106.3843,-6.8582,681.7888],[106.3826,-6.8484,707.233],[106.3923,-6.8416,935.7452],[106.3985,-6.8463,866.7035],[106.4113,-6.8467,924.8496],[106.4176,-6.8525,820.1706],[106.4298,-6.8555,426.6262],[106.432,-6.8493,400.8913],[106.4312,-6.846,468.1993],[106.4353,-6.8389,437.4331],[106.4351,-6.8316,463.0319],[106.4376,-6.8279,455.7643],[106.4355,-6.8252,473.7959],[106.437,-6.8223,496.1309],[106.436,-6.8198,511.0806],[106.4404,-6.8188,512.9132],[106.4417,-6.8156,576.7997],[106.4431,-6.8176,549.7706],[106.4469,-6.8185,577.0782],[106.45,-6.8163,573.669],[106.4529,-6.8131,681.5659],[106.4522,-6.8094,730.785],[106.4572,-6.8036,763.15],[106.462,-6.8017,806.214],[106.4638,-6.8029,835.9329],[106.4685,-6.7998,915.3832],[106.4704,-6.8006,913.657],[106.4715,-6.7981,914.6429],[106.4731,-6.7997,940.7284],[106.4732,-6.7974,922.9144],[106.4793,-6.7951,945.2708],[106.4858,-6.7946,962.708],[106.4869,-6.7962,962.708],[106.4889,-6.7949,974.5615],[106.4886,-6.7924,987.1865],[106.4977,-6.791,1079.196],[106.5075,-6.7813,1254.2722],[106.5159,-6.7773,1492.425],[106.5255,-6.7687,1686.6531],[106.5248,-6.7623,1642.3406],[106.5147,-6.7596,1538.5907],[106.4984,-6.7522,1410.5697],[106.4668,-6.751,1380.6145],[106.4632,-6.7369,1593.8871],[106.4513,-6.7283,1697.3369],[106.4344,-6.7295,1540.8477],[106.4232,-6.7258,1411.6757],[106.4213,-6.7095,1569.9044],[106.41,-6.6973,1481.9542],[106.4005,-6.6974,1445.614],[106.3958,-6.6923,1301.9451],[106.387,-6.6894,988.4623],[106.3626,-6.6747,941.4631],[106.3581,-6.6739,927.2366],[106.3473,-6.6788,756.3065],[106.3329,-6.6812,839.5392],[106.3226,-6.6865,774.9773],[106.3141,-6.688,851.79],[106.3037,-6.6929,995.996],[106.2952,-6.692,936.9586],[106.2759,-6.6803,834.2996],[106.269,-6.6803,803.8904],[106.2683,-6.6934,719.8059],[106.2703,-6.6966,707.2126],[106.2712,-6.7031,719.1329],[106.263,-6.7112,703.2083],[106.2632,-6.7162,732.9284],[106.258,-6.7193,650.5369],[106.2523,-6.7199,572.6602],[106.2516,-6.7217,581.7099],[106.25,-6.7209,568.3994],[106.2498,-6.7235,526.0094],[106.2438,-6.7254,502.617],[106.2409,-6.7356,527.5415],[106.2436,-6.7546,738.6036],[106.2459,-6.7573,814.7888],[106.2463,-6.7613,667.1925],[106.2545,-6.764,440.9624],[106.2611,-6.7739,446.9282],[106.2656,-6.7731,462.2816],[106.2757,-6.7665,654.105],[106.2807,-6.7654,531.3368],[106.2891,-6.7681,727.7507],[106.2988,-6.7631,596.6837],[106.3054,-6.7731,942.0179],[106.3025,-6.7775,828.4771],[106.3047,-6.7803,760.8636],[106.3042,-6.7893,794.0687],[106.3003,-6.7902,688.4931],[106.2931,-6.7965,585.0692],[106.2946,-6.8035,354.2643],[106.292,-6.805,330.7672],[106.2935,-6.8074,349.9937],[106.2922,-6.8113,319.3499],[106.2876,-6.8172,303.5737],[106.2857,-6.8226,318.7801],[106.2837,-6.8245,278.3427],[106.2815,-6.8238,272.5745],[106.2786,-6.8299,278.6299],[106.2767,-6.8307,252.5007],[106.2773,-6.8333,308.3618],[106.2733,-6.846,172.3487],[106.2743,-6.8548,127.9519],[106.2923,-6.8617,259.5074],[106.2937,-6.866,294.5852],[106.299,-6.8672,398.1639],[106.3017,-6.874,374.342],[106.3004,-6.8765,361.6472],[106.3018,-6.881,305.0043],[106.2941,-6.8939,217.5156],[106.2942,-6.8968,173.9022],[106.2969,-6.8999,83.5667]]]]}}