{"type":"Feature","properties":{"GID_3":"IDN.11.33.6_1","GID_0":"IDN","country":"Indonesia","GID_1":"IDN.11_1","province":"JawaTimur","NL_NAME_1":"NA","GID_2":"IDN.11.33_1","county":"Situbondo","NL_NAME_2":"NA","city":"Bungatan","VARNAME_3":"NA","NL_NAME_3":"NA","TYPE_3":"Kecamatan","ENGTYPE_3":"Sub-district","CC_3":"3512070","HASC_3":"NA","name":"Bungatan.city"},
"geometry":{"type": "MultiPolygon","coordinates": [[[[113.825,-7.7717,341.3765],[113.8252,-7.7744,413.0396],[113.8314,-7.7785,433.6314],[113.8404,-7.7791,511.4074],[113.8464,-7.7817,621.261],[113.8557,-7.7792,623.0958],[113.8608,-7.7746,760.4189],[113.864,-7.7583,466.1545],[113.8632,-7.745,361.4867],[113.8583,-7.7396,393.2034],[113.8489,-7.7233,1083.1514],[113.8605,-7.7181,1063.5798],[113.863,-7.702,349.6932],[113.8663,-7.697,192.6603],[113.8682,-7.68,0.0],[113.8622,-7.6845,0.7315],[113.8412,-7.6845,0.0],[113.831,-7.6884,2.1683],[113.8268,-7.6953,0.0],[113.8213,-7.6966,9.1212],[113.8171,-7.6994,0.0],[113.811,-7.7119,4.9562],[113.7982,-7.7257,0.0],[113.7879,-7.7321,1.4931],[113.7823,-7.7337,0.8782],[113.7773,-7.733,2.0176],[113.7773,-7.7355,3.0674],[113.7754,-7.7359,3.0281],[113.7752,-7.7399,5.4548],[113.7785,-7.7409,9.0639],[113.7793,-7.7518,18.0697],[113.7802,-7.7545,15.6869],[113.7819,-7.7548,20.1119],[113.7813,-7.7575,20.0673],[113.7894,-7.7569,26.6055],[113.7929,-7.7586,32.445],[113.7926,-7.7602,36.6423],[113.7948,-7.7618,41.6621],[113.7942,-7.7683,60.411],[113.7955,-7.771,69.5043],[113.8018,-7.7727,63.7136],[113.825,-7.7717,341.3765]]]]}}