{"type":"Feature","properties":{"GID_3":"IDN.26.3.12_1","GID_0":"IDN","country":"Indonesia","GID_1":"IDN.26_1","province":"SulawesiSelatan","NL_NAME_1":"NA","GID_2":"IDN.26.3_1","county":"Bone","NL_NAME_2":"NA","city":"Lamuru","VARNAME_3":"NA","NL_NAME_3":"NA","TYPE_3":"Kecamatan","ENGTYPE_3":"Sub-district","CC_3":"7311140","HASC_3":"NA","name":"Lamuru.city"},
"geometry":{"type": "MultiPolygon","coordinates": [[[[120.0004,-4.6093,73.5092],[120.0042,-4.6046,57.5428],[120.002,-4.5978,60.7896],[120.0028,-4.593,70.4742],[119.9977,-4.5905,59.5086],[120.0001,-4.5851,62.5849],[119.995,-4.5831,64.4597],[119.9949,-4.5818,59.5762],[120.001,-4.5794,77.5405],[120.003,-4.5832,90.8776],[120.0067,-4.5803,78.9839],[120.004,-4.5767,57.4724],[120.0106,-4.5748,61.4718],[120.0115,-4.5707,61.4977],[120.0063,-4.5632,69.4997],[120.0179,-4.5571,70.2444],[120.0249,-4.5486,102.2569],[120.0403,-4.5489,150.3691],[120.046,-4.5478,152.1968],[120.0474,-4.546,148.5932],[120.0446,-4.5382,141.3766],[120.0526,-4.5344,144.2416],[120.0574,-4.5268,166.2277],[120.0601,-4.5185,198.7358],[120.0545,-4.501,137.3246],[120.0476,-4.5049,171.4509],[120.0419,-4.516,142.5881],[120.0376,-4.5209,137.1411],[120.0321,-4.5233,110.5447],[120.0194,-4.5239,87.2908],[120.0141,-4.5264,121.3229],[119.9939,-4.5208,153.349],[119.991,-4.5243,222.8289],[119.9868,-4.5254,160.5842],[119.985,-4.5331,256.0049],[119.9807,-4.5343,146.0967],[119.9763,-4.5388,84.0208],[119.9708,-4.5318,89.9074],[119.9679,-4.5333,92.7195],[119.9624,-4.5326,102.1685],[119.9603,-4.5354,104.269],[119.9534,-4.5326,112.7922],[119.9517,-4.5337,118.1983],[119.9441,-4.533,158.4707],[119.9424,-4.5312,135.1979],[119.9412,-4.5335,150.6841],[119.9388,-4.5338,153.9629],[119.931,-4.53,132.2015],[119.9284,-4.5305,140.689],[119.9214,-4.5255,186.0852],[119.9184,-4.5259,164.5922],[119.9105,-4.5196,209.6505],[119.9025,-4.5158,436.4316],[119.8983,-4.5168,497.7698],[119.8906,-4.524,262.6601],[119.9012,-4.5544,374.9722],[119.9083,-4.5639,295.402],[119.9084,-4.5665,295.6754],[119.9024,-4.5809,276.4323],[119.895,-4.5845,304.1084],[119.8833,-4.597,452.0606],[119.8819,-4.604,495.7729],[119.8852,-4.6085,755.1725],[119.8955,-4.6137,518.8273],[119.9001,-4.6234,886.8542],[119.9048,-4.6289,614.2344],[119.9025,-4.6392,1016.9197],[119.9035,-4.6436,760.8179],[119.9127,-4.6493,802.5419],[119.9233,-4.659,320.517],[119.9258,-4.663,265.5793],[119.9258,-4.6668,238.0],[119.9351,-4.6719,203.5017],[119.9534,-4.6747,191.6573],[119.964,-4.6732,168.0249],[119.9809,-4.6652,136.6079],[119.9845,-4.6599,114.6341],[119.9841,-4.6564,97.8021],[119.9936,-4.6446,74.8017],[119.9961,-4.6433,69.1258],[119.9991,-4.6452,60.0],[120.0019,-4.6445,63.0851],[120.0012,-4.6409,80.1099],[119.9984,-4.639,85.0493],[119.9999,-4.6362,69.2672],[119.9992,-4.6303,87.6165],[119.9914,-4.6309,68.3379],[119.9906,-4.6294,68.9284],[119.9918,-4.6222,90.4412],[119.9966,-4.6226,62.3589],[119.9986,-4.6165,74.7008],[120.0023,-4.6141,57.1922],[120.0004,-4.6093,73.5092]]]]}}