{"type":"Feature","properties":{"GID_3":"IDN.32.30.1_1","GID_0":"IDN","country":"Indonesia","GID_1":"IDN.32_1","province":"SumateraUtara","NL_NAME_1":"NA","GID_2":"IDN.32.30_1","county":"TapanuliSelatan","NL_NAME_2":"NA","city":"AekBilah","VARNAME_3":"NA","NL_NAME_3":"NA","TYPE_3":"Kecamatan","ENGTYPE_3":"Sub-district","CC_3":"1203161","HASC_3":"NA","name":"Aek_Bilah.city"},
"geometry":{"type": "MultiPolygon","coordinates": [[[[99.5649,1.8924,307.2788],[99.5722,1.9003,438.8849],[99.5764,1.9104,308.637],[99.5747,1.912,266.8933],[99.5669,1.912,285.0614],[99.5642,1.9155,285.6422],[99.5595,1.9172,332.6448],[99.5552,1.9213,363.2436],[99.5549,1.9273,296.5354],[99.5527,1.9324,297.1214],[99.5531,1.9421,314.8139],[99.5464,1.9482,415.77],[99.5449,1.9529,433.6345],[99.5496,1.964,627.5719],[99.5491,1.9699,704.032],[99.5531,1.9723,624.0156],[99.5578,1.9787,787.3384],[99.5587,1.9921,392.3742],[99.555,2.0,312.9023],[99.5546,2.0088,539.8438],[99.5573,2.017,647.4249],[99.5658,2.0295,1348.8878],[99.556,2.0418,1213.4039],[99.5519,2.0543,1526.7806],[99.5463,2.0619,1676.8893],[99.5509,2.0781,1590.7822],[99.5381,2.0915,1735.5072],[99.5226,2.0913,1738.7825],[99.5169,2.1022,1272.5546],[99.5133,2.1212,683.1567],[99.5116,2.1233,596.4856],[99.5023,2.1211,870.4387],[99.4733,2.1192,1212.5549],[99.4598,2.1264,848.696],[99.4547,2.0947,1366.4459],[99.4499,2.0794,873.3181],[99.4454,2.0257,798.5381],[99.4479,2.01,626.4633],[99.4473,2.0012,620.806],[99.4574,1.9692,593.1685],[99.4578,1.9556,582.2893],[99.4546,1.9517,556.1136],[99.4478,1.95,574.5283],[99.4438,1.9513,595.7244],[99.4389,1.9479,612.7819],[99.419,1.9482,631.2036],[99.4142,1.9439,677.446],[99.4044,1.94,656.5741],[99.3791,1.9432,788.0959],[99.3755,1.9407,811.649],[99.3675,1.9388,850.3536],[99.3639,1.9353,847.1564],[99.3767,1.9264,879.9516],[99.3975,1.9171,1223.9744],[99.4197,1.9184,885.4709],[99.4294,1.9156,1042.1816],[99.4354,1.9076,731.555],[99.4417,1.9045,599.3471],[99.4467,1.8995,974.631],[99.4505,1.8913,726.5341],[99.4605,1.8838,737.465],[99.4674,1.8813,842.0483],[99.4768,1.8819,1051.3928],[99.4902,1.8853,986.4905],[99.4962,1.885,1011.1563],[99.4999,1.8819,892.1361],[99.5116,1.8781,767.4304],[99.5235,1.8812,445.1006],[99.5463,1.8794,695.7673],[99.5587,1.8851,401.4739],[99.5649,1.8924,307.2788]]]]}}