{"type":"Feature","properties":{"GID_3":"IDN.11.29.13_1","GID_0":"IDN","country":"Indonesia","GID_1":"IDN.11_1","province":"JawaTimur","NL_NAME_1":"NA","GID_2":"IDN.11.29_1","county":"Ponorogo","NL_NAME_2":"NA","city":"Pudak","VARNAME_3":"NA","NL_NAME_3":"NA","TYPE_3":"Kecamatan","ENGTYPE_3":"Sub-district","CC_3":"3502061","HASC_3":"NA","name":"Pudak.city"},
"geometry":{"type": "MultiPolygon","coordinates": [[[[111.7346,-7.8923,1058.3215],[111.7419,-7.8884,1102.7535],[111.7501,-7.8909,1039.5929],[111.7519,-7.8973,935.4944],[111.7549,-7.8974,925.8649],[111.7534,-7.9,901.1094],[111.7544,-7.9027,881.8326],[111.7529,-7.9035,917.9286],[111.7553,-7.9083,824.229],[111.7586,-7.906,876.1786],[111.7579,-7.9021,883.077],[111.7607,-7.901,894.8403],[111.7561,-7.8987,924.9139],[111.7578,-7.8965,1005.7804],[111.7561,-7.8961,976.5887],[111.7562,-7.8931,972.7158],[111.7587,-7.8948,985.9736],[111.7612,-7.8904,1024.0767],[111.7641,-7.8905,1037.7063],[111.7711,-7.8868,1103.9377],[111.7711,-7.8829,1160.1018],[111.7692,-7.8817,1195.1124],[111.7706,-7.8805,1165.4551],[111.7696,-7.8789,1177.0736],[111.7717,-7.879,1199.3132],[111.7717,-7.8724,1258.6788],[111.7786,-7.8651,1333.6931],[111.7768,-7.8619,1399.8904],[111.7731,-7.86,1614.9255],[111.7714,-7.856,1789.8469],[111.7808,-7.839,1994.8129],[111.7853,-7.8359,2207.8518],[111.7857,-7.8338,2259.5696],[111.7848,-7.8298,2217.2754],[111.7767,-7.8202,2200.1355],[111.775,-7.8213,2035.8319],[111.7729,-7.8203,2070.6692],[111.7688,-7.8241,2099.3145],[111.7664,-7.8236,2155.2893],[111.7645,-7.8176,2383.7014],[111.7601,-7.8137,2519.7236],[111.7569,-7.8204,2422.5129],[111.7507,-7.8256,2461.3818],[111.7487,-7.825,2412.064],[111.7455,-7.8274,2417.3145],[111.7296,-7.8257,1690.6639],[111.7194,-7.8272,1735.3643],[111.6973,-7.851,940.5841],[111.6932,-7.8543,928.3425],[111.6858,-7.8563,929.9307],[111.6863,-7.8623,828.6133],[111.6908,-7.8639,918.626],[111.6924,-7.8674,881.2542],[111.691,-7.8756,811.8805],[111.6893,-7.8759,811.8805],[111.6901,-7.8787,796.64],[111.685,-7.8842,743.1917],[111.6852,-7.887,768.7687],[111.6898,-7.8873,775.3635],[111.692,-7.8892,734.6541],[111.6985,-7.8881,820.192],[111.7007,-7.8918,740.9051],[111.6997,-7.8948,625.7867],[111.7049,-7.8974,644.2226],[111.7074,-7.8974,650.1158],[111.7105,-7.8946,687.6769],[111.7129,-7.8963,774.3387],[111.7325,-7.8949,1053.251],[111.7346,-7.8923,1058.3215]]]]}}