{"type":"Feature","properties":{"GID_3":"IDN.27.5.10_1","GID_0":"IDN","country":"Indonesia","GID_1":"IDN.27_1","province":"SulawesiTengah","NL_NAME_1":"NA","GID_2":"IDN.27.5_1","county":"Morowali","NL_NAME_2":"NA","city":"MoriAtas","VARNAME_3":"NA","NL_NAME_3":"NA","TYPE_3":"Kecamatan","ENGTYPE_3":"Sub-district","CC_3":"7203060","HASC_3":"NA","name":"Mori_Atas.city"},
"geometry":{"type": "MultiPolygon","coordinates": [[[[120.9909,-2.2441,1346.6439],[121.0,-2.25,1420.8257],[121.0046,-2.2495,1310.7905],[121.0458,-2.2379,1360.1559],[121.0649,-2.2219,1084.728],[121.0872,-2.1982,926.4203],[121.098,-2.1797,836.5778],[121.1133,-2.1594,759.1671],[121.1289,-2.1283,663.989],[121.142,-2.1098,413.302],[121.1445,-2.0829,793.237],[121.161,-2.0438,1026.6509],[121.1684,-2.015,793.4561],[121.174,-1.9086,286.0097],[121.1657,-1.9036,310.2375],[121.1604,-1.916,379.5599],[121.1577,-1.9176,378.0579],[121.1566,-1.9238,370.3715],[121.153,-1.9273,319.3469],[121.1492,-1.9223,302.2552],[121.1403,-1.925,306.3604],[121.1405,-1.9277,285.3854],[121.1449,-1.9292,285.9662],[121.1402,-1.9323,281.5965],[121.1419,-1.9361,289.3828],[121.1406,-1.9384,277.3744],[121.1371,-1.9368,289.9453],[121.1381,-1.9393,286.6847],[121.1348,-1.9409,284.9033],[121.1305,-1.9376,293.8126],[121.1282,-1.9395,290.5626],[121.1309,-1.9426,298.9699],[121.128,-1.9441,286.0748],[121.1258,-1.9426,291.8212],[121.1194,-1.9445,284.4355],[121.1207,-1.9508,278.8464],[121.1183,-1.9488,280.6646],[121.1149,-1.9491,280.8369],[121.1147,-1.9466,277.1693],[121.1107,-1.948,286.9886],[121.1112,-1.9503,283.1912],[121.1081,-1.9516,289.8226],[121.1068,-1.9474,279.0615],[121.104,-1.9491,278.1633],[121.1054,-1.9521,283.7882],[121.0984,-1.9569,274.6458],[121.1019,-1.9591,277.3102],[121.0877,-1.9656,279.6154],[121.0874,-1.9612,275.3335],[121.0917,-1.9602,281.9732],[121.0916,-1.9581,279.6559],[121.0813,-1.9614,277.4967],[121.0787,-1.9606,277.1626],[121.078,-1.9581,278.1979],[121.0736,-1.9616,277.8172],[121.0724,-1.9595,283.4174],[121.0701,-1.9596,275.8025],[121.0664,-1.9635,278.5989],[121.0672,-1.958,280.0251],[121.0636,-1.9578,275.4094],[121.061,-1.9553,280.6979],[121.062,-1.9589,277.9094],[121.0562,-1.9617,279.058],[121.0546,-1.9584,277.2753],[121.0565,-1.9554,278.8613],[121.0552,-1.9547,278.7687],[121.0549,-1.9569,276.5031],[121.0515,-1.955,290.9054],[121.0489,-1.9597,283.6804],[121.0422,-1.9602,285.9801],[121.0354,-1.9643,307.201],[121.0332,-1.9643,313.9873],[121.0303,-1.9612,319.8779],[121.0241,-1.9683,288.9669],[121.0201,-1.9688,282.8804],[121.0205,-1.9711,282.3933],[121.018,-1.9714,284.2785],[121.0174,-1.9692,290.7162],[121.0162,-1.9718,284.2691],[121.0143,-1.9704,286.7342],[121.0152,-1.9721,284.2691],[121.0103,-1.9732,283.5978],[121.0094,-1.975,288.8597],[121.0061,-1.974,288.7157],[121.0083,-1.976,288.7277],[121.0085,-1.9789,287.4033],[120.9999,-1.9835,290.0463],[120.9906,-1.9822,288.8737],[120.979,-1.9763,298.906],[120.9684,-1.9736,317.7693],[120.9629,-1.9772,324.2825],[120.958,-1.9775,345.5518],[120.9561,-1.9843,352.4951],[120.9624,-1.9922,324.6956],[120.949,-2.006,449.5258],[120.9261,-2.0156,539.0814],[120.9121,-2.0139,469.44],[120.9084,-2.0116,495.9739],[120.8971,-1.9917,523.6754],[120.8931,-2.0076,414.8517],[120.8857,-2.0032,413.3546],[120.8819,-1.9961,413.4552],[120.8744,-1.9899,413.8503],[120.8577,-2.0098,417.581],[120.8585,-2.011,417.535],[120.8437,-2.0309,425.7371],[120.8386,-2.0483,516.305],[120.8298,-2.0946,746.7658],[120.8325,-2.1229,841.2485],[120.8316,-2.1218,876.2954],[120.8387,-2.156,1148.9846],[120.8415,-2.1832,1202.1743],[120.8421,-2.2184,1258.5623],[120.8726,-2.219,1218.0901],[120.9365,-2.2282,1493.8622],[120.9606,-2.2337,1569.9333],[120.9909,-2.2441,1346.6439]]]]}}