{"type":"Feature","properties":{"GID_3":"IDN.34.12.6_1","GID_0":"IDN","country":"Indonesia","GID_1":"IDN.34_1","province":"KalimantanTimur","NL_NAME_1":"NA","GID_2":"IDN.34.12_1","county":"Samarinda","NL_NAME_2":"NA","city":"SungaiKunjang","VARNAME_3":"NA","NL_NAME_3":"NA","TYPE_3":"Kecamatan","ENGTYPE_3":"Sub-district","CC_3":"6472040","HASC_3":"NA","name":"Sungai_Kunjang.city"},
"geometry":{"type": "MultiPolygon","coordinates": [[[[117.0786,-0.5862,0.0],[117.0821,-0.5773,0.0],[117.0853,-0.5762,0.0],[117.0853,-0.5545,0.0],[117.0887,-0.5425,2.6791],[117.0954,-0.537,0.0],[117.1132,-0.5348,0.0],[117.1184,-0.5242,0.0],[117.1211,-0.5072,0.0],[117.1272,-0.5024,0.0],[117.1302,-0.4943,5.691],[117.13,-0.4925,6.0246],[117.125,-0.4931,4.8618],[117.1203,-0.4898,21.6508],[117.1186,-0.4922,29.9992],[117.1093,-0.4817,21.7942],[117.1028,-0.4779,14.7618],[117.0685,-0.4411,34.7885],[117.0718,-0.4327,47.519],[117.0687,-0.434,62.8796],[117.0646,-0.4418,61.4863],[117.053,-0.4708,29.8079],[117.0479,-0.4918,5.1171],[117.0471,-0.5165,13.9479],[117.0545,-0.529,35.2257],[117.0598,-0.5535,34.6637],[117.0667,-0.5714,63.5613],[117.0762,-0.5786,6.7884],[117.0755,-0.5899,0.0],[117.0786,-0.5862,0.0]]]]}}