{"type":"Feature","properties":{"GID_3":"IDN.16.6.4_1","GID_0":"IDN","country":"Indonesia","GID_1":"IDN.16_1","province":"KepulauanRiau","NL_NAME_1":"NA","GID_2":"IDN.16.6_1","county":"Natuna","NL_NAME_2":"NA","city":"BunguranTimurLaut","VARNAME_3":"NA","NL_NAME_3":"NA","TYPE_3":"Kecamatan","ENGTYPE_3":"Sub-district","CC_3":"2103051","HASC_3":"NA","name":"Bunguran_Timur_Laut.city"},
"geometry":{"type": "MultiPolygon","coordinates": [[[[108.2908,3.9791,45.3797],[108.3053,3.9797,277.1801],[108.3188,3.9743,443.7417],[108.3249,3.9743,574.0782],[108.3298,3.9774,772.6981],[108.3325,3.9773,850.1927],[108.3284,3.9839,272.7341],[108.3242,3.9963,21.9031],[108.3307,3.9982,16.2127],[108.3427,3.9931,88.515],[108.3469,3.9935,37.0865],[108.349,3.9976,2.9054],[108.3455,4.0002,0.0],[108.3444,4.0073,4.2985],[108.3469,4.0133,0.6266],[108.3453,4.0163,10.7161],[108.3305,4.0261,3.9086],[108.3254,4.0318,4.6995],[108.315,4.039,1.1012],[108.306,4.0488,2.0876],[108.2957,4.0542,6.5426],[108.2937,4.0581,2.623],[108.2922,4.0581,2.623],[108.2936,4.0588,3.6024],[108.2929,4.0621,4.1298],[108.2967,4.07,0.0],[108.2971,4.077,3.0114],[108.2996,4.0826,4.0821],[108.2991,4.0864,2.601],[108.2974,4.0876,0.5005],[108.2902,4.0832,3.849],[108.2852,4.0829,1.4269],[108.2656,4.0913,3.9457],[108.2534,4.1033,0.9785],[108.2535,4.1075,0.6011],[108.2478,4.1126,6.1169],[108.2468,4.1172,0.0],[108.2331,4.129,1.4927],[108.2287,4.1474,6.0462],[108.2317,4.1494,4.3936],[108.2319,4.154,7.9298],[108.2301,4.157,3.625],[108.229,4.1649,7.1576],[108.2309,4.1709,4.339],[108.2285,4.1724,8.499],[108.2287,4.1777,4.6272],[108.226,4.1793,2.099],[108.2244,4.1844,0.0],[108.2264,4.1875,0.0],[108.2261,4.1915,0.4379],[108.2289,4.2,4.0585],[108.2329,4.1995,0.0],[108.2325,4.2019,0.0],[108.2349,4.2073,1.817],[108.2422,4.2132,10.1242],[108.2414,4.2186,26.072],[108.2369,4.2198,7.3414],[108.2322,4.2173,10.5217],[108.2272,4.217,7.1727],[108.2232,4.2118,7.4377],[108.2038,4.1612,36.5169],[108.2022,4.1423,96.2916],[108.1997,4.1384,97.51],[108.1958,4.1365,158.8431],[108.1898,4.1277,182.6861],[108.1889,4.1238,122.3665],[108.1862,4.1213,118.2139],[108.1854,4.1141,116.715],[108.181,4.1101,138.7232],[108.1829,4.0872,85.3017],[108.1816,4.0805,87.6053],[108.1823,4.0614,90.5176],[108.1801,4.057,121.5834],[108.1808,4.0402,56.243],[108.1825,4.0359,65.3952],[108.1816,4.0229,63.9579],[108.1745,4.0114,48.9436],[108.1768,4.0055,51.177],[108.1749,4.0036,46.9506],[108.1691,4.0035,40.6992],[108.1813,3.9975,47.7491],[108.1863,3.9967,45.8313],[108.1908,4.0093,86.042],[108.2022,4.0071,121.8149],[108.2087,4.0019,178.7709],[108.2154,3.9919,139.8395],[108.2365,3.9858,46.4753],[108.2479,3.9803,56.2972],[108.2536,3.9748,43.5849],[108.2539,3.9689,58.9968],[108.2653,3.9609,38.8504],[108.2695,3.9616,32.3813],[108.2737,3.9731,62.5969],[108.2835,3.9777,51.332],[108.2908,3.9791,45.3797]]],
[[[108.359,4.0118,0.0],[108.3602,4.0111,0.0],[108.3619,4.0129,0.0],[108.3597,4.0176,0.0],[108.3588,4.017,0.0],[108.359,4.0118,0.0]]],
[[[108.2995,4.0646,2.1823],[108.2992,4.0644,2.1823],[108.2994,4.0642,2.1823],[108.2996,4.0643,2.1823],[108.2995,4.0646,2.1823]]],
[[[108.2982,4.064,2.1823],[108.2985,4.0649,2.1823],[108.2972,4.0645,0.0],[108.2975,4.0639,0.0],[108.2982,4.064,2.1823]]]]}}