{"type":"Feature","properties":{"GID_2":"IDN.9.12_1","GID_0":"IDN","country":"Indonesia","GID_1":"IDN.9_1","province":"JawaBarat","NL_NAME_1":"NA","county":"Indramayu","VARNAME_2":"NA","NL_NAME_2":"NA","TYPE_2":"Kabupaten","ENGTYPE_2":"Regency","CC_2":"3212","HASC_2":"ID.JR.IN","name":"Indramayu.county"},
"geometry":{"type": "MultiPolygon","coordinates": [[[[108.0937,-6.5636,35.3698],[108.0977,-6.5622,34.5794],[108.0975,-6.5648,37.0716],[108.0993,-6.5622,34.8113],[108.1002,-6.5636,35.3335],[108.1053,-6.5617,32.4331],[108.1075,-6.5587,32.5913],[108.1064,-6.5555,31.421],[108.1125,-6.552,30.0657],[108.1133,-6.554,29.2219],[108.116,-6.5533,31.8676],[108.1155,-6.5503,28.507],[108.1176,-6.5507,27.4087],[108.1183,-6.5488,27.3607],[108.1171,-6.5457,26.2729],[108.12,-6.5448,28.3029],[108.118,-6.543,25.6496],[108.1206,-6.541,25.0595],[108.1216,-6.5425,25.0117],[108.123,-6.5408,25.0894],[108.122,-6.543,25.5488],[108.1278,-6.5445,24.4122],[108.1281,-6.5492,25.6857],[108.1322,-6.555,41.3203],[108.1318,-6.5576,41.6683],[108.128,-6.561,41.8924],[108.1276,-6.5652,40.266],[108.1421,-6.5653,25.6289],[108.1417,-6.5713,27.4314],[108.1435,-6.5727,27.4314],[108.1421,-6.5745,27.7891],[108.144,-6.5745,27.1802],[108.1433,-6.5766,29.7393],[108.1456,-6.577,28.0598],[108.1458,-6.5783,27.7287],[108.1477,-6.578,27.7287],[108.1443,-6.5876,29.5512],[108.1465,-6.5927,30.6211],[108.1459,-6.6004,31.2259],[108.1486,-6.606,31.5503],[108.1583,-6.6122,41.1085],[108.1646,-6.6135,44.0317],[108.1659,-6.6092,45.6022],[108.1735,-6.6057,35.4794],[108.1802,-6.6093,38.9585],[108.1877,-6.6098,45.5231],[108.1897,-6.6083,39.0434],[108.1907,-6.6012,34.1611],[108.1976,-6.5935,33.1319],[108.2,-6.5851,27.9267],[108.2059,-6.575,24.5687],[108.2101,-6.5732,23.9198],[108.2519,-6.5872,16.1876],[108.2637,-6.5874,16.0281],[108.2739,-6.59,15.246],[108.2763,-6.5916,15.1161],[108.2724,-6.607,15.9729],[108.2752,-6.6165,17.0126],[108.2808,-6.6206,13.8682],[108.2907,-6.6222,12.1567],[108.2936,-6.6189,25.7609],[108.2939,-6.6154,20.2115],[108.2876,-6.6153,14.966],[108.2855,-6.6117,11.9513],[108.287,-6.6092,11.0726],[108.293,-6.6092,14.0022],[108.2943,-6.613,20.3561],[108.2986,-6.615,18.2252],[108.2991,-6.6172,18.0248],[108.3004,-6.6164,18.9618],[108.3021,-6.6205,17.1833],[108.3038,-6.6185,20.1884],[108.3051,-6.6195,17.5765],[108.3044,-6.6232,18.6375],[108.3077,-6.6242,16.9776],[108.3111,-6.6215,19.6639],[108.3154,-6.6078,18.2569],[108.3196,-6.613,18.7726],[108.3216,-6.6196,19.7958],[108.3236,-6.6208,15.5075],[108.3255,-6.613,11.5042],[108.3307,-6.6079,10.101],[108.3287,-6.6045,15.821],[108.3304,-6.6028,21.3263],[108.3286,-6.5984,18.3845],[108.3312,-6.5941,18.1395],[108.3481,-6.5778,13.7834],[108.3536,-6.5756,11.633],[108.3548,-6.5677,11.9535],[108.3606,-6.5554,10.6399],[108.3717,-6.5544,14.7344],[108.374,-6.5481,11.4075],[108.379,-6.5456,9.2068],[108.3828,-6.5473,10.6362],[108.3864,-6.5454,8.7264],[108.3908,-6.5361,9.1947],[108.3941,-6.5344,9.0084],[108.4041,-6.5357,7.6365],[108.4087,-6.53,6.495],[108.4204,-6.5235,5.2947],[108.4301,-6.5202,8.1241],[108.4354,-6.5213,5.487],[108.4459,-6.5303,3.5905],[108.447,-6.5365,2.7552],[108.4489,-6.5371,2.8088],[108.4493,-6.5715,2.6803],[108.4574,-6.5726,2.1507],[108.4602,-6.5684,1.9865],[108.4675,-6.5699,1.9703],[108.4683,-6.5679,1.7202],[108.4703,-6.5677,2.0441],[108.4702,-6.5647,1.8713],[108.4736,-6.5646,1.7947],[108.4734,-6.5614,1.692],[108.4756,-6.5582,1.609],[108.4776,-6.5595,1.6516],[108.4818,-6.5591,1.608],[108.4836,-6.5565,1.6192],[108.487,-6.5593,1.4487],[108.491,-6.5548,1.5368],[108.4907,-6.5455,1.9455],[108.4941,-6.5426,2.6422],[108.5009,-6.542,1.0665],[108.501,-6.537,0.5],[108.5028,-6.534,0.5],[108.5066,-6.5339,0.5],[108.5099,-6.5287,0.5],[108.5138,-6.5271,0.5],[108.519,-6.5276,0.5],[108.519,-6.522,0.5],[108.5255,-6.5175,0.5],[108.5381,-6.5164,0.6964],[108.5356,-6.4975,1.4188],[108.5375,-6.4883,0.3869],[108.5404,-6.4849,0.0],[108.5341,-6.4809,0.574],[108.5034,-6.4676,0.0],[108.4818,-6.4555,0.0],[108.4528,-6.4343,0.0],[108.4205,-6.4017,1.146],[108.4059,-6.3825,1.7138],[108.3928,-6.3614,0.3014],[108.3854,-6.3562,0.0],[108.3774,-6.3418,0.8782],[108.3675,-6.3123,1.3052],[108.3666,-6.3058,1.5965],[108.3679,-6.3007,0.5],[108.3712,-6.296,0.0],[108.3749,-6.2956,0.0],[108.364,-6.2663,0.0],[108.3634,-6.2635,1.8809],[108.3653,-6.2617,0.0],[108.3632,-6.2622,1.4151],[108.36,-6.2455,0.0],[108.3466,-6.2446,0.0],[108.3407,-6.2463,0.0],[108.3419,-6.2558,2.3306],[108.339,-6.2644,1.5826],[108.3389,-6.2727,0.7001],[108.337,-6.2749,2.0499],[108.3349,-6.2748,0.5],[108.3269,-6.2681,3.4772],[108.3288,-6.2647,0.5],[108.3278,-6.2634,0.5034],[108.2998,-6.2488,0.2475],[108.2882,-6.2456,0.0],[108.2777,-6.2491,1.164],[108.2625,-6.2482,0.3469],[108.2316,-6.2367,0.0],[108.2379,-6.2392,0.0],[108.2403,-6.2434,0.0],[108.2341,-6.2448,0.6932],[108.2339,-6.2424,0.0],[108.2319,-6.2426,0.3282],[108.2313,-6.2407,0.0],[108.2297,-6.2448,0.1928],[108.2266,-6.2448,0.0],[108.2247,-6.2489,0.6941],[108.2205,-6.25,1.5681],[108.2157,-6.2395,0.1927],[108.2172,-6.2377,0.0],[108.2094,-6.2396,1.4968],[108.2042,-6.2348,0.5],[108.2054,-6.2335,1.0432],[108.2016,-6.2299,0.5],[108.1971,-6.2307,1.4612],[108.1891,-6.2294,1.1193],[108.1885,-6.2338,1.3394],[108.1972,-6.237,1.1711],[108.2028,-6.2416,1.4153],[108.2064,-6.2609,1.2512],[108.2127,-6.2651,1.1053],[108.2095,-6.2681,0.6184],[108.2062,-6.2682,0.0],[108.2103,-6.2736,0.362],[108.2074,-6.2748,1.6063],[108.2055,-6.273,0.0],[108.2016,-6.2771,0.2206],[108.2022,-6.2788,0.0],[108.1945,-6.2788,0.0],[108.193,-6.2821,0.0],[108.1917,-6.2817,0.0],[108.1921,-6.2898,1.022],[108.1935,-6.2912,1.0],[108.1917,-6.2933,1.6082],[108.1905,-6.2928,0.0],[108.1896,-6.2962,0.6592],[108.187,-6.2957,1.6603],[108.1867,-6.2941,1.3274],[108.1811,-6.2944,0.0],[108.1755,-6.2983,0.0],[108.1753,-6.3003,0.396],[108.1689,-6.3064,0.0],[108.1646,-6.3071,0.0],[108.1501,-6.3154,0.0],[108.1366,-6.3188,0.0],[108.1339,-6.3222,0.0],[108.1329,-6.3301,1.2193],[108.1299,-6.3344,0.3459],[108.1274,-6.3346,1.0927],[108.1077,-6.3341,0.5],[108.1032,-6.331,0.5],[108.104,-6.3285,0.4719],[108.1074,-6.3305,0.5],[108.1049,-6.3285,0.5225],[108.1064,-6.3286,0.5225],[108.0981,-6.3254,0.0],[108.0898,-6.3245,3.009],[108.0888,-6.3192,0.0],[108.0854,-6.3204,0.3934],[108.0738,-6.3189,0.0],[108.0459,-6.3106,0.0],[108.0331,-6.3035,0.0],[108.0287,-6.3027,0.0],[107.9919,-6.2791,0.0],[107.956,-6.2602,0.0],[107.9363,-6.2528,0.0],[107.9191,-6.2489,0.7494],[107.9237,-6.252,1.0015],[107.9264,-6.2564,2.3462],[107.9259,-6.2617,2.556],[107.9234,-6.2657,2.8667],[107.918,-6.2692,3.1289],[107.9147,-6.2678,2.5289],[107.9118,-6.2698,2.2969],[107.9155,-6.2707,3.1013],[107.9152,-6.2738,3.1092],[107.9181,-6.2711,3.0764],[107.918,-6.2728,2.8377],[107.9214,-6.2743,3.0352],[107.9207,-6.2768,3.219],[107.9233,-6.2769,2.864],[107.9231,-6.2792,3.3473],[107.9254,-6.2796,3.2909],[107.9215,-6.2834,3.493],[107.9245,-6.2854,3.6863],[107.9229,-6.2882,4.2762],[107.9233,-6.2903,5.086],[107.925,-6.2909,3.7936],[107.9218,-6.2956,4.5212],[107.9235,-6.3029,6.737],[107.9219,-6.3108,6.5294],[107.9227,-6.3123,9.0734],[107.9273,-6.3114,8.1948],[107.9296,-6.308,7.8898],[107.9305,-6.3097,7.4059],[107.9271,-6.3122,8.1948],[107.9301,-6.3186,8.4538],[107.928,-6.3249,10.2747],[107.9216,-6.322,12.1499],[107.918,-6.3236,11.5357],[107.9239,-6.3241,11.0528],[107.9283,-6.3275,10.2675],[107.9239,-6.3369,10.0969],[107.9243,-6.34,11.0065],[107.9197,-6.3404,10.9685],[107.9166,-6.3475,11.0652],[107.9176,-6.3506,11.7197],[107.9203,-6.3511,11.858],[107.9235,-6.3599,12.646],[107.9146,-6.3705,15.4695],[107.9189,-6.371,15.0097],[107.9154,-6.3754,15.6761],[107.914,-6.3769,16.083],[107.9083,-6.3776,16.4626],[107.8981,-6.3903,17.8889],[107.8948,-6.3972,20.9281],[107.8987,-6.4014,23.9018],[107.8989,-6.4062,18.0607],[107.8966,-6.4042,21.8939],[107.8905,-6.4036,21.6464],[107.8931,-6.4079,18.097],[107.8914,-6.4104,20.715699999999998],[107.8917,-6.414,18.5844],[107.8879,-6.4163,20.8779],[107.8931,-6.4165,19.5381],[107.8946,-6.4229,22.392],[107.897,-6.4257,22.9295],[107.8916,-6.4338,23.5185],[107.8927,-6.4389,23.9243],[107.89,-6.4433,24.6347],[107.8948,-6.4489,27.2501],[107.8912,-6.4489,29.1558],[107.893,-6.4524,24.2245],[107.8889,-6.4578,26.2026],[107.8789,-6.4572,24.9594],[107.8789,-6.4577,24.9594],[107.8873,-6.4579,24.6258],[107.888,-6.4598,25.5799],[107.891,-6.4599,26.135],[107.892,-6.4629,26.1363],[107.8951,-6.4627,24.7805],[107.8952,-6.472,25.3925],[107.8992,-6.4716,27.9178],[107.8978,-6.4752,27.4924],[107.8994,-6.4774,27.8706],[107.8965,-6.4804,27.1411],[107.8983,-6.485,26.8555],[107.9029,-6.4824,27.1626],[107.9056,-6.4842,31.6423],[107.9085,-6.4834,31.1796],[107.9106,-6.4856,28.643],[107.9117,-6.4825,32.0839],[107.9134,-6.4845,27.3444],[107.9123,-6.4884,30.2906],[107.9188,-6.4858,28.5315],[107.919,-6.488,31.5106],[107.9131,-6.4912,30.767],[107.9155,-6.4949,30.624],[107.9203,-6.491,30.667],[107.9195,-6.4939,33.7839],[107.917,-6.4955,30.624],[107.9078,-6.4961,28.7397],[107.9093,-6.4984,29.6173],[107.9057,-6.5054,30.619],[107.9068,-6.5071,31.2305],[107.911,-6.5069,40.2702],[107.9133,-6.5015,31.681],[107.9155,-6.501,32.1885],[107.9198,-6.5086,31.2607],[107.918,-6.5115,33.3816],[107.9202,-6.5145,31.2323],[107.9174,-6.517,30.7793],[107.9162,-6.5246,40.7137],[107.9119,-6.5281,37.055],[107.9083,-6.5287,28.7726],[107.909,-6.5326,29.6658],[107.9114,-6.5342,32.0554],[107.9093,-6.5394,33.6523],[107.9013,-6.5457,44.884],[107.8967,-6.5473,39.5207],[107.8939,-6.5465,32.5795],[107.8936,-6.5493,32.7506],[107.8983,-6.5496,32.2311],[107.896,-6.5532,36.3948],[107.8924,-6.5531,32.6081],[107.8937,-6.5571,34.1986],[107.8867,-6.5553,39.7461],[107.8841,-6.5572,34.7346],[107.8833,-6.5603,38.0063],[107.8807,-6.5615,43.8221],[107.8804,-6.5672,39.7325],[107.8777,-6.5684,42.0814],[107.8737,-6.5666,41.1592],[107.8672,-6.5686,40.8813],[107.8614,-6.5679,43.3784],[107.8514,-6.5716,50.6367],[107.8513,-6.5748,49.5883],[107.8576,-6.5799,64.9184],[107.8752,-6.5845,59.3452],[107.8795,-6.5878,90.2686],[107.9053,-6.5935,88.1022],[107.9183,-6.6032,60.7096],[107.9271,-6.6141,71.1439],[107.9306,-6.6159,71.7648],[107.9352,-6.6148,58.1655],[107.9366,-6.622,61.3983],[107.9403,-6.6256,91.1503],[107.9503,-6.6273,67.9955],[107.9534,-6.6311,61.6414],[107.9613,-6.6326,92.6226],[107.9702,-6.6388,109.6631],[107.9771,-6.6545,122.8086],[107.9857,-6.6622,149.9555],[107.9887,-6.6695,138.3699],[107.9966,-6.6672,122.7172],[107.9986,-6.668,135.1633],[107.9986,-6.67,113.3971],[108.0014,-6.6697,117.202],[108.0046,-6.6726,107.9508],[108.0057,-6.6702,109.4645],[108.0088,-6.6716,103.8586],[108.0083,-6.6743,101.8256],[108.0126,-6.6722,101.0248],[108.0116,-6.675,107.3387],[108.015,-6.6747,97.4623],[108.0167,-6.6762,96.7046],[108.0199,-6.6736,95.7472],[108.0204,-6.6762,91.5863],[108.0219,-6.6754,91.5863],[108.0253,-6.6779,88.4932],[108.0248,-6.674,91.0395],[108.0266,-6.6755,92.089],[108.0275,-6.6741,91.0746],[108.0249,-6.6696,111.8367],[108.0271,-6.6683,87.2816],[108.0276,-6.6643,123.1772],[108.0296,-6.663,87.2277],[108.0281,-6.6606,103.4181],[108.0302,-6.6596,78.4085],[108.0287,-6.6564,72.9418],[108.0308,-6.6546,69.8361],[108.0348,-6.6546,83.302],[108.0324,-6.652,68.9094],[108.0349,-6.6473,66.41],[108.0329,-6.6453,69.0058],[108.0345,-6.6434,65.1783],[108.0312,-6.6392,63.2077],[108.0319,-6.6371,60.8169],[108.0351,-6.6408,61.6717],[108.0428,-6.6406,64.2348],[108.0422,-6.6371,64.8717],[108.0458,-6.6335,59.6059],[108.0441,-6.6312,65.5222],[108.0476,-6.6332,63.5273],[108.048,-6.6301,63.8936],[108.0459,-6.6293,62.1005],[108.0493,-6.6283,62.2024],[108.0505,-6.6261,53.6257],[108.0523,-6.6269,56.8938],[108.0491,-6.6234,52.9654],[108.0519,-6.6237,53.451],[108.0551,-6.6211,62.1862],[108.0583,-6.6225,53.7734],[108.0573,-6.6188,55.3898],[108.0595,-6.6201,58.2254],[108.0628,-6.6165,50.9121],[108.0643,-6.6173,50.5304],[108.0649,-6.6147,53.6066],[108.0669,-6.6165,52.3421],[108.0678,-6.6129,49.0452],[108.0709,-6.6141,48.4922],[108.0712,-6.6094,48.7161],[108.0689,-6.6085,49.87],[108.0699,-6.6034,47.1003],[108.0726,-6.6022,46.6037],[108.0692,-6.6014,50.9376],[108.0717,-6.6009,46.7782],[108.0699,-6.5992,46.6912],[108.0729,-6.5991,46.3919],[108.0743,-6.5965,47.3455],[108.0722,-6.5947,45.2205],[108.0736,-6.5896,44.4716],[108.071,-6.5882,45.3729],[108.0744,-6.589,43.7912],[108.0745,-6.5836,43.5442],[108.0766,-6.5825,44.0496],[108.0738,-6.5816,43.0053],[108.0755,-6.5801,42.6999],[108.0733,-6.5795,41.8552],[108.075,-6.5767,40.7175],[108.0734,-6.5752,46.5631],[108.0779,-6.5769,41.2812],[108.078,-6.5748,39.7735],[108.081,-6.5734,39.2108],[108.0827,-6.5743,38.2708],[108.0837,-6.5722,37.8654],[108.0858,-6.5729,37.6149],[108.0886,-6.5687,36.7171],[108.0918,-6.5681,38.075],[108.0937,-6.5636,35.3698]],
[[107.8968,-6.4196,24.6286],[107.8979,-6.4191,22.884],[107.8979,-6.4202,24.6286],[107.8974,-6.4199,24.6286],[107.8968,-6.4196,24.6286]]],
[[[108.3671,-6.2711,0.0],[108.3669,-6.2722,0.0],[108.3675,-6.2718,0.0],[108.3672,-6.2687,0.0],[108.3661,-6.266,0.0],[108.3669,-6.2683,0.0],[108.3671,-6.2711,0.0]]]]}}