{"type":"Feature","properties":{"GID_3":"IDN.4.8.9_1","GID_0":"IDN","country":"Indonesia","GID_1":"IDN.4_1","province":"Banten","NL_NAME_1":"NA","GID_2":"IDN.4.8_1","county":"Tangerang","NL_NAME_2":"NA","city":"KelapaDua","VARNAME_3":"NA","NL_NAME_3":"NA","TYPE_3":"Kecamatan","ENGTYPE_3":"Sub-district","CC_3":"3603051","HASC_3":"NA","name":"Kelapa_Dua.city"},
"geometry":{"type": "MultiPolygon","coordinates": [[[[106.6108,-6.2253,25.5823],[106.6136,-6.2236,23.3615],[106.6133,-6.2203,21.7524],[106.6095,-6.2203,23.7809],[106.6126,-6.2158,24.2008],[106.6024,-6.2134,23.1381],[106.6047,-6.2084,22.12],[106.6013,-6.2058,21.0315],[106.597,-6.2076,19.0806],[106.5957,-6.2059,18.5884],[106.5929,-6.2194,19.0629],[106.5948,-6.222,21.6325],[106.5934,-6.2229,20.49],[106.596,-6.2262,23.8209],[106.5958,-6.2293,23.8058],[106.5908,-6.2351,23.4714],[106.5904,-6.2379,23.2736],[106.5885,-6.2384,24.6688],[106.5887,-6.242,26.6754],[106.5861,-6.2438,26.1186],[106.5861,-6.2466,26.0121],[106.5892,-6.2478,29.3464],[106.5897,-6.2498,28.8712],[106.5858,-6.2539,28.4669],[106.5865,-6.2617,31.9482],[106.5832,-6.2668,28.898],[106.584,-6.2692,36.8063],[106.5867,-6.2702,36.3454],[106.589,-6.2688,33.8836],[106.5918,-6.2702,33.5082],[106.5919,-6.2728,37.2795],[106.5945,-6.2715,35.4832],[106.5989,-6.2726,39.5502],[106.6054,-6.2612,33.0516],[106.6098,-6.2486,28.4041],[106.6141,-6.2538,28.8738],[106.6155,-6.2622,30.1499],[106.6186,-6.2647,31.989],[106.6321,-6.2625,33.5165],[106.6347,-6.2612,30.4777],[106.6299,-6.2559,33.144],[106.631,-6.2523,32.79],[106.6287,-6.2514,32.8742],[106.6293,-6.2473,32.0712],[106.6439,-6.2468,19.7588],[106.6441,-6.2421,24.9751],[106.637,-6.2375,16.4867],[106.6395,-6.231,27.0055],[106.6366,-6.2287,15.7428],[106.6305,-6.2255,14.2725],[106.6278,-6.2278,17.0353],[106.6193,-6.2275,23.7891],[106.6178,-6.2249,21.2987],[106.6122,-6.2273,25.1088],[106.6108,-6.2253,25.5823]]]]}}