{"type":"Feature","properties":{"GID_3":"IDN.26.15.1_1","GID_0":"IDN","country":"Indonesia","GID_1":"IDN.26_1","province":"SulawesiSelatan","NL_NAME_1":"NA","GID_2":"IDN.26.15_1","county":"PangkajeneDanKepulauan","NL_NAME_2":"NA","city":"Balocci","VARNAME_3":"NA","NL_NAME_3":"NA","TYPE_3":"Kecamatan","ENGTYPE_3":"Sub-district","CC_3":"7309050","HASC_3":"NA","name":"Balocci.city"},
"geometry":{"type": "MultiPolygon","coordinates": [[[[119.7216,-4.9413,848.5742],[119.7259,-4.9381,983.1887],[119.7467,-4.929,1211.7328],[119.7503,-4.931,1208.8812],[119.7524,-4.937,1031.0532],[119.7741,-4.9428,830.5241],[119.7789,-4.9406,823.1917],[119.7816,-4.9318,892.4628],[119.7861,-4.9276,895.7603],[119.7928,-4.9271,949.8265],[119.7975,-4.924,900.0731],[119.8027,-4.9267,952.0746],[119.8047,-4.9251,971.3373],[119.8052,-4.9232,940.0127],[119.8003,-4.9134,781.0299],[119.8018,-4.9099,866.2056],[119.8002,-4.9066,871.839],[119.8047,-4.8863,797.1567],[119.8,-4.8779,821.4625],[119.7915,-4.8779,530.4186],[119.7536,-4.8676,194.1818],[119.7545,-4.8768,251.822],[119.7534,-4.8779,280.2283],[119.7144,-4.8843,417.2094],[119.6729,-4.8775,473.7207],[119.6634,-4.8587,330.4862],[119.6501,-4.8635,301.5342],[119.6414,-4.8704,89.6593],[119.6272,-4.8782,21.4043],[119.6235,-4.8793,16.1805],[119.6122,-4.8785,10.704],[119.6111,-4.8881,2.0394],[119.62,-4.8939,7.0078],[119.6284,-4.9025,8.0542],[119.6423,-4.9058,11.4751],[119.6416,-4.9172,345.2731],[119.6511,-4.924,208.5755],[119.6563,-4.9221,202.6535],[119.6605,-4.9225,177.3922],[119.6691,-4.9307,332.0062],[119.6702,-4.9329,255.7749],[119.6685,-4.9394,152.7043],[119.6696,-4.9459,140.7991],[119.6669,-4.9488,210.2257],[119.6685,-4.9506,289.2134],[119.6788,-4.9526,281.7083],[119.6993,-4.9449,156.366],[119.7051,-4.945,217.9798],[119.7155,-4.9412,679.1323],[119.7216,-4.9413,848.5742]]]]}}