{"type":"Feature","properties":{"GID_3":"IDN.26.15.4_1","GID_0":"IDN","country":"Indonesia","GID_1":"IDN.26_1","province":"SulawesiSelatan","NL_NAME_1":"NA","GID_2":"IDN.26.15_1","county":"PangkajeneDanKepulauan","NL_NAME_2":"NA","city":"LiukangKalukalukuangMas","VARNAME_3":"NA","NL_NAME_3":"NA","TYPE_3":"Kecamatan","ENGTYPE_3":"Sub-district","CC_3":"7309020","HASC_3":"NA","name":"Liukang_Kalukalukuang_Mas.city"},
"geometry":{"type": "MultiPolygon","coordinates": [[[[118.453,-5.5003,0.0],[118.45,-5.5014,5.7859],[118.45,-5.5069,5.7719],[118.4523,-5.5116,0.0],[118.4566,-5.5118,2.1531],[118.4571,-5.5028,0.0],[118.453,-5.5003,0.0]]],
[[[118.6321,-5.4871,0.0],[118.6283,-5.4888,0.0],[118.6273,-5.4926,0.0],[118.6301,-5.5017,0.0],[118.6321,-5.5031,0.0],[118.6347,-5.4902,0.0],[118.6321,-5.4871,0.0]]],
[[[118.4286,-5.4151,1.0637],[118.4369,-5.408,0.0],[118.4334,-5.3983,1.225],[118.4284,-5.3948,2.8093],[118.4248,-5.397,4.6701],[118.4243,-5.399,6.6612],[118.4259,-5.4039,4.1114],[118.4251,-5.4144,4.0985],[118.4267,-5.4184,0.0],[118.4286,-5.4151,1.0637]]],
[[[117.932,-5.3545,0.0],[117.9251,-5.3524,0.0],[117.9206,-5.3542,0.0],[117.9274,-5.3893,2.4354],[117.9365,-5.4043,0.4802],[117.9447,-5.4078,1.4067],[117.9488,-5.4072,2.4152],[117.9531,-5.3984,0.0],[117.9529,-5.3878,-0.1422],[117.932,-5.3545,0.0]]],
[[[117.8882,-5.2927,4.5206],[117.8897,-5.2958,0.9277],[117.8986,-5.2614,0.4313],[117.8929,-5.2381,3.6094],[117.8894,-5.234,0.0],[117.8866,-5.2384,0.0],[117.8857,-5.2467,0.3656],[117.8857,-5.2521,0.0],[117.8907,-5.2632,0.8501],[117.8882,-5.2927,4.5206]]],
[[[117.6552,-5.2275,1.1295],[117.6582,-5.2218,0.0],[117.6554,-5.2254,0.1746],[117.6498,-5.228,0.0],[117.6551,-5.2289,0.0],[117.6561,-5.2284,0.0],[117.6552,-5.2275,1.1295]]],
[[[117.6548,-5.2214,0.3883],[117.656,-5.222,0.3883],[117.6818,-5.1978,0.0],[117.6783,-5.1903,-0.101],[117.6736,-5.1849,0.8869],[117.6612,-5.1756,0.0],[117.6592,-5.1762,0.0],[117.6541,-5.184,0.0],[117.6541,-5.1906,1.0534],[117.6525,-5.193,2.0224],[117.6564,-5.1952,0.6746],[117.6605,-5.2017,2.7792],[117.6548,-5.2214,0.3883]]],
[[[117.8865,-5.1686,4.1127],[117.883,-5.1678,0.0],[117.8793,-5.17,5.852],[117.8777,-5.1742,0.0],[117.88,-5.1786,3.4564],[117.8849,-5.1788,4.7633],[117.8902,-5.1736,1.1534],[117.8903,-5.1716,1.7],[117.8865,-5.1686,4.1127]]],
[[[118.1474,-5.1141,0.0099],[118.1456,-5.1144,0.0],[118.1438,-5.1211,0.0],[118.1389,-5.1267,0.0],[118.1561,-5.1342,0.0],[118.153,-5.1229,0.0],[118.1474,-5.1141,0.0099]]],
[[[117.0517,-5.0902,3.8274],[117.0486,-5.0885,3.1847],[117.0464,-5.0897,7.5585],[117.0475,-5.0903,7.5585],[117.0451,-5.0939,0.0],[117.0462,-5.0968,6.2592],[117.054,-5.1016,0.0],[117.0585,-5.1015,0.0],[117.062,-5.0977,0.0],[117.0517,-5.0902,3.8274]]],
[[[117.039,-5.0532,0.0],[117.0417,-5.0507,0.9509],[117.0429,-5.0465,4.215],[117.0423,-5.0425,1.1939],[117.04,-5.0404,1.3924],[117.0389,-5.0429,2.5797],[117.039,-5.0532,0.0]]],
[[[117.0565,-5.0384,0.0],[117.0594,-5.0362,3.1693],[117.0572,-5.0322,0.0],[117.0558,-5.0379,4.6689],[117.0565,-5.0384,0.0]]],
[[[117.0636,-5.0259,0.0],[117.0642,-5.026,0.0],[117.063,-5.0253,0.0],[117.063,-5.0256,0.0],[117.0636,-5.0259,0.0]]],
[[[117.9155,-5.0568,0.8284],[117.9193,-5.055,0.8513],[117.9211,-5.0519,1.9312],[117.9189,-5.048,3.045],[117.9148,-5.0501,4.2163],[117.9138,-5.0559,0.0],[117.9155,-5.0568,0.8284]]],
[[[117.0734,-5.0447,4.1173],[117.0714,-5.0461,0.0],[117.0749,-5.0504,0.0],[117.0756,-5.0466,2.0045],[117.0734,-5.0447,4.1173]]],
[[[117.063,-5.0235,0.0],[117.0628,-5.0211,0.0],[117.0617,-5.0222,0.0],[117.0615,-5.0237,0.0],[117.063,-5.0235,0.0]]],
[[[117.0725,-5.0177,0.0],[117.069,-5.0208,0.0],[117.0685,-5.0239,2.6656],[117.0726,-5.025,0.0],[117.0751,-5.0231,0.0],[117.0756,-5.0193,1.5572],[117.0725,-5.0177,0.0]]]]}}