{"type":"Feature","properties":{"GID_3":"IDN.28.4.18_1","GID_0":"IDN","country":"Indonesia","GID_1":"IDN.28_1","province":"SulawesiTenggara","NL_NAME_1":"NA","GID_2":"IDN.28.4_1","county":"Buton","NL_NAME_2":"NA","city":"Siontapina","VARNAME_3":"NA","NL_NAME_3":"NA","TYPE_3":"Kecamatan","ENGTYPE_3":"Sub-district","CC_3":"7401052","HASC_3":"NA","name":"Siontapina.city"},
"geometry":{"type": "MultiPolygon","coordinates": [[[[123.042,-5.4323,3.7273],[123.0601,-5.4224,7.4508],[123.0966,-5.4104,2.1917],[123.1137,-5.4006,4.6896],[123.1238,-5.4012,7.6377],[123.1311,-5.3988,5.895],[123.1357,-5.3959,2.9573],[123.1404,-5.3894,18.1331],[123.1419,-5.3832,0.9033],[123.1532,-5.3737,0.0],[123.1541,-5.3702,3.7655],[123.1575,-5.3685,0.0],[123.1587,-5.3638,7.7995],[123.1619,-5.3619,3.4267],[123.1623,-5.3647,0.0],[123.1643,-5.3647,0.9128],[123.1657,-5.3605,5.6778],[123.1575,-5.3494,11.1705],[123.1449,-5.3421,57.2148],[123.1155,-5.3461,54.2515],[123.0869,-5.3113,69.1373],[123.0735,-5.3067,87.4225],[123.0615,-5.3073,99.9221],[123.0455,-5.302,157.9542],[123.0375,-5.2893,124.1076],[123.0202,-5.286,308.3124],[123.0117,-5.27,203.75],[123.0033,-5.277,271.4387],[122.955,-5.3025,395.3925],[122.922,-5.3287,259.0114],[122.9351,-5.3477,242.4039],[122.9794,-5.3742,117.5862],[122.982,-5.381,108.5986],[122.9883,-5.3817,21.2827],[122.9939,-5.3891,15.5077],[122.9979,-5.3912,20.9583],[122.9963,-5.3966,14.9352],[122.9887,-5.3954,2.2437],[122.9885,-5.3972,4.208],[122.9903,-5.3992,7.4963],[122.9958,-5.3997,0.7013],[122.9996,-5.4056,1.6851],[122.9993,-5.4077,0.7093],[123.0012,-5.4067,3.7171],[123.0012,-5.4116,1.8995],[123.0044,-5.4141,2.37],[123.003,-5.4162,1.2544],[123.0041,-5.4217,0.333],[123.0101,-5.4342,3.4708],[123.0138,-5.4382,5.2472],[123.0152,-5.4437,3.2856],[123.0315,-5.4387,1.8263],[123.042,-5.4323,3.7273]]]]}}