{"type":"Feature","properties":{"GID_2":"IDN.13.5_1","GID_0":"IDN","country":"Indonesia","GID_1":"IDN.13_1","province":"KalimantanSelatan","NL_NAME_1":"NA","county":"BaritoKuala","VARNAME_2":"NA","NL_NAME_2":"NA","TYPE_2":"Kabupaten","ENGTYPE_2":"Regency","CC_2":"6304","HASC_2":"ID.KS.BK","name":"Barito_Kuala.county"},
"geometry":{"type": "MultiPolygon","coordinates": [[[[114.4979,-3.4236,0.0],[114.4969,-3.4142,0.0],[114.5023,-3.3893,0.0],[114.5064,-3.3901,0.0],[114.5108,-3.3792,0.0],[114.5286,-3.3554,0.0],[114.5237,-3.3528,0.6283],[114.5338,-3.3417,1.8309],[114.5427,-3.3439,0.0],[114.5526,-3.3342,0.0],[114.5646,-3.3104,1.2992],[114.5673,-3.2993,0.0],[114.566,-3.2725,1.7647],[114.5681,-3.2683,2.5884],[114.5752,-3.2701,3.0948],[114.5771,-3.277,2.7287],[114.583,-3.2736,1.6009],[114.5921,-3.279,1.8678],[114.5951,-3.2816,2.2451],[114.5967,-3.2875,3.8296],[114.6011,-3.2894,1.4835],[114.6063,-3.2863,1.4292],[114.606,-3.2809,2.5761],[114.6096,-3.2803,2.6369],[114.6158,-3.2814,4.672],[114.6236,-3.2859,3.5299],[114.6263,-3.2799,5.9625],[114.6326,-3.2778,3.8152],[114.6354,-3.2728,2.2201],[114.6395,-3.2748,3.129],[114.6913,-3.2559,1.2753],[114.7044,-3.2536,1.6374],[114.7534,-3.2347,1.7916],[114.7634,-3.2325,2.009],[114.7682,-3.2269,1.5595],[114.7757,-3.2302,1.5316],[114.7796,-3.2297,1.5599],[114.7822,-3.2253,1.5457],[114.7895,-3.2203,1.4185],[114.7864,-3.2143,1.6892],[114.79,-3.2016,1.5372],[114.792,-3.1777,1.763],[114.8109,-3.2011,1.3147],[114.8226,-3.1993,1.8584],[114.8217,-3.189,3.9296],[114.8314,-3.1287,3.5274],[114.8275,-3.0151,3.417],[114.8241,-3.0111,3.8645],[114.8148,-3.0071,2.485],[114.8151,-2.99,1.965],[114.8072,-2.9778,1.7834],[114.8086,-2.9745,2.3005],[114.8044,-2.9683,1.5548],[114.8023,-2.9434,1.3635],[114.8026,-2.9406,1.6891],[114.8153,-2.93,3.3462],[114.8403,-2.8707,4.7382],[114.8116,-2.8069,5.7983],[114.8042,-2.7423,4.4063],[114.8541,-2.5452,3.6127],[114.8616,-2.5241,2.4904],[114.8604,-2.5216,0.5],[114.8517,-2.5296,0.5],[114.837,-2.5587,0.5],[114.8066,-2.5791,0.5],[114.8023,-2.5831,0.5],[114.7968,-2.5923,0.5],[114.7927,-2.6146,0.5],[114.7917,-2.6305,0.5],[114.7934,-2.6512,0.5],[114.7907,-2.67,0.5],[114.7864,-2.6835,0.5],[114.7714,-2.6971,0.5],[114.7604,-2.7213,0.5],[114.7514,-2.7241,0.5],[114.7334,-2.7342,0.5],[114.7183,-2.7401,0.5],[114.7066,-2.7403,0.5],[114.6911,-2.7354,0.5],[114.6832,-2.7367,2.3677],[114.6777,-2.7395,1.8785],[114.6712,-2.7521,5.3133],[114.6731,-2.7611,5.9629],[114.6784,-2.7679,2.3931],[114.6798,-2.7736,0.5],[114.6789,-2.7817,0.5],[114.6662,-2.7993,3.1418],[114.6615,-2.8022,0.5],[114.635,-2.8053,0.5],[114.5987,-2.8155,0.5],[114.6177,-2.8834,2.209],[114.6073,-2.8874,3.5417],[114.5678,-2.8664,4.6593],[114.5416,-2.9239,4.7187],[114.5241,-2.9268,8.6079],[114.5462,-2.9474,5.5075],[114.5067,-2.9976,4.7513],[114.5056,-3.0014,5.3866],[114.4962,-3.015,2.079],[114.5458,-3.0678,2.758],[114.4563,-3.143,1.8526],[114.4538,-3.15,1.5755],[114.4454,-3.1621,1.6693],[114.4294,-3.1743,1.8953],[114.4375,-3.1914,1.7304],[114.4502,-3.21,2.9068],[114.4366,-3.2182,2.5756],[114.421,-3.2478,5.0811],[114.4066,-3.2573,2.9307],[114.4028,-3.252,1.9162],[114.3835,-3.2675,1.0976],[114.3798,-3.3004,4.0162],[114.3716,-3.3076,3.903],[114.3716,-3.3204,1.4144],[114.3685,-3.326,2.238],[114.3463,-3.3513,5.8363],[114.3505,-3.3688,4.3889],[114.3589,-3.3864,5.1227],[114.3555,-3.4108,4.8432],[114.3529,-3.4152,3.3621],[114.3483,-3.4166,3.4926],[114.3463,-3.4194,3.756],[114.3476,-3.426,1.5345],[114.3469,-3.4363,2.6617],[114.3492,-3.4408,2.8507],[114.3536,-3.4426,4.5599],[114.3489,-3.4618,2.3053],[114.3596,-3.4655,0.6132],[114.3649,-3.4648,14.2899],[114.3634,-3.4685,0.5035],[114.3789,-3.4755,2.2788],[114.3825,-3.4736,11.6198],[114.3821,-3.4757,8.8905],[114.3879,-3.4781,3.4336],[114.3898,-3.4806,5.7598],[114.3933,-3.4804,5.5594],[114.3942,-3.4823,1.2492],[114.3973,-3.4815,4.4391],[114.4014,-3.4854,0.0],[114.4062,-3.4859,7.7426],[114.4078,-3.4889,0.0],[114.4159,-3.4934,0.0],[114.4175,-3.4918,1.6314],[114.4179,-3.4942,1.8785],[114.4203,-3.4959,0.0],[114.4266,-3.4981,0.0],[114.4279,-3.4966,0.3711],[114.4306,-3.5015,0.0],[114.4439,-3.5042,0.0],[114.4451,-3.5029,0.4831],[114.4811,-3.5029,1.0212],[114.4852,-3.5002,0.0],[114.509,-3.5447,0.0],[114.5117,-3.5362,1.7423],[114.5153,-3.4965,0.0],[114.5119,-3.4693,0.0],[114.5126,-3.4607,0.0],[114.4979,-3.4236,0.0]]]]}}