{"type":"Feature","properties":{"GID_3":"IDN.32.23.3_1","GID_0":"IDN","country":"Indonesia","GID_1":"IDN.32_1","province":"SumateraUtara","NL_NAME_1":"NA","GID_2":"IDN.32.23_1","county":"Padangsidimpuan","NL_NAME_2":"NA","city":"PadangsidimpuanHutaimbar","VARNAME_3":"NA","NL_NAME_3":"NA","TYPE_3":"Kecamatan","ENGTYPE_3":"Sub-district","CC_3":"1277050","HASC_3":"NA","name":"Padangsidimpuan_Hutaimbar.city"},
"geometry":{"type": "MultiPolygon","coordinates": [[[[99.2424,1.3976,388.8427],[99.2456,1.4024,394.761],[99.2445,1.4038,400.8397],[99.2461,1.4038,395.1765],[99.2453,1.4062,407.0814],[99.251,1.4077,394.7261],[99.2509,1.4092,401.0069],[99.2546,1.4107,391.871],[99.2547,1.4137,397.8888],[99.2564,1.4126,399.647],[99.2631,1.4167,462.0029],[99.2653,1.422,493.4676],[99.261,1.4247,499.0886],[99.2599,1.4295,539.499],[99.2678,1.4359,480.9893],[99.2615,1.4392,496.9856],[99.2601,1.4374,501.0689],[99.2512,1.4398,539.8175],[99.245,1.4471,614.0474],[99.2466,1.4487,600.3341],[99.2458,1.4517,634.544],[99.2421,1.4528,666.7291],[99.2393,1.4589,759.9763],[99.2334,1.4608,929.3202],[99.2313,1.4643,942.178],[99.2252,1.4532,849.1949],[99.2273,1.4153,486.6836],[99.2247,1.4146,503.5596],[99.2218,1.4096,481.1083],[99.2275,1.4046,442.2996],[99.2289,1.3954,469.8283],[99.2387,1.3866,436.4897],[99.2438,1.3892,371.7067],[99.2427,1.3927,374.3091],[99.2473,1.394,369.3484],[99.2465,1.3961,382.481],[99.2439,1.3955,388.1664],[99.2424,1.3976,388.8427]]]]}}