{"type":"Feature","properties":{"GID_3":"IDN.10.7.13_1","GID_0":"IDN","country":"Indonesia","GID_1":"IDN.10_1","province":"JawaTengah","NL_NAME_1":"NA","GID_2":"IDN.10.7_1","county":"Cilacap","NL_NAME_2":"NA","city":"Karangpucung","VARNAME_3":"NA","NL_NAME_3":"NA","TYPE_3":"Kecamatan","ENGTYPE_3":"Sub-district","CC_3":"3301050","HASC_3":"NA","name":"Karangpucung.city"},
"geometry":{"type": "MultiPolygon","coordinates": [[[[108.9223,-7.4376,183.9161],[108.9316,-7.4313,140.0059],[108.9301,-7.4233,322.8341],[108.9391,-7.4125,160.824],[108.9354,-7.4058,197.4398],[108.9385,-7.3982,126.1513],[108.9387,-7.3928,159.4239],[108.9355,-7.39,195.9338],[108.9398,-7.3857,235.4381],[108.945,-7.3844,273.168],[108.9494,-7.3808,270.5084],[108.9518,-7.3717,328.4376],[108.9545,-7.3685,302.7044],[108.9496,-7.3655,252.2645],[108.9501,-7.3636,229.1497],[108.9542,-7.3584,182.306],[108.9564,-7.3587,173.1338],[108.9625,-7.3544,244.9924],[108.9629,-7.3469,293.7258],[108.9616,-7.345,272.9885],[108.9629,-7.3454,306.0945],[108.9649,-7.3424,300.9699],[108.9674,-7.3329,441.571],[108.9653,-7.3323,446.1295],[108.9622,-7.3342,503.8511],[108.9573,-7.331,454.4199],[108.9515,-7.3311,506.8094],[108.9501,-7.3295,487.3539],[108.9523,-7.3289,485.5659],[108.9524,-7.3262,498.8575],[108.9492,-7.3244,586.839],[108.9516,-7.3187,552.4794],[108.9502,-7.3154,614.7996],[108.9435,-7.3177,559.7711],[108.9391,-7.3156,550.5717],[108.9338,-7.319,571.9318],[108.9285,-7.3179,550.6714],[108.9214,-7.3122,511.9479],[108.9185,-7.3047,463.1826],[108.914,-7.3029,540.3487],[108.9146,-7.321,269.6734],[108.9,-7.325,279.7073],[108.8972,-7.3243,395.0513],[108.8908,-7.3186,214.2716],[108.8877,-7.3181,154.4503],[108.8863,-7.322,131.1785],[108.8837,-7.3234,139.3734],[108.8829,-7.3331,225.3974],[108.8859,-7.3347,158.2298],[108.8895,-7.341,120.0068],[108.892,-7.3508,76.2799],[108.8888,-7.3541,72.3132],[108.8881,-7.3604,128.5719],[108.8902,-7.3618,74.2133],[108.887,-7.3634,75.0819],[108.8859,-7.3678,73.1712],[108.8844,-7.368,81.7103],[108.8851,-7.3707,70.5151],[108.8836,-7.3698,72.2613],[108.8797,-7.3715,67.4158],[108.8755,-7.3703,53.985],[108.8759,-7.3731,48.2986],[108.8734,-7.3727,57.6732],[108.8714,-7.3751,54.5918],[108.8667,-7.3703,46.2392],[108.8605,-7.368,43.2382],[108.8607,-7.3698,64.4843],[108.8533,-7.371,40.5877],[108.8511,-7.378,40.7019],[108.8395,-7.3713,40.3998],[108.841,-7.3688,36.5928],[108.8327,-7.37,36.4756],[108.8303,-7.3685,38.8805],[108.8311,-7.376,91.7679],[108.8402,-7.3807,162.3976],[108.84,-7.3838,206.2769],[108.8453,-7.3914,121.1958],[108.8406,-7.3952,147.4346],[108.8433,-7.3983,125.1589],[108.8346,-7.4047,32.7236],[108.829,-7.4052,30.586],[108.828,-7.4101,35.8331],[108.825,-7.4106,36.5894],[108.822,-7.4149,63.1084],[108.8333,-7.4191,85.357],[108.8354,-7.4222,159.6322],[108.8365,-7.4294,210.5803],[108.8445,-7.4302,255.6391],[108.8457,-7.4252,165.0354],[108.8452,-7.412,76.0951],[108.8633,-7.416,146.0054],[108.8585,-7.4198,69.7617],[108.8593,-7.421,69.7617],[108.8575,-7.4228,94.729],[108.8646,-7.4284,62.9215],[108.8688,-7.4278,96.7753],[108.8721,-7.4313,64.8429],[108.8798,-7.4336,50.8631],[108.8844,-7.4333,50.6354],[108.8867,-7.4384,53.5715],[108.8841,-7.4432,41.783],[108.8925,-7.4489,32.3686],[108.9044,-7.4458,67.2953],[108.9145,-7.445,122.6308],[108.9172,-7.4408,140.8799],[108.9223,-7.4376,183.9161]]]]}}