{"type":"Feature","properties":{"GID_3":"IDN.32.32.1_1","GID_0":"IDN","country":"Indonesia","GID_1":"IDN.32_1","province":"SumateraUtara","NL_NAME_1":"NA","GID_2":"IDN.32.32_1","county":"TapanuliUtara","NL_NAME_2":"NA","city":"AdianKoting","VARNAME_3":"NA","NL_NAME_3":"NA","TYPE_3":"Kecamatan","ENGTYPE_3":"Sub-district","CC_3":"1205040","HASC_3":"NA","name":"Adian_Koting.city"},
"geometry":{"type": "MultiPolygon","coordinates": [[[[98.8773,1.782,890.6451],[98.8811,1.7689,605.7441],[98.8918,1.7544,445.5397],[98.907,1.7561,568.1376],[98.9129,1.7588,575.2702],[98.9212,1.7563,662.0524],[98.923,1.7579,641.4005],[98.9331,1.7583,651.0726],[98.9392,1.7604,646.1387],[98.9581,1.7609,722.0322],[98.9668,1.7641,835.9828],[98.9791,1.7729,874.791],[99.0027,1.7988,1029.7562],[99.0048,1.819,849.2173],[99.0043,1.8297,969.3497],[99.0074,1.8346,1094.938],[99.0137,1.9046,1049.5897],[99.0185,1.9147,937.4881],[99.0168,1.924,937.7747],[99.0117,1.9277,957.5742],[99.0022,1.9415,1003.7991],[98.9649,1.9675,1331.345],[98.9488,1.9731,1199.7468],[98.9386,1.9785,1283.9963],[98.9371,1.9825,1218.1558],[98.9288,1.9919,1275.6193],[98.9163,1.9915,1177.1416],[98.9106,1.9875,1093.5532],[98.9068,1.987,1074.7832],[98.8861,1.9869,1196.4756],[98.8777,1.9885,1099.3567],[98.8663,1.9939,1057.6521],[98.8584,1.9941,918.0885],[98.8478,1.9971,949.2648],[98.8187,1.9833,832.8596],[98.8112,1.9722,724.2936],[98.812,1.9678,728.6971],[98.8095,1.9652,748.1258],[98.8099,1.9634,801.6274],[98.8034,1.9594,749.0079],[98.8011,1.9597,769.8862],[98.8071,1.9565,745.4883],[98.813,1.9446,604.0411],[98.8181,1.9441,616.6008],[98.8196,1.9354,913.3591],[98.8236,1.926,766.6294],[98.8228,1.919,668.1723],[98.8249,1.9117,531.4135],[98.8202,1.9042,492.5853],[98.8213,1.8996,576.2175],[98.8159,1.8925,517.5106],[98.8138,1.8862,519.3596],[98.8087,1.8842,492.3434],[98.796,1.8891,534.9153],[98.7909,1.8894,465.3277],[98.7852,1.8781,515.6605],[98.7855,1.8685,278.4707],[98.7885,1.8615,260.9732],[98.8036,1.8724,587.0478],[98.8158,1.8685,598.1315],[98.8176,1.8664,606.2526],[98.815,1.8616,400.5917],[98.8261,1.8487,378.9542],[98.8423,1.8242,404.4788],[98.8605,1.8156,492.9842],[98.872,1.8021,556.9108],[98.8731,1.7933,733.0271],[98.8773,1.782,890.6451]]]]}}