{"type":"Feature","properties":{"GID_3":"IDN.24.5.16_1","GID_0":"IDN","country":"Indonesia","GID_1":"IDN.24_1","province":"Riau","NL_NAME_1":"NA","GID_2":"IDN.24.5_1","county":"Kampar","NL_NAME_2":"NA","city":"Tambang","VARNAME_3":"NA","NL_NAME_3":"NA","TYPE_3":"Kecamatan","ENGTYPE_3":"Sub-district","CC_3":"1406070","HASC_3":"NA","name":"Tambang.city"},
"geometry":{"type": "MultiPolygon","coordinates": [[[[101.2733,0.2707,56.7292],[101.3291,0.271,45.1952],[101.3283,0.3059,35.51],[101.3672,0.3087,34.7014],[101.3864,0.3277,35.2846],[101.3968,0.3342,28.2717],[101.4137,0.3521,13.8743],[101.4163,0.3623,14.2864],[101.4176,0.3848,11.7996],[101.4224,0.3794,15.3808],[101.4264,0.3788,9.5],[101.4304,0.3807,10.6375],[101.4322,0.3838,12.5579],[101.431,0.389,13.6428],[101.4322,0.395,17.1652],[101.4266,0.3951,13.3296],[101.4252,0.3924,15.405],[101.4197,0.3914,15.2431],[101.4164,0.3958,17.8746],[101.4074,0.392,16.077],[101.401,0.3947,14.0363],[101.395,0.4126,17.3787],[101.3969,0.4333,24.3954],[101.3918,0.4364,22.6513],[101.3907,0.4332,21.5764],[101.389,0.4328,20.381],[101.3812,0.4344,23.1575],[101.3705,0.434,22.532],[101.3701,0.4354,22.532],[101.3629,0.432,29.0753],[101.3578,0.4674,30.699],[101.3494,0.4681,27.7274],[101.2307,0.4497,25.0176],[101.2133,0.4489,30.9286],[101.2091,0.4455,31.255],[101.2147,0.4334,52.213],[101.225,0.418,52.2785],[101.2196,0.4044,36.9724],[101.2167,0.3781,21.7033],[101.2085,0.3755,31.0056],[101.2073,0.3698,21.8457],[101.2103,0.3685,17.3643],[101.2119,0.3647,15.5],[101.2204,0.3624,28.0543],[101.2233,0.3557,22.4785],[101.2457,0.2716,62.5008],[101.2733,0.2707,56.7292]]]]}}