{"type":"Feature","properties":{"GID_3":"IDN.14.10.6_1","GID_0":"IDN","country":"Indonesia","GID_1":"IDN.14_1","province":"KalimantanTengah","NL_NAME_1":"NA","GID_2":"IDN.14.10_1","county":"MurungRaya","NL_NAME_2":"NA","city":"SumberBarito","VARNAME_3":"NA","NL_NAME_3":"NA","TYPE_3":"Kecamatan","ENGTYPE_3":"Sub-district","CC_3":"6213050","HASC_3":"NA","name":"Sumber_Barito.city"},
"geometry":{"type": "MultiPolygon","coordinates": [[[[114.0803,-0.619,173.4511],[114.1096,-0.695,103.544],[114.1222,-0.6845,117.3219],[114.1554,-0.6449,158.6615],[114.1751,-0.6102,106.7312],[114.2353,-0.5643,79.1455],[114.2624,-0.5396,159.7894],[114.2955,-0.4962,229.0063],[114.3226,-0.4541,246.9165],[114.3336,-0.4232,220.1108],[114.357,-0.3947,203.4281],[114.3754,-0.3947,337.08],[114.4062,-0.3984,630.006],[114.4369,-0.4044,593.0182],[114.4271,-0.3724,349.2461],[114.417,-0.2806,465.7336],[114.3366,-0.2517,473.8447],[114.2694,-0.2341,291.2272],[114.2283,-0.2308,303.7694],[114.135,-0.2665,349.658],[114.0299,-0.2724,565.6395],[113.9744,-0.2783,467.5774],[113.9247,-0.3047,190.3223],[113.8751,-0.3489,327.4238],[113.8353,-0.4534,1026.9303],[113.8847,-0.4584,684.4082],[113.8892,-0.4635,718.6986],[113.8943,-0.4629,696.7313],[113.8949,-0.4655,767.9033],[113.902,-0.4687,809.8224],[113.9071,-0.4655,809.1852],[113.9205,-0.4661,771.5037],[113.9289,-0.4584,805.6588],[113.9276,-0.4055,744.341],[113.9429,-0.3861,412.0112],[113.9734,-0.3751,541.6573],[113.9915,-0.381,850.6971],[114.0121,-0.4162,352.0569],[114.029,-0.4839,291.3537],[114.0521,-0.5221,421.2576],[114.0609,-0.5409,403.4898],[114.0692,-0.5861,297.6971],[114.0752,-0.6097,279.9248],[114.0803,-0.619,173.4511]]]]}}