{"type":"Feature","properties":{"GID_3":"IDN.31.6.4_1","GID_0":"IDN","country":"Indonesia","GID_1":"IDN.31_1","province":"SumateraSelatan","NL_NAME_1":"NA","GID_2":"IDN.31.6_1","county":"MusiBanyuasin","NL_NAME_2":"NA","city":"Keluang","VARNAME_3":"NA","NL_NAME_3":"NA","TYPE_3":"Kecamatan","ENGTYPE_3":"Sub-district","CC_3":"1606091","HASC_3":"NA","name":"Keluang.city"},
"geometry":{"type": "MultiPolygon","coordinates": [[[[104.0416,-2.584,2.4628],[104.0389,-2.583,5.2577],[104.0353,-2.5771,0.8145],[104.0321,-2.5624,2.4809],[104.022,-2.5529,2.9152],[104.0001,-2.5446,5.752],[103.9843,-2.546,3.6575],[103.9792,-2.5436,3.1829],[103.9774,-2.5409,9.799],[103.9762,-2.5328,5.5146],[103.9619,-2.5254,6.8237],[103.9617,-2.5232,7.9048],[103.9651,-2.5188,4.7608],[103.9637,-2.5151,5.7241],[103.9577,-2.5171,7.485],[103.9561,-2.5151,10.3763],[103.9589,-2.5125,5.7853],[103.9582,-2.5105,7.7445],[103.9314,-2.5019,10.6015],[103.9291,-2.4988,18.7593],[103.9278,-2.4908,10.3748],[103.9314,-2.4778,22.0258],[103.9321,-2.469,34.1005],[103.9291,-2.4552,46.3792],[103.9279,-2.4546,46.3792],[103.9239,-2.4559,39.7062],[103.9199,-2.4615,42.1279],[103.9137,-2.4656,40.8854],[103.911,-2.4646,34.3683],[103.9096,-2.4567,31.3897],[103.9079,-2.4548,30.5962],[103.8844,-2.4542,44.6534],[103.8412,-2.4646,42.8618],[103.8259,-2.4646,45.4857],[103.8121,-2.4669,48.5414],[103.7941,-2.4719,64.8404],[103.7827,-2.4783,70.9983],[103.7808,-2.4891,64.1193],[103.7835,-2.5005,62.4999],[103.7807,-2.5081,63.0224],[103.7808,-2.5192,51.4367],[103.7779,-2.5263,63.6555],[103.7785,-2.531,51.848],[103.7925,-2.537,65.1411],[103.7951,-2.5431,57.3912],[103.8183,-2.5593,55.8106],[103.8333,-2.5657,37.2338],[103.852,-2.6045,44.8339],[103.8549,-2.6153,41.4088],[103.8761,-2.6179,49.6266],[103.8983,-2.6339,40.1624],[103.9027,-2.6403,37.1557],[103.9043,-2.6454,44.8401],[103.9036,-2.6509,35.8417],[103.8995,-2.6602,47.4057],[103.9121,-2.6618,29.8672],[103.914,-2.6681,36.6749],[103.9126,-2.6785,48.5811],[103.9237,-2.6843,45.5932],[103.9238,-2.6884,43.3832],[103.9176,-2.6961,39.94],[103.9208,-2.7056,29.9814],[103.9204,-2.7101,42.6668],[103.9174,-2.7151,41.3416],[103.9188,-2.7211,45.9365],[103.9211,-2.7205,36.8292],[103.9223,-2.7218,36.585],[103.9222,-2.7262,39.6156],[103.9259,-2.7321,33.6706],[103.926,-2.7411,35.1971],[103.9289,-2.7473,38.5378],[103.9281,-2.75,32.2049],[103.9296,-2.7543,33.7677],[103.9651,-2.7339,30.4739],[103.9943,-2.7115,18.7225],[104.0119,-2.6942,10.9559],[104.0398,-2.6575,6.6405],[104.0509,-2.629,4.9419],[104.0489,-2.591,7.0646],[104.0439,-2.5831,1.3587],[104.0416,-2.584,2.4628]]]]}}