{"type":"Feature","properties":{"GID_3":"IDN.32.34.12_1","GID_0":"IDN","country":"Indonesia","GID_1":"IDN.32_1","province":"SumateraUtara","NL_NAME_1":"NA","GID_2":"IDN.32.34_1","county":"TobaSamosir","NL_NAME_2":"NA","city":"SiantarNarumonda","VARNAME_3":"NA","NL_NAME_3":"NA","TYPE_3":"Kecamatan","ENGTYPE_3":"Sub-district","CC_3":"1206072","HASC_3":"NA","name":"Siantar_Narumonda.city"},
"geometry":{"type": "MultiPolygon","coordinates": [[[[99.153,2.4225,902.6964],[99.1543,2.4175,905.3737],[99.1968,2.4157,958.8339],[99.2024,2.4181,935.27739999999994],[99.2076,2.4234,925.6801],[99.2178,2.4427,962.6599],[99.2275,2.4522,1388.812],[99.2331,2.4545,1449.3606],[99.243,2.4532,1351.2122],[99.279,2.4754,1033.1571],[99.259,2.4922,1038.9711],[99.2439,2.5,957.95],[99.2355,2.4907,1042.0826],[99.2261,2.4768,1183.1292],[99.2131,2.4792,1121.4019],[99.2012,2.4588,925.1333],[99.1954,2.4411,917.8699],[99.1859,2.4382,908.96489999999994],[99.1702,2.4483,906.9495],[99.1688,2.4402,906.5137],[99.1607,2.4369,908.852],[99.161,2.4334,909.1783],[99.1596,2.4316,918.714],[99.1503,2.4305,905.1722],[99.153,2.4225,902.6964]]]]}}