{"type":"Feature","properties":{"GID_3":"IDN.9.22.3_1","GID_0":"IDN","country":"Indonesia","GID_1":"IDN.9_1","province":"JawaBarat","NL_NAME_1":"NA","GID_2":"IDN.9.22_1","county":"Purwakarta","NL_NAME_2":"NA","city":"Bungursari","VARNAME_3":"NA","NL_NAME_3":"NA","TYPE_3":"Kecamatan","ENGTYPE_3":"Sub-district","CC_3":"3214112","HASC_3":"NA","name":"Bungursari.city"},
"geometry":{"type": "MultiPolygon","coordinates": [[[[107.459,-6.5084,100.4187],[107.4681,-6.5155,105.2113],[107.473,-6.5145,75.7481],[107.4753,-6.5159,67.5123],[107.4754,-6.5123,71.0366],[107.4733,-6.5108,64.3071],[107.4764,-6.5086,64.0527],[107.4731,-6.5068,61.697],[107.4785,-6.5023,64.4862],[107.4756,-6.4979,58.5652],[107.4796,-6.4988,66.3463],[107.4801,-6.495,62.7459],[107.4836,-6.4977,62.4709],[107.4838,-6.4948,59.5655],[107.4886,-6.4919,68.9697],[107.4872,-6.4871,56.2879],[107.4854,-6.4867,56.2879],[107.4881,-6.4858,60.4491],[107.4873,-6.4836,56.0559],[107.4902,-6.4779,56.3758],[107.4884,-6.4739,53.8019],[107.4887,-6.47,52.4993],[107.491,-6.4709,51.7057],[107.4923,-6.4685,52.6911],[107.49,-6.467,51.1401],[107.4901,-6.4651,51.3669],[107.4925,-6.4629,50.1397],[107.4929,-6.4607,49.9844],[107.4912,-6.4601,51.4565],[107.4933,-6.4597,49.9844],[107.4922,-6.4583,52.7097],[107.4954,-6.454,48.9018],[107.4936,-6.4536,48.9018],[107.4955,-6.4487,49.004],[107.4971,-6.4493,49.004],[107.4997,-6.4471,47.0713],[107.5007,-6.4489,49.3148],[107.502,-6.4465,48.3234],[107.5051,-6.4471,46.0707],[107.5074,-6.441,45.6267],[107.5086,-6.442,44.8175],[107.5124,-6.437,43.5348],[107.514,-6.437,57.2571],[107.5135,-6.431,39.8724],[107.521,-6.4265,37.4471],[107.522,-6.4186,40.5062],[107.5192,-6.4181,41.9689],[107.5137,-6.4213,42.5213],[107.512,-6.4207,45.722],[107.508,-6.4129,39.6627],[107.5028,-6.408,36.7933],[107.492,-6.4149,48.1212],[107.4905,-6.4194,53.5115],[107.4807,-6.4266,69.4437],[107.4788,-6.4316,67.041],[107.4739,-6.4323,56.3996],[107.4695,-6.4288,54.7852],[107.4614,-6.4266,53.1358],[107.4583,-6.4315,58.0351],[107.4589,-6.4369,55.246],[107.4553,-6.4386,57.7149],[107.4519,-6.4441,66.1275],[107.4437,-6.4448,70.0361],[107.4367,-6.4489,83.4213],[107.4348,-6.4529,64.5446],[107.4359,-6.459,83.8526],[107.4572,-6.471,105.8796],[107.4566,-6.4872,89.385],[107.4609,-6.4887,90.6573],[107.4644,-6.5017,86.2753],[107.4601,-6.5035,94.485],[107.459,-6.5084,100.4187]]]]}}