{"type":"Feature","properties":{"GID_3":"IDN.25.2.7_1","GID_0":"IDN","country":"Indonesia","GID_1":"IDN.25_1","province":"SulawesiBarat","NL_NAME_1":"NA","GID_2":"IDN.25.2_1","county":"Mamasa","NL_NAME_2":"NA","city":"Mehalaan","VARNAME_3":"NA","NL_NAME_3":"NA","TYPE_3":"Kecamatan","ENGTYPE_3":"Sub-district","CC_3":"7603083","HASC_3":"NA","name":"Mehalaan.city"},
"geometry":{"type": "MultiPolygon","coordinates": [[[[119.069,-3.1075,242.5023],[119.0712,-3.1073,194.9142],[119.0748,-3.1123,182.2159],[119.0812,-3.1131,321.0798],[119.0891,-3.1044,339.1271],[119.0979,-3.1054,451.0589],[119.1068,-3.0978,559.0936],[119.108,-3.0944,584.2738],[119.1124,-3.0927,592.435],[119.123,-3.0941,768.5076],[119.1317,-3.0982,888.1655],[119.1345,-3.1057,826.4158],[119.148,-3.1173,855.3646],[119.1611,-3.1129,890.593],[119.1694,-3.1055,772.9143],[119.1767,-3.1053,899.6129],[119.1809,-3.0988,753.1311],[119.1888,-3.0919,589.5554],[119.2105,-3.0789,971.6736],[119.2141,-3.074,1061.9564],[119.2426,-3.0677,1187.4668],[119.2551,-3.045,1389.2899],[119.2562,-3.0382,1180.597],[119.2557,-3.0296,1261.5597],[119.2513,-3.0197,1139.5688],[119.2533,-3.0158,1183.2666],[119.2488,-3.0034,1139.6462],[119.2659,-2.9788,1762.1631],[119.2587,-2.9813,1468.7423],[119.2515,-2.9933,1332.7148],[119.2411,-3.0012,1252.3835],[119.2421,-3.0045,1185.2112],[119.2384,-3.0071,1155.6499],[119.2372,-3.0134,1076.8346],[119.235,-3.0136,1042.595],[119.2307,-3.0135,1114.4711],[119.2281,-3.007,1101.7168],[119.2259,-3.0062,1081.3768],[119.2218,-3.0054,1039.3879],[119.2179,-3.0099,1082.4581],[119.2149,-3.01,1114.8081],[119.21,-3.0041,904.3997],[119.2045,-3.0035,891.6765],[119.1969,-2.9966,963.2321],[119.1968,-2.9882,1006.5632],[119.195,-2.9861,925.1246],[119.1872,-2.9966,909.6152],[119.1815,-3.0015,884.2021],[119.1768,-3.0001,982.413],[119.174,-3.0047,992.4098],[119.1674,-3.0101,1180.7487],[119.1641,-3.0165,903.7219],[119.1627,-3.03,852.9857],[119.1707,-3.0449,855.7108],[119.1699,-3.0594,913.1307],[119.1667,-3.0595,837.2885],[119.1558,-3.0652,943.0671],[119.1473,-3.0666,895.5186],[119.1336,-3.0657,888.2931],[119.1198,-3.0716,925.748],[119.0976,-3.0778,618.781],[119.0703,-3.0826,654.8141],[119.0666,-3.0867,225.2293],[119.0692,-3.0914,256.4666],[119.0671,-3.0985,228.1546],[119.0689,-3.1008,389.1947],[119.0663,-3.107,210.276],[119.0673,-3.1085,218.4774],[119.069,-3.1075,242.5023]]]]}}