{"type":"Feature","properties":{"GID_3":"IDN.9.2.3_1","GID_0":"IDN","country":"Indonesia","GID_1":"IDN.9_1","province":"JawaBarat","NL_NAME_1":"NA","GID_2":"IDN.9.2_1","county":"Bandung","NL_NAME_2":"NA","city":"Banjaran","VARNAME_3":"NA","NL_NAME_3":"NA","TYPE_3":"Kecamatan","ENGTYPE_3":"Sub-district","CC_3":"3204160","HASC_3":"NA","name":"Banjaran.city"},
"geometry":{"type": "MultiPolygon","coordinates": [[[[107.6338,-7.1208,1808.7869],[107.6324,-7.1124,1691.7273],[107.6341,-7.1088,1672.4763],[107.6322,-7.1083,1694.0405],[107.6318,-7.1033,1492.3981],[107.625,-7.0977,1313.8369],[107.6134,-7.0836,1029.1139],[107.6139,-7.0809,981.863],[107.6112,-7.0776,941.6331],[107.6058,-7.0603,737.4836],[107.5988,-7.0586,712.6843],[107.5973,-7.0512,677.0551],[107.591,-7.0428,672.3267],[107.5904,-7.0378,669.8823],[107.5919,-7.033,669.4084],[107.5873,-7.0318,668.396],[107.586,-7.0286,667.8433],[107.5842,-7.028,667.8433],[107.5832,-7.0315,667.6678],[107.5822,-7.0308,667.8728],[107.5812,-7.0329,671.4891],[107.5794,-7.0321,668.4586],[107.5802,-7.0348,669.5901],[107.5774,-7.0349,669.2264],[107.5769,-7.0381,668.5002],[107.579,-7.0395,670.3601],[107.5765,-7.0397,669.5273],[107.5769,-7.0435,668.9362],[107.5714,-7.0449,673.3806],[107.5606,-7.0439,679.8433],[107.5604,-7.0493,683.0071],[107.5566,-7.0535,690.8612],[107.5589,-7.0564,695.0324],[107.5567,-7.0631,714.0863],[107.5584,-7.0686,716.7931],[107.5616,-7.0702,732.9964],[107.567,-7.0697,748.485],[107.5729,-7.0735,774.5633],[107.5745,-7.0721,773.9623],[107.5773,-7.073,784.3608],[107.5739,-7.0841,848.3887],[107.5833,-7.0922,951.932],[107.584,-7.0939,977.919],[107.5822,-7.0959,985.9415],[107.5844,-7.0969,1011.5663],[107.5886,-7.096,1027.9729],[107.5915,-7.0983,1069.5928],[107.5938,-7.1044,1142.8777],[107.5966,-7.1041,1160.9053],[107.6008,-7.1074,1238.7776],[107.6025,-7.1114,1307.9363],[107.6005,-7.1129,1276.835],[107.611,-7.1223,1505.6384],[107.6221,-7.1266,1850.2292],[107.6344,-7.1285,2068.9058],[107.6319,-7.1266,2027.4904],[107.634,-7.125,2076.6902],[107.6338,-7.1208,1808.7869]]]]}}