{"type":"Feature","properties":{"GID_3":"IDN.17.10.2_1","GID_0":"IDN","country":"Indonesia","GID_1":"IDN.17_1","province":"Lampung","NL_NAME_1":"NA","GID_2":"IDN.17.10_1","county":"Pringsewu","NL_NAME_2":"NA","city":"Ambarawa","VARNAME_3":"NA","NL_NAME_3":"NA","TYPE_3":"Kecamatan","ENGTYPE_3":"Sub-district","CC_3":"1810020","HASC_3":"NA","name":"Ambarawa.city"},
"geometry":{"type": "MultiPolygon","coordinates": [[[[104.9407,-5.4293,101.6905],[104.9526,-5.4271,98.9962],[104.9575,-5.4278,98.5666],[104.9603,-5.4262,98.3094],[104.9631,-5.4273,98.1165],[104.9681,-5.4246,97.8661],[104.9706,-5.4249,98.0735],[104.9755,-5.421,96.827],[104.9755,-5.4144,114.0021],[104.9771,-5.4126,120.6092],[104.9723,-5.4068,99.7878],[104.9738,-5.4042,100.0399],[104.9726,-5.4006,118.3113],[104.974,-5.396,96.3267],[104.9722,-5.3941,97.2054],[104.9653,-5.3929,100.1582],[104.9644,-5.3857,102.6711],[104.9605,-5.3867,105.3073],[104.9534,-5.3834,107.4475],[104.9492,-5.3888,108.6826],[104.9479,-5.388,110.0154],[104.9418,-5.3906,107.8424],[104.9214,-5.391,116.4751],[104.9219,-5.4065,117.2866],[104.917,-5.4099,119.398],[104.9111,-5.4109,121.1225],[104.9076,-5.4158,127.0328],[104.9001,-5.4141,140.0114],[104.8978,-5.4179,119.9195],[104.8995,-5.4211,121.7286],[104.9119,-5.4235,111.002],[104.92,-5.4321,107.7841],[104.9243,-5.4323,107.1733],[104.9271,-5.4298,105.772],[104.9319,-5.4314,106.0383],[104.9339,-5.4353,103.0489],[104.9359,-5.4355,102.9466],[104.9407,-5.4293,101.6905]]]]}}