{"type":"Feature","properties":{"GID_3":"IDN.9.10.5_1","GID_0":"IDN","country":"Indonesia","GID_1":"IDN.9_1","province":"JawaBarat","NL_NAME_1":"NA","GID_2":"IDN.9.10_1","county":"Depok","NL_NAME_2":"NA","city":"Cinere","VARNAME_3":"NA","NL_NAME_3":"NA","TYPE_3":"Kecamatan","ENGTYPE_3":"Sub-district","CC_3":"3276061","HASC_3":"NA","name":"Cinere.city"},
"geometry":{"type": "MultiPolygon","coordinates": [[[[106.7995,-6.3335,53.6795],[106.8017,-6.3334,51.0576],[106.8013,-6.3315,55.442],[106.8034,-6.33,48.8177],[106.8046,-6.3243,41.9168],[106.807,-6.3224,42.3062],[106.8089,-6.3145,38.8519],[106.7927,-6.3157,52.1931],[106.7906,-6.3145,50.6343],[106.7895,-6.3162,51.4901],[106.7791,-6.3169,37.1667],[106.7792,-6.3214,38.0111],[106.7777,-6.3233,38.6435],[106.7788,-6.3269,42.1887],[106.7768,-6.327,36.2683],[106.7776,-6.3291,49.3136],[106.7753,-6.3332,51.0782],[106.7764,-6.3359,49.3821],[106.7724,-6.3383,51.3114],[106.7737,-6.3389,39.4714],[106.7725,-6.344,54.3962],[106.7744,-6.3449,41.9056],[106.7738,-6.3492,44.1601],[106.7761,-6.3481,67.601],[106.7768,-6.3495,67.601],[106.7822,-6.3504,60.3714],[106.784,-6.3488,59.5508],[106.7886,-6.3486,65.7204],[106.7894,-6.3468,66.3542],[106.7924,-6.3484,58.2586],[106.7953,-6.346,57.9042],[106.7967,-6.3465,57.6463],[106.7997,-6.3421,56.3991],[106.7995,-6.3335,53.6795]]]]}}