{"type":"Feature","properties":{"GID_3":"IDN.23.10.3_1","GID_0":"IDN","country":"Indonesia","GID_1":"IDN.23_1","province":"Papua","NL_NAME_1":"NA","GID_2":"IDN.23.10_1","county":"KepulauanYapen","NL_NAME_2":"NA","city":"Kosiwo","VARNAME_3":"NA","NL_NAME_3":"NA","TYPE_3":"Distrik","ENGTYPE_3":"District","CC_3":"9408061","HASC_3":"NA","name":"Kosiwo.city"},
"geometry":{"type": "MultiPolygon","coordinates": [[[[136.2141,-1.8155,845.274],[136.2076,-1.7957,936.7864],[136.2041,-1.7895,769.412],[136.2084,-1.7625,1093.2092],[136.2008,-1.758,1188.1234],[136.1788,-1.7513,752.8802],[136.165,-1.7493,520.8917],[136.1486,-1.7516,221.8805],[136.137,-1.751,298.794],[135.9817,-1.7268,613.0791],[135.9535,-1.7752,232.0217],[135.9529,-1.7895,22.1977],[135.9535,-1.7919,4.3134],[135.9567,-1.7939,26.0299],[135.9538,-1.7965,0.0],[135.9637,-1.7968,1.6994],[135.9668,-1.7985,1.7527],[135.9714,-1.8027,8.2981],[135.9783,-1.8169,0.0],[135.9933,-1.8207,7.4034],[136.0097,-1.8206,5.4548],[136.0177,-1.8237,0.0],[136.0212,-1.8218,7.9888],[136.0224,-1.8192,1.913],[136.0252,-1.8192,7.5583],[136.0352,-1.8242,5.1857],[136.0395,-1.8307,2.827],[136.0494,-1.8314,7.0961],[136.0532,-1.8369,8.3834],[136.0604,-1.8398,2.2285],[136.0659,-1.8467,0.0],[136.0716,-1.8498,0.0],[136.0755,-1.8498,0.0],[136.0889,-1.8447,0.0],[136.0999,-1.8434,3.7141],[136.1089,-1.8463,0.0],[136.1183,-1.8534,0.0],[136.147,-1.8536,1.0968],[136.1682,-1.8674,7.9214],[136.1726,-1.8716,47.7718],[136.1724,-1.8745,4.9047],[136.1771,-1.8731,0.0],[136.1813,-1.8669,28.4313],[136.1827,-1.8664,95.7805],[136.1821,-1.8702,3.7517],[136.1872,-1.8691,10.0403],[136.1877,-1.865,38.7259],[136.1895,-1.8648,9.9652],[136.1887,-1.8622,16.6896],[136.1926,-1.864,5.1105],[136.1936,-1.8623,0.0],[136.1924,-1.8606,40.2609],[136.1942,-1.8598,6.471],[136.1945,-1.8626,0.0],[136.1917,-1.8659,27.7824],[136.1898,-1.8659,9.9652],[136.1911,-1.8675,35.986],[136.1891,-1.8668,16.9999],[136.1881,-1.8706,5.525],[136.1849,-1.8723,28.5905],[136.1898,-1.8751,0.0],[136.1929,-1.8724,0.0],[136.1927,-1.8696,15.9188],[136.1953,-1.8668,0.0],[136.1971,-1.8603,6.4272],[136.1958,-1.8569,36.1799],[136.1979,-1.855,3.1494],[136.2003,-1.8571,11.0648],[136.1975,-1.8593,3.6705],[136.1979,-1.8616,0.0],[136.2007,-1.8603,9.4721],[136.2012,-1.8617,0.0],[136.204,-1.8614,14.0677],[136.2033,-1.8625,14.0677],[136.2057,-1.8639,21.3902],[136.2009,-1.8637,0.0],[136.2017,-1.866,9.374],[136.1977,-1.865,0.0],[136.1987,-1.8697,0.0],[136.202,-1.8702,0.0],[136.2029,-1.8662,9.374],[136.2051,-1.8669,0.0],[136.2043,-1.8753,0.0],[136.2084,-1.8796,0.0],[136.2118,-1.8786,0.0],[136.2124,-1.8756,22.988],[136.2153,-1.8747,0.0],[136.2142,-1.8643,56.6973],[136.2174,-1.8412,503.5461],[136.2141,-1.8155,845.274]]]]}}