{"type":"Feature","properties":{"GID_2":"IDN.35.8","GID_0":"IDN","country":"Indonesia","GID_1":"IDN.35_1","province":"KalimantanUtara","NL_NAME_1":"NA","county":"Malinau","VARNAME_2":"NA","NL_NAME_2":"NA","TYPE_2":"NA","ENGTYPE_2":"NA","CC_2":"NA","HASC_2":"NA","name":"Malinau.county"},
"geometry":{"type": "MultiPolygon","coordinates": [[[[115.4639,1.2394,1149.1931],[115.4952,1.2555,954.851],[115.5482,1.2647,1054.764],[115.5718,1.2719,1213.5618],[115.586,1.2791,1430.9335],[115.6023,1.2779,1174.5784],[115.6212,1.284,1311.3839],[115.6461,1.2841,1054.2289],[115.7126,1.2657,1190.3805],[115.7207,1.2888,1152.2622],[115.7437,1.3198,1046.5942],[115.7618,1.3382,789.0665],[115.7651,1.3493,805.2496],[115.7723,1.3592,942.2449],[115.7857,1.3623,893.9002],[115.8087,1.3749,959.9979],[115.821,1.3716,1015.3323],[115.8357,1.3758,1102.4675],[115.8379,1.3832,1189.509],[115.8516,1.3959,1210.9973],[115.858,1.4071,1239.0901],[115.8513,1.4318,1251.9487],[115.8557,1.4377,1267.5059],[115.8862,1.4541,1425.4553],[115.9113,1.4777,1430.5436],[115.9269,1.4802,1406.9152],[115.9502,1.489,1523.6465],[115.9552,1.4924,1786.6929],[115.9636,1.5244,1665.161],[115.9698,1.5304,1830.4888],[115.9774,1.5336,1806.0333],[115.9875,1.5323,1927.814],[115.9976,1.5288,2002.7429],[116.0098,1.5282,1979.7311],[116.014,1.5366,1953.8561],[116.0226,1.5408,1803.8683],[116.024,1.5496,1770.3326],[116.0264,1.5532,1721.9641],[116.0335,1.5532,1734.6017],[116.0394,1.557,1839.046],[116.0422,1.5894,1730.9484],[116.0344,1.5994,1925.7783],[116.0359,1.6089,1713.8359],[116.0497,1.6217,1528.3824],[116.0526,1.6263,1569.6526],[116.0581,1.6287,1650.6443],[116.0655,1.6293,1709.8787],[116.0655,1.6438,1642.1558],[116.071,1.6532,1783.0938],[116.0912,1.6616,1699.1552],[116.1055,1.665,1712.2982],[116.1178,1.6589,1609.1978],[116.1282,1.6625,1686.3812],[116.1387,1.7062,1408.6846],[116.1491,1.7197,1498.4784],[116.1582,1.7482,1538.4871],[116.1606,1.7693,1559.6838],[116.1665,1.7769,1499.3103],[116.1678,1.7885,1578.1663],[116.176,1.8097,1706.3148],[116.1857,1.8448,1619.8865],[116.1767,1.8662,1814.7253],[116.1772,1.8825,1593.0508],[116.1749,1.8973,1661.2214],[116.1893,1.9366,1439.6282],[116.1964,1.9519,1555.9331],[116.1942,1.9728,1592.708],[116.1954,1.9858,1466.4015],[116.201,1.992,1451.6968],[116.2194,2.0024,1294.6597],[116.2298,2.0134,1382.8193],[116.2309,2.0446,1144.7969],[116.2259,2.0551,1508.5427],[116.2178,2.0633,1283.8254],[116.2216,2.0796,1305.2328],[116.2216,2.0951,1331.168],[116.2585,2.1084,1156.4241],[116.2397,2.1199,1193.4285],[116.2284,2.1333,1051.2986],[116.2088,2.1405,610.7495],[116.1854,2.1466,845.1505],[116.1695,2.1415,1202.7317],[116.157,2.1328,1766.6782],[116.1457,2.1523,1880.97],[116.13,2.1676,1799.0447],[116.1103,2.1712,1798.0771],[116.0954,2.1705,1771.2662],[116.0798,2.1648,1645.9819],[116.0678,2.1549,1692.6101],[116.0521,2.1506,1667.7644],[116.0174,2.1925,1437.49],[115.9972,2.2285,1895.061],[115.9904,2.2465,1942.2524],[115.9913,2.2534,1997.8278],[115.9893,2.2608,2086.6396],[115.9958,2.2668,1742.2681],[116.0024,2.2617,1854.9641],[116.0289,2.2534,1753.1133],[116.041,2.2631,1574.4163],[116.0531,2.283,1203.4021],[116.0538,2.2937,1174.0621],[116.0607,2.3034,1108.6013],[116.0597,2.3135,1183.3394],[116.0785,2.3342,946.7233],[116.0894,2.351,900.939],[116.1101,2.3579,1290.2767],[116.105,2.3656,1121.3268],[116.1043,2.3745,1011.9877],[116.1057,2.3838,1077.6918],[116.1126,2.3914,730.5199],[116.1326,2.3917,832.4103],[116.1473,2.4008,907.076],[116.1556,2.3988,1048.5002],[116.1612,2.4005,1036.6302],[116.1658,2.406,1114.6271],[116.1719,2.4013,1379.0905],[116.1823,2.4085,1219.2887],[116.1922,2.426,1384.8599],[116.1966,2.4409,1678.9435],[116.2268,2.4815,1273.4988],[116.2336,2.4886,1280.4197],[116.251,2.489,1380.1211],[116.2553,2.4799,1388.2081],[116.2665,2.4793,1258.1758],[116.2733,2.4892,1381.2427],[116.2937,2.532,1277.5392],[116.2956,2.5419,1168.6665],[116.3012,2.545,1024.3525],[116.3067,2.5654,957.6713],[116.3148,2.5784,661.5159],[116.3144,2.5916,278.0726],[116.3235,2.597,657.7876],[116.3216,2.6174,964.3411],[116.3253,2.6298,769.8442],[116.3241,2.6466,728.8915],[116.3144,2.6643,1239.3925],[116.3241,2.68,1522.0164],[116.3253,2.6905,1678.0773],[116.3328,2.6992,1371.08],[116.3606,2.7129,1475.1135],[116.3749,2.7333,1509.4827],[116.386,2.7438,1432.6562],[116.4021,2.7544,1368.4231],[116.4046,2.7649,1176.014],[116.4108,2.7698,1141.8427],[116.4232,2.7742,1273.1937],[116.4306,2.7798,1330.8129],[116.43,2.7921,1184.4296],[116.4344,2.8076,1293.9689],[116.4437,2.8176,1278.6224],[116.4529,2.8231,1274.9304],[116.4938,2.8287,1179.203],[116.4957,2.8355,952.3389],[116.5056,2.8405,1348.2998],[116.5421,2.8702,744.3166],[116.5691,2.8854,544.4669],[116.5812,2.89,684.0354],[116.583,2.9105,544.0751],[116.5864,2.9173,517.5567],[116.6015,2.9214,522.2764],[116.6082,2.9262,561.6543],[116.6104,2.933,560.116],[116.6085,2.9483,574.1779],[116.6159,2.9507,618.0008],[116.6236,2.9564,682.1385],[116.6392,2.9742,680.0172],[116.6555,2.973,822.45],[116.6578,2.9761,826.6973],[116.661,3.0049,890.4862],[116.6672,3.0074,903.7183],[116.6791,3.0179,906.2365],[116.6945,3.0232,790.132],[116.7311,3.03,858.1371],[116.7422,3.0356,726.4977],[116.7475,3.0552,745.5479],[116.7479,3.0682,1003.5723],[116.7423,3.0831,1007.6239],[116.734,3.0969,795.1407],[116.7245,3.1046,840.9171],[116.7259,3.1132,931.2079],[116.7369,3.1319,685.9913],[116.7403,3.1468,559.1935],[116.7442,3.153,753.7213],[116.742,3.1702,580.1635],[116.7449,3.1709,533.6617],[116.7576,3.1681,475.7515],[116.7687,3.1691,414.1696],[116.7761,3.1765,429.0752],[116.7861,3.1797,313.1203],[116.795,3.1918,216.9252],[116.8053,3.1996,164.9915],[116.8053,3.2148,141.1721],[116.8078,3.2236,133.3866],[116.808,3.2314,137.7991],[116.8036,3.2363,115.5866],[116.8015,3.2571,277.2803],[116.8062,3.2804,140.4869],[116.8049,3.2881,207.1565],[116.7994,3.2978,192.8969],[116.7915,3.305,278.4832],[116.791,3.3105,188.5267],[116.7865,3.3222,209.618],[116.7758,3.3409,208.0166],[116.7733,3.3478,211.7216],[116.7733,3.352,191.2652],[116.7752,3.3556,179.6256],[116.7743,3.3586,252.8167],[116.7704,3.359,144.2579],[116.7586,3.3737,126.1976],[116.7518,3.3775,121.2314],[116.739,3.3904,85.7934],[116.7359,3.3949,166.2753],[116.7375,3.4064,188.82],[116.7354,3.4089,120.055],[116.7272,3.4107,107.932],[116.7172,3.4166,150.0574],[116.7033,3.43,136.2433],[116.7078,3.4413,60.5619],[116.7071,3.4516,39.3814],[116.6936,3.4698,77.7977],[116.6931,3.4737,55.5427],[116.6954,3.4771,56.9759],[116.7023,3.4808,32.9065],[116.7056,3.4862,39.6661],[116.709,3.4866,31.5591],[116.7125,3.4893,20.6455],[116.7224,3.4884,15.46],[116.7279,3.4934,14.623],[116.7266,3.5002,14.7562],[116.7282,3.5076,16.0152],[116.7311,3.5103,14.51],[116.7291,3.5149,11.605],[116.7349,3.5181,11.883],[116.7346,3.5321,10.6744],[116.7376,3.5335,16.5413],[116.7431,3.5493,14.2595],[116.737,3.5555,13.816],[116.7432,3.5627,8.9237],[116.7441,3.5689,17.0962],[116.7552,3.5742,8.1433],[116.7537,3.5791,17.9092],[116.759,3.5807,5.8308],[116.7591,3.5862,5.7432],[116.7647,3.5843,20.4106],[116.7613,3.5897,0.0],[116.7691,3.6048,13.285],[116.77,3.6109,12.6146],[116.7666,3.6212,14.3603],[116.7652,3.6231,19.1166],[116.7616,3.6238,19.8823],[116.7604,3.6261,17.938],[116.7634,3.6357,16.0549],[116.7627,3.64,15.1728],[116.7593,3.6445,22.296],[116.748,3.6513,17.2562],[116.7432,3.6568,19.8253],[116.738,3.6597,25.4435],[116.7391,3.6633,22.5861],[116.7383,3.6745,16.9503],[116.7307,3.6906,31.5731],[116.7164,3.6996,131.581],[116.7054,3.6982,20.9194],[116.6894,3.6991,47.0623],[116.6614,3.7033,69.3102],[116.6283,3.6969,172.0281],[116.6184,3.6929,288.1556],[116.6085,3.6914,199.8804],[116.5887,3.691,227.6262],[116.5799,3.6929,178.0206],[116.5762,3.7006,220.1689],[116.5734,3.7201,286.8232],[116.5699,3.7222,359.9559],[116.5465,3.7201,519.1016],[116.5422,3.721,537.4264],[116.5348,3.7258,505.1116],[116.5203,3.7432,549.903],[116.512,3.7482,447.3053],[116.5031,3.7481,382.4993],[116.4993,3.7432,505.8859],[116.4887,3.7451,524.0462],[116.4771,3.7633,532.4154],[116.4762,3.7682,505.6108],[116.478,3.7811,669.3723],[116.4676,3.7943,752.0953],[116.4664,3.8079,652.6776],[116.4544,3.8194,747.2866],[116.4508,3.8298,689.7003],[116.437,3.8457,738.4122],[116.4354,3.854,661.3904],[116.432,3.855,683.3168],[116.4243,3.8651,855.1699],[116.4208,3.8674,913.4331],[116.4187,3.8755,856.1195],[116.4202,3.8835,941.9026],[116.418,3.8872,989.2174],[116.4078,3.8959,955.3668],[116.4051,3.906,743.9421],[116.401,3.9121,840.5634],[116.401,3.9161,768.0176],[116.3948,3.9277,671.5139],[116.3893,3.9318,631.1632],[116.3848,3.9479,717.024],[116.3865,3.9688,697.9842],[116.3833,3.9716,689.5806],[116.3827,3.9754,726.6508],[116.3839,3.9827,724.3317],[116.3921,3.9918,1090.5662],[116.3773,3.9956,847.6776],[116.3697,3.9934,979.3932],[116.355,4.0083,1094.7383],[116.3532,4.0182,1105.4434],[116.3548,4.0338,1121.7563],[116.3371,4.0443,1155.09],[116.336,4.0505,1055.3696],[116.3311,4.057,1187.5791],[116.319,4.0629,1147.1498],[116.312,4.0589,992.911],[116.3081,4.0512,1061.2928],[116.3006,4.0487,1029.4163],[116.2936,4.0519,922.3828],[116.2885,4.058,950.1852],[116.2839,4.058,925.6008],[116.2781,4.0522,842.9136],[116.2774,4.0456,850.9908],[116.2751,4.041,852.9313],[116.2688,4.0401,879.8682],[116.2618,4.0424,824.5985],[116.2495,4.0431,760.0986],[116.237,4.0468,999.3783],[116.2355,4.0587,896.5153],[116.2327,4.0659,942.3613],[116.2228,4.0791,895.79],[116.2183,4.0803,848.8629],[116.2064,4.0742,874.2263],[116.1982,4.0747,821.8022],[116.1852,4.0797,878.9248],[116.1796,4.0864,838.9096],[116.1697,4.0901,784.3669],[116.1616,4.0913,1062.0923],[116.1675,4.1115,1120.9286],[116.1647,4.1125,1058.651],[116.1473,4.1106,682.8008],[116.1394,4.116,738.2855],[116.1359,4.1151,774.9124],[116.126,4.1209,1004.5251],[116.1161,4.1134,1105.1147],[116.1093,4.1119,1228.4045],[116.0949,4.1167,1321.5624],[116.0858,4.1179,1526.8754],[116.0819,4.1109,1479.0778],[116.078,4.11,1533.9072],[116.0743,4.1062,1511.6918],[116.072,4.1002,1401.4413],[116.0613,4.0969,1288.0129],[116.0443,4.0841,1515.2395],[116.0387,4.0839,1391.3022],[116.0315,4.08,1424.4097],[116.0287,4.0818,1476.4244],[116.0243,4.0897,1628.4354],[116.0041,4.0896,1545.6213],[115.9896,4.0945,1670.0743],[115.9813,4.1024,1719.4998],[115.9759,4.1132,1795.5688],[115.9709,4.1179,1746.999],[115.9658,4.1183,1829.6113],[115.9604,4.1078,1843.3376],[115.9582,4.0923,1913.4208],[115.9589,4.0717,1856.3068],[115.9633,4.0599,1792.8584],[115.965,4.0474,1668.4299],[115.9608,4.0369,1716.3837],[115.9608,4.0143,1620.3816],[115.9575,4.0043,1548.2195],[115.9517,3.9974,1609.0988],[115.9503,3.9877,1628.9797],[115.9514,3.9602,1400.1628],[115.9467,3.957,1290.4944],[115.9398,3.9563,1024.5371],[115.9326,3.9512,841.0196],[115.9301,3.944,670.1582],[115.9221,3.9314,950.955],[115.92,3.9249,990.7325],[115.9207,3.9148,1151.3386],[115.9236,3.9068,1137.6326],[115.9203,3.8942,1413.9065],[115.9268,3.8823,1564.6851],[115.9243,3.8776,1523.7985],[115.9135,3.8761,1438.303],[115.9135,3.861,1415.2007],[115.9095,3.8483,1381.3857],[115.9091,3.8408,1388.0273],[115.9164,3.8368,1426.5594],[115.9236,3.8354,1665.3398],[115.9257,3.8267,1588.819],[115.9229,3.8209,1526.6599],[115.9229,3.8043,1485.8464],[115.9268,3.7982,1450.1082],[115.9404,3.7921,1434.5884],[115.9476,3.7849,1414.9712],[115.9488,3.7772,1548.4854],[115.9478,3.7726,1561.4839],[115.9441,3.7679,1460.4744],[115.9438,3.7603,1489.3933],[115.9326,3.7567,1411.6234],[115.9279,3.7527,1535.8455],[115.9247,3.7264,1609.1516],[115.912,3.6899,1657.4348],[115.9142,3.6816,1659.3104],[115.9203,3.6755,1646.8569],[115.925,3.6646,1579.2443],[115.9337,3.6517,1531.2416],[115.9333,3.6426,1590.8303],[115.9355,3.6376,1640.9252],[115.9561,3.6203,1720.8149],[115.9517,3.608,1672.3337],[115.9524,3.5964,1607.325],[115.9589,3.5784,1545.5011],[115.9777,3.5526,1466.6388],[115.9681,3.5226,1384.4949],[115.9608,3.5153,1417.2528],[115.9488,3.5129,1446.7598],[115.938,3.5081,1455.4019],[115.9259,3.4997,1469.9387],[115.9115,3.4937,1365.988],[115.8971,3.4756,1493.0337],[115.8838,3.4696,1419.17],[115.8562,3.4717,1516.6853],[115.8506,3.4864,1476.5862],[115.8386,3.4916,1328.5757],[115.8316,3.4876,1280.5459],[115.826,3.4913,1214.1055],[115.8187,3.4935,1287.3063],[115.8054,3.4895,1322.2229],[115.8073,3.4704,1198.4684],[115.8008,3.4636,1122.9851],[115.79,3.4624,1174.5005],[115.7691,3.463,1613.7903],[115.7624,3.4474,1534.2123],[115.7428,3.4478,1554.9692],[115.7291,3.4449,1481.5161],[115.7142,3.4377,1527.4309],[115.7029,3.4163,1562.1036],[115.6999,3.4026,1526.1143],[115.691,3.4062,1438.321],[115.6749,3.4276,1458.7988],[115.6569,3.4397,1653.8502],[115.6541,3.4369,1657.3857],[115.6489,3.4366,1730.9546],[115.6497,3.4288,1654.0576],[115.6451,3.4245,1622.0405],[115.6413,3.4245,1689.8176],[115.6412,3.4203,1675.0747],[115.6393,3.4175,1678.2341],[115.6237,3.4087,1750.7759],[115.6215,3.4115,1773.5197],[115.6216,3.4178,1818.8273],[115.6178,3.4205,1766.1528],[115.6138,3.4285,1821.6316],[115.6153,3.4344,1861.7333],[115.6097,3.447,1976.062],[115.604,3.4473,1974.3],[115.6009,3.4429,2022.6924],[115.5974,3.4426,2005.8392],[115.5934,3.4483,2020.842],[115.5873,3.4493,2070.0801],[115.5791,3.4279,1730.5487],[115.5787,3.4193,1644.5613],[115.5726,3.4155,1719.8975],[115.5711,3.409,1659.7332],[115.5639,3.4047,1777.9331],[115.5624,3.4007,1831.4673],[115.5638,3.3976,1822.0308],[115.5607,3.3943,1846.3359],[115.5561,3.3933,1923.8177],[115.5558,3.3916,1902.8164],[115.5587,3.389,1871.4214],[115.5584,3.3852,1864.7866],[115.549,3.3753,1869.8291],[115.5433,3.3592,1788.2374],[115.5455,3.3531,1835.0825],[115.5443,3.3491,1906.702],[115.5462,3.3466,1853.488],[115.5443,3.342,1801.5203],[115.5479,3.335,1685.79],[115.5479,3.3297,1717.6165],[115.5475,3.3277,1733.4596],[115.5441,3.3283,1760.239],[115.5424,3.3268,1735.0402],[115.54,3.32,1694.2172],[115.5371,3.3195,1630.921],[115.5365,3.3163,1615.8386],[115.5382,3.2983,1499.4828],[115.5363,3.2916,1604.7693],[115.5363,3.2684,1432.7432],[115.5393,3.2519,1284.2355],[115.5373,3.2359,1522.7571],[115.5338,3.2298,1654.4226],[115.5338,3.2261,1671.5879],[115.526,3.2248,1660.2429],[115.5198,3.2259,1694.4353],[115.5155,3.2227,1653.2588],[115.5189,3.2136,1660.7053],[115.5173,3.2027,1697.427],[115.5214,3.1893,1685.2004],[115.5309,3.182,1568.4485],[115.5344,3.1836,1589.0857],[115.539,3.1809,1552.6256],[115.5426,3.1818,1554.9341],[115.5519,3.1732,1518.6465],[115.5556,3.1711,1491.4923],[115.5595,3.1716,1412.277],[115.5642,3.1614,1460.9846],[115.5609,3.1553,1418.8215],[115.5622,3.152,1414.6162],[115.5555,3.1489,1470.7924],[115.5499,3.1409,1392.5558],[115.5434,3.1414,1350.1047],[115.5296,3.1294,1259.505],[115.5293,3.1234,1292.2292],[115.5266,3.117,1382.1036],[115.5217,3.1151,1370.5016],[115.5214,3.1001,1290.291],[115.5235,3.0908,1121.6958],[115.5217,3.0651,1397.6021],[115.5136,3.0501,1482.6755],[115.5073,3.0451,1605.7103],[115.5057,3.0405,1643.2396],[115.5012,3.0392,1628.8923],[115.4982,3.0294,1787.1328],[115.495,3.0293,1785.0664],[115.489,3.0244,1768.8123],[115.486,3.0182,1865.6531],[115.4691,3.0215,1533.4563],[115.4683,3.0249,1510.8606],[115.4581,3.0258,1614.5178],[115.4532,3.0279,1745.9602],[115.4495,3.0242,1788.1021],[115.4404,3.024,1834.6086],[115.4378,3.0141,1925.937],[115.4333,3.0135,1897.6592],[115.4265,3.0157,1809.1655],[115.422,3.0069,1629.8456],[115.4181,3.0031,1801.7125],[115.4178,2.9994,1845.7318],[115.4073,2.9914,1878.2183],[115.4064,2.9882,1843.5809],[115.4034,2.988,1777.4154],[115.4024,2.9842,1803.3073],[115.3936,2.9796,1548.2065],[115.3817,2.9823,1709.5688],[115.3772,2.9864,1685.9834],[115.3722,2.9808,1802.4001],[115.3651,2.983,1687.2596],[115.3499,2.9814,1832.3645],[115.3462,2.9765,1877.4446],[115.3399,2.9781,1828.6333],[115.3317,2.9752,1851.2715],[115.3245,2.9812,1903.1155],[115.3254,2.9875,1814.3337],[115.3241,2.9889,1831.7761],[115.3262,2.994,1821.8414],[115.3229,2.9986,1903.0656],[115.3168,3.0173,1500.4438],[115.3085,3.0247,1386.1823],[115.3023,3.0271,1333.8405],[115.297,3.0326,1440.9529],[115.2884,3.0354,1491.2698],[115.2793,3.0055,1541.375],[115.2553,2.9793,1279.0991],[115.2489,2.9754,1343.457],[115.2503,2.9742,1307.1982],[115.25,2.966,1235.6765],[115.2382,2.9633,1237.2666],[115.238,2.9614,1247.8882],[115.2352,2.9597,1254.5986],[115.2278,2.9598,1246.5891],[115.2212,2.962,1250.8284],[115.2127,2.9586,1292.5154],[115.202,2.9438,1299.2384],[115.1947,2.9399,1397.7751],[115.1895,2.9337,1523.3077],[115.1828,2.9313,1476.0359],[115.1751,2.9312,1548.7595],[115.1668,2.8773,1344.944],[115.1599,2.8674,1606.4236],[115.1473,2.854,1519.3636],[115.126,2.8424,1757.2274],[115.1112,2.8258,1591.7422],[115.0996,2.8252,1650.5925],[115.0934,2.8211,1823.2522],[115.0969,2.818,1709.4231],[115.103,2.8175,1625.0457],[115.1142,2.8092,1507.9255],[115.1175,2.8083,1556.6743],[115.12,2.805,1508.1149],[115.1294,2.8021,1265.2297],[115.1346,2.8062,1303.103],[115.1419,2.8057,1226.4957],[115.1546,2.7932,1553.7319],[115.1552,2.7907,1577.8523],[115.1552,2.7888,1637.6603],[115.1519,2.7874,1647.9344],[115.1472,2.783,1573.9709],[115.147,2.7806,1520.0652],[115.1409,2.7758,1562.6049],[115.1405,2.7623,1471.9857],[115.1443,2.7548,1393.8474],[115.1405,2.7475,1401.6671],[115.1204,2.7291,1405.3591],[115.1075,2.7229,1491.1493],[115.1066,2.7081,1334.9194],[115.1086,2.6989,1314.7314],[115.1113,2.6957,1484.9497],[115.1189,2.6932,1420.2019],[115.1208,2.69,1460.4417],[115.1159,2.6793,1337.7515],[115.1204,2.6664,1190.6614],[115.1199,2.6567,1355.1365],[115.1212,2.6522,1457.9639],[115.1209,2.6509,1504.1907],[115.1179,2.6509,1473.4293],[115.1125,2.6351,1395.6556],[115.106,2.6308,1373.0496],[115.1004,2.6239,1324.7632],[115.0968,2.6234,1339.0168],[115.0961,2.6189,1305.7676],[115.0977,2.6127,1341.0205],[115.1095,2.6014,1466.4375],[115.1143,2.5895,1387.1052],[115.1171,2.5886,1430.1185],[115.1333,2.5899,1537.1958],[115.1386,2.5944,1511.0857],[115.1432,2.6012,1458.3417],[115.1522,2.6081,1570.0337],[115.1578,2.6063,1548.1104],[115.1704,2.6133,1792.0507],[115.172,2.61,1775.4176],[115.1772,2.6106,1683.4449],[115.1821,2.5979,1578.0017],[115.1929,2.5922,1403.9052],[115.1958,2.5816,1261.5819],[115.2007,2.5794,1227.3323],[115.2055,2.5737,1330.6001],[115.2122,2.5736,1275.0991],[115.211,2.5689,1229.04],[115.2149,2.5679,1169.6649],[115.2186,2.5597,1129.4004],[115.2157,2.5528,1128.8835],[115.2218,2.5466,1041.1921],[115.2236,2.5426,1032.4357],[115.2358,2.536,1160.468],[115.2483,2.5416,1310.7981],[115.2578,2.5404,1078.8032],[115.2581,2.5304,1269.5645],[115.2515,2.5236,1214.2444],[115.2471,2.5111,1213.9346],[115.2487,2.5076,1224.6051],[115.2435,2.5034,1162.7054],[115.2421,2.4986,1208.5077],[115.2372,2.4957,1226.998],[115.235,2.4925,1242.3143],[115.2304,2.4921,1185.1582],[115.2259,2.4862,1297.7974],[115.2098,2.479,1220.1497],[115.2048,2.4716,1219.8068],[115.1893,2.4828,1254.4226],[115.1836,2.4794,1284.2642],[115.1761,2.481,1391.48],[115.1621,2.4768,1322.5496],[115.1445,2.4759,1340.4532],[115.1407,2.471,1320.2479],[115.1354,2.4682,1345.632],[115.1307,2.4563,1468.0731],[115.1245,2.4542,1472.8513],[115.1205,2.4572,1456.9528],[115.1182,2.4568,1487.6909],[115.1163,2.4538,1499.5488],[115.1161,2.447,1422.2229],[115.1129,2.4424,1473.637],[115.1082,2.441,1487.1482],[115.1079,2.4381,1438.1079],[115.1035,2.4342,1407.9327],[115.1028,2.4288,1368.9375],[115.0987,2.4246,1322.4481],[115.1009,2.416,1393.6826],[115.0992,2.4132,1417.9016],[115.1013,2.4095,1497.8335],[115.0989,2.4035,1388.1793],[115.0907,2.4019,1405.0615],[115.0834,2.4053,1399.5765],[115.069,2.4062,1305.5051],[115.0675,2.4049,1355.7616],[115.0601,2.4074,1367.9137],[115.0504,2.4043,1380.1854],[115.0485,2.393,1386.6897],[115.0537,2.3871,1392.4025],[115.0531,2.3855,1473.3411],[115.0497,2.3848,1414.6416],[115.0467,2.3878,1412.6111],[115.0443,2.387,1401.8325],[115.0374,2.389,1391.4266],[115.0349,2.3806,1304.1821],[115.0292,2.3777,1282.2751],[115.0284,2.3714,1345.0012],[115.0249,2.3645,1397.2769],[115.0214,2.3625,1342.126],[115.015,2.3651,1402.0808],[115.0111,2.3631,1483.8912],[115.007,2.3641,1340.5997],[115.0055,2.3631,1397.8865],[115.0053,2.358,1517.8374],[115.0019,2.3554,1386.4958],[115.0002,2.3505,1449.2263],[114.9983,2.3493,1469.9519],[114.9924,2.3486,1507.3602],[114.99,2.3498,1490.8801],[114.9788,2.3604,1413.2842],[114.9756,2.3612,1466.2306],[114.9746,2.3668,1414.2285],[114.9689,2.3678,1440.1934],[114.9656,2.365,1491.8801],[114.9629,2.3654,1473.2686],[114.9608,2.3586,1444.6238],[114.957,2.3567,1391.4877],[114.9573,2.3528,1367.8564],[114.9536,2.3489,1387.7638],[114.953,2.3383,1410.7285],[114.9482,2.3216,1186.4336],[114.9502,2.3101,1136.51],[114.9584,2.3056,1074.9341],[114.9613,2.3002,1071.3325],[114.9661,2.2969,1028.4492],[114.9669,2.292,960.9718],[114.9653,2.2868,1092.6162],[114.9586,2.281,1353.9749],[114.9529,2.279,1295.2218],[114.9476,2.2815,1392.2092],[114.9381,2.2801,1408.8081],[114.9354,2.2745,1336.8571],[114.9172,2.2553,1412.4104],[114.9076,2.2533,1445.8115],[114.9054,2.2576,1454.3457],[114.8935,2.2595,1417.3091],[114.8702,2.2593,1310.8712],[114.8602,2.2576,1276.6211],[114.8548,2.2535,1267.3407],[114.8473,2.253,1351.9084],[114.8275,2.2451,1387.5593],[114.8252,2.245,1392.093],[114.8236,2.2488,1240.4945],[114.8205,2.2502,1174.0587],[114.7998,2.2504,1295.0999],[114.7965,2.2473,1311.1661],[114.7997,2.2355,1229.2544],[114.7882,2.2254,1087.1536],[114.7845,2.2006,1255.6276],[114.7796,2.2,1419.4285],[114.771,2.1954,1650.9098],[114.7665,2.1972,1670.1133],[114.7552,2.1947,1844.5818],[114.7496,2.195,1861.3538],[114.7402,2.1922,1746.5632],[114.738,2.1877,1743.9028],[114.7388,2.1836,1506.541],[114.7411,2.1814,1404.1154],[114.7387,2.1764,1218.8043],[114.7394,2.1698,1408.9387],[114.735,2.1646,1274.226],[114.7338,2.1605,1235.1489],[114.7351,2.1539,1228.8098],[114.7325,2.1517,1170.0797],[114.7319,2.1483,1180.6022],[114.7359,2.1427,1209.9525],[114.7365,2.1338,1162.4907],[114.7413,2.1342,1376.795],[114.7582,2.1427,1416.9445],[114.7933,2.146,1283.3876],[114.7969,2.1436,1238.4512],[114.8028,2.1349,1077.0522],[114.8097,2.1351,1108.0735],[114.8186,2.1277,1324.1116],[114.8197,2.1179,1070.6346],[114.8157,2.1074,1024.0682],[114.8114,2.1021,993.0129],[114.8104,2.0981,1019.7328],[114.8053,2.0958,988.6531],[114.7973,2.0878,972.4511],[114.8014,2.0791,976.0339],[114.8043,2.0781,989.2506],[114.8067,2.0747,984.2007],[114.8098,2.064,1056.6487],[114.8068,2.0619,1177.8906],[114.7907,2.0584,1275.3386],[114.7945,2.0562,1155.8778],[114.7947,2.0496,974.237],[114.7962,2.0483,931.6995],[114.7953,2.0442,837.7127],[114.8015,2.0415,936.0168],[114.8017,2.0368,865.0227],[114.8051,2.0356,935.2885],[114.8078,2.0241,1100.7498],[114.8141,2.0231,1239.1542],[114.8131,2.0258,1148.5345],[114.8153,2.0272,1079.7299],[114.8267,2.0278,1160.4878],[114.8384,2.0358,1023.5951],[114.8564,2.0437,1167.6924],[114.8592,2.0437,1211.9731],[114.8631,2.0399,1265.7051],[114.8657,2.04,1277.6556],[114.8658,2.0351,1284.2614],[114.8697,2.0327,1437.9668],[114.8769,2.0327,1393.0703],[114.8869,2.0244,1303.3027],[114.8859,2.02,1377.9966],[114.8741,2.0156,1169.2437],[114.8729,2.0138,1245.2769],[114.8737,1.9954,821.7308],[114.8688,1.9844,745.4041],[114.863,1.9827,745.5348],[114.8585,1.9755,791.5583],[114.8552,1.9741,773.8326],[114.8527,1.966,700.8841],[114.8541,1.9479,836.0699],[114.8776,1.9265,775.6375],[114.8826,1.9158,762.364],[114.8782,1.9121,765.2909],[114.8706,1.9101,778.4833],[114.8673,1.9015,873.1224],[114.8637,1.8993,871.8571],[114.8607,1.9007,836.4583],[114.8556,1.8948,920.5892],[114.8409,1.8932,899.9902],[114.8314,1.8957,920.7103],[114.8194,1.8923,894.696],[114.8179,1.8782,851.481],[114.8127,1.8768,865.2191],[114.8061,1.8721,786.1713],[114.804,1.8658,903.387],[114.7987,1.861,985.2206],[114.7992,1.8521,889.537],[114.7921,1.8465,898.7139],[114.7851,1.8484,954.7186],[114.7838,1.8504,966.2727],[114.7797,1.849,961.1754],[114.7777,1.8507,938.9152],[114.7711,1.85,1019.7174],[114.7681,1.8569,983.6715],[114.7592,1.8604,1020.045],[114.7581,1.8635,991.5887],[114.7519,1.867,1049.5662],[114.7463,1.8684,996.0441],[114.7357,1.8653,1054.2053],[114.7341,1.8604,1058.8632],[114.732,1.8587,1085.6942],[114.7223,1.8568,1085.7977],[114.723,1.8519,1021.8848],[114.727,1.8447,1050.9576],[114.7279,1.8338,799.522],[114.7204,1.8285,893.2543],[114.7181,1.824,851.5126],[114.7149,1.8247,833.2128],[114.711,1.8187,905.1713],[114.7059,1.8198,889.5464],[114.7026,1.8144,763.8677],[114.7027,1.811,863.7125],[114.6977,1.8091,834.6102],[114.7005,1.8043,828.2529],[114.7085,1.7974,925.9368],[114.709,1.7928,964.8656],[114.7151,1.7841,996.3964],[114.7145,1.7715,993.2141],[114.7086,1.7637,1006.9485],[114.7087,1.758,1015.0268],[114.711,1.7501,1007.2783],[114.7103,1.7373,921.5682],[114.7127,1.7327,1005.3007],[114.7175,1.7297,1032.8572],[114.7189,1.7173,1043.2125],[114.7177,1.7133,1034.1968],[114.7115,1.7066,1105.7682],[114.7139,1.6882,1230.7804],[114.7126,1.6726,1421.6353],[114.7137,1.6702,1470.5525],[114.7112,1.6638,1532.3374],[114.7083,1.6444,1751.8582],[114.7087,1.638,1816.4194],[114.6917,1.6316,1718.0104],[114.6898,1.628,1754.3401],[114.6901,1.6225,1756.3337],[114.6791,1.6084,1550.3577],[114.674,1.6066,1528.8578],[114.6718,1.6027,1527.4403],[114.6683,1.6006,1585.5217],[114.6554,1.5994,1558.4668],[114.6525,1.5896,1602.0613],[114.6467,1.591,1493.4418],[114.6443,1.5892,1580.1367],[114.6376,1.5889,1565.1603],[114.6228,1.5782,2002.3616],[114.6157,1.5776,1924.3795],[114.6115,1.575,1930.7554],[114.6116,1.5588,1810.3033],[114.6058,1.551,1695.2363],[114.6049,1.5416,1655.719],[114.6019,1.536,1757.7554],[114.6021,1.5323,1809.8513],[114.6047,1.5267,1779.8894],[114.6094,1.5247,1792.8373],[114.6164,1.5159,1751.5131],[114.6121,1.5105,1769.175],[114.6121,1.5061,1653.2284],[114.6086,1.5028,1727.1183],[114.6059,1.4926,1625.7307],[114.6072,1.4879,1578.5089],[114.6011,1.4856,1652.5405],[114.5987,1.4821,1586.6733],[114.5946,1.4818,1618.42],[114.5939,1.4768,1620.6128],[114.5916,1.4741,1547.2876],[114.5898,1.458,1441.2183],[114.5879,1.4565,1416.8397],[114.5859,1.4455,1503.5425],[114.5793,1.4427,1565.9952],[114.5769,1.4435,1553.3519],[114.5704,1.4354,1655.9592],[114.5696,1.4296,1802.1302],[114.5667,1.4279,1827.3689],[114.5676,1.4221,1746.8735],[114.5754,1.4141,1819.6658],[114.5746,1.408,1673.2026],[114.5768,1.3991,1620.3282],[114.5727,1.3898,1718.8329],[114.5901,1.3952,1503.5258],[114.5996,1.3945,1521.5551],[114.607,1.3687,1343.7924],[114.6177,1.3643,1452.4415],[114.6326,1.3639,1358.8518],[114.6337,1.3607,1368.5771],[114.6383,1.3588,1392.2423],[114.6546,1.3562,1487.1064],[114.6594,1.3571,1533.3479],[114.677,1.352,1605.5458],[114.6815,1.3528,1727.1924],[114.6837,1.3562,1691.2566],[114.6885,1.3591,1720.713],[114.6967,1.3566,1550.8757],[114.6999,1.354,1584.9299],[114.7015,1.3429,1578.8701],[114.7041,1.337,1712.553],[114.7103,1.3359,1716.6727],[114.7145,1.3325,1634.6216],[114.7171,1.3245,1901.4967],[114.7256,1.3105,1804.1008],[114.7231,1.3003,1713.8586],[114.7202,1.2959,1809.5183],[114.7207,1.2906,1746.8167],[114.7159,1.2782,1720.3029],[114.7174,1.2728,1716.1659],[114.7273,1.264,1584.2708],[114.733,1.2643,1512.2675],[114.7503,1.2566,1602.9043],[114.7578,1.2548,1668.5164],[114.7575,1.2478,1690.116],[114.7604,1.2431,1675.7542],[114.7655,1.2367,1733.234],[114.7774,1.2278,1532.3088],[114.7966,1.2043,1440.5173],[114.8096,1.1931,1398.9257],[114.8289,1.1826,1415.0934],[114.8396,1.1725,1495.0857],[114.8453,1.1694,1465.0179],[114.8516,1.1683,1511.9224],[114.8542,1.1709,1357.3583],[114.8534,1.1761,1198.5308],[114.8588,1.194,1040.7773],[114.8702,1.1994,842.13],[114.8779,1.2088,990.8103],[114.8851,1.2122,967.5653],[114.8961,1.2094,1127.2305],[114.9202,1.1951,1148.3445],[114.9325,1.1803,904.087],[114.9362,1.1786,892.1351],[114.9453,1.18,891.1017],[114.9647,1.1866,818.7443],[114.9763,1.1937,1112.4984],[114.9795,1.1927,1029.3539],[114.9886,1.1863,1004.9849],[114.9903,1.1829,903.4869],[114.9891,1.1573,1078.0469],[114.9909,1.1538,1161.8896],[114.9994,1.1533,996.7269],[115.0003,1.1518,989.5669],[115.0068,1.1273,699.1746],[115.01,1.1233,778.1292],[115.0156,1.1208,837.0616],[115.0267,1.1203,780.1034],[115.0401,1.1157,579.564],[115.0455,1.116,586.0743],[115.0604,1.1228,565.531],[115.0705,1.12,468.9237],[115.0768,1.12,485.1843],[115.0797,1.116,469.0156],[115.0836,1.116,376.4931],[115.1061,1.1211,600.692],[115.1186,1.1294,710.8014],[115.1229,1.1294,708.8657],[115.1349,1.1226,648.5357],[115.142,1.116,802.8156],[115.1512,1.1191,672.4858],[115.1735,1.116,626.3713],[115.1756,1.1137,602.3945],[115.1779,1.1038,631.302],[115.1827,1.1026,611.5779],[115.1861,1.0986,530.0391],[115.1866,1.0932,592.7207],[115.1898,1.0878,756.203],[115.1861,1.0827,773.6137],[115.1868,1.0789,724.1209],[115.1844,1.0748,874.2276],[115.1855,1.0677,914.707],[115.2003,1.0619,929.8519],[115.2241,1.0577,787.7416],[115.23,1.0582,865.389],[115.2496,1.0471,723.1799],[115.2598,1.0475,821.6416],[115.2657,1.0437,876.1619],[115.2694,1.0463,878.1448],[115.2809,1.048,932.2511],[115.288,1.047,1121.9408],[115.2939,1.0497,1172.6382],[115.2996,1.0648,1314.5332],[115.3166,1.0594,1130.8542],[115.3246,1.0623,1148.2485],[115.3477,1.0613,1327.2909],[115.3579,1.0635,1396.1558],[115.3603,1.0659,1444.7498],[115.3645,1.0659,1520.9626],[115.3687,1.0683,1565.1393],[115.3715,1.072,1652.5247],[115.3709,1.0777,1731.5642],[115.3733,1.0814,1618.5974],[115.3784,1.0995,1518.6586],[115.383,1.1029,1544.3623],[115.3939,1.105,1705.5674],[115.3982,1.1087,1832.262],[115.4015,1.1126,1700.7457],[115.4021,1.1171,1680.5212],[115.4109,1.1277,1579.0837],[115.4084,1.137,1520.3558],[115.4103,1.14,1509.165],[115.4182,1.144,1728.3765],[115.4191,1.1482,1658.3081],[115.4154,1.1603,1572.7584],[115.4091,1.1658,1508.2584],[115.4063,1.1728,1448.4156],[115.4082,1.1903,1517.7546],[115.4112,1.1931,1681.718],[115.4175,1.1925,1504.4695],[115.4197,1.1952,1414.0031],[115.4212,1.2076,1358.6038],[115.4303,1.224,1588.7783],[115.4364,1.2285,1505.9613],[115.4639,1.2394,1149.1931]]]]}}