{"type":"Feature","properties":{"GID_3":"IDN.28.8.13_1","GID_0":"IDN","country":"Indonesia","GID_1":"IDN.28_1","province":"SulawesiTenggara","NL_NAME_1":"NA","GID_2":"IDN.28.8_1","county":"KonaweSelatan","NL_NAME_2":"NA","city":"Laonti","VARNAME_3":"NA","NL_NAME_3":"NA","TYPE_3":"Kecamatan","ENGTYPE_3":"Sub-district","CC_3":"7405060","HASC_3":"NA","name":"Laonti.city"},
"geometry":{"type": "MultiPolygon","coordinates": [[[[122.8611,-4.378,497.8606],[122.8723,-4.4025,259.3668],[122.8797,-4.4071,10.2349],[122.8807,-4.4001,33.5377],[122.8834,-4.3982,12.1415],[122.884,-4.4008,11.7375],[122.8811,-4.4064,10.2349],[122.883,-4.4089,12.7609],[122.8807,-4.4107,2.6356],[122.8833,-4.4139,2.5523],[122.8874,-4.4043,11.0543],[122.8899,-4.4042,0.0],[122.8897,-4.3999,0.0],[122.8923,-4.3989,2.7709],[122.891,-4.3915,4.0231],[122.8963,-4.3857,0.0],[122.8982,-4.3794,56.3404],[122.9007,-4.3799,0.0],[122.9015,-4.3777,23.7538],[122.9017,-4.3721,7.4873],[122.898,-4.3717,10.9951],[122.8967,-4.3701,0.0],[122.8986,-4.3654,11.4998],[122.9014,-4.3669,0.7024],[122.9012,-4.365,5.6339],[122.8968,-4.3645,4.9296],[122.8944,-4.362,0.0],[122.8968,-4.3523,0.0],[122.9006,-4.3508,0.0],[122.8999,-4.3468,0.0],[122.8948,-4.34,0.0],[122.8947,-4.3348,0.0],[122.8963,-4.3317,0.0],[122.9012,-4.3293,9.6228],[122.9032,-4.3256,18.0888],[122.9082,-4.3235,0.0],[122.9053,-4.321,0.0],[122.8949,-4.3206,25.569],[122.8936,-4.3171,0.0],[122.8911,-4.319,9.4513],[122.8895,-4.3181,9.4513],[122.8856,-4.3117,0.0],[122.8859,-4.307,0.0],[122.8842,-4.3047,0.0],[122.8848,-4.2982,0.0],[122.8812,-4.2953,0.0],[122.8821,-4.2925,33.559],[122.8853,-4.2907,21.8993],[122.8862,-4.2797,0.0],[122.8908,-4.2777,0.0],[122.8909,-4.2724,0.0],[122.8878,-4.269,0.0],[122.8937,-4.2573,0.0],[122.8935,-4.2548,0.0],[122.8986,-4.2501,18.1432],[122.9024,-4.2513,0.0],[122.9032,-4.2474,15.7554],[122.9063,-4.2436,0.0],[122.9048,-4.2377,0.0],[122.907,-4.2306,0.0],[122.9038,-4.2292,83.8348],[122.9019,-4.2254,4.0724],[122.8953,-4.2228,0.0],[122.8942,-4.2206,0.0],[122.8929,-4.2075,50.43],[122.8971,-4.2067,0.0],[122.8954,-4.2047,28.8286],[122.8981,-4.2044,8.3483],[122.897,-4.2009,72.9244],[122.8999,-4.195,23.3285],[122.8918,-4.1794,66.7812],[122.892,-4.1754,49.5829],[122.8899,-4.1714,90.7186],[122.8915,-4.1644,87.7935],[122.8885,-4.1579,134.1882],[122.8867,-4.1457,189.0367],[122.8887,-4.1433,67.0492],[122.8881,-4.1399,182.9903],[122.8832,-4.1324,261.8616],[122.8851,-4.1309,133.5027],[122.8847,-4.1256,102.28],[122.8821,-4.1222,26.0777],[122.8787,-4.121,79.6031],[122.8769,-4.1176,64.8151],[122.873,-4.1161,161.6913],[122.8733,-4.1126,84.6245],[122.8707,-4.1094,175.8549],[122.8691,-4.0995,7.4694],[122.8602,-4.093,160.4226],[122.8567,-4.0885,245.1685],[122.8534,-4.076,126.7089],[122.8499,-4.0697,183.8714],[122.8315,-4.0553,0.0],[122.8273,-4.0554,0.0],[122.8208,-4.0594,0.0],[122.8156,-4.0577,0.0],[122.8104,-4.0619,5.95],[122.7997,-4.0595,25.2417],[122.7945,-4.0555,0.0],[122.7886,-4.0612,0.0],[122.7804,-4.06,0.0],[122.7752,-4.0566,0.0],[122.7663,-4.056,0.0],[122.7627,-4.0596,0.0],[122.7611,-4.0652,0.0],[122.7695,-4.0699,0.0],[122.7677,-4.0744,0.0],[122.7711,-4.0777,3.5257],[122.7711,-4.0799,0.0],[122.776,-4.0814,0.0],[122.7764,-4.084,0.0],[122.7751,-4.0846,0.0],[122.7762,-4.0857,0.0],[122.7746,-4.0867,0.0],[122.7771,-4.089,2.5282],[122.7772,-4.0918,0.0],[122.7798,-4.091,22.7873],[122.7819,-4.0929,47.6525],[122.7831,-4.097,0.0],[122.7861,-4.0943,110.6283],[122.7878,-4.0965,0.0],[122.7913,-4.0945,70.5528],[122.7914,-4.0963,0.0],[122.793,-4.0963,10.5448],[122.7931,-4.0926,40.4985],[122.7983,-4.0943,4.1505],[122.8,-4.0976,3.3823],[122.8016,-4.096,38.3165],[122.8039,-4.1,0.0],[122.801,-4.1014,3.7317],[122.7992,-4.1059,0.0],[122.8015,-4.1093,0.0],[122.8043,-4.1036,62.2034],[122.8065,-4.1035,19.5363],[122.8081,-4.1003,12.6059],[122.8091,-4.1022,14.3475],[122.807,-4.1058,18.0626],[122.8087,-4.1081,0.0],[122.8068,-4.1101,0.0],[122.8076,-4.1145,6.6594],[122.8215,-4.1079,50.4471],[122.8237,-4.1108,1.4431],[122.8209,-4.1156,0.0],[122.8243,-4.1179,24.0695],[122.8241,-4.1224,0.0],[122.8299,-4.1199,4.2297],[122.8343,-4.1238,3.9674],[122.834,-4.1305,0.0],[122.831,-4.1316,9.0588],[122.8322,-4.1339,0.0],[122.8308,-4.1358,5.1162],[122.8283,-4.1361,36.4942],[122.8266,-4.1335,16.1948],[122.8243,-4.1345,0.0],[122.832,-4.1397,0.0],[122.8318,-4.1467,0.0],[122.8349,-4.1473,15.8927],[122.8357,-4.1498,0.7484],[122.8323,-4.154,2.8637],[122.8268,-4.1506,10.604],[122.8225,-4.1455,9.7394],[122.8172,-4.1452,72.1158],[122.8181,-4.1409,0.0],[122.8144,-4.1413,31.5995],[122.8162,-4.1367,8.0943],[122.815,-4.1361,6.0283],[122.8126,-4.1408,10.4339],[122.8097,-4.1404,0.0],[122.8095,-4.1487,18.1767],[122.8061,-4.1506,12.5967],[122.8027,-4.1504,0.0],[122.8031,-4.1541,13.3983],[122.8009,-4.154,0.0],[122.7997,-4.1561,6.8137],[122.7962,-4.1552,56.0665],[122.7932,-4.1519,4.2306],[122.7891,-4.1536,8.3941],[122.7738,-4.1517,1.0225],[122.769,-4.155,0.0],[122.7719,-4.1623,8.1388],[122.7703,-4.1629,8.1388],[122.7678,-4.1607,5.0654],[122.7657,-4.1617,10.3586],[122.7673,-4.1573,4.0983],[122.766,-4.1571,4.0983],[122.7651,-4.1596,14.113],[122.7632,-4.1544,0.0],[122.7602,-4.1538,8.4089],[122.7604,-4.1568,14.8813],[122.7587,-4.1558,3.3974],[122.7557,-4.1568,7.0964],[122.7563,-4.1538,0.0],[122.7543,-4.1517,11.859],[122.7543,-4.1542,25.1561],[122.7534,-4.1531,4.7888],[122.7515,-4.1562,4.9429],[122.7503,-4.1553,4.9429],[122.7499,-4.161,43.8004],[122.743,-4.1672,172.063],[122.7476,-4.1784,368.388],[122.7526,-4.1993,405.9921],[122.77,-4.2427,430.0128],[122.7902,-4.2783,464.4541],[122.7992,-4.2901,493.1607],[122.8093,-4.3031,440.2529],[122.8425,-4.3381,770.9478],[122.8571,-4.3657,607.0893],[122.8611,-4.378,497.8606]]],
[[[122.9019,-4.1762,0.0],[122.9033,-4.1841,0.0],[122.9058,-4.1862,0.8049],[122.907,-4.1843,12.8619],[122.9063,-4.1789,6.2879],[122.9019,-4.1762,0.0]]],
[[[122.8954,-4.1473,1.5504],[122.8923,-4.1476,0.0],[122.8957,-4.1583,0.0],[122.8986,-4.1594,2.2002],[122.8973,-4.1494,7.8806],[122.8954,-4.1473,1.5504]]],
[[[122.8931,-4.142,0.0],[122.8915,-4.1417,109.6855],[122.8925,-4.146,0.0],[122.894,-4.1451,3.3233],[122.8931,-4.142,0.0]]],
[[[122.8302,-4.1315,9.0588],[122.8291,-4.1308,0.0],[122.8285,-4.1306,0.0],[122.8287,-4.132,0.0],[122.8302,-4.1315,9.0588]]],
[[[122.8277,-4.1305,0.0],[122.8283,-4.1304,0.0],[122.8278,-4.1297,0.0],[122.8272,-4.1302,0.0],[122.8277,-4.1305,0.0]]],
[[[122.809,-4.1375,0.0],[122.8094,-4.1381,0.0],[122.8102,-4.1376,0.8417],[122.8091,-4.1364,0.0],[122.809,-4.1375,0.0]]],
[[[122.8134,-4.133,33.6427],[122.8121,-4.1316,0.0],[122.8112,-4.1338,0.0],[122.8142,-4.1353,6.0283],[122.8143,-4.134,33.6427],[122.8134,-4.133,33.6427]]],
[[[122.7938,-4.1026,7.8698],[122.7954,-4.099,0.0],[122.7929,-4.1001,0.0],[122.7923,-4.102,0.0],[122.7938,-4.1026,7.8698]]],
[[[122.777,-4.0389,8.6517],[122.7785,-4.0386,2.198],[122.7781,-4.0363,7.0072],[122.7772,-4.0366,7.0072],[122.777,-4.0389,8.6517]]]]}}