{"type":"Feature","properties":{"GID_3":"IDN.20.1.4_1","GID_0":"IDN","country":"Indonesia","GID_1":"IDN.20_1","province":"NusaTenggaraBarat","NL_NAME_1":"NA","GID_2":"IDN.20.1_1","county":"Bima","NL_NAME_2":"NA","city":"Donggo","VARNAME_3":"NA","NL_NAME_3":"NA","TYPE_3":"Kecamatan","ENGTYPE_3":"Sub-district","CC_3":"5206080","HASC_3":"NA","name":"Donggo.city"},
"geometry":{"type": "MultiPolygon","coordinates": [[[[118.5935,-8.4779,166.5574],[118.5987,-8.4762,235.9497],[118.6087,-8.4619,308.8514],[118.6196,-8.4569,294.0434],[118.6194,-8.4518,327.5239],[118.6285,-8.4174,381.14],[118.6307,-8.4138,410.2807],[118.6378,-8.4122,318.7665],[118.6359,-8.4085,270.7167],[118.6314,-8.4064,358.885],[118.6186,-8.404,431.9741],[118.6025,-8.4061,679.75],[118.5938,-8.4046,861.7958],[118.5882,-8.409,1122.0347],[118.5816,-8.4026,1135.0491],[118.5732,-8.3981,710.7906],[118.5744,-8.3896,648.8859],[118.5717,-8.3552,935.7609],[118.5501,-8.3658,662.8481],[118.5335,-8.379,1062.1481],[118.5422,-8.3923,1488.3448],[118.5412,-8.4018,1235.0492],[118.5246,-8.4283,880.199],[118.5157,-8.4349,599.3243],[118.5104,-8.436,572.0575],[118.5026,-8.4431,440.1069],[118.5019,-8.4602,386.2857],[118.5109,-8.4789,248.6897],[118.5171,-8.4735,303.7713],[118.5305,-8.4773,300.6589],[118.5429,-8.4775,243.7315],[118.5481,-8.4824,237.8585],[118.5521,-8.4833,212.6293],[118.5645,-8.4808,273.8012],[118.5712,-8.4732,311.3911],[118.5935,-8.4779,166.5574]]]]}}