{"type":"Feature","properties":{"GID_2":"IDN.19.3_1","GID_0":"IDN","country":"Indonesia","GID_1":"IDN.19_1","province":"Maluku","NL_NAME_1":"NA","county":"Buru","VARNAME_2":"NA","NL_NAME_2":"NA","TYPE_2":"Kabupaten","ENGTYPE_2":"Regency","CC_2":"8104","HASC_2":"ID.MA.BR","name":"Buru.county"},
"geometry":{"type": "MultiPolygon","coordinates": [[[[127.2212,-3.3598,4.0758],[127.2181,-3.3566,17.4343],[127.204,-3.3584,4.9846],[127.1822,-3.3559,0.0],[127.1791,-3.3531,7.8988],[127.1795,-3.347,5.9945],[127.177,-3.344,0.0],[127.1688,-3.3412,0.0],[127.1638,-3.3354,0.0],[127.1555,-3.3391,0.0],[127.1421,-3.35,7.4959],[127.1381,-3.3587,0.0],[127.1385,-3.3601,0.0],[127.1402,-3.3594,2.7529],[127.141,-3.3621,4.1652],[127.139,-3.3695,12.9198],[127.1397,-3.3736,12.2284],[127.1348,-3.379,2.2649],[127.1314,-3.3788,13.6835],[127.1246,-3.3827,0.6622],[127.1203,-3.3832,2.9372],[127.1072,-3.3806,1.5512],[127.0974,-3.3763,12.0098],[127.0923,-3.3721,1.7898],[127.0758,-3.3738,2.3437],[127.072,-3.3643,0.0],[127.0725,-3.3581,2.2982],[127.0707,-3.3584,3.7792],[127.0694,-3.352,0.0],[127.0717,-3.3496,0.0],[127.0687,-3.346,15.9851],[127.0722,-3.3413,0.0],[127.0687,-3.3378,19.986],[127.072,-3.3331,0.0],[127.0732,-3.3219,0.0],[127.0553,-3.329,0.0],[127.0528,-3.3366,6.0175],[127.0493,-3.3354,6.5732],[127.0429,-3.3288,0.0],[127.0442,-3.3201,0.0],[127.0416,-3.3158,8.2433],[127.0437,-3.3129,0.0],[127.0406,-3.3004,4.5479],[127.0399,-3.2907,8.0784],[127.0346,-3.2763,0.0],[127.0306,-3.2745,2.3447],[127.0307,-3.2731,2.3447],[127.0346,-3.2722,0.0],[127.0347,-3.2654,0.0],[127.0307,-3.265,5.3482],[127.0349,-3.2638,0.5785],[127.0439,-3.2653,0.0],[127.0561,-3.2618,3.9388],[127.062,-3.2663,0.0],[127.0644,-3.2655,0.5228],[127.0649,-3.2607,2.4019],[127.0659,-3.2624,0.533],[127.0687,-3.2625,0.3713],[127.0722,-3.2599,0.0],[127.0805,-3.2623,3.6488],[127.0789,-3.2647,0.0],[127.0823,-3.2643,4.5366],[127.0886,-3.2696,2.0113],[127.0954,-3.2773,0.0],[127.0953,-3.2836,0.0],[127.0991,-3.2847,0.0],[127.1118,-3.2796,0.8148],[127.1168,-3.2804,0.0],[127.1221,-3.2745,7.4434],[127.1196,-3.2718,6.6912],[127.1197,-3.2646,5.0224],[127.1135,-3.2607,1.0607],[127.1121,-3.2572,0.0],[127.1113,-3.2336,2.486],[127.1063,-3.225,0.0],[127.1019,-3.2233,1.7396],[127.0906,-3.211,0.0],[127.0835,-3.2053,0.5418],[127.0795,-3.2039,0.5062],[127.0726,-3.1957,1.4116],[127.0555,-3.1804,1.1396],[127.0375,-3.1708,0.0],[127.0296,-3.1726,1.1807],[127.0266,-3.169,0.0],[127.0269,-3.1668,0.0],[127.0184,-3.1576,0.0],[126.9906,-3.1427,0.0],[126.9879,-3.1398,2.7583],[126.9837,-3.1379,0.0],[126.9783,-3.1391,2.1951],[126.9576,-3.1378,0.0],[126.9502,-3.1409,0.0],[126.9327,-3.1432,4.6512],[126.9235,-3.1394,0.0],[126.9126,-3.1251,0.0],[126.9092,-3.1227,2.4609],[126.9061,-3.1227,0.0],[126.9001,-3.1271,2.9324],[126.8911,-3.1274,3.0497],[126.8857,-3.1233,0.0],[126.8818,-3.1076,0.0],[126.8719,-3.1011,0.0],[126.8674,-3.0957,0.0],[126.8578,-3.0902,7.9022],[126.85,-3.0895,2.0121],[126.838,-3.0853,11.0315],[126.8197,-3.0712,0.0],[126.7907,-3.0589,0.0],[126.7757,-3.0571,8.7086],[126.7693,-3.0609,0.0],[126.761,-3.0597,12.8192],[126.7543,-3.0607,7.4571],[126.7406,-3.0598,12.9914],[126.7345,-3.0578,0.0],[126.7082,-3.0563,8.0231],[126.7,-3.0602,0.0],[126.6974,-3.0666,6.6402],[126.6951,-3.0673,2.7581],[126.6827,-3.0614,34.0622],[126.6807,-3.0616,0.0],[126.6805,-3.0661,0.0],[126.6783,-3.0691,2.8402],[126.6588,-3.0696,10.9196],[126.6525,-3.0716,17.7201],[126.6104,-3.0679,1.487],[126.598,-3.0639,0.0],[126.5892,-3.0681,6.019],[126.5683,-3.072,4.6412],[126.5161,-3.0711,0.0],[126.5021,-3.0772,0.0],[126.4829,-3.0785,7.7348],[126.4736,-3.0831,3.2784],[126.4638,-3.0846,7.5981],[126.4544,-3.0828,0.0],[126.4371,-3.0838,0.0],[126.4272,-3.0816,5.7893],[126.4234,-3.0792,0.0],[126.4164,-3.0816,8.2547],[126.406,-3.0806,0.0],[126.3927,-3.0881,0.0],[126.3891,-3.0933,8.1299],[126.379,-3.0952,4.3239],[126.3641,-3.094,0.0],[126.3459,-3.1009,0.0],[126.3256,-3.1001,9.0436],[126.2996,-3.0934,5.3459],[126.2925,-3.098,4.6479],[126.2845,-3.1078,0.0],[126.2728,-3.1151,11.5114],[126.2607,-3.1324,1.7401],[126.2492,-3.1312,1.2453],[126.2341,-3.1325,0.8779],[126.2275,-3.1378,1.997],[126.2216,-3.1531,10.7784],[126.221,-3.1587,14.4766],[126.2224,-3.1675,0.0],[126.2281,-3.1781,10.3972],[126.2257,-3.1821,1.7088],[126.2223,-3.1835,5.8499],[126.2153,-3.1826,1.4151],[126.2034,-3.1859,2.924],[126.1893,-3.1853,8.5094],[126.1631,-3.1759,1.9564],[126.1588,-3.1715,1.4731],[126.1442,-3.1671,8.3858],[126.133,-3.1602,2.2148],[126.1281,-3.1528,1.0917],[126.1256,-3.1522,2.6068],[126.1215,-3.1564,12.0411],[126.1126,-3.1572,68.7943],[126.1229,-3.2029,344.8881],[126.13,-3.2261,948.6974],[126.1326,-3.2647,1841.3969],[126.1242,-3.2952,1544.3866],[126.1331,-3.302,1704.3899],[126.2286,-3.3367,1310.7944],[126.3256,-3.3612,1508.9333],[126.381,-3.3846,1498.001],[126.4622,-3.4118,1250.8352],[126.5098,-3.4355,797.1218],[126.7266,-3.4801,516.4989],[126.9019,-3.5188,75.9775],[127.1959,-3.6093,727.5768],[127.2387,-3.6336,0.0],[127.2406,-3.6227,2.1794],[127.2398,-3.6159,1.8367],[127.243,-3.6138,8.252],[127.2441,-3.6054,0.0],[127.2474,-3.6019,5.0632],[127.2515,-3.5923,10.4211],[127.25,-3.5828,0.0],[127.2459,-3.5755,0.0],[127.2448,-3.5691,0.0],[127.2487,-3.5561,0.0],[127.2464,-3.5501,0.0],[127.2508,-3.5444,6.4162],[127.2517,-3.5294,9.9868],[127.2495,-3.5254,4.5778],[127.2502,-3.4948,0.0],[127.2489,-3.492,8.8101],[127.2504,-3.4672,7.702],[127.2485,-3.4501,4.0119],[127.2508,-3.4467,1.5759],[127.2504,-3.4369,5.044],[127.2543,-3.4308,0.0],[127.2526,-3.4272,11.1375],[127.2537,-3.4156,22.6819],[127.2553,-3.4117,3.5875],[127.2684,-3.3964,0.0],[127.2689,-3.3894,1.8122],[127.2569,-3.372,0.0],[127.2482,-3.3721,1.8658],[127.2436,-3.3668,10.6769],[127.2393,-3.3648,9.616],[127.2239,-3.3618,4.554],[127.2212,-3.3598,4.0758]]]]}}