{"type":"Feature","properties":{"GID_3":"IDN.13.13.2_1","GID_0":"IDN","country":"Indonesia","GID_1":"IDN.13_1","province":"KalimantanSelatan","NL_NAME_1":"NA","GID_2":"IDN.13.13_1","county":"Tapin","NL_NAME_2":"NA","city":"Binuang","VARNAME_3":"NA","NL_NAME_3":"NA","TYPE_3":"Kecamatan","ENGTYPE_3":"Sub-district","CC_3":"6305010","HASC_3":"NA","name":"Binuang.city"},
"geometry":{"type": "MultiPolygon","coordinates": [[[[115.1127,-3.1935,85.9745],[115.1239,-3.1967,129.3772],[115.1226,-3.1618,82.2523],[115.1237,-3.1588,66.1848],[115.1191,-3.1556,41.2959],[115.1195,-3.1546,37.3595],[115.1328,-3.1537,93.5026],[115.1357,-3.1515,100.8201],[115.1359,-3.1004,46.6982],[115.1175,-3.0903,49.6166],[115.1006,-3.0758,12.0245],[114.9793,-3.0755,4.7021],[114.9703,-3.1022,6.425],[115.0023,-3.1222,6.7335],[115.057,-3.1635,4.6523],[115.089,-3.1835,42.6279],[115.1127,-3.1935,85.9745]]]]}}