{"type":"Feature","properties":{"GID_3":"IDN.11.29.15_1","GID_0":"IDN","country":"Indonesia","GID_1":"IDN.11_1","province":"JawaTimur","NL_NAME_1":"NA","GID_2":"IDN.11.29_1","county":"Ponorogo","NL_NAME_2":"NA","city":"Sambit","VARNAME_3":"NA","NL_NAME_3":"NA","TYPE_3":"Kecamatan","ENGTYPE_3":"Sub-district","CC_3":"3502040","HASC_3":"NA","name":"Sambit.city"},
"geometry":{"type": "MultiPolygon","coordinates": [[[[111.4895,-8.0522,871.2248],[111.4893,-8.0548,1022.9575],[111.4988,-8.0481,985.5815],[111.5057,-8.0486,851.4089],[111.5164,-8.0447,1033.0492],[111.5195,-8.0465,1023.0671],[111.5204,-8.0528,993.3622],[111.5243,-8.0536,1015.9451],[111.5261,-8.0569,1021.4214],[111.5344,-8.0603,911.2544],[111.5388,-8.0569,785.0278],[111.5428,-8.0569,664.295],[111.5445,-8.0547,637.4597],[111.5506,-8.0566,556.5653],[111.5539,-8.0562,512.8278],[111.5565,-8.0538,498.9543],[111.5572,-8.0499,420.108],[111.5543,-8.0491,430.6827],[111.5499,-8.0403,594.7712],[111.5386,-8.0351,901.3909],[111.5396,-8.0324,968.0571],[111.5371,-8.0227,750.2885],[111.5399,-8.0075,255.4484],[111.5348,-8.0041,270.0227],[111.5357,-8.0006,275.6427],[111.532,-7.99,161.6934],[111.5319,-7.9798,136.7625],[111.5295,-7.9797,135.3552],[111.5295,-7.971,125.1211],[111.526,-7.9705,121.4639],[111.5257,-7.9642,120.9692],[111.5309,-7.9647,126.2632],[111.532,-7.9672,126.128],[111.5409,-7.9718,130.9989],[111.5407,-7.9651,130.5021],[111.5428,-7.9625,127.8221],[111.5454,-7.9636,133.1471],[111.5464,-7.9606,134.8818],[111.5395,-7.9578,125.5642],[111.5388,-7.9549,132.8426],[111.5315,-7.9573,132.2333],[111.5316,-7.9511,123.9111],[111.5291,-7.9442,121.799],[111.5338,-7.9434,124.203],[111.5331,-7.9391,131.5092],[111.5287,-7.9433,121.799],[111.5251,-7.9395,124.8064],[111.5196,-7.94,117.6068],[111.519,-7.938,114.5334],[111.5161,-7.9383,116.6948],[111.5166,-7.9429,115.4156],[111.5192,-7.9455,115.2433],[111.5202,-7.9501,116.544],[111.5189,-7.9502,116.544],[111.518,-7.9467,115.3483],[111.5128,-7.9459,114.6016],[111.511,-7.9521,117.5531],[111.5131,-7.9529,118.71],[111.5135,-7.9556,119.3151],[111.5116,-7.9585,121.2423],[111.5082,-7.9577,117.6375],[111.5041,-7.9519,117.7605],[111.499,-7.9502,117.5843],[111.4986,-7.9482,115.2699],[111.4941,-7.9458,113.5578],[111.4915,-7.9537,108.6428],[111.4875,-7.9552,108.5903],[111.4841,-7.9535,107.705],[111.4808,-7.9575,104.8229],[111.4769,-7.9577,103.5583],[111.48,-7.9624,104.9025],[111.4818,-7.9625,105.1797],[111.4824,-7.9659,107.2193],[111.4839,-7.9657,107.7664],[111.4842,-7.9718,104.1569],[111.4883,-7.972,106.2117],[111.4886,-7.979,117.7877],[111.4852,-7.9787,115.7928],[111.4854,-7.9813,116.7375],[111.4899,-7.9832,124.1284],[111.4884,-7.9942,136.7605],[111.4925,-7.9976,143.3324],[111.4951,-8.0025,161.3418],[111.4941,-8.0086,234.524],[111.4915,-8.0129,295.0023],[111.4956,-8.0221,709.7949],[111.4902,-8.0423,716.0579],[111.4895,-8.0522,871.2248]]]]}}