{"type":"Feature","properties":{"GID_3":"IDN.23.26.33_1","GID_0":"IDN","country":"Indonesia","GID_1":"IDN.23_1","province":"Papua","NL_NAME_1":"NA","GID_2":"IDN.23.26_1","county":"Tolikara","NL_NAME_2":"NA","city":"Woniki","VARNAME_3":"NA","NL_NAME_3":"NA","TYPE_3":"Distrik","ENGTYPE_3":"District","CC_3":"9418011","HASC_3":"NA","name":"Woniki.city"},
"geometry":{"type": "MultiPolygon","coordinates": [[[[138.2769,-3.7223,3039.9319],[138.2928,-3.7471,3083.8813],[138.3049,-3.7508,3036.1631],[138.3128,-3.749,2835.668],[138.3229,-3.7297,2640.1282],[138.3627,-3.7236,2985.5759],[138.3609,-3.7129,2765.2927],[138.3574,-3.7103,2628.4612],[138.354,-3.7003,2034.5226],[138.3539,-3.685,1722.3425],[138.3575,-3.6728,1537.5845],[138.3568,-3.665,1441.1887],[138.358,-3.6606,1360.056],[138.3558,-3.6635,1405.3495],[138.3536,-3.664,1410.1115],[138.3533,-3.6658,1411.2366],[138.3451,-3.6712,1574.6597],[138.3447,-3.673,1493.4077],[138.3378,-3.6733,1490.3621],[138.3352,-3.6761,1515.3549],[138.3294,-3.6764,1565.9144],[138.3192,-3.6704,1579.3602],[138.3161,-3.6702,1596.1548],[138.3151,-3.6716,1673.689],[138.313,-3.6697,1619.8881],[138.3147,-3.6668,1704.948],[138.3141,-3.6637,1677.5751],[138.2998,-3.6433,1989.5443],[138.2934,-3.6381,2079.9392],[138.2903,-3.6385,2094.77],[138.2874,-3.6369,2109.9473],[138.2831,-3.6311,2286.9939],[138.2578,-3.6205,3258.4985],[138.2554,-3.6176,3289.731],[138.2554,-3.6137,3216.9863],[138.2473,-3.6107,2778.7668],[138.2446,-3.6128999999999998,2731.8379],[138.2429,-3.6171,2666.1396],[138.2382,-3.6193,2465.2944],[138.245,-3.6289,2887.7788],[138.2624,-3.6898,2616.0366],[138.2666,-3.7012,2499.144],[138.2733,-3.7108,2347.7256],[138.2769,-3.7223,3039.9319]]]]}}