{"type":"Feature","properties":{"GID_3":"IDN.9.5.6_1","GID_0":"IDN","country":"Indonesia","GID_1":"IDN.9_1","province":"JawaBarat","NL_NAME_1":"NA","GID_2":"IDN.9.5_1","county":"Bogor","NL_NAME_2":"NA","city":"Ciawi","VARNAME_3":"NA","NL_NAME_3":"NA","TYPE_3":"Kecamatan","ENGTYPE_3":"Sub-district","CC_3":"3201100","HASC_3":"NA","name":"Ciawi.city"},
"geometry":{"type": "MultiPolygon","coordinates": [[[[106.9332,-6.7672,2151.4932],[106.9337,-6.7693,2203.499],[106.9463,-6.7611,2623.666],[106.9505,-6.76,2597.3623],[106.952,-6.7519,2137.9001],[106.9484,-6.7364,1598.8015],[106.935,-6.7228,1200.3125],[106.9301,-6.7229,1055.4556],[106.9208,-6.7146,953.5629],[106.9153,-6.7163,1017.5177],[106.9105,-6.7148,881.6214],[106.9047,-6.7025,768.1119],[106.8921,-6.6962,685.0494],[106.8856,-6.689,639.6276],[106.8795,-6.6879,613.5393],[106.8773,-6.682,596.5246],[106.8629,-6.6743,563.0483],[106.8609,-6.669,528.9695],[106.8588,-6.6688,530.58],[106.8573,-6.663,495.2517],[106.8608,-6.6651,531.302],[106.867,-6.6736,572.6281],[106.8709,-6.6761,589.6285],[106.8743,-6.6755,624.4479],[106.8723,-6.6715,603.2977],[106.8688,-6.6697,585.4194],[106.8599,-6.6596,497.5117],[106.8592,-6.6554,468.5384],[106.8682,-6.6528,459.1801],[106.8662,-6.65,454.2448],[106.8562,-6.6472,417.6017],[106.8484,-6.6373,380.2335],[106.8412,-6.6347,363.1036],[106.8486,-6.6467,419.6568],[106.8485,-6.6516,444.2483],[106.8452,-6.6615,453.9527],[106.8481,-6.6762,507.8741],[106.8401,-6.6796,518.5594],[106.8333,-6.6777,464.8513],[106.8302,-6.6791,424.1106],[106.8309,-6.6808,432.8266],[106.8343,-6.6823,441.5865],[106.8345,-6.6849,482.1144],[106.8397,-6.6883,501.6827],[106.8486,-6.6902,487.9929],[106.851,-6.6892,492.628],[106.8573,-6.6916,503.7517],[106.8591,-6.6934,502.2026],[106.8581,-6.6958,509.2698],[106.8603,-6.6986,529.059],[106.8606,-6.7033,550.046],[106.8658,-6.7095,580.4894],[106.876,-6.7135,637.8615],[106.8802,-6.7204,723.6351],[106.9127,-6.7421,1089.5062],[106.9148,-6.7459,1162.6675],[106.9167,-6.7455,1195.0525],[106.9266,-6.7516,1623.4521],[106.9323,-6.7589,1833.2583],[106.9332,-6.7672,2151.4932]]]]}}