{"type":"Feature","properties":{"GID_3":"IDN.32.6.7_1","GID_0":"IDN","country":"Indonesia","GID_1":"IDN.32_1","province":"SumateraUtara","NL_NAME_1":"NA","GID_2":"IDN.32.6_1","county":"HumbangHasundutan","NL_NAME_2":"NA","city":"Parlilitan","VARNAME_3":"NA","NL_NAME_3":"NA","TYPE_3":"Kecamatan","ENGTYPE_3":"Sub-district","CC_3":"1215090","HASC_3":"NA","name":"Parlilitan.city"},
"geometry":{"type": "MultiPolygon","coordinates": [[[[98.5909,2.2336,1624.0206],[98.5984,2.2366,1442.5045],[98.5912,2.2562,1253.5942],[98.5887,2.2705,1109.9094],[98.5984,2.2945,1238.354],[98.5976,2.3105,1306.9513],[98.594,2.3214,1314.1649],[98.5928,2.3333,1316.8948],[98.597,2.3551,1352.2278],[98.6161,2.399,1645.0598],[98.6151,2.3984,1638.2306],[98.6131,2.4435,1755.9907],[98.6099,2.4558,1793.5942],[98.6039,2.4655,1822.4772],[98.5941,2.4764,1840.4561],[98.5818,2.4866,1853.8093],[98.5106,2.4871,1628.4852],[98.5017,2.4787,1511.1287],[98.4834,2.4674,1383.0874],[98.4737,2.4646,1361.1759],[98.4458,2.4871,1301.3104],[98.431,2.4871,1307.4604],[98.4228,2.4813,1315.202],[98.4151,2.4803,1315.5831],[98.4108,2.476,1354.646],[98.4085,2.4702,1443.7397],[98.4036,2.4661,1466.9878],[98.3959,2.4642,1453.4656],[98.3936,2.4655,1458.9446],[98.3629,2.4658,1436.465],[98.3557,2.4621,1360.9044],[98.3461,2.4498,1341.016],[98.3447,2.4396,1054.6007],[98.3464,2.4332,714.8385],[98.34,2.4321,966.4078],[98.3405,2.4272,857.1815],[98.3382,2.4251,663.3792],[98.3291,2.4238,644.2856],[98.3244,2.4257,717.5847],[98.3146,2.4215,515.8996],[98.3099,2.4241,595.3117],[98.3028,2.4252,476.4987],[98.2923,2.4237,489.9206],[98.2887,2.4213,524.1254],[98.2874,2.4144,581.9824],[98.2951,2.4025,531.8242],[98.2976,2.392,519.8967],[98.296,2.381,630.0928],[98.2904,2.3664,793.3148],[98.2964,2.3504,567.7373],[98.2954,2.3406,665.5141],[98.2933,2.3379,695.6835],[98.2798,2.3365,382.0246],[98.2683,2.34,220.5974],[98.2565,2.3465,187.3137],[98.2471,2.3591,191.9307],[98.2451,2.3602,174.7926],[98.2417,2.3593,164.4319],[98.2416,2.3573,215.8919],[98.245,2.3543,241.3915],[98.249,2.3449,287.3829],[98.2512,2.3291,355.8252],[98.2511,2.3135,526.8703],[98.2604,2.3082,590.6061],[98.278,2.3085,272.6035],[98.2855,2.3114,252.4521],[98.2973,2.3204,281.5468],[98.3142,2.3227,420.684],[98.3217,2.3282,294.6066],[98.3284,2.3384,503.5229],[98.3356,2.3405,562.9331],[98.3411,2.3395,668.8237],[98.348,2.3337,1039.7169],[98.3555,2.3235,673.2565],[98.4103,2.2955,597.3541],[98.435,2.2912,672.0673],[98.492,2.2877,673.6837],[98.4929,2.286,696.8626],[98.4936,2.2874,731.2942],[98.5038,2.2862,902.3912],[98.5166,2.2827,938.0126],[98.5199,2.2786,926.1479],[98.5165,2.2472,666.0087],[98.5171,2.239,658.9739],[98.52,2.2328,626.533],[98.5515,2.231,960.2562],[98.5909,2.2336,1624.0206]]]]}}