{"type":"Feature","properties":{"GID_3":"IDN.9.6.12_1","GID_0":"IDN","country":"Indonesia","GID_1":"IDN.9_1","province":"JawaBarat","NL_NAME_1":"NA","GID_2":"IDN.9.6_1","county":"Ciamis","NL_NAME_2":"NA","city":"Cipaku","VARNAME_3":"NA","NL_NAME_3":"NA","TYPE_3":"Kecamatan","ENGTYPE_3":"Sub-district","CC_3":"3207250","HASC_3":"NA","name":"Cipaku.city"},
"geometry":{"type": "MultiPolygon","coordinates": [[[[108.3919,-7.2739,206.5227],[108.3939,-7.275,215.5243],[108.3969,-7.2738,197.1101],[108.3962,-7.2672,249.2021],[108.3997,-7.2685,210.7688],[108.4032,-7.2656,182.5677],[108.4074,-7.266,184.1099],[108.4074,-7.2688,174.8762],[108.4124,-7.2685,176.2486],[108.4143,-7.2613,199.0679],[108.4208,-7.2539,220.3788],[108.4223,-7.2481,212.1449],[108.4215,-7.24,233.5958],[108.4159,-7.2362,267.7293],[108.4052,-7.233,281.9873],[108.4053,-7.2302,284.8118],[108.4013,-7.2274,339.2973],[108.3996,-7.2281,299.878],[108.4002,-7.2249,338.2591],[108.3945,-7.2229,318.9198],[108.3958,-7.2141,403.0204],[108.3946,-7.2123,386.6879],[108.3899,-7.211,303.4361],[108.386,-7.2144,261.0066],[108.3845,-7.2129,267.4096],[108.3817,-7.2144,272.7841],[108.3811,-7.211,271.8736],[108.383,-7.211,284.7063],[108.3754,-7.1999,334.1894],[108.3732,-7.1984,340.6302],[108.3694,-7.1993,336.0603],[108.3608,-7.1974,368.1399],[108.3626,-7.1944,390.2767],[108.3647,-7.1942,372.2087],[108.3644,-7.1917,384.0095],[108.3593,-7.1924,402.6997],[108.3571,-7.1912,418.8715],[108.355,-7.1928,409.9834],[108.3541,-7.1917,409.9834],[108.3398,-7.1986,501.5646],[108.3171,-7.2024,954.0089],[108.3089,-7.2053,1113.7697],[108.3123,-7.2106,979.9659],[108.3083,-7.2158,1086.4896],[108.3088,-7.2199,935.1818],[108.3128,-7.223,801.6974],[108.3175,-7.2436,558.3336],[108.3143,-7.2476,560.5536],[108.3271,-7.2627,430.0861],[108.3312,-7.2716,345.5643],[108.3329,-7.2725,345.5643],[108.3326,-7.2698,359.0512],[108.3349,-7.2674,382.8848],[108.3501,-7.2655,322.6016],[108.3526,-7.2693,291.6907],[108.3605,-7.2694,281.931],[108.3605,-7.2711,284.2756],[108.3637,-7.2724,255.5047],[108.3637,-7.2758,237.3674],[108.3648,-7.2766,220.7766],[108.3643,-7.2754,228.7279],[108.3708,-7.2736,260.9343],[108.3821,-7.267,297.476],[108.3849,-7.2676,277.7618],[108.3865,-7.2728,228.3145],[108.3902,-7.2713,230.847],[108.3919,-7.2739,206.5227]]]]}}