{"type":"Feature","properties":{"GID_3":"IDN.10.36.14_1","GID_0":"IDN","country":"Indonesia","GID_1":"IDN.10_1","province":"JawaTengah","NL_NAME_1":"NA","GID_2":"IDN.10.36_1","county":"Wonosobo","NL_NAME_2":"NA","city":"Watumalang","VARNAME_3":"NA","NL_NAME_3":"NA","TYPE_3":"Kecamatan","ENGTYPE_3":"Sub-district","CC_3":"3307100","HASC_3":"NA","name":"Watumalang.city"},
"geometry":{"type": "MultiPolygon","coordinates": [[[[109.89,-7.363,663.5092],[109.8921,-7.3627,676.3406],[109.8947,-7.3583,683.9091],[109.8974,-7.3506,710.0974],[109.8967,-7.3483,726.6521],[109.894,-7.3489,754.2762],[109.8914,-7.3466,721.3242],[109.8922,-7.3412,722.2363],[109.8881,-7.3426,772.1272],[109.8848,-7.3408,750.277],[109.8863,-7.345,710.5507],[109.8818,-7.3503,690.6198],[109.8783,-7.3468,750.5869],[109.8767,-7.3424,747.29],[109.872,-7.3407,793.8802],[109.8713,-7.348,708.3958],[109.8653,-7.3393,780.3903],[109.8613,-7.3366,818.5392],[109.8608,-7.3251,898.1718],[109.8648,-7.3216,940.4777],[109.868,-7.3238,859.3041],[109.875,-7.322,831.674],[109.8765,-7.3072,958.3367],[109.8742,-7.3008,1014.061],[109.8737,-7.2931,1055.8066],[109.8776,-7.2865,1103.4902],[109.8794,-7.2758,1224.5045],[109.8875,-7.2564,1772.5112],[109.8799,-7.2604,1505.9224],[109.8755,-7.2609,1523.6472],[109.8682,-7.2573,1443.38],[109.8615,-7.256,1377.6707],[109.8527,-7.2504,1270.552],[109.8501,-7.251,1282.082],[109.8505,-7.2548,1247.1903],[109.8454,-7.2688,1171.327],[109.8415,-7.2729,1106.4663],[109.8436,-7.2749,1089.062],[109.8417,-7.2763,1052.406],[109.8432,-7.2804,1042.8491],[109.8402,-7.286,1010.5234],[109.8361,-7.2875,1022.2593],[109.8354,-7.2914,994.0709],[109.8302,-7.2968,897.0629],[109.8306,-7.298,945.5167],[109.8284,-7.2973,891.7124],[109.8257,-7.299,888.0045],[109.8255,-7.3019,887.6536],[109.8192,-7.3051,826.6022],[109.8149,-7.3134,767.3857],[109.8101,-7.3156,762.4581],[109.8069,-7.3234,709.7398],[109.7982,-7.3252,685.0592],[109.7924,-7.3351,645.0974],[109.801,-7.3409,865.6349],[109.808,-7.3395,842.9552],[109.8136,-7.3433,780.5807],[109.8174,-7.342,875.2574],[109.8225,-7.3433,1049.7155],[109.8241,-7.3442,1068.0173],[109.8253,-7.3497,943.1864],[109.8357,-7.3506,894.4059],[109.8458,-7.3444,840.8639],[109.8488,-7.3518,822.4543],[109.8543,-7.3523,760.7441],[109.8563,-7.3577,822.3871],[109.8721,-7.364,726.0048],[109.8763,-7.3642,650.7572],[109.878,-7.3624,649.9262],[109.8793,-7.3665,638.2202],[109.8866,-7.3618,697.2991],[109.89,-7.363,663.5092]]]]}}