{"type":"Feature","properties":{"GID_3":"IDN.27.3.10_1","GID_0":"IDN","country":"Indonesia","GID_1":"IDN.27_1","province":"SulawesiTengah","NL_NAME_1":"NA","GID_2":"IDN.27.3_1","county":"Buol","NL_NAME_2":"NA","city":"Paleleh","VARNAME_3":"NA","NL_NAME_3":"NA","TYPE_3":"Kecamatan","ENGTYPE_3":"Sub-district","CC_3":"7207050","HASC_3":"NA","name":"Paleleh.city"},
"geometry":{"type": "MultiPolygon","coordinates": [[[[121.9639,0.9075,1726.9474],[121.9758,0.9042,1731.1234],[121.9825,0.9074,1835.6797],[121.9852,0.9105,1847.5021],[121.9865,0.9184,1500.7487],[121.9836,0.9217,1408.0615],[121.9833,0.9265,1140.3114],[121.9885,0.9354,934.5513],[121.9939,0.9422,937.7988],[122.0003,0.9431,937.517],[122.0077,0.9484,823.7144],[122.01,0.952,846.3449],[122.017,0.9546,947.8636],[122.0179,0.9569,941.1315],[122.0231,0.9581,803.3152],[122.0423,0.9895,540.4612],[122.0449,0.9891,503.5136],[122.052,0.9945,513.9016],[122.0622,0.998,408.0273],[122.0759,1.0062,620.6473],[122.0844,0.9986,322.3733],[122.0927,0.9998,465.2729],[122.1131,1.0131,99.8629],[122.123,1.0123,253.4547],[122.1255,1.0182,310.663],[122.1363,1.0199,235.8427],[122.1413,1.0184,138.4114],[122.1563,1.0256,100.7315],[122.1606,1.0299,100.2295],[122.1703,1.0278,140.1348],[122.17529999999999,1.0302,144.3151],[122.1755,1.0363,213.5004],[122.1862,1.037,2.9003],[122.1892,1.0393,59.8098],[122.1955,1.0385,19.9367],[122.1916,1.0409,34.8646],[122.186,1.0482,5.5867],[122.1848,1.0512,8.4715],[122.1864,1.057,2.3906],[122.1843,1.0571,0.0],[122.1816,1.0527,0.0],[122.1821,1.0441,0.0],[122.1725,1.0473,0.0],[122.1705,1.0455,0.0],[122.1693,1.035,2.0609],[122.1633,1.0333,0.0],[122.1552,1.045,62.5325],[122.1553,1.0493,0.0],[122.1523,1.0496,0.0],[122.1486,1.0462,1.299],[122.1413,1.0464,0.0],[122.1402,1.0524,0.0],[122.1372,1.0524,0.0],[122.1312,1.057,0.0],[122.1243,1.0536,35.0123],[122.1268,1.05,0.8538],[122.1252,1.0501,0.0],[122.1237,1.0461,0.0],[122.1221,1.0456,0.0],[122.1192,1.0476,25.5106],[122.1188,1.0511,0.0],[122.1172,1.0516,2.102],[122.1186,1.0548,22.3942],[122.1179,1.0569,2.6555],[122.1124,1.0566,4.9167],[122.1104,1.0587,0.8281],[122.1085,1.0576,1.0456],[122.1066,1.0622,5.28],[122.1096,1.0663,4.2487],[122.109,1.0688,0.0],[122.104,1.0681,9.7209],[122.0984,1.07,3.4728],[122.093,1.0689,0.0],[122.0901,1.0653,13.7692],[122.079,1.0648,15.984],[122.0792,1.0625,66.4772],[122.0747,1.0595,1.9703],[122.0716,1.0646,0.0],[122.0634,1.0643,1.8393],[122.0673,1.0697,7.9165],[122.0701,1.0703,12.6642],[122.0691,1.0734,0.0],[122.0672,1.0745,0.0],[122.0568,1.0734,5.8961],[122.0563,1.0704,6.3037],[122.0598,1.0683,0.0],[122.0592,1.0642,0.5026],[122.0533,1.0663,0.0],[122.0513,1.0624,0.0],[122.0506,1.0547,0.0],[122.0465,1.0531,0.0],[122.0417,1.0476,7.1143],[122.0347,1.0469,0.0],[122.031,1.0432,16.4815],[122.0283,1.0454,2.6554],[122.0219,1.04,7.7411],[122.0191,1.041,0.0],[122.0154,1.0399,4.9476],[122.0108,1.035,10.5161],[122.0028,1.0369,0.0],[122.0002,1.0289,0.0],[121.994,1.028,0.0],[121.9868,1.0233,6.8049],[121.9838,1.0231,0.0],[121.9756,1.0282,6.0836],[121.9724,1.0281,1.5566],[121.9531,1.041,2.7491],[121.9542,1.0494,5.1431],[121.9582,1.0608,0.0],[121.9563,1.061,0.0],[121.9527,1.0563,0.0],[121.9505,1.0561,0.0],[121.9504,1.0677,0.0],[121.9442,1.076,0.0],[121.9364,1.0778,2.6691],[121.935,1.0839,0.0],[121.8931,1.0691,396.0245],[121.8945,1.0361,430.9772],[121.8975,1.0251,593.5169],[121.9008,1.0199,722.3605],[121.8919,0.9727,1367.3239],[121.894,0.9688,1350.3533],[121.899,0.9644,1334.0171],[121.9021,0.9639,1305.7048],[121.9065,0.9581,1232.1671],[121.9071,0.9549,1150.5565],[121.916,0.9418,1226.8101],[121.9178,0.9341,1326.0944],[121.9217,0.9278,1313.0938],[121.9267,0.9275,1284.8071],[121.932,0.9296,1291.1254],[121.9382,0.9278,1400.3071],[121.9442,0.9196,1350.1818],[121.9473,0.9187,1403.7439],[121.9487,0.9141,1499.5938],[121.9539,0.9083,1623.1661],[121.9639,0.9075,1726.9474]]],
[[[121.9633,1.0546,0.0],[121.9623,1.052,0.0],[121.9677,1.0535,0.0],[121.9764,1.0654,0.0],[121.9764,1.068,0.0],[121.9731,1.0721,0.0],[121.9695,1.0727,0.0],[121.97,1.0655,0.0],[121.9672,1.0637,0.0],[121.9633,1.0546,0.0]]]]}}