{"type":"Feature","properties":{"GID_3":"IDN.32.13.7_1","GID_0":"IDN","country":"Indonesia","GID_1":"IDN.32_1","province":"SumateraUtara","NL_NAME_1":"NA","GID_2":"IDN.32.13_1","county":"Labuhanbatu","NL_NAME_2":"NA","city":"Pangkatan","VARNAME_3":"NA","NL_NAME_3":"NA","TYPE_3":"Kecamatan","ENGTYPE_3":"Sub-district","CC_3":"1207070","HASC_3":"NA","name":"Pangkatan.city"},
"geometry":{"type": "MultiPolygon","coordinates": [[[[99.926,2.1017,32.3924],[99.926,2.0795,54.1194],[99.9505,2.0809,37.7796],[99.9616,2.0792,33.5409],[100.0048,2.0818,30.9515],[100.0091,2.0885,25.6856],[100.0382,2.0884,36.8032],[100.0432,2.0876,26.8129],[100.0445,2.0855,20.6445],[100.0735,2.1051,18.132],[100.088,2.1047,13.2896],[100.0951,2.1082,13.7174],[100.1202,2.1586,12.0256],[100.1136,2.1611,11.7713],[100.0951,2.1628,11.6833],[100.0927,2.1689,11.7827],[100.0927,2.1869,9.2534],[100.0903,2.2118,5.6916],[100.0869,2.2218,9.9509],[100.08,2.2583,10.5448],[100.0682,2.2881,4.0714],[100.0621,2.2964,4.3551],[100.0445,2.3005,9.584],[100.023,2.2992,9.9522],[99.9452,2.2889,10.5821],[99.9398,2.274,10.0622],[99.9333,2.262,10.5111],[99.9339,2.2572,11.145],[99.9372,2.2529,6.3112],[99.9441,2.2498,6.0862],[99.9636,2.2029,15.2985],[99.9505,2.1633,15.8408],[99.9447,2.1385,19.4619],[99.9399,2.1349,19.9702],[99.9416,2.1136,16.3997],[99.9394,2.1116,18.7289],[99.9255,2.1103,37.1774],[99.926,2.1017,32.3924]]]]}}