{"type":"Feature","properties":{"ISO3166-1-Alpha-3":"IDN","country":"Indonesia","fill":"#00F","id":"557","name":"Sulawesi Tengah"},
"geometry":{"type": "MultiPolygon","coordinates": [[[[123.88787,-2.05088,0.0],[123.87892,-2.03232,66.0178],[123.87672,-2.01849,0.0],[123.86744,-2.00555,0.0],[123.85987,-2.01051,40.54],[123.84539,-2.03558,0.0],[123.83937,-2.04909,0.0],[123.84986,-2.05486,5.9327],[123.86427,-2.05511,97.9489],[123.86931,-2.05332,56.5289],[123.88054,-2.06943,45.1206],[123.88697,-2.07391,99.909],[123.88966,-2.06325,0.0],[123.88787,-2.05088,0.0]]],
[[[123.66383,-1.96331,0.0],[123.6644,-1.94891,0.0],[123.65699,-1.90936,0.0],[123.65699,-1.90179,0.0],[123.64959,-1.90179,8.4837],[123.64959,-1.93418,44.5854],[123.65162,-1.9494,40.8535],[123.65699,-1.96331,2.2532],[123.66383,-1.96331,0.0]]],
[[[123.74049,-1.94052,0.0],[123.74578,-1.93597,0.0],[123.74635,-1.92913,0.0],[123.73951,-1.91595,0.0],[123.73805,-1.90789,0.0],[123.72608,-1.9,0.0],[123.7129,-1.91172,0.0],[123.70558,-1.93377,8.345],[123.71168,-1.95713,2.7586],[123.74049,-1.94052,0.0]]],
[[[123.86443,-1.98943,0.0],[123.85743,-1.95037,0.0],[123.85239,-1.93873,0.0],[123.84474,-1.92864,0.0],[123.78736,-1.87396,0.0],[123.77174,-1.8956,0.0],[123.77329,-1.92262,36.0836],[123.78736,-1.98065,4.3496],[123.7942,-1.99212,5.3507],[123.80909,-1.99969,104.5423],[123.8318,-2.00498,88.9742],[123.84059,-2.00164,0.0],[123.84783,-1.99554,61.6887],[123.85621,-1.99245,117.8259],[123.86931,-1.99814,0.0],[123.86443,-1.98943,0.0]]],
[[[123.09669,-1.89528,0.0],[123.10206,-1.88486,2.2142],[123.10646,-1.87119,70.6533],[123.11704,-1.85784,145.4953],[123.13014,-1.84677,118.452],[123.14243,-1.83978,58.1444],[123.15284,-1.82383,0.0],[123.15154,-1.79876,0.0],[123.14324,-1.77549,0.0],[123.13282,-1.76531,0.0],[123.13103,-1.76092,0.0],[123.11744,-1.75286,0.0],[123.10206,-1.74847,0.0],[123.09457,-1.75506,0.0],[123.09344,-1.76824,3.0461],[123.09018,-1.77996,189.5587],[123.07447,-1.81894,20.7856],[123.07008,-1.84075,21.5028],[123.06739,-1.8917,11.5958],[123.07276,-1.90163,332.6024],[123.08473,-1.90179,37.9959],[123.09669,-1.89528,0.0]]],
[[[123.31772,-1.77451,0.0],[123.34181,-1.73797,0.0],[123.35027,-1.73089,126.6908],[123.3698,-1.7199,16.7113],[123.37818,-1.71282,82.4105],[123.38282,-1.70224,148.4174],[123.38201,-1.68963,119.9188],[123.37615,-1.67881,161.8107],[123.36573,-1.67311,11.7385],[123.36109,-1.67376,0.0],[123.35613,-1.67588,0.0],[123.33025,-1.69492,0.0],[123.2798,-1.74822,0.0],[123.27101,-1.7693,0.0],[123.28028,-1.78582,35.8025],[123.30128,-1.78834,5.3457],[123.31772,-1.77451,0.0]]],
[[[123.56886,-1.60084,0.0],[123.55738,-1.58115,0.0],[123.55592,-1.56341,0.0],[123.55926,-1.55576,16.5889],[123.56007,-1.54599,13.9214],[123.54469,-1.497,21.0148],[123.53736,-1.48504,3.0988],[123.52906,-1.48024,6.0664],[123.52329,-1.48268,2.9604],[123.52524,-1.49822,13.8972],[123.52068,-1.50482,0.0],[123.5114,-1.50563,54.4909],[123.50074,-1.50937,58.5612],[123.4909,-1.52451,0.0],[123.48194,-1.54469,16.1396],[123.47779,-1.55771,0.0],[123.47674,-1.56276,0.0],[123.4769,-1.57025,0.0],[123.4795,-1.57708,13.4691],[123.48504,-1.57969,0.0],[123.49147,-1.58473,0.0],[123.49269,-1.59498,0.0],[123.48805,-1.60329,0.5347],[123.48276,-1.61045,0.0],[123.4808,-1.615,25.0654],[123.47836,-1.61956,1.9538],[123.47853,-1.63454,0.0],[123.4756,-1.6491,4.6504],[123.47779,-1.66863,0.0],[123.48487,-1.69354,36.8389],[123.48732,-1.69997,42.1636],[123.4935,-1.70965,110.2989],[123.50367,-1.71282,129.5594],[123.51173,-1.70941,36.7404],[123.51515,-1.70338,18.417],[123.52215,-1.70582,27.0824],[123.53435,-1.71657,7.5904],[123.54542,-1.72186,12.0666],[123.55397,-1.72064,0.0],[123.56422,-1.72194,32.4047],[123.57488,-1.71998,61.3235],[123.57927,-1.71608,0.0],[123.58644,-1.71299,0.0],[123.60133,-1.70281,22.4059],[123.60865,-1.68873,60.2459],[123.60873,-1.67425,7.7816],[123.61411,-1.65244,43.8568],[123.61598,-1.64031,0.0],[123.61647,-1.62461,137.1137],[123.61036,-1.61159,117.6965],[123.6006,-1.60329,60.9876],[123.59034,-1.59873,19.1226],[123.58131,-1.60263,0.0],[123.56886,-1.60084,0.0]]],
[[[123.20102,-1.15521,0.0],[123.19418,-1.15163,0.0],[123.18946,-1.14528,0.0],[123.18287,-1.14227,0.0],[123.17042,-1.14837,2.8613],[123.16432,-1.15838,1.9011],[123.1631,-1.16985,0.0],[123.15935,-1.17929,0.0],[123.14625,-1.1832,0.0],[123.1338,-1.17986,0.0],[123.12517,-1.17278,0.0],[123.11834,-1.16579,0.0],[123.11207,-1.16269,0.0],[123.07423,-1.16269,0.0],[123.0298,-1.16888,0.0],[123.0171,-1.17262,0.0],[122.99733,-1.19036,0.0],[122.98536,-1.19606,0.0],[122.97153,-1.19443,0.0],[122.9358,-1.17986,0.0],[122.91383,-1.17636,0.0],[122.89869,-1.18434,0.0],[122.83611,-1.27402,9.0168],[122.82081,-1.31373,24.5301],[122.81088,-1.35809,232.0048],[122.80738,-1.40163,306.2132],[122.81202,-1.44362,185.714],[122.87403,-1.58457,87.6689],[122.89584,-1.58953,245.081],[122.91993,-1.57448,122.4085],[122.99317,-1.50921,64.628],[123.01393,-1.48561,50.8762],[123.03321,-1.45623,0.0],[123.04518,-1.42449,0.0],[123.0534,-1.40846,0.0],[123.06398,-1.40163,0.0],[123.07195,-1.39398,0.0],[123.09457,-1.34637,0.0],[123.10792,-1.33856,0.0],[123.12355,-1.33278,0.0],[123.13697,-1.32448,0.0],[123.14552,-1.29998,0.0],[123.15235,-1.30055,0.0],[123.15943,-1.30625,3.8018],[123.16358,-1.31219,86.3328],[123.16489,-1.32204,74.605],[123.16358,-1.35377,137.7175],[123.18483,-1.48561,186.0462],[123.17726,-1.51824,0.0],[123.13087,-1.54762,0.0],[123.11891,-1.55242,0.0],[123.11183,-1.55633,0.0],[123.10914,-1.56569,6.1527],[123.11069,-1.57692,205.1832],[123.1159,-1.5866,162.3274],[123.12387,-1.59149,193.8004],[123.15675,-1.60084,197.9128],[123.1644,-1.60963,137.2652],[123.16993,-1.6194,103.4347],[123.1784,-1.62249,36.9273],[123.21518,-1.59547,86.3408],[123.22682,-1.59336,35.8616],[123.23194,-1.60418,24.7843],[123.23552,-1.62705,111.342],[123.24334,-1.63242,125.5416],[123.2505,-1.62274,171.7856],[123.25229,-1.60084,0.0],[123.24985,-1.51067,0.0],[123.2588,-1.466,3.4318],[123.28028,-1.42889,154.156],[123.28858,-1.42156,0.0],[123.2964,-1.41766,0.0],[123.30551,-1.41611,0.0],[123.31772,-1.41579,26.9481],[123.32683,-1.42116,64.3572],[123.32814,-1.43288,3.3323],[123.32765,-1.44459,4.7518],[123.3318,-1.44997,2.8922],[123.35011,-1.45672,23.1783],[123.35719,-1.47291,45.5688],[123.36215,-1.51141,0.0],[123.3812,-1.4983,21.7255],[123.40838,-1.51653,11.6693],[123.42758,-1.50799,84.0039],[123.43572,-1.50311,99.9808],[123.45387,-1.49879,127.308],[123.46217,-1.49432,87.2863],[123.5031,-1.46006,0.0],[123.52858,-1.43304,0.0],[123.53346,-1.42205,0.0],[123.53484,-1.41229,0.0],[123.53346,-1.38112,129.8088],[123.53842,-1.36061,0.0],[123.55177,-1.32431,125.7569],[123.55372,-1.3034,51.6263],[123.55095,-1.28476,79.7077],[123.53907,-1.27272,0.0],[123.52174,-1.26629,24.606],[123.5031,-1.26442,0.0],[123.48683,-1.25921,0.0],[123.46502,-1.23626,0.0],[123.45509,-1.23089,0.0],[123.44166,-1.23773,0.0],[123.43523,-1.25066,0.0],[123.42848,-1.25775,0.0],[123.41407,-1.24774,0.0],[123.41179,-1.23984,0.0],[123.40992,-1.2282,49.9394],[123.40691,-1.2195,0.0],[123.40008,-1.22039,0.0],[123.39283,-1.22357,0.0],[123.38364,-1.2243,23.9797],[123.36598,-1.2234,0.0],[123.35222,-1.22918,0.0],[123.34441,-1.24261,0.0],[123.33546,-1.27191,266.5855],[123.32114,-1.29241,0.0],[123.31658,-1.29648,0.0],[123.3047,-1.30283,0.0],[123.30079,-1.30592,0.0],[123.27215,-1.35475,0.0],[123.25538,-1.37713,0.0],[123.23194,-1.39471,46.9826],[123.22779,-1.37965,88.1009],[123.22804,-1.3484,0.0],[123.22576,-1.3327,0.0],[123.21998,-1.32497,0.0],[123.21046,-1.31683,0.0],[123.20167,-1.30731,0.0],[123.1976,-1.29551,0.0],[123.19874,-1.26873,0.0],[123.20183,-1.25652,17.1046],[123.20786,-1.2514,45.9959],[123.22218,-1.24871,114.0367],[123.23048,-1.24179,20.1196],[123.23707,-1.23268,11.3099],[123.2461,-1.2234,0.0],[123.20102,-1.15521,0.0]]],
[[[121.85385,-0.40106,0.0],[121.82211,-0.40667,0.0],[121.79949,-0.42051,0.0],[121.77858,-0.42457,51.0082],[121.75213,-0.40106,0.0],[121.7409,-0.42913,0.0],[121.73422,-0.43499,0.0],[121.70191,-0.44964,0.0],[121.68971,-0.45818,0.0],[121.67986,-0.46893,0.0],[121.65016,-0.51263,0.0],[121.64177,-0.53102,0.0],[121.64226,-0.54559,0.0],[121.65455,-0.55242,0.0],[121.67172,-0.55039,55.3767],[121.68898,-0.54315,74.7229],[121.70094,-0.53509,59.2561],[121.7256,-0.48309,49.7265],[121.73536,-0.47991,75.1795],[121.74635,-0.48366,141.2358],[121.79005,-0.49041,19.1555],[121.80128,-0.49358,17.9185],[121.81658,-0.50775,54.8391],[121.8309,-0.51092,249.3344],[121.84474,-0.50799,68.3856],[121.84645,-0.50026,0.0],[121.83473,-0.47674,188.5161],[121.84791,-0.48333,26.2034],[121.87452,-0.50595,30.7052],[121.87843,-0.51092,36.1798],[121.89479,-0.50791,151.3243],[121.90642,-0.49928,8.8928],[121.91358,-0.48642,8.312],[121.91603,-0.4699,6.2908],[121.91065999999999,-0.46038,39.8559],[121.9017,-0.43719,25.5134],[121.89552,-0.4284,10.5266],[121.85385,-0.40106,0.0]]],
[[[122.04371,-0.33465,0.0],[122.02955,-0.33213,0.0],[122.01352,-0.33196,0.0],[122.00441,-0.33025,0.0],[121.97804,-0.31854,0.0],[121.96656,-0.31471,0.0],[121.92652,-0.31227,0.0],[121.9227,-0.31634,0.0],[121.92482,-0.33457,5.4456],[121.92351,-0.33961,0.0],[121.91554,-0.34002,0.0],[121.90838,-0.33733,0.0],[121.90333,-0.33392,11.2829],[121.90235,-0.33213,0.0],[121.88233,-0.33001,0.0],[121.87233,-0.33261,0.0],[121.86817,-0.34303,0.0],[121.865,-0.35784,32.917],[121.86012,-0.36745,0.0],[121.86085,-0.37786,78.1657],[121.87501,-0.39479,4.2101],[121.89869,-0.40748,67.8591],[121.93181,-0.41465,51.8197],[121.96412,-0.41334,11.4339],[121.98487,-0.40106,151.9026],[122.0066,-0.41074,35.5637],[122.02662,-0.40691,16.284],[122.04274,-0.39349,35.8433],[122.05307,-0.37371,5.3629],[122.05405,-0.35516,18.0976],[122.05144,-0.34205,0.0],[122.04371,-0.33465,0.0]]],
[[[122.14454,-0.37396,2.0749],[122.14324,-0.36045,0.0],[122.13795,-0.34726,9.2882],[122.13168,-0.33799,0.0],[122.1058,-0.32138,9.8211],[122.10157,-0.31536,87.0057],[122.09474,-0.26385,0.0],[122.07667,-0.26914,0.0],[122.0656,-0.29608,0.0],[122.06031,-0.32928,0.0],[122.05991,-0.35394,0.0],[122.07057,-0.39804,1.322],[122.08465,-0.40781,43.8706],[122.08888,-0.40154,60.289],[122.08985,-0.38926,31.5342],[122.09474,-0.38112,67.0878],[122.10719,-0.38226,22.741],[122.115,-0.38893,50.8138],[122.12387,-0.39267,131.2903],[122.13941,-0.38421,82.3641],[122.14454,-0.37396,2.0749]]],
[[[122.18971,-0.20525,0.0],[122.17709,-0.19638,0.0],[122.15838,-0.21136,0.0],[122.14438,-0.23301,0.0],[122.14625,-0.24407,0.0],[122.1644,-0.24944,34.2209],[122.19996,-0.26775,226.6034],[122.21144,-0.26385,54.9429],[122.21762,-0.26385,15.494],[122.22291,-0.2702,99.7114],[122.23015,-0.27435,1.83],[122.2365,-0.27337,26.4532],[122.23878,-0.26385,0.0],[122.2352,-0.25823,0.0],[122.22096,-0.25018,0.0],[122.21762,-0.24717,0.0],[122.21323,-0.23756,0.0],[122.20265,-0.23219,0.0],[122.18963,-0.23016,85.7255],[122.17726,-0.2304,116.3766],[122.18971,-0.20525,0.0]]],
[[[122.32781,-0.23056,0.0],[122.28728,-0.21885,0.0],[122.27711,-0.21396,0.0],[122.2728,-0.20615,0.0],[122.26734,-0.20501,0.0],[122.24073,-0.19541,0.0],[122.23194,-0.18873,0.0],[122.22584,-0.1994,0.0],[122.22885,-0.20794,0.0],[122.24562,-0.2234,161.3597],[122.26051,-0.24098,75.7336],[122.26612,-0.24407,62.6535],[122.27329,-0.24375,192.4033],[122.28858,-0.23797,1.6457],[122.2933,-0.23724,0.0],[122.32154,-0.25791,150.272],[122.35426,-0.32171,33.6786],[122.37599,-0.34645,122.8905],[122.38266,-0.33961,0.0],[122.37517,-0.32562,0.0],[122.36793,-0.30446,70.5226],[122.36492,-0.28216,115.6934],[122.36915,-0.26385,0.0],[122.35939,-0.24928,0.0],[122.34539,-0.2387,0.0],[122.32781,-0.23056,0.0]]],
[[[121.62452,-0.19842,65.7384],[121.64259,-0.17685,78.222],[121.64967,-0.14739,28.263],[121.63315,-0.12469,0.0],[121.59742,-0.12469,0.0],[121.5691,-0.14479,0.0],[121.57455,-0.18255,38.2222],[121.60027,-0.20322,40.4379],[121.62452,-0.19842,65.7384]]],
[[[120.68336,1.04458,0.0],[120.66871,1.06102,0.0],[120.65992,1.06761,0.0],[120.64918,1.07246,0.0],[120.63917,1.07758,0.0],[120.62827,1.07884,0.0],[120.61752,1.07681,0.0],[120.6076,1.07246,0.0],[120.63209,1.06851,0.0],[120.66717,1.04312,0.0],[120.68336,1.04458,0.0]]],
[[[120.38624,1.02595,63.8649],[120.39373,1.03075,1.7513],[120.39967,1.0375,0.0],[120.40398,1.04487,0.0],[120.4065,1.06098,0.0],[120.40235,1.07722,0.0],[120.39243,1.08609,0.0],[120.37761,1.0799,0.0],[120.37159,1.06802,0.0],[120.36769,1.04922,0.0],[120.36866,1.03172,32.486],[120.37794,1.02407,53.2744],[120.38624,1.02595,63.8649]]],
[[[120.90919,1.35366,2.3839],[120.88445,1.33063,0.0],[120.87452,1.32567,0.0],[120.86459,1.32514,0.0],[120.84303,1.32831,0.0],[120.83351,1.32567,0.0],[120.82081,1.31,317.6838],[120.81967,1.29092,0.0],[120.82667,1.25373,42.6583],[120.82765,1.21402,179.3987],[120.82594,1.19668,0.0],[120.81983,1.17487,0.0],[120.81691,1.17267,0.0],[120.80909,1.16279,5.132],[120.8025,1.15204,155.205],[120.8025,1.14696,249.9146],[120.79949,1.14208,259.7595],[120.79868,1.13085,140.0759],[120.80323,1.06843,66.3616],[120.80177,1.05264,1.1879],[120.79249,1.03775,0.0],[120.7837,1.03197,0.0],[120.76303,1.02603,0.0],[120.75424,1.02066,0.0],[120.74757,1.01057,0.0],[120.74,0.98916,4.3635],[120.7339,0.97968,0.0],[120.72267,0.97675,0.0],[120.71095,0.98347,0.0],[120.69955,0.99238,0.0],[120.6902,0.99608,0.0],[120.68336,0.99193,0.0],[120.66228,0.96882,0.0],[120.61785,0.89859,0.0],[120.60222,0.8557,0.0],[120.61443,0.83222,84.5914],[120.58473,0.79755,0.0],[120.56813,0.78213,0.0],[120.55641,0.78075,0.0],[120.54103,0.79658,0.0],[120.5276,0.80606,0.0],[120.51149,0.81061,0.0],[120.48779999999999,0.81175,0.0],[120.48268,0.80805,0.0],[120.47682,0.80097,0.0],[120.46957,0.79682,0.0],[120.45338,0.80508,0.0],[120.42205,0.81175,0.0],[120.40284,0.82172,0.0],[120.38705,0.83393,0.0],[120.37525,0.8487,0.0],[120.36736,0.8664,0.0],[120.36183,0.8664,0.0],[120.34645,0.85562,0.0],[120.34034,0.87238,0.0],[120.3401,0.91791,45.3548],[120.34669,0.96308,0.0],[120.34164,0.98286,1.1168],[120.31959,0.99608,0.0],[120.27849,0.99421,0.0],[120.25652,0.9689,0.0],[120.24708,0.93329,0.0],[120.23552,0.83153,0.0],[120.22706,0.81489,0.0],[120.20729,0.79759,0.0],[120.18653,0.784,0.0],[120.12086,0.75434,0.0],[120.11052,0.75141,0.0],[120.09742,0.75031,0.0],[120.07228,0.74405,0.0],[120.06284,0.74287,0.0],[120.04575,0.73436,0.0],[120.03419,0.71381,0.0],[120.02752,0.68891,0.0],[120.02475,0.66718,3.2109],[120.02963,0.62812,53.6588],[120.04038,0.58812,3.9599],[120.04518,0.54999,2.3533],[120.03224,0.5163,0.0],[120.01246,0.50479,0.0],[119.96461,0.50113,0.0],[119.94654,0.49335,0.0],[119.93621,0.4864,0.0],[119.92384,0.48086,0.0],[119.91179,0.4737,10.9539],[119.90187,0.46174,7.4371],[119.89845,0.45161,16.8191],[119.89731,0.43114,70.9309],[119.89503,0.42072,111.7438],[119.88356,0.40005,0.0],[119.85873,0.36424,0.0],[119.85401,0.34223,174.8552],[119.85914,0.31892,0.0],[119.86769,0.30207,0.0],[119.86948,0.28718,0.0],[119.85401,0.26992,0.0],[119.79444,0.25019,0.0],[119.78517,0.23949,0.0],[119.78566,0.2211,213.1737],[119.78785,0.2084,209.0941],[119.79396,0.1966,168.3554],[119.8698,0.10566,7.431],[119.88819,0.07128,10.2765],[119.87794,0.04548,12.343],[119.85678,-0.04103,0.0],[119.84718,-0.06158,0.0],[119.83269,-0.08441,0.0],[119.82594,-0.08994,0.0],[119.81642,-0.09002,0.0],[119.79884,-0.08571,0.0],[119.77833,-0.07635,0.0],[119.76588,-0.06325,0.0],[119.74415,-0.0311,0.0],[119.71583,0.00153,0.0],[119.69809,0.01691,0.0],[119.67529999999999,0.03034,0.0],[119.6714,0.02399,0.0],[119.66896,0.01626,0.0],[119.66798,0.00703,90.4358],[119.66847,-0.00384,0.0],[119.65943,-0.00152,0.0],[119.65065,0.00161,0.0],[119.63445,0.01048,0.0],[119.6277,-0.01837,82.2409],[119.63868,-0.05088,99.2356],[119.65756,-0.08013,22.1134],[119.67529999999999,-0.09938,56.453],[119.69996,-0.11411,157.6195],[119.73048,-0.12135,430.0931],[119.76254,-0.11948,267.9155],[119.792,-0.10678,0.0],[119.79998,-0.12379,8.343],[119.80641,-0.15399,24.5093],[119.80836,-0.18279,0.0],[119.80226,-0.19557,0.0],[119.79054,-0.20875,0.0],[119.7811,-0.23935,0.0],[119.75782,-0.4699,0.0],[119.76157,-0.49066,3.6704],[119.7754,-0.52264,212.4752],[119.77833,-0.53509,47.8721],[119.78248,-0.56911,0.0],[119.792,-0.60711,0.0],[119.81577,-0.65342,51.2024],[119.81935,-0.66546,26.3728],[119.82407,-0.67506,25.5372],[119.84693,-0.70127,8.1747],[119.85401,-0.7164,0.0],[119.85524,-0.72715,0.0],[119.85401,-0.761,0.0],[119.85613,-0.76914,0.0],[119.865,-0.78289,19.9935],[119.8672,-0.78834,17.1514],[119.8659,-0.81357,0.0],[119.86232,-0.83416,0.0],[119.84653,-0.87461,0.0],[119.82488,-0.85866,30.6795],[119.80983,-0.83392,34.1049],[119.792,-0.77842,34.7729],[119.75563,-0.70379,6.2545],[119.7505,-0.67881,58.2816],[119.7352,-0.64105,0.0],[119.73365,-0.63388,0.0],[119.72462,-0.63926,0.0],[119.70387,-0.66676,0.0],[119.69264,-0.67881,0.0],[119.67018,-0.68922,0.0],[119.65943,-0.69622,0.0],[119.6548,-0.70615,0.0],[119.65821,-0.71209,0.0],[119.68214,-0.73691,0.0],[119.63445,-0.77842,0.0],[119.60328,-0.79144,0.0],[119.59913,-0.79551,0.0],[119.58717,-0.81943,0.0],[119.57358,-0.82952,0.0],[119.56625,-0.83367,0.0],[119.56622,-0.83369,0.0],[119.56653,-0.83628,0.0],[119.57253,-0.87793,16.7945],[119.56684,-0.994,144.7888],[119.56819,-1.02722,355.9165],[119.57211,-1.05203,468.1077],[119.59537,-1.119,648.3773],[119.60177,-1.15073,463.4776],[119.59867,-1.16866,499.7014],[119.58875,-1.18396,561.4171],[119.52653,-1.22359,28.2106],[119.51155,-1.23708,27.1278],[119.49853,-1.25538,24.7187],[119.48695,-1.2886,23.831],[119.48736,-1.31124,27.6996],[119.49449,-1.32932,26.662],[119.50783,-1.34018,28.0301],[119.5254,-1.34906,37.3786],[119.64167,-1.39371,199.134],[119.65666,-1.40276,297.9987],[119.67061,-1.41655,274.1582],[119.68162,-1.43376,188.8522],[119.69252,-1.46125,359.1579],[119.70678,-1.56543,1453.4431],[119.71474,-1.59174,1551.2722],[119.72466,-1.61251,1572.535],[119.76838,-1.66941,1341.382],[119.79442,-1.69556,1438.4818],[119.82243,-1.72904,1318.2965],[119.83897,-1.75715,1656.0468],[119.84548,-1.77514,2090.1318],[119.84641,-1.79172,1527.7299],[119.83825,-1.81922,1683.8525],[119.82274,-1.87182,1868.3689],[119.82161,-1.88665,2026.6411],[119.82212,-1.90815,1767.1075],[119.82703,-1.92402,1557.0173],[119.83587,-1.93869,1626.479],[119.84662,-1.94872,1932.2563],[119.8553,-1.95383,1928.9048],[119.87349,-1.95538,2023.124],[119.90884,-1.93833,1670.9225],[119.96542,-1.90236,1143.5435],[120.04805,-1.86149,1676.5608],[120.06862,-1.85451,1475.547],[120.10128,-1.85265,1021.4695],[120.15678,-1.8604,1103.2881],[120.29238,-1.90019,1091.0026],[120.32349,-1.90355,1272.3984],[120.34457,-1.89988,1420.8533],[120.35232,-1.89182,1554.3342],[120.35708,-1.88309,1577.1033],[120.36617,-1.86097,1668.5984],[120.37299,-1.84934,1767.4368],[120.38354,-1.84071,1842.3569],[120.40488,-1.83767,2019.7999],[120.42653,-1.84712,1903.7426],[120.44761,-1.86624,1177.463],[120.55324,-2.02504,1329.0009],[120.58833,-2.06747,1276.5599],[120.62497,-2.10421,1271.5114],[120.76362,-2.21749,1125.9369],[120.80418,-2.23857,1275.1912],[121.34978,-2.34849,398.0947],[121.39846,-2.36378,1016.001],[121.4489,-2.38848,434.4777],[121.47117,-2.40295,925.4585],[121.48941,-2.41809,988.896],[121.54636,-2.48419,919.0898],[121.60827,-2.53814,484.0656],[121.63803,-2.55793,606.0966],[121.74201,-2.61007,1031.3215],[121.76371,-2.6279,932.818],[121.77684,-2.64681,645.5441],[121.78738,-2.67012,924.8721],[121.79368,-2.69524,1247.7347],[121.79637,-2.71709,1229.4702],[121.79549,-2.73746,1034.3008],[121.79203,-2.75849,961.2029],[121.78495,-2.77678,867.3792],[121.7725,-2.80091,770.0595],[121.61623,-2.96049,510.3013],[121.59804,-2.97284,451.7062],[121.67018,-2.98271,856.3167],[121.78144,-2.9855,402.6803],[121.81689,-2.99532,463.8776],[122.05796,-3.09263,315.4759],[122.07811,-3.09397,393.9341],[122.13568,-3.08891,432.825],[122.15356,-3.08994,441.77],[122.16999,-3.09371,494.2635],[122.18756,-3.10033,617.3253],[122.2072,-3.11149,578.9369],[122.29184,-3.17924,238.752],[122.33902,-3.23711,0.0],[122.3394,-3.23752,0.0],[122.35792,-3.21754,331.3903],[122.38266,-3.23821,237.1437],[122.38575,-3.23496,205.6365],[122.38982,-3.2317,318.1125],[122.39536,-3.23024,331.8795],[122.4026,-3.23203,437.0374],[122.41342,-3.23895,327.4216],[122.41879,-3.24375,209.2698],[122.41627,-3.2457,116.7134],[122.42921,-3.24586,24.6734],[122.43295,-3.2431,0.0],[122.4336,-3.23455,0.0],[122.4367,-3.21771,0.0],[122.43719,-3.2112,0.0],[122.43539,-3.19638,0.0],[122.4367,-3.19036,0.0],[122.44264,-3.18524,8.5222],[122.45916,-3.18011,38.9436],[122.46469,-3.17685,77.5212],[122.47218,-3.1618,0.0],[122.47291,-3.15114,0.0],[122.46754,-3.14821,0.0],[122.45729,-3.15635,0.0],[122.44614,-3.14935,3.7044],[122.43873,-3.14007,0.0],[122.43385,-3.12859,0.0],[122.43043,-3.11468,0.0],[122.4201,-3.11956,0.0],[122.40699,-3.12762,0.0],[122.39438,-3.13348,0.0],[122.38592,-3.13201,0.0],[122.31373,-3.06015,0.0],[122.28688,-3.04469,0.0],[122.27963,-3.03965,0.0],[122.27084,-3.00213,0.0],[122.29444,-2.96453,25.7147],[122.31251,-2.92685,234.5901],[122.28712,-2.88877,0.0],[122.26612,-2.87916,0.0],[122.24537,-2.87526,0.0],[122.20769,-2.87518,0.0],[122.19264,-2.86631,0.0],[122.18531,-2.8458,84.61],[122.18165,-2.82293,37.544],[122.17726,-2.80682,0.0],[122.16969,-2.80136,0.0],[122.16049,-2.79876,0.0],[122.15268,-2.79412,0.0],[122.14942,-2.78265,0.0],[122.14576,-2.77874,0.0],[122.13705,-2.77549,0.0],[122.09897,-2.77028,0.0],[122.08383,-2.76393,0.0],[122.05991,-2.74481,0.0],[122.01564,-2.69354,0.0],[122.01336,-2.68092,0.0],[122.01922,-2.63543,0.0],[122.01904999999999,-2.615,0.0],[122.00929,-2.59352,0.0],[121.97788,-2.55397,0.0],[121.96551,-2.51824,0.0],[121.9297,-2.46299,0.0],[121.88258,-2.41334,8.7469],[121.87501,-2.3987,0.4612],[121.87208,-2.3803,0.0],[121.86476,-2.35849,0.0],[121.84767,-2.3209,0.0],[121.82293,-2.28729,0.0],[121.76694,-2.24163,0.0],[121.73902,-2.21103,0.0],[121.70086,-2.18035,0.0],[121.65992,-2.17669,0.0],[121.61769,-2.17799,0.0],[121.57455,-2.16253,0.0],[121.55502,-2.13397,0.0],[121.53533,-2.05877,0.0],[121.51189,-2.03232,0.0],[121.49147,-2.03533,2.7855],[121.47788,-2.02028,162.7219],[121.46664,-2.00091,0.0],[121.43629,-1.98016,80.2919],[121.41456,-1.92734,127.3182],[121.40203,-1.90936,0.0],[121.38844,-1.91717,376.2521],[121.3825,-1.92889,14.8009],[121.37957,-1.94297,103.3625],[121.37477,-1.95713,0.0],[121.36866,-1.96657,0.0],[121.36085,-1.97584,0.0],[121.35133,-1.98414,0.0],[121.34059,-1.99131,1.5075],[121.34059,-1.94655,0.0],[121.33839,-1.9376,0.0],[121.32911,-1.92791,0.0],[121.327,-1.91904,13.1394],[121.33139,-1.89756,92.1445],[121.3401,-1.87566,25.6687],[121.34571,-1.85573,215.2814],[121.34059,-1.83978,0.0],[121.30421,-1.84694,0.0],[121.29607,-1.81666,124.3878],[121.31186,-1.78289,15.0912],[121.34742,-1.77899,0.0],[121.3545,-1.78558,168.8943],[121.36459,-1.80234,0.0],[121.37135,-1.80576,0.0],[121.41627,-1.80576,289.3735],[121.44093,-1.81357,0.0],[121.44516,-1.82562,0.0],[121.44508,-1.84157,0.0],[121.45672,-1.86094,332.7248],[121.49147,-1.87168,4.4133],[121.49513,-1.87396,9.0276],[121.50473,-1.87672,23.4126],[121.51157,-1.88356,12.6449],[121.53053,-1.90838,5.3321],[121.53452,-1.9166,0.0],[121.54005,-1.92344,0.0],[121.55299,-1.92913,12.7973],[121.56251,-1.9306,21.9047],[121.6277,-1.92734,26.4379],[121.66114,-1.92067,27.3554],[121.69215,-1.90814,31.8472],[121.71803,-1.88828,24.372],[121.73902,-1.86175,27.5411],[121.75514,-1.83375,6.7442],[121.78004,-1.77215,4.9938],[121.79005,-1.73642,3.0742],[121.79859,-1.71795,85.0846],[121.81039,-1.71014,459.1698],[121.82016,-1.70761,379.8649],[121.83123,-1.70192,16.2444],[121.84767,-1.6902,36.564],[121.85613,-1.68808,86.8818],[121.86134,-1.66969,5.8484],[121.90138,-1.67547,91.0469],[121.91928,-1.67303,4.2191],[121.94321,-1.66229,10.8908],[121.95476,-1.66383,12.2516],[121.97364,-1.65537,2.7323],[122.00538,-1.63494,0.3131],[122.01026,-1.62965,4.3398],[122.01393,-1.62363,6.4887],[122.01857,-1.6181,11.2273],[122.02589,-1.61443,3.8056],[122.03647,-1.61395,0.0],[122.05405,-1.61981,0.0],[122.06373,-1.62127,0.0],[122.08351,-1.61679,43.4924],[122.12403,-1.59759,2.4911],[122.14324,-1.59401,3.7645],[122.15984,-1.60019,0.0],[122.17189,-1.6098,0.0],[122.18393,-1.61419,0.0],[122.20053,-1.60418,0.0],[122.23316,-1.57431,11.7729],[122.30633,-1.52435,4.0526],[122.36883,-1.49277,3.0256],[122.38209,-1.47869,0.666],[122.40602,-1.44622,4.5128],[122.47828,-1.38112,2.8423],[122.48292,-1.3751,4.6395],[122.4961,-1.35296,10.4929],[122.49879,-1.34319,1.9813],[122.5027,-1.33375,3.6257],[122.51197,-1.32659,9.1854],[122.52955,-1.31601,3.6441],[122.57211,-1.25319,31.3113],[122.58815,-1.23707,150.0936],[122.62648,-1.21844,132.3554],[122.63844,-1.20615,0.0],[122.64829,-1.15944,62.7059],[122.66163,-1.14284,45.3146],[122.69068,-1.12103,137.0284],[122.70069,-1.11688,34.6415],[122.71209,-1.11435,28.9574],[122.72096,-1.10906,0.0],[122.72478,-1.0971,2.6664],[122.72527,-1.08766,18.0182],[122.72706,-1.07855,20.245],[122.73048,-1.07,135.3548],[122.73561,-1.06268,138.56],[122.76075,-1.03436,268.0579],[122.7697,-1.01979,320.4602],[122.8117,-0.92409,407.8232],[122.83872,-0.89918,395.9283],[122.87615,-0.90879,246.3248],[122.917,-0.89959,261.0837],[123.00945,-0.89373,15.8202],[123.04005,-0.88079,18.7213],[123.0608,-0.88055,0.2328],[123.0962,-0.83506,4.696],[123.11891,-0.84295,4.9217],[123.14088,-0.86224,4.4103],[123.15089,-0.87298,8.4005],[123.15675,-0.88763,6.3502],[123.15553,-0.89813,5.6742],[123.1478,-0.92295,66.6652],[123.14991,-0.93548,18.3546],[123.1963,-0.97039,201.7899],[123.20102,-0.97698,76.4858],[123.21095,-0.98333,121.9679],[123.23878,-1.02483,0.0],[123.26979,-1.04461,0.0],[123.31121,-1.05145,0.0],[123.35239,-1.03973,0.0],[123.38331,-1.00368,0.0],[123.38966,-0.98366,0.0],[123.40016,-0.89479,0.0],[123.40992,-0.8803,0.0],[123.43784,-0.85361,0.0],[123.44483,-0.8331,0.0],[123.44044,-0.7929,31.7389],[123.45436,-0.75823,0.0],[123.43849,-0.7304,0.0],[123.44467,-0.70957,0.0],[123.43409,-0.71063,44.2275],[123.42529999999999,-0.70843,0.0],[123.41944,-0.70273,0.0],[123.41733,-0.6928,0.0],[123.41529,-0.68694,0.0],[123.40594,-0.67791,0.0],[123.40382,-0.67254,0.0],[123.40594,-0.66839,0.0],[123.41733,-0.65488,0.0],[123.40349,-0.64267,0.0],[123.34181,-0.62021,0.0],[123.27369,-0.58327,0.0],[123.23951,-0.57049,0.0],[123.07586,-0.55641,0.0],[123.06056,-0.55869,0.0],[123.05006,-0.56699,0.0],[123.03826,-0.58961,0.0],[123.02638,-0.5997,3.1111],[123.01295,-0.60442,4.5259],[122.99431,-0.60801,0.0],[122.97608,-0.60719,0.0],[122.96437,-0.5997,0.0],[122.94304,-0.60508,0.0],[122.85499,-0.61053,0.0],[122.85255,-0.61533,0.0],[122.84645,-0.61924,0.0],[122.83888,-0.62054,0.0],[122.82301,-0.61224,0.0],[122.81739,-0.61549,0.0],[122.81275,-0.62225,0.0],[122.80738,-0.62762,0.0],[122.77931,-0.64625,0.0],[122.76564,-0.64983,0.0],[122.7527,-0.64129,47.3776],[122.73463,-0.64837,0.0],[122.73325,-0.65797,0.0],[122.74171,-0.66806,90.2499],[122.7527,-0.67604,125.7189],[122.76645,-0.68304,48.2812],[122.78012,-0.68662,123.4981],[122.86785,-0.6928,348.4312],[122.88299,-0.6959,240.8932],[122.88624,-0.6994,211.5641],[122.89405,-0.71258,300.6093],[122.89731,-0.7164,318.5907],[122.96022,-0.73056,99.3794],[122.95973,-0.73707,41.6064],[122.94451,-0.75058,0.0],[122.92905,-0.75888,0.0],[122.91245,-0.76287,0.0],[122.78745,-0.7737,0.0],[122.73902,-0.79144,0.0],[122.71648,-0.79241,0.0],[122.6989,-0.78493,0.0],[122.68336,-0.77557,0.0],[122.65642,-0.76775,0.0],[122.63575,-0.75384,0.0],[122.62233,-0.75058,0.0],[122.61248,-0.75221,0.0],[122.60572,-0.75652,0.0],[122.6006,-0.76141,0.0],[122.59498,-0.76474,0.0],[122.55714,-0.76816,0.0],[122.48748,-0.74969,0.0],[122.45102,-0.75058,0.0],[122.41017,-0.7575,0.0],[122.20769,-0.76474,0.0],[122.19361,-0.76898,0.0],[122.15626,-0.79892,0.0],[122.15943,-0.82,1.3368],[122.15284,-0.8532,1.5565],[122.14137,-0.88681,0.0],[122.12892,-0.90879,0.0],[122.10532,-0.9262,0.0],[122.0857,-0.92645,0.0],[122.06642,-0.91953,0.0],[122.04322,-0.91497,0.0],[122.01857,-0.91676,0.0],[121.99952,-0.92205,0.0],[121.96372,-0.94297,0.0],[121.92604,-0.95534,0.0],[121.88697,-0.95135,0.0],[121.84539,-0.94101,0.0],[121.79998,-0.93548,0.0],[121.7142,-0.93548,0.0],[121.7072,-0.93174,0.0],[121.69996,-0.92344,0.0],[121.69011,-0.90879,0.0],[121.66285,-0.88763,0.0],[121.66065999999999,-0.87322,10.7965],[121.65968,-0.8126,56.1324],[121.6548,-0.81032,87.1367],[121.64869,-0.8056,57.2966],[121.64064,-0.80096,0.0],[121.62916,-0.79892,0.0],[121.62013,-0.80039,0.0],[121.5949,-0.80828,0.0],[121.58766,-0.8126,0.0],[121.58513,-0.82171,0.0],[121.58595,-0.83294,0.0],[121.58522,-0.84271,0.0],[121.57781,-0.84677,0.0],[121.53614,-0.84677,0.0],[121.51596,-0.85027,0.0],[121.50066,-0.85931,0.0],[121.45248,-0.90569,0.0],[121.42994,-0.93377,0.0],[121.37452,-1.02068,0.0],[121.31837,-1.06715,0.0],[121.29217,-1.10052,0.0],[121.27687,-1.13291,0.0],[121.26677,-1.14861,0.0],[121.25563,-1.15521,0.0],[121.24098,-1.16123,0.0],[121.22283,-1.17539,0.0],[121.20655,-1.19134,0.0],[121.19711,-1.20289,0.0],[121.18971,-1.22137,0.0],[121.17848,-1.26816,0.0],[121.174,-1.30543,0.0],[121.167,-1.32293,0.0],[121.13054,-1.37982,0.0],[121.10548,-1.40586,0.0],[121.07325,-1.42132,0.0],[121.03273,-1.41579,0.0],[121.02247,-1.40838,0.0],[120.9983,-1.38592,0.0],[120.98779999999999,-1.38112,0.0],[120.97657,-1.38209,0.0],[120.95777,-1.3869,0.0],[120.8899,-1.39528,0.0],[120.86769,-1.39471,0.0],[120.84441,-1.38958,0.0],[120.83204,-1.38445,81.2332],[120.82667,-1.3777,152.6241],[120.83277,-1.34482,0.0],[120.83009,-1.3401,0.0],[120.80388,-1.34287,0.0],[120.73732,-1.36061,0.0],[120.73732,-1.36745,0.0],[120.67595,-1.39471,0.0],[120.66188,-1.38486,0.5],[120.64894,-1.36435,0.0],[120.63917,-1.34124,128.9539],[120.63087,-1.30047,0.0],[120.6194,-1.28045,0.0],[120.57244,-1.22772,0.0],[120.56544,-1.21551,8.2397],[120.56691,-1.20143,4.7205],[120.5735,-1.17636,5.9795],[120.57537,-1.16334,7.9584],[120.57545,-1.15439,10.5412],[120.577,-1.14674,4.7116],[120.58375,-1.13812,0.5],[120.5879,-1.12859,0.0],[120.58676,-1.11663,0.0],[120.58237,-1.10524,0.0],[120.51808,-1.01116,0.0],[120.50815,-0.98707,0.0],[120.50034,-0.97527,0.0],[120.48779999999999,-0.97031,0.0],[120.46518,-0.96901,0.0],[120.45509,-0.966,0.0],[120.44679,-0.96006,0.0],[120.43491,-0.94036,0.0],[120.42579,-0.92002,0.0],[120.41245,-0.90496,0.0],[120.38787,-0.9013,0.0],[120.36891,-0.91107,0.0],[120.34791,-0.9275,0.0],[120.32553,-0.93865,0.0],[120.30274,-0.93231,0.0],[120.25563,-0.89935,1.5199],[120.24391,-0.88763,1.9705],[120.0892,-0.65732,0.0],[120.07309,-0.61395,0.0],[120.0573,-0.51719,0.0],[120.04786,-0.49375,3.9018],[120.04575,-0.48301,12.7734],[120.04811,-0.47275,30.196],[120.05747,-0.45241,27.0552],[120.05942,-0.44199,27.0957],[120.05299,-0.41937,6.2388],[120.02491,-0.38405,22.7536],[120.01857,-0.36346,62.4323],[119.99659,-0.23431,111.704],[119.99562,-0.20924,270.5239],[120.00148,-0.19215,62.5126],[120.01197,-0.17523,0.0],[120.01889,-0.15252,15.9475],[120.02475,-0.10678,10.1013],[120.02231,-0.08172,29.034],[120.02296,-0.07098,36.8708],[120.02849,-0.06182,11.9376],[120.06284,-0.03452,15.192],[120.07545,-0.01641,12.3443],[120.08424,0.00625,7.9921],[120.09425,0.05142,25.8159],[120.09848,0.09699,86.1824],[120.10385,0.11725,15.9346],[120.11752,0.13679,16.5613],[120.12135,0.14517,8.9717],[120.12843,0.1811,3.7283],[120.13331,0.19123,12.5567],[120.15821,0.22777,3.2628],[120.21453,0.29194,0.0],[120.27296,0.37812,34.5938],[120.31471,0.42316,0.0],[120.3401,0.44188,0.0],[120.35076,0.45197,8.4639],[120.36183,0.46564,95.2943],[120.37525,0.47769,142.462],[120.39161,0.48281,379.7313],[120.40886,0.48574,248.5093],[120.48609,0.52424,1117.2509],[120.5027,0.52888,583.052],[120.67954,0.53059,22.094],[120.69858,0.52416,17.1666],[120.73015,0.49348,5.7934],[120.75082,0.48281,0.4837],[120.76002,0.48261,9.3752],[120.77719,0.4881,17.0673],[120.78883,0.48965,13.9645],[120.79786,0.48648,16.0626],[120.80258,0.4794,-0.2245],[120.80543,0.47236,-0.2103],[120.80934,0.46918,0.0],[120.83961,0.4641,271.6482],[120.84718,0.46174,269.0817],[120.85182,0.45576,235.112],[120.8567,0.44086,19.5048],[120.86069,0.43439,3.169],[120.87648,0.42451,48.4231],[120.89243,0.42333,0.5],[120.95533,0.43187,0.2846],[120.98699,0.44701,10.5794],[121.00489,0.44868,0.6744],[121.01979,0.44204,1.1639],[121.04737,0.41893,0.8344],[121.06316,0.41397,1.5064],[121.09913,0.40738,0.9408],[121.10792,0.40713,2.9605],[121.11915,0.41144,3.0243],[121.12501,0.41763,1.7003],[121.1351,0.43439,8.5051],[121.14991,0.44929,0.785],[121.16383,0.45746,2.8301],[121.1797,0.461,1.1731],[121.20021,0.46174,4.8848],[121.22047,0.46597,2.4403],[121.26059,0.48249,0.0],[121.2859,0.48281,0.0],[121.2964,0.47858,0.0],[121.31967,0.46475,0.0],[121.33033,0.46174,0.0],[121.33332,0.46228,0.0],[121.33335,0.46235,0.0],[121.34265,0.48571,19.5642],[121.3443,0.49744,17.149],[121.34089,0.55351,296.6448],[121.33779,0.56715,830.8264],[121.33376,0.57562,801.2596],[121.3288,0.57759,796.3469],[121.32446,0.57805,924.6403],[121.32012,0.57748,864.7235],[121.31547,0.57593,836.6526],[121.30906,0.5748,904.5782],[121.30332,0.5748,1001.1243],[121.29573,0.57619,1096.8962],[121.27992,0.58239,1426.3745],[121.25671,0.58668,1158.4895],[121.24467,0.59361,1205.7338],[121.22839,0.60854,1310.4514],[121.21573,0.62751,1539.4634],[121.16044,0.68606,1728.0771],[121.21511,0.709,896.3918],[121.22359,0.71469,817.8123],[121.23537,0.72461,780.6455],[121.24126,0.73453,768.6111],[121.25273,0.76342,791.5734],[121.2608,0.77913,866.8351],[121.27868,0.80321,1208.6394],[121.29097,0.81592,964.2525],[121.30317,0.8261,899.7677],[121.34306,0.84966,812.6011],[121.35764,0.85581,893.5375],[121.37846,0.86098,620.9431],[121.39495,0.86191,534.8945],[121.42327,0.85984,239.6704],[121.46533,0.8509,665.202],[121.47525,0.84724,624.8251],[121.48414,0.84507,527.7693],[121.49406,0.84439,600.7335],[121.50796,0.84693,854.3937],[121.55215,0.86284,490.6508],[121.61188,0.87798,661.2444],[121.62992,0.88506,1063.621],[121.65746,0.89886,1177.536],[121.72051,0.91896,1551.4961],[121.8404,0.97043,1391.3489],[121.8559,0.97508,1610.2715],[121.8652,0.97508,1477.4666],[121.87533,0.9742,1311.6326],[121.8898,0.97116,1316.7893],[121.9931,0.93529,795.7985],[122.04566,0.94377,487.5471],[122.14084,0.98707,227.0647],[122.19407,1.02345,7.8698],[122.19734,1.02766,6.923],[122.19093,1.03148,9.0262],[122.17791,1.03563,227.5254],[122.14942,1.03775,113.1098],[122.08774,1.06159,87.7028],[122.06373,1.06501,1.8393],[122.04884,1.05976,0.0],[122.02719,1.034,194.2976],[122.01222,1.02407,459.2768],[121.99024,1.02192,19.7814],[121.97023,1.02949,1.0097],[121.95582,1.04556,0.0],[121.94321,1.09113,0.0],[121.92612,1.0987,130.1762],[121.63087,1.06196,0.0],[121.58676,1.06175,0.0],[121.54672,1.07246,0.0],[121.52858,1.08324,0.0],[121.48072,1.12092,0.0],[121.47096,1.13703,0.0],[121.46844,1.14631,0.0],[121.45045,1.16743,0.0],[121.44557,1.17919,0.0],[121.44459,1.18684,0.0],[121.44508,1.19335,0.0],[121.44361,1.20222,0.0],[121.43963,1.2121,0.0],[121.43141,1.22602,24.9853],[121.43002,1.23298,0.0],[121.43507,1.2353,0.0],[121.45948,1.24266,0.0],[121.46754,1.24689,0.0],[121.47153,1.25658,0.0],[121.47202,1.26992,0.0],[121.46949,1.28286,0.0],[121.46412,1.29157,32.8965],[121.45143,1.29755,177.4637],[121.44166,1.29458,153.5824],[121.42254,1.27729,113.7685],[121.3991,1.2624,0.0],[121.38168,1.25666,73.7251],[121.33717,1.25682,12.1988],[121.31764,1.25385,1.0688],[121.2649,1.22956,42.9876],[121.18279,1.27143,0.0],[121.1587,1.3028,0.0],[121.1338,1.3146,0.0],[121.08041,1.33194,0.0],[121.06121,1.32709,0.0],[120.9673,1.34618,0.0],[120.94947,1.34382,6.259],[120.93849,1.33723,5.3169],[120.9192,1.31517,179.1408],[120.90854,1.31143,0.0],[120.9061,1.32429,0.0],[120.90919,1.35366,2.3839]]]]}}