{"type":"Feature","properties":{"GID_3":"IDN.17.6.15_1","GID_0":"IDN","country":"Indonesia","GID_1":"IDN.17_1","province":"Lampung","NL_NAME_1":"NA","GID_2":"IDN.17.6_1","county":"LampungUtara","NL_NAME_2":"NA","city":"KotabumiUtara","VARNAME_3":"NA","NL_NAME_3":"NA","TYPE_3":"Kecamatan","ENGTYPE_3":"Sub-district","CC_3":"1806041","HASC_3":"NA","name":"Kotabumi_Utara.city"},
"geometry":{"type": "MultiPolygon","coordinates": [[[[104.9178,-4.7902,28.9343],[104.919,-4.7799,23.3027],[104.9276,-4.7676,20.1126],[104.9258,-4.7464,38.7146],[104.9062,-4.7221,43.3877],[104.8981,-4.7151,34.3965],[104.9,-4.7051,33.7153],[104.8977,-4.6879,26.9834],[104.8838,-4.6454,45.5695],[104.8706,-4.6508,40.4125],[104.8673,-4.6401,46.6577],[104.8613,-4.6356,40.1403],[104.8615,-4.6241,35.5863],[104.8527,-4.6247,45.2197],[104.839,-4.6494,46.5514],[104.8361,-4.6512,51.753],[104.8369,-4.6552,47.8656],[104.8159,-4.6953,47.8333],[104.8119,-4.7071,65.3793],[104.8124,-4.7217,46.2942],[104.8176,-4.7386,51.4906],[104.8099,-4.7525,52.9173],[104.7927,-4.7754,68.3577],[104.7789,-4.7804,47.4693],[104.7691,-4.7815,60.0431],[104.804,-4.7941,69.9683],[104.8056,-4.7977,65.2567],[104.8485,-4.7953,52.1398],[104.855,-4.7986,52.4145],[104.8706,-4.7986,51.2005],[104.8712,-4.7929,45.3252],[104.8753,-4.789,47.4462],[104.8796,-4.7896,38.1288],[104.8896,-4.796,31.1709],[104.9107,-4.8003,30.4813],[104.9141,-4.798,24.4886],[104.9148,-4.7995,24.4886],[104.9158,-4.7973,23.8872],[104.9209,-4.7946,30.3699],[104.9178,-4.7902,28.9343]]]]}}