{"type":"Feature","properties":{"GID_3":"IDN.32.6.4_1","GID_0":"IDN","country":"Indonesia","GID_1":"IDN.32_1","province":"SumateraUtara","NL_NAME_1":"NA","GID_2":"IDN.32.6_1","county":"HumbangHasundutan","NL_NAME_2":"NA","city":"OnanGanjang","VARNAME_3":"NA","NL_NAME_3":"NA","TYPE_3":"Kecamatan","ENGTYPE_3":"Sub-district","CC_3":"1215020","HASC_3":"NA","name":"Onan_Ganjang.city"},
"geometry":{"type": "MultiPolygon","coordinates": [[[[98.664,2.1708,1317.3661],[98.6543,2.1881,1322.8027],[98.6544,2.1978,1322.1035],[98.6602,2.2054,1364.2722],[98.6827,2.2192,1432.1101],[98.6518,2.2249,1408.7581],[98.6275,2.2247,1452.8557],[98.6041,2.2273,1421.8793],[98.6008,2.2208,1646.7101],[98.6024,2.2157,1520.3134],[98.6017,2.2093,1598.4119],[98.5979,2.2092,1602.0548],[98.5949,2.2064,1670.2831],[98.5959,2.2006,1805.3293],[98.5872,2.1761,1086.8435],[98.5825,2.1674,952.0765],[98.5594,2.1487,814.6322],[98.5519,2.1399,603.8948],[98.5499,2.1341,649.7792],[98.5526,2.0922,857.559],[98.5516,2.0825,671.5275],[98.549,2.0785,556.0933],[98.5539,2.074,634.6006],[98.5622,2.0746,548.2791],[98.5759,2.0807,757.1162],[98.5799,2.0797,601.1975],[98.5832,2.0819,710.5436],[98.592,2.083,770.5804],[98.596,2.0712,1086.0616],[98.6065,2.0616,460.5531],[98.6049,2.0542,499.7725],[98.6022,2.0514,409.9372],[98.6023,2.0483,241.1487],[98.6081,2.039,236.97],[98.6044,2.0318,148.1868],[98.6064,2.0226,84.4842],[98.6231,2.0126,71.3187],[98.6277,2.0153,151.4161],[98.6319,2.0153,101.5961],[98.6335,2.012,124.6132],[98.6388,2.0085,97.7589],[98.6413,2.0113,80.6618],[98.6437,2.0191,218.0401],[98.646,2.0206,102.9981],[98.655,2.0158,265.7237],[98.6693,2.0143,288.8022],[98.6706,2.0122,275.5139],[98.6759,2.0167,311.001],[98.6758,2.0156,311.001],[98.687,2.0183,258.6514],[98.6994,2.0473,897.47],[98.6825,2.0496,1104.1575],[98.6721,2.0533,1045.3538],[98.6545,2.0628,1226.1012],[98.6486,2.0721,943.1341],[98.649,2.0859,1056.1028],[98.676,2.131,1086.4469],[98.6766,2.1345,1063.1014],[98.6769,2.1414,1145.6255],[98.6721,2.1565,1316.8093],[98.664,2.1708,1317.3661]]]]}}