{"type":"Feature","properties":{"GID_3":"IDN.17.12.7_1","GID_0":"IDN","country":"Indonesia","GID_1":"IDN.17_1","province":"Lampung","NL_NAME_1":"NA","GID_2":"IDN.17.12_1","county":"TulangBawangBarat","NL_NAME_2":"NA","city":"TumiJajar","VARNAME_3":"NA","NL_NAME_3":"NA","TYPE_3":"Kecamatan","ENGTYPE_3":"Sub-district","CC_3":"1812020","HASC_3":"NA","name":"Tumi_Jajar.city"},
"geometry":{"type": "MultiPolygon","coordinates": [[[[105.1411,-4.6893,21.9016],[105.1376,-4.6851,22.6124],[105.1398,-4.6831,21.3935],[105.1383,-4.6797,21.2309],[105.1409,-4.6787,20.1352],[105.1426,-4.6805,18.857],[105.1448,-4.6763,21.8548],[105.1498,-4.677,21.0941],[105.1512,-4.6753,19.2842],[105.1559,-4.6771,18.8295],[105.1606,-4.6697,19.0952],[105.1605,-4.6664,24.5303],[105.1443,-4.6632,31.2879],[105.142,-4.6614,32.3205],[105.1451,-4.6558,28.9029],[105.1457,-4.6471,32.1375],[105.1439,-4.6316,32.2537],[105.1316,-4.6304,32.3315],[105.1332,-4.6246,29.5168],[105.1229,-4.6195,36.2683],[105.1215,-4.6232,40.9502],[105.1179,-4.6224,30.2219],[105.119,-4.6186,32.504],[105.1144,-4.6139,31.2606],[105.1007,-4.6164,31.4954],[105.0933,-4.6153,30.3461],[105.0863,-4.6168,32.818],[105.0811,-4.6213,34.1876],[105.0796,-4.6206,34.2363],[105.0771,-4.6224,32.2219],[105.0575,-4.6223,35.1287],[105.0505,-4.6272,40.6422],[105.0378,-4.6291,31.1322],[105.0365,-4.6338,32.1956],[105.0379,-4.6445,34.0646],[105.0333,-4.6474,38.6894],[105.0341,-4.6542,34.8416],[105.0271,-4.6542,36.0428],[105.0244,-4.6568,33.723],[105.0244,-4.6603,33.8548],[105.0221,-4.6605,36.164],[105.0124,-4.6556,33.2143],[105.0091,-4.6591,35.223],[105.0274,-4.6678,35.3722],[105.035,-4.6683,36.2524],[105.0539,-4.6926,30.1921],[105.0659,-4.6966,36.8549],[105.0693,-4.7086,24.2971],[105.0752,-4.7067,26.9031],[105.0782,-4.7074,29.603],[105.0795,-4.7113,32.6669],[105.1017,-4.7131,28.9178],[105.1173,-4.7203,29.7921],[105.1197,-4.7201,28.7552],[105.1197,-4.7224,26.3486],[105.1212,-4.7214,25.7375],[105.127,-4.7273,25.0621],[105.1382,-4.7151,25.9193],[105.1425,-4.7062,20.2514],[105.1411,-4.6893,21.9016]]]]}}