{"type":"Feature","properties":{"GID_2":"IDN.1.1_1","GID_0":"IDN","country":"Indonesia","GID_1":"IDN.1_1","province":"Aceh","NL_NAME_1":"NA","county":"AcehBaratDaya","VARNAME_2":"NA","NL_NAME_2":"NA","TYPE_2":"Kabupaten","ENGTYPE_2":"Regency","CC_2":"1112","HASC_2":"ID.AC.AD","name":"Aceh_Barat_Daya.county"},
"geometry":{"type": "MultiPolygon","coordinates": [[[[96.942,3.5746,0.0],[96.9445,3.583,4.1174],[96.95,3.5929,9.5879],[96.959,3.6038,28.3319],[96.9629,3.6128999999999998,23.8577],[96.966,3.6163,34.6909],[96.9659,3.6151,26.8963],[96.968,3.6163,31.8566],[96.9702,3.623,50.2148],[96.9942,3.6209,113.4331],[97.0137,3.6092,106.2149],[97.0271,3.604,176.0788],[97.0326,3.6046,242.7334],[97.0358,3.6073,295.5108],[97.044,3.6223,285.3152],[97.0529,3.6236,405.1363],[97.0639,3.6311,464.509],[97.1073,3.6741,1966.6],[97.1176,3.6821,1709.9275],[97.1303,3.6888,1957.7139],[97.1345,3.694,2096.7783],[97.142,3.7341,1968.7317],[97.151,3.7396,2713.2363],[97.1536,3.7456,2607.3311],[97.1358,3.7852,1372.0583],[97.114,3.8248,2333.2795],[97.1056,3.8448,2253.3997],[97.1068,3.8571,2297.9399],[97.1135,3.8642,2380.2927],[97.1092,3.8752,2366.5679],[97.1079,3.8922,2188.176],[97.1157,3.9116,2104.3799],[97.1178,3.922,1773.0535],[97.117,3.9286,1590.3234],[97.1082,3.9411,1402.2285],[97.1002,3.9481,1579.7314],[97.0803,3.9514,1629.0457],[97.0746,3.9536,1989.8606],[97.0686,3.9584,2115.7554],[97.0635,3.9594,2322.8787],[97.0428,3.961,2066.1562],[97.0173,3.9595,1162.1677],[97.0017,3.9526,1191.4702],[96.9939,3.9467,959.1033],[96.9804,3.9424,890.6913],[96.9625,3.945,1306.6355],[96.8826,3.9509,543.5435],[96.836,3.9594,1045.115],[96.8091,3.9831,936.2313],[96.8047,3.9902,836.3685],[96.803,3.9976,1203.3302],[96.802,4.0268,967.1539],[96.7965,4.0416,800.0887],[96.7885,4.0551,500.6066],[96.7628,4.0755,253.6989],[96.7616,4.0785,257.9816],[96.756,4.0833,278.542],[96.7479,4.088,358.5847],[96.7471,4.0943,370.3546],[96.7391,4.0915,221.2787],[96.734,4.096,371.1378],[96.7248,4.0969,231.9359],[96.7252,4.0817,829.6255],[96.7292,4.0715,1178.5859],[96.73,4.0415,420.5587],[96.7259,4.0335,363.6262],[96.7172,4.0257,202.0853],[96.7171,4.0216,327.7003],[96.7202,4.0153,271.008],[96.7193,4.0125,240.3948],[96.7101,4.0063,127.7572],[96.697,3.9885,90.0719],[96.6896,3.991,50.428],[96.6841,3.9903,46.1809],[96.6841,3.9844,43.4722],[96.6778,3.9871,64.4501],[96.6512,3.972,30.0681],[96.647,3.9726,25.4003],[96.6448,3.9675,22.5153],[96.6412,3.9675,23.8858],[96.6366,3.9638,21.4713],[96.635,3.9603,17.8058],[96.6292,3.9585,17.0836],[96.6258,3.9478,20.8608],[96.6232,3.9467,15.4034],[96.6189,3.9395,18.9703],[96.6214,3.9352,12.1755],[96.6147,3.9325,16.6653],[96.6177,3.9227,20.4222],[96.6171,3.9189,17.7974],[96.6145,3.9176,16.7126],[96.6131,3.9128,18.7206],[96.6049,3.9154,13.7578],[96.6016,3.9127,17.2832],[96.6001,3.9027,11.4497],[96.594,3.8906,11.0315],[96.5959,3.8842,8.4966],[96.5921,3.8759,18.633],[96.5926,3.8694,17.966],[96.5887,3.8626,17.0377],[96.5879,3.8566,15.3517],[96.5845,3.8496,16.2651],[96.5809,3.8454,16.7921],[96.5829,3.8385,13.965],[96.5988,3.8278,9.001],[96.6048,3.8211,10.567],[96.6102,3.8126,3.709],[96.6097,3.807,5.4404],[96.6169,3.7949,4.4875],[96.6171,3.7911,12.0547],[96.6068,3.7821,9.3146],[96.6055,3.7769,2.3907],[96.6093,3.7715,3.2319],[96.6141,3.7689,4.295],[96.6167,3.7638,5.2753],[96.6176,3.7571,15.29],[96.6143,3.7535,3.5489],[96.619,3.747,6.8661],[96.6168,3.7363,0.0],[96.6303,3.7423,4.3626],[96.641,3.7451,2.9988],[96.6689,3.7473,6.8614],[96.6978,3.7431,0.952],[96.7244,3.7471,2.4703],[96.7375,3.7435,0.0],[96.744,3.7441,2.7345],[96.7529,3.7396,0.8462],[96.7749,3.7387,0.0],[96.7836,3.7337,0.0],[96.7935,3.7245,0.0],[96.8079,3.7251,3.4088],[96.8108,3.722,0.6591],[96.8119,3.7172,0.7443],[96.8191,3.7164,0.0],[96.8345,3.707,0.0],[96.8439,3.705,0.0],[96.8566,3.6996,0.0],[96.8722,3.6863,0.0],[96.8837,3.6693,2.5821],[96.8942,3.6439,2.2012],[96.897,3.6259,1.614],[96.8947,3.6204,0.0],[96.9023,3.6059,6.5843],[96.9019,3.601,0.0],[96.9033,3.6016,0.0],[96.9105,3.5976,5.3951],[96.9343,3.5782,0.0],[96.942,3.5746,0.0]]],
[[[96.8052,3.7217,0.0],[96.8028,3.7202,0.0],[96.8044,3.7174,0.0],[96.8071,3.719,0.0],[96.8052,3.7217,0.0]]]]}}