{"type":"Feature","properties":{"GID_3":"IDN.29.9.3_1","GID_0":"IDN","country":"Indonesia","GID_1":"IDN.29_1","province":"SulawesiUtara","NL_NAME_1":"NA","GID_2":"IDN.29.9_1","county":"Manado","NL_NAME_2":"NA","city":"Mapanget","VARNAME_3":"NA","NL_NAME_3":"NA","TYPE_3":"Kecamatan","ENGTYPE_3":"Sub-district","CC_3":"7171040","HASC_3":"NA","name":"Mapanget.city"},
"geometry":{"type": "MultiPolygon","coordinates": [[[[124.8938,1.4831,36.5962],[124.8972,1.4889,49.3681],[124.9041,1.4928,76.6037],[124.9049,1.4957,75.6631],[124.9124,1.4975,78.8803],[124.9208,1.504,75.3602],[124.9331,1.5078,84.0955],[124.9326,1.5132,84.7304],[124.927,1.5175,80.2217],[124.9228,1.5286,85.5805],[124.9263,1.5368,81.4507],[124.9268,1.5622,80.8478],[124.9247,1.5599,81.7105],[124.9208,1.5608,80.8157],[124.9177,1.5657,65.3195],[124.9129,1.5664,63.8334],[124.9123,1.5694,67.5096],[124.9092,1.5723,60.8336],[124.8977,1.5698,62.885],[124.8955,1.571,64.0044],[124.8914,1.569,36.4652],[124.8863,1.574,47.1155],[124.8825,1.5714,47.4659],[124.8797,1.5729,38.758],[124.8767,1.571,58.784],[124.8778,1.5747,37.8328],[124.8749,1.5766,53.0396],[124.8707,1.5721,57.9041],[124.8651,1.5701,78.9812],[124.8489,1.5686,391.4202],[124.8446,1.5657,602.8481],[124.8673,1.541,35.8537],[124.8593,1.5302,36.4613],[124.8609,1.5256,37.0227],[124.8647,1.5228,52.1331],[124.8539,1.5199,8.2397],[124.8551,1.5146,16.1937],[124.8611,1.5118,27.417],[124.8627,1.5094,30.9014],[124.866,1.5113,31.4068],[124.8666,1.5088,18.8795],[124.8697,1.5117,23.5648],[124.8721,1.5085,29.1714],[124.8678,1.5019,47.0326],[124.8706,1.4998,45.181399999999996],[124.8706,1.4961,12.5914],[124.8743,1.4944,11.9405],[124.8756,1.4971,33.0816],[124.8774,1.4971,23.7928],[124.8788,1.4942,12.1842],[124.8823,1.4936,10.8208],[124.8843,1.4885,42.7663],[124.8869,1.4896,17.6198],[124.8919,1.4857,25.9666],[124.8908,1.4801,46.8604],[124.8938,1.4831,36.5962]]]]}}