{"type":"Feature","properties":{"GID_3":"IDN.35.13.1","GID_0":"IDN","country":"Indonesia","GID_1":"IDN.35_1","province":"KalimantanUtara","NL_NAME_1":"NA","GID_2":"IDN.35.13","county":"TanaTidung","NL_NAME_2":"NA","city":"SesayapHilir","VARNAME_3":"NA","NL_NAME_3":"NA","TYPE_3":"NA","ENGTYPE_3":"NA","CC_3":"NA","HASC_3":"NA","name":"Sesayap_Hilir.city"},
"geometry":{"type": "MultiPolygon","coordinates": [[[[117.3691,3.3624,1.7766],[117.3711,3.357,2.4591],[117.3832,3.3507,0.5],[117.3856,3.3651,4.2473],[117.3898,3.3671,2.7966],[117.3869,3.3644,4.2473],[117.3846,3.3501,0.5],[117.3928,3.3436,0.5],[117.3906,3.353,0.5],[117.394,3.3464,2.9328],[117.3903,3.3237,1.3155],[117.3959,3.3217,0.5],[117.4102,3.3269,0.0],[117.4153,3.3362,0.0],[117.413,3.3422,5.4501],[117.4126,3.3509,6.2876],[117.4142,3.3617,0.0],[117.4127,3.3778,3.4558],[117.4143,3.3868,0.0],[117.4131,3.3913,2.7731],[117.3933,3.4064,7.5244],[117.3742,3.4101,2.2819],[117.3691,3.413,3.5141],[117.3648,3.4208,0.0],[117.3608,3.443,0.0],[117.3556,3.4486,6.8444],[117.3233,3.4508,2.8682],[117.3059,3.4487,3.861],[117.304,3.4464,1.3034],[117.3037,3.4419,1.0148],[117.3127,3.4178,0.0],[117.3255,3.407,2.4779],[117.3319,3.3982,1.5853],[117.3333,3.3908,0.0],[117.3312,3.3796,0.0],[117.3427,3.3739,6.2105],[117.3491,3.3687,33.0302],[117.3692,3.3733,6.938],[117.3731,3.3687,3.3404],[117.3715,3.3666,0.5],[117.3679,3.3662,9.2708],[117.3691,3.3624,1.7766]]],
[[[117.2706,3.371,13.817],[117.2755,3.3812,2.3507],[117.2715,3.3823,3.0887],[117.2704,3.388,0.9792],[117.2679,3.3908,0.0],[117.2638,3.3917,2.9008],[117.2603,3.3899,0.0],[117.2628,3.3926,2.8078],[117.2673,3.3926,1.9207],[117.2717,3.3895,0.0],[117.2723,3.3839,0.7179],[117.2765,3.3832,0.0],[117.2819,3.3946,2.3597],[117.2777,3.3998,2.6777],[117.2772,3.4036,2.1141],[117.2832,3.4119,0.0],[117.2815,3.4223,3.8117],[117.2845,3.4273,2.1399],[117.2889,3.4287,0.0],[117.2973,3.427,1.1574],[117.3015,3.4214,3.2621],[117.304,3.411,1.1761],[117.3078,3.4107,9.5969],[117.3088,3.4147,2.6684],[117.3002,3.4298,2.4987],[117.2971,3.4423,1.0929],[117.2994,3.4493,0.0],[117.3043,3.4543,5.0971],[117.3222,3.4604,0.0],[117.322,3.4622,0.0],[117.3186,3.4643,1.3138],[117.3089,3.4659,2.8906],[117.289,3.4633,3.6698],[117.2797,3.4654,3.0106],[117.2751,3.4688,0.0],[117.2534,3.4713,9.7433],[117.2414,3.477,5.5632],[117.2256,3.4885,6.1837],[117.222,3.4883,5.679],[117.2232,3.4561,2.3611],[117.2299,3.4423,5.7542],[117.2236,3.4316,2.302],[117.2287,3.4261,2.4514],[117.2292,3.4304,2.7126],[117.2317,3.4339,4.4668],[117.235,3.4344,2.2169],[117.23779999999999,3.432,2.2344],[117.2344,3.4335,6.3551],[117.2312,3.4319,5.3758],[117.2266,3.4179,3.4138],[117.2231,3.4138,0.7927],[117.2206,3.4151,1.7217],[117.2202,3.4199,8.8851],[117.2181,3.4226,3.7797],[117.2145,3.4222,3.5053],[117.2138,3.4144,0.5],[117.213,3.4195,0.5],[117.2148,3.4237,3.5053],[117.2183,3.4242,1.8801],[117.2213,3.4211,7.1222],[117.2224,3.4151,1.7217],[117.2253,3.4184,0.0],[117.2268,3.4237,2.2277],[117.2213,3.4306,0.0],[117.2213,3.4336,0.0],[117.2266,3.4404,0.0],[117.2248,3.4429,1.2704],[117.2172,3.4372,1.1448],[117.2014,3.4341,0.5],[117.1919,3.4291,1.4255],[117.1798,3.4253,23.0889],[117.1768,3.4255,4.6853],[117.1718,3.4293,2.7152],[117.1732,3.414,16.4675],[117.172,3.412,9.4558],[117.1687,3.412,8.2572],[117.1637,3.4172,1.5],[117.1639,3.4123,4.801],[117.1596,3.4045,10.1204],[117.1576,3.3915,2.25],[117.1579,3.4037,6.0988],[117.163,3.4135,4.801],[117.1607,3.4171,1.5],[117.1642,3.4192,3.2667],[117.1677,3.4139,2.9692],[117.1714,3.4134,2.7321],[117.1701,3.4298,1.9385],[117.1732,3.4311,6.7406],[117.1782,3.4268,3.5368],[117.1864,3.4295,0.5],[117.1838,3.4449,5.4065],[117.1789,3.4474,5.073],[117.1654,3.448,2.3264],[117.1539,3.4575,2.1835],[117.1485,3.4597,4.2499],[117.148,3.4481,2.0548],[117.1399,3.4419,10.7912],[117.1373,3.443,11.7497],[117.1343,3.4492,2.9215],[117.1241,3.4531,2.8807],[117.1185,3.4586,10.5981],[117.1182,3.4623,6.075],[117.1205,3.4661,7.8737],[117.1247,3.4659,8.428],[117.1282,3.4588,9.619],[117.1239,3.4652,1.838],[117.122,3.4654,13.3543],[117.1201,3.4634,10.866],[117.1208,3.4569,3.6612],[117.1353,3.4502,2.9215],[117.1397,3.4434,2.8315],[117.1474,3.4494,3.3588],[117.1457,3.4588,8.8427],[117.1492,3.461,7.0745],[117.155,3.4587,2.6581],[117.1649,3.4495,2.7642],[117.1788,3.4495,2.9491],[117.1826,3.4482,1.3382],[117.1871,3.443,2.6627],[117.1867,3.4324,2.1916],[117.1883,3.4304,0.5],[117.2049,3.4392,2.8007],[117.2211,3.4433,0.0],[117.2132,3.4678,0.0],[117.2144,3.481,0.0],[117.2176,3.4926,6.8462],[117.2109,3.501,2.4597],[117.2069,3.5165,2.1651],[117.1958,3.5277,0.0],[117.1932,3.5365,5.785],[117.1948,3.543,0.0],[117.2086,3.5716,3.3144],[117.227,3.5917,3.2245],[117.2278,3.6,9.4992],[117.2226,3.6079,0.0],[117.2001,3.6109,5.7641],[117.1725,3.6195,5.0644],[117.1278,3.6207,2.5618],[117.1013,3.6096,7.4598],[117.0907,3.608,4.3521],[117.0716,3.6111,0.0],[117.0415,3.5933,9.0444],[117.0212,3.5859,4.325],[117.0067,3.5857,2.2386],[116.9922,3.589,0.0],[116.9758,3.5893,5.8427],[116.9675,3.591,3.7753],[116.967,3.5575,19.2189],[116.9684,3.5393,18.2034],[116.9734,3.5195,28.8853],[116.9804,3.5063,20.2596],[117.003,3.5009,21.2855],[117.0238,3.4829,20.4737],[117.0354,3.465,20.3953],[117.0478,3.4568,11.0087],[117.0568,3.4361,12.3267],[117.0602,3.4238,7.222],[117.0621,3.4044,18.3218],[117.0664,3.3969,17.1337],[117.0693,3.3955,29.8902],[117.0739,3.3961,17.4095],[117.0784,3.4008,20.9176],[117.0812,3.401,35.742],[117.0894,3.3879,21.2781],[117.0921,3.3862,55.4462],[117.0935,3.3775,311.2707],[117.0926,3.3743,319.5287],[117.0949,3.3645,434.9018],[117.0987,3.3624,447.5478],[117.1101,3.3624,327.2928],[117.1136,3.3529,34.6193],[117.1097,3.3492,30.479],[117.1108,3.3467,37.4135],[117.1162,3.348,35.3647],[117.1259,3.3457,29.0776],[117.1324,3.3422,22.8591],[117.1355,3.3463,36.4318],[117.1482,3.352,20.3014],[117.1493,3.3564,39.4911],[117.1577,3.3498,11.9131],[117.1651,3.3529,33.1554],[117.1663,3.3583,48.5626],[117.1732,3.3566,40.2626],[117.1867,3.3433,134.5108],[117.184,3.336,132.3982],[117.1947,3.3306,220.8372],[117.1982,3.3319,178.4224],[117.2056,3.3408,154.8448],[117.22,3.3374,185.5823],[117.2217,3.3344,208.8905],[117.2254,3.3351,198.4772],[117.2309,3.3322,219.4189],[117.2351,3.3211,247.6885],[117.2429,3.3132,325.2622],[117.2706,3.371,13.817]]],
[[[117.2925,3.4669,10.2797],[117.2763,3.4689,3.4887],[117.284,3.4647,5.1378],[117.2966,3.4655,4.0328],[117.2925,3.4669,10.2797]]],
[[[117.334,3.4718,0.0],[117.3445,3.4693,0.0],[117.3326,3.4742,3.1222],[117.3278,3.4743,2.7424],[117.334,3.4718,0.0]]],
[[[117.0394,3.6064,5.7524],[117.0404,3.6042,1.8242],[117.0422,3.6044,4.7571],[117.0567,3.612,0.0],[117.0594,3.6169,4.487],[117.0589,3.6186,5.0076],[117.0486,3.6148,4.7289],[117.0427,3.6111,0.0],[117.0394,3.6064,5.7524]]],
[[[117.4554,3.5822,1.1672],[117.4147,3.6046,0.8028],[117.3938,3.6136,1.25],[117.3852,3.613,3.4134],[117.36,3.6053,5.73],[117.3242,3.6007,0.0],[117.3039,3.6015,2.2291],[117.2935,3.5992,0.0],[117.2913,3.5971,0.8698],[117.2959,3.5917,1.6887],[117.299,3.5822,6.0874],[117.3021,3.5788,5.7006],[117.3113,3.5837,0.0],[117.3221,3.5859,1.2219],[117.3823,3.59,0.0],[117.4057,3.5889,2.7234],[117.4176,3.5837,0.0],[117.426,3.5749,0.0],[117.4309,3.5658,4.8663],[117.438,3.5616,1.9226],[117.452,3.5647,1.2949],[117.4602,3.569,4.1347],[117.4581,3.5794,0.0],[117.4554,3.5822,1.1672]]],
[[[117.319,3.6148,0.0],[117.3212,3.6128,4.9884],[117.3267,3.6117,0.0],[117.3543,3.613,1.3874],[117.3646,3.6161,0.0],[117.3715,3.6219,0.0],[117.3584,3.6234,4.8676],[117.3412,3.6222,0.0],[117.3236,3.6185,8.7541],[117.319,3.6148,0.0]]],
[[[117.3765,3.6296,10.8834],[117.3828,3.6325,13.9415],[117.3791,3.6363,2.2199],[117.3672,3.6324,0.0],[117.3705,3.6287,0.0],[117.3765,3.6296,10.8834]]],
[[[117.2091,3.6659,38.7825],[117.1964,3.6692,36.8326],[117.0932,3.6807,23.7296],[117.0217,3.7014,9.3921],[116.9913,3.7076,11.6674],[116.985,3.6485,7.8024],[116.982,3.6423,8.233],[116.9738,3.6388,0.0],[116.9672,3.6208,0.0],[116.9661,3.6031,0.0],[116.9965,3.5987,0.0],[117.0065,3.5947,0.0],[117.0148,3.5945,0.0],[117.0217,3.5979,0.0],[117.0479,3.6196,0.0],[117.0663,3.631,2.3552],[117.0772,3.6355,12.7088],[117.0889,3.6378,6.064],[117.1136,3.6356,10.0782],[117.1285,3.6367,0.0],[117.1537,3.6442,10.6914],[117.1765,3.6427,6.0183],[117.2063,3.632,0.0],[117.2276,3.628,4.0885],[117.2591,3.6177,5.0489],[117.3209,3.6236,0.0],[117.3802,3.6403,0.0],[117.3937,3.6398,4.1956],[117.4278,3.6251,1.8595],[117.4316,3.6311,0.926],[117.4322,3.6386,3.3879],[117.4344,3.6423,2.7227],[117.4558,3.6346,3.4208],[117.4604,3.6381,2.459],[117.4674,3.6387,1.5642],[117.4734,3.6477,4.6069],[117.476,3.6481,1.6519],[117.4796,3.6461,1.0],[117.4849,3.6364,5.0471],[117.4879,3.6361,2.3516],[117.496,3.6402,0.75],[117.488,3.6569,2.6986],[117.4896,3.6702,10.1005],[117.4844,3.6648,3.8306],[117.4763,3.6596,11.7687],[117.4604,3.6546,3.8287],[117.3293,3.6381,21.855],[117.2969,3.6365,24.6193],[117.2764,3.6418,25.875],[117.2309,3.6606,20.0731],[117.2091,3.6659,38.7825]]],
[[[117.4151,3.3739,0.921],[117.417,3.3618,0.0],[117.4197,3.3712,2.6977],[117.4164,3.3835,2.7569],[117.4151,3.3739,0.921]]],
[[[117.4183,3.3529,2.0],[117.4157,3.3429,0.0],[117.4172,3.3397,4.4637],[117.424,3.3405,2.6496],[117.4354,3.3491,2.6385],[117.4385,3.3637,1.3561],[117.4364,3.3733,2.0694],[117.4438,3.4001,1.4096],[117.44,3.4161,5.1638],[117.4355,3.4187,6.657],[117.4195,3.4207,7.2048],[117.4102,3.4235,5.6458],[117.3926,3.43,1.4132],[117.3766,3.4384,4.1394],[117.3668,3.441,1.0121],[117.3666,3.4228,2.776],[117.3692,3.4166,0.0],[117.3728,3.4142,5.0325],[117.3976,3.4073,4.5624],[117.4081,3.4001,4.1191],[117.4171,3.3883,1.5894],[117.4223,3.3769,2.4143],[117.4183,3.3529,2.0]]],
[[[117.4276,3.4533,0.0],[117.4473,3.4424,1.1873],[117.4598,3.4392,0.0],[117.4571,3.4469,0.0],[117.4486,3.4515,2.2402],[117.439,3.4537,2.7547],[117.4276,3.4533,0.0]]],
[[[117.3951,3.4508,0.0],[117.4022,3.4468,0.0],[117.4169,3.4445,0.0],[117.4035,3.4507,2.0354],[117.3952,3.452,0.0],[117.3951,3.4508,0.0]]],
[[[117.3251,3.4819,0.0],[117.3317,3.4821,0.0],[117.3241,3.4885,4.4301],[117.3165,3.4841,0.0],[117.3187,3.4828,5.6468],[117.3251,3.4819,0.0]]],
[[[117.2793,3.578,8.9198],[117.2793,3.5858,2.8042],[117.2779,3.5881,2.9324],[117.237,3.587,10.7337],[117.2189,3.5719,1.4139],[117.2117,3.5561,0.0],[117.2011,3.5389,0.0],[117.2296,3.4971,3.3562],[117.2686,3.4864,0.0],[117.2955,3.4839,2.6232],[117.3045,3.4852,0.0],[117.3243,3.4914,0.0],[117.381,3.4696,1.453],[117.4086,3.4667,2.3965],[117.4316,3.4586,0.0],[117.4448,3.4567,0.829],[117.4549,3.4532,0.0],[117.4655,3.4475,2.6355],[117.476,3.4358,3.6689],[117.4851,3.432,0.0],[117.4873,3.4356,5.2804],[117.4868,3.4489,2.727],[117.4883,3.4538,2.6911],[117.4989,3.4644,1.0276],[117.5135,3.4741,1.0349],[117.5171,3.4797,0.9954],[117.5175,3.4833,2.5861],[117.5126,3.4878,0.0],[117.5083,3.4874,0.9314],[117.498,3.49,0.6999],[117.4972,3.4878,0.7839],[117.4994,3.4814,0.6356],[117.497,3.4783,4.5906],[117.4926,3.4789,0.0],[117.4864,3.4862,0.8246],[117.4814,3.4886,2.5005],[117.4761,3.4868,4.9781],[117.4693,3.4869,5.0606],[117.4679,3.4835,7.2927],[117.4697,3.4795,3.595],[117.4647,3.4769,0.9945],[117.4676,3.4798,1.5835],[117.4664,3.484,1.5301],[117.4689,3.488,1.6569],[117.4835,3.4896,0.625],[117.4954,3.4798,0.5],[117.4968,3.4818,1.0],[117.4951,3.4878999999999998,0.0],[117.4964,3.4918,0.5949],[117.5085,3.4906,2.6833],[117.5073,3.4946,0.5],[117.5042,3.4976,2.2816],[117.4883,3.4915,1.7554],[117.4823,3.4919,3.2157],[117.4721,3.5011,1.475],[117.4634,3.4925,1.9315],[117.4617,3.4885,4.9156],[117.4573,3.4855,2.1464],[117.4554,3.4813,2.5994],[117.4503,3.4807,1.7992],[117.4479,3.4861,1.5625],[117.4428,3.4859,2.3211],[117.4479,3.4876,2.0066],[117.4511,3.4819,0.9982],[117.4548,3.4828,2.3209],[117.4558,3.4858,2.8709],[117.4604,3.4895,1.6884],[117.4703,3.5037,1.0],[117.4657,3.5068,0.7949],[117.4552,3.5093,2.0025],[117.4443,3.504,0.0],[117.4396,3.5044,3.689],[117.4355,3.508,2.1935],[117.4343,3.5146,2.0579],[117.434,3.522,2.2482],[117.4372,3.5286,1.0279],[117.4283,3.5325,0.0],[117.4156,3.5344,1.57],[117.4067,3.5378,1.5298],[117.3995,3.5383,2.6222],[117.3948,3.5365,0.5],[117.3946,3.5257,0.5],[117.39,3.5218,2.4756],[117.3905,3.516,0.875],[117.3921,3.5159,1.7423],[117.3942,3.5198,1.9774],[117.4002,3.5177,3.2396],[117.4005,3.5164,2.2762],[117.3965,3.5136,1.701],[117.3986,3.5104,1.4513],[117.3977,3.5064,1.1589],[117.3973,3.5106,1.414],[117.3949,3.5142,3.1973],[117.3985,3.5174,1.8049],[117.3944,3.5186,1.125],[117.3929,3.5146,3.0852],[117.3904,3.5146,2.1168],[117.3887,3.5168,1.9202],[117.3885,3.5224,0.5],[117.3837,3.523,2.9985],[117.3807,3.528,1.4682],[117.3751,3.5293,4.0963],[117.3697,3.5244,2.0668],[117.3699,3.523,1.4911],[117.3731,3.5172,2.7565],[117.3797,3.5121,4.391],[117.3793,3.5094,2.9583],[117.3749,3.5046,2.8698],[117.3686,3.5055,0.0],[117.3633,3.5038,1.5922],[117.3683,3.5066,2.6096],[117.375,3.5065,0.8166],[117.3778,3.5107,2.5238],[117.3769,3.5133,2.3046],[117.372,3.5158,1.7144],[117.3685,3.523,2.4747],[117.3712,3.5303,1.7039],[117.379,3.531,3.4509],[117.3822,3.5292,2.3667],[117.386,3.524,5.4006],[117.3899,3.5246,0.5],[117.3923,3.5276,1.5639],[117.3908,3.5345,1.5804],[117.3925,3.5386,2.1668],[117.403,3.5423,2.763],[117.4,3.548,0.5],[117.369,3.5634,2.6438],[117.3602,3.5649,2.5909],[117.3335,3.5649,3.0139],[117.3092,3.5598,6.8751],[117.299,3.561,4.3652],[117.2881,3.5666,3.5694],[117.2824,3.5721,0.0],[117.2793,3.578,8.9198]]],
[[[117.3279,3.5757,10.3383],[117.3216,3.572,2.9432],[117.3282,3.5727,7.2367],[117.3309,3.5758,12.4893],[117.3279,3.5757,10.3383]]],
[[[117.3089,3.5752,2.1401],[117.3145,3.5707,1.8505],[117.3344,3.5823,1.1059],[117.3112,3.5808,2.9777],[117.3089,3.5752,2.1401]]],
[[[117.4037,3.5598,0.0],[117.4064,3.552,0.0],[117.4092,3.5497,0.0],[117.4124,3.5548,1.7471],[117.412,3.5575,0.0],[117.4079,3.5605,0.0],[117.4039,3.5611,0.0],[117.4037,3.5598,0.0]]],
[[[117.4039,3.5838,0.8515],[117.3934,3.5839,1.8655],[117.402,3.5735,2.1054],[117.4044,3.5681,0.0],[117.4098,3.5657,3.02],[117.4157,3.5656,2.5202],[117.4156,3.575,4.8703],[117.4135,3.5812,4.5485],[117.4121,3.5827,4.6559],[117.4039,3.5838,0.8515]]],
[[[117.3976,3.5701,1.8367],[117.4026,3.5684,0.0],[117.4022,3.5715,1.5],[117.3932,3.5822,3.6986],[117.3925,3.5847,2.5447],[117.381,3.5851,5.6813],[117.367,3.5799,0.9159],[117.371,3.578,0.75],[117.3976,3.5701,1.8367]]],
[[[117.4947,3.6371,1.8254],[117.4891,3.6344,0.5],[117.4838,3.6354,2.2906],[117.4764,3.6469,1.6415],[117.4683,3.6376,1.5642],[117.4614,3.6374,1.6996],[117.4566,3.6335,2.5565],[117.4351,3.6411,3.6776],[117.4333,3.6379,6.3617],[117.4333,3.6322,7.285],[117.4297,3.6244,1.2685],[117.4322,3.6217,0.0],[117.4431,3.6164,3.1571],[117.4693,3.6084,0.0],[117.494,3.5974,2.6353],[117.5028,3.6048,0.0],[117.5147,3.6227,0.5],[117.5185,3.633,7.264],[117.517,3.6387,4.1886],[117.5103,3.6346,0.5],[117.5052,3.6342,0.5],[117.499,3.637,2.7377],[117.4947,3.6371,1.8254]]],
[[[117.382,3.6362,0.0],[117.385,3.6335,0.0],[117.3899,3.6339,14.974],[117.3864,3.6373,0.0],[117.382,3.6362,0.0]]],
[[[117.511,3.6609,1.0],[117.502,3.6685,3.0347],[117.4919,3.6682,2.3614],[117.4896,3.6656,2.9792],[117.4888,3.6569,2.6986],[117.4906,3.6516,1.5099],[117.4976,3.6402,1.3218],[117.5034,3.6389,4.1835],[117.5078,3.6357,7.5875],[117.5138,3.6401,1.8709],[117.5213,3.6403,0.5],[117.5182,3.6525,3.296],[117.511,3.6609,1.0]]],
[[[117.0935,3.6166,1.413],[117.1002,3.6143,2.9495],[117.1034,3.6159,2.1594],[117.1066,3.6208,9.9273],[117.0974,3.6239,0.9829],[117.0907,3.6192,0.0],[117.0904,3.618,0.0],[117.0935,3.6166,1.413]]]]}}