{"type":"Feature","properties":{"GID_3":"IDN.22.6.14_1","GID_0":"IDN","country":"Indonesia","GID_1":"IDN.22_1","province":"PapuaBarat","NL_NAME_1":"NA","GID_2":"IDN.22.6_1","county":"RajaAmpat","NL_NAME_2":"NA","city":"WaigeoSelatan","VARNAME_3":"NA","NL_NAME_3":"NA","TYPE_3":"Distrik","ENGTYPE_3":"District","CC_3":"9108040","HASC_3":"NA","name":"Waigeo_Selatan.city"},
"geometry":{"type": "MultiPolygon","coordinates": [[[[130.6999,-0.4847,0.0],[130.6978,-0.484,0.0],[130.6957,-0.4882,0.0],[130.7006,-0.487,0.0],[130.6999,-0.4847,0.0]]],
[[[130.694,-0.4769,0.0],[130.6895,-0.4796,0.0],[130.6906,-0.4815,0.0],[130.6974,-0.479,52.9413],[130.6964,-0.4771,0.0],[130.694,-0.4769,0.0]]],
[[[130.8022,-0.4827,0.0],[130.8061,-0.485,0.0],[130.8117,-0.4839,0.0],[130.8204,-0.4766,0.0],[130.8206,-0.4731,0.0],[130.8171,-0.47,0.0],[130.8133,-0.4708,0.0],[130.8056,-0.4754,0.0],[130.8022,-0.4827,0.0]]],
[[[130.7947,-0.3612,265.9084],[130.7783,-0.3636,211.0983],[130.7641,-0.3503,147.3986],[130.7063,-0.3041,61.9946],[130.646,-0.2378,81.9122],[130.6379,-0.2346,217.9717],[130.6248,-0.2565,48.9192],[130.5921,-0.2955,81.3298],[130.5918,-0.3003,28.4893],[130.5883,-0.3076,21.6082],[130.5789,-0.3218,0.0],[130.5865,-0.3225,0.0],[130.6008,-0.3172,0.0],[130.6033,-0.3148,0.0],[130.6069,-0.3167,0.0],[130.6132,-0.3049,0.0],[130.6147,-0.3067,4.5728],[130.612,-0.3105,0.0],[130.6151,-0.3135,0.0],[130.6211,-0.3099,0.0],[130.6222,-0.3121,0.0],[130.6296,-0.3106,0.0],[130.6321,-0.3073,0.0],[130.6349,-0.3127,0.0],[130.6333,-0.3147,0.0],[130.6357,-0.3149,0.0],[130.643,-0.3084,22.0954],[130.6475,-0.309,0.0],[130.656,-0.3071,0.0],[130.66,-0.3058,0.0],[130.6633,-0.3022,4.3599],[130.6676,-0.3022,0.0],[130.6691,-0.3001,12.4515],[130.671,-0.301,0.0],[130.6726,-0.296,6.475],[130.6779,-0.2934,2.2014],[130.6826,-0.2942,0.0],[130.6841,-0.3011,0.0],[130.6939,-0.3025,0.0],[130.6955,-0.3041,22.6581],[130.6943,-0.307,0.0],[130.697,-0.3062,11.0722],[130.6987,-0.3077,11.7093],[130.6951,-0.3164,0.0],[130.6973,-0.3172,0.0],[130.6985,-0.3225,0.0],[130.7049,-0.3282,18.4292],[130.6997,-0.3289,33.1929],[130.6967,-0.3336,17.5447],[130.6902,-0.3345,4.9872],[130.6861,-0.337,114.7463],[130.6782,-0.3368,97.9094],[130.6723,-0.3403,0.0],[130.6722,-0.3423,0.0],[130.6759,-0.3423,0.0],[130.6799,-0.345,0.0],[130.6842,-0.3436,0.0],[130.6875,-0.3469,0.0],[130.6881,-0.3516,0.0],[130.6936,-0.3556,0.0],[130.6958,-0.3627,0.0],[130.6991,-0.3652,73.225],[130.6979,-0.3676,0.0],[130.6996,-0.3728,0.0],[130.7057,-0.3826,22.0182],[130.7037,-0.3841,12.5638],[130.6993,-0.3944,0.0],[130.7064,-0.3989,0.0],[130.7076,-0.4035,17.88],[130.7064,-0.4094,52.403],[130.7032,-0.4131,0.0],[130.705,-0.4144,0.0],[130.7085,-0.4132,0.0],[130.7151,-0.4281,0.0],[130.7188,-0.4311,5.5039],[130.7196,-0.4364,0.0],[130.7267,-0.4443,0.0],[130.7394,-0.4444,0.0],[130.7509,-0.4478,0.0],[130.7687,-0.4478,0.0],[130.7704,-0.4461,0.0],[130.7694,-0.4416,0.0],[130.7748,-0.4401,0.0],[130.7772,-0.4434,0.0],[130.783,-0.443,0.0],[130.7841,-0.4451,0.0],[130.793,-0.4494,0.0],[130.7977,-0.4459,0.0],[130.8015,-0.4384,0.0],[130.8037,-0.4379,0.0],[130.8125,-0.4449,0.0],[130.8227,-0.437,0.0],[130.8353,-0.4362,0.0],[130.8502,-0.427,0.0],[130.8554,-0.4285,0.0],[130.857,-0.4266,0.0],[130.865,-0.4261,0.0],[130.8712,-0.4289,0.0],[130.8725,-0.4272,0.0],[130.8787,-0.428,0.0],[130.8773,-0.4257,0.0],[130.8784,-0.4217,0.0],[130.8832,-0.4176,0.0],[130.8834,-0.4131,0.0],[130.8917,-0.4115,0.0],[130.8918,-0.4087,0.0],[130.8939,-0.4073,0.0],[130.8982,-0.4096,0.0],[130.9033,-0.408,0.0],[130.9101,-0.4002,0.0],[130.9114,-0.4043,0.0],[130.9143,-0.404,0.0],[130.9268,-0.3919,0.0],[130.9261,-0.3896,0.0],[130.9281,-0.3891,0.0],[130.9318,-0.3914,0.0],[130.9355,-0.3898,0.0],[130.9342,-0.3873,0.0],[130.9249,-0.3811,14.948],[130.9241,-0.376,10.5286],[130.902,-0.3722,11.0365],[130.8863,-0.3576,47.1248],[130.8696,-0.3501,292.9609],[130.8559,-0.3535,161.2629],[130.7947,-0.3612,265.9084]]],
[[[130.6158,-0.4216,59.5174],[130.6176,-0.4225,54.1552],[130.6154,-0.4258,110.1426],[130.6354,-0.4369,319.1561],[130.6519,-0.4559,231.5603],[130.655,-0.4653,145.1646],[130.6823,-0.4718,0.0],[130.6851,-0.4704,0.0],[130.6869,-0.4657,0.0],[130.691,-0.4692,0.0],[130.6924,-0.4611,0.0],[130.6973,-0.4528,0.0],[130.6943,-0.4468,88.8831],[130.6926,-0.4481,39.8174],[130.6908,-0.4453,106.4711],[130.6844,-0.4458,110.7831],[130.6814,-0.4424,86.8079],[130.6832,-0.4413,65.8078],[130.6826,-0.4388,4.9805],[130.6675,-0.4419,160.9027],[130.666,-0.4403,179.7378],[130.6689,-0.4334,0.0],[130.666,-0.4268,23.0319],[130.6603,-0.4231,144.3005],[130.6508,-0.4195,165.7985],[130.6481,-0.4155,111.7405],[130.6408,-0.4138,153.7582],[130.6364,-0.4155,161.9557],[130.6309,-0.4116,152.5838],[130.6252,-0.4121,106.8179],[130.6239,-0.4141,127.3127],[130.6201,-0.4127,87.7686],[130.6184,-0.4109,93.6682],[130.6202,-0.4097,93.6682],[130.6206,-0.4055,0.0],[130.6176,-0.4031,113.064],[130.6105,-0.4026,36.3665],[130.6065,-0.4069,0.0],[130.6105,-0.4135,0.0],[130.6084,-0.4143,0.0],[130.611,-0.4182,0.0],[130.6132,-0.4181,0.0],[130.6131,-0.4207,34.823],[130.6158,-0.4216,59.5174]]],
[[[130.6895,-0.4214,0.0],[130.694,-0.4188,0.0],[130.6947,-0.4162,0.0],[130.6933,-0.4143,12.0082],[130.6849,-0.4153,39.2797],[130.6812,-0.4208,0.0],[130.6831,-0.422,0.0],[130.6895,-0.4214,0.0]]],
[[[130.6755,-0.3114,0.0],[130.6756,-0.3091,0.0],[130.6736,-0.3085,44.2973],[130.6659,-0.3077,74.6757],[130.6613,-0.3093,0.0],[130.6609,-0.3114,0.0],[130.668,-0.3143,30.4047],[130.6556,-0.3204,0.0],[130.6552,-0.3227,0.0],[130.6587,-0.3245,0.0],[130.6585,-0.3286,0.0],[130.6632,-0.3298,0.0],[130.6666,-0.3329,0.0],[130.6693,-0.3305,0.0],[130.6691,-0.3253,63.8812],[130.6752,-0.3245,0.0],[130.6777,-0.3207,0.0],[130.6774,-0.3184,29.1676],[130.6728,-0.3165,96.3896],[130.6734,-0.3121,14.7801],[130.6755,-0.3114,0.0]]],
[[[130.6386,-0.316,0.0],[130.6373,-0.3184,0.0],[130.6393,-0.3195,0.0],[130.6427,-0.3167,0.0],[130.6398,-0.3142,15.0371],[130.6386,-0.316,0.0]]],
[[[130.6501,-0.3175,0.0],[130.6463,-0.3155,0.0],[130.6453,-0.318,0.0],[130.6501,-0.3175,0.0]]]]}}