{"type":"Feature","properties":{"GID_2":"IDN.21.5_1","GID_0":"IDN","country":"Indonesia","GID_1":"IDN.21_1","province":"NusaTenggaraTimur","NL_NAME_1":"NA","county":"KotaKupang","VARNAME_2":"NA","NL_NAME_2":"NA","TYPE_2":"Kota","ENGTYPE_2":"City","CC_2":"5371","HASC_2":"ID.NT.KM","name":"Kota_Kupang.county"},
"geometry":{"type": "MultiPolygon","coordinates": [[[[123.6247,-10.14,2.5758],[123.596,-10.1538,4.6688],[123.5918,-10.1519,0.0],[123.5889,-10.1531,0.0],[123.5899,-10.1551,3.5876],[123.5881,-10.1562,0.5789],[123.5817,-10.1568,4.9914],[123.5698,-10.1648,0.0],[123.5684,-10.1685,0.0],[123.5642,-10.1713,3.3263],[123.5587,-10.1724,1.6443],[123.5558,-10.1691,1.2217],[123.5502,-10.1683,4.4734],[123.5348,-10.174,0.0],[123.5311,-10.1777,0.0],[123.5279,-10.187,16.4259],[123.5275,-10.194,13.545],[123.5287,-10.1945,13.545],[123.5272,-10.1959,1.8836],[123.5289,-10.1967,6.0363],[123.5302,-10.2019,11.1175],[123.5284,-10.2098,18.427],[123.5312,-10.2112,44.6929],[123.5343,-10.2083,75.8975],[123.5459,-10.2144,97.3989],[123.5498,-10.2201,113.6219],[123.5525,-10.2204,133.7751],[123.5569,-10.2275,173.2654],[123.5661,-10.2264,220.7199],[123.57,-10.224,203.6592],[123.572,-10.218,202.0237],[123.5741,-10.2171,188.0345],[123.5755,-10.2251,231.5731],[123.5785,-10.2243,208.8613],[123.5707,-10.2465,232.061],[123.5771,-10.2545,232.0421],[123.5812,-10.264,272.4339],[123.585,-10.2812,107.6765],[123.5848,-10.2881,82.2609],[123.5957,-10.2872,109.0238],[123.6003,-10.2892,112.2678],[123.6022,-10.2933,130.4164],[123.606,-10.2914,139.3301],[123.6092,-10.2931,174.1366],[123.6136,-10.2929,154.4938],[123.622,-10.287,195.9833],[123.625,-10.288,201.4325],[123.6299,-10.285,208.9346],[123.6322,-10.2686,440.3039],[123.6391,-10.2443,368.3907],[123.6305,-10.2412,348.9531],[123.6205,-10.2312,336.4563],[123.6335,-10.2254,325.3211],[123.6362,-10.2216,318.5245],[123.6388,-10.2217,321.1128],[123.6395,-10.2178,313.9986],[123.6629,-10.2267,431.4424],[123.6648,-10.2287,447.3467],[123.6685,-10.2269,432.9951],[123.6682,-10.2227,403.0429],[123.6632,-10.221,382.9093],[123.6594,-10.2127,331.6887],[123.6548,-10.2082,313.9441],[123.6508,-10.1885,182.224],[123.6551,-10.1868,167.7339],[123.6587,-10.1905,194.6967],[123.6619,-10.1879,172.0932],[123.6623,-10.1855,157.4017],[123.67,-10.184,133.1304],[123.6739,-10.1769,103.0195],[123.6774,-10.1802,114.2679],[123.6814,-10.1754,103.21],[123.6835,-10.1675,94.3092],[123.6825,-10.1649,95.6335],[123.6671,-10.1662,107.307],[123.6625,-10.1589,94.1592],[123.6594,-10.1573,85.9867],[123.6717,-10.1569,96.4772],[123.6739,-10.1524,51.308],[123.6828,-10.1513,52.7406],[123.6796,-10.1483,45.8815],[123.6831,-10.1399,31.11],[123.6784,-10.1387,20.3525],[123.6788,-10.1371,15.6441],[123.6762,-10.1357,12.9376],[123.6727,-10.1297,6.7712],[123.6696,-10.1301,2.9354],[123.6662,-10.1334,2.5646],[123.6584,-10.1343,0.0],[123.6537,-10.1419,0.6193],[123.6494,-10.1454,2.5686],[123.6329,-10.1434,3.9142],[123.6293,-10.1405,0.1837],[123.6247,-10.14,2.5758]]]]}}