{"type":"Feature","properties":{"GID_3":"IDN.31.10.4_1","GID_0":"IDN","country":"Indonesia","GID_1":"IDN.31_1","province":"SumateraSelatan","NL_NAME_1":"NA","GID_2":"IDN.31.10_1","county":"OganKomeringUluSelatan","NL_NAME_2":"NA","city":"BuayPematangRibuRanau","VARNAME_3":"NA","NL_NAME_3":"NA","TYPE_3":"Kecamatan","ENGTYPE_3":"Sub-district","CC_3":"1608022","HASC_3":"NA","name":"Buay_Pematang_Ribu_Ranau.city"},
"geometry":{"type": "MultiPolygon","coordinates": [[[[104.0042,-4.8465,541.0],[104.0137,-4.8584,541.0],[104.0168,-4.8572,550.6031],[104.0241,-4.8462,708.5677],[104.0278,-4.8455,721.3561],[104.0315,-4.8475,731.9104],[104.0345,-4.8472,741.2516],[104.0606,-4.8331,1123.4639],[104.0656,-4.8331,1125.4614],[104.0719,-4.8421,1163.9775],[104.0943,-4.8271,1102.1196],[104.1013,-4.8198,1034.2256],[104.1347,-4.8037,684.2642],[104.1411,-4.7984,728.9553],[104.1421,-4.7947,709.637],[104.139,-4.778,604.2939],[104.138,-4.7487,498.0899],[104.0958,-4.7282,393.2606],[104.0916,-4.7168,439.3812],[104.0906,-4.7058,416.1585],[104.0887,-4.7085,417.8874],[104.0779,-4.711,440.7234],[104.0275,-4.7093,430.2095],[104.0091,-4.7066,399.214],[104.008,-4.7153,457.2524],[104.0105,-4.7275,485.0883],[104.0101,-4.7344,493.6114],[104.008,-4.7372,485.6064],[104.0056,-4.7376,495.7632],[104.0072,-4.74,482.3672],[104.0032,-4.7445,629.0956],[104.006,-4.7514,747.1299],[104.0068,-4.7647,622.689],[104.0007,-4.7712,667.0262],[103.9959,-4.7716,689.2053],[103.9894,-4.7789,678.6583],[103.9781,-4.7829,716.8345],[103.9753,-4.7918,680.4704],[103.9728,-4.7947,673.5283],[103.968,-4.7943,679.1626],[103.9595,-4.8007,679.6006],[103.9587,-4.8032,668.8692],[103.9631,-4.8125,603.5654],[103.9704,-4.8153,638.0416],[103.9716,-4.8218,571.561],[103.9769,-4.8246,541.0],[103.9797,-4.8287,541.0],[103.9846,-4.8303,541.0],[103.9854,-4.84,541.0],[103.9922,-4.8388,598.293],[103.9951,-4.842,541.0],[104.0032,-4.8449,541.0],[104.0042,-4.8465,541.0]]],
[[[103.9608,-4.7952,691.5616],[103.9595,-4.7876,699.1487],[103.9535,-4.7902,679.9951],[103.9555,-4.7974,682.5732],[103.9576,-4.7976,683.4496],[103.9608,-4.7952,691.5616]]]]}}