{"type":"Feature","properties":{"GID_3":"IDN.31.10.12_1","GID_0":"IDN","country":"Indonesia","GID_1":"IDN.31_1","province":"SumateraSelatan","NL_NAME_1":"NA","GID_2":"IDN.31.10_1","county":"OganKomeringUluSelatan","NL_NAME_2":"NA","city":"Muaradua","VARNAME_3":"NA","NL_NAME_3":"NA","TYPE_3":"Kecamatan","ENGTYPE_3":"Sub-district","CC_3":"1608050","HASC_3":"NA","name":"Muaradua.city"},
"geometry":{"type": "MultiPolygon","coordinates": [[[[104.007,-4.6056,227.4189],[104.0126,-4.5762,180.3928],[104.0182,-4.5656,140.6151],[104.0265,-4.5595,133.2475],[104.0444,-4.5561,138.8506],[104.0584,-4.5561,141.6048],[104.0684,-4.5645,182.4904],[104.074,-4.5757,189.23],[104.0824,-4.641,263.2755],[104.0925,-4.6427,303.1281],[104.0975,-4.6388,268.1253],[104.1036,-4.6304,272.0878],[104.1031,-4.6181,194.2218],[104.1087,-4.6097,202.2722],[104.1137,-4.598,197.4907],[104.1187,-4.5628,177.066],[104.1165,-4.5556,168.1638],[104.1171,-4.5358,195.4741],[104.1132,-4.534,172.3294],[104.1075,-4.5238,165.9597],[104.1024,-4.5085,161.8943],[104.1024,-4.4915,145.9519],[104.1126,-4.4706,269.5211],[104.1235,-4.4417,363.645],[104.1198,-4.4319,225.9584],[104.1155,-4.4267,261.8203],[104.1089,-4.4255,353.7016],[104.0986,-4.4374,553.1299],[104.0631,-4.4461,364.2339],[104.0451,-4.4584,280.6154],[104.0271,-4.4554,207.9787],[104.0124,-4.4459,278.8682],[104.0092,-4.4533,349.9652],[104.007,-4.4673,318.1621],[104.0081,-4.4773,236.6576],[104.0109,-4.4846,267.2777],[104.0075,-4.4941,221.5392],[104.0003,-4.4997,255.4762],[103.9992,-4.5092,180.6644],[104.002,-4.517,202.7507],[104.0148,-4.5276,194.6189],[104.0204,-4.5377,186.6272],[104.0204,-4.541,189.3898],[103.9735,-4.5433,147.958],[103.969,-4.5477,191.4668],[103.9679,-4.5567,210.31],[103.9718,-4.5729,162.2767],[103.9729,-4.5991,163.6797],[103.9796,-4.6511,252.3027],[103.9818,-4.6656,482.7126],[103.9846,-4.6706,484.3139],[104.0031,-4.6712,306.7211],[104.0053,-4.6639,304.4752],[104.0042,-4.6449,234.1122],[104.007,-4.6056,227.4189]]]]}}