{"type":"Feature","properties":{"GID_3":"IDN.31.10.13_1","GID_0":"IDN","country":"Indonesia","GID_1":"IDN.31_1","province":"SumateraSelatan","NL_NAME_1":"NA","GID_2":"IDN.31.10_1","county":"OganKomeringUluSelatan","NL_NAME_2":"NA","city":"PulauBeringin","VARNAME_3":"NA","NL_NAME_3":"NA","TYPE_3":"Kecamatan","ENGTYPE_3":"Sub-district","CC_3":"1608100","HASC_3":"NA","name":"Pulau_Beringin.city"},
"geometry":{"type": "MultiPolygon","coordinates": [[[[103.6448,-4.591,1002.3501],[103.6522,-4.5887,743.0286],[103.6674,-4.5799,868.1299],[103.6761,-4.5726,656.5381],[103.6789,-4.5661,621.2408],[103.6821,-4.5638,763.1949],[103.7083,-4.5648,842.0283],[103.7175,-4.5611,762.6419],[103.7299,-4.5445,506.2682],[103.7391,-4.5381,497.6957],[103.7519,-4.5321,492.1754],[103.762,-4.5239,453.5591],[103.7643,-4.5188,442.1899],[103.7597,-4.5128,470.3127],[103.7588,-4.5046,519.7879],[103.7433,-4.4716,753.8699],[103.7311,-4.4615,818.9207],[103.727,-4.4511,996.0157],[103.713,-4.4362,1136.2402],[103.7026,-4.4331,1262.9373],[103.6805,-4.4376,1437.6844],[103.671,-4.4285,1685.2494],[103.6628,-4.4145,1408.375],[103.6511,-4.4032,1158.0039],[103.6463,-4.4025,1285.4148],[103.6268,-4.4048,1749.0397],[103.6202,-4.4386,1501.9177],[103.6134,-4.4502,1262.7196],[103.6006,-4.4588,1259.4426],[103.5895,-4.4698,1148.0928],[103.5865,-4.479,1045.6516],[103.5883,-4.5121,1139.3394],[103.5867,-4.5263,795.4134],[103.5926,-4.5228,1026.9675],[103.6053,-4.5295,1110.3151],[103.6149,-4.5305,1146.043],[103.6219,-4.5388,1151.9141],[103.6304,-4.5541,1080.5291],[103.6301,-4.5562,1100.1089],[103.6243,-4.5565,1191.7173],[103.6191,-4.5708,1091.7413],[103.6074,-4.5789,1290.0581],[103.6073,-4.5837,1247.8357],[103.5982,-4.5894,1241.4717],[103.5966,-4.595,1321.0286],[103.6137,-4.5973,1325.1927],[103.6229,-4.5933,1375.4275],[103.628,-4.5949,1356.3402],[103.6396,-4.5949,1135.3881],[103.6448,-4.591,1002.3501]]]]}}