{"type":"Feature","properties":{"GID_3":"IDN.31.10.16_1","GID_0":"IDN","country":"Indonesia","GID_1":"IDN.31_1","province":"SumateraSelatan","NL_NAME_1":"NA","GID_2":"IDN.31.10_1","county":"OganKomeringUluSelatan","NL_NAME_2":"NA","city":"SindangDanau","VARNAME_3":"NA","NL_NAME_3":"NA","TYPE_3":"Kecamatan","ENGTYPE_3":"Sub-district","CC_3":"1608101","HASC_3":"NA","name":"Sindang_Danau.city"},
"geometry":{"type": "MultiPolygon","coordinates": [[[[103.607,-4.584,1247.8357],[103.6073,-4.5837,1247.8357],[103.6069,-4.5839,1247.8357],[103.607,-4.584,1247.8357]]],
[[[103.5881,-4.5079,1057.2588],[103.5865,-4.479,1045.6516],[103.5895,-4.4698,1148.0928],[103.6006,-4.4588,1259.4426],[103.6134,-4.4502,1262.7196],[103.6202,-4.4386,1501.9177],[103.6274,-4.3973,1563.3347],[103.6223,-4.3836,1746.9585],[103.5987,-4.3622,1775.1705],[103.5853,-4.3552,1927.9468],[103.5568,-4.3539,1905.4495],[103.5566,-4.3555,1937.9591],[103.5537,-4.3567,1943.0022],[103.5491,-4.3682,1940.5891],[103.5448,-4.3715,1988.9861],[103.5301,-4.3675,2075.8376],[103.521,-4.3759,2334.4377],[103.5172,-4.3766,2366.0942],[103.5031,-4.3627,2325.4116],[103.4855,-4.36,2486.4834],[103.4741,-4.3567,2354.1914],[103.4681,-4.3528,2220.4526],[103.4668,-4.3556,2407.707],[103.4648,-4.3854,1574.0643],[103.4725,-4.4141,967.6653],[103.4804,-4.4313,846.8744],[103.4908,-4.4474,801.5289],[103.4998,-4.4575,824.642],[103.5035,-4.459,841.7083],[103.5155,-4.456,960.4109],[103.5189,-4.4571,937.4434],[103.5245,-4.4646,753.2502],[103.5338,-4.4657,972.6413],[103.5372,-4.471,936.1486],[103.5372,-4.4848,829.845],[103.5451,-4.4886,833.5393],[103.5507,-4.5039,750.3357],[103.55029999999999,-4.5114,770.3228],[103.5481,-4.5159,663.5348],[103.5439,-4.5181,810.2384],[103.5338,-4.5159,758.4587],[103.5129,-4.5073,799.1709],[103.5069,-4.5073,745.0989],[103.4976,-4.5118,808.9951],[103.4875,-4.5334,936.7786],[103.4858,-4.5512,1082.027],[103.4709,-4.5553,899.672],[103.4621,-4.5559,930.153],[103.4712,-4.5647,1019.8039],[103.4733,-4.5714,1086.6809],[103.4848,-4.5791,1189.3047],[103.4988,-4.5751,1555.2958],[103.5024,-4.5764,1540.0696],[103.5204,-4.5739,1560.9606],[103.5369,-4.564,1255.6689],[103.5446,-4.5541,1128.2231],[103.5721,-4.5536,928.65],[103.581,-4.5499,1104.475],[103.5865,-4.5287,836.8866],[103.5881,-4.5079,1057.2588]]]]}}