{"type":"Feature","properties":{"GID_3":"IDN.34.10.1_1","GID_0":"IDN","country":"Indonesia","GID_1":"IDN.34_1","province":"KalimantanTimur","NL_NAME_1":"NA","GID_2":"IDN.34.10_1","county":"Paser","NL_NAME_2":"NA","city":"BatuEngau","VARNAME_3":"NA","NL_NAME_3":"NA","TYPE_3":"Kecamatan","ENGTYPE_3":"Sub-district","CC_3":"6401021","HASC_3":"NA","name":"Batu_Engau.city"},
"geometry":{"type": "MultiPolygon","coordinates": [[[[116.0763,-2.3169,36.3962],[116.186,-2.321,33.3524],[116.2514,-2.3168,31.8282],[116.2637,-2.3223,32.1555],[116.3204,-2.3414,23.4623],[116.3743,-2.355,37.2052],[116.4083,-2.3616,26.6584],[116.4136,-2.3437,27.7098],[116.4113,-2.2962,32.4045],[116.4163,-2.2605,7.1569],[116.4232,-2.2458,10.5382],[116.4338,-2.2336,12.0438],[116.4186,-2.2248,5.3316],[116.414,-2.2193,4.9782],[116.4064,-2.2147,8.3343],[116.4022,-2.2101,1.0],[116.4006,-2.205,1.0],[116.3846,-2.1878,4.3802],[116.3854,-2.1723,1.5365],[116.3901,-2.1668,1.0],[116.393,-2.1454,1.0],[116.3893,-2.1135,0.5],[116.3697,-2.1127,1.0],[116.3548,-2.1181,1.0],[116.3424,-2.0895,1.5],[116.3441,-2.0727,2.234],[116.3369,-2.0567,1.5],[116.3244,-2.0466,2.031],[116.3013,-2.0444,5.6385],[116.2818,-2.0461,5.1403],[116.2702,-2.0539,2.5],[116.2597,-2.0646,2.5],[116.239,-2.0607,1.9889],[116.1681,-2.0378,3.2944],[116.1618,-2.0386,7.2958],[116.1518,-2.0365,5.6892],[116.1189,-2.0226,31.0047],[116.1133,-2.0217,24.7731],[116.107,-2.0168,54.242],[116.0881,-2.0106,27.9763],[116.0697,-2.0097,70.3586],[116.0568,-2.0112,72.0064],[116.0367,-2.0183,140.9995],[116.0177,-2.0228,208.3812],[116.0132,-2.0281,181.6758],[116.0074,-2.044,121.143],[116.0036,-2.0779,167.9987],[116.0052,-2.0867,148.4738],[115.9996,-2.0976,157.4698],[115.9923,-2.122,133.1648],[115.9869,-2.1325,155.2198],[115.9841,-2.1467,131.6843],[115.9553,-2.1582,161.6669],[115.9513,-2.1647,172.0486],[115.9499,-2.1812,187.4006],[115.9521,-2.1908,193.0765],[115.9491,-2.1949,183.5007],[115.9508,-2.2129,230.8512],[115.941,-2.2183,190.532],[115.9326,-2.2193,199.7076],[115.9339,-2.2236,195.0759],[115.9326,-2.2273,194.2112],[115.9285,-2.2296,165.4166],[115.9324,-2.2358,197.4557],[115.9358,-2.2378,194.524],[115.9367,-2.2418,193.1008],[115.9323,-2.2521,219.5226],[115.9381,-2.2592,204.6999],[115.9376,-2.2645,270.3066],[115.9304,-2.2699,192.2429],[115.928,-2.2688,193.9002],[115.9241,-2.271,230.1307],[115.9207,-2.2845,314.7079],[115.9181,-2.2881,368.0297],[115.9139,-2.2903,503.0848],[115.9119,-2.2967,423.1389],[115.9147,-2.3006,477.7463],[115.9147,-2.307,382.7062],[115.9127,-2.3111,474.8552],[115.9069,-2.3121,467.6967],[115.9035,-2.3102,539.6786],[115.8981,-2.313,634.7666],[115.898,-2.3328,684.7686],[115.9111,-2.3362,654.9233],[115.9299,-2.3305,465.4148],[115.9419,-2.3288,253.8737],[115.9844,-2.3124,107.7757],[115.9927,-2.3175,77.3967],[115.9975,-2.3172,60.2236],[116.0078,-2.313,50.4911],[116.0176,-2.3148,47.7816],[116.0763,-2.3169,36.3962]]]]}}