{"type":"Feature","properties":{"GID_3":"IDN.32.29.16_1","GID_0":"IDN","country":"Indonesia","GID_1":"IDN.32_1","province":"SumateraUtara","NL_NAME_1":"NA","GID_2":"IDN.32.29_1","county":"Simalungun","NL_NAME_2":"NA","city":"JorlangHataran","VARNAME_3":"NA","NL_NAME_3":"NA","TYPE_3":"Kecamatan","ENGTYPE_3":"Sub-district","CC_3":"1209080","HASC_3":"NA","name":"Jorlang_Hataran.city"},
"geometry":{"type": "MultiPolygon","coordinates": [[[[98.9674,2.7539,1089.6831],[98.9742,2.7702,1009.1071],[99.0027,2.8095,807.3058],[99.0133,2.8179,745.2913],[99.0277,2.8229,696.615],[99.0521,2.8461,544.5695],[99.0999,2.8687,392.5546],[99.0981,2.8764,394.2144],[99.0885,2.8849,409.4912],[99.0839,2.8951,419.3768],[99.0648,2.8866,465.5784],[99.0366,2.8701,538.6606],[99.0291,2.8684,555.9001],[99.0197,2.8822,572.4078],[99.011,2.8716,606.2063],[99.0027,2.8575,622.5722],[98.9985,2.8458,677.3375],[98.9925,2.8368,727.4744],[98.9636,2.8181,851.4064],[98.9481,2.8027,943.6865],[98.9383,2.7904,1021.6172],[98.9306,2.7675,1088.0492],[98.9287,2.7565,1162.0527],[98.9434,2.7488,1216.2302],[98.9561,2.7347,1145.3691],[98.9637,2.7447,1079.9496],[98.9674,2.7539,1089.6831]]]]}}