{"type":"Feature","properties":{"GID_3":"IDN.23.2.11_1","GID_0":"IDN","country":"Indonesia","GID_1":"IDN.23_1","province":"Papua","NL_NAME_1":"NA","GID_2":"IDN.23.2_1","county":"BiakNumfor","NL_NAME_2":"NA","city":"Oridek","VARNAME_3":"NA","NL_NAME_3":"NA","TYPE_3":"Distrik","ENGTYPE_3":"District","CC_3":"9409041","HASC_3":"NA","name":"Oridek.city"},
"geometry":{"type": "MultiPolygon","coordinates": [[[[136.253,-1.1422,24.9225],[136.2585,-1.1626,23.3027],[136.2641,-1.16,2.6576],[136.2686,-1.1606,2.7009],[136.2747,-1.1585,0.0],[136.2823,-1.1503,2.9784],[136.2939,-1.1474,0.0],[136.3028,-1.1425,13.8904],[136.3141,-1.1408,11.6965],[136.3264,-1.1335,2.2303],[136.3334,-1.1265,0.0],[136.3546,-1.1111,2.2226],[136.3586,-1.0974,6.9365],[136.3655,-1.0916,1.3202],[136.3706,-1.0895,15.2817],[136.3789,-1.0903,0.0],[136.3814,-1.089,9.1776],[136.3872,-1.0793,0.0],[136.3863,-1.0733,0.0],[136.3835,-1.071,0.0],[136.3604,-1.0634,19.2961],[136.3543,-1.0666,25.6508],[136.3451,-1.0662,0.0],[136.3316,-1.0761,10.7721],[136.3237,-1.0741,7.0855],[136.3112,-1.0606,7.0875],[136.3028,-1.06,36.0391],[136.2963,-1.055,4.3716],[136.2924,-1.046,7.6268],[136.2911,-1.0312,8.1323],[136.2758,-1.0215,35.0025],[136.2684,-1.0219,44.2621],[136.2574,-1.0175,6.7924],[136.2545,-1.0178,13.8182],[136.2482,-1.0259,7.435],[136.237,-1.0295,7.9351],[136.2212,-1.0291,5.2994],[136.2076,-1.0317,44.997],[136.199,-1.0375,35.4382],[136.1948,-1.0424,0.0],[136.2,-1.0468,167.1574],[136.2046,-1.0538,116.0252],[136.2054,-1.0603,112.2132],[136.2094,-1.0621,110.2549],[136.209,-1.081,79.1521],[136.2171,-1.0912,76.6733],[136.2185,-1.0884,66.6602],[136.2283,-1.0836,58.0367],[136.2348,-1.0827,59.0355],[136.244,-1.1171,45.23],[136.2462,-1.1191,46.2226],[136.2523,-1.1329,21.6588],[136.253,-1.1422,24.9225]]]]}}