{"type":"Feature","properties":{"GID_3":"IDN.23.18.13_1","GID_0":"IDN","country":"Indonesia","GID_1":"IDN.23_1","province":"Papua","NL_NAME_1":"NA","GID_2":"IDN.23.18_1","county":"Nabire","NL_NAME_2":"NA","city":"Yaro","VARNAME_3":"NA","NL_NAME_3":"NA","TYPE_3":"Distrik","ENGTYPE_3":"District","CC_3":"9404110","HASC_3":"NA","name":"Yaro.city"},
"geometry":{"type": "MultiPolygon","coordinates": [[[[135.5902,-3.9258,2895.9949],[135.5988,-3.9165,2593.6587],[135.6002,-3.9072,2367.8154],[135.6225,-3.9036,2743.7651],[135.631,-3.8979,2759.6765],[135.6562,-3.8874,3067.3223],[135.648,-3.8778,3165.959],[135.6263,-3.8634,2630.7544],[135.6193,-3.8555,2446.614],[135.6213,-3.8382,1638.097],[135.6213,-3.816,1323.5334],[135.6186,-3.8021,1102.4071],[135.6211,-3.7882,945.5742],[135.6241,-3.7842,854.3898],[135.6207,-3.7826,832.7837],[135.6158,-3.7717,756.7255],[135.6135,-3.7711,735.6785],[135.6121,-3.7677,710.5372],[135.6073,-3.7686,713.7804],[135.6037,-3.7655,679.7747],[135.6031,-3.7634,657.6497],[135.606,-3.7597,651.4576],[135.6009,-3.7511,622.7171],[135.6016,-3.7468,615.8896],[135.5885,-3.7335,499.3987],[135.5889,-3.7278,485.7319],[135.5827,-3.7266,454.6611],[135.5719,-3.7292,425.7377],[135.568,-3.7262,433.9449],[135.5627,-3.7286,410.1996],[135.5555,-3.7259,394.6175],[135.5458,-3.7188,371.9919],[135.5403,-3.7121,348.6873],[135.5324,-3.7125,346.178],[135.5274,-3.7146,331.6653],[135.517,-3.7142,316.9885],[135.507,-3.7131,303.5003],[135.4971,-3.7093,346.3302],[135.4878,-3.7122,271.1089],[135.4863,-3.7109,304.1673],[135.4794,-3.7119,270.8111],[135.4782,-3.7078,278.0471],[135.4795,-3.705,291.5097],[135.467,-3.7065,243.4948],[135.4571,-3.7018,227.0963],[135.4561,-3.7034,259.4167],[135.4533,-3.7027,283.9467],[135.4519,-3.7079,199.1764],[135.4508,-3.7077,199.1764],[135.4491,-3.704,233.7549],[135.4466,-3.7044,218.4768],[135.4447,-3.7002,206.491],[135.443,-3.6993,232.924],[135.4398,-3.7009,185.3927],[135.4338,-3.6987,177.4592],[135.4357,-3.6928,207.5016],[135.4236,-3.6911,217.1364],[135.4166,-3.6871,207.88],[135.4148,-3.6831,231.5774],[135.4093,-3.679,246.6547],[135.4086,-3.6744,329.7001],[135.4118,-3.6691,159.1049],[135.405,-3.6635,133.2752],[135.4034,-3.656,130.3276],[135.4047,-3.6518,142.3977],[135.4002,-3.6472,185.1967],[135.4013,-3.6416,180.3604],[135.3977,-3.64,144.2774],[135.3883,-3.6277,88.9595],[135.3945,-3.6106,95.0528],[135.3982,-3.6074,93.1409],[135.4006,-3.6021,76.3623],[135.4012,-3.5968,96.2853],[135.3992,-3.5903,69.7593],[135.3955,-3.5876,68.6282],[135.3922,-3.5822,69.3484],[135.3925,-3.5743,67.81],[135.388,-3.5637,58.2348],[135.3844,-3.5601,53.7726],[135.3758,-3.5581,50.0127],[135.3749,-3.5567,49.4692],[135.3798,-3.5511,60.4373],[135.3811,-3.5469,48.5746],[135.3803,-3.5331,46.6662],[135.3756,-3.5168,36.6311],[135.3757,-3.5087,35.0343],[135.3698,-3.5059,31.4057],[135.365,-3.4905,30.2181],[135.3578,-3.4784,33.2324],[135.3519,-3.4765,21.1244],[135.344,-3.4784,22.8878],[135.3431,-3.4717,20.5815],[135.334,-3.4666,17.5056],[135.3283,-3.4584,10.375],[135.3217,-3.4565,15.825],[135.3221,-3.4495,10.2054],[135.3145,-3.4328,8.1925],[135.3153,-3.4303,7.1411],[135.3204,-3.4291,6.4983],[135.3213,-3.4264,4.9921],[135.3188,-3.4223,7.3347],[135.3213,-3.4184,23.2843],[135.3272,-3.4157,11.3536],[135.3285,-3.4135,5.5604],[135.3254,-3.4046,16.0864],[135.3334,-3.404,11.7358],[135.3395,-3.3955,0.0],[135.3287,-3.3954,6.706],[135.3252,-3.3932,5.16],[135.3254,-3.3903,0.4517],[135.3115,-3.3866,2.5019],[135.2906,-3.3846,11.4108],[135.2852,-3.3857,19.9377],[135.2852,-3.3844,1.4394],[135.2355,-3.3754,8.1248],[135.2195,-3.3771,3.0732],[135.2182,-3.3821,1.6834],[135.2215,-3.3838,7.563],[135.2172,-3.3856,8.3411],[135.2204,-3.3875,12.0655],[135.2151,-3.3895,21.5638],[135.2026,-3.3899,20.1682],[135.1653,-3.3792,10.3868],[135.1525,-3.3783,21.5996],[135.1456,-3.3808,25.6753],[135.1414,-3.3843,23.0798],[135.1283,-3.3847,16.7777],[135.1262,-3.4075,50.2635],[135.1024,-3.4201,50.59],[135.0828,-3.4279,54.9959],[135.0742,-3.4279,152.1292],[135.0624,-3.4239,117.183],[135.0326,-3.3833,156.7312],[135.0148,-3.3988,186.3777],[135.0024,-3.4127,333.4851],[135.0016,-3.4599,516.4647],[135.0055,-3.4823,388.3549],[135.0094,-3.4939,711.1084],[135.0071,-3.5194,776.5825],[135.004,-3.5303,1013.1041],[134.99,-3.5519,697.5079],[134.9808,-3.5612,628.8531],[134.9686,-3.5643,317.4609],[134.983,-3.656,88.6343],[135.0445,-3.6754,177.1767],[135.1173,-3.7031,137.8038],[135.1636,-3.7268,300.914],[135.258,-3.7519,1408.8274],[135.2028,-3.8199,1038.0864],[135.282,-3.8398,758.7158],[135.3773,-3.8663,1591.4296],[135.3988,-3.8671,1249.2577],[135.4067,-3.862,923.0986],[135.439,-3.8678,1786.0239],[135.4476,-3.8656,1794.0779],[135.4619,-3.8671,1587.7988],[135.4877,-3.8821,2117.7737],[135.5114,-3.9,2236.8687],[135.5243,-3.9079,2128.6511],[135.5479,-3.9323,2915.8652],[135.5594,-3.9351,2913.2698],[135.5794,-3.9344,2942.085],[135.5902,-3.9258,2895.9949]]]]}}