{"type":"Feature","properties":{"GID_3":"IDN.9.7.3_1","GID_0":"IDN","country":"Indonesia","GID_1":"IDN.9_1","province":"JawaBarat","NL_NAME_1":"NA","GID_2":"IDN.9.7_1","county":"Cianjur","NL_NAME_2":"NA","city":"CampakaMulya","VARNAME_3":"NA","NL_NAME_3":"NA","TYPE_3":"Kecamatan","ENGTYPE_3":"Sub-district","CC_3":"3203111","HASC_3":"NA","name":"Campaka_Mulya.city"},
"geometry":{"type": "MultiPolygon","coordinates": [[[[107.1917,-7.061,824.5259],[107.1899,-7.0618,815.8033],[107.1861,-7.0581,798.3776],[107.1849,-7.0594,798.3776],[107.1821,-7.0584,813.8121],[107.1843,-7.0527,804.0787],[107.1871,-7.0514,805.4688],[107.185,-7.048,798.0408],[107.1827,-7.0469,813.6564],[107.1817,-7.048,864.7098],[107.1818,-7.0458,813.4493],[107.1806,-7.0464,830.566],[107.1798,-7.0448,808.6147],[107.1795,-7.0462,808.6147],[107.1761,-7.0464,858.8715],[107.1686,-7.0452,832.3364],[107.1681,-7.043,852.7775],[107.1647,-7.043,877.9472],[107.1646,-7.0416,865.8516],[107.1606,-7.0406,898.8354],[107.161,-7.0362,944.5517],[107.1563,-7.0361,944.0143],[107.1534,-7.0349,973.1405],[107.1533,-7.0333,978.0504],[107.1515,-7.0351,975.2362],[107.151,-7.0404,981.0266],[107.1475,-7.0409,1011.1317],[107.1431,-7.0458,1038.0166],[107.1506,-7.0504,1170.5234],[107.1524,-7.0559,1150.8978],[107.1596,-7.0624,1172.8335],[107.1613,-7.0742,1190.6681],[107.1668,-7.0785,1044.5015],[107.1712,-7.0908,1061.1978],[107.1719,-7.0957,1101.8524],[107.1699,-7.0984,1155.3884],[107.1694,-7.1034,1211.7803],[107.1716,-7.1071,1221.0693],[107.1769,-7.1089,1239.762],[107.1902,-7.1105,1290.0752],[107.1975,-7.1076,1179.9276],[107.2132,-7.1076,1229.4395],[107.2248,-7.1008,1318.1589],[107.2347,-7.0981,1475.9712],[107.2475,-7.1017,1444.7291],[107.2501,-7.1007,1502.0554],[107.2515,-7.1031,1517.7668],[107.2538,-7.1027,1528.6179],[107.2578,-7.1051,1592.916],[107.2662,-7.1056,1657.605],[107.269,-7.104,1710.3649],[107.2715,-7.0983,1841.4598],[107.2733,-7.0972,1726.8884],[107.2779,-7.0986,1547.0178],[107.2795,-7.0955,1603.6671],[107.284,-7.0923,1643.9036],[107.2873,-7.092,1618.5232],[107.2912,-7.0881,1790.0576],[107.2883,-7.0849,1762.8384],[107.2853,-7.0848,1783.5352],[107.2833,-7.078,1686.9905],[107.2719,-7.0725,1434.8999],[107.2662,-7.0669,1337.8959],[107.2652,-7.0624,1266.1548],[107.2597,-7.0606,1207.0518],[107.2602,-7.0586,1198.2667],[107.2565,-7.0577,1188.9845],[107.2575,-7.0533,1142.999],[107.2542,-7.053,1164.4109],[107.2527,-7.0487,1115.4269],[107.2457,-7.0505,1080.7001],[107.2455,-7.0491,1076.2866],[107.2379,-7.0467,1038.3669],[107.2341,-7.0487,1003.8186],[107.2343,-7.0499,1051.1068],[107.2298,-7.0512,976.7139],[107.2293,-7.0494,990.4288],[107.2287,-7.0505,976.7139],[107.2246,-7.0491,957.8297],[107.2228,-7.0504,981.4976],[107.224,-7.0522,989.9141],[107.2224,-7.0529,962.5706],[107.2239,-7.0584,1011.7759],[107.2217,-7.0571,906.5081],[107.2173,-7.0583,925.6407],[107.2168,-7.0565,899.0712],[107.2131,-7.0562,894.6207],[107.2122,-7.0547,894.6207],[107.2101,-7.0563,906.6696],[107.2093,-7.054,867.2711],[107.2081,-7.0563,886.8015],[107.206,-7.0557,865.0817],[107.2044,-7.0571,846.0861],[107.2031,-7.0541,871.3397],[107.2023,-7.0565,847.4339],[107.1992,-7.0566,833.9553],[107.1985,-7.0588,846.3164],[107.1955,-7.0577,834.2859],[107.1955,-7.0589,828.8954],[107.191,-7.0588,825.476],[107.1917,-7.061,824.5259]]]]}}