{"type":"Feature","properties":{"GID_3":"IDN.17.1.8_1","GID_0":"IDN","country":"Indonesia","GID_1":"IDN.17_1","province":"Lampung","NL_NAME_1":"NA","GID_2":"IDN.17.1_1","county":"BandarLampung","NL_NAME_2":"NA","city":"TanjungKarangPusat","VARNAME_3":"NA","NL_NAME_3":"NA","TYPE_3":"Kecamatan","ENGTYPE_3":"Sub-district","CC_3":"1871060","HASC_3":"NA","name":"Tanjung_Karang_Pusat.city"},
"geometry":{"type": "MultiPolygon","coordinates": [[[[105.259,-5.4269,108.3175],[105.2626,-5.4256,112.573],[105.2614,-5.4144,98.2752],[105.2625,-5.4136,98.2752],[105.2597,-5.4116,97.9428],[105.2613,-5.4065,96.1687],[105.2588,-5.4059,98.0557],[105.2629,-5.3991,99.3375],[105.2539,-5.3983,116.2068],[105.251,-5.4008,156.6172],[105.2542,-5.4022,134.1692],[105.2531,-5.4048,121.5479],[105.2548,-5.4054,116.5107],[105.2538,-5.4073,105.5293],[105.2558,-5.4096,107.9358],[105.2492,-5.4105,112.8591],[105.2443,-5.4096,123.1386],[105.2418,-5.4065,136.5471],[105.2394,-5.4077,139.8624],[105.2381,-5.4114,184.4056],[105.2406,-5.4163,200.7667],[105.2405,-5.4253,169.5389],[105.2514,-5.4249,119.1347],[105.2515,-5.428,82.9266],[105.259,-5.4269,108.3175]]]]}}