{"type":"Feature","properties":{"GID_3":"IDN.9.4.6_1","GID_0":"IDN","country":"Indonesia","GID_1":"IDN.9_1","province":"JawaBarat","NL_NAME_1":"NA","GID_2":"IDN.9.4_1","county":"Bekasi","NL_NAME_2":"NA","city":"CikarangBarat","VARNAME_3":"NA","NL_NAME_3":"NA","TYPE_3":"Kecamatan","ENGTYPE_3":"Sub-district","CC_3":"3216071","HASC_3":"NA","name":"Cikarang_Barat.city"},
"geometry":{"type": "MultiPolygon","coordinates": [[[[107.1029,-6.3305,31.298],[107.103,-6.3271,32.2707],[107.1055,-6.325,30.6448],[107.1073,-6.326,30.8331],[107.1055,-6.3231,29.9421],[107.11,-6.3242,36.3937],[107.1077,-6.3195,40.6036],[107.1115,-6.3204,35.5731],[107.1126,-6.3188,28.5682],[107.1099,-6.3184,28.528],[107.1161,-6.3171,27.8928],[107.1152,-6.3139,26.8221],[107.1114,-6.3127,40.3739],[107.1119,-6.3103,36.3736],[107.1153,-6.3111,29.6992],[107.118,-6.3096,30.2359],[107.1161,-6.307,27.4036],[107.117,-6.306,30.6185],[107.1112,-6.3036,25.4624],[107.1151,-6.3006,26.079],[107.1143,-6.2983,25.01],[107.117,-6.2969,26.2764],[107.1162,-6.2934,28.6717],[107.1193,-6.2901,25.1881],[107.1197,-6.2849,40.09],[107.1178,-6.2797,34.0726],[107.119,-6.2776,28.3086],[107.1164,-6.2777,24.504],[107.1195,-6.2746,25.1202],[107.1229,-6.276,22.4061],[107.1248,-6.2731,21.8942],[107.1282,-6.2732,22.6403],[107.1299,-6.2697,20.5525],[107.1329,-6.2693,19.295],[107.1329,-6.268,19.295],[107.137,-6.268,20.9316],[107.1371,-6.2653,20.1662],[107.1421,-6.2593,18.8282],[107.1426,-6.2568,18.4648],[107.1409,-6.2566,19.1811],[107.1426,-6.2536,17.4305],[107.1418,-6.2512,17.7312],[107.1433,-6.2519,17.9807],[107.1457,-6.2498,18.9503],[107.1298,-6.2428,16.0729],[107.1291,-6.2474,16.2421],[107.1184,-6.2471,15.7481],[107.117,-6.2529,15.5137],[107.1078,-6.2501,15.512],[107.1058,-6.2533,15.9512],[107.1056,-6.2583,19.0312],[107.0852,-6.2616,16.949],[107.0856,-6.2661,15.5875],[107.081,-6.2703,19.3871],[107.0808,-6.2723,19.0506],[107.0831,-6.2738,23.6855],[107.0812,-6.2758,23.9993],[107.0794,-6.2845,22.3695],[107.0743,-6.2829,23.8389],[107.0729,-6.2836,28.3436],[107.0732,-6.2875,27.334],[107.0704,-6.2871,28.4876],[107.0692,-6.2942,31.4643],[107.0704,-6.297,32.7131],[107.068,-6.3004,33.8447],[107.0703,-6.3026,28.9823],[107.0685,-6.3037,30.4121],[107.0696,-6.3063,33.2153],[107.0584,-6.3062,32.7137],[107.0563,-6.3135,32.1017],[107.0614,-6.315,38.7209],[107.0602,-6.3186,41.6446],[107.0451,-6.3359,44.8449],[107.0406,-6.3375,42.9152],[107.0419,-6.3403,41.6371],[107.0461,-6.3419,37.5686],[107.0518,-6.3429,40.9804],[107.0524,-6.3406,40.0497],[107.0604,-6.3422,40.1927],[107.0644,-6.335,37.4068],[107.0676,-6.3329,36.8509],[107.0696,-6.3389,46.9276],[107.0765,-6.3395,39.4674],[107.0764,-6.3471,31.3336],[107.0789,-6.3469,32.3556],[107.0839,-6.342,45.1529],[107.0855,-6.3449,32.6417],[107.0857,-6.3414,30.9153],[107.0899,-6.3422,29.6697],[107.089,-6.3406,30.6383],[107.0907,-6.3409,29.9174],[107.0911,-6.3383,30.5154],[107.0929,-6.3387,29.9301],[107.0921,-6.3363,42.1675],[107.0952,-6.3356,28.8484],[107.0957,-6.3341,33.3069],[107.0973,-6.3354,29.3793],[107.1003,-6.3322,39.4341],[107.1024,-6.3329,28.9431],[107.1029,-6.3305,31.298]]]]}}