{"type":"Feature","properties":{"GID_3":"IDN.9.14.28_1","GID_0":"IDN","country":"Indonesia","GID_1":"IDN.9_1","province":"JawaBarat","NL_NAME_1":"NA","GID_2":"IDN.9.14_1","county":"KotaBandung","NL_NAME_2":"NA","city":"Sukasari","VARNAME_3":"NA","NL_NAME_3":"NA","TYPE_3":"Kecamatan","ENGTYPE_3":"Sub-district","CC_3":"3273250","HASC_3":"NA","name":"Sukasari.city"},
"geometry":{"type": "MultiPolygon","coordinates": [[[[107.5715,-6.8821,788.7338],[107.5718,-6.8837,776.778],[107.5898,-6.8783,811.2044],[107.5983,-6.8792,821.0311],[107.5935,-6.87,867.7333],[107.5944,-6.8638,903.1916],[107.5962,-6.8623,920.175],[107.5947,-6.8604,923.061],[107.5972,-6.849,1007.0389],[107.5985,-6.8491,1009.8995],[107.6003,-6.8442,1051.5598],[107.5969,-6.8425,1064.2502],[107.5978,-6.837,1062.7004],[107.5921,-6.8479,992.6837],[107.5895,-6.8499,965.1616],[107.5904,-6.8531,936.6971],[107.5887,-6.8537,937.1873],[107.5892,-6.8572,917.8454],[107.5767,-6.8656,850.2354],[107.5715,-6.8821,788.7338]]]]}}