{"type":"Feature","properties":{"GID_3":"IDN.11.5.1_1","GID_0":"IDN","country":"Indonesia","GID_1":"IDN.11_1","province":"JawaTimur","NL_NAME_1":"NA","GID_2":"IDN.11.5_1","county":"Bojonegoro","NL_NAME_2":"NA","city":"Balen","VARNAME_3":"NA","NL_NAME_3":"NA","TYPE_3":"Kecamatan","ENGTYPE_3":"Sub-district","CC_3":"3522130","HASC_3":"NA","name":"Balen.city"},
"geometry":{"type": "MultiPolygon","coordinates": [[[[111.9514,-7.24,31.5372],[111.955,-7.2405,34.4903],[111.9566,-7.2452,35.6321],[111.9641,-7.2492,35.4121],[111.965,-7.2415,34.0109],[111.9696,-7.2422,33.3681],[111.9735,-7.2406,24.789],[111.9757,-7.2463,35.4435],[111.9812,-7.2467,34.8181],[111.9863,-7.2423,31.251],[111.9888,-7.2365,29.9922],[111.9926,-7.2394,32.101],[112.0027,-7.2392,35.9402],[112.0054,-7.2347,31.2834],[112.0035,-7.2265,27.4266],[112.0004,-7.2256,25.7448],[111.9978,-7.2222,26.4117],[111.989,-7.2186,25.7032],[111.9916,-7.2079,21.2598],[111.9843,-7.2053,24.2109],[111.9848,-7.2023,22.7095],[111.9824,-7.2002,22.554],[111.9863,-7.1959,19.6037],[111.9863,-7.1934,19.1551],[111.9831,-7.1922,18.8637],[111.985,-7.1847,22.9087],[111.9943,-7.181,18.7209],[111.9913,-7.1692,18.1574],[111.9884,-7.1681,15.8668],[111.9894,-7.1655,15.4396],[111.9868,-7.1612,14.7065],[111.9876,-7.1583,13.8503],[111.9847,-7.1588,12.1176],[111.9827,-7.1549,13.3591],[111.9842,-7.1632,10.598],[111.9829,-7.1647,12.8429],[111.9788,-7.1646,14.9057],[111.9771,-7.1608,16.1213],[111.9797,-7.1506,12.4748],[111.9767,-7.1436,16.0856],[111.9697,-7.1378,12.9581],[111.9632,-7.1372,9.0],[111.9589,-7.1337,13.9153],[111.9536,-7.1321,10.1209],[111.9513,-7.1332,16.7571],[111.9446,-7.1517,14.9827],[111.9407,-7.1567,10.5147],[111.9485,-7.154,13.9825],[111.949,-7.1558,15.0763],[111.9449,-7.1572,16.6973],[111.9485,-7.1576,15.4413],[111.9484,-7.1593,15.5145],[111.9363,-7.1597,16.5152],[111.9355,-7.1613,16.7631],[111.9424,-7.1657,15.1986],[111.9398,-7.1677,19.3868],[111.936,-7.1637,18.788],[111.934,-7.166,18.9248],[111.9391,-7.1685,19.9554],[111.9398,-7.1747,21.7308],[111.9387,-7.1758,21.7308],[111.9431,-7.1771,19.1664],[111.9444,-7.1821,22.0893],[111.9417,-7.1836,19.7143],[111.9441,-7.1843,22.741],[111.9443,-7.1859,23.2271],[111.9425,-7.1855,23.2271],[111.9426,-7.1878,21.0624],[111.9407,-7.1877,21.4343],[111.9412,-7.1897,24.4803],[111.9388,-7.1908,24.0062],[111.9377,-7.1943,23.9547],[111.9365,-7.19,23.0854],[111.9363,-7.1942,23.9547],[111.9345,-7.1964,24.7614],[111.9365,-7.1998,24.1834],[111.933,-7.2015,27.2844],[111.9347,-7.2033,24.9361],[111.9321,-7.2033,25.6589],[111.9333,-7.2064,27.1068],[111.9302,-7.2081,26.4443],[111.9289,-7.2046,28.4124],[111.9287,-7.2063,28.2902],[111.9272,-7.2065,27.6377],[111.9313,-7.2102,29.5472],[111.9294,-7.2107,27.7269],[111.9297,-7.2139,29.7276],[111.9282,-7.2153,29.136],[111.9327,-7.2146,28.6948],[111.9336,-7.2197,30.8873],[111.9358,-7.217,29.7408],[111.9371,-7.2174,30.9853],[111.9359,-7.2222,31.5163],[111.9381,-7.2221,29.5984],[111.9371,-7.2211,32.9026],[111.9392,-7.2203,31.3228],[111.9406,-7.2171,31.394],[111.9423,-7.2176,29.1076],[111.9431,-7.2225,31.2393],[111.9394,-7.2245,29.1809],[111.9436,-7.2291,31.1424],[111.9386,-7.23,31.9569],[111.9386,-7.233,32.5093],[111.942,-7.2328,35.2755],[111.9401,-7.234,32.5093],[111.939,-7.2382,35.1062],[111.9514,-7.24,31.5372]]]]}}