{"type":"Feature","properties":{"GID_3":"IDN.5.1.2_1","GID_0":"IDN","country":"Indonesia","GID_1":"IDN.5_1","province":"Bengkulu","NL_NAME_1":"NA","GID_2":"IDN.5.1_1","county":"BengkuluSelatan","NL_NAME_2":"NA","city":"BungaMas","VARNAME_3":"NA","NL_NAME_3":"NA","TYPE_3":"Kecamatan","ENGTYPE_3":"Sub-district","CC_3":"1701043","HASC_3":"NA","name":"Bunga_Mas.city"},
"geometry":{"type": "MultiPolygon","coordinates": [[[[102.9663,-4.4866,11.9575],[102.9605,-4.4922,12.4121],[102.9605,-4.4957,12.2706],[102.956,-4.4948,8.1978],[102.9541,-4.4966,18.7216],[102.9508,-4.493,27.2746],[102.9548,-4.4857,7.7193],[102.9531,-4.4806,16.6022],[102.9513,-4.4832,5.4624],[102.9408,-4.484,7.3218],[102.9378,-4.501,0.0],[102.9869,-4.5137,0.6024],[103.0099,-4.5222,10.3422],[103.019,-4.5286,0.0],[103.0205,-4.5266,2.5685],[103.0181,-4.5234,12.3232],[103.0176,-4.5192,34.6892],[103.0223,-4.5156,32.6636],[103.022,-4.5083,37.1759],[103.025,-4.5062,27.249],[103.0239,-4.5029,75.9914],[103.0292,-4.5029,30.4472],[103.0312,-4.4961,68.3186],[103.0344,-4.4958,48.5605],[103.0378,-4.4833,49.4425],[103.0243,-4.4753,68.1294],[102.9954,-4.4713,89.9676],[102.9785,-4.4651,26.1856],[102.9781,-4.4682,28.5681],[102.9769,-4.4682,28.5681],[102.9714,-4.4632,25.6114],[102.9661,-4.4648,35.4198],[102.9665,-4.4693,15.3557],[102.9649,-4.4721,21.7734],[102.9698,-4.4722,16.3669],[102.9702,-4.4734,20.0207],[102.9681,-4.4776,31.2984],[102.9681,-4.4817,16.4868],[102.9653,-4.4851,13.0117],[102.9663,-4.4866,11.9575]]]]}}