{"type":"Feature","properties":{"GID_3":"IDN.10.1.5_1","GID_0":"IDN","country":"Indonesia","GID_1":"IDN.10_1","province":"JawaTengah","NL_NAME_1":"NA","GID_2":"IDN.10.1_1","county":"Banjarnegara","NL_NAME_2":"NA","city":"Kalibening","VARNAME_3":"NA","NL_NAME_3":"NA","TYPE_3":"Kecamatan","ENGTYPE_3":"Sub-district","CC_3":"3304180","HASC_3":"NA","name":"Kalibening.city"},
"geometry":{"type": "MultiPolygon","coordinates": [[[[109.6667,-7.2859,613.4397],[109.6683,-7.2866,585.8435],[109.6745,-7.278,706.5179],[109.6766,-7.2725,896.5631],[109.6688,-7.2642,741.8889],[109.6725,-7.2641,765.17],[109.6846,-7.2583,1004.304],[109.6946,-7.2515,1111.4116],[109.7056,-7.2523,1041.6857],[109.7077,-7.25,1057.6187],[109.713,-7.2491,1038.6031],[109.7107,-7.2418,1110.0472],[109.7074,-7.2395,1171.3931],[109.7063,-7.2329,1192.485],[109.7043,-7.2314,1155.1038],[109.7075,-7.1997,1809.4287],[109.7041,-7.1953,1865.1769],[109.6949,-7.1963,1668.2312],[109.6899,-7.1949,1625.9882],[109.6903,-7.1925,1584.4568],[109.6874,-7.1908,1585.8431],[109.6827,-7.184,1314.7814],[109.683,-7.1775,1429.9006],[109.6814,-7.1745,1360.4507],[109.683,-7.1733,1400.9226],[109.6761,-7.1725,1291.5709],[109.6708,-7.1777,1390.2137],[109.6638,-7.1785,1466.4573],[109.6521,-7.1752,1451.022],[109.648,-7.1721,1305.1298],[109.643,-7.1735,1386.1116],[109.6413,-7.1762,1379.4983],[109.6356,-7.1767,1296.3118],[109.6285,-7.1884,1097.5952],[109.625,-7.1891,1074.3573],[109.6234,-7.1976,1082.1831],[109.6162,-7.2014,1126.2731],[109.6103,-7.2112,1487.9514],[109.6164,-7.217,1464.6945],[109.6172,-7.2215,1432.0724],[109.625,-7.2199,1325.1582],[109.6292,-7.2267,1209.2932],[109.6262,-7.2284,1165.0498],[109.6239,-7.2459,912.5558],[109.617,-7.25,782.3173],[109.6225,-7.2635,1239.3143],[109.6262,-7.2658,1260.348],[109.6295,-7.2649,1180.6342],[109.6388,-7.2732,783.1241],[109.6454,-7.276,985.3727],[109.654,-7.29,932.0011],[109.6667,-7.2859,613.4397]]]]}}