{"type":"Feature","properties":{"GID_3":"IDN.23.15.6_1","GID_0":"IDN","country":"Indonesia","GID_1":"IDN.23_1","province":"Papua","NL_NAME_1":"NA","GID_2":"IDN.23.15_1","county":"Mappi","NL_NAME_2":"NA","city":"Minyamur","VARNAME_3":"NA","NL_NAME_3":"NA","TYPE_3":"Distrik","ENGTYPE_3":"District","CC_3":"9414011","HASC_3":"NA","name":"Minyamur.city"},
"geometry":{"type": "MultiPolygon","coordinates": [[[[139.0094,-6.6687,8.0008],[138.9999,-6.6635,7.0756],[138.9997,-6.6584,8.3345],[139.007,-6.6583,9.8819],[139.0134,-6.6559,3.1922],[139.0182,-6.6539,2.3955],[139.0226,-6.6496,2.923],[139.0202,-6.636,2.6093],[139.0234,-6.6344,1.8468],[139.031,-6.6384,2.678],[139.0389,-6.63,2.5817],[139.0437,-6.6311,2.1169],[139.0405,-6.6053,2.515],[139.0497,-6.5878,2.1954],[139.0481,-6.5818,2.3825],[139.0433,-6.5787,2.1994],[139.0325,-6.5755,2.6552],[139.0282,-6.5691,2.9811],[139.0278,-6.5623,3.0171],[139.0294,-6.5571,3.0087],[139.0274,-6.5512,2.9207],[139.0178,-6.5408,19.9228],[139.0174,-6.5221,14.5497],[139.0074,-6.5038,5.3904],[138.9752,-6.4647,17.1178],[138.9509,-6.44,13.926],[138.9381,-6.4213,11.7224],[138.9163,-6.4187,8.9678],[138.9109,-6.4296,5.0952],[138.9033,-6.433,17.0627],[138.887,-6.4464,7.3064],[138.882,-6.4534,8.042],[138.8761,-6.4568,8.2078],[138.8706,-6.4656,6.7784],[138.8622,-6.4706,13.8961],[138.8508,-6.4811,8.8646],[138.8406,-6.4822,4.6203],[138.8357,-6.4803,9.3062],[138.8277,-6.4801,9.8473],[138.819,-6.4815,6.7332],[138.8132,-6.4863,20.1883],[138.8114,-6.4859,21.1565],[138.8112,-6.4829,14.8957],[138.8086,-6.4802,14.2005],[138.7918,-6.4782,10.8921],[138.781,-6.4807,9.1777],[138.7683,-6.494,10.7962],[138.7607,-6.5048,12.2347],[138.7525,-6.5124,12.5167],[138.7455,-6.5149,8.481],[138.6999,-6.508,4.5245],[138.6822,-6.5143,13.0329],[138.672,-6.5207,21.0154],[138.6644,-6.546,13.2164],[138.6511,-6.553,6.5068],[138.6414,-6.5668,0.0],[138.6503,-6.5748,0.0],[138.661,-6.5739,2.5291],[138.6648,-6.5761,0.0],[138.6663,-6.5892,3.8056],[138.6713,-6.5927,5.2481],[138.6753,-6.6014,0.6802],[138.6804,-6.6065,0.0],[138.6838,-6.6083,0.0],[138.6936,-6.6096,0.0],[138.6962,-6.6205,0.0],[138.7075,-6.6257,0.0],[138.7294,-6.6396,0.0],[138.7383,-6.6407,0.0],[138.7465,-6.6472,0.0],[138.7632,-6.6563,0.0],[138.8019,-6.6751,0.0],[138.8069,-6.6796,0.0],[138.813,-6.689,0.0],[138.8222,-6.6938,0.0],[138.8262,-6.6942,15.3883],[138.8302,-6.6994,10.937],[138.8342,-6.701,1.9918],[138.8373,-6.6934,5.316],[138.8441,-6.6986,10.6002],[138.8473,-6.7037,3.7231],[138.8521,-6.7037,3.3737],[138.8565,-6.7006,10.5301],[138.8616,-6.7021,4.2985],[138.8585,-6.7069,3.4069],[138.8596,-6.7125,4.0264],[138.8648,-6.7173,6.381],[138.8724,-6.7177,13.0565],[138.8772,-6.7197,12.3218],[138.8784,-6.7253,14.9445],[138.8879,-6.7264,16.4321],[138.8939,-6.7348,14.955],[138.9043,-6.7356,8.054],[138.921,-6.7527,8.0805],[138.927,-6.7527,7.4813],[138.933,-6.7551,14.0706],[138.9473,-6.7547,10.2256],[138.9568,-6.75,11.5168],[138.9608,-6.7515,16.0606],[138.9684,-6.7488,14.4641],[138.9664,-6.7424,15.8777],[138.9704,-6.7428,14.5841],[138.9672,-6.7344,7.5923],[138.9692,-6.73,12.7997],[138.9672,-6.726,14.9591],[138.9632,-6.7237,7.4532],[138.9624,-6.7197,13.3013],[138.9656,-6.7177,9.9434],[138.966,-6.7201,7.7884],[138.9756,-6.7249,10.8417],[138.9836,-6.7249,12.4622],[138.9927,-6.7213,16.3751],[139.0019,-6.7241,10.3314],[139.0043,-6.7217,15.5995],[139.0035,-6.7181,14.1601],[138.9983,-6.7193,15.589],[138.9955,-6.7153,20.4012],[138.9939,-6.7097,9.4969],[138.9955,-6.7057,13.5601],[139.0035,-6.7077,12.7915],[139.007,-6.7049,12.0974],[139.0082,-6.6998,15.8207],[139.0047,-6.691,9.0893],[139.0043,-6.6858,15.0619],[139.0059,-6.6834,13.2581],[139.0198,-6.681,11.2367],[139.0118,-6.6739,11.9474],[139.0094,-6.6687,8.0008]]]]}}