{"type":"Feature","properties":{"GID_3":"IDN.22.8.10_1","GID_0":"IDN","country":"Indonesia","GID_1":"IDN.22_1","province":"PapuaBarat","NL_NAME_1":"NA","GID_2":"IDN.22.8_1","county":"Sorong","NL_NAME_2":"NA","city":"Mariat","VARNAME_3":"NA","NL_NAME_3":"NA","TYPE_3":"Distrik","ENGTYPE_3":"District","CC_3":"9107171","HASC_3":"NA","name":"Mariat.city"},
"geometry":{"type": "MultiPolygon","coordinates": [[[[131.3935,-1.0079,37.2038],[131.3871,-1.005,70.284],[131.3801,-1.0056,99.9569],[131.3758,-1.0016,90.7157],[131.3708,-0.9886,62.9054],[131.3645,-0.9868,46.7403],[131.3571,-0.9821,18.2531],[131.3555,-0.9802,17.4675],[131.3563,-0.9776,17.0911],[131.3535,-0.974,36.8097],[131.3464,-0.9746,18.0199],[131.3443,-0.9726,29.8317],[131.3348,-0.9879,18.1401],[131.3303,-0.9893,28.0276],[131.3238,-0.9942,8.1498],[131.312,-0.9912,5.7282],[131.3058,-0.9964,7.5911],[131.3042,-0.9994,7.3604],[131.3046,-1.0151,17.3378],[131.3016,-1.0215,9.8553],[131.3052,-1.0229,15.9832],[131.3112,-1.0289,6.3807],[131.3182,-1.0396,37.779],[131.3334,-1.0496,61.1784],[131.3519,-1.0545,55.4672],[131.3697,-1.0543,53.2062],[131.3729,-1.0579,70.5919],[131.3789,-1.0585,81.179],[131.3849,-1.0619,57.3045],[131.3889,-1.0667,72.6714],[131.39,-1.0708,86.5346],[131.3981,-1.0714,88.8882],[131.4061,-1.0631,83.9607],[131.4267,-1.0495,67.6475],[131.4228,-1.0473,79.9529],[131.4203,-1.0397,75.8416],[131.4141,-1.0372,126.05],[131.4141,-1.0347,148.1698],[131.4075,-1.0258,106.4673],[131.4047,-1.0103,80.9319],[131.3935,-1.0079,37.2038]]]]}}