{"type":"Feature","properties":{"GID_3":"IDN.22.7.11_1","GID_0":"IDN","country":"Indonesia","GID_1":"IDN.22_1","province":"PapuaBarat","NL_NAME_1":"NA","GID_2":"IDN.22.7_1","county":"SorongSelatan","NL_NAME_2":"NA","city":"Seremuk","VARNAME_3":"NA","NL_NAME_3":"NA","TYPE_3":"Distrik","ENGTYPE_3":"District","CC_3":"9106071","HASC_3":"NA","name":"Seremuk.city"},
"geometry":{"type": "MultiPolygon","coordinates": [[[[131.9722,-1.5483,0.0],[131.9764,-1.5447,0.0],[131.9796,-1.539,0.0],[131.9802,-1.5269,0.0],[131.9776,-1.5135,0.0],[131.9681,-1.4938,0.0],[131.9624,-1.4779,6.756],[131.97,-1.4702,0.0],[131.9764,-1.4702,0.0],[131.9796,-1.4645,0.0],[131.9776,-1.439,2.0713],[131.9866,-1.4314,0.0],[131.9885,-1.4186,13.5303],[131.9967,-1.4015,58.3552],[131.9987,-1.3938,127.2301],[131.9993,-1.3702,199.502],[131.9961,-1.3556,217.524],[131.9834,-1.3403,266.2562],[131.9678,-1.3371,323.8579],[131.9545,-1.3427,216.5498],[131.9423,-1.3412,204.0249],[131.9392,-1.3396,190.9552],[131.9232,-1.3226,340.0642],[131.8894,-1.3156,348.8464],[131.8852,-1.3228,319.1662],[131.8737,-1.3341,233.9503],[131.8538,-1.3469,11.9237],[131.865,-1.3484,12.0209],[131.8653,-1.3502,16.893],[131.8584,-1.3534,19.8776],[131.8568,-1.3565,20.2109],[131.8581,-1.3631,25.0002],[131.8678,-1.3659,21.8623],[131.8733,-1.3627,20.5461],[131.88,-1.3637,18.9138],[131.8831,-1.359,8.4055],[131.8781,-1.3487,17.7273],[131.8819,-1.3459,10.7856],[131.8872,-1.3456,16.102],[131.8897,-1.3487,11.893],[131.8941,-1.349,15.2305],[131.8981,-1.3462,20.2331],[131.9016,-1.3462,12.1223],[131.9031,-1.3497,20.7883],[131.9006,-1.3537,19.5911],[131.901,-1.3584,13.0333],[131.9082,-1.3619,18.7227],[131.9113,-1.3609,22.4082],[131.9119,-1.3581,13.3058],[131.91,-1.3522,20.4229],[131.9138,-1.3472,20.8519],[131.9191,-1.3509,29.5215],[131.9175,-1.3565,21.8969],[131.9219,-1.3587,17.9833],[131.9238,-1.3547,16.1754],[131.9307,-1.3597,15.7932],[131.9341,-1.36,25.18],[131.9388,-1.3559,19.8879],[131.9441,-1.3587,34.8967],[131.9486,-1.3635,30.705],[131.9492,-1.3695,21.5556],[131.9478,-1.3759,28.3288],[131.9512,-1.3852,28.4125],[131.9606,-1.4001999999999999,34.418],[131.9552,-1.4021,27.5593],[131.9467,-1.4111,32.854],[131.9477,-1.416,42.9902],[131.9432,-1.426,45.8273],[131.9422,-1.4335,41.7392],[131.9373,-1.4385,38.2685],[131.9303,-1.4615,45.6626],[131.9388,-1.473,17.3425],[131.9353,-1.4995,42.3373],[131.9408,-1.5109,28.6554],[131.9258,-1.5379,13.068],[131.9302,-1.5557,16.2877],[131.9392,-1.5551,0.0],[131.9536,-1.5585,0.0],[131.9556,-1.5566,0.0],[131.9574,-1.5596,0.0],[131.9618,-1.5576,0.0],[131.9722,-1.5483,0.0]]]]}}