{"type":"Feature","properties":{"GID_3":"IDN.9.21.7_1","GID_0":"IDN","country":"Indonesia","GID_1":"IDN.9_1","province":"JawaBarat","NL_NAME_1":"NA","GID_2":"IDN.9.21_1","county":"Majalengka","NL_NAME_2":"NA","city":"Dawuan","VARNAME_3":"NA","NL_NAME_3":"NA","TYPE_3":"Kecamatan","ENGTYPE_3":"Sub-district","CC_3":"3210150","HASC_3":"NA","name":"Dawuan.city"},
"geometry":{"type": "MultiPolygon","coordinates": [[[[108.1789,-6.7643,45.1341],[108.1922,-6.7604,41.326],[108.1962,-6.7613,46.0521],[108.195,-6.7575,39.8366],[108.1991,-6.7579,36.5389],[108.2067,-6.7541,38.2404],[108.2097,-6.749,36.5672],[108.2159,-6.746,34.6556],[108.2203,-6.7418,45.188],[108.2288,-6.7396,38.9919],[108.231,-6.7405,37.846],[108.2313,-6.7382,39.8514],[108.2329,-6.7381,38.0515],[108.2331,-6.7346,36.7794],[108.2373,-6.7342,36.7207],[108.2367,-6.7305,35.3132],[108.2326,-6.7278,31.9293],[108.2322,-6.7234,31.3863],[108.2288,-6.7201,30.0595],[108.2283,-6.7134,30.0206],[108.2268,-6.7132,29.295],[108.2239,-6.707,26.8568],[108.2197,-6.703,25.9911],[108.2247,-6.7016,28.259],[108.2251,-6.7002,29.2745],[108.2272,-6.7001,28.1488],[108.2275,-6.7022,28.4233],[108.2334,-6.7024,29.1464],[108.2373,-6.7002,30.7943],[108.2406,-6.6902,26.8572],[108.2385,-6.6869,26.753],[108.2356,-6.6934,29.5435],[108.2225,-6.6889,24.4748],[108.2243,-6.6862,23.7557],[108.2261,-6.6861,23.4909],[108.2259,-6.6844,23.4278],[108.2226,-6.6858,23.7366],[108.2083,-6.6854,23.241],[108.2066,-6.688,22.0188],[108.2119,-6.693,21.5667],[108.2116,-6.6964,25.348],[108.2084,-6.6965,23.2823],[108.2035,-6.6941,25.493],[108.2001,-6.6949,25.3427],[108.1982,-6.6984,24.5122],[108.1986,-6.7069,22.0061],[108.1927,-6.7126,25.9382],[108.1938,-6.7201,24.7005],[108.1879,-6.7254,25.8438],[108.1853,-6.7256,25.5817],[108.1819,-6.7322,29.1927],[108.1866,-6.7475,31.5027],[108.1845,-6.7505,34.1397],[108.1854,-6.7545,34.4483],[108.1813,-6.7534,31.4558],[108.1743,-6.7584,34.2491],[108.1727,-6.758,34.2491],[108.1725,-6.7612,36.0304],[108.1693,-6.76,36.3223],[108.1686,-6.762,37.9693],[108.1726,-6.7664,39.7633],[108.1789,-6.7643,45.1341]]]]}}