{"type":"Feature","properties":{"GID_3":"IDN.11.25.19_1","GID_0":"IDN","country":"Indonesia","GID_1":"IDN.11_1","province":"JawaTimur","NL_NAME_1":"NA","GID_2":"IDN.11.25_1","county":"Ngawi","NL_NAME_2":"NA","city":"Widodaren","VARNAME_3":"NA","NL_NAME_3":"NA","TYPE_3":"Kecamatan","ENGTYPE_3":"Sub-district","CC_3":"3521150","HASC_3":"NA","name":"Widodaren.city"},
"geometry":{"type": "MultiPolygon","coordinates": [[[[111.2209,-7.4679,202.5203],[111.2295,-7.4703,202.689],[111.2404,-7.463,167.6613],[111.2498,-7.4679,157.5057],[111.2495,-7.4699,168.1618],[111.2513,-7.4713,170.4821],[111.2569,-7.4711,163.4939],[111.2584,-7.4683,150.2157],[111.2576,-7.4603,133.7628],[111.259,-7.4608,133.7628],[111.2615,-7.4574,124.2557],[111.2658,-7.4466,113.6669],[111.2675,-7.4465,109.959],[111.2693,-7.4437,113.2958],[111.2691,-7.4339,103.9017],[111.2719,-7.4306,100.1813],[111.2729,-7.4235,98.4947],[111.2761,-7.4186,90.4664],[111.2766,-7.4071,81.1346],[111.2736,-7.3942,72.3706],[111.2766,-7.3817,80.2261],[111.2824,-7.3726,54.0929],[111.2869,-7.3757,53.7435],[111.2908,-7.3705,52.4764],[111.2965,-7.3699,54.4441],[111.3011,-7.3717,69.1473],[111.3011,-7.3667,60.3328],[111.2987,-7.3622,66.5713],[111.2894,-7.3513,88.0648],[111.2869,-7.3508,93.9271],[111.2778,-7.3559,101.558],[111.2725,-7.3558,81.8731],[111.2696,-7.3574,73.8489],[111.269,-7.3543,72.1773],[111.2661,-7.3527,80.3032],[111.2655,-7.3428,103.7036],[111.2565,-7.3444,104.4433],[111.2566,-7.3524,76.9675],[111.2476,-7.3597,74.0948],[111.2458,-7.3636,71.9058],[111.2472,-7.3664,54.1406],[111.2416,-7.3669,57.2231],[111.2228,-7.3648,63.7397],[111.2144,-7.3605,57.7513],[111.2123,-7.3629,56.7291],[111.2101,-7.3564,54.0],[111.2048,-7.3519,58.6687],[111.2034,-7.359,87.5697],[111.2098,-7.3738,82.7883],[111.2042,-7.3805,72.6788],[111.2037,-7.3853,75.3698],[111.2007,-7.3902,76.0663],[111.2018,-7.392,80.5595],[111.1989,-7.3938,80.8967],[111.2011,-7.3964,83.0151],[111.1999,-7.3969,83.0151],[111.201,-7.3978,83.0151],[111.1989,-7.4068,90.6166],[111.1877,-7.4083,102.9037],[111.1825,-7.4044,94.4354],[111.1728,-7.4029,94.5853],[111.1709,-7.4014,95.5102],[111.1672,-7.4023,91.6818],[111.1651,-7.4047,96.1947],[111.1633,-7.4159,102.5249],[111.1681,-7.4261,119.2344],[111.1683,-7.4385,148.3331],[111.1741,-7.4411,150.4924],[111.1839,-7.4506,171.6617],[111.1937,-7.4508,168.7964],[111.1955,-7.4491,160.1365],[111.201,-7.4514,158.2373],[111.2021,-7.4496,153.3363],[111.2047,-7.4491,148.2077],[111.2059,-7.45,156.0461],[111.2041,-7.452,158.9719],[111.205,-7.4545,165.8791],[111.2025,-7.4537,166.4324],[111.2022,-7.4569,177.7926],[111.2056,-7.4558,167.0668],[111.2089,-7.4596,178.8432],[111.2115,-7.4572,173.5748],[111.2121,-7.4541,164.9085],[111.2144,-7.4541,164.8649],[111.2147,-7.4479,148.6485],[111.2128,-7.4421,136.2194],[111.2143,-7.4371,127.4889],[111.22,-7.4397,138.099],[111.2202,-7.4499,154.6125],[111.2228,-7.4574,171.5983],[111.2196,-7.4671,202.3009],[111.2209,-7.4679,202.5203]]]]}}