{"type":"Feature","properties":{"GID_3":"IDN.19.9.1_1","GID_0":"IDN","country":"Indonesia","GID_1":"IDN.19_1","province":"Maluku","NL_NAME_1":"NA","GID_2":"IDN.19.9_1","county":"SeramBagianBarat","NL_NAME_2":"NA","city":"HuamualBelakang","VARNAME_3":"NA","NL_NAME_3":"NA","TYPE_3":"Kecamatan","ENGTYPE_3":"Sub-district","CC_3":"8106010","HASC_3":"NA","name":"Huamual_Belakang.city"},
"geometry":{"type": "MultiPolygon","coordinates": [[[[127.6146,-3.3724,0.0],[127.6141,-3.3728,0.0],[127.6142,-3.373,0.0],[127.615,-3.3728,0.0],[127.6146,-3.3724,0.0]]],
[[[127.6098,-3.3693,0.0],[127.6098,-3.3698,0.0],[127.6127,-3.3722,0.0],[127.6126,-3.3716,0.0],[127.6098,-3.3693,0.0]]],
[[[127.6473,-3.3703,0.0],[127.6488,-3.3706,0.0],[127.6493,-3.3702,0.0],[127.6483,-3.3699,0.0],[127.6473,-3.3703,0.0]]],
[[[127.5883,-3.3661,0.0],[127.5877,-3.3671,0.0],[127.5888,-3.368,0.0],[127.5891,-3.3676,0.0],[127.5883,-3.3661,0.0]]],
[[[127.5814,-3.3594,0.0],[127.5809,-3.3597,0.0],[127.5809,-3.3601,0.0],[127.5816,-3.36,0.0],[127.5814,-3.3594,0.0]]],
[[[127.5824,-3.3544,0.0],[127.5819,-3.355,0.0],[127.582,-3.3552,0.0],[127.5829,-3.3547,0.0],[127.5824,-3.3544,0.0]]],
[[[127.5818,-3.3443,21.2925],[127.5835,-3.3469,0.0],[127.5849,-3.3458,12.3556],[127.5882,-3.3479,2.9845],[127.5957,-3.3475,6.2041],[127.598,-3.3495,1.7848],[127.601,-3.3486,0.7726],[127.6037,-3.3512,3.0105],[127.6059,-3.3595,16.1982],[127.6113,-3.3635,1.3266],[127.613,-3.3673,16.9627],[127.6168,-3.3692,3.6202],[127.6315,-3.3674,8.5874],[127.6414,-3.3714,0.0],[127.656,-3.367,5.7183],[127.66,-3.3615,0.0],[127.6572,-3.3532,4.4285],[127.6459,-3.3481,11.2618],[127.6366,-3.3396,15.5582],[127.6321,-3.33,3.9113],[127.6323,-3.3182,3.5946],[127.6252,-3.307,1.5112],[127.622,-3.3048,0.0],[127.6184,-3.3078,1.6303],[127.6149,-3.3078,0.0],[127.6115,-3.3015,10.7315],[127.6072,-3.2982,19.2512],[127.6075,-3.2951,3.8064],[127.6046,-3.2901,0.0],[127.5961,-3.2858,0.0],[127.5917,-3.2777,0.0],[127.5866,-3.2744,0.0],[127.583,-3.2744,10.2499],[127.581,-3.2715,13.8403],[127.582,-3.2703,0.0],[127.5772,-3.2661,0.0],[127.5786,-3.265,0.0],[127.582,-3.2664,0.0],[127.5805,-3.2643,0.0],[127.5759,-3.2646,2.7966],[127.5723,-3.2679,0.0],[127.5709,-3.2679,0.0],[127.571,-3.2653,0.0],[127.5684,-3.2652,12.1652],[127.5713,-3.2622,3.6359],[127.5747,-3.2621,2.7256],[127.5745,-3.2586,4.1451],[127.5757,-3.2597,0.0],[127.5723,-3.2554,0.0],[127.5695,-3.2551,0.0],[127.5698,-3.2564,5.0535],[127.5657,-3.2577,0.0],[127.5645,-3.2649,7.1872],[127.5597,-3.2639,0.0],[127.561,-3.2661,6.0189],[127.5598,-3.2663,11.8833],[127.5542,-3.2626,12.0228],[127.557,-3.2618,1.5735],[127.5505,-3.2594,0.0],[127.5458,-3.2602,0.0],[127.541,-3.2647,17.6166],[127.5363,-3.263,13.3485],[127.5301,-3.2663,11.2431],[127.5271,-3.261,0.8507],[127.5236,-3.2596,0.0],[127.522,-3.2618,0.0],[127.5279,-3.2705,10.1518],[127.5264,-3.2802,13.4253],[127.5174,-3.2842,0.0],[127.5131,-3.2887,0.0],[127.5062,-3.2894,0.0],[127.4875,-3.2982,8.068],[127.4872,-3.3013,0.0],[127.4896,-3.3037,4.5161],[127.4883,-3.3073,0.0],[127.4907,-3.3065,116.7704],[127.4932,-3.3134,7.98],[127.4999,-3.3186,48.6797],[127.5062,-3.3305,0.0],[127.5128,-3.3311,67.2108],[127.5171,-3.3338,2.8036],[127.5302,-3.3372,5.1151],[127.5401,-3.338,8.9153],[127.5407,-3.3395,8.9153],[127.5527,-3.3379,4.8163],[127.5818,-3.3443,21.2925]]],
[[[127.5897,-3.3656,0.0],[127.5894,-3.3659,0.0],[127.5899,-3.3668,0.0],[127.5901,-3.3661,0.0],[127.5897,-3.3656,0.0]]],
[[[127.5926,-3.365,0.0],[127.5922,-3.3664,0.0],[127.5927,-3.3666,0.0],[127.5931,-3.3658,0.0],[127.5926,-3.365,0.0]]],
[[[127.5894,-3.3547,0.4474],[127.587,-3.354,0.4078],[127.5853,-3.3561,5.3124],[127.5865,-3.3616,0.0],[127.5884,-3.3604,2.2643],[127.5925,-3.3612,0.0],[127.5894,-3.3547,0.4474]]],
[[[127.4754,-3.3032,0.0],[127.4744,-3.3001,0.0],[127.4701,-3.3035,1.17],[127.4714,-3.3041,1.17],[127.4754,-3.3032,0.0]]],
[[[127.5347,-3.2566,4.8778],[127.5289,-3.258,1.8202],[127.5311,-3.2618,0.0],[127.5385,-3.259,0.0],[127.5347,-3.2566,4.8778]]],
[[[127.563,-3.256,1.674],[127.5641,-3.2534,4.0151],[127.5623,-3.2507,0.0],[127.5484,-3.2463,9.6594],[127.5444,-3.248,7.4482],[127.5421,-3.2537,4.5782],[127.5461,-3.2542,4.0389],[127.5493,-3.2569,5.0303],[127.5582,-3.2574,6.9096],[127.5594,-3.2619,0.0],[127.563,-3.256,1.674]]],
[[[127.5279,-3.2494,0.0],[127.529,-3.2491,0.0],[127.5274,-3.2491,0.0],[127.5274,-3.2498,0.0],[127.5279,-3.2494,0.0]]],
[[[127.618,-3.304,0.0],[127.6182,-3.3047,0.0],[127.6185,-3.3032,0.0],[127.618,-3.3031,0.0],[127.618,-3.304,0.0]]],
[[[127.6151,-3.3012,3.1483],[127.6171,-3.3007,1.5354],[127.6171,-3.2993,0.0],[127.615,-3.2972,2.6546],[127.6127,-3.2995,4.739],[127.6151,-3.3012,3.1483]]],
[[[127.6383,-3.2226,0.0],[127.6383,-3.2224,0.0],[127.638,-3.2224,0.0],[127.638,-3.2228,0.0],[127.6383,-3.2226,0.0]]],
[[[127.7918,-3.2553,5.8152],[127.795,-3.253,12.5241],[127.7957,-3.2477,4.0565],[127.7929,-3.2421,29.6796],[127.7919,-3.2353,1.188],[127.7969,-3.2277,19.8482],[127.7963,-3.2263,19.8482],[127.8003,-3.2237,0.0],[127.8012,-3.2199,1.8132],[127.7987,-3.2137,4.6243],[127.7988,-3.2082,1.3484],[127.8007,-3.205,2.1987],[127.7994,-3.1981,0.0],[127.7964,-3.1947,4.344],[127.7971,-3.1935,8.0949],[127.7935,-3.1919,2.9355],[127.7944,-3.1893,3.968],[127.7905,-3.1864,8.8882],[127.7902,-3.1839,0.0],[127.7921,-3.1823,15.9953],[127.7981,-3.1846,0.0],[127.7995,-3.1812,0.0],[127.7914,-3.1753999999999998,0.0],[127.786,-3.1745,2.6242],[127.7842,-3.1711,0.0],[127.78,-3.1703,3.0576],[127.7752,-3.1646,3.8902],[127.7755,-3.1612,0.0],[127.7724,-3.1568,2.8107],[127.7673,-3.1566,7.4223],[127.7612,-3.1512,0.0],[127.753,-3.152,6.4022],[127.7409,-3.1585,5.2899],[127.7366,-3.1582,3.081],[127.7338,-3.1555,0.0],[127.7277,-3.1593,9.7296],[127.7213,-3.1596,55.3562],[127.7204,-3.1625,23.2193],[127.7099,-3.1679,0.0],[127.7053,-3.1739,9.2962],[127.6906,-3.1842,2.0234],[127.684,-3.1936,23.0807],[127.6702,-3.1981,10.3438],[127.6536,-3.2085,5.341],[127.6531,-3.2108,0.0],[127.6414,-3.2196,30.0308],[127.638,-3.2241,0.0],[127.6385,-3.2267,0.0],[127.6413,-3.2287,12.0054],[127.6494,-3.2299,21.4921],[127.6556,-3.2332,0.0],[127.6592,-3.2389,2.4664],[127.6676,-3.246,55.2781],[127.6726,-3.2472,5.8922],[127.6768,-3.2523,2.7773],[127.7004,-3.2568,0.0],[127.7077,-3.2604,2.3114],[127.7354,-3.2561,9.8515],[127.7357,-3.2546,0.0],[127.751,-3.2481,0.0],[127.7672,-3.2504,6.948],[127.7742,-3.2489,14.0093],[127.7809,-3.2513,16.6203],[127.7891,-3.2568,0.0],[127.7918,-3.2553,5.8152]]],
[[[128.0071,-3.1648,295.6001],[128.0097,-3.1599,198.1612],[128.0116,-3.1462,91.4037],[128.0782,-3.1043,126.3322],[128.0496,-3.0731,1.6652],[128.0438,-3.0735,0.4082],[128.0433,-3.0746,4.9365],[128.0382,-3.0737,1.2155],[128.0366,-3.0766,3.6961],[128.0324,-3.0779,0.0],[128.0265,-3.0739,0.0],[128.0214,-3.0777,0.8486],[128.0172,-3.0743,0.0],[128.0112,-3.0753,1.4127],[128.0097,-3.0729,0.0],[128.0049,-3.0726,0.0],[128.0027,-3.0739,0.0],[128.0058,-3.0765,0.8079],[128.0066,-3.0796,0.0],[128.0017,-3.0843,1.3829],[128.001,-3.0817,0.0],[127.9976,-3.0797,41.7902],[127.9996,-3.0775,20.8455],[128.0015,-3.0814,0.0],[128.0052,-3.0791,0.0],[128.001,-3.0768,0.0],[128.0004,-3.0708,0.0],[127.999,-3.071,0.0],[127.986,-3.0815,0.0],[127.9829,-3.0912,0.0],[127.98,-3.092,0.0],[127.9774,-3.0953,0.0],[127.9786,-3.0978,10.4538],[127.9768,-3.1051,0.74],[127.9837,-3.1048,1.1259],[127.9854,-3.1055,3.1931],[127.9856,-3.1078,2.5464],[127.973,-3.1077,0.0],[127.9721,-3.1042,0.0],[127.9675,-3.1078,1.3727],[127.9629,-3.1039,0.0],[127.9604,-3.1047,6.4234],[127.9596,-3.1079,0.0],[127.9575,-3.1086,5.476],[127.9538,-3.1086,4.0702],[127.9515,-3.1068,0.0],[127.9509,-3.1093,0.0],[127.9467,-3.1122,1.3612],[127.9473,-3.1138,8.2766],[127.9443,-3.1117,5.9776],[127.9434,-3.1127,5.9776],[127.9429,-3.1164,0.0],[127.9458,-3.1244,4.1623],[127.9451,-3.1282,0.5871],[127.9339,-3.132,0.6187],[127.93,-3.1386,1.8422],[127.9238,-3.1442,0.3836],[127.8983,-3.1579,0.0],[127.8935,-3.158,9.0517],[127.8916,-3.155,9.0058],[127.8847,-3.1534,2.4567],[127.8801,-3.1498,3.6607],[127.8728,-3.1565,0.5454],[127.8673,-3.1577,1.4687],[127.8561,-3.1587,3.1948],[127.8465,-3.1548,26.3532],[127.8404,-3.1553,27.5146],[127.8376,-3.1574,0.0],[127.8411,-3.1653,3.4672],[127.854,-3.174,9.3868],[127.8647,-3.1785,0.0],[127.8722,-3.1896,14.5239],[127.8739,-3.1945,4.2049],[127.8742,-3.2086,3.8564],[127.8725,-3.2126,0.0],[127.8727,-3.2213,0.0],[127.8748,-3.2243,0.0],[127.8741,-3.2336,1.677],[127.8775,-3.2402,48.8503],[127.8773,-3.2439,25.1304],[127.888,-3.2583,29.9037],[127.8872,-3.2663,7.7587],[127.8885,-3.2715,21.0384],[127.9014,-3.2835,0.0],[127.9175,-3.2942,4.4965],[127.9185,-3.2916,12.5713],[127.9284,-3.2848,57.3368],[127.9302,-3.2809,104.1478],[127.9407,-3.2764,288.8498],[127.9446,-3.2771,359.7784],[127.9564,-3.2863,684.8969],[127.9797,-3.2852,702.7482],[127.9853,-3.2357,675.6548],[127.991,-3.2018,769.1918],[128.0004,-3.1882,700.2603],[128.0071,-3.1648,295.6001]]],
[[[127.8223,-3.1526,0.0],[127.813,-3.1512,0.0],[127.7957,-3.1527,0.0],[127.7853,-3.1518,13.7747],[127.7767,-3.1532,1.7148],[127.7757,-3.1554,0.0],[127.7788,-3.1606,62.1377],[127.7786,-3.1644,0.0],[127.7808,-3.1657,4.1389],[127.7869,-3.1625,2.9293],[127.7919,-3.1648,0.0],[127.7989,-3.1644,14.5059],[127.8007,-3.1684,0.0],[127.8062,-3.1722,0.0],[127.813,-3.1681,2.7826],[127.8109,-3.1623,4.0088],[127.8035,-3.1578,3.7868],[127.8043,-3.1565,3.7868],[127.8113,-3.1579,15.5581],[127.8152,-3.1571,18.1726],[127.8175,-3.1614,25.4217],[127.8171,-3.1646,0.0],[127.8192,-3.1626,26.0486],[127.8274,-3.1613,0.0],[127.8351,-3.1558,0.0],[127.8335,-3.1536,0.0],[127.8223,-3.1526,0.0]]],
[[[127.8396,-3.1548,0.0],[127.8393,-3.1549,0.0],[127.839,-3.1553,0.0],[127.8399,-3.1553,0.0],[127.8396,-3.1548,0.0]]],
[[[127.9359,-3.1216,0.0],[127.9353,-3.1208,0.0],[127.9351,-3.1208,0.0],[127.9351,-3.1219,0.0],[127.9359,-3.1216,0.0]]],
[[[127.9368,-3.1191,0.0],[127.9381,-3.12,0.0],[127.9397,-3.1186,0.0],[127.9377,-3.1155,0.0],[127.937,-3.1165,0.0],[127.9368,-3.1191,0.0]]],
[[[127.935,-3.1168,0.0],[127.9352,-3.1164,0.0],[127.9346,-3.1161,0.0],[127.9346,-3.1167,0.0],[127.935,-3.1168,0.0]]],
[[[127.933,-3.1086,2.6501],[127.9343,-3.1098,0.0],[127.9355,-3.1086,0.0],[127.9348,-3.1073,0.0],[127.933,-3.1086,2.6501]]],
[[[127.9405,-3.1007,0.0],[127.9404,-3.0995,0.0],[127.9397,-3.0989,0.0],[127.9395,-3.1005,0.0],[127.9405,-3.1007,0.0]]],
[[[127.936,-3.0984,0.0],[127.9361,-3.1,0.0],[127.9373,-3.0996,0.0],[127.9373,-3.0982,0.0],[127.936,-3.0984,0.0]]],
[[[127.9451,-3.0972,0.0],[127.9452,-3.0991,0.0],[127.9467,-3.0992,1.853],[127.9464,-3.0964,2.5364],[127.9451,-3.0972,0.0]]],
[[[127.95,-3.0919,0.0],[127.949,-3.0925,0.0],[127.9508,-3.0932,0.0],[127.9508,-3.0926,0.0],[127.95,-3.0919,0.0]]],
[[[127.9554,-3.0899,0.0],[127.955,-3.0907,0.0],[127.9551,-3.0909,0.0],[127.9558,-3.0906,0.0],[127.9554,-3.0899,0.0]]],
[[[128.0258,-3.0729,0.0],[128.0291,-3.0709,0.0],[128.029,-3.0692,0.0],[128.0244,-3.071,0.0],[128.0258,-3.0729,0.0]]],
[[[127.9317,-3.1075,0.0],[127.9323,-3.1067,0.0],[127.9307,-3.1057,0.0],[127.9303,-3.1075,0.0],[127.9317,-3.1075,0.0]]],
[[[127.9315,-3.1019,0.0],[127.9299,-3.1003,0.0],[127.9278,-3.1011,0.0],[127.9289,-3.1029,1.8546],[127.9315,-3.1019,0.0]]],
[[[127.8311,-3.0363,0.0],[127.8305,-3.0374,0.0],[127.8322,-3.0386,0.0],[127.8332,-3.0374,0.0],[127.8311,-3.0363,0.0]]],
[[[127.9444,-3.017,5.9171],[127.9536,-3.0101,0.0],[127.9637,-2.998,10.1174],[127.9711,-2.9734,5.4324],[128.0017,-2.9459,1.8572],[128.004,-2.94,6.656],[128.0022,-2.9348,2.8826],[127.9907,-2.9239,0.0],[127.9709,-2.9226,0.0],[127.9622,-2.9253,12.6909],[127.9521,-2.9258,0.0],[127.9348,-2.9195,1.9655],[127.9245,-2.9113,1.9321],[127.9131,-2.9154,15.2025],[127.912,-2.9167,3.565],[127.9131,-2.9199,13.8309],[127.9185,-2.9222,24.9483],[127.9241,-2.9199,0.0],[127.9328,-2.9276,1.0487],[127.9379,-2.9289,3.32],[127.9413,-2.9368,10.9512],[127.9414,-2.9408,8.2854],[127.9366,-2.9412,2.6847],[127.9297,-2.9383,3.9342],[127.9271,-2.9348,2.2963],[127.9247,-2.9349,0.6785],[127.9234,-2.9393,25.6934],[127.9174,-2.9448,2.6079],[127.915,-2.9499,14.6013],[127.9092,-2.9527,0.7891],[127.9066,-2.9512,0.0],[127.9069,-2.9549,9.8771],[127.9039,-2.9521,1.1337],[127.9047,-2.9559,4.5173],[127.9015,-2.9558,0.0],[127.8941,-2.9599,66.2122],[127.8888,-2.9611,21.9617],[127.8843,-2.9592,0.0],[127.8779,-2.9612,5.2262],[127.8785,-2.9638,67.0955],[127.877,-2.9655,3.0907],[127.8795,-2.9689,51.7118],[127.876,-2.9757,82.6907],[127.8718,-2.9771,5.811],[127.8678,-2.9936,54.1337],[127.869,-3.004,59.5025],[127.8654,-3.0087,13.9292],[127.8622,-3.0093,0.0],[127.8528,-3.0175,7.4998],[127.8448,-3.0167,14.1631],[127.8416,-3.0231,12.7181],[127.831,-3.0309,0.0],[127.8288,-3.0344,3.4133],[127.8422,-3.0327,32.7845],[127.8457,-3.0381,0.0],[127.853,-3.0356,13.2784],[127.8582,-3.0365,1.7854],[127.8634,-3.0399,0.0],[127.8747,-3.0347,0.659],[127.8791,-3.038,0.0],[127.8884,-3.0385,0.885],[127.8933,-3.0364,2.5535],[127.8912,-3.0385,0.0],[127.8924,-3.041,7.4666],[127.8977,-3.0408,5.2203],[127.9046,-3.0381,0.0],[127.9145,-3.0386,0.0],[127.9257,-3.033,0.0],[127.9292,-3.0276,0.0],[127.9444,-3.017,5.9171]]],
[[[127.8663,-2.9633,0.0],[127.8668,-2.9649,0.0],[127.8698,-2.9629,0.0],[127.8677,-2.9608,0.0],[127.8663,-2.9633,0.0]]],
[[[127.9241,-2.9252,6.4547],[127.9189,-2.9231,15.2761],[127.9189,-2.9263,116.4975],[127.8985,-2.9326,0.6514],[127.8862,-2.9465,65.7866],[127.879,-2.9508,1.304],[127.8746,-2.9586,0.0],[127.8817,-2.9564,4.1211],[127.8891,-2.9581,0.0],[127.8975,-2.9512,42.5631],[127.9098,-2.9489,6.3569],[127.9115,-2.9437,2.3103],[127.9215,-2.937,0.0],[127.9249,-2.9279,0.0],[127.9241,-2.9252,6.4547]]],
[[[127.8975,-2.9252,0.0],[127.8994,-2.9257,6.2359],[127.9016,-2.9236,0.2853],[127.8997,-2.9236,0.0],[127.8975,-2.9252,0.0]]],
[[[127.9002,-2.9221,0.0],[127.8997,-2.9221,0.0],[127.9,-2.9228,0.0],[127.9002,-2.9228,0.0],[127.9002,-2.9221,0.0]]],
[[[127.9112,-2.9191,0.0],[127.9106,-2.9176,3.565],[127.9074,-2.9178,0.0],[127.9041,-2.9231,0.0],[127.9089,-2.9231,0.0],[127.9112,-2.9191,0.0]]]]}}