{"type":"Feature","properties":{"GID_3":"IDN.32.17.5_1","GID_0":"IDN","country":"Indonesia","GID_1":"IDN.32_1","province":"SumateraUtara","NL_NAME_1":"NA","GID_2":"IDN.32.17_1","county":"NiasBarat","NL_NAME_2":"NA","city":"Mandrehe","VARNAME_3":"NA","NL_NAME_3":"NA","TYPE_3":"Kecamatan","ENGTYPE_3":"Sub-district","CC_3":"1225060","HASC_3":"NA","name":"Mandrehe.city"},
"geometry":{"type": "MultiPolygon","coordinates": [[[[97.4467,1.0137,15.3359],[97.4435,1.0078,13.5172],[97.4399,1.0085,14.3523],[97.4395,1.0103,14.9099],[97.4353,1.0072,16.1683],[97.4449,0.9989,41.3653],[97.4545,0.9968,93.7743],[97.4591,0.9976,59.0166],[97.4644,1.0015,40.875],[97.466,1.0085,44.4738],[97.4648,1.022,23.5758],[97.4733,1.017,78.1462],[97.4844,1.0071,73.6886],[97.4882,1.0106,109.6333],[97.4931,1.0123,127.8073],[97.5099,1.0059,56.8402],[97.5132,1.0099,86.926],[97.5128,1.0223,137.1234],[97.5147,1.0361,217.3962],[97.5157,1.0388,214.7422],[97.5195,1.0417,210.8418],[97.532,1.0481,177.5629],[97.5438,1.0488,299.7108],[97.5491,1.0457,288.2717],[97.554,1.0378,332.5485],[97.5547,1.0332,342.7338],[97.5638,1.0371,442.3795],[97.5656,1.0496,282.2038],[97.5728,1.0535,60.3174],[97.5802,1.0546,234.7083],[97.5678,1.0783,97.1252],[97.5704,1.0904,196.7271],[97.5693,1.1034,94.4122],[97.5526,1.0963,44.4566],[97.5478,1.0965,61.1152],[97.551,1.0749,106.3523],[97.5394,1.0714,255.1226],[97.5324,1.081,162.4118],[97.5183,1.0852,59.5603],[97.5108,1.0899,121.8123],[97.5026,1.0814,119.5537],[97.4972,1.0812,100.4337],[97.4898,1.0889,83.5598],[97.4889,1.0928,71.92],[97.4827,1.0949,43.6635],[97.4775,1.0874,108.7008],[97.4669,1.059,83.9554],[97.4562,1.057,34.5756],[97.4509,1.0537,58.4501],[97.4516,1.0482,50.1618],[97.4632,1.0221,20.124],[97.4589,1.0213,18.3789],[97.4575,1.023,24.7292],[97.4546,1.019,17.5764],[97.4532,1.0205,15.5971],[97.4529,1.0175,16.9521],[97.4546,1.0172,15.99],[97.4536,1.0146,15.2648],[97.4514,1.0153,16.9892],[97.4493,1.0132,17.65],[97.4467,1.0137,15.3359]]]]}}