{"type":"Feature","properties":{"GID_3":"IDN.28.10.26_1","GID_0":"IDN","country":"Indonesia","GID_1":"IDN.28_1","province":"SulawesiTenggara","NL_NAME_1":"NA","GID_2":"IDN.28.10_1","county":"Konawe","NL_NAME_2":"NA","city":"WawoniiTimurLaut","VARNAME_3":"NA","NL_NAME_3":"NA","TYPE_3":"Kecamatan","ENGTYPE_3":"Sub-district","CC_3":"7403083","HASC_3":"NA","name":"Wawonii_Timur_Laut.city"},
"geometry":{"type": "MultiPolygon","coordinates": [[[[123.2462,-4.0567,0.0],[123.2314,-4.0397,0.0],[123.2252,-4.0354,2.1293],[123.2251,-4.0262,0.0],[123.2196,-4.0247,4.8783],[123.2147,-4.0205,2.518],[123.2119,-4.0217,3.0705],[123.2107,-4.0188,0.6649],[123.1985,-4.0147,2.1084],[123.1916,-4.0101,0.0],[123.1841,-4.0082,0.0],[123.1839,-4.0137,6.2523],[123.1858,-4.0148,8.4767],[123.1864,-4.0481,113.0319],[123.1622,-4.0675,202.4985],[123.2045,-4.0814,93.6468],[123.2462,-4.0567,0.0]]]]}}