{"type":"Feature","properties":{"GID_3":"IDN.14.10.2_1","GID_0":"IDN","country":"Indonesia","GID_1":"IDN.14_1","province":"KalimantanTengah","NL_NAME_1":"NA","GID_2":"IDN.14.10_1","county":"MurungRaya","NL_NAME_2":"NA","city":"LaungTuhup","VARNAME_3":"NA","NL_NAME_3":"NA","TYPE_3":"Kecamatan","ENGTYPE_3":"Sub-district","CC_3":"6213030","HASC_3":"NA","name":"Laung_Tuhup.city"},
"geometry":{"type": "MultiPolygon","coordinates": [[[[114.6621,-0.7497,114.9623],[114.6621,-0.7836,123.2356],[114.6704,-0.7757,143.3209],[114.7234,-0.7512,112.4361],[114.7837,-0.744,124.0575],[114.7867,-0.7183,61.3563],[114.7834,-0.7019,98.9644],[114.7948,-0.6707,94.78],[114.8111,-0.6527,123.8353],[114.8567,-0.6116,86.1151],[114.8844,-0.5837,81.0345],[114.8827,-0.5673,52.7367],[114.8648,-0.5493,56.5562],[114.8452,-0.5231,64.5467],[114.8257,-0.4608,72.4156],[114.811,-0.4296,138.9548],[114.824,-0.3738,143.8604],[114.8191,-0.3459,107.7947],[114.8093,-0.3181,119.8954],[114.8093,-0.2738,81.0445],[114.8141,-0.1671,197.0406],[114.8109,-0.1147,125.4441],[114.8011,-0.0507,153.9659],[114.7948,0.0163,390.1966],[114.757,-0.0077,234.7655],[114.6706,-0.0772,555.7713],[114.6692,-0.0951,435.1513],[114.6532,-0.1582,559.747],[114.6385,-0.199,342.639],[114.6077,-0.2362,338.532],[114.5955,-0.2622,274.9882],[114.5881,-0.2869,263.7847],[114.5881,-0.3129,223.4763],[114.593,-0.3438,357.9935],[114.6152,-0.3785,321.7796],[114.6238,-0.3995,177.5481],[114.641,-0.4292,139.1104],[114.625,-0.4799,100.5735],[114.6251,-0.5134,229.0325],[114.6349,-0.5307,65.6532],[114.657,-0.5542,62.3969],[114.6534,-0.5864,52.6754],[114.6472,-0.6161,41.3639],[114.6497,-0.6284,34.918],[114.6522,-0.6742,67.7389],[114.6621,-0.7497,114.9623]]]]}}