{"type":"Feature","properties":{"GID_3":"IDN.10.4.4_1","GID_0":"IDN","country":"Indonesia","GID_1":"IDN.10_1","province":"JawaTengah","NL_NAME_1":"NA","GID_2":"IDN.10.4_1","county":"Blora","NL_NAME_2":"NA","city":"Cepu","VARNAME_3":"NA","NL_NAME_3":"NA","TYPE_3":"Kecamatan","ENGTYPE_3":"Sub-district","CC_3":"3316050","HASC_3":"NA","name":"Cepu.city"},
"geometry":{"type": "MultiPolygon","coordinates": [[[[111.5465,-7.21,29.2388],[111.549,-7.2053,23.9759],[111.555,-7.2017,22.0],[111.5589,-7.2062,25.1601],[111.564,-7.2077,24.8524],[111.5668,-7.2066,25.4121],[111.5692,-7.1989,21.0],[111.5639,-7.1906,31.5641],[111.5667,-7.1866,26.1745],[111.5758,-7.1883,25.058],[111.5873,-7.1855,20.5],[111.5837,-7.1754,20.5],[111.5844,-7.1708,26.4601],[111.5881,-7.1638,27.5314],[111.5986,-7.1552,27.4004],[111.5985,-7.1454,29.6763],[111.6013,-7.1446,24.051],[111.607,-7.1468,21.6703],[111.6058,-7.1433,28.807],[111.6082,-7.1421,29.3962],[111.6106,-7.1433,30.5983],[111.6089,-7.1395,30.2913],[111.6118,-7.1407,31.0325],[111.6121,-7.1384,31.6403],[111.6098,-7.1382,31.4938],[111.6111,-7.1355,30.9213],[111.6077,-7.1371,31.5422],[111.6092,-7.1322,29.8665],[111.6072,-7.1313,32.4868],[111.6061,-7.1282,33.5185],[111.6116,-7.1255,35.2852],[111.6113,-7.1212,36.1898],[111.6018,-7.1196,52.4141],[111.5959,-7.1207,36.0571],[111.59,-7.1281,45.0152],[111.5779,-7.1278,61.9798],[111.5778,-7.1311,80.2415],[111.5757,-7.1296,66.6675],[111.5704,-7.1309,61.422],[111.568,-7.1372,62.1878],[111.5652,-7.1364,56.2838],[111.5643,-7.1339,58.888],[111.5603,-7.1314,64.9202],[111.5437,-7.1316,72.6774],[111.5413,-7.1385,65.9301],[111.5434,-7.1389,68.2525],[111.5417,-7.1416,73.1715],[111.5431,-7.1498,56.8282],[111.5419,-7.1574,47.2556],[111.5443,-7.1614,43.636],[111.5484,-7.1634,45.0487],[111.547,-7.1671,40.622],[111.5493,-7.1713,41.1977],[111.5435,-7.1761,48.1994],[111.5414,-7.1749,46.2969],[111.5385,-7.1779,48.4874],[111.5296,-7.1805,44.3738],[111.5268,-7.191,42.3103],[111.536,-7.1977,36.8207],[111.5344,-7.2039,30.3472],[111.5316,-7.2043,30.4736],[111.5319,-7.208,31.7582],[111.5386,-7.2088,30.1768],[111.5371,-7.2123,30.7745],[111.539,-7.2128,30.6118],[111.5392,-7.2147,32.183],[111.5433,-7.2136,27.2916],[111.5465,-7.21,29.2388]]]]}}