{"type":"Feature","properties":{"GID_3":"IDN.18.5.2_1","GID_0":"IDN","country":"Indonesia","GID_1":"IDN.18_1","province":"MalukuUtara","NL_NAME_1":"NA","GID_2":"IDN.18.5_1","county":"HalmaheraUtara","NL_NAME_2":"NA","city":"GalelaSelatan","VARNAME_3":"NA","NL_NAME_3":"NA","TYPE_3":"Kecamatan","ENGTYPE_3":"Sub-district","CC_3":"8205051","HASC_3":"NA","name":"Galela_Selatan.city"},
"geometry":{"type": "MultiPolygon","coordinates": [[[[127.8203,1.8131,23.7915],[127.8111,1.8094,20.9495],[127.8073,1.8113,24.1464],[127.8099,1.8121,19.0],[127.8081,1.8134,20.7293],[127.8095,1.8146,20.1493],[127.8063,1.8162,19.0],[127.8073,1.8171,19.0],[127.8041,1.8151,33.3179],[127.7972,1.823,19.0],[127.7918,1.8223,24.8377],[127.7936,1.8157,53.115],[127.7931,1.8113,56.7541],[127.784,1.796,89.1282],[127.774,1.7844,119.7375],[127.7664,1.7783,125.9744],[127.7701,1.765,134.132],[127.795,1.7393,214.5985],[127.7967,1.7202,344.4203],[127.8426,1.7458,370.6181],[127.8405,1.7706,75.7563],[127.8338,1.7977,79.1296],[127.8347,1.8225,25.2705],[127.8298,1.8222,33.3739],[127.8306,1.8199,40.8937],[127.8233,1.8164,19.0],[127.8226,1.813,22.9343],[127.8203,1.8131,23.7915]]]]}}