{"type":"Feature","properties":{"GID_3":"IDN.24.12.5_1","GID_0":"IDN","country":"Indonesia","GID_1":"IDN.24_1","province":"Riau","NL_NAME_1":"NA","GID_2":"IDN.24.12_1","county":"Siak","NL_NAME_2":"NA","city":"KotoGasib","VARNAME_3":"NA","NL_NAME_3":"NA","TYPE_3":"Kecamatan","ENGTYPE_3":"Sub-district","CC_3":"1405025","HASC_3":"NA","name":"Koto_Gasib.city"},
"geometry":{"type": "MultiPolygon","coordinates": [[[[101.8382,0.6493,34.7179],[101.8382,0.637,37.9672],[101.849,0.637,37.9346],[101.8489,0.6421,45.6118],[101.8467,0.6421,37.811],[101.8467,0.6482,37.719],[101.8548,0.6464,26.2052],[101.8547,0.708,11.1851],[101.8713,0.708,13.9725],[101.8713,0.7154,8.3343],[101.8995,0.7154,6.4602],[101.8995,0.7243,5.0574],[101.9427,0.7243,11.1727],[101.9427,0.7451,8.3827],[101.9172,0.7451,15.1265],[101.914,0.7876,9.52],[101.9125,0.7892,1.0],[101.9086,0.7861,7.1513],[101.9007,0.7921,18.3505],[101.8835,0.819,14.7548],[101.8747,0.8285,12.0721],[101.8749,0.8356,9.8019],[101.8279,0.8464,17.4961],[101.8264,0.8585,13.2769],[101.8279,0.8606,18.7357],[101.8277,0.866,22.412],[101.8307,0.8674,11.9342],[101.8308,0.8693,12.5751],[101.8144,0.884,20.1461],[101.806,0.8864,18.3858],[101.7914,0.8275,20.1402],[101.8006,0.8238,17.7627],[101.8044,0.8259,20.585],[101.7883,0.7939,12.3607],[101.7739,0.7859,10.7198],[101.757,0.783,1.0],[101.7525,0.7906,4.5778],[101.7525,0.7944,7.012],[101.7194,0.7944,14.5718],[101.6774,0.7685,16.8855],[101.6844,0.7674,13.6444],[101.7084,0.7538,5.9386],[101.7105,0.7469,1.5457],[101.7095,0.7447,5.005],[101.6998,0.7403,4.2088],[101.6911,0.7327,2.7619],[101.6776,0.7284,2.9351],[101.6728,0.7225,2.6895],[101.6863,0.7089,6.758],[101.7011,0.6875,9.8851],[101.6866,0.668,15.8715],[101.6821,0.6658,21.6762],[101.6814,0.6618,15.8537],[101.6784,0.6581,13.3646],[101.6841,0.6525,34.0353],[101.687,0.6473,33.1195],[101.6849,0.6471,30.5815],[101.6849,0.6397,34.4281],[101.6885,0.6397,18.6133],[101.688,0.6327,14.1407],[101.694,0.6281,15.5538],[101.6962,0.6188,8.1715],[101.7002,0.6169,6.8593],[101.7081,0.6188,6.9286],[101.7152,0.6265,7.1721],[101.7159,0.6296,8.3463],[101.8002,0.6296,37.2552],[101.8003,0.6526,26.4328],[101.8104,0.6542,25.6401],[101.8103,0.6554,25.6401],[101.8382,0.6493,34.7179]]]]}}