{"type":"Feature","properties":{"GID_3":"IDN.17.11.6_1","GID_0":"IDN","country":"Indonesia","GID_1":"IDN.17_1","province":"Lampung","NL_NAME_1":"NA","GID_2":"IDN.17.11_1","county":"Tanggamus","NL_NAME_2":"NA","city":"GunungAlip","VARNAME_3":"NA","NL_NAME_3":"NA","TYPE_3":"Kecamatan","ENGTYPE_3":"Sub-district","CC_3":"1802043","HASC_3":"NA","name":"Gunung_Alip.city"},
"geometry":{"type": "MultiPolygon","coordinates": [[[[104.7585,-5.4285,383.7245],[104.7628,-5.4368,362.8787],[104.766,-5.4354,346.9373],[104.7729,-5.4273,322.415],[104.7779,-5.4265,306.8348],[104.7821,-5.4295,351.0492],[104.7896,-5.4308,319.9636],[104.7924,-5.4246,278.9675],[104.7931,-5.4184,286.5863],[104.7998,-5.4037,243.606],[104.7978,-5.4006,262.5352],[104.7906,-5.3972,302.3928],[104.7881,-5.3912,289.3587],[104.7767,-5.3788,274.0617],[104.7672,-5.374,276.2008],[104.7491,-5.3803,328.1423],[104.7492,-5.4053,423.7672],[104.756,-5.4059,379.9923],[104.7586,-5.4188,403.542],[104.7585,-5.4285,383.7245]]]]}}