{"type":"Feature","properties":{"GID_3":"IDN.13.13.8_1","GID_0":"IDN","country":"Indonesia","GID_1":"IDN.13_1","province":"KalimantanSelatan","NL_NAME_1":"NA","GID_2":"IDN.13.13_1","county":"Tapin","NL_NAME_2":"NA","city":"Piani","VARNAME_3":"NA","NL_NAME_3":"NA","TYPE_3":"Kecamatan","ENGTYPE_3":"Sub-district","CC_3":"6305050","HASC_3":"NA","name":"Piani.city"},
"geometry":{"type": "MultiPolygon","coordinates": [[[[115.3136,-2.9742,313.5479],[115.3217,-2.969,284.5803],[115.3418,-2.9652,177.1932],[115.3447,-2.966,212.0456],[115.3446,-2.9796,196.8523],[115.3504,-2.9796,220.5716],[115.3513,-2.9829,230.5653],[115.3563,-2.9848,265.8381],[115.3684,-2.979,504.3464],[115.3762,-2.9773,708.6441],[115.3879,-2.9782,768.8933],[115.3895,-2.9797,746.0641],[115.3918,-2.9888,785.0759],[115.3989,-2.9953,710.8735],[115.4014,-2.9953,690.326],[115.4117,-2.9829,607.6309],[115.4206,-2.9828,452.4333],[115.4297,-2.977,587.1729],[115.4346,-2.9766,616.5076],[115.4423,-2.9617,679.9567],[115.4478,-2.956,580.4918],[115.4537,-2.9521,649.5606],[115.4585,-2.9511,633.9246],[115.4627,-2.9449,518.902],[115.4654,-2.9431,501.45],[115.4768,-2.9411,463.8017],[115.4844,-2.9252,616.9826],[115.4852,-2.9164,668.7841],[115.4949,-2.9102,872.9287],[115.4971,-2.9041,948.8751],[115.5004,-2.902,889.7958],[115.5076,-2.8864,1034.6428],[115.4993,-2.8807,806.9199],[115.4876,-2.8786,428.8224],[115.4783,-2.8731,441.4451],[115.4741,-2.875,393.1739],[115.466,-2.8732,499.4348],[115.4578,-2.8737,610.8633],[115.4455,-2.889,784.8946],[115.443,-2.8895,807.6868],[115.438,-2.8842,631.8362],[115.42529999999999,-2.89,330.5616],[115.4192,-2.89,330.4659],[115.4158,-2.8921,345.1822],[115.402,-2.8947,221.4774],[115.396,-2.8925,228.0263],[115.3892,-2.8857,284.1517],[115.3861,-2.8856,387.214],[115.3824,-2.882,437.6863],[115.3753,-2.8943,380.7406],[115.3761,-2.8975,383.1379],[115.3845,-2.9042,239.4817],[115.3839,-2.9105,360.4105],[115.381,-2.9167,561.7169],[115.354,-2.9352,505.3025],[115.3419,-2.9376,363.3139],[115.3377,-2.9372,301.3451],[115.3349,-2.934,208.1822],[115.3314,-2.9332,161.0435],[115.3219,-2.9359,138.5043],[115.3177,-2.9252,113.344],[115.3012,-2.924,127.4664],[115.2964,-2.9333,136.4296],[115.2869,-2.9298,87.0343],[115.2825,-2.9297,74.7921],[115.269,-2.9428,76.5557],[115.2584,-2.9415,73.6824],[115.248,-2.9425,97.4007],[115.2451,-2.9463,61.746],[115.2453,-2.9515,57.8446],[115.2312,-2.9637,70.2629],[115.2272,-2.969,111.8494],[115.2603,-2.9729,91.7659],[115.2665,-2.9781,55.0854],[115.2722,-2.98,125.1692],[115.2726,-2.9844,144.4873],[115.2803,-2.9876,163.2381],[115.283,-2.9953,228.6335],[115.2905,-2.9912,192.1819],[115.2967,-2.9913,233.7835],[115.2984,-2.9887,181.6903],[115.3126,-2.9814,262.7593],[115.3136,-2.9742,313.5479]]]]}}