{"type":"Feature","properties":{"GID_3":"IDN.11.34.4_1","GID_0":"IDN","country":"Indonesia","GID_1":"IDN.11_1","province":"JawaTimur","NL_NAME_1":"NA","GID_2":"IDN.11.34_1","county":"Sumenep","NL_NAME_2":"NA","city":"Batuan","VARNAME_3":"NA","NL_NAME_3":"NA","TYPE_3":"Kecamatan","ENGTYPE_3":"Sub-district","CC_3":"3529071","HASC_3":"NA","name":"Batuan.city"},
"geometry":{"type": "MultiPolygon","coordinates": [[[[113.8585,-7.0292,6.6662],[113.8579,-7.0269,5.6849],[113.8547,-7.026,7.7432],[113.8567,-7.022,9.2739],[113.8545,-7.0219,9.694],[113.8536,-7.0163,9.5873],[113.8483,-7.0152,10.887],[113.849,-7.011,14.9865],[113.8455,-7.0108,11.813],[113.8484,-7.0083,15.9787],[113.8451,-7.0059,19.263],[113.8461,-7.0005,21.2705],[113.8443,-7.0006,26.2699],[113.8412,-6.9974,68.4264],[113.8389,-6.9913,96.6339],[113.8332,-6.9933,118.5352],[113.8301,-6.992,125.1046],[113.8311,-6.996,113.6179],[113.8283,-6.9966,103.729],[113.8251,-6.9943,80.372],[113.8171,-6.9986,108.258],[113.8163,-7.0013,115.8106],[113.8143,-7.0023,134.1893],[113.809,-7.0015,150.4797],[113.8055,-7.0031,162.1511],[113.7995,-7.0017,151.5503],[113.8009,-7.0078,125.5855],[113.8048,-7.0111,71.7853],[113.8085,-7.0182,19.2699],[113.8084,-7.0283,7.0447],[113.8153,-7.0299,4.0439],[113.8158,-7.026,3.9878999999999998],[113.8197,-7.0258,3.2022],[113.8273,-7.0281,4.5288],[113.8392,-7.047,2.8358],[113.8472,-7.0527,2.0478],[113.8531,-7.051,1.5],[113.8596,-7.0534,1.5027],[113.8637,-7.0499,1.0],[113.8653,-7.0503,1.0],[113.8655,-7.0483,1.5155],[113.869,-7.0492,1.6897],[113.8737,-7.0417,2.0],[113.8678,-7.0376,2.3216],[113.8683,-7.0321,3.9385],[113.8617,-7.0288,7.1068],[113.8585,-7.0292,6.6662]]]]}}