{"type":"Feature","properties":{"GID_3":"IDN.23.19.5_1","GID_0":"IDN","country":"Indonesia","GID_1":"IDN.23_1","province":"Papua","NL_NAME_1":"NA","GID_2":"IDN.23.19_1","county":"Nduga","NL_NAME_2":"NA","city":"Mbuwa","VARNAME_3":"NA","NL_NAME_3":"NA","TYPE_3":"Distrik","ENGTYPE_3":"District","CC_3":"9429070","HASC_3":"NA","name":"Mbuwa.city"},
"geometry":{"type": "MultiPolygon","coordinates": [[[[138.5168,-4.2636,2689.9563],[138.536,-4.2421,3086.2366],[138.5519,-4.233,3536.689],[138.5542,-4.2148,3726.9578],[138.5546,-4.192,3898.144],[138.505,-4.1884,3118.3025],[138.4589,-4.1902,2897.7878],[138.4361,-4.1856,3359.9683],[138.4283,-4.2829,2591.3306],[138.451,-4.2942,1882.0377],[138.4691,-4.2988,1808.7809],[138.4759,-4.3067,2285.6213],[138.4884,-4.3146,2722.8132],[138.4997,-4.3033,2980.7861],[138.5043,-4.284,2729.228],[138.5168,-4.2636,2689.9563]]]]}}