{"type":"Feature","properties":{"GID_2":"IDN.6.1_1","GID_0":"IDN","country":"Indonesia","GID_1":"IDN.6_1","province":"Gorontalo","NL_NAME_1":"NA","county":"Boalemo","VARNAME_2":"NA","NL_NAME_2":"NA","TYPE_2":"Kabupaten","ENGTYPE_2":"Regency","CC_2":"7501","HASC_2":"ID.GO.BO","name":"Boalemo.county"},
"geometry":{"type": "MultiPolygon","coordinates": [[[[122.6306,0.4871,7.4429],[122.6367,0.4843,40.7812],[122.6436,0.4758,1.9308],[122.6534,0.4854,0.0],[122.6554,0.4948,12.8714],[122.6523,0.4968,126.6369],[122.6524,0.5,15.3936],[122.6506,0.5019,37.5019],[122.6516,0.5078,0.0],[122.6482,0.5111,86.8715],[122.6466,0.5157,62.3491],[122.6478,0.5179,21.0037],[122.6495,0.5179,0.7926],[122.6465,0.5247,2.6518],[122.6439,0.5277,5.9184],[122.6377,0.5306,12.7236],[122.6359,0.5348,7.1353],[122.6297,0.5332,38.1235],[122.6284,0.5396,11.2246],[122.6336,0.5479,19.2694],[122.6315,0.5534,86.4014],[122.633,0.5613,11.1133],[122.6386,0.5635,10.4715],[122.6383,0.5668,14.1805],[122.633,0.5766,8.8431],[122.631,0.5771,19.8026],[122.6319,0.5813,17.917],[122.63,0.5839,10.441],[122.6276,0.5831,58.7909],[122.6306,0.5891,12.5737],[122.6222,0.5927,13.0726],[122.6216,0.5972,28.8438],[122.6172,0.5963,27.7701],[122.6168,0.601,15.796],[122.6118,0.6065,15.9956],[122.6099,0.6114,25.1317],[122.6096,0.6195,15.22],[122.6028,0.6313,12.5201],[122.6067,0.6336,13.6534],[122.603,0.635,14.0131],[122.6037,0.6404,13.4854],[122.6027,0.6413,15.5282],[122.595,0.639,18.6475],[122.595,0.6405,16.5595],[122.5991,0.642,14.4281],[122.6003,0.6492,14.4416],[122.5987,0.6497,15.7377],[122.5964,0.6471,15.1876],[122.5947,0.6479,19.25],[122.5976,0.6516,22.7138],[122.5952,0.6527,16.4031],[122.5937,0.6573,22.1711],[122.5919,0.6524,16.2824],[122.5881,0.6534,16.522],[122.5884,0.6591,18.6752],[122.5862,0.6562,17.4868],[122.5841,0.6564,18.5897],[122.5854,0.6625,20.0275],[122.5804,0.6591,19.1068],[122.5796,0.6552,20.5292],[122.5782,0.6621,20.8715],[122.5768,0.6625,20.8715],[122.572,0.6587,20.9947],[122.5685,0.6606,19.3104],[122.5672,0.6646,18.8481],[122.5714,0.6631,19.7889],[122.5724,0.6647,19.4804],[122.5695,0.6669,21.7897],[122.5694,0.6692,19.4606],[122.5635,0.6729,20.5132],[122.5667,0.6774,22.003],[122.5634,0.6776,20.5142],[122.5558,0.6838,20.6981],[122.5504,0.6926,22.2311],[122.5438,0.6929,22.6654],[122.5435,0.6951,24.3079],[122.5482,0.6955,24.5954],[122.5452,0.6999,20.5],[122.5376,0.702,23.31],[122.5329,0.7003,25.7358],[122.5255,0.7042,24.4541],[122.5222,0.7039,23.0945],[122.5207,0.7096,24.3766],[122.5153,0.7077,25.139],[122.5124,0.7121,27.1393],[122.5087,0.7086,30.739],[122.506,0.7098,30.045],[122.5039,0.7144,26.2205],[122.5055,0.7188,34.8022],[122.4968,0.7194,28.4112],[122.4982,0.7248,29.0515],[122.4936,0.7273,30.986],[122.494,0.7289,32.0297],[122.4974,0.7292,29.4816],[122.4998,0.7323,34.0439],[122.5018,0.7326,29.6645],[122.5028,0.7342,30.8042],[122.5016,0.7357,31.4048],[122.4981,0.7364,32.0864],[122.4934,0.7406,32.6456],[122.4929,0.7364,33.657],[122.4902,0.7346,34.7004],[122.4862,0.7422,35.7727],[122.485,0.7415,33.7147],[122.4848,0.736,35.1691],[122.4825,0.7348,35.38],[122.4806,0.7378,36.1993],[122.4824,0.7425,37.127],[122.479,0.7429,33.8925],[122.469,0.7507,37.8579],[122.4721,0.7538,38.1792],[122.4721,0.7557,39.7449],[122.4681,0.7547,38.2641],[122.4653,0.7587,39.6364],[122.4619,0.7565,39.2127],[122.457,0.7572,43.0212],[122.45,0.754,41.9228],[122.4473,0.7567,43.3401],[122.4482,0.7612,92.3065],[122.443,0.7659,66.6796],[122.442,0.7629,47.0613],[122.4372,0.7605,44.5477],[122.437,0.7575,45.5057],[122.4333,0.7591,45.2969],[122.4307,0.7553,48.3513],[122.4293,0.7552,49.5219],[122.4285,0.7598,47.495],[122.4254,0.7596,47.6971],[122.4209,0.7567,48.0303],[122.4156,0.762,48.8307],[122.4107,0.7645,51.4593],[122.409,0.764,56.6324],[122.4087,0.7578,50.4428],[122.403,0.7639,52.8741],[122.4011,0.7638,53.7942],[122.4005,0.761,51.5944],[122.3986,0.7603,70.9869],[122.3987,0.7645,53.4442],[122.3954,0.765,76.5418],[122.3934,0.7691,54.1803],[122.3912,0.7689,57.5597],[122.3884,0.7729,54.4459],[122.3873,0.7715,70.7101],[122.3808,0.7768,77.6832],[122.3808,0.7804,56.3574],[122.377,0.7782,74.5438],[122.3729,0.7814,57.8119],[122.3701,0.78,61.2826],[122.3653,0.7831,62.8371],[122.3602,0.7828,68.4264],[122.3565,0.787,61.5036],[122.352,0.7888,63.2227],[122.3499,0.7921,70.6524],[122.3428,0.7926,71.5414],[122.3388,0.796,73.0116],[122.3394,0.7948,66.3998],[122.3361,0.7929,66.3882],[122.3344,0.7949,68.0599],[122.3326,0.7935,66.3653],[122.3277,0.7946,69.375],[122.3261,0.7934,69.7841],[122.3248,0.7955,71.5019],[122.3214,0.7946,72.1932],[122.32,0.7965,77.5296],[122.315,0.7969,82.4948],[122.3159,0.7945,72.3831],[122.3118,0.7942,73.884],[122.3017,0.7896,88.648],[122.3042,0.7875,86.2079],[122.2974,0.7859,92.8442],[122.2951,0.787,82.4701],[122.2928,0.784,80.06],[122.291,0.7858,86.7178],[122.282,0.7861,97.5313],[122.2762,0.7833,97.3165],[122.2739,0.7854,100.4808],[122.2683,0.7843,101.7175],[122.2643,0.7897,124.0704],[122.2612,0.7921,145.9097],[122.2586,0.7917,149.1014],[122.2579,0.7942,195.4596],[122.2557,0.795,131.2783],[122.2513,0.7901,236.0493],[122.2524,0.7944,134.9873],[122.2503,0.7996,141.3557],[122.2524,0.7996,151.5861],[122.253,0.8015,135.5591],[122.2493,0.8041,161.4473],[122.2506,0.8075,146.6271],[122.2487,0.8081,178.0766],[122.2477,0.8123,203.2996],[122.2452,0.8116,194.5265],[122.245,0.8139,232.0316],[122.2476,0.8139,207.5707],[122.2467,0.8159,154.689],[122.2479,0.8208,175.9796],[122.2538,0.8247,198.6185],[122.2525,0.8265,185.8364],[122.2498,0.8259,169.2292],[122.2489,0.8273,191.0458],[122.2513,0.8291,164.3782],[122.2502,0.831,179.3465],[122.2535,0.8363,214.1735],[122.2554,0.8364,167.4702],[122.2549,0.8339,174.3864],[122.2562,0.835,201.0803],[122.2567,0.8367,182.4688],[122.2546,0.8387,177.2648],[122.2641,0.8442,209.9854],[122.255,0.8483,187.0201],[122.2521,0.8461,205.7068],[122.2523,0.8511,193.0863],[122.2475,0.854,210.5592],[122.2518,0.8568,219.1054],[122.2516,0.859,212.2905],[122.2553,0.8634,215.9758],[122.2522,0.8652,231.0818],[122.2517,0.8684,207.1815],[122.2482,0.9139,892.9462],[122.2411,0.9113,930.9203],[122.2306,0.9104,872.4372],[122.2262,0.9046,960.1167],[122.2152,0.9019,914.8205],[122.2108,0.8979,967.2467],[122.1968,0.902,1078.6091],[122.1882,0.9065,1079.4478],[122.1834,0.9112,1226.8513],[122.1724,0.9135,1058.8904],[122.1667,0.9133,1061.9485],[122.1627,0.911,936.0078],[122.1596,0.9062,1110.2354],[122.1556,0.9054,1230.3516],[122.1535,0.9077,1279.308],[122.1501,0.9068,1267.3767],[122.1453,0.9084,1244.4207],[122.1433,0.9133,1097.7393],[122.1401,0.9142,927.4736],[122.1324,0.9057,1171.2634],[122.1296,0.9043,1166.9033],[122.1246,0.9057,1096.7783],[122.1176,0.9091,1647.9639],[122.1153,0.9122,1478.9841],[122.1164,0.9196,1114.6801],[122.1148,0.9215,962.6785],[122.1106,0.9218,772.0856],[122.109,0.929,658.6406],[122.1055,0.9335,690.5892],[122.0937,0.9205,1228.6865],[122.0857,0.926,1177.1827],[122.0829,0.9235,1330.6002],[122.0826,0.9134,1643.2817],[122.0801,0.9087,1706.2373],[122.079,0.9003,1756.5393],[122.0807,0.8976,1732.4473],[122.0875,0.8938,1366.7424],[122.0883,0.8798,1428.6764],[122.0822,0.8599,704.1917],[122.0817,0.8436,665.9297],[122.0858,0.8372,601.2361],[122.0899,0.8229,473.4155],[122.1025,0.8222,593.3766],[122.115,0.8187,550.0167],[122.1159,0.7859,354.8471],[122.1248,0.6829,327.7087],[122.1296,0.6598,412.5756],[122.1326,0.6347,475.4728],[122.1332,0.6015,391.2908],[122.1345,0.5955,475.0375],[122.1309,0.5848,199.9703],[122.1291,0.5666,88.2515],[122.13,0.5574,79.5978],[122.1248,0.5469,104.99],[122.1187,0.5428,59.3783],[122.1218,0.5076,7.6359],[122.1195,0.4962,0.0],[122.1216,0.494,1.0788],[122.1234,0.4955,7.7429],[122.1247,0.4924,8.1824],[122.1281,0.4925,4.0236],[122.1476,0.4803,0.0],[122.1479,0.477,13.4799],[122.1465,0.4756,0.0],[122.1476,0.4712,0.0],[122.1518,0.4684,1.898],[122.1505,0.4651,7.6548],[122.1478,0.4633,0.0],[122.1513,0.4634,14.2405],[122.1529,0.4619,0.0],[122.154,0.4655,1.4814],[122.1523,0.468,1.898],[122.1536,0.4706,14.619],[122.1587,0.4696,3.2484],[122.1648,0.471,3.7258],[122.1691,0.469,2.5188],[122.1707,0.4724,3.7023],[122.1744,0.473,3.0812],[122.1792,0.4768,9.5283],[122.1815,0.4774,5.354],[122.1829,0.4756,0.849],[122.1841,0.4779,0.3076],[122.1883,0.478,0.0],[122.1903,0.4798,2.0708],[122.1979,0.4743,0.0],[122.2012,0.474,3.1273],[122.2203,0.4842,2.5609],[122.2243,0.4839,1.4638],[122.228,0.4797,0.0],[122.23,0.4822,0.0],[122.2286,0.4853,8.4094],[122.2305,0.4844,0.9435],[122.2331,0.487,2.53],[122.2379,0.4841,3.4389],[122.2333,0.4814,11.2429],[122.234,0.4795,6.3299],[122.2362,0.4796,15.4895],[122.2397,0.4833,1.3575],[122.2475,0.4822,2.9155],[122.2558,0.4858,4.8495],[122.2607,0.482,0.0],[122.2618,0.479,0.0],[122.2654,0.4781,0.0],[122.2669,0.4806,7.7151],[122.2686,0.4743,2.6429],[122.2716,0.4738,4.2758],[122.2721,0.4756,6.0338],[122.2749,0.4741,1.2079],[122.2756,0.4798,5.0569],[122.2773,0.4764,0.0],[122.2811,0.4751,0.0],[122.2824,0.4764,4.7346],[122.2795,0.4805,6.2476],[122.2906,0.4782,2.1025],[122.2935,0.4808,0.0],[122.2843,0.4867,13.8086],[122.2996,0.484,2.0129],[122.3042,0.4902,1.1699],[122.3077,0.492,0.0],[122.3126,0.489,2.5625],[122.3159,0.49,0.0],[122.3161,0.4911,0.0],[122.312,0.4927,2.3307],[122.3137,0.4962,7.5502],[122.3152,0.494,0.564],[122.3176,0.495,0.0],[122.3158,0.5047,0.0],[122.3177,0.5084,4.7754],[122.3194,0.5007,1.5108],[122.3229,0.497,0.0],[122.3216,0.4939,1.0599],[122.3245,0.4924,3.6379],[122.3269,0.4927,1.162],[122.3285,0.5034,1.5081],[122.3328,0.5043,6.7439],[122.3325,0.5096,1.9069],[122.3346,0.5057,13.208],[122.3343,0.5009,1.2794],[122.3387,0.5041,2.3254],[122.3382,0.5077,8.2289],[122.3406,0.5035,5.3512],[122.3351,0.4977,1.6982],[122.3362,0.4969,0.0],[122.3382,0.4988,7.3506],[122.3368,0.4956,0.0],[122.3376,0.4923,0.0],[122.339,0.4922,1.8515],[122.3398,0.4965,13.5185],[122.3414,0.4964,2.5858],[122.3402,0.4936,0.0],[122.3436,0.4931,0.0],[122.3423,0.495,0.0],[122.3438,0.4974,9.8645],[122.344,0.4956,0.0],[122.3471,0.4969,0.5323],[122.3495,0.4929,0.0],[122.351,0.4946,2.6263],[122.3523,0.4928,0.0],[122.3524,0.4966,0.0],[122.3478,0.5029,5.1813],[122.3545,0.5096,0.7309],[122.358,0.5092,2.4908],[122.3609,0.5052,2.0316],[122.3615,0.5068,0.0],[122.3635,0.5067,3.113],[122.3619,0.504,2.0316],[122.3659,0.5021,2.2578],[122.3741,0.5131,4.3811],[122.3758,0.5127,4.3496],[122.3787,0.5153,0.0],[122.3797,0.5184,1.4467],[122.3815,0.5144,3.6711],[122.3834,0.5142,1.9215],[122.3853,0.5165,8.9369],[122.3855,0.5142,22.977],[122.3877,0.5128,0.0],[122.39,0.516,0.0],[122.3892,0.5213,12.3027],[122.3917,0.5181,0.0],[122.3937,0.5192,6.3271],[122.3956,0.5168,0.0],[122.3963,0.5194,10.896],[122.3999,0.5184,0.0],[122.3999,0.5199,2.3997],[122.403,0.5214,1.9625],[122.4037,0.5205,1.9625],[122.402,0.5198,1.0241],[122.4004,0.5158,0.0],[122.4081,0.5187,0.8998],[122.4048,0.5127,5.1154],[122.4075,0.511,6.9322],[122.4054,0.5104,1.1593],[122.4058,0.5093,1.1593],[122.4138,0.5115,0.68],[122.4137,0.514,12.5933],[122.4164,0.5127,5.0651],[122.4166,0.5082,2.8066],[122.4123,0.5053,4.9735],[122.4142,0.5017,0.0],[122.419,0.5024,2.8293],[122.4234,0.5058,3.1245],[122.4284,0.5049,2.8942],[122.4301,0.5027,0.0],[122.4322,0.5037,2.1094],[122.4319,0.5017,0.7552],[122.4359,0.4999,0.8693],[122.4389,0.5024,0.0],[122.4395,0.5057,1.8968],[122.4417,0.5041,1.4481],[122.4469,0.5055,2.5503],[122.4472,0.5073,0.0],[122.4442,0.5074,0.9526],[122.4436,0.5096,0.0],[122.4413,0.509,0.6884],[122.4406,0.5114,0.9612],[122.4421,0.5128,1.9219],[122.4432,0.5113,0.0],[122.4422,0.5137,1.9219],[122.4445,0.5154,1.6886],[122.4453,0.5125,0.7274],[122.4466,0.5132,0.7274],[122.4457,0.5161,1.5594],[122.447,0.5174,3.6676],[122.4505,0.5095,1.94],[122.4484,0.5101,0.0],[122.45,0.5073,1.668],[122.4695,0.5056,1.8454],[122.4668,0.5028,5.2933],[122.4625,0.5036,6.7121],[122.4624,0.5014,0.0],[122.4754,0.502,0.0],[122.4763,0.5037,0.0],[122.4753,0.5057,0.8037],[122.4722,0.5062,5.4665],[122.4765,0.5065,3.6731],[122.478,0.5027,1.0788],[122.4815,0.5012,0.0],[122.4956,0.5018,0.0],[122.4962,0.5079,18.3258],[122.4996,0.5069,0.0],[122.5004,0.5048,0.0],[122.5026,0.508,2.7985],[122.511,0.5134,2.6354],[122.5124,0.5115,2.5389],[122.5071,0.5087,3.0131],[122.5063,0.5066,0.0],[122.511,0.5027,7.1668],[122.5124,0.4982,0.0],[122.5175,0.4973,0.0],[122.5177,0.5019,0.0],[122.5151,0.5026,2.1745],[122.5138,0.5049,7.8827],[122.5129,0.5093,0.7639],[122.514,0.5109,5.321],[122.5203,0.5017,0.0],[122.5229,0.5056,15.9243],[122.5248,0.5033,0.0],[122.5265,0.506,2.6724],[122.5287,0.5063,0.5373],[122.5315,0.5012,2.3602],[122.5333,0.5007,2.3602],[122.535,0.5032,8.8436],[122.5386,0.5029,1.3111],[122.5441,0.5078,6.5412],[122.5465,0.5063,9.71],[122.5463,0.5047,18.505],[122.5433,0.5032,0.0],[122.54,0.4942,10.667],[122.5457,0.4898,0.0],[122.5519,0.4906,2.0385],[122.5565,0.4961,0.0],[122.5577,0.5004,11.5451],[122.5548,0.5071,0.0],[122.5501,0.5082,1.6885],[122.552,0.5113,0.0],[122.5513,0.5131,12.8605],[122.5562,0.513,1.8572],[122.5581,0.5113,0.0],[122.5659,0.5137,0.0],[122.568,0.5126,1.9425],[122.5691,0.509,1.4619],[122.5653,0.5077,0.0],[122.5597,0.5019,0.0],[122.5602,0.4993,0.0],[122.5651,0.495,0.0],[122.5734,0.4927,0.0],[122.5903,0.4974,5.4891],[122.5907,0.5,24.2891],[122.595,0.5045,23.248],[122.5866,0.508,31.2876],[122.5843,0.5099,15.2489],[122.5854,0.5107,5.6027],[122.5952,0.5064,0.0],[122.5962,0.5081,15.135],[122.6051,0.5065,0.0],[122.5931,0.4979,21.2608],[122.5925,0.495,0.0],[122.5937,0.4941,0.6978],[122.601,0.4937,0.0],[122.6092,0.4871,1.4698],[122.6146,0.4894,0.0],[122.6147,0.492,0.0],[122.6195,0.4976,13.18],[122.6196,0.4945,1.5216],[122.6173,0.4917,0.0],[122.6179,0.4893,3.1332],[122.6248,0.4862,0.0],[122.6306,0.4871,7.4429]]],
[[[122.5345,0.4921,14.3203],[122.5356,0.4971,0.0],[122.5334,0.5002,9.0744],[122.5295,0.501,0.0],[122.527,0.4987,25.2518],[122.5246,0.4986,0.0],[122.5242,0.4958,3.7932],[122.5225,0.4979,0.858],[122.5214,0.4968,5.0034],[122.5234,0.4918,0.0],[122.529,0.4886,0.0],[122.5345,0.4921,14.3203]]],
[[[122.1209,0.405,0.0],[122.1191,0.4086,1.4531],[122.117,0.4066,0.8375],[122.1171,0.4052,0.0],[122.1209,0.405,0.0]]],
[[[122.1469,0.4621,0.0],[122.1467,0.4617,0.0],[122.1471,0.4615,0.0],[122.1474,0.4621,0.0],[122.1469,0.4621,0.0]]],
[[[122.1335,0.4782,0.0],[122.1334,0.4791,1.8922],[122.1326,0.4792,1.8922],[122.1329,0.4782,0.0],[122.1335,0.4782,0.0]]],
[[[122.1277,0.4804,31.3153],[122.125,0.4815,5.3588],[122.1257,0.477,0.0],[122.1314,0.4792,5.2645],[122.1312,0.4795,5.2645],[122.1277,0.4804,31.3153]]],
[[[122.2284,0.4302,0.0],[122.2322,0.4312,4.4938],[122.2331,0.4331,0.0],[122.231,0.4346,0.0],[122.2259,0.4346,0.0],[122.2253,0.4316,0.0],[122.2284,0.4302,0.0]]],
[[[122.3326,0.4596,5.575],[122.3308,0.4626,0.0],[122.3283,0.4598,0.0],[122.3311,0.4541,0.0],[122.3325,0.456,3.3096],[122.3312,0.4587,1.3075],[122.3326,0.4596,5.575]]],
[[[122.326,0.4874,0.0],[122.3258,0.4879,0.0],[122.3252,0.4868,0.0],[122.3257,0.4867,0.0],[122.326,0.4874,0.0]]],
[[[122.3288,0.4984,0.0],[122.329,0.498,0.0],[122.3295,0.4982,0.0],[122.3293,0.4985,0.0],[122.3288,0.4984,0.0]]],
[[[122.3505,0.4668,0.0],[122.3472,0.4669,0.0],[122.3466,0.4646,0.0],[122.35,0.4637,0.0],[122.3505,0.4668,0.0]]],
[[[122.3656,0.4727,4.9318],[122.3656,0.4748,2.9769],[122.3622,0.4748,0.0],[122.359,0.4704,3.1168],[122.3552,0.4682,0.0],[122.3585,0.4672,1.4827],[122.3656,0.4727,4.9318]]],
[[[122.3461,0.4774,0.0],[122.3458,0.4768,0.0],[122.3469,0.478,0.0],[122.3462,0.4781,0.0],[122.3461,0.4774,0.0]]],
[[[122.3542,0.483,0.0],[122.3559,0.4828,0.0],[122.3559,0.4856,0.0],[122.3545,0.4854,1.6951],[122.3542,0.483,0.0]]],
[[[122.3434,0.4855,0.0],[122.3437,0.4849,0.0],[122.344,0.4849,0.0],[122.3441,0.4855,0.0],[122.3434,0.4855,0.0]]],
[[[122.3484,0.4909,0.0],[122.3481,0.4905,0.0],[122.3482,0.4899,0.0],[122.3489,0.4908,0.0],[122.3484,0.4909,0.0]]],
[[[122.3495,0.4923,0.0],[122.3495,0.4927,0.0],[122.3494,0.4927,0.0],[122.3493,0.4924,0.0],[122.3495,0.4923,0.0]]],
[[[122.3865,0.5011,0.0],[122.3849,0.5003,0.0],[122.3853,0.499,0.0],[122.3871,0.4993,0.0],[122.3865,0.5011,0.0]]],
[[[122.4455,0.5008,1.7422],[122.4448,0.502,1.8247],[122.44,0.5002,0.0],[122.4403,0.4972,0.0],[122.4429,0.4945,0.0],[122.4496,0.4944,1.0052],[122.4508,0.4967,3.3888],[122.4515,0.4955,0.8619],[122.4503,0.5013,17.4285],[122.4455,0.5008,1.7422]]]]}}