{"type":"Feature","properties":{"GID_3":"IDN.10.7.12_1","GID_0":"IDN","country":"Indonesia","GID_1":"IDN.10_1","province":"JawaTengah","NL_NAME_1":"NA","GID_2":"IDN.10.7_1","county":"Cilacap","NL_NAME_2":"NA","city":"Kampunglaut","VARNAME_3":"NA","NL_NAME_3":"NA","TYPE_3":"Kecamatan","ENGTYPE_3":"Sub-district","CC_3":"3301121","HASC_3":"NA","name":"Kampunglaut.city"},
"geometry":{"type": "MultiPolygon","coordinates": [[[[108.9229,-7.7097,2.7574],[108.9235,-7.7069,1.9883],[108.9264,-7.708,0.5],[108.9277,-7.7102,1.654],[108.9261,-7.7127,1.0506],[108.9319,-7.7191,0.5],[108.9332,-7.7185,0.5],[108.9321,-7.7126,1.4419],[108.9344,-7.7126,2.0871],[108.9382,-7.7205,0.5],[108.9549,-7.7192,0.5],[108.9662,-7.7161,0.5],[108.9607,-7.6939,1.691],[108.9615,-7.6878,0.5],[108.9575,-7.6799,0.5],[108.9541,-7.6781,1.2414],[108.9539,-7.6672,1.0],[108.9457,-7.6676,1.8392],[108.9443,-7.6708,1.8217],[108.9421,-7.6688,1.9908],[108.9408,-7.6725,1.6828],[108.9376,-7.6749,1.615],[108.9382,-7.6766,2.0168],[108.937,-7.6775,1.8051],[108.9366,-7.6751,1.615],[108.9349,-7.6757,1.5312],[108.9358,-7.6786,1.2977],[108.9314,-7.6773,1.9716],[108.9303,-7.6751,1.3442],[108.9286,-7.6782,2.0337],[108.9265,-7.6753,1.945],[108.9253,-7.6785,2.2968],[108.9226,-7.6769,1.9104],[108.9204,-7.6785,1.9458],[108.9186,-7.675,1.6902],[108.9157,-7.6764,2.7793],[108.9159,-7.6791,3.2032],[108.9127,-7.6767,2.394],[108.9125,-7.6796,2.422],[108.9112,-7.6799,2.7139],[108.9076,-7.6772,2.0968],[108.9073,-7.6798,3.3867],[108.899,-7.6833,1.4986],[108.8968,-7.6821,1.602],[108.8972,-7.6782,1.9032],[108.9014,-7.671,2.001],[108.8992,-7.6695,1.6082],[108.8986,-7.6623,1.8613],[108.8941,-7.6479,2.087],[108.8962,-7.645,2.2561],[108.8955,-7.641,1.8418],[108.8979,-7.6337,1.8466],[108.8896,-7.6214,2.2744],[108.8901,-7.619,2.4812],[108.8856,-7.6165,2.2382],[108.8857,-7.6143,1.4436],[108.8772,-7.6069,2.586],[108.8651,-7.6122,5.2521],[108.8661,-7.6089,3.535],[108.863,-7.6067,1.0862],[108.8604,-7.6066,1.3682],[108.8571,-7.6091,1.2528],[108.8549,-7.6086,1.3424],[108.8538,-7.6062,1.3205],[108.8547,-7.602,3.3252],[108.8533,-7.6009,1.5242],[108.8502,-7.6019,1.4369],[108.846,-7.6001,1.3681],[108.8408,-7.6035,1.358],[108.8374,-7.5976,1.3203],[108.8303,-7.6003,0.2715],[108.8215,-7.6168,0.9074],[108.8213,-7.6311,0.9055],[108.8185,-7.6401,1.7797],[108.806,-7.6545,1.0834],[108.8048,-7.6638,2.2596],[108.8063,-7.682,4.3177],[108.8102,-7.6829,0.4996],[108.8118,-7.6851,24.6233],[108.8138,-7.6851,22.2963],[108.8126,-7.6836,6.0038],[108.8175,-7.6843,0.0],[108.8171,-7.6855,16.0937],[108.8224,-7.6881,24.2604],[108.8207,-7.6863,12.9727],[108.8224,-7.6861,5.2691],[108.8253,-7.6894,6.1706],[108.8319,-7.6896,11.7376],[108.8337,-7.6911,3.7865],[108.8316,-7.6922,16.6239],[108.8356,-7.6928,2.2291],[108.8359,-7.6946,38.9975],[108.8388,-7.6936,5.3813],[108.8475,-7.6989,2.4267],[108.8516,-7.7048,23.1463],[108.8564,-7.7056,3.561],[108.8539,-7.7066,7.3538],[108.8563,-7.7084,20.6569],[108.8569,-7.7067,9.9179],[108.8584,-7.7077,3.9809],[108.8579,-7.7106,15.2275],[108.8592,-7.7093,9.7781],[108.861,-7.712,20.6144],[108.8624,-7.7111,5.5798],[108.878,-7.7169,2.4886],[108.8833,-7.7261,3.4902],[108.8862,-7.7265,25.3698],[108.8875,-7.7249,12.1411],[108.8893,-7.7268,15.7473],[108.8898,-7.725,5.7301],[108.8926,-7.7282,23.3464],[108.8983,-7.7291,5.3111],[108.8983,-7.7253,2.8619],[108.9001,-7.723,3.2341],[108.9088,-7.7243,2.2088],[108.917,-7.7222,2.952],[108.9163,-7.7197,2.9351],[108.9194,-7.7199,2.7353],[108.9189,-7.7163,2.7138],[108.9214,-7.7159,2.8022],[108.9229,-7.7097,2.7574]]]]}}