{"type":"Feature","properties":{"GID_3":"IDN.31.3.8_1","GID_0":"IDN","country":"Indonesia","GID_1":"IDN.31_1","province":"SumateraSelatan","NL_NAME_1":"NA","GID_2":"IDN.31.3_1","county":"Lahat","NL_NAME_2":"NA","city":"KotaAgung","VARNAME_3":"NA","NL_NAME_3":"NA","TYPE_3":"Kecamatan","ENGTYPE_3":"Sub-district","CC_3":"1604040","HASC_3":"NA","name":"Kota_Agung.city"},
"geometry":{"type": "MultiPolygon","coordinates": [[[[103.4413,-4.1511,1327.972],[103.4541,-4.1118,1691.7854],[103.4614,-4.1074,1562.4547],[103.4659,-4.1004,1691.7219],[103.4701,-4.1005,1567.5344],[103.4961,-4.1292,1246.074],[103.4992,-4.1266,1216.9482],[103.4995,-4.1233,1177.3323],[103.5057,-4.1183,1031.7029],[103.5054,-4.1152,1051.7249],[103.5084,-4.1099,968.2169],[103.5124,-4.1074,943.0834],[103.4688,-4.0629,709.9854],[103.4689,-4.0509,645.9913],[103.4586,-4.0497,645.0078],[103.4567,-4.0461,627.5477],[103.4699,-4.0344,552.5531],[103.4713,-4.0277,555.7886],[103.4705,-4.0201,540.1227],[103.4654,-4.0192,524.888],[103.4575,-4.0223,543.3228],[103.456,-4.0279,574.6216],[103.4575,-4.0324,583.6583],[103.4523,-4.0335,605.7256],[103.4517,-4.037,621.467],[103.439,-4.0295,583.0654],[103.4298,-4.0327,601.7734],[103.4259,-4.0323,606.9255],[103.4279,-4.0288,595.7711],[103.4285,-4.0229,535.3568],[103.4081,-4.0179,463.8342],[103.409,-4.0199,536.4548],[103.4066,-4.0216,516.0556],[103.4077,-4.0232,467.3529],[103.4058,-4.0247,450.9969],[103.4064,-4.0268,439.1554],[103.4031,-4.0273,467.1438],[103.4032,-4.0293,467.9491],[103.4,-4.0316,503.3824],[103.4019,-4.034,569.4023],[103.3993,-4.0372,494.0513],[103.4011,-4.04,585.4528],[103.4,-4.0421,520.635],[103.4015,-4.0437,557.7666],[103.4011,-4.0478,555.8011],[103.3943,-4.0573,534.2123],[103.3963,-4.0609,516.9526],[103.3906,-4.0714,703.9792],[103.3871,-4.074,563.4487],[103.3827,-4.0739,591.0668],[103.3822,-4.0767,661.2385],[103.3762,-4.0817,582.8698],[103.3739,-4.0895,627.6929],[103.3706,-4.0932,627.5102],[103.3672,-4.0942,705.9573],[103.3649,-4.0972,682.6247],[103.3593,-4.0981,707.8782],[103.3631,-4.1133,738.0753],[103.3578,-4.1165,725.3889],[103.3553,-4.1235,845.1447],[103.3587,-4.1312,786.3428],[103.3611,-4.1318,789.7931],[103.3619,-4.1356,835.6664],[103.3608,-4.1371,865.5034],[103.3633,-4.1407,887.1723],[103.363,-4.1576,990.8226],[103.3605,-4.1603,961.1283],[103.3559,-4.1615,976.8378],[103.3528,-4.1677,1023.4637],[103.3531,-4.1708,1038.9254],[103.3491,-4.1711,1094.8118],[103.3488,-4.1751,1063.795],[103.3458,-4.1796,1118.2424],[103.3408,-4.1781,1159.0032],[103.3307,-4.1864,1258.1301],[103.3298,-4.1976,1476.4158],[103.3258,-4.2049,1518.5341],[103.3254,-4.2098,1568.9155],[103.3236,-4.2129,1609.4868],[103.3172,-4.2175,1814.2283],[103.3156,-4.2212,1876.762],[103.3165,-4.2375,2197.8484],[103.3092,-4.2519,2631.8328],[103.3628,-4.2225,2218.5442],[103.4389,-4.1705,1414.1846],[103.4396,-4.1565,1339.5491],[103.4413,-4.1511,1327.972]]]]}}