{"type":"Feature","properties":{"GID_3":"IDN.11.37.16_1","GID_0":"IDN","country":"Indonesia","GID_1":"IDN.11_1","province":"JawaTimur","NL_NAME_1":"NA","GID_2":"IDN.11.37_1","county":"Tuban","NL_NAME_2":"NA","city":"Singgahan","VARNAME_3":"NA","NL_NAME_3":"NA","TYPE_3":"Kecamatan","ENGTYPE_3":"Sub-district","CC_3":"3523040","HASC_3":"NA","name":"Singgahan.city"},
"geometry":{"type": "MultiPolygon","coordinates": [[[[111.7911,-7.0246,34.0427],[111.795,-7.0234,40.5834],[111.7997,-7.0247,48.2895],[111.8095,-7.0179,88.9712],[111.8062,-7.0131,79.0777],[111.8117,-7.0135,84.7869],[111.8122,-7.0119,93.7918],[111.808,-7.0075,83.698],[111.8108,-7.0042,130.6273],[111.8086,-6.99,129.4923],[111.811,-6.987,122.2291],[111.8141,-6.9719,191.2054],[111.8113,-6.964,142.1111],[111.8063,-6.9664,152.0632],[111.8018,-6.963,115.6101],[111.8054,-6.962,143.306],[111.805,-6.9595,164.4261],[111.8015,-6.956,179.9147],[111.8025,-6.9529,202.7258],[111.8008,-6.949,198.543],[111.8026,-6.9436,189.4109],[111.8009,-6.9379,213.0614],[111.8024,-6.9311,249.043],[111.8008,-6.9253,215.5908],[111.7947,-6.9255,181.3478],[111.7928,-6.924,161.356],[111.7825,-6.9248,270.3713],[111.7733,-6.9198,124.6663],[111.7705,-6.9253,115.7533],[111.7709,-6.9331,185.7424],[111.7747,-6.9431,115.776],[111.7728,-6.9525,177.678],[111.7509,-6.9464,178.9187],[111.7501,-6.9541,90.4407],[111.7465,-6.958,54.0031],[111.7475,-6.9605,51.1711],[111.7437,-6.9663,46.2525],[111.7358,-6.9641,45.9272],[111.733,-6.9715,42.2773],[111.7387,-6.9763,42.0002],[111.7391,-6.9796,40.6022],[111.7358,-6.988,40.934],[111.7374,-6.99,39.8793],[111.742,-6.9909,38.9302],[111.7419,-6.9924,39.1154],[111.7502,-6.9951,36.9493],[111.7573,-7.0023,34.6571],[111.7569,-7.0059,34.7358],[111.7618,-7.0115,33.579],[111.7631,-7.0169,34.3234],[111.762,-7.0191,35.0225],[111.7589,-7.0218,37.7409],[111.7531,-7.0203,36.835],[111.7521,-7.0258,37.6567],[111.7718,-7.0317,31.9053],[111.7739,-7.0288,32.3145],[111.7752,-7.029,32.3145],[111.7787,-7.0306,31.3795],[111.7798,-7.0341,31.1259],[111.7827,-7.0344,29.7953],[111.7842,-7.0363,30.462],[111.7873,-7.0291,32.4409],[111.7911,-7.0246,34.0427]]]]}}