{"type":"Feature","properties":{"GID_3":"IDN.11.34.1_1","GID_0":"IDN","country":"Indonesia","GID_1":"IDN.11_1","province":"JawaTimur","NL_NAME_1":"NA","GID_2":"IDN.11.34_1","county":"Sumenep","NL_NAME_2":"NA","city":"Ambunten","VARNAME_3":"NA","NL_NAME_3":"NA","TYPE_3":"Kecamatan","ENGTYPE_3":"Sub-district","CC_3":"3529120","HASC_3":"NA","name":"Ambunten.city"},
"geometry":{"type": "MultiPolygon","coordinates": [[[[113.7648,-6.9336,129.9262],[113.7759,-6.9334,124.382],[113.7776,-6.925,108.8916],[113.7841,-6.9218,140.1798],[113.7889,-6.9118,88.1701],[113.7887,-6.9055,58.6436],[113.7851,-6.8976,24.4582],[113.7867,-6.8842,0.0],[113.773,-6.8831,5.5084],[113.7601,-6.8856,2.1925],[113.7559,-6.884,0.0],[113.7398,-6.8842,0.0],[113.7299,-6.8874,2.9038],[113.7,-6.8848,8.5424],[113.6982,-6.8894,21.0779],[113.6982,-6.8967,36.8035],[113.6903,-6.9086,81.1049],[113.6939,-6.9145,99.5761],[113.6932,-6.9185,146.0813],[113.7017,-6.922,155.3439],[113.7184,-6.9239,131.1542],[113.721,-6.9259,126.5168],[113.7204,-6.9298,169.2185],[113.7299,-6.932,151.6079],[113.7339,-6.9363,116.6195],[113.7413,-6.94,81.1612],[113.7435,-6.9385,79.4443],[113.7563,-6.9426,99.3095],[113.7636,-6.9381,130.005],[113.7648,-6.9336,129.9262]]]]}}