{"type":"Feature","properties":{"GID_3":"IDN.10.13.1_1","GID_0":"IDN","country":"Indonesia","GID_1":"IDN.10_1","province":"JawaTengah","NL_NAME_1":"NA","GID_2":"IDN.10.13_1","county":"Kendal","NL_NAME_2":"NA","city":"Boja","VARNAME_3":"NA","NL_NAME_3":"NA","TYPE_3":"Kecamatan","ENGTYPE_3":"Sub-district","CC_3":"3324070","HASC_3":"NA","name":"Boja.city"},
"geometry":{"type": "MultiPolygon","coordinates": [[[[110.3471,-7.1483,918.7105],[110.3485,-7.1479,932.2993],[110.3484,-7.152,970.072],[110.3526,-7.1443,769.1099],[110.3529,-7.1362,606.7312],[110.351,-7.1318,564.1294],[110.3529,-7.1246,490.8066],[110.3525,-7.1222,441.0096],[110.3485,-7.1193,409.6426],[110.3499,-7.1163,399.0988],[110.3489,-7.1123,354.4644],[110.3494,-7.1109,348.5042],[110.3509,-7.112,364.8912],[110.354,-7.1106,425.528],[110.3535,-7.1069,395.8563],[110.355,-7.1078,384.4971],[110.3561,-7.1066,419.7874],[110.3518,-7.1016,346.6295],[110.3469,-7.086,244.6526],[110.3459,-7.088,254.3519],[110.3436,-7.088,254.1585],[110.3427,-7.0906,258.1615],[110.3448,-7.097,322.8068],[110.3372,-7.1043,332.6495],[110.3328,-7.1038,334.6354],[110.3322,-7.0991,313.6625],[110.3287,-7.1021,324.1511],[110.324,-7.1015,343.5662],[110.3177,-7.1067,348.2417],[110.3165,-7.1045,334.2906],[110.3132,-7.1063,323.7368],[110.3101,-7.1029,319.494],[110.3051,-7.1014,312.5967],[110.3033,-7.0971,291.8309],[110.3051,-7.0884,256.6471],[110.3044,-7.0835,238.1265],[110.3011,-7.08,251.5576],[110.3032,-7.079,243.1772],[110.3019,-7.0727,233.9002],[110.3007,-7.0725,233.9002],[110.3014,-7.0684,226.348],[110.2992,-7.0676,228.4503],[110.3008,-7.0647,211.3753],[110.292,-7.0556,217.4227],[110.2943,-7.0537,237.3891],[110.2877,-7.0505,193.9413],[110.2856,-7.0521,175.8827],[110.2832,-7.0494,175.8128],[110.2745,-7.051,203.8058],[110.275,-7.0553,281.6311],[110.2721,-7.0561,291.5974],[110.273,-7.0628,287.4985],[110.2671,-7.0758,290.8906],[110.2668,-7.0835,268.0282],[110.2642,-7.0857,277.9712],[110.2666,-7.0885,275.5452],[110.2651,-7.0951,266.6174],[110.2579,-7.0967,266.1021],[110.2573,-7.0986,269.153],[110.2604,-7.101,276.8788],[110.2582,-7.1035,281.1616],[110.2568,-7.104,285.197],[110.2554,-7.1,275.0305],[110.2529,-7.1007,280.0919],[110.2525,-7.1067,276.5297],[110.2559,-7.1084,282.4893],[110.2545,-7.1187,327.6586],[110.2566,-7.1205,339.8442],[110.2559,-7.1266,397.8939],[110.258,-7.131,422.7824],[110.2593,-7.1328,395.1849],[110.2662,-7.1347,400.5186],[110.2717,-7.142,478.098],[110.277,-7.1422,387.7625],[110.2798,-7.1432,391.5424],[110.2798,-7.1448,394.2405],[110.2826,-7.1441,395.1468],[110.2851,-7.1461,408.2722],[110.2873,-7.1455,415.4089],[110.2939,-7.1478,457.5433],[110.294,-7.1455,462.7473],[110.2966,-7.1451,493.7841],[110.2959,-7.1435,481.5112],[110.2883,-7.1411,423.8427],[110.2869,-7.1342,405.647],[110.294,-7.135,436.5685],[110.2924,-7.1345,437.3456],[110.2947,-7.1323,432.1754],[110.2936,-7.1265,414.1057],[110.2943,-7.1244,406.3502],[110.2958,-7.1248,417.9609],[110.2955,-7.12,397.7086],[110.2991,-7.1184,406.4402],[110.3018,-7.1205,411.6094],[110.3027,-7.1195,392.9655],[110.3007,-7.1173,384.4041],[110.3034,-7.1165,388.1725],[110.303,-7.1138,367.1009],[110.3065,-7.1132,377.3327],[110.3097,-7.1143,371.8505],[110.3175,-7.1275,442.4985],[110.3247,-7.1268,488.2341],[110.3271,-7.1282,492.5697],[110.3274,-7.1259,451.7725],[110.3325,-7.1258,456.3386],[110.3345,-7.1299,506.1695],[110.3361,-7.1412,665.0892],[110.3421,-7.1489,886.702],[110.3435,-7.1483,918.395],[110.3438,-7.1452,771.5183],[110.3458,-7.1452,873.1634],[110.3471,-7.1483,918.7105]]]]}}