{"type":"Feature","properties":{"GID_3":"IDN.22.4.2_1","GID_0":"IDN","country":"Indonesia","GID_1":"IDN.22_1","province":"PapuaBarat","NL_NAME_1":"NA","GID_2":"IDN.22.4_1","county":"Manokwari","NL_NAME_2":"NA","city":"AnggiGida","VARNAME_3":"NA","NL_NAME_3":"NA","TYPE_3":"Distrik","ENGTYPE_3":"District","CC_3":"9105210","HASC_3":"NA","name":"Anggi_Gida.city"},
"geometry":{"type": "MultiPolygon","coordinates": [[[[134.0263,-1.4352,1310.1791],[134.0403,-1.4411,918.7866],[134.0608,-1.4115,696.9938],[134.0321,-1.3868,1294.2493],[134.0236,-1.3753,1431.286],[133.9983,-1.3638,1977.2686],[133.9928,-1.3599,1892.2701],[133.9902,-1.356,1915.7842],[133.9692,-1.3429,2220.2246],[133.9623,-1.3347,2359.5601],[133.9567,-1.3317,2244.9187],[133.9473,-1.3301,2366.1208],[133.9421,-1.324,2270.2908],[133.9322,-1.3586,2172.0813],[133.9146,-1.3718,1958.4705],[133.919,-1.3785,2202.7292],[133.9229,-1.3918,2246.3621],[133.9259,-1.3966,2010.719],[133.9272,-1.4036,2063.2969],[133.9261,-1.4141,1953.7354],[133.9283,-1.4183,1983.0442],[133.9339,-1.4218,1888.381],[133.9458,-1.4215,2187.3938],[133.9626,-1.4151,1872.0],[133.9728,-1.4158,1926.6832],[133.9774,-1.4146,2084.4141],[134.004,-1.4284,1570.7926],[134.0263,-1.4352,1310.1791]]]]}}