{"type":"Feature","properties":{"GID_3":"IDN.11.5.26_1","GID_0":"IDN","country":"Indonesia","GID_1":"IDN.11_1","province":"JawaTimur","NL_NAME_1":"NA","GID_2":"IDN.11.5_1","county":"Bojonegoro","NL_NAME_2":"NA","city":"Tambakrejo","VARNAME_3":"NA","NL_NAME_3":"NA","TYPE_3":"Kecamatan","ENGTYPE_3":"Sub-district","CC_3":"3522030","HASC_3":"NA","name":"Tambakrejo.city"},
"geometry":{"type": "MultiPolygon","coordinates": [[[[111.6665,-7.3481,179.3778],[111.6833,-7.3383,148.864],[111.6954,-7.3358,132.2827],[111.6944,-7.3335,110.5502],[111.6961,-7.3328,105.9139],[111.6955,-7.3291,112.2335],[111.6989,-7.327,94.9684],[111.6976,-7.316,117.1862],[111.6997,-7.3131,106.378],[111.6983,-7.3038,114.7782],[111.6961,-7.301,99.2493],[111.7011,-7.293,79.6256],[111.7002,-7.2893,75.9],[111.7052,-7.2877,71.9324],[111.7063,-7.2839,67.1695],[111.7115,-7.281,67.3234],[111.7178,-7.2814,65.3013],[111.7245,-7.2792,60.9003],[111.7261,-7.2736,54.2933],[111.7247,-7.2716,53.4804],[111.7214,-7.2715,59.6242],[111.7235,-7.2695,62.0255],[111.7218,-7.2688,58.5981],[111.7202,-7.2703,57.8279],[111.72,-7.2686,56.7189],[111.7186,-7.2688,56.7189],[111.7188,-7.2652,54.3112],[111.7169,-7.2647,55.8027],[111.7172,-7.2615,53.8029],[111.7157,-7.2608,52.5072],[111.7175,-7.2586,49.6696],[111.7149,-7.2578,58.923],[111.7106,-7.2608,52.5912],[111.7122,-7.2573,50.9855],[111.7088,-7.2549,54.281],[111.7108,-7.2519,45.332],[111.7088,-7.2505,45.3755],[111.7095,-7.248,48.0843],[111.7075,-7.2476,46.1174],[111.6926,-7.2479,56.598],[111.6876,-7.254,65.1035],[111.6861,-7.2582,68.9568],[111.6874,-7.2653,74.6255],[111.6728,-7.2692,77.5738],[111.6733,-7.2665,82.3926],[111.6704,-7.2634,78.9282],[111.6714,-7.2599,76.3155],[111.6672,-7.2529,76.514],[111.6678,-7.2487,71.862],[111.6652,-7.2461,71.554],[111.6543,-7.2422,54.7661],[111.6429,-7.2474,70.05],[111.6405,-7.2461,66.38],[111.6391,-7.2384,63.0379],[111.6325,-7.2357,52.0346],[111.6336,-7.233,53.9538],[111.631,-7.2331,56.0629],[111.6314,-7.2266,50.043],[111.6328,-7.2256,49.5536],[111.6304,-7.225,49.028],[111.6295,-7.2152,47.9162],[111.6236,-7.2105,41.9196],[111.6234,-7.2112,41.9196],[111.6236,-7.2126,40.345],[111.6206,-7.2141,43.0378],[111.6207,-7.2167,45.6456],[111.6161,-7.2152,56.0986],[111.6118,-7.2165,55.2379],[111.6096,-7.2197,56.4418],[111.6002,-7.2203,57.1511],[111.6008,-7.2257,56.5475],[111.5939,-7.2303,41.6679],[111.5893,-7.2286,41.1209],[111.5892,-7.2306,43.3902],[111.5913,-7.2319,44.188],[111.5915,-7.2378,42.2695],[111.5891,-7.2439,44.0673],[111.5895,-7.2505,53.1756],[111.5928,-7.2522,47.5531],[111.5935,-7.2546,51.4641],[111.5893,-7.2624,54.2706],[111.583,-7.267,68.3005],[111.5753,-7.2654,65.8289],[111.5754,-7.2634,63.2433],[111.5719,-7.2618,51.6816],[111.5682,-7.2632,60.0303],[111.5656,-7.2679,71.5759],[111.5673,-7.2719,76.1933],[111.5645,-7.2779,79.2327],[111.5718,-7.2876,86.6453],[111.5714,-7.2894,95.7801],[111.5675,-7.2918,107.7287],[111.5648,-7.3025,136.7441],[111.5593,-7.3053,142.6564],[111.5567,-7.305,140.977],[111.5557,-7.308,127.4746],[111.553,-7.3092,136.8433],[111.5555,-7.318,135.4818],[111.5547,-7.3203,137.1966],[111.5529,-7.3204,131.7554],[111.5532,-7.3263,145.3275],[111.5511,-7.3263,140.7137],[111.5516,-7.3293,141.9636],[111.5553,-7.3319,129.6478],[111.552,-7.341,138.8202],[111.5572,-7.3524,120.5972],[111.5544,-7.3583,125.3639],[111.5581,-7.3602,144.5373],[111.5608,-7.36,162.948],[111.5628,-7.3576,157.5787],[111.5665,-7.3599,143.8398],[111.5671,-7.3553,153.2323],[111.5749,-7.3486,209.7421],[111.58,-7.3546,167.5836],[111.5835,-7.3529,168.3483],[111.5917,-7.3571,168.7193],[111.5927,-7.3591,166.0947],[111.597,-7.3592,174.8933],[111.606,-7.3643,165.185],[111.612,-7.3709,169.0963],[111.6162,-7.368,182.1595],[111.6229,-7.367,204.5021],[111.6312,-7.3591,245.5636],[111.6415,-7.358,176.3374],[111.6543,-7.3541,172.0006],[111.6665,-7.3481,179.3778]]]]}}