{"type":"Feature","properties":{"GID_3":"IDN.26.14.9_1","GID_0":"IDN","country":"Indonesia","GID_1":"IDN.26_1","province":"SulawesiSelatan","NL_NAME_1":"NA","GID_2":"IDN.26.14_1","county":"Palopo","NL_NAME_2":"NA","city":"Wara","VARNAME_3":"NA","NL_NAME_3":"NA","TYPE_3":"Kecamatan","ENGTYPE_3":"Sub-district","CC_3":"7373020","HASC_3":"NA","name":"Wara.city"},
"geometry":{"type": "MultiPolygon","coordinates": [[[[120.1815,-3.0205,35.6632],[120.1834,-3.0225,36.4731],[120.184,-3.019,25.1115],[120.19,-3.0252,21.5019],[120.19,-3.0272,21.1878],[120.2013,-3.0233,10.6497],[120.1989,-3.0149,11.8005],[120.2048,-3.0117,8.0555],[120.1973,-2.9986,6.4045],[120.1984,-2.9945,4.7286],[120.1967,-2.9938,5.5376],[120.1887,-2.997,9.1995],[120.186,-3.0058,15.78],[120.1843,-3.0059,18.9658],[120.1838,-3.0083,20.9213],[120.1822,-3.0081,22.8813],[120.1874,-3.0118,17.7448],[120.1867,-3.0163,24.3403],[120.1815,-3.0205,35.6632]]]]}}