{"type":"Feature","properties":{"GID_3":"IDN.1.1.6_1","GID_0":"IDN","country":"Indonesia","GID_1":"IDN.1_1","province":"Aceh","NL_NAME_1":"NA","GID_2":"IDN.1.1_1","county":"AcehBaratDaya","NL_NAME_2":"NA","city":"Manggeng","VARNAME_3":"NA","NL_NAME_3":"NA","TYPE_3":"Kecamatan","ENGTYPE_3":"Sub-district","CC_3":"1112010","HASC_3":"NA","name":"Manggeng.city"},
"geometry":{"type": "MultiPolygon","coordinates": [[[[96.9227,3.6032,9.351],[96.927,3.5991,2.9302],[96.9296,3.6021,4.0803],[96.9268,3.603,11.7303],[96.9331,3.6078,9.4068],[96.9345,3.6111,9.9568],[96.938,3.6113,9.1731],[96.9371,3.6131,11.9848],[96.9417,3.6186,24.9492],[96.9421,3.6218,16.5487],[96.9475,3.6225,22.0753],[96.9436,3.63,44.4599],[96.9447,3.6344,36.5059],[96.9471,3.6364,33.2355],[96.949,3.6358,32.516],[96.9522,3.6396,36.4648],[96.9531,3.6388,36.4648],[96.9538,3.6414,39.4723],[96.9493,3.6418,53.8835],[96.9474,3.6375,51.1211],[96.935,3.6387,25.0115],[96.9268,3.6422,7.2928],[96.9136,3.6348,1.5898],[96.9025,3.6363,1.1873],[96.9027,3.6333,0.4964],[96.8969,3.6319,1.2386],[96.8969,3.6245,2.6099],[96.8947,3.6204,0.0],[96.9023,3.6059,6.5843],[96.9019,3.601,0.0],[96.9033,3.6016,0.0],[96.9105,3.5976,5.3951],[96.9132,3.6036,6.3276],[96.9184,3.6007,6.3947],[96.9188,3.6037,7.3693],[96.9227,3.6032,9.351]]]]}}