{"type":"Feature","properties":{"GID_3":"IDN.10.6.1_1","GID_0":"IDN","country":"Indonesia","GID_1":"IDN.10_1","province":"JawaTengah","NL_NAME_1":"NA","GID_2":"IDN.10.6_1","county":"Brebes","NL_NAME_2":"NA","city":"Banjarharjo","VARNAME_3":"NA","NL_NAME_3":"NA","TYPE_3":"Kecamatan","ENGTYPE_3":"Sub-district","CC_3":"3329090","HASC_3":"NA","name":"Banjarharjo.city"},
"geometry":{"type": "MultiPolygon","coordinates": [[[[108.8444,-7.1073,474.4413],[108.8449,-7.101,243.4359],[108.8413,-7.0972,183.946],[108.8434,-7.0948,171.7817],[108.8437,-7.0884,138.1383],[108.84,-7.0819,144.4521],[108.8443,-7.0586,124.6116],[108.8397,-7.0502,51.8162],[108.8493,-7.0526,70.6586],[108.8519,-7.048,68.7311],[108.8532,-7.0383,54.5869],[108.8559,-7.0334,47.4284],[108.8542,-7.0299,45.6621],[108.8564,-7.0233,46.0002],[108.8572,-7.013,35.4145],[108.8537,-7.0103,30.9983],[108.8556,-7.0082,31.2665],[108.8571,-7.0092,28.0198],[108.8589,-7.0079,29.3566],[108.8581,-7.0052,23.9124],[108.8603,-7.0054,29.8088],[108.8564,-7.0037,24.1264],[108.8549,-7.0011,22.6248],[108.857,-7.0005,23.9957],[108.8561,-6.9977,25.4747],[108.8581,-6.9965,22.5824],[108.8568,-6.9934,21.402],[108.8579,-6.9893,26.3064],[108.8635,-6.9883,21.9728],[108.8602,-6.9863,24.2106],[108.8638,-6.9833,25.9744],[108.8613,-6.979,27.035],[108.8647,-6.9795,23.0133],[108.8655,-6.9772,21.6005],[108.8627,-6.9769,27.9794],[108.8656,-6.9762,22.17],[108.8653,-6.9734,24.1265],[108.868,-6.9717,22.5355],[108.8675,-6.9689,22.4272],[108.8654,-6.9682,21.5885],[108.8679,-6.9667,22.8651],[108.8671,-6.9639,22.0404],[108.856,-6.9633,17.5481],[108.8523,-6.9617,16.2503],[108.8422,-6.9622,16.0295],[108.8448,-6.9372,11.2778],[108.8321,-6.936,11.1215],[108.8311,-6.9431,12.9375],[108.8287,-6.9434,13.6381],[108.8121,-6.9392,15.1342],[108.807,-6.9473,17.8281],[108.8004,-6.9462,22.8137],[108.7981,-6.9422,21.8497],[108.7914,-6.9415,19.3398],[108.7891,-6.9434,19.3963],[108.7882,-6.9475,20.0583],[108.7811,-6.942,20.8932],[108.7773,-6.9467,26.2228],[108.7742,-6.946,24.258],[108.7731,-6.9455,23.9228],[108.7747,-6.9395,24.0442],[108.7624,-6.937,13.812],[108.7597,-6.9386,14.3123],[108.7641,-6.9388,16.2358],[108.7611,-6.9471,23.1193],[108.7607,-6.9511,22.6357],[108.7625,-6.9519,17.3325],[108.7615,-6.9537,22.5963],[108.7587,-6.9532,25.3423],[108.7595,-6.9585,26.2852],[108.7571,-6.9578,18.2519],[108.7597,-6.9636,21.8185],[108.7615,-6.9615,19.6785],[108.7628,-6.9621,19.6785],[108.7598,-6.9684,22.9248],[108.7629,-6.9709,23.6735],[108.7604,-6.9731,24.8279],[108.7612,-6.9783,31.7765],[108.7587,-6.9838,33.8472],[108.7599,-6.9876,36.2756],[108.7662,-6.9903,69.5044],[108.7699,-6.9939,48.8394],[108.7741,-6.9922,57.0798],[108.7782,-6.9934,52.605],[108.7805,-6.9959,56.2045],[108.7807,-6.9988,56.7589],[108.7832,-7.0,56.631],[108.7815,-7.0046,57.4334],[108.7843,-7.0073,49.816],[108.7867,-7.007,52.4455],[108.7906,-7.0123,65.4828],[108.789,-7.0146,63.9784],[108.7907,-7.0249,72.9929],[108.7874,-7.0266,64.1493],[108.7797,-7.0263,72.7321],[108.7783,-7.0328,93.2285],[108.7747,-7.0351,67.4338],[108.7747,-7.0375,66.6323],[108.7769,-7.0393,66.7779],[108.7755,-7.0404,65.9694],[108.7764,-7.0437,65.2195],[108.7797,-7.0457,68.165],[108.7823,-7.0537,81.3786],[108.7855,-7.0573,82.4737],[108.7834,-7.0606,108.7953],[108.7848,-7.0612,94.6436],[108.783,-7.0645,106.8574],[108.7842,-7.0695,138.8123],[108.7822,-7.0697,140.6938],[108.7819,-7.0732,147.558],[108.7783,-7.0756,198.5712],[108.7744,-7.0835,299.5393],[108.7744,-7.0893,347.3646],[108.7786,-7.0945,649.7877],[108.7762,-7.0972,636.0901],[108.7706,-7.112,794.1044],[108.7889,-7.1091,799.0272],[108.7956,-7.1107,718.1467],[108.7989,-7.1133,715.1434],[108.8072,-7.1147,691.7681],[108.8164,-7.1192,763.8679],[108.8253,-7.1185,830.0556],[108.838,-7.1204,859.02],[108.843,-7.1244,1116.1766],[108.8456,-7.1155,652.4546],[108.8444,-7.1073,474.4413]]]]}}