{"type":"Feature","properties":{"GID_3":"IDN.1.14.15_1","GID_0":"IDN","country":"Indonesia","GID_1":"IDN.1_1","province":"Aceh","NL_NAME_1":"NA","GID_2":"IDN.1.14_1","county":"Bireuen","NL_NAME_2":"NA","city":"Peusangan","VARNAME_3":"NA","NL_NAME_3":"NA","TYPE_3":"Kecamatan","ENGTYPE_3":"Sub-district","CC_3":"1110080","HASC_3":"NA","name":"Peusangan.city"},
"geometry":{"type": "MultiPolygon","coordinates": [[[[96.7456,5.1603,138.1497],[96.7464,5.1553,91.7952],[96.7437,5.1452,101.5901],[96.7523,5.1457,128.5477],[96.7548,5.1656,53.4137],[96.7735,5.1658,76.6842],[96.7791,5.1732,53.9516],[96.7778,5.1787,105.494],[96.7798,5.18,74.8433],[96.7993,5.1819,36.5071],[96.8035,5.185,37.8214],[96.809,5.182,20.1385],[96.8115,5.1827,15.4436],[96.8161,5.19,15.1148],[96.8145,5.1964,16.103],[96.8202,5.2026,5.4859],[96.8093,5.2034,16.6869],[96.8099,5.2108,12.7735],[96.8041,5.2126,13.4936],[96.808,5.22,13.9548],[96.8094,5.2264,5.6837],[96.8122,5.2265,6.4591],[96.8148,5.2315,5.0591],[96.8174,5.2427,5.3969],[96.8065,5.2438,11.5041],[96.8073,5.2394,10.0068],[96.8042,5.2267,13.299],[96.8024,5.2271,5.9223],[96.7994,5.2241,11.9173],[96.7934,5.2227,11.5835],[96.7926,5.2263,11.156],[96.7825,5.2274,2.9836],[96.7815,5.2161,8.4992],[96.7756,5.2201,10.8909],[96.7662,5.2225,6.7942],[96.7673,5.2279,3.6852],[96.7653,5.233,3.6631],[96.7593,5.2351,1.0],[96.7526,5.2415,1.0],[96.7529,5.2439,1.0],[96.7498,5.2449,1.0],[96.7488,5.248,1.0],[96.7436,5.2472,1.2177],[96.7415,5.2485,1.6107],[96.7391,5.2469,1.0605],[96.7402,5.2429,1.0],[96.7461,5.236,1.0],[96.7442,5.2344,1.0],[96.7442,5.2314,1.0],[96.7489,5.227,4.0769],[96.7472,5.2237,1.9796],[96.7346,5.2265,4.3089],[96.7329,5.2202,3.866],[96.73,5.2208,6.1734],[96.729,5.2177,4.4227],[96.7291,5.2095,7.899],[96.7307,5.209,7.9616],[96.7314,5.2046,9.7566],[96.7307,5.2026,15.8661],[96.7272,5.2021,21.5633],[96.7275,5.1997,25.3501],[96.7338,5.2013,21.8458],[96.7391,5.2006,20.1531],[96.7372,5.1978,20.9341],[96.7388,5.1926,35.4175],[96.737799999999993,5.189,39.6934],[96.7353,5.1875,33.7489],[96.7367,5.1664,57.3577],[96.7373,5.1631,100.1653],[96.7429,5.1633,110.0485],[96.7456,5.1603,138.1497]]]]}}