{"type":"Feature","properties":{"GID_3":"IDN.21.15.15_1","GID_0":"IDN","country":"Indonesia","GID_1":"IDN.21_1","province":"NusaTenggaraTimur","NL_NAME_1":"NA","GID_2":"IDN.21.15_1","county":"Sikka","NL_NAME_2":"NA","city":"Nita","VARNAME_3":"NA","NL_NAME_3":"NA","TYPE_3":"Kecamatan","ENGTYPE_3":"Sub-district","CC_3":"5310070","HASC_3":"NA","name":"Nita.city"},
"geometry":{"type": "MultiPolygon","coordinates": [[[[122.166,-8.7056,276.2983],[122.1706,-8.7033,141.3756],[122.172,-8.7054,135.5621],[122.176,-8.7046,122.6574],[122.1788,-8.7069,113.4984],[122.1802,-8.6944,198.8551],[122.1821,-8.6917,208.3858],[122.1804,-8.6855,242.5977],[122.1818,-8.6829,256.3868],[122.181,-8.6804,259.9904],[122.1832,-8.6789,248.3018],[122.1833,-8.6704,242.7501],[122.1848,-8.67,221.4225],[122.1834,-8.6681,228.7446],[122.1892,-8.6667,186.2779],[122.1859,-8.663,174.0995],[122.1888,-8.6613,164.1782],[122.194,-8.6622,157.8564],[122.2026,-8.6609,100.1823],[122.2049,-8.6551,84.7745],[122.1848,-8.642,187.4402],[122.1778,-8.6405,213.1352],[122.1686,-8.6236,356.4217],[122.1569,-8.62,477.8093],[122.1488,-8.6201,641.218],[122.1478,-8.6146,553.3253],[122.1397,-8.6137,689.2248],[122.1314,-8.6102,978.0347],[122.1298,-8.6139,876.1129],[122.1262,-8.6163,986.2025],[122.127,-8.6226,1109.8026],[122.125,-8.6231,1140.6696],[122.1206,-8.6183,1239.4321],[122.1147,-8.6175,1317.5864],[122.1136,-8.6117,1330.9829],[122.1099,-8.6096,1296.7643],[122.1056,-8.6038,758.7847],[122.0964,-8.601,478.39],[122.0902,-8.5954,376.6315],[122.0836,-8.6034,522.5654],[122.0794,-8.6045,678.2358],[122.0747,-8.6036,678.8207],[122.0715,-8.6054,764.5061],[122.0666,-8.6047,647.3368],[122.065,-8.6073,606.6768],[122.0591,-8.6082,536.2797],[122.0584,-8.6103,547.2668],[122.0607,-8.611,572.8038],[122.0596,-8.6122,589.7873],[122.061,-8.613,594.9438],[122.0595,-8.6176,668.4954],[122.0786,-8.6317,1038.6304],[122.0763,-8.6389,889.3932],[122.0838,-8.645,590.1245],[122.0847,-8.6497,508.0688],[122.084,-8.6547,461.4323],[122.0795,-8.6623,515.8347],[122.0866,-8.6656,411.8917],[122.091,-8.6706,310.1556],[122.0893,-8.6727,289.7066],[122.0914,-8.6763,296.6976],[122.0893,-8.6813,242.7098],[122.0923,-8.6831,233.7908],[122.0912,-8.6847,224.9624],[122.0945,-8.6895,217.3529],[122.099,-8.6921,193.4258],[122.1015,-8.7003,163.6881],[122.1085,-8.7037,147.4638],[122.1118,-8.7022,148.2234],[122.1138,-8.7043,128.8555],[122.1182,-8.7022,125.6106],[122.121,-8.7048,129.4711],[122.1275,-8.7021,105.5654],[122.1304,-8.7027,92.5346],[122.1319,-8.6995,121.3692],[122.1338,-8.7015,106.3973],[122.1354,-8.7011,87.0196],[122.1375,-8.6987,86.8497],[122.1402,-8.7024,85.6214],[122.14,-8.7053,106.6079],[122.1449,-8.7068,76.9676],[122.1447,-8.7055,77.7968],[122.1466,-8.7058,77.7968],[122.148,-8.7032,91.6049],[122.1488,-8.699,133.3412],[122.1499,-8.7033,141.4683],[122.1476,-8.7072,107.6871],[122.1494,-8.7096,123.4767],[122.1524,-8.7052,164.9532],[122.1611,-8.7031,247.6993],[122.1646,-8.7061,275.6319],[122.166,-8.7056,276.2983]]]]}}