{"type":"Feature","properties":{"GID_3":"IDN.13.5.8_1","GID_0":"IDN","country":"Indonesia","GID_1":"IDN.13_1","province":"KalimantanSelatan","NL_NAME_1":"NA","GID_2":"IDN.13.5_1","county":"BaritoKuala","NL_NAME_2":"NA","city":"Jejangkit","VARNAME_3":"NA","NL_NAME_3":"NA","TYPE_3":"Kecamatan","ENGTYPE_3":"Sub-district","CC_3":"6304071","HASC_3":"NA","name":"Jejangkit.city"},
"geometry":{"type": "MultiPolygon","coordinates": [[[[114.76,-3.2328,1.9057],[114.7634,-3.2325,2.009],[114.7682,-3.2269,1.5595],[114.7757,-3.2302,1.5316],[114.7796,-3.2297,1.5599],[114.7822,-3.2253,1.5457],[114.7894,-3.2206,1.4185],[114.7895,-3.2182,1.0625],[114.7864,-3.2143,1.6892],[114.79,-3.2016,1.5372],[114.792,-3.1777,1.763],[114.8109,-3.2011,1.3147],[114.8226,-3.1993,1.8584],[114.8217,-3.189,3.9296],[114.8312,-3.1301,3.6126],[114.7952,-3.1097,1.4659],[114.7283,-3.1656,2.3286],[114.7257,-3.1658,2.6709],[114.7074,-3.156,3.8314],[114.7003,-3.1706,2.1545],[114.6927,-3.1676,3.27],[114.6818,-3.1912,1.1308],[114.7053,-3.2033,1.3099],[114.7053,-3.2054,1.0616],[114.712,-3.2073,0.7109],[114.7141,-3.2063,1.4674],[114.7283,-3.2444,1.9989],[114.76,-3.2328,1.9057]]]]}}