{"type":"Feature","properties":{"GID_3":"IDN.35.8.2","GID_0":"IDN","country":"Indonesia","GID_1":"IDN.35_1","province":"KalimantanUtara","NL_NAME_1":"NA","GID_2":"IDN.35.8","county":"Malinau","NL_NAME_2":"NA","city":"KayanHilir","VARNAME_3":"NA","NL_NAME_3":"NA","TYPE_3":"NA","ENGTYPE_3":"NA","CC_3":"NA","HASC_3":"NA","name":"Kayan_Hilir.city"},
"geometry":{"type": "MultiPolygon","coordinates": [[[[116.2441,2.1033,1265.4264],[116.2585,2.1084,1156.4241],[116.2397,2.1199,1193.4285],[116.2284,2.1333,1051.2986],[116.2088,2.1405,610.7495],[116.1854,2.1466,845.1505],[116.1695,2.1415,1202.7317],[116.157,2.1328,1766.6782],[116.1457,2.1523,1880.97],[116.13,2.1676,1799.0447],[116.1103,2.1712,1798.0771],[116.0954,2.1705,1771.2662],[116.0798,2.1648,1645.9819],[116.0678,2.1549,1692.6101],[116.0521,2.1506,1667.7644],[116.0174,2.1925,1437.49],[115.9972,2.2285,1895.061],[115.9904,2.2465,1942.2524],[115.9913,2.2534,1997.8278],[115.9892,2.2604,2073.2136],[115.9958,2.2668,1742.2681],[116.0024,2.2617,1854.9641],[116.0289,2.2534,1753.1133],[116.041,2.2631,1574.4163],[116.0531,2.283,1203.4021],[116.0538,2.2937,1174.0621],[116.0592,2.3012,1046.4524],[116.0533,2.3093,836.4128],[116.0045,2.3299,1127.999],[115.9772,2.3307,1402.0562],[115.958,2.3458,1202.9833],[115.9484,2.3465,1160.4299],[115.9424,2.3451,1410.6895],[115.9222,2.3365,1817.4839],[115.894,2.3295,1494.4197],[115.8654,2.3482,1070.4919],[115.8544,2.3536,811.5591],[115.835,2.3582,876.6154],[115.8123,2.3665,947.3613],[115.7533,2.3816,1404.8608],[115.7449,2.3818,1046.0901],[115.7347,2.3796,1020.8512],[115.7245,2.3754,964.0441],[115.6926,2.3701,882.832],[115.6422,2.3573,1628.7356],[115.601,2.3562,1365.4562],[115.5966,2.3582,1403.1089],[115.5934,2.3662,1494.531],[115.5784,2.384,1388.8029],[115.5714,2.4005,1261.8671],[115.5707,2.4062,1285.7168],[115.565,2.4155,1253.7256],[115.5617,2.418,1257.0272],[115.5459,2.4234,1406.3517],[115.5407,2.4275,1303.9246],[115.5362,2.428,1448.8054],[115.5292,2.4318,1530.8145],[115.5213,2.4322,1582.8146],[115.4835,2.4209,897.5517],[115.4783,2.4178,816.1016],[115.4682,2.4169,1051.0864],[115.4628,2.4112,1086.7827],[115.4437,2.4034,933.7216],[115.4408,2.401,919.2001],[115.4384,2.3947,1008.2974],[115.432,2.3852,948.2144],[115.4278,2.3706,884.6124],[115.4221,2.3615,736.2725],[115.4077,2.3543,925.9355],[115.3983,2.3524,883.5017],[115.3749,2.351,770.9927],[115.3696,2.3427,796.9929],[115.3623,2.3367,844.0464],[115.3578,2.3294,749.371],[115.3523,2.309,700.8399],[115.3501,2.3059,718.1813],[115.3427,2.3011,840.5363],[115.334,2.2997,985.5461],[115.3131,2.3174,896.1632],[115.2972,2.3384,852.7878],[115.2787,2.3533,851.4437],[115.2602,2.374,1107.4238],[115.2621,2.423,1095.0071],[115.2579,2.4371,1219.2357],[115.2451,2.4512,1148.4561],[115.2539,2.4747,917.3391],[115.2524,2.4916,966.984],[115.2463,2.5053,1167.738],[115.2435,2.5034,1162.7054],[115.2421,2.4986,1208.5077],[115.2372,2.4957,1226.998],[115.235,2.4925,1242.3143],[115.2304,2.4921,1185.1582],[115.2259,2.4862,1297.7974],[115.2098,2.479,1220.1497],[115.2048,2.4716,1219.8068],[115.1893,2.4828,1254.4226],[115.1836,2.4794,1284.2642],[115.1761,2.481,1391.48],[115.1621,2.4768,1322.5496],[115.1445,2.4759,1340.4532],[115.1407,2.471,1320.2479],[115.1354,2.4682,1345.632],[115.1307,2.4563,1468.0731],[115.1245,2.4542,1472.8513],[115.1205,2.4572,1456.9528],[115.1182,2.4568,1487.6909],[115.1163,2.4538,1499.5488],[115.1161,2.447,1422.2229],[115.1129,2.4424,1473.637],[115.1082,2.441,1487.1482],[115.1079,2.4381,1438.1079],[115.1035,2.4342,1407.9327],[115.1028,2.4288,1368.9375],[115.0987,2.4246,1322.4481],[115.1009,2.416,1393.6826],[115.0992,2.4132,1417.9016],[115.1013,2.4095,1497.8335],[115.0989,2.4035,1388.1793],[115.0907,2.4019,1405.0615],[115.0834,2.4053,1399.5765],[115.069,2.4062,1305.5051],[115.0675,2.4049,1355.7616],[115.0601,2.4074,1367.9137],[115.0504,2.4043,1380.1854],[115.0485,2.393,1386.6897],[115.0537,2.3871,1392.4025],[115.0531,2.3855,1473.3411],[115.0497,2.3848,1414.6416],[115.0467,2.3878,1412.6111],[115.0443,2.387,1401.8325],[115.0374,2.389,1391.4266],[115.0349,2.3806,1304.1821],[115.0292,2.3777,1282.2751],[115.0284,2.3714,1345.0012],[115.0249,2.3645,1397.2769],[115.0214,2.3625,1342.126],[115.015,2.3651,1402.0808],[115.0111,2.3631,1483.8912],[115.007,2.3641,1340.5997],[115.0055,2.3631,1397.8865],[115.0053,2.358,1517.8374],[115.0009,2.3541,1386.4958],[114.999,2.3496,1467.462],[114.994,2.3485,1460.6235],[114.99,2.3498,1490.8801],[114.9788,2.3604,1413.2842],[114.9756,2.3612,1466.2306],[114.9746,2.3668,1414.2285],[114.9689,2.3678,1440.1934],[114.9656,2.365,1491.8801],[114.9629,2.3654,1473.2686],[114.9608,2.3586,1444.6238],[114.957,2.3567,1391.4877],[114.9573,2.3528,1367.8564],[114.9536,2.3489,1387.7638],[114.953,2.3383,1410.7285],[114.9482,2.3216,1186.4336],[114.9502,2.3101,1136.51],[114.9584,2.3056,1074.9341],[114.9613,2.3002,1071.3325],[114.9661,2.2969,1028.4492],[114.9669,2.292,960.9718],[114.9653,2.2868,1092.6162],[114.9586,2.281,1353.9749],[114.9529,2.279,1295.2218],[114.9476,2.2815,1392.2092],[114.9381,2.2801,1408.8081],[114.9295,2.2675,1401.4816],[114.9204,2.2601,1483.7386],[114.9172,2.2553,1412.4104],[114.9131,2.2536,1434.6147],[114.9076,2.2533,1445.8115],[114.9054,2.2576,1454.3457],[114.8816,2.2603,1343.8572],[114.8602,2.2576,1276.6211],[114.8548,2.2535,1267.3407],[114.8473,2.253,1351.9084],[114.8275,2.2451,1387.5593],[114.8252,2.245,1392.093],[114.8236,2.2488,1240.4945],[114.8205,2.2502,1174.0587],[114.8111,2.2512,1202.4561],[114.7984,2.2497,1260.8097],[114.7965,2.2468,1235.8635],[114.7997,2.2355,1229.2544],[114.7882,2.2254,1087.1536],[114.7845,2.2006,1255.6276],[114.7796,2.2,1419.4285],[114.771,2.1954,1650.9098],[114.7683,2.1972,1680.6794],[114.7631,2.1971,1640.4736],[114.7575,2.195,1811.4077],[114.7496,2.195,1861.3538],[114.7392,2.1911,1852.0029],[114.738,2.1857,1657.2474],[114.7411,2.1814,1404.1154],[114.7387,2.1764,1218.8043],[114.7394,2.1698,1408.9387],[114.735,2.1646,1274.226],[114.7338,2.1605,1235.1489],[114.7351,2.1539,1228.8098],[114.7325,2.1517,1170.0797],[114.7319,2.1483,1180.6022],[114.7359,2.1427,1209.9525],[114.7365,2.1338,1162.4907],[114.7413,2.1342,1376.795],[114.7582,2.1427,1416.9445],[114.7933,2.146,1283.3876],[114.7969,2.1436,1238.4512],[114.8028,2.1349,1077.0522],[114.8097,2.1351,1108.0735],[114.8126,2.1316,1162.569],[114.818,2.1289,1386.2843],[114.8197,2.1179,1070.6346],[114.8157,2.1074,1024.0682],[114.8114,2.1021,993.0129],[114.8104,2.0981,1019.7328],[114.8053,2.0958,988.6531],[114.7973,2.0878,972.4511],[114.8014,2.0791,976.0339],[114.8043,2.0781,989.2506],[114.8067,2.0747,984.2007],[114.8098,2.064,1056.6487],[114.8068,2.0619,1177.8906],[114.7907,2.0584,1275.3386],[114.7945,2.0562,1155.8778],[114.7947,2.0496,974.237],[114.7962,2.0483,931.6995],[114.7953,2.0442,837.7127],[114.8015,2.0415,936.0168],[114.8017,2.0368,865.0227],[114.8051,2.0356,935.2885],[114.8078,2.0241,1100.7498],[114.8141,2.0231,1239.1542],[114.8131,2.0258,1148.5345],[114.8153,2.0272,1079.7299],[114.8267,2.0278,1160.4878],[114.8384,2.0358,1023.5951],[114.8564,2.0437,1167.6924],[114.8592,2.0437,1211.9731],[114.8631,2.0399,1265.7051],[114.8657,2.04,1277.6556],[114.8658,2.0351,1284.2614],[114.8697,2.0327,1437.9668],[114.8769,2.0327,1393.0703],[114.8869,2.0244,1303.3027],[114.8859,2.02,1377.9966],[114.8741,2.0156,1169.2437],[114.8729,2.0138,1245.2769],[114.8737,1.9954,821.7308],[114.8688,1.9844,745.4041],[114.863,1.9827,745.5348],[114.8585,1.9755,791.5583],[114.8548,1.9734,762.3682],[114.8527,1.966,700.8841],[114.8537,1.9514,899.219],[114.8555,1.9462,803.1263],[114.8776,1.9265,775.6375],[114.8814,1.9199,818.9207],[114.8826,1.9158,762.364],[114.8815,1.9142,810.3469],[114.8884,1.9055,639.3431],[114.8923,1.9036,696.2496],[114.8938,1.9007,631.9587],[114.8964,1.9027,662.8888],[114.9046,1.8994,594.5865],[114.9032,1.8913,570.8847],[114.9012,1.8953,611.9742],[114.8966,1.8953,603.377],[114.8936,1.8867,569.1554],[114.8965,1.8679,627.0956],[114.9069,1.8557,743.9163],[114.9151,1.8527,699.7727],[114.9212,1.8597,660.7793],[114.924,1.8608,694.1412],[114.9384,1.8587,827.3342],[114.9444,1.8559,807.9111],[114.9496,1.8498,814.2475],[114.9608,1.8432,840.4431],[114.9731,1.839,888.3162],[114.9808,1.8392,907.1935],[115.0,1.8447,933.4927],[115.0091,1.8442,1080.3287],[115.0103,1.8413,971.7075],[115.0078,1.8331,889.3292],[115.0002,1.823,932.9552],[115.0022,1.8185,984.3664],[115.0064,1.8151,1007.8311],[115.014,1.8141,1108.0095],[115.0331,1.8069,1434.0859],[115.039,1.8106,1408.5658],[115.0442,1.8114,1383.073],[115.0499,1.8117,1438.9423],[115.0573,1.8097,1608.7257],[115.0654,1.8172,1468.7506],[115.0698,1.8188,1433.7681],[115.0843,1.8196,1573.7578],[115.0945,1.8129,1811.901],[115.1032,1.8161,1685.0396],[115.1189,1.8127,1977.1366],[115.1293,1.813,1976.7991],[115.1379,1.8147,1845.7355],[115.1434,1.819,1748.1923],[115.1623,1.8278,1548.8982],[115.1777,1.827,1452.5522],[115.1907,1.8209,1508.9064],[115.2011,1.8183,1508.8105],[115.2117,1.8185,1649.3804],[115.2185,1.8218,1673.8477],[115.2369,1.822,1783.9678],[115.2419,1.8234,1575.5436],[115.2532,1.8142,1577.5714],[115.265,1.8147,2057.0864],[115.2764,1.8236,2110.0547],[115.283,1.8246,1991.3627],[115.2987,1.824,1827.407],[115.3048,1.8258,1764.9109],[115.3071,1.8242,1779.8772],[115.312,1.8246,1789.3552],[115.3177,1.8198,1764.7166],[115.3302,1.8223,1532.041],[115.3317,1.8166,1463.4362],[115.3262,1.812,1621.2299],[115.3261,1.8096,1642.4077],[115.328,1.8069,1687.1189],[115.3335,1.806,1604.2731],[115.332,1.7955,1514.5419],[115.3378,1.7909,1383.0028],[115.3477,1.7867,1450.2981],[115.3514,1.781,1406.0704],[115.3663,1.7719,1298.413],[115.373,1.7526,1259.8798],[115.3754,1.7495,1286.8577],[115.377,1.7377,1233.5876],[115.3893,1.7333,1340.843],[115.3995,1.7328,1397.8364],[115.4209,1.7231,1425.7281],[115.4303,1.7235,1457.3743],[115.435,1.7255,1514.8906],[115.4405,1.7206,1461.1628],[115.4451,1.7119,1358.9629],[115.4483,1.7101,1321.0828],[115.4507,1.6976,1539.1523],[115.4529,1.6917,1495.1317],[115.4557,1.6891,1491.2756],[115.4648,1.6873,1600.4362],[115.4708,1.6815,1555.0099],[115.4846,1.6756,1608.0256],[115.4987,1.677,1641.3375],[115.5041,1.6744,1661.9773],[115.5074,1.6704,1742.3536],[115.5073,1.6648,1881.2976],[115.5047,1.6596,1990.9474],[115.5128,1.6546,2002.2471],[115.5089,1.6457,1529.1436],[115.5116,1.6437,1473.2913],[115.5163,1.6438,1646.95],[115.5172,1.6419,1565.9124],[115.5236,1.6384,1641.8589],[115.5236,1.6343,1580.6555],[115.5184,1.6208,1545.2859],[115.5257,1.6122,1519.2953],[115.5265,1.6059,1543.9023],[115.5305,1.6016,1556.7583],[115.5299,1.5979,1573.2753],[115.5361,1.5935,1540.3428],[115.5448,1.5924,1655.6351],[115.547,1.5802,1698.6887],[115.5505,1.5715,1453.3394],[115.5582,1.5647,1420.7281],[115.563,1.5556,1140.1344],[115.5698,1.5494,1091.6874],[115.5725,1.5414,1042.9824],[115.5813,1.5393,1144.7461],[115.5818,1.5258,1108.2203],[115.5876,1.5143,1303.1595],[115.5936,1.5146,1330.7699],[115.6006,1.5114,1391.8687],[115.6071,1.5138,1523.5869],[115.6142,1.5049,1384.4604],[115.6166,1.4874,1254.4211],[115.6119,1.4777,1340.3042],[115.6091,1.4758,1341.7534],[115.6044,1.476,1307.1158],[115.602,1.474,1327.0658],[115.6012,1.4705,1274.7916],[115.5907,1.4601,1265.8287],[115.5813,1.4591,1216.8561],[115.5733,1.4539,1254.863],[115.5665,1.4383,1204.9153],[115.5615,1.4339,1381.9663],[115.5605,1.4199,1530.7075],[115.5453,1.4087,1673.0339],[115.5433,1.3993,1766.5864],[115.5349,1.3892,1813.0151],[115.5362,1.3859,1971.9407],[115.5443,1.3854,1813.9722],[115.5443,1.3798,1731.7854],[115.5479,1.3736,1584.009],[115.5477,1.3624,1514.7717],[115.5446,1.35,1598.8292],[115.545,1.3452,1715.0746],[115.5577,1.3348,1666.2091],[115.5611,1.325,1598.1309],[115.5609,1.3213,1600.4456],[115.557,1.3163,1500.8513],[115.557,1.3125,1521.4108],[115.5692,1.2947,1494.8268],[115.5729,1.2906,1496.3752],[115.5816,1.2863,1445.4338],[115.5827,1.2806,1487.9302],[115.5858,1.2791,1430.9335],[115.573,1.2726,1255.9384],[115.586,1.2791,1430.9335],[115.6023,1.2779,1174.5784],[115.6212,1.284,1311.3839],[115.6461,1.2841,1054.2289],[115.7122,1.2657,1190.3805],[115.7207,1.2888,1152.2622],[115.7437,1.3198,1046.5942],[115.7618,1.3382,789.0665],[115.7651,1.3493,805.2496],[115.7723,1.3592,942.2449],[115.7857,1.3623,893.9002],[115.8087,1.3749,959.9979],[115.821,1.3716,1015.3323],[115.8357,1.3758,1102.4675],[115.8379,1.3832,1189.509],[115.8516,1.3959,1210.9973],[115.858,1.4071,1239.0901],[115.8513,1.4318,1251.9487],[115.8557,1.4377,1267.5059],[115.8862,1.4541,1425.4553],[115.9113,1.4777,1430.5436],[115.9269,1.4802,1406.9152],[115.9502,1.489,1523.6465],[115.9552,1.4924,1786.6929],[115.9636,1.5244,1665.161],[115.9698,1.5304,1830.4888],[115.9774,1.5336,1806.0333],[115.9875,1.5323,1927.814],[115.9976,1.5288,2002.7429],[116.0098,1.5282,1979.7311],[116.014,1.5366,1953.8561],[116.0226,1.5408,1803.8683],[116.024,1.5496,1770.3326],[116.0264,1.5532,1721.9641],[116.0335,1.5532,1734.6017],[116.0394,1.557,1839.046],[116.0422,1.5894,1730.9484],[116.0344,1.5994,1925.7783],[116.0359,1.6089,1713.8359],[116.0497,1.6217,1528.3824],[116.0526,1.6263,1569.6526],[116.0581,1.6287,1650.6443],[116.0655,1.6293,1709.8787],[116.0655,1.6438,1642.1558],[116.071,1.6532,1783.0938],[116.0912,1.6616,1699.1552],[116.1055,1.665,1712.2982],[116.1178,1.6589,1609.1978],[116.1282,1.6625,1686.3812],[116.1387,1.7062,1408.6846],[116.1491,1.7197,1498.4784],[116.1582,1.7482,1538.4871],[116.1606,1.7693,1559.6838],[116.1665,1.7769,1499.3103],[116.1678,1.7885,1578.1663],[116.176,1.8097,1706.3148],[116.1857,1.8448,1619.8865],[116.1767,1.8662,1814.7253],[116.1772,1.8825,1593.0508],[116.1749,1.8973,1661.2214],[116.1893,1.9366,1439.6282],[116.1964,1.9519,1555.9331],[116.1942,1.9728,1592.708],[116.1954,1.9858,1466.4015],[116.201,1.992,1451.6968],[116.2194,2.0024,1294.6597],[116.2298,2.0134,1382.8193],[116.2309,2.0446,1144.7969],[116.2259,2.0551,1508.5427],[116.2178,2.0633,1283.8254],[116.2216,2.0796,1305.2328],[116.2216,2.0951,1331.168],[116.2441,2.1033,1265.4264]]]]}}