{"type":"Feature","properties":{"GID_3":"IDN.9.5.31_1","GID_0":"IDN","country":"Indonesia","GID_1":"IDN.9_1","province":"JawaBarat","NL_NAME_1":"NA","GID_2":"IDN.9.5_1","county":"Bogor","NL_NAME_2":"NA","city":"RancaBungur","VARNAME_3":"NA","NL_NAME_3":"NA","TYPE_3":"Kecamatan","ENGTYPE_3":"Sub-district","CC_3":"3201231","HASC_3":"NA","name":"Ranca_Bungur.city"},
"geometry":{"type": "MultiPolygon","coordinates": [[[[106.7258,-6.5149,201.9814],[106.7219,-6.5144,188.1532],[106.7204,-6.5164,165.7511],[106.7149,-6.5149,139.524],[106.7136,-6.5014,115.7306],[106.711,-6.5004,113.6612],[106.7112,-6.4987,113.5688],[106.7074,-6.4967,112.513],[106.7076,-6.4952,115.6786],[106.7043,-6.4948,109.2126],[106.6891,-6.4969,111.6792],[106.687,-6.5,112.6366],[106.6898,-6.5013,115.2237],[106.6913,-6.5056,113.2497],[106.6869,-6.5051,122.4358],[106.6859,-6.5078,125.1252],[106.6817,-6.5075,131.7227],[106.6781,-6.5148,123.1299],[106.6794,-6.5158,84.681],[106.6845,-6.5131,94.2406],[106.6877,-6.5153,102.6401],[106.6914,-6.5198,112.3561],[106.6915,-6.5248,112.8627],[106.6937,-6.5262,129.1403],[106.6926,-6.5306,133.3599],[106.6946,-6.5312,114.7031],[106.6968,-6.5366,144.4058],[106.7061,-6.5391,144.4362],[106.7063,-6.5412,129.1407],[106.7098,-6.5429,136.8308],[106.7126,-6.5425,136.3447],[106.7123,-6.5452,135.417],[106.7211,-6.5444,139.0569],[106.7243,-6.54,146.2754],[106.7293,-6.5389,150.5848],[106.731,-6.5391,150.284],[106.7312,-6.5415,160.1468],[106.7346,-6.5403,150.9527],[106.7365,-6.5424,148.5803],[106.7385,-6.5397,150.334],[106.7415,-6.54,151.6028],[106.7424,-6.5374,170.083],[106.7465,-6.5379,170.31],[106.7475,-6.5278,159.7377],[106.7454,-6.5271,157.2649],[106.7436,-6.5196,151.8944],[106.7412,-6.5205,155.4344],[106.731,-6.5119,255.9135],[106.7258,-6.5149,201.9814]]]]}}