{"type":"Feature","properties":{"GID_3":"IDN.1.21.2_1","GID_0":"IDN","country":"Indonesia","GID_1":"IDN.1_1","province":"Aceh","NL_NAME_1":"NA","GID_2":"IDN.1.21_1","county":"Sabang","NL_NAME_2":"NA","city":"Sukakarya","VARNAME_3":"NA","NL_NAME_3":"NA","TYPE_3":"Kecamatan","ENGTYPE_3":"Sub-district","CC_3":"1172020","HASC_3":"NA","name":"Sukakarya.city"},
"geometry":{"type": "MultiPolygon","coordinates": [[[[95.3259,5.8261,197.0764],[95.3242,5.8355,351.7684],[95.3255,5.8443,347.7407],[95.3237,5.8528,178.6927],[95.3291,5.8542,271.5308],[95.3352,5.8605,187.218],[95.3349,5.8699,139.3018],[95.3272,5.8785,27.2047],[95.3271,5.8887,40.8828],[95.3249,5.8906,43.1564],[95.3261,5.8949,29.2169],[95.321,5.9003,5.5798],[95.3106,5.8945,1.0939],[95.3097,5.8911,6.5592],[95.3147,5.8849,0.0],[95.3165,5.8877,0.5357],[95.3214,5.8899,2.0404],[95.3243,5.8858,19.4833],[95.3241,5.8817,42.6602],[95.3219,5.8812,1.069],[95.3225,5.8799,0.0],[95.3153,5.8668,13.1328],[95.3116,5.8693,0.0],[95.3104,5.8676,11.9038],[95.3094,5.8691,0.0],[95.3069,5.868,13.0415],[95.3054,5.8711,67.1204],[95.3062,5.8739,0.0],[95.3016,5.873,0.0],[95.3011,5.8631,0.0],[95.3041,5.8399,14.6901],[95.2993,5.8385,25.924],[95.2979,5.8401,0.0],[95.2941,5.8405,0.0],[95.2931,5.8387,46.8847],[95.2921,5.8405,0.0],[95.2869,5.8414,1.4273],[95.2851,5.8482,0.0],[95.2774,5.8476,0.0],[95.2754,5.8533,3.877],[95.2715,5.8531,7.5185],[95.2688,5.8578,0.0],[95.2655,5.8571,0.0],[95.263,5.8668,0.0],[95.2678,5.8678,14.9326],[95.2685,5.8648,0.0],[95.2699,5.867,12.3807],[95.2688,5.8703,0.0],[95.265,5.8728,0.0],[95.2601,5.8713,16.8981],[95.2574,5.8721,1.979],[95.253,5.8803,2.976],[95.2499,5.8821,6.3773],[95.2506,5.8756,5.3912],[95.2477,5.8758,7.8048],[95.2483,5.8811,0.0],[95.2409,5.8861,2.893],[95.2403,5.8884,0.6912],[95.2418,5.8912,0.0],[95.2392,5.8928,5.4725],[95.2367,5.8981,0.0],[95.2351,5.8977,16.8442],[95.2245,5.906,4.7796],[95.2178,5.9072,0.0],[95.2162,5.9056,0.0],[95.2161,5.8997,0.0],[95.2176,5.8967,135.0545],[95.2149,5.8895,0.0],[95.2189,5.8811,0.0],[95.2206,5.873,0.0],[95.2266,5.8693,0.0],[95.2279,5.8661,1.5364],[95.2366,5.857,0.0],[95.2392,5.8496,0.0],[95.2419,5.8486,0.0],[95.2475,5.85,0.0],[95.2487,5.8476,0.0],[95.2528,5.8468,0.0],[95.2564,5.8437,0.0],[95.2592,5.8377,0.0],[95.2584,5.8315,0.0],[95.2693,5.8408,239.136],[95.2802,5.8234,400.4024],[95.2894,5.8163,436.8856],[95.2984,5.8145,226.2151],[95.312,5.8134,283.1359],[95.3151,5.8183,312.3117],[95.3197,5.8182,384.0688],[95.3241,5.8207,233.6658],[95.3259,5.8261,197.0764]]],
[[[95.3108,5.8774,0.0],[95.3085,5.8774,2.5849],[95.3074,5.8751,0.0],[95.311,5.875,7.1168],[95.3131,5.8731,0.0],[95.3139,5.8748,0.0],[95.3108,5.8774,0.0]]],
[[[95.2597,5.8751,0.0],[95.2607,5.883,1.3188],[95.2552,5.8881,3.5408],[95.2564,5.8828,46.8959],[95.259,5.8797,14.591],[95.2597,5.8751,0.0]]],
[[[95.2545,5.8931,0.0],[95.2554,5.8944,0.0],[95.2541,5.8966,0.0],[95.2538,5.896,5.0347],[95.2545,5.8931,0.0]]],
[[[95.1183,6.0767,9.6003],[95.1136,6.0755,23.8687],[95.1164,6.0709,28.3701],[95.1214,6.0736,14.1338],[95.1183,6.0767,9.6003]]]]}}