{"type":"Feature","properties":{"GID_3":"IDN.10.24.10_1","GID_0":"IDN","country":"Indonesia","GID_1":"IDN.10_1","province":"JawaTengah","NL_NAME_1":"NA","GID_2":"IDN.10.24_1","county":"Purbalingga","NL_NAME_2":"NA","city":"Kejobong","VARNAME_3":"NA","NL_NAME_3":"NA","TYPE_3":"Kecamatan","ENGTYPE_3":"Sub-district","CC_3":"3303030","HASC_3":"NA","name":"Kejobong.city"},
"geometry":{"type": "MultiPolygon","coordinates": [[[[109.4386,-7.4186,37.4016],[109.4437,-7.4172,40.8318],[109.4462,-7.4198,41.4688],[109.4503,-7.4189,45.9084],[109.4516,-7.4246,48.5587],[109.4618,-7.4232,61.5357],[109.4645,-7.4187,64.4426],[109.4672,-7.4188,62.1622],[109.4743,-7.4135,77.4201],[109.4809,-7.4155,68.8186],[109.4846,-7.4149,61.339],[109.4913,-7.4106,89.7271],[109.4911,-7.4128,71.3085],[109.4926,-7.4129,71.7974],[109.4962,-7.4096,85.3863],[109.4976,-7.4121,89.5187],[109.5066,-7.4099,119.7062],[109.5084,-7.4123,107.9917],[109.5099,-7.4113,107.9917],[109.5111,-7.4127,107.7606],[109.5139,-7.411,145.0059],[109.5172,-7.4127,122.3679],[109.5317,-7.4089,132.0308],[109.5329,-7.4068,127.7207],[109.5364,-7.4083,154.4887],[109.5369,-7.4059,128.3134],[109.5422,-7.407,135.6442],[109.543,-7.4032,129.1744],[109.5464,-7.4052,141.0775],[109.5467,-7.4026,151.9288],[109.5488,-7.4019,136.4206],[109.549,-7.3981,139.8143],[109.5413,-7.3906,182.585],[109.5357,-7.3762,210.5387],[109.5302,-7.3768,192.1563],[109.5231,-7.3722,182.6151],[109.5173,-7.3725,187.0417],[109.517,-7.3814,171.0941],[109.5099,-7.3843,163.1995],[109.5026,-7.3791,153.2975],[109.4946,-7.3779,133.806],[109.4913,-7.3851,132.14],[109.4914,-7.3883,131.1641],[109.4894,-7.39,129.9814],[109.4875,-7.3888,126.0922],[109.4842,-7.3918,122.8903],[109.48779999999999,-7.3958,153.7041],[109.4796,-7.399,134.0355],[109.474,-7.3984,117.9355],[109.4716,-7.3957,102.11],[109.4682,-7.3961,95.0996],[109.4645,-7.4022,99.1111],[109.4532,-7.396,81.1239],[109.4486,-7.3957,69.4172],[109.4423,-7.3976,54.5634],[109.4373,-7.3955,44.0608],[109.4354,-7.3987,42.0543],[109.4311,-7.4008,43.3154],[109.4253,-7.3985,38.0564],[109.4215,-7.4004,34.6237],[109.4203,-7.3983,34.0672],[109.4176,-7.3991,35.1771],[109.4192,-7.4114,30.7997],[109.4268,-7.4129,41.2045],[109.432,-7.4178,34.7324],[109.4386,-7.4186,37.4016]]]]}}