{"type":"Feature","properties":{"GID_3":"IDN.34.11.1_1","GID_0":"IDN","country":"Indonesia","GID_1":"IDN.34_1","province":"KalimantanTimur","NL_NAME_1":"NA","GID_2":"IDN.34.11_1","county":"PenajamPaserUtara","NL_NAME_2":"NA","city":"Babulu","VARNAME_3":"NA","NL_NAME_3":"NA","TYPE_3":"Kecamatan","ENGTYPE_3":"Sub-district","CC_3":"6409010","HASC_3":"NA","name":"Babulu.city"},
"geometry":{"type": "MultiPolygon","coordinates": [[[[116.4933,-1.5811,1.3116],[116.5195,-1.5904,0.7978],[116.5443,-1.5957,7.2628],[116.5522,-1.6056,4.7501],[116.5578,-1.6029,1.8834],[116.5597,-1.6001,3.8754],[116.5603,-1.5918,3.1134],[116.5572,-1.5876,1.0664],[116.5558,-1.5813,0.0],[116.5533,-1.553,0.5926],[116.5483,-1.5342,3.895],[116.5412,-1.5195,5.4385],[116.538,-1.5165,8.3563],[116.5327,-1.5156,0.0],[116.53,-1.5095,0.2032],[116.5333,-1.4988,1.3922],[116.5353,-1.4751,10.9346],[116.5387,-1.4654,1.5282],[116.5433,-1.46,3.3911],[116.5137,-1.4363,23.615],[116.422,-1.3824,56.5177],[116.3355,-1.3105,89.1803],[116.3355,-1.3338,92.58],[116.3461,-1.3692,29.3331],[116.3549,-1.3904,16.7776],[116.356,-1.417,17.0847],[116.3638,-1.4701,39.6161],[116.3744,-1.5019,6.7408],[116.3797,-1.5267,6.6512],[116.3868,-1.5444,4.076],[116.3992,-1.5497,2.8128],[116.4169,-1.5532,2.4643],[116.4452,-1.5656,1.9977],[116.4933,-1.5811,1.3116]]]]}}