{"type":"Feature","properties":{"GID_3":"IDN.6.1.4_1","GID_0":"IDN","country":"Indonesia","GID_1":"IDN.6_1","province":"Gorontalo","NL_NAME_1":"NA","GID_2":"IDN.6.1_1","county":"Boalemo","NL_NAME_2":"NA","city":"PaguyamanPantai","VARNAME_3":"NA","NL_NAME_3":"NA","TYPE_3":"Kecamatan","ENGTYPE_3":"Sub-district","CC_3":"7501052","HASC_3":"NA","name":"Paguyaman_Pantai.city"},
"geometry":{"type": "MultiPolygon","coordinates": [[[[122.5334,0.5002,9.0744],[122.5295,0.501,0.0],[122.527,0.4987,25.2518],[122.5246,0.4986,0.0],[122.5242,0.4958,3.7932],[122.5225,0.4979,0.858],[122.5214,0.4968,5.0034],[122.5234,0.4918,0.0],[122.529,0.4886,0.0],[122.5333,0.4903,4.2537],[122.5356,0.4971,0.0],[122.5334,0.5002,9.0744]]],
[[[122.5511,0.5071,1.6885],[122.55,0.509,3.0071],[122.552,0.5113,0.0],[122.5513,0.5131,12.8605],[122.5562,0.513,1.8572],[122.5581,0.5113,0.0],[122.5595,0.5127,3.7438],[122.5676,0.5131,1.9425],[122.5691,0.509,1.4619],[122.5628,0.5055,1.2738],[122.5597,0.5019,0.0],[122.5602,0.4993,0.0],[122.5651,0.495,0.0],[122.5734,0.4927,0.0],[122.5849,0.4956,4.229],[122.5868,0.4974,26.354],[122.5895,0.4969,0.0],[122.5912,0.5007,17.9751],[122.5945,0.5027,13.9054],[122.5948,0.5049,23.248],[122.5866,0.508,31.2876],[122.5843,0.5099,15.2489],[122.5854,0.5107,5.6027],[122.5952,0.5064,0.0],[122.5962,0.5081,15.135],[122.6051,0.5065,0.0],[122.5931,0.4979,21.2608],[122.5925,0.495,0.0],[122.601,0.4937,0.0],[122.6092,0.4871,1.4698],[122.6146,0.4894,0.0],[122.6147,0.492,0.0],[122.6195,0.4976,13.18],[122.6196,0.4945,1.5216],[122.6173,0.4917,0.0],[122.6179,0.4893,3.1332],[122.6248,0.4862,0.0],[122.6338,0.4862,1.8085],[122.6389,0.4822,20.1223],[122.6436,0.4758,1.9308],[122.6386,0.513,411.0424],[122.6263,0.5196,565.0742],[122.6186,0.5216,313.8083],[122.6168,0.5256,225.8284],[122.6181,0.5339,398.877],[122.6228,0.5429,235.1366],[122.6207,0.5533,250.0455],[122.6227,0.5558,176.164],[122.6201,0.5598,175.222],[122.6232,0.5633,131.4174],[122.6231,0.5654,214.6694],[122.6181,0.5765,150.3533],[122.6106,0.5817,315.2926],[122.6088,0.5943,207.7482],[122.6066,0.5984,127.872],[122.6036,0.5956,110.4136],[122.6011,0.5967,237.897],[122.5934,0.5927,372.2603],[122.5907,0.5939,379.097],[122.5735,0.5931,182.3495],[122.57,0.5949,315.1286],[122.5579,0.5822,297.0159],[122.5498,0.5847,289.8597],[122.5459,0.5827,258.5305],[122.5456,0.5847,254.7481],[122.5415,0.5848,234.6077],[122.541,0.5832,217.1072],[122.531,0.5782,158.2131],[122.5307,0.576,171.207],[122.5226,0.5805,177.286],[122.5192,0.5797,178.5991],[122.5144,0.5825,303.3568],[122.5092,0.5804,239.4035],[122.5059,0.575,255.5911],[122.5031,0.5692,202.5625],[122.5015,0.5529,187.6304],[122.5085,0.5484,172.7813],[122.5077,0.5427,161.7169],[122.5137,0.5279,193.4362],[122.509,0.5129,2.1667],[122.5125,0.5128,2.6354],[122.5124,0.5115,2.5389],[122.5071,0.5087,3.0131],[122.5063,0.5066,0.0],[122.511,0.5027,7.1668],[122.5124,0.4982,0.0],[122.5175,0.4973,0.0],[122.5177,0.5019,0.0],[122.5151,0.5026,2.1745],[122.5138,0.5049,7.8827],[122.5129,0.5093,0.7639],[122.514,0.5109,5.321],[122.5203,0.5017,0.0],[122.5229,0.5056,15.9243],[122.5248,0.5033,0.0],[122.5265,0.506,2.6724],[122.5287,0.5063,0.5373],[122.5315,0.5012,2.3602],[122.5333,0.5007,2.3602],[122.535,0.5032,8.8436],[122.5386,0.5029,1.3111],[122.5441,0.5078,6.5412],[122.5465,0.5063,9.71],[122.5463,0.5047,18.505],[122.5433,0.5032,0.0],[122.54,0.4942,10.667],[122.5457,0.4898,0.0],[122.5519,0.4906,2.0385],[122.5565,0.4961,0.0],[122.5569,0.504,0.0],[122.5548,0.5071,0.0],[122.5511,0.5071,1.6885]]]]}}