{"type":"Feature","properties":{"GID_3":"IDN.11.28.22_1","GID_0":"IDN","country":"Indonesia","GID_1":"IDN.11_1","province":"JawaTimur","NL_NAME_1":"NA","GID_2":"IDN.11.28_1","county":"Pasuruan","NL_NAME_2":"NA","city":"Tutur","VARNAME_3":"NA","NL_NAME_3":"NA","TYPE_3":"Kecamatan","ENGTYPE_3":"Sub-district","CC_3":"3514020","HASC_3":"NA","name":"Tutur.city"},
"geometry":{"type": "MultiPolygon","coordinates": [[[[112.8726,-7.9456,2254.9961],[112.882,-7.949,2243.0989],[112.8851,-7.9525,2273.531],[112.8898,-7.9498,2159.2024],[112.8933,-7.9502,2171.8206],[112.8985,-7.9468,2241.0688],[112.9025,-7.9476,2280.967],[112.909,-7.9536,2277.2622],[112.9118,-7.9542,2294.4739],[112.9153,-7.9513,2227.5115],[112.9122,-7.9453,2154.7388],[112.906,-7.9408,2313.0698],[112.8928,-7.9389,2100.2856],[112.8858,-7.9285,1956.9036],[112.8841,-7.9204,1968.9611],[112.8632,-7.9125,1701.8596],[112.8622,-7.9084,1731.1526],[112.8574,-7.9041,1641.6951],[112.8586,-7.902,1590.2037],[112.8541,-7.8989,1451.0592],[112.8495,-7.8921,1205.9509],[112.8422,-7.8888,1117.1244],[112.8385,-7.8892,1083.964],[112.8373,-7.8848,1055.7272],[112.8307,-7.8789,1021.3038],[112.8299,-7.8742,980.9634],[112.834,-7.8705,951.2047],[112.8302,-7.8667,980.8929],[112.8297,-7.862,959.178],[112.8251,-7.8563,909.2529],[112.8266,-7.8518,881.8672],[112.825,-7.8459,819.7648],[112.8267,-7.8414,779.0016],[112.8309,-7.8378,705.3505],[112.8308,-7.8361,692.627],[112.825,-7.8361,709.3546],[112.8132,-7.822,663.9618],[112.8156,-7.8114,558.0122],[112.8143,-7.8079,524.8738],[112.8167,-7.8042,499.7363],[112.8146,-7.7989,427.542],[112.8154,-7.7898,336.5219],[112.801,-7.7894,370.0036],[112.8006,-7.7853,343.9731],[112.795,-7.786,301.0052],[112.7889,-7.7801,224.4865],[112.7821,-7.7854,213.3169],[112.7765,-7.7782,158.5031],[112.7763,-7.7813,182.718],[112.7733,-7.7809,159.211],[112.7729,-7.7839,176.2473],[112.7696,-7.784,171.0625],[112.7649,-7.7885,206.5553],[112.7709,-7.7917,254.9075],[112.7718,-7.8013,383.5318],[112.776,-7.8089,464.6309],[112.785,-7.812,548.7007],[112.7771,-7.8215,568.7382],[112.7779,-7.8223,584.3296],[112.7883,-7.816,569.6449],[112.7888,-7.8302,715.809],[112.7932,-7.8317,683.7139],[112.7974,-7.837,710.7279],[112.7962,-7.8411,774.0048],[112.7982,-7.8435,817.4911],[112.798,-7.8551,865.7485],[112.7996,-7.8604,892.9464],[112.7958,-7.8611,888.6393],[112.7972,-7.8664,921.5964],[112.7953,-7.8678,918.1467],[112.7946,-7.8709,940.9509],[112.7961,-7.8717,930.9828],[112.7946,-7.8732,919.0654],[112.7902,-7.8706,909.5839],[112.786,-7.8738,917.3649],[112.7807,-7.874,1173.8828],[112.7773,-7.8789,1161.0367],[112.7799,-7.8915,1137.4495],[112.7851,-7.8971,1121.2212],[112.7844,-7.9007,1113.6851],[112.7948,-7.9158,1174.0701],[112.8012,-7.9192,1132.9314],[112.8054,-7.9255,1369.598],[112.8134,-7.9279,1361.7538],[112.8216,-7.9281,1318.0767],[112.8234,-7.9329,1402.3096],[112.8358,-7.941,1497.6824],[112.8465,-7.9423,1592.2856],[112.8562,-7.9397,1743.0181],[112.87,-7.947,2196.9824],[112.8726,-7.9456,2254.9961]]]]}}