{"type":"Feature","properties":{"GID_3":"IDN.21.1.15_1","GID_0":"IDN","country":"Indonesia","GID_1":"IDN.21_1","province":"NusaTenggaraTimur","NL_NAME_1":"NA","GID_2":"IDN.21.1_1","county":"Alor","NL_NAME_2":"NA","city":"PulauPura","VARNAME_3":"NA","NL_NAME_3":"NA","TYPE_3":"Kecamatan","ENGTYPE_3":"Sub-district","CC_3":"5307062","HASC_3":"NA","name":"Pulau_Pura.city"},
"geometry":{"type": "MultiPolygon","coordinates": [[[[124.3566,-8.3254,0.0],[124.3623,-8.325,1.9424],[124.3643,-8.3202,28.0213],[124.366,-8.3195,15.0296],[124.3662,-8.3149,33.6179],[124.3699,-8.3092,4.6191],[124.3737,-8.3064,0.0],[124.3756,-8.2941,2.9515],[124.3694,-8.2822,0.0],[124.365,-8.2797,12.2849],[124.3611,-8.2794,0.0],[124.3552,-8.275,9.3072],[124.3519,-8.2769,10.1507],[124.3493,-8.2754,4.9165],[124.3451,-8.2771,30.6235],[124.343,-8.2754,1.8276],[124.3389,-8.2758,2.0764],[124.3256,-8.283,4.6792],[124.3253,-8.2858,16.8895],[124.3158,-8.2959,42.8339],[124.3153,-8.2988,0.0],[124.3201,-8.3077,43.0046],[124.3215,-8.3157,0.0],[124.3254,-8.3177,21.739],[124.3296,-8.324,0.0],[124.3566,-8.3254,0.0]]]]}}