{"type":"Feature","properties":{"GID_3":"IDN.11.8.12_1","GID_0":"IDN","country":"Indonesia","GID_1":"IDN.11_1","province":"JawaTimur","NL_NAME_1":"NA","GID_2":"IDN.11.8_1","county":"Jember","NL_NAME_2":"NA","city":"Kencong","VARNAME_3":"NA","NL_NAME_3":"NA","TYPE_3":"Kecamatan","ENGTYPE_3":"Sub-district","CC_3":"3509010","HASC_3":"NA","name":"Kencong.city"},
"geometry":{"type": "MultiPolygon","coordinates": [[[[113.3492,-8.3126,8.8835],[113.352,-8.3115,8.1645],[113.3683,-8.3256,10.747],[113.3731,-8.3197,6.3364],[113.3699,-8.3168,6.781],[113.3805,-8.3048,10.5569],[113.386,-8.3099,12.8442],[113.3938,-8.2929,14.7913],[113.4011,-8.2864,14.0494],[113.4026,-8.2829,17.8973],[113.4047,-8.2835,16.0667],[113.4044,-8.274,20.6483],[113.4072,-8.2677,25.6957],[113.4028,-8.264,19.0655],[113.3769,-8.2549,14.6218],[113.382,-8.2341,16.7967],[113.3754,-8.2314,15.6706],[113.3679,-8.2373,14.2394],[113.3586,-8.2408,14.0496],[113.3541,-8.2548,12.3934],[113.3548,-8.2628,11.7146],[113.3492,-8.2717,12.3256],[113.35,-8.2752,8.8398],[113.3479,-8.2784,10.6313],[113.3392,-8.2754,10.1035],[113.3381,-8.2745,9.7085],[113.3388,-8.2721,9.7134],[113.3304,-8.2684,15.2672],[113.3282,-8.2641,10.1379],[113.3201,-8.2623,10.2554],[113.317,-8.2782,5.814],[113.3125,-8.2913,3.1197],[113.3086,-8.3006,3.7141],[113.3034,-8.3075,0.8679],[113.3287,-8.3221,3.8927],[113.3409,-8.3324,1.6326],[113.3452,-8.3248,6.7125],[113.3428,-8.3263,8.1935],[113.3416,-8.3231,4.1037],[113.3413,-8.319,8.4639],[113.3438,-8.3189,11.1033],[113.3411,-8.3158,6.9552],[113.3424,-8.3126,3.5303],[113.3488,-8.3152,10.2167],[113.3492,-8.3126,8.8835]]]]}}