{"type":"Feature","properties":{"GID_3":"IDN.23.12.8_1","GID_0":"IDN","country":"Indonesia","GID_1":"IDN.23_1","province":"Papua","NL_NAME_1":"NA","GID_2":"IDN.23.12_1","county":"LannyJaya","NL_NAME_2":"NA","city":"Poga","VARNAME_3":"NA","NL_NAME_3":"NA","TYPE_3":"Distrik","ENGTYPE_3":"District","CC_3":"9430100","HASC_3":"NA","name":"Poga.city"},
"geometry":{"type": "MultiPolygon","coordinates": [[[[138.5169,-3.8362,2770.6157],[138.531,-3.837,2165.5105],[138.5567,-3.8426,2421.4312],[138.6018,-3.8456,2383.5308],[138.6076,-3.7952,2243.8657],[138.6113,-3.7843,2602.9358],[138.6079,-3.7526,2780.6316],[138.6078,-3.7264,2084.4277],[138.6094,-3.7226,2028.05],[138.5658,-3.7255,2657.0649],[138.5339,-3.7235,2183.5554],[138.505,-3.7255,2073.2759],[138.4731,-3.7434,2534.082],[138.4522,-3.7474,2289.6167],[138.4283,-3.7554,2808.394],[138.4064,-3.7534,2623.9397],[138.3933,-3.7831,3432.947],[138.4269,-3.8037,3049.6785],[138.4756,-3.8277,3101.6287],[138.5013,-3.8311,2772.4766],[138.5169,-3.8362,2770.6157]]]]}}