{"type":"Feature","properties":{"GID_3":"IDN.11.29.21_1","GID_0":"IDN","country":"Indonesia","GID_1":"IDN.11_1","province":"JawaTimur","NL_NAME_1":"NA","GID_2":"IDN.11.29_1","county":"Ponorogo","NL_NAME_2":"NA","city":"Sukorejo","VARNAME_3":"NA","NL_NAME_3":"NA","TYPE_3":"Kecamatan","ENGTYPE_3":"Sub-district","CC_3":"3502160","HASC_3":"NA","name":"Sukorejo.city"},
"geometry":{"type": "MultiPolygon","coordinates": [[[[111.4376,-7.8961,94.7094],[111.4422,-7.8974,94.8779],[111.4456,-7.8902,94.1851],[111.4431,-7.8892,94.5732],[111.4427,-7.88,94.8283],[111.4469,-7.8794,94.1007],[111.4427,-7.8782,94.2555],[111.4413,-7.8707,97.4171],[111.4484,-7.8716,95.289],[111.4467,-7.8677,97.8331],[111.4483,-7.8663,97.8331],[111.4472,-7.8606,94.1742],[111.4492,-7.8552,95.8413],[111.4475,-7.8529,93.4654],[111.4521,-7.8531,91.8723],[111.4538,-7.8516,93.5051],[111.4519,-7.8491,92.9147],[111.4525,-7.8466,93.1115],[111.4453,-7.8365,92.2709],[111.447,-7.8349,90.4732],[111.4479,-7.8288,90.5049],[111.4464,-7.8241,91.4833],[111.4471,-7.81,88.5141],[111.4447,-7.8056,89.8092],[111.4467,-7.8008,89.9106],[111.4455,-7.7939,85.4626],[111.4495,-7.7897,87.3884],[111.4483,-7.7862,92.0686],[111.4507,-7.7812,89.4986],[111.4499,-7.779,90.7849],[111.4427,-7.7791,93.6469],[111.4315,-7.7759,102.929],[111.4001,-7.7787,131.4241],[111.398,-7.7811,134.9198],[111.3985,-7.7841,145.8049],[111.3957,-7.7915,143.9671],[111.3972,-7.7968,136.521],[111.3997,-7.7995,130.8754],[111.3958,-7.8065,135.9014],[111.3972,-7.8103,133.0522],[111.3956,-7.8102,137.6797],[111.3949,-7.8146,133.7949],[111.3905,-7.819,132.7466],[111.3817,-7.8197,134.6068],[111.3825,-7.8215,132.3222],[111.3851,-7.822,134.1987],[111.383,-7.8227,134.0074],[111.3831,-7.8287,126.5622],[111.3876,-7.8369,117.5198],[111.3874,-7.8492,109.7132],[111.394,-7.8457,108.6439],[111.408,-7.8471,102.2565],[111.407,-7.8506,101.53],[111.4091,-7.8541,103.963],[111.4063,-7.8567,103.9428],[111.4126,-7.8571,100.2305],[111.4128,-7.8552,100.4661],[111.4146,-7.8554,99.5528],[111.4142,-7.8588,100.3623],[111.4182,-7.8592,99.0754],[111.4198,-7.8532,99.3535],[111.4239,-7.8548,98.421],[111.4258,-7.8538,96.8254],[111.4263,-7.8566,96.6429],[111.4279,-7.8566,98.0785],[111.4269,-7.8657,100.6819],[111.4232,-7.8659,101.043],[111.423,-7.8698,100.4263],[111.4247,-7.8702,98.6076],[111.4257,-7.8744,98.3459],[111.4239,-7.8823,99.9968],[111.4337,-7.8798,96.6569],[111.4335,-7.8895,95.1723],[111.4319,-7.8895,96.1713],[111.4313,-7.8918,96.4465],[111.4278,-7.8915,97.1686],[111.4303,-7.8925,96.4465],[111.4297,-7.8971,96.8205],[111.4346,-7.8966,95.0693],[111.4343,-7.8985,95.1958],[111.437,-7.8992,95.1681],[111.4376,-7.8961,94.7094]]]]}}