{"type":"Feature","properties":{"GID_3":"IDN.32.6.8_1","GID_0":"IDN","country":"Indonesia","GID_1":"IDN.32_1","province":"SumateraUtara","NL_NAME_1":"NA","GID_2":"IDN.32.6_1","county":"HumbangHasundutan","NL_NAME_2":"NA","city":"Pollung","VARNAME_3":"NA","NL_NAME_3":"NA","TYPE_3":"Kecamatan","ENGTYPE_3":"Sub-district","CC_3":"1215080","HASC_3":"NA","name":"Pollung.city"},
"geometry":{"type": "MultiPolygon","coordinates": [[[[98.6144,2.2703,1355.8737],[98.6968,2.2705,1431.1807],[98.6965,2.2759,1429.4663],[98.7007,2.2719,1409.5037],[98.7074,2.2758,1403.2634],[98.7131,2.2837,1397.9514],[98.7203,2.3053,1409.2061],[98.7344,2.3045,1397.0696],[98.7447,2.3085,1388.1508],[98.7512,2.3131,1341.4723],[98.7558,2.3219,1390.0042],[98.764,2.3236,1394.4165],[98.7753,2.3341,1409.9219],[98.7831,2.3448,1398.0814],[98.7854,2.3541,1426.9246],[98.7882,2.3588,1437.6084],[98.7965,2.3586,1432.5024],[98.8036,2.3634,1432.7139],[98.8077,2.3633,1228.0483],[98.8042,2.3707,1515.8245],[98.8071,2.3745,1526.7838],[98.7988,2.3906,1442.5439],[98.7908,2.3996,1321.7731],[98.7889,2.4094,1613.3751],[98.7777,2.4201,1176.5681],[98.749,2.4395,1961.7],[98.7066,2.4346,1835.366],[98.6808,2.4287,1733.5454],[98.6674,2.428,1715.3184],[98.6595,2.4258,1693.5762],[98.6499,2.4194,1663.4772],[98.6295,2.4093,1652.1338],[98.6161,2.399,1645.0598],[98.5954,2.3503,1356.222],[98.5927,2.3284,1294.766],[98.5976,2.3105,1306.9513],[98.5984,2.2945,1238.354],[98.5887,2.2705,1109.9094],[98.6144,2.2703,1355.8737]]]]}}