{"type":"Feature","properties":{"GID_3":"IDN.10.30.5_1","GID_0":"IDN","country":"Indonesia","GID_1":"IDN.10_1","province":"JawaTengah","NL_NAME_1":"NA","GID_2":"IDN.10.30_1","county":"Sukoharjo","NL_NAME_2":"NA","city":"Grogol","VARNAME_3":"NA","NL_NAME_3":"NA","TYPE_3":"Kecamatan","ENGTYPE_3":"Sub-district","CC_3":"3311090","HASC_3":"NA","name":"Grogol.city"},
"geometry":{"type": "MultiPolygon","coordinates": [[[[110.85,-7.641,95.8231],[110.8512,-7.6404,95.8231],[110.85,-7.639,97.0661],[110.8521,-7.638,98.0075],[110.8475,-7.6356,96.3623],[110.8515,-7.6349,96.2937],[110.8518,-7.6296,95.3045],[110.8482,-7.6306,94.7118],[110.8479,-7.6333,96.3064],[110.8447,-7.6315,94.3691],[110.847,-7.6345,95.6504],[110.8446,-7.6363,91.6909],[110.843,-7.6306,94.7805],[110.8417,-7.6322,93.3498],[110.8398,-7.6307,94.3434],[110.8378,-7.6319,93.8757],[110.8392,-7.6288,93.2895],[110.8374,-7.6276,91.7297],[110.8353,-7.6327,93.0539],[110.8325,-7.628,90.1116],[110.8301,-7.6269,90.2302],[110.8313,-7.6231,90.7768],[110.8302,-7.6204,89.4257],[110.8319,-7.6166,89.7649],[110.831,-7.6128,90.7122],[110.8332,-7.6105,88.418],[110.8327,-7.6059,88.3856],[110.8343,-7.6026,87.0366],[110.8325,-7.5976,87.9931],[110.84,-7.5903,85.7994],[110.8369,-7.5906,91.1395],[110.8329,-7.5949,89.3253],[110.8279,-7.5928,91.2526],[110.8237,-7.5951,91.273],[110.8188,-7.5947,91.0888],[110.8168,-7.5918,91.4113],[110.8177,-7.5889,92.1176],[110.8097,-7.5831,93.3467],[110.8093,-7.581,94.4888],[110.8066,-7.5796,94.7689],[110.8047,-7.5738,95.7243],[110.802,-7.5716,97.3399],[110.7934,-7.5722,98.594],[110.7929,-7.5712,100.3615],[110.7925,-7.5735,99.4393],[110.79,-7.5731,100.6999],[110.7869,-7.5755,102.8367],[110.7906,-7.5835,100.1844],[110.7847,-7.5855,101.3059],[110.7849,-7.5868,100.5623],[110.7839,-7.5861,101.3059],[110.7838,-7.5894,101.2399],[110.7859,-7.5897,98.4336],[110.7855,-7.5927,100.6192],[110.7877,-7.5956,98.3534],[110.7945,-7.5997,94.7696],[110.7927,-7.6037,97.0961],[110.7951,-7.6046,97.3763],[110.7912,-7.606,97.1292],[110.8001,-7.6091,95.5345],[110.7994,-7.6109,93.1729],[110.8026,-7.6122,91.7109],[110.8009,-7.6128,92.365],[110.7989,-7.6176,93.3538],[110.7961,-7.6171,92.3901],[110.7947,-7.6209,94.4062],[110.7912,-7.6225,97.0181],[110.7938,-7.625,95.4168],[110.7931,-7.627,95.0767],[110.7988,-7.6323,92.6795],[110.8009,-7.6325,89.1115],[110.7991,-7.6361,92.6151],[110.7924,-7.6395,90.5709],[110.7913,-7.6422,91.6081],[110.7956,-7.6434,93.882],[110.7988,-7.6414,93.0846],[110.8149,-7.6477,92.8102],[110.8156,-7.6446,92.5767],[110.8178,-7.6453,96.2425],[110.8177,-7.6419,89.9539],[110.8201,-7.6393,91.5805],[110.8183,-7.6357,91.7664],[110.8199,-7.6326,91.1382],[110.8275,-7.6348,89.7575],[110.8309,-7.6457,93.2282],[110.8344,-7.6472,92.364],[110.8351,-7.6454,91.7165],[110.8363,-7.6479,94.0494],[110.8435,-7.6509,93.9176],[110.8472,-7.6422,92.6064],[110.85,-7.641,95.8231]]]]}}