{"type":"Feature","properties":{"GID_3":"IDN.28.7.13_1","GID_0":"IDN","country":"Indonesia","GID_1":"IDN.28_1","province":"SulawesiTenggara","NL_NAME_1":"NA","GID_2":"IDN.28.7_1","county":"Kolaka","NL_NAME_2":"NA","city":"Tanggetada","VARNAME_3":"NA","NL_NAME_3":"NA","TYPE_3":"Kecamatan","ENGTYPE_3":"Sub-district","CC_3":"7404011","HASC_3":"NA","name":"Tanggetada.city"},
"geometry":{"type": "MultiPolygon","coordinates": [[[[121.7978,-4.3979,187.2084],[121.8044,-4.3836,207.9852],[121.7755,-4.2943,749.7751],[121.7696,-4.2967,810.6094],[121.7595,-4.2937,790.8688],[121.746,-4.2951,614.5941],[121.7335,-4.2914,531.2313],[121.7149,-4.2953,502.5537],[121.7067,-4.2953,481.3623],[121.7002,-4.2912,391.7462],[121.6929,-4.2912,365.528],[121.6837,-4.2946,398.0471],[121.6713,-4.2952,337.6335],[121.6715,-4.2987,325.2749],[121.6691,-4.3013,319.2547],[121.6583,-4.3038,208.4577],[121.6562,-4.3065,200.8495],[121.65,-4.3024,185.7335],[121.6471,-4.2922,121.9972],[121.6424,-4.2899,181.7494],[121.6391,-4.2826,82.0706],[121.6296,-4.2782,149.6941],[121.6254,-4.2784,158.5383],[121.6208,-4.2816,97.3475],[121.6127,-4.2822,60.4845],[121.6124,-4.2882,47.4887],[121.6099,-4.2868,48.0804],[121.6123,-4.2838,51.8494],[121.6096,-4.2818,49.9812],[121.6119,-4.284,51.8494],[121.6101,-4.2847,47.2401],[121.6091,-4.2862,52.0999],[121.612,-4.2888,47.4887],[121.6109,-4.292,41.9908],[121.6089,-4.2936,44.9416],[121.6069,-4.2921,49.9452],[121.6056,-4.2932,48.1529],[121.6019,-4.2979,60.6846],[121.599,-4.3077,37.6507],[121.5967,-4.3086,36.9284],[121.5927,-4.3059,52.5663],[121.5899,-4.3071,25.5333],[121.5887,-4.305,29.8847],[121.5896,-4.3022,42.8542],[121.5835,-4.3009,23.1851],[121.5828,-4.303,25.6404],[121.575,-4.3038,19.9344],[121.575,-4.3015,22.078],[121.573,-4.301,17.4139],[121.5714,-4.2984,14.5432],[121.564,-4.2983,12.3034],[121.5595,-4.2941,13.2122],[121.5554,-4.2934,10.1502],[121.5499,-4.289,9.3224],[121.5506,-4.2883,9.3224],[121.5461,-4.2868,9.411],[121.5434,-4.2879,3.6128999999999998],[121.543,-4.2915,3.1928],[121.5351,-4.2894,2.4972],[121.5332,-4.2922,5.2818],[121.5258,-4.2926,0.0],[121.5263,-4.2975,0.0],[121.5228,-4.3078,0.0],[121.5233,-4.3183,1.2372],[121.5181,-4.3329,0.0],[121.5156,-4.3456,0.0],[121.517,-4.3728,1.4137],[121.5222,-4.3887,0.0],[121.5202,-4.3955,0.0],[121.5239,-4.4009,0.5266],[121.5207,-4.4067,0.0],[121.5176,-4.4312,0.0],[121.5234,-4.4383,6.2826],[121.5278,-4.4386,5.3019],[121.5325,-4.4302,28.1822],[121.5387,-4.4237,42.2266],[121.5489,-4.4136,45.4418],[121.558,-4.4076,69.5985],[121.5736,-4.4066,33.237],[121.5752,-4.4083,27.8925],[121.5738,-4.409,31.1919],[121.5798,-4.4132,37.0953],[121.5839,-4.4099,49.1587],[121.5816,-4.4087,37.2694],[121.583,-4.4077,41.3131],[121.5878,-4.4096,53.299],[121.5889,-4.4069,55.2557],[121.5916,-4.4071,49.837],[121.5923,-4.4054,48.43],[121.5967,-4.4047,45.0788],[121.5976,-4.4065,67.2866],[121.6015,-4.402,51.5395],[121.6021,-4.4035,51.1788],[121.6042,-4.4029,52.2541],[121.6066,-4.4012,59.8422],[121.6058,-4.394,60.5191],[121.6102,-4.3957,62.3897],[121.6123,-4.3934,62.9878],[121.6137,-4.3943,75.4359],[121.6144,-4.3865,76.2555],[121.6173,-4.3848,76.6273],[121.6188,-4.3806,88.652],[121.6207,-4.3792,90.5748],[121.6232,-4.38,83.9165],[121.6231,-4.375,94.7448],[121.6212,-4.3744,125.4853],[121.6229,-4.3726,126.5373],[121.6408,-4.3748,153.2507],[121.6528,-4.3702,186.1586],[121.6636,-4.3749,176.5777],[121.6673,-4.3743,199.6413],[121.6719,-4.3686,172.0483],[121.677,-4.3665,218.2864],[121.6879,-4.3692,210.0177],[121.6999,-4.3745,306.5241],[121.7345,-4.3768,377.3122],[121.7556,-4.3765,241.2896],[121.767,-4.3823,239.9423],[121.7726,-4.389,202.8755],[121.7866,-4.3927,196.8913],[121.7943,-4.3927,185.6492],[121.7978,-4.3979,187.2084]]]]}}