{"type":"Feature","properties":{"GID_3":"IDN.11.37.12_1","GID_0":"IDN","country":"Indonesia","GID_1":"IDN.11_1","province":"JawaTimur","NL_NAME_1":"NA","GID_2":"IDN.11.37_1","county":"Tuban","NL_NAME_2":"NA","city":"Plumpang","VARNAME_3":"NA","NL_NAME_3":"NA","TYPE_3":"Kecamatan","ENGTYPE_3":"Sub-district","CC_3":"3523090","HASC_3":"NA","name":"Plumpang.city"},
"geometry":{"type": "MultiPolygon","coordinates": [[[[112.102,-7.0885,10.8438],[112.1077,-7.0864,8.5],[112.1155,-7.0897,11.4056],[112.1245,-7.0881,8.0],[112.1237,-7.0923,8.3919],[112.1179,-7.0958,9.8135],[112.1175,-7.0995,12.5486],[112.1218,-7.1075,9.2903],[112.1255,-7.1079,8.5158],[112.1272,-7.1062,8.3659],[112.1273,-7.0986,8.8504],[112.1302,-7.0968,8.0],[112.1297,-7.0931,9.9365],[112.1321,-7.0919,10.7163],[112.1326,-7.0896,10.6164],[112.1377,-7.0905,7.544],[112.1379,-7.0873,7.1256],[112.1405,-7.0857,6.7886],[112.1395,-7.0819,7.0189],[112.1419,-7.0783,6.4985],[112.1591,-7.0675,7.0385],[112.1574,-7.058,5.9552],[112.1463,-7.0415,5.6402],[112.1439,-7.0167,19.2672],[112.1208,-6.9924,33.4191],[112.115,-6.9835,53.3657],[112.1126,-6.9826,52.6952],[112.0896,-6.9834,37.2803],[112.0879,-6.9911,54.431],[112.0858,-6.9929,55.3919],[112.0875,-6.9959,60.7528],[112.0917,-6.9963,87.6658],[112.0951,-7.0013,68.5669],[112.0928,-7.0031,56.1738],[112.0919,-7.007,56.9221],[112.0797,-7.0059,77.9457],[112.0761,-7.0097,80.9926],[112.0763,-7.0153,67.5674],[112.0813,-7.0231,52.2835],[112.0794,-7.0264,44.9804],[112.0773,-7.024,56.4521],[112.0716,-7.025,86.8162],[112.0717,-7.0204,94.8075],[112.0659,-7.0166,87.3336],[112.0559,-7.0172,119.0665],[112.0626,-7.0276,104.9725],[112.0638,-7.0324,63.7609],[112.0542,-7.0364,37.1315],[112.0556,-7.0558,9.3463],[112.0582,-7.0555,10.0508],[112.0593,-7.0528,9.1932],[112.0652,-7.0529,8.9836],[112.0658,-7.0573,8.8562],[112.0703,-7.0582,8.8934],[112.0714,-7.0625,12.5916],[112.0756,-7.0607,12.3233],[112.0769,-7.0674,8.5],[112.0814,-7.0653,8.5],[112.0839,-7.0668,8.8463],[112.0841,-7.0816,9.6958],[112.0856,-7.0856,8.5],[112.102,-7.0885,10.8438]]]]}}