{"type":"Feature","properties":{"GID_3":"IDN.17.4.20_1","GID_0":"IDN","country":"Indonesia","GID_1":"IDN.17_1","province":"Lampung","NL_NAME_1":"NA","GID_2":"IDN.17.4_1","county":"LampungTengah","NL_NAME_2":"NA","city":"SeputihBanyak","VARNAME_3":"NA","NL_NAME_3":"NA","TYPE_3":"Kecamatan","ENGTYPE_3":"Sub-district","CC_3":"1805110","HASC_3":"NA","name":"Seputih_Banyak.city"},
"geometry":{"type": "MultiPolygon","coordinates": [[[[105.4702,-4.8945,21.8031],[105.4768,-4.8945,18.7359],[105.4854,-4.9,17.4107],[105.4926,-4.8988,8.2155],[105.4941,-4.894,20.1482],[105.5033,-4.8909,16.2423],[105.5075,-4.8864,14.3292],[105.5076,-4.8815,30.7511],[105.515,-4.8824,23.9363],[105.5178,-4.8812,8.3036],[105.5221,-4.8864,5.5869],[105.5277,-4.8873,4.9899],[105.5254,-4.8853,5.0725],[105.5269,-4.8832,8.5626],[105.5359,-4.885,10.318],[105.5352,-4.8837,20.9316],[105.5423,-4.8829,16.8057],[105.5438,-4.8775,28.0668],[105.5478,-4.8742,22.2805],[105.542,-4.8656,26.7143],[105.5446,-4.8604,23.3929],[105.542,-4.8488,24.9858],[105.5455,-4.8324,25.8935],[105.5415,-4.8283,32.5115],[105.5331,-4.8249,34.845],[105.5297,-4.8117,28.1591],[105.5248,-4.8097,21.9051],[105.5257,-4.8003,15.9594],[105.5338,-4.798,18.0529],[105.5344,-4.7965,17.4593],[105.5268,-4.7903,18.7136],[105.5267,-4.7832,23.5751],[105.5226,-4.7798,24.6906],[105.5205,-4.7747,31.7089],[105.5134,-4.7777,31.5297],[105.5106,-4.7805,31.826],[105.5022,-4.7822,14.3095],[105.5012,-4.785,14.595],[105.4939,-4.792,15.6784],[105.4946,-4.7958,14.9782],[105.4962,-4.7959,23.3619],[105.4952,-4.7993,23.4294],[105.4976,-4.8005,23.9822],[105.4939,-4.8072,21.2317],[105.4987,-4.8142,29.2293],[105.4999,-4.8138,31.0747],[105.5001,-4.8173,29.6377],[105.4793,-4.8425,28.888],[105.4651,-4.8455,21.8307],[105.4533,-4.8411,28.2537],[105.4563,-4.8387,28.9889],[105.4597,-4.8183,22.7728],[105.4614,-4.8154,22.6741],[105.4578,-4.8145,19.6357],[105.4531,-4.8169,17.2674],[105.4464,-4.8136,20.9986],[105.4448,-4.8114,19.9058],[105.4464,-4.8033,20.9137],[105.4458,-4.7966,10.9691],[105.4433,-4.7941,9.86],[105.4377,-4.8003,14.6337],[105.4347,-4.8014,16.5501],[105.4307,-4.8083,21.7709],[105.4374,-4.8141,23.9886],[105.4383,-4.8202,21.9476],[105.437,-4.8248,24.6671],[105.402,-4.8355,27.494],[105.4027,-4.842,21.9262],[105.3996,-4.8463,25.8023],[105.3975,-4.8535,26.42],[105.3995,-4.8576,28.5128],[105.4015,-4.8579,29.095],[105.4063,-4.8638,26.6143],[105.4098,-4.8638,27.482],[105.4085,-4.8703,32.9334],[105.4094,-4.8766,28.7497],[105.4176,-4.8835,26.6033],[105.4194,-4.8831,26.0486],[105.4239,-4.8907,20.1645],[105.4287,-4.8939,22.8964],[105.438,-4.8897,25.9016],[105.4416,-4.8981,21.5002],[105.4498,-4.905,19.6257],[105.454,-4.9049,23.1328],[105.4648,-4.8957,12.1228],[105.4702,-4.8945,21.8031]]]]}}