{"type":"Feature","properties":{"GID_3":"IDN.30.8.2_1","GID_0":"IDN","country":"Indonesia","GID_1":"IDN.30_1","province":"SumateraBarat","NL_NAME_1":"NA","GID_2":"IDN.30.8_1","county":"PadangPanjang","NL_NAME_2":"NA","city":"PadangPanjangTimur","VARNAME_3":"NA","NL_NAME_3":"NA","TYPE_3":"Kecamatan","ENGTYPE_3":"Sub-district","CC_3":"1374020","HASC_3":"NA","name":"Padang_Panjang_Timur.city"},
"geometry":{"type": "MultiPolygon","coordinates": [[[[100.4335,-0.4754,709.4305],[100.4327,-0.473,718.8134],[100.4357,-0.4722,720.3895],[100.4363,-0.4696,728.0721],[100.4325,-0.4628,787.423],[100.4295,-0.4601,803.6987],[100.4258,-0.4596,826.2193],[100.4249,-0.4556,846.2304],[100.4119,-0.4546,821.5778],[100.4089,-0.4593,806.6763],[100.4077,-0.4556,823.3986],[100.4044,-0.455,819.2062],[100.4019,-0.4579,809.8204],[100.4007,-0.4618,792.7921],[100.4052,-0.4625,795.4037],[100.4051,-0.469,770.6837],[100.4015,-0.4689,771.2874],[100.3999,-0.4718,838.8061],[100.4078,-0.4844,963.9421],[100.4124,-0.4836,778.0671],[100.4207,-0.4852,702.1482],[100.4221,-0.4833,694.7512],[100.4236,-0.4858,688.73],[100.4306,-0.4865,670.5933],[100.4328,-0.4891,665.2455],[100.4345,-0.4782,690.6932],[100.4335,-0.4754,709.4305]]]]}}