{"type":"Feature","properties":{"GID_3":"IDN.32.29.23_1","GID_0":"IDN","country":"Indonesia","GID_1":"IDN.32_1","province":"SumateraUtara","NL_NAME_1":"NA","GID_2":"IDN.32.29_1","county":"Simalungun","NL_NAME_2":"NA","city":"RayaKahean","VARNAME_3":"NA","NL_NAME_3":"NA","TYPE_3":"Kecamatan","ENGTYPE_3":"Sub-district","CC_3":"1209130","HASC_3":"NA","name":"Raya_Kahean.city"},
"geometry":{"type": "MultiPolygon","coordinates": [[[[98.9359,3.0274,684.4462],[98.9529,3.0382,503.5009],[98.9563,3.0475,441.3982],[98.9754,3.0673,273.4708],[98.9807,3.0785,260.975],[98.9815,3.082,236.8391],[98.98,3.0919,227.8633],[98.9786,3.0927,218.4004],[98.9769,3.1075,196.9776],[98.9772,3.1188,173.0153],[98.9856,3.1219,179.2826],[98.9868,3.124,156.3168],[98.9765,3.1293,168.3893],[98.9721,3.1293,172.6322],[98.9713,3.1369,197.3894],[98.9649,3.1438,198.2917],[98.9861,3.1725,149.7334],[98.987799999999993,3.1825,123.5994],[98.9965,3.1818,146.738],[99.0003,3.1855,130.7513],[99.003,3.2023,101.1766],[99.0052,3.2055,111.5061],[98.999,3.2062,109.2151],[98.9991,3.2089,113.0718],[98.9952,3.2087,117.599],[98.9945,3.2063,121.4496],[98.9399,3.2075,144.4028],[98.9264,3.2042,157.6384],[98.9188,3.1997,166.7883],[98.8999,3.1827,231.2926],[98.8865,3.1595,271.0096],[98.8545,3.1158,378.6987],[98.8361,3.103,533.8529],[98.8201,3.0877,631.7889],[98.8224,3.0745,695.9488],[98.8256,3.0676,820.2794],[98.8308,3.0647,908.3665],[98.8376,3.0664,774.02],[98.8445,3.0722,605.162],[98.8612,3.081,478.7257],[98.8687,3.0821,407.0261],[98.8789,3.074,441.5962],[98.8934,3.0695,386.134],[98.8959,3.0646,439.8164],[98.8924,3.0483,511.0882],[98.8944,3.0416,645.0969],[98.9064,3.0341,677.9714],[98.9124,3.023,989.9547],[98.9276,3.0159,758.7595],[98.9359,3.0274,684.4462]]]]}}