{"type":"Feature","properties":{"GID_3":"IDN.34.6.18_1","GID_0":"IDN","country":"Indonesia","GID_1":"IDN.34_1","province":"KalimantanTimur","NL_NAME_1":"NA","GID_2":"IDN.34.6_1","county":"KutaiKartanegara","NL_NAME_2":"NA","city":"Tenggarong","VARNAME_3":"NA","NL_NAME_3":"NA","TYPE_3":"Kecamatan","ENGTYPE_3":"Sub-district","CC_3":"6403090","HASC_3":"NA","name":"Tenggarong.city"},
"geometry":{"type": "MultiPolygon","coordinates": [[[[116.9352,-0.5191,37.6817],[116.9657,-0.5,82.6688],[116.9692,-0.4922,57.1506],[116.975,-0.4871,54.2815],[116.9751,-0.4834,30.9187],[116.9823,-0.4813,2.7619],[116.9849,-0.4793,2.597],[116.9862,-0.4756,8.9413],[116.9916,-0.472,8.5291],[116.9944,-0.4616,32.3687],[117.0107,-0.4604,0.0],[117.0037,-0.4503,0.0],[117.0029,-0.4281,0.0],[116.995,-0.4107,0.0],[116.9899,-0.3798,4.3158],[116.9904,-0.3701,0.0],[116.9996,-0.3607,0.0],[117.0115,-0.3531,0.0],[117.0221,-0.3501,0.0],[117.0253,-0.3509,0.0],[117.0294,-0.355,0.8393],[117.0302,-0.3669,0.0],[117.0451,-0.3764,0.0],[117.0532,-0.3782,0.0],[117.057,-0.3744,0.0],[117.0586,-0.366,0.0],[117.0589,-0.3374,0.0],[117.064,-0.3333,0.0],[117.0705,-0.3314,0.0],[117.0741,-0.3374,0.0],[117.0781,-0.336,2.5112],[117.0797,-0.3314,0.0],[117.0781,-0.3244,0.0],[117.073,-0.3187,0.0],[117.0565,-0.3095,0.678],[117.0481,-0.3087,0.0],[117.0456,-0.3095,1.6052],[117.0362,-0.3214,0.0],[117.031,-0.3222,0.0],[117.0245,-0.3184,0.0],[117.0218,-0.3143,0.0],[117.0125,-0.3129,4.4041],[117.0042,-0.3164,4.5747],[117.0,-0.3213,4.6503],[117.0016,-0.3245,4.5509],[116.9879,-0.3243,46.3248],[116.982,-0.327,40.6487],[116.9558,-0.3279,2.9507],[116.9481,-0.332,10.8232],[116.9028,-0.3773,36.7586],[116.8961,-0.3872,52.0547],[116.8933,-0.3949,25.7426],[116.8956,-0.4076,-16.9685],[116.8942,-0.4157,17.3353],[116.8884,-0.4234,11.3556],[116.878,-0.432,14.3073],[116.8748,-0.4397,42.9113],[116.8766,-0.4501,56.506],[116.8791,-0.4541,26.2162],[116.8594,-0.4611,58.9476],[116.8555,-0.4645,22.0],[116.8578,-0.4651,22.0],[116.8573,-0.4725,22.0],[116.8587,-0.472,43.1171],[116.8606,-0.4753,38.7966],[116.8698,-0.4816,45.0542],[116.8664,-0.4914,28.0986],[116.8699,-0.4984,19.6959],[116.8724,-0.5,23.3029],[116.8768,-0.5071,21.4996],[116.9042,-0.5215,41.1088],[116.9352,-0.5191,37.6817]]]]}}