{"type":"Feature","properties":{"GID_3":"IDN.27.3.6_1","GID_0":"IDN","country":"Indonesia","GID_1":"IDN.27_1","province":"SulawesiTengah","NL_NAME_1":"NA","GID_2":"IDN.27.3_1","county":"Buol","NL_NAME_2":"NA","city":"Karamat","VARNAME_3":"NA","NL_NAME_3":"NA","TYPE_3":"Kecamatan","ENGTYPE_3":"Sub-district","CC_3":"7207012","HASC_3":"NA","name":"Karamat.city"},
"geometry":{"type": "MultiPolygon","coordinates": [[[[121.3389,1.1887,331.7435],[121.3495,1.2072,139.662],[121.361,1.2159,369.8146],[121.3759,1.2352,261.4919],[121.3816,1.2348,308.1157],[121.3891,1.2383,164.4554],[121.3937,1.2374,184.4282],[121.4038,1.2399,95.3996],[121.4239,1.2527,140.2135],[121.4485,1.2646,240.1448],[121.4627,1.2511,0.0],[121.4633,1.2561,0.0],[121.4652,1.2588,0.0],[121.4721,1.2626,0.0],[121.47,1.2784,0.0],[121.4644,1.2836,0.0],[121.4715,1.2971,0.0],[121.4709,1.3016,0.0],[121.4626,1.3087,0.0],[121.4441,1.3128,20.0556],[121.4438,1.3103,77.3458],[121.4353,1.308,48.8475],[121.4341,1.3035,63.6318],[121.4294,1.3004,51.2756],[121.4298,1.2956,0.0],[121.4314,1.2943,19.411],[121.4287,1.2917,35.3403],[121.4298,1.2891,2.3794],[121.4259,1.2884,30.527],[121.4236,1.2833,9.0494],[121.4127,1.2774,26.5299],[121.4105,1.2779,12.7571],[121.4111,1.2682,6.4007],[121.4045,1.2621,3.4168],[121.3971,1.2603,12.641],[121.3851,1.2616,19.5625],[121.3796,1.2573,21.8699],[121.3698,1.2556,9.2467],[121.3575,1.2485,10.2276],[121.3487,1.2505,0.0],[121.3466,1.2523,0.0],[121.3438,1.2603,0.0],[121.3396,1.2621,0.0],[121.3368,1.2621,0.0],[121.3352,1.2553,6.3221],[121.3301,1.2531,6.6682],[121.3258,1.2554,2.802],[121.3247,1.2541,4.0171],[121.3183,1.254,1.0688],[121.3159,1.2563,0.0],[121.3116,1.2563,2.8426],[121.3171,1.2066,523.0064],[121.3152,1.1871,415.7593],[121.3099,1.1721,515.8582],[121.3202,1.1689,406.2439],[121.3341,1.1725,199.1371],[121.3389,1.1887,331.7435]]],
[[[121.3641,1.2695,14.5266],[121.3648,1.2723,0.0],[121.3608,1.27,28.0744],[121.3631,1.2677,0.0],[121.3641,1.2695,14.5266]]]]}}