{"type":"Feature","properties":{"GID_3":"IDN.23.5.2_1","GID_0":"IDN","country":"Indonesia","GID_1":"IDN.23_1","province":"Papua","NL_NAME_1":"NA","GID_2":"IDN.23.5_1","county":"Dogiyai","NL_NAME_2":"NA","city":"KamuSelatan","VARNAME_3":"NA","NL_NAME_3":"NA","TYPE_3":"Distrik","ENGTYPE_3":"District","CC_3":"9434070","HASC_3":"NA","name":"Kamu_Selatan.city"},
"geometry":{"type": "MultiPolygon","coordinates": [[[[136.0891,-4.1594,1314.9941],[136.0876,-4.1383,1428.6548],[136.0906,-4.0879,1917.7114],[136.0941,-4.0654,1727.3512],[136.1008,-4.0589,1835.5635],[136.1029,-4.0513,2082.1172],[136.1123,-4.0422,1783.6829],[136.1065,-4.0391,1639.0155],[136.0974,-4.0276,1547.0837],[136.07,-4.0385,1673.1045],[136.0661,-4.0445,1557.9407],[136.0597,-4.0475,1538.3619],[136.0597,-4.0594,1537.0984],[136.0496,-4.068,1652.0627],[136.049,-4.0725,1542.5706],[136.0451,-4.0753,1636.0031],[136.041,-4.0839,1825.5276],[136.0242,-4.1002,1912.7847],[135.9979,-4.118,2144.1758],[135.9737,-4.129,1521.7476],[135.9708,-4.1286,1494.9521],[135.9667,-4.148,1367.968],[135.9602,-4.167,1806.729],[135.9572,-4.2279,798.4761],[135.9632,-4.2312,689.0923],[135.9718,-4.2429,216.5065],[135.9845,-4.256,178.773],[135.9867,-4.256,182.6273],[135.9899,-4.2524,202.3009],[136.0065,-4.257,216.7343],[136.011,-4.262,172.9168],[136.0155,-4.2591,254.1425],[136.0321,-4.263,171.2066],[136.0352,-4.2621,168.5],[136.0363,-4.259,227.2032],[136.0447,-4.2605,179.4824],[136.0496,-4.2588,223.9559],[136.0533,-4.2604,190.5549],[136.0527,-4.2651,129.6225],[136.0711,-4.2761,62.2401],[136.0692,-4.2717,76.2917],[136.0732,-4.2635,137.0772],[136.0817,-4.2628,151.3841],[136.0946,-4.2543,287.4637],[136.0901,-4.2434,550.9044],[136.0857,-4.2248,435.0352],[136.0905,-4.176,1006.9103],[136.0891,-4.1594,1314.9941]]]]}}