{"type":"Feature","properties":{"GID_3":"IDN.5.2.9_1","GID_0":"IDN","country":"Indonesia","GID_1":"IDN.5_1","province":"Bengkulu","NL_NAME_1":"NA","GID_2":"IDN.5.2_1","county":"BengkuluTengah","NL_NAME_2":"NA","city":"PondokKubang","VARNAME_3":"NA","NL_NAME_3":"NA","TYPE_3":"Kecamatan","ENGTYPE_3":"Sub-district","CC_3":"1709051","HASC_3":"NA","name":"Pondok_Kubang.city"},
"geometry":{"type": "MultiPolygon","coordinates": [[[[102.3756,-3.7515,35.4207],[102.373,-3.7427,49.1867],[102.3743,-3.7397,43.1494],[102.369,-3.7358,59.9537],[102.3778,-3.7344,54.2983],[102.3921,-3.7218,57.0424],[102.3985,-3.7091,64.0572],[102.3949,-3.6929,61.1283],[102.3926,-3.6854,69.1675],[102.3876,-3.6775,77.2449],[102.3774,-3.672,28.0227],[102.3585,-3.6551,45.2181],[102.3504,-3.6447,27.2542],[102.3437,-3.6274,39.5672],[102.3395,-3.627,43.0793],[102.3327,-3.6388,40.8133],[102.331,-3.6451,42.634],[102.3311,-3.6547,56.1455],[102.3352,-3.6617,47.5096],[102.337,-3.6703,29.53],[102.3339,-3.6723,20.3013],[102.3339,-3.6749,31.455],[102.3314,-3.6727,26.7579],[102.331,-3.6751,21.3682],[102.3266,-3.6723,11.4265],[102.3192,-3.6748,29.8222],[102.3141,-3.6715,8.6495],[102.3133,-3.6732,20.886],[102.3152,-3.6766,40.2349],[102.3139,-3.6798,42.1386],[102.3067,-3.6872,39.0753],[102.3095,-3.6906,36.7955],[102.3115,-3.7037,36.6825],[102.314,-3.707,32.3079],[102.317,-3.7183,27.5589],[102.3182,-3.7311,29.4706],[102.3317,-3.7319,26.1028],[102.3332,-3.7541,27.5736],[102.338,-3.7565,27.4156],[102.3481,-3.7552,41.6746],[102.3502,-3.7498,29.0351],[102.3832,-3.7561,40.5888],[102.3756,-3.7515,35.4207]]]]}}