{"type":"Feature","properties":{"GID_2":"IDN.22.1_1","GID_0":"IDN","country":"Indonesia","GID_1":"IDN.22_1","province":"PapuaBarat","NL_NAME_1":"NA","county":"Fakfak","VARNAME_2":"NA","NL_NAME_2":"NA","TYPE_2":"Kabupaten","ENGTYPE_2":"Regency","CC_2":"9101","HASC_2":"ID.IB.FA","name":"Fakfak.county"},
"geometry":{"type": "MultiPolygon","coordinates": [[[[132.7679,-3.5293,0.0],[132.7696,-3.5216,0.0],[132.7694,-3.513,0.0],[132.7652,-3.51,0.0],[132.7655,-3.5033,0.0],[132.7643,-3.5011,0.0],[132.7623,-3.501,0.0],[132.7544,-3.5057,0.0],[132.7527,-3.5195,0.0],[132.7543,-3.5247,0.0],[132.7523,-3.5286,0.0],[132.7528,-3.5314,0.0],[132.7581,-3.5385,0.0],[132.7643,-3.5412,0.0],[132.7671,-3.5369,0.0],[132.7663,-3.5326,0.0],[132.7679,-3.5293,0.0]]],
[[[133.3182,-3.3399,60.7031],[133.3548,-3.2988,38.509],[133.3643,-3.2913,50.6849],[133.3736,-3.2804,39.208],[133.3956,-3.2645,19.1166],[133.4159,-3.2412,36.676],[133.4321,-3.2198,54.6863],[133.4498,-3.2022,51.6628],[133.4614,-3.1961,56.1407],[133.5145,-3.1413,94.8977],[133.5495,-3.1133,163.6814],[133.5637,-3.0987,143.0564],[133.5761,-3.0904,163.1073],[133.609,-3.0632,119.4524],[133.6205,-3.0507,75.4422],[133.6783,-3.0043,35.9679],[133.6444,-2.9649,75.3701],[133.5965,-2.9365,54.9123],[133.4997,-2.8568,46.3589],[133.4383,-2.8269,55.5359],[133.383,-2.792,39.9468],[133.3692,-2.7782,62.7118],[133.1958,-2.6442,50.0585],[133.0506,-2.5213,15.4564],[133.0407,-2.515,25.7461],[133.0149,-2.5452,17.3712],[133.0069,-2.5591,9.6461],[132.9761,-2.5987,6.2982],[132.9564,-2.6207,9.5644],[132.9417,-2.6335,9.6444],[132.9244,-2.6585,15.3159],[132.8895,-2.694,20.4682],[132.8281,-2.7518,24.5749],[132.8101,-2.7642,8.4724],[132.8101,-2.7682,16.4963],[132.8063,-2.7723,3.5793],[132.7935,-2.7753,20.5265],[132.7915,-2.7794,8.9363],[132.7946,-2.7837,12.2214],[132.7922,-2.7861,23.4099],[132.7847,-2.785,16.8568],[132.7787,-2.7867,21.6327],[132.7748,-2.7832,15.8665],[132.7723,-2.7836,18.3592],[132.7482,-2.8049,14.9642],[132.7441,-2.8062,18.3455],[132.7307,-2.8069,19.3391],[132.7269,-2.8027,0.0],[132.711,-2.7969,32.0435],[132.7046,-2.7903,3.5515],[132.7053,-2.7843,0.0],[132.7003,-2.7859,13.7945],[132.6967,-2.7918,33.3662],[132.6935,-2.789,14.5372],[132.6873,-2.7776,0.0],[132.6826,-2.7789,118.8162],[132.6789,-2.7735,7.4989],[132.6745,-2.7731,102.7022],[132.6741,-2.7707,37.1221],[132.672,-2.7694,0.0],[132.6702,-2.7712,65.0188],[132.6679,-2.7705,66.5407],[132.6671,-2.7673,0.0],[132.6697,-2.7631,0.0],[132.6627,-2.7586,65.9073],[132.6634,-2.754,0.0],[132.6568,-2.749,60.3855],[132.6574,-2.7468,5.4883],[132.6544,-2.7464,48.3458],[132.6541,-2.743,12.5209],[132.6508,-2.7407,16.2889],[132.6481,-2.7408,12.9298],[132.6442,-2.7354,0.0],[132.6407,-2.7362,24.8321],[132.6395,-2.7345,48.5629],[132.6436,-2.7321,0.0],[132.6418,-2.7308,0.0],[132.6418,-2.7284,0.0],[132.6336,-2.726,66.9485],[132.6266,-2.7258,78.0309],[132.6232,-2.7229,0.0],[132.6235,-2.7199,0.0],[132.618,-2.7122,0.0],[132.6154,-2.7124,15.7828],[132.6137,-2.7147,39.1993],[132.6092,-2.7137,27.1357],[132.6096,-2.7113,12.1199],[132.6052,-2.709,45.5394],[132.6009,-2.7098,62.0793],[132.5991,-2.7087,22.6065],[132.5945,-2.6997,0.0],[132.5921,-2.6993,41.2871],[132.5926,-2.697,0.0],[132.5889,-2.6954,44.8624],[132.5842,-2.6973,45.8183],[132.5831,-2.6956,48.9346],[132.5724,-2.6924,46.0614],[132.5713,-2.6904,0.0],[132.5643,-2.6897,35.1311],[132.5555,-2.6911,29.7639],[132.552,-2.6939,57.9401],[132.5461,-2.694,84.2105],[132.5359,-2.6859,14.4921],[132.5355,-2.684,0.0],[132.5241,-2.6813,77.0917],[132.5166,-2.6821,95.4249],[132.517,-2.685,112.9699],[132.5135,-2.686,30.0327],[132.5093,-2.684,69.9802],[132.5055,-2.6841,60.0166],[132.5011,-2.6806,61.2641],[132.493,-2.685,99.3235],[132.4884,-2.6834,39.4257],[132.4817,-2.686,13.1783],[132.482,-2.6953,81.3391],[132.4791,-2.6951,59.2649],[132.4775,-2.6904,26.0874],[132.4713,-2.6935,6.2361],[132.4805,-2.7017,0.0],[132.492,-2.7069,4.6582],[132.4965,-2.7111,5.7788],[132.494,-2.713,83.1307],[132.4875,-2.7123,16.9143],[132.4895,-2.7152,46.6972],[132.4875,-2.7167,27.9357],[132.485,-2.7149,25.0438],[132.4858,-2.7121,11.4309],[132.4796,-2.7117,6.7851],[132.4795,-2.7144,25.1539],[132.4774,-2.715,35.5341],[132.4757,-2.7128,0.0],[132.4692,-2.7116,38.4036],[132.4667,-2.7129,35.5188],[132.4633,-2.7202,46.7097],[132.4582,-2.7227,97.3949],[132.4591,-2.7246,88.3011],[132.456,-2.7256,73.1569],[132.4584,-2.7283,1.0],[132.4556,-2.7333,3.3121],[132.4411,-2.7398,60.9588],[132.4356,-2.74,69.6742],[132.4334,-2.7393,58.5572],[132.4326,-2.737,56.8827],[132.4474,-2.7274,1.0],[132.4499,-2.7192,0.5],[132.4536,-2.7172,0.5],[132.4541,-2.7149,0.5],[132.4584,-2.7157,0.25],[132.4574,-2.7125,4.2615],[132.4533,-2.7089,25.9793],[132.4484,-2.7072,55.2159],[132.4445,-2.7087,89.0982],[132.4454,-2.7038,0.0],[132.4386,-2.7048,90.1708],[132.4341,-2.7026,24.599],[132.4298,-2.7044,80.506],[132.4206,-2.7003,37.9104],[132.4203,-2.6978,0.0],[132.4261,-2.6959,0.0],[132.4292,-2.6907,0.0],[132.436,-2.6917,0.0],[132.4406,-2.6902,0.0],[132.4402,-2.6796,0.0],[132.4355,-2.6806,3.0501],[132.4263,-2.6779,0.0],[132.4218,-2.6802,23.9033],[132.4193,-2.6851,27.0201],[132.4151,-2.6835,20.3106],[132.4129,-2.6846,40.1877],[132.4111,-2.6826,2.4174],[132.4074,-2.6867,31.8045],[132.3951,-2.6896,53.0703],[132.3891,-2.6851,30.36],[132.3785,-2.6836,45.604],[132.3648,-2.677,27.2205],[132.363,-2.6729,13.2021],[132.3566,-2.6682,0.0],[132.3518,-2.669,56.3968],[132.3512,-2.671,58.1558],[132.349,-2.6701,46.9807],[132.3498,-2.6681,60.5589],[132.3434,-2.6679,72.0603],[132.3431,-2.6655,24.0179],[132.3306,-2.6663,98.004],[132.3298,-2.6628,10.0468],[132.323,-2.6613,36.6939],[132.3096,-2.6631,97.1811],[132.3091,-2.6608,0.0],[132.3046,-2.6635,217.6156],[132.2795,-2.6606,37.3363],[132.2756,-2.662,184.4493],[132.2695,-2.66,71.9538],[132.2556,-2.663,243.5298],[132.2484,-2.6609,57.7613],[132.2428,-2.6612,56.7086],[132.2404,-2.6576,0.0],[132.2302,-2.6554,40.09],[132.2291,-2.6573,97.7333],[132.2239,-2.6561,57.7692],[132.2224,-2.6582,136.2754],[132.219,-2.6561,15.5348],[132.2131,-2.6561,75.2794],[132.2017,-2.6605,102.0312],[132.2018,-2.658,52.5739],[132.198,-2.6559,16.7424],[132.1851,-2.6603,89.1625],[132.183,-2.6645,57.4704],[132.187,-2.6678,136.0844],[132.1856,-2.6697,191.0551],[132.1788,-2.6692,138.7167],[132.1793,-2.667,40.7924],[132.1694,-2.6617,113.0093],[132.1646,-2.6645,114.0513],[132.1545,-2.6652,75.1757],[132.1504,-2.6676,104.419],[132.143,-2.6664,68.7541],[132.1383,-2.6718,93.7216],[132.1126,-2.6918,13.6109],[132.1134,-2.6971,0.0],[132.1161,-2.6973,0.0],[132.1195,-2.7003,0.0],[132.1219,-2.6997,0.0],[132.1294,-2.6916,0.0],[132.1352,-2.6883,0.0],[132.1484,-2.6906,0.0],[132.1618,-2.6964,0.0],[132.1953,-2.7013,0.0],[132.2047,-2.7009,5.2811],[132.2079,-2.7027,21.2684],[132.1996,-2.7072,99.4159],[132.1721,-2.7078,44.0405],[132.1724,-2.71,73.4906],[132.1695,-2.7138,71.6565],[132.1658,-2.7111,0.0],[132.1563,-2.7153,76.7099],[132.1557,-2.7172,93.709],[132.1523,-2.7162,23.8996],[132.1501,-2.7175,44.4859],[132.1498,-2.7217,62.4696],[132.1462,-2.7238,72.6253],[132.1416,-2.7232,61.7492],[132.141,-2.7178,6.4516],[132.1334,-2.719,10.7439],[132.1342,-2.7161,0.0],[132.1385,-2.7128,0.0],[132.1374,-2.7104,0.0],[132.13,-2.7122,50.0907],[132.1253,-2.7159,25.3702],[132.1266,-2.7197,6.3564],[132.1257,-2.726,31.9785],[132.1228,-2.7272,46.5925],[132.1181,-2.7228,7.8729],[132.1184,-2.7201,0.0],[132.1123,-2.7203,48.1435],[132.1062,-2.7113,0.0],[132.102,-2.709,8.8437],[132.0984,-2.709,35.7137],[132.0956,-2.7127,5.2468],[132.0971,-2.7146,0.0],[132.0996,-2.7146,15.899],[132.0993,-2.719,78.3499],[132.0969,-2.7203,91.8145],[132.0905,-2.7129,39.6406],[132.0895,-2.7218,0.0],[132.0978,-2.7298,0.0],[132.1037,-2.73,0.0],[132.1087,-2.7322,2.6417],[132.1094,-2.7354,20.0718],[132.1075,-2.7434,21.3017],[132.1008,-2.7398,31.3568],[132.0982,-2.7439,14.6878],[132.0982,-2.7487,71.777],[132.0845,-2.7429,16.4602],[132.0836,-2.7354,0.0],[132.0876,-2.7287,0.0],[132.0859,-2.7271,0.0],[132.0735,-2.7277,71.2987],[132.0679,-2.7347,19.7656],[132.0721,-2.7431,21.7489],[132.0698,-2.7502,83.9378],[132.0672,-2.7515,83.2159],[132.0597,-2.7514,95.6774],[132.0579,-2.7497,16.5058],[132.0561,-2.744,6.1531],[132.0586,-2.7341,0.0],[132.0514,-2.7317,31.1057],[132.0457,-2.7371,56.3894],[132.0416,-2.7351,4.285],[132.0388,-2.7417,93.4801],[132.0314,-2.7448,83.7772],[132.0277,-2.7399,32.5085],[132.0251,-2.7392,39.568],[132.0161,-2.7449,50.0179],[132.0131,-2.7496,14.5946],[132.0118,-2.756,70.9796],[132.0086,-2.7536,43.4728],[131.9996,-2.7584,133.5936],[132.0003,-2.7758,79.8153],[132.0016,-2.7803,0.0],[132.0038,-2.7814,0.0],[132.0254,-2.7798,0.0],[132.028,-2.7733,0.0],[132.0339,-2.7714,0.0],[132.0373,-2.7729,0.0],[132.0399,-2.7722,0.0],[132.0473,-2.7791,0.0],[132.0511,-2.7788,59.3918],[132.052,-2.7838,0.0],[132.0538,-2.7852,0.0],[132.0564,-2.7841,0.0],[132.0576,-2.7865,0.0],[132.0683,-2.789,43.128],[132.0686,-2.7913,128.6223],[132.0616,-2.7907,79.6994],[132.056,-2.7922,17.6366],[132.0582,-2.7981,76.6015],[132.0511,-2.7959,32.505],[132.0509,-2.8014,16.084],[132.0525,-2.804,32.9873],[132.0515,-2.8058,63.912],[132.0458,-2.802,30.803],[132.0447,-2.8047,0.0],[132.0485,-2.8081,68.9684],[132.0479,-2.8101,98.2612],[132.0447,-2.8101,94.0853],[132.0372,-2.8138,84.4748],[132.0281,-2.8122,80.0763],[132.0249,-2.8149,102.2359],[132.0197,-2.8128,34.8632],[132.0174,-2.8153,17.7582],[132.0186,-2.8202,50.627],[132.0171,-2.8225,68.438],[132.0075,-2.8192,59.1554],[132.0058,-2.8202,26.9705],[132.0059,-2.8246,50.386],[132.0036,-2.825,38.5005],[132.0022,-2.8291,40.2519],[132.0035,-2.8329,0.0],[132.0056,-2.8324,2.4147],[132.0084,-2.8363,0.0],[132.0105,-2.8352,0.0],[132.0144,-2.8372,0.0],[132.0158,-2.8357,0.0],[132.0183,-2.8359,0.0],[132.0236,-2.8398,0.0],[132.0287,-2.8393,0.0],[132.0334,-2.8409,0.0],[132.0373,-2.8389,14.1039],[132.0392,-2.8398,106.8552],[132.0362,-2.8439,111.154],[132.0317,-2.8451,57.4449],[132.0228,-2.8541,16.0834],[132.0253,-2.8585,40.1291],[132.0249,-2.8631,2.7401],[132.0272,-2.8658,0.0],[132.0302,-2.8655,67.091],[132.0285,-2.8695,0.0],[132.0288,-2.8715,0.0],[132.0314,-2.8712,0.0],[132.0317,-2.8758,51.5465],[132.0274,-2.8791,68.4095],[132.0258,-2.8773,36.3475],[132.0233,-2.878,40.62],[132.021,-2.8814,88.5729],[132.0042,-2.8778,98.6523],[132.0016,-2.8785,130.3394],[131.9996,-2.8888,63.0071],[132.0022,-2.8991,56.4055],[132.0043,-2.9,2.9852],[132.0033,-2.8936,38.4268],[132.0073,-2.8921,0.0],[132.0144,-2.8939,0.0],[132.0203,-2.9068,0.0],[132.0316,-2.9014,0.0],[132.0337,-2.917,0.0],[132.0408,-2.9261,0.0],[132.047,-2.9271,0.0],[132.0488,-2.9259,0.0],[132.0487,-2.9236,0.0],[132.0448,-2.9182,37.723],[132.052,-2.9141,0.0],[132.0534,-2.9118,0.0],[132.0535,-2.8985,11.4196],[132.0564,-2.8908,23.0148],[132.0593,-2.8905,47.6367],[132.0646,-2.9104,0.0],[132.0684,-2.9142,0.0],[132.0803,-2.9195,16.2461],[132.0752,-2.9373,0.0],[132.0794,-2.952,0.0],[132.0839,-2.9555,3.4567],[132.0866,-2.9631,0.0],[132.1011,-2.9596,0.0],[132.104,-2.9552,0.0],[132.111,-2.9537,0.0],[132.1126,-2.9556,0.0],[132.1144,-2.9537,0.0],[132.1188,-2.954,0.0],[132.114,-2.9455,35.7393],[132.116,-2.9428,2.8903],[132.1131,-2.9427,0.0],[132.1129,-2.9406,7.2209],[132.1033,-2.9355,35.928],[132.1051,-2.932,0.0],[132.1157,-2.9384,5.2221],[132.1199,-2.9364,0.0],[132.1286,-2.9409,0.0],[132.1325,-2.945,0.0],[132.1374,-2.9456,0.0],[132.1399,-2.9436,0.0],[132.1458,-2.946,0.0],[132.1539,-2.9443,0.0],[132.1543,-2.9419,0.0],[132.147,-2.9359,65.5848],[132.1507,-2.9322,0.0],[132.151,-2.9347,5.8451],[132.1549,-2.9354,0.0],[132.1555,-2.9307,0.0],[132.1629,-2.9357,0.0],[132.1672,-2.9337,0.0],[132.1658,-2.9316,0.0],[132.1787,-2.9341,0.0],[132.1866,-2.9318,0.0],[132.185,-2.9267,7.7737],[132.1823,-2.9258,24.5583],[132.1844,-2.9223,0.0],[132.1894,-2.9219,19.441],[132.1901,-2.9261,0.0],[132.1945,-2.9262,7.8579],[132.1937,-2.9284,0.0],[132.2024,-2.9335,0.0],[132.2058,-2.9285,0.0],[132.2082,-2.9279,0.0],[132.2061,-2.9212,31.1923],[132.2073,-2.9114,0.0],[132.2108,-2.9148,0.0],[132.2114,-2.918,0.0],[132.2171,-2.9209,0.0],[132.2202,-2.9265,0.0],[132.232,-2.9263,0.0],[132.2367,-2.9233,0.0],[132.2373,-2.9254,0.0],[132.2439,-2.9268,0.0],[132.264,-2.928,0.0],[132.2709,-2.934,0.0],[132.2778,-2.9342,0.0],[132.279,-2.9313,0.0],[132.2858,-2.9313,0.0],[132.2868,-2.9295,0.0],[132.2896,-2.9328,0.0],[132.296,-2.9356,0.0],[132.3027,-2.9355,0.0],[132.301,-2.9311,17.8325],[132.3057,-2.9351,0.0],[132.3092,-2.9358,0.0],[132.3112,-2.9347,0.0],[132.312,-2.9259,0.0],[132.3144,-2.9232,136.8365],[132.3151,-2.9275,123.0212],[132.313,-2.934,9.2416],[132.3149,-2.9382,0.0],[132.3204,-2.9404,0.0],[132.3234,-2.9449,0.0],[132.3309,-2.9476,0.0],[132.3333,-2.9471,0.0],[132.3357,-2.9431,0.0],[132.3428,-2.9425,10.0366],[132.3402,-2.9498,0.0],[132.3439,-2.9524,0.0],[132.346,-2.9525,5.5851],[132.3469,-2.9472,0.0],[132.3512,-2.9431,0.0],[132.3471,-2.9395,10.6958],[132.3489,-2.9381,0.0],[132.3521,-2.9393,4.9619],[132.355,-2.9464,6.6234],[132.355,-2.951,17.057],[132.3613,-2.9523,146.6638],[132.3603,-2.9544,210.0285],[132.3468,-2.9567,0.0],[132.347,-2.9612,0.0],[132.3519,-2.9689,0.0],[132.3623,-2.9688,0.0],[132.3664,-2.9719,22.7614],[132.3689,-2.9779,0.0],[132.371,-2.9785,0.0],[132.3723,-2.9769,0.0],[132.3804,-2.9805,0.0],[132.384,-2.9843,0.0],[132.3925,-2.985,0.0],[132.393,-2.9891,0.0],[132.4006,-2.9903,0.0],[132.4045,-2.9929,0.0],[132.4069,-2.9917,0.0],[132.4143,-2.9952,0.0],[132.4202,-2.9954,66.8068],[132.4225,-2.9969,79.9408],[132.419,-3.0025,0.0],[132.4212,-3.0051,0.0],[132.4274,-3.0051,0.0],[132.4339,-3.01,0.0],[132.4361,-3.0093,12.1945],[132.4408,-3.0155,0.0],[132.4522,-3.0234,0.0],[132.4565,-3.024,0.0],[132.4705,-3.0346,3.5444],[132.473,-3.0393,0.0],[132.4809,-3.0389,80.7234],[132.4825,-3.0445,0.0],[132.4892,-3.0509,0.0],[132.4962,-3.0534,0.0],[132.5016,-3.063,0.0],[132.5092,-3.065,23.4819],[132.5098,-3.0701,0.0],[132.5172,-3.0765,31.187],[132.5171,-3.0809,0.0],[132.5242,-3.0846,0.0],[132.5262,-3.084,2.7671],[132.5342,-3.0921,7.7985],[132.5347,-3.0948,0.0],[132.5426,-3.0979,38.9974],[132.5444,-3.101,0.0],[132.5618,-3.113,0.0],[132.569,-3.1241,12.9923],[132.5726,-3.1329,7.222],[132.5767,-3.1349,58.0406],[132.5771,-3.1374,48.0326],[132.5697,-3.1395,11.7831],[132.5655,-3.1362,12.9926],[132.5556,-3.137,39.6607],[132.5542,-3.1458,0.0],[132.5526,-3.1475,0.0],[132.5575,-3.1501,35.6133],[132.5571,-3.1552,0.0],[132.5589,-3.157,0.0],[132.5638,-3.1582,0.0],[132.5668,-3.1612,0.0],[132.5775,-3.1663,0.0],[132.5802,-3.1652,0.0],[132.5761,-3.1587,17.7645],[132.5776,-3.1552,6.0149],[132.5845,-3.1671,0.0],[132.5963,-3.1711,19.3726],[132.6025,-3.1689,35.4347],[132.6041,-3.1667,19.8189],[132.6061,-3.167,19.8189],[132.6068,-3.1692,73.7672],[132.6109,-3.1699,171.6767],[132.6099,-3.1719,106.5902],[132.5987,-3.1737,24.6265],[132.6004,-3.1802,0.0],[132.6078,-3.1804,0.0],[132.6142,-3.185,0.0],[132.6184,-3.1858,0.0],[132.6217,-3.1856,0.0],[132.6259,-3.1818,0.0],[132.6361,-3.1832,14.1414],[132.6356,-3.1879,0.0],[132.6383,-3.187,0.0],[132.6407,-3.1883,5.2888],[132.6483,-3.2008,11.4888],[132.6495,-3.2125,176.1469],[132.6434,-3.2167,96.315],[132.6416,-3.2238,56.3296],[132.6397,-3.225,38.0092],[132.6308,-3.2242,134.9778],[132.6268,-3.2263,257.6187],[132.617,-3.2238,220.7939],[132.5977,-3.225,26.0202],[132.5988,-3.2349,0.0],[132.6087,-3.2439,0.0],[132.621,-3.2517,139.3781],[132.6221,-3.2549,0.0],[132.6254,-3.2572,30.4356],[132.6267,-3.2618,0.0],[132.6421,-3.2711,162.3492],[132.6437,-3.2741,172.0413],[132.6389,-3.2767,0.0],[132.6489,-3.2897,21.4141],[132.6544,-3.3063,0.0485],[132.6566,-3.3087,0.0],[132.6588,-3.3078,47.4622],[132.6612,-3.3097,7.434],[132.6617,-3.3157,1.5101],[132.6665,-3.3185,0.0],[132.6664,-3.321,0.0],[132.6684,-3.3224,0.0],[132.6722,-3.3216,6.491],[132.6791,-3.3288,0.0],[132.7014,-3.3356,0.0],[132.7142,-3.3446,0.0],[132.7201,-3.3455,0.0],[132.725,-3.3421,0.0],[132.7305,-3.343,0.0],[132.7332,-3.3416,0.0],[132.7379,-3.3172,0.0],[132.7357,-3.3132,0.0],[132.7361,-3.3029,0.0],[132.7314,-3.2879,0.0],[132.7322,-3.2858,0.0],[132.7411,-3.2864,0.0],[132.7473,-3.2824,0.0],[132.7544,-3.2839,0.0],[132.7618,-3.2745,0.0],[132.7654,-3.2741,0.0],[132.7674,-3.2704,0.0],[132.773,-3.2687,0.0],[132.7761,-3.2635,40.8654],[132.778,-3.2742,0.0],[132.7798,-3.276,0.0],[132.7853,-3.2747,7.2958],[132.7894,-3.2799,2.1743],[132.7894,-3.2822,0.0],[132.7981,-3.2797,0.0],[132.8,-3.2778,0.0],[132.7987,-3.2762,0.0],[132.791,-3.2751,0.0],[132.7896,-3.2735,8.1641],[132.7901,-3.2685,0.0],[132.8016,-3.2704,0.0],[132.8132,-3.2684,56.3394],[132.8151,-3.2696,70.56],[132.8143,-3.2737,90.5372],[132.8105,-3.2722,37.7026],[132.8086,-3.2766,27.3457],[132.8086,-3.2791,12.9837],[132.8126,-3.2852,24.4201],[132.8105,-3.285,9.2454],[132.81,-3.287,24.6169],[132.8055,-3.2854,31.0235],[132.8037,-3.2865,3.9091],[132.8077,-3.2899,7.873],[132.8133,-3.2988,0.0],[132.8231,-3.3004,17.3055],[132.8266,-3.3061,0.0],[132.8334,-3.3085,22.5013],[132.8403,-3.309,18.1463],[132.8459,-3.3044,34.5737],[132.8459,-3.313,72.8265],[132.8436,-3.3139,81.9019],[132.8389,-3.3122,80.1211],[132.8347,-3.3141,24.2875],[132.8357,-3.323,89.9135],[132.8334,-3.3271,69.1059],[132.8343,-3.332,31.3257],[132.8311,-3.3379,81.6202],[132.8288,-3.3385,64.0072],[132.8278,-3.331,9.0428],[132.8257,-3.3312,0.0],[132.8209,-3.3398,40.7673],[132.82,-3.3501,90.3146],[132.8155,-3.352,95.5541],[132.8143,-3.3498,89.0543],[132.8038,-3.3653,66.633],[132.8067,-3.3784,46.9787],[132.8046,-3.3816,0.0],[132.8086,-3.387,0.0],[132.8142,-3.391,42.2455],[132.8177,-3.4077,2.959],[132.8221,-3.4143,62.4158],[132.8199,-3.4178,24.6915],[132.8232,-3.4335,13.3294],[132.8212,-3.4374,6.622],[132.8246,-3.44,37.1254],[132.8197,-3.4514,0.0],[132.8201,-3.4539,0.0],[132.8331,-3.4662,0.0],[132.8391,-3.4684,3.0227],[132.8457,-3.4783,0.0],[132.8521,-3.4793,0.0],[132.8585,-3.4831,0.0],[132.8725,-3.4814,0.0],[132.8755,-3.4784,0.0],[132.875,-3.4762,0.0],[132.8705,-3.4783,0.0],[132.8629,-3.4771,0.0],[132.8639,-3.4751,1.2962],[132.8709,-3.4743,0.0],[132.8756,-3.4708,0.0],[132.8817,-3.4695,0.0],[132.8917,-3.4709,12.3455],[132.9001,-3.469,15.1563],[132.902,-3.4701,46.8315],[132.8945,-3.4751,22.6758],[132.894,-3.4776,34.8813],[132.8905,-3.4788,32.3126],[132.8915,-3.4813,24.1654],[132.8883,-3.4915,0.0],[132.8958,-3.4954,31.5342],[132.8961,-3.5013,32.9445],[132.8934,-3.5058,14.6394],[132.8934,-3.5102,0.0],[132.895,-3.5137,0.0],[132.9,-3.5173,13.1529],[132.9012,-3.5263,9.909],[132.9067,-3.5317,0.0],[132.9052,-3.5376,0.0],[132.9095,-3.5368,0.0],[132.9175,-3.5419,21.1474],[132.92,-3.5409,26.6797],[132.9272,-3.5423,35.4912],[132.925,-3.5447,6.3431],[132.9128,-3.5468,31.0814],[132.9126,-3.5535,0.0],[132.9158,-3.5577,0.0],[132.9202,-3.5582,0.0],[132.9226,-3.5573,0.0],[132.9252,-3.5534,0.0],[132.9282,-3.553,0.0],[132.9317,-3.5553,0.0],[132.943,-3.5568,11.6915],[132.9453,-3.5585,28.9285],[132.9456,-3.5614,58.0505],[132.9327,-3.5687,29.8529],[132.9249,-3.5819,55.3685],[132.9219,-3.5838,73.4205],[132.9127,-3.5833,29.9986],[132.9099,-3.5848,34.0036],[132.9047,-3.5991,31.1314],[132.8996,-3.6065,15.2488],[132.901,-3.611,46.439],[132.8984,-3.621,11.6218],[132.9056,-3.6409,74.3147],[132.9048,-3.6442,65.659],[132.9022,-3.6449,70.9309],[132.8961,-3.6507,64.0926],[132.8901,-3.65,70.7299],[132.8893,-3.6518,95.7117],[132.881,-3.6479,52.056],[132.8781,-3.6515,63.6426],[132.8744,-3.6491,63.8572],[132.8682,-3.6513,86.3687],[132.8589,-3.6489,65.4144],[132.8539,-3.6505,105.9205],[132.8459,-3.6462,82.0649],[132.8428,-3.6476,99.202],[132.8386,-3.647,103.0631],[132.8378,-3.6451,80.2975],[132.832,-3.6436,70.5184],[132.823,-3.6458,103.8427],[132.8215,-3.644,75.0287],[132.8111,-3.6421,72.5185],[132.7987,-3.644,96.2292],[132.7981,-3.642,89.9511],[132.7909,-3.644,106.6098],[132.7689,-3.6429,103.348],[132.7671,-3.6386,73.8559],[132.7538,-3.6327,87.2373],[132.7386,-3.637,108.4328],[132.738,-3.6349,81.8178],[132.7351,-3.6383,129.6277],[132.7359,-3.6401,176.1425],[132.7339,-3.6441,183.1061],[132.731,-3.6425,117.3604],[132.7339,-3.6688,213.6975],[132.7381,-3.688,111.4764],[132.7363,-3.6926,0.0],[132.7425,-3.6994,68.144],[132.7475,-3.7099,30.3125],[132.7471,-3.7124,0.0],[132.7539,-3.7193,69.3396],[132.7585,-3.7293,174.0793],[132.7569,-3.731,17.9154],[132.7608,-3.7388,157.6042],[132.7596,-3.7433,0.0],[132.762,-3.7493,35.7274],[132.7645,-3.7505,55.1575],[132.763,-3.7538,0.0],[132.7682,-3.7593,77.9935],[132.7682,-3.7642,0.0],[132.7701,-3.7664,0.0],[132.7725,-3.7686,0.0],[132.7758,-3.7652,18.1063],[132.7795,-3.7711,163.8179],[132.7789,-3.7788,27.5867],[132.7823,-3.7828,123.513],[132.7831,-3.7907,12.357],[132.7877,-3.7964,51.9854],[132.7904,-3.8206,175.6051],[132.7882,-3.826,88.5718],[132.7835,-3.8277,0.0],[132.7839,-3.8339,0.0],[132.7863,-3.8335,0.0],[132.7885,-3.8295,0.0],[132.7914,-3.8299,0.0],[132.793,-3.8346,0.0],[132.799,-3.8379,69.9173],[132.804,-3.852,151.7521],[132.8015,-3.8518,41.8285],[132.8008,-3.8537,0.0],[132.8114,-3.8687,87.6772],[132.8121,-3.8766,52.4225],[132.8186,-3.8867,0.0],[132.8249,-3.8897,99.765],[132.8259,-3.8916,80.0472],[132.8523,-3.8674,1024.8867],[132.8818,-3.8312,1073.1392],[132.9467,-3.7699,763.6519],[132.9927,-3.72,363.8686],[133.0345,-3.6826,52.5036],[133.1234,-3.5883,43.8558],[133.1454,-3.5547,27.162],[133.2204,-3.4513,57.1012],[133.2338,-3.4392,44.1271],[133.254,-3.4114,49.9061],[133.2686,-3.3962,57.8946],[133.2941,-3.3639,40.6783],[133.3182,-3.3399,60.7031]]],
[[[132.806,-3.3054,11.8068],[132.8043,-3.3142,0.0],[132.8058,-3.3162,0.0],[132.8127,-3.3164,0.0],[132.8141,-3.3091,0.0],[132.8111,-3.3055,3.9211],[132.8112,-3.3031,0.0],[132.806,-3.3054,11.8068]]],
[[[132.7668,-3.4843,0.0],[132.7686,-3.4795,0.0],[132.7613,-3.4684,0.0],[132.7618,-3.4592,0.0],[132.7573,-3.4583,0.0],[132.755,-3.4605,0.0],[132.7516,-3.4714,145.4413],[132.7524,-3.4732,0.0],[132.7502,-3.4741,34.0149],[132.7495,-3.4772,0.0],[132.7527,-3.4817,0.0],[132.7523,-3.4862,0.0],[132.7572,-3.486,0.0],[132.7594,-3.4896,0.0],[132.7625,-3.4888,0.0],[132.7668,-3.4843,0.0]]],
[[[132.692,-3.456,133.5438],[132.6866,-3.4499,101.7054],[132.6885,-3.4486,47.3864],[132.6871,-3.4398,0.0],[132.69,-3.4361,0.0],[132.6846,-3.4262,0.0],[132.6819,-3.4264,128.3426],[132.6803,-3.4226,88.5113],[132.6708,-3.4138,149.9653],[132.6661,-3.4103,154.1196],[132.6511,-3.4041,143.4466],[132.6455,-3.4075,179.4623],[132.6407,-3.4069,180.8535],[132.6376,-3.41,182.8448],[132.6364,-3.408,160.166],[132.634,-3.4092,124.6476],[132.6296,-3.42,39.0393],[132.6316,-3.4206,97.5687],[132.6324,-3.4278,0.0],[132.6388,-3.4353,0.0],[132.6655,-3.4474,0.0],[132.6679,-3.4472,0.0],[132.674,-3.4528,0.0],[132.679,-3.4537,0.0],[132.6833,-3.4568,57.3314],[132.6828,-3.4615,124.3008],[132.6805,-3.4627,99.0597],[132.6811,-3.4652,60.9441],[132.6773,-3.4672,37.6973],[132.6786,-3.4745,101.2772],[132.6775,-3.4795,0.0],[132.6795,-3.4806,5.389],[132.6808,-3.4851,98.3213],[132.6801,-3.491,0.0],[132.6814,-3.4937,0.0],[132.6801,-3.4956,0.0],[132.6813,-3.4972,0.0],[132.6891,-3.5002,0.0],[132.6959,-3.5077,56.9118],[132.6973,-3.5152,0.0],[132.6995,-3.5167,0.0],[132.7037,-3.5177,0.0],[132.7148,-3.5161,0.0],[132.7229,-3.5123,0.0],[132.7232,-3.5076,0.0],[132.7254,-3.5077,0.0],[132.7262,-3.5057,0.0],[132.7274,-3.5008,0.0],[132.725,-3.4923,9.2839],[132.727,-3.4912,0.0],[132.7254,-3.4897,0.0],[132.7244,-3.4828,0.0],[132.7226,-3.4803,0.0],[132.7179,-3.4785,57.5194],[132.7168,-3.4767,115.243],[132.7193,-3.4754,0.0],[132.7152,-3.4684,0.0],[132.711,-3.4668,77.3033],[132.7117,-3.4647,23.9343],[132.7092,-3.4633,73.6327],[132.7101,-3.4611,0.0],[132.6943,-3.4546,150.5721],[132.692,-3.456,133.5438]]],
[[[132.4681,-3.1054,180.6123],[132.4598,-3.1059,170.1133],[132.4555,-3.1033,112.4942],[132.4406,-3.1022,15.6376],[132.4487,-3.1136,0.0],[132.4515,-3.1146,0.0],[132.4542,-3.1211,0.0],[132.4584,-3.1221,12.8241],[132.4596,-3.1267,0.0],[132.4653,-3.1272,0.0],[132.4731,-3.1332,0.0],[132.4767,-3.1308,72.5493],[132.4787,-3.1323,30.3227],[132.4774,-3.1348,0.0],[132.4787,-3.1368,0.0],[132.4848,-3.1378,0.0],[132.4917,-3.1361,0.0],[132.4905,-3.1382,0.0],[132.4937,-3.1395,0.0],[132.5021,-3.139,0.0],[132.519,-3.1413,0.0],[132.5303,-3.148,0.0],[132.5333,-3.1521,0.0],[132.5442,-3.1549,0.0],[132.5463,-3.1539,0.0],[132.5444,-3.1503,0.0],[132.5469,-3.1449,0.0],[132.5462,-3.1419,4.4521],[132.5341,-3.138,115.8415],[132.5333,-3.1358,95.0239],[132.5257,-3.132,117.0905],[132.5188,-3.1258,120.4227],[132.5074,-3.1214,281.7337],[132.5041,-3.1176,110.2698],[132.5001,-3.1197,387.2436],[132.4963,-3.1174,248.0426],[132.4983,-3.1156,69.9128],[132.4892,-3.1154,273.5953],[132.4777,-3.1124,263.6918],[132.472,-3.1067,95.0902],[132.4681,-3.1054,180.6123]]],
[[[132.496,-2.673,0.0],[132.4948,-2.6704,37.3339],[132.4915,-2.6704,62.8801],[132.4879,-2.671,61.286],[132.4876,-2.6732,0.0],[132.4937,-2.6743,0.0],[132.496,-2.673,0.0]]],
[[[132.5657,-2.644,11.6585],[132.5588,-2.6425,2.2284],[132.5455,-2.6437,55.0212],[132.5396,-2.6498,0.0],[132.5442,-2.6519,0.0],[132.545,-2.6538,1.1993],[132.548,-2.6533,1.4627],[132.5497,-2.658,0.0],[132.5522,-2.6551,0.0],[132.5511,-2.6534,0.0],[132.5521,-2.6512,0.0],[132.5544,-2.6508,0.0],[132.556,-2.652,0.0],[132.5583,-2.6513,29.0476],[132.5572,-2.6555,0.0],[132.5653,-2.6563,0.0],[132.5652,-2.6518,0.0],[132.5712,-2.652,0.0],[132.5754,-2.6504,0.0],[132.5738,-2.6486,18.2285],[132.5685,-2.6479,29.5905],[132.5657,-2.644,11.6585]]],
[[[132.2043,-2.9767,9.4935],[132.198,-2.9783,49.2289],[132.1963,-2.9766,46.6559],[132.1908,-2.9754,44.6286],[132.1865,-2.977,20.4361],[132.1808,-2.9733,44.3026],[132.1827,-2.9708,0.0],[132.1784,-2.9693,59.238],[132.1718,-2.9721,0.0],[132.1781,-2.9768,6.1162],[132.1778,-2.9791,0.0],[132.1808,-2.9822,0.0],[132.1852,-2.9835,0.0],[132.1923,-2.9802,0.0],[132.199,-2.9831,0.0],[132.2071,-2.9809,0.0],[132.2195,-2.9862,0.0],[132.2241,-2.9815,0.0],[132.2418,-2.9835,0.0],[132.2463,-2.9812,0.0],[132.2593,-2.9855,0.0],[132.2738,-2.9853,0.0],[132.287,-2.9882,0.0],[132.2926,-2.9912,0.0],[132.3015,-2.9897,0.0],[132.3197,-2.9973,0.0],[132.3215,-2.9961,0.0],[132.3151,-2.9919,3.1465],[132.3123,-2.9854,21.926],[132.3047,-2.9823,44.165],[132.2988,-2.9861,22.1033],[132.2909,-2.9801,96.0613],[132.2831,-2.9824,44.025],[132.2815,-2.9812,73.8819],[132.2826,-2.9792,18.9896],[132.2805,-2.9784,60.5305],[132.2782,-2.9805,68.7085],[132.2678,-2.9816,0.0],[132.2677,-2.9753,0.0],[132.2647,-2.9749,9.7072],[132.2567,-2.9785,86.7781],[132.2518,-2.9744,35.0842],[132.2515,-2.9722,40.1889],[132.2493,-2.9719,69.1405],[132.2482,-2.974,55.2664],[132.246,-2.9742,88.1238],[132.2457,-2.972,64.1899],[132.2327,-2.9743,80.4767],[132.2224,-2.9735,86.6986],[132.2099,-2.9772,20.2494],[132.2079,-2.976,28.956],[132.2043,-2.9767,9.4935]]],
[[[132.1191,-2.9757,0.0],[132.1222,-2.974,0.0],[132.1253,-2.9756,0.0],[132.1268,-2.9738,0.0],[132.1356,-2.9762,0.0],[132.1409,-2.9725,0.0],[132.1314,-2.9695,64.3479],[132.1135,-2.9728,0.0],[132.1139,-2.9756,0.0],[132.1191,-2.9757,0.0]]],
[[[132.0137,-2.9509,0.0],[132.0149,-2.9487,0.0],[132.0107,-2.9435,9.9974],[132.0055,-2.9454,29.2685],[132.0009,-2.9434,57.9646],[132.0003,-2.9498,0.0],[132.006,-2.9489,0.0],[132.0137,-2.9509,0.0]]],
[[[132.1226,-2.9443,0.0],[132.1209,-2.9424,0.0],[132.1184,-2.9425,7.0637],[132.1207,-2.9454,0.0],[132.1226,-2.9443,0.0]]],
[[[132.0856,-2.6877,0.0],[132.0827,-2.6826,0.0],[132.0738,-2.6826,0.0],[132.06,-2.6875,0.0],[132.054,-2.6945,0.0],[132.056,-2.7024,0.0],[132.0659,-2.7053,0.0],[132.0758,-2.7024,0.0],[132.0847,-2.6945,0.0],[132.0856,-2.6877,0.0]]],
[[[132.4462,-2.6512,0.0],[132.4474,-2.6494,0.0],[132.4447,-2.6452,27.2367],[132.4439,-2.6489,0.0],[132.4462,-2.6512,0.0]]],
[[[132.4956,-2.6347,27.7663],[132.4755,-2.6321,38.4056],[132.472,-2.6259,0.0],[132.4673,-2.6269,34.3942],[132.4674,-2.631,35.084],[132.4701,-2.6343,88.7394],[132.4688,-2.636,108.3115],[132.4641,-2.6318,31.5742],[132.4585,-2.6352,26.6442],[132.4585,-2.6397,0.0],[132.4602,-2.6409,11.9124],[132.4616,-2.639,17.094],[132.4638,-2.6395,83.4768],[132.4659,-2.6446,47.32],[132.4694,-2.6469,67.1346],[132.468,-2.6485,78.7773],[132.4694,-2.6524,46.5558],[132.4682,-2.6548,89.3612],[132.4624,-2.6509,44.3465],[132.4644,-2.646,47.32],[132.4578,-2.6465,68.171],[132.4557,-2.6451,33.1611],[132.4536,-2.6462,52.1845],[132.4576,-2.6588,0.0],[132.4638,-2.6685,0.0],[132.4737,-2.6695,0.0],[132.4783,-2.6668,0.0],[132.4814,-2.6623,0.0],[132.4921,-2.6595,0.0],[132.4991,-2.66,0.0],[132.501,-2.6591,0.0],[132.5012,-2.657,0.0],[132.5064,-2.6566,0.0],[132.5087,-2.6544,0.0],[132.5115,-2.6502,0.0],[132.5102,-2.6394,0.0],[132.5083,-2.6375,0.0],[132.5037,-2.6367,5.946],[132.5019,-2.6327,0.0],[132.5001,-2.6319,0.0],[132.4956,-2.6347,27.7663]]],
[[[132.4506,-2.6426,0.0],[132.446,-2.6413,22.4428],[132.4456,-2.6436,15.9062],[132.4472,-2.646,0.0],[132.4506,-2.6426,0.0]]],
[[[132.4621,-2.6243,0.0],[132.4626,-2.6271,0.0],[132.4646,-2.6256,13.4506],[132.464,-2.6226,0.0],[132.4621,-2.6243,0.0]]],
[[[132.435,-2.6202,13.722],[132.435,-2.6224,0.0],[132.4375,-2.6217,0.0],[132.4368,-2.6182,0.0],[132.435,-2.6202,13.722]]],
[[[132.4281,-2.6202,13.8346],[132.43,-2.6214,0.0],[132.4318,-2.6197,0.0],[132.4298,-2.6186,19.7916],[132.4281,-2.6202,13.8346]]],
[[[132.4474,-2.621,0.0],[132.449,-2.6193,0.0],[132.447,-2.6173,0.0],[132.4448,-2.6175,0.0],[132.4453,-2.6196,0.0],[132.4474,-2.621,0.0]]],
[[[132.4086,-2.6033,25.7999],[132.4067,-2.6045,66.2528],[132.4053,-2.6091,0.0],[132.4106,-2.6109,0.0],[132.4126,-2.6095,0.0],[132.4119,-2.6069,0.0],[132.4135,-2.6053,0.0],[132.4086,-2.6033,25.7999]]]]}}