{"type":"Feature","properties":{"GID_3":"IDN.1.17.4_1","GID_0":"IDN","country":"Indonesia","GID_1":"IDN.1_1","province":"Aceh","NL_NAME_1":"NA","GID_2":"IDN.1.17_1","county":"Lhokseumawe","NL_NAME_2":"NA","city":"MuaraSatu","VARNAME_3":"NA","NL_NAME_3":"NA","TYPE_3":"Kecamatan","ENGTYPE_3":"Sub-district","CC_3":"1174021","HASC_3":"NA","name":"Muara_Satu.city"},
"geometry":{"type": "MultiPolygon","coordinates": [[[[97.0974,5.1662,44.4181],[97.102,5.1739,42.806],[97.0978,5.1898,33.6772],[97.1086,5.1982,51.867],[97.1137,5.2048,1.2994],[97.1121,5.2109,2.0169],[97.1177,5.217,0.0],[97.1086,5.2208,0.0],[97.1078,5.2144,0.0],[97.1109,5.213,0.5725],[97.1094,5.2108,1.7533],[97.1017,5.2141,3.1937],[97.1001,5.2169,0.0],[97.097,5.2182,2.0974],[97.0975,5.2228,2.6547],[97.1041,5.2213,0.0],[97.1046,5.2247,0.0],[97.0935,5.2266,4.676],[97.0851,5.2309,0.0],[97.0727,5.2342,0.0],[97.0594,5.2358,1.0686],[97.0456,5.2409,1.731],[97.0369,5.2296,3.4508],[97.0372,5.2227,2.3058],[97.0348,5.2194,1.3396],[97.0387,5.2162,3.4411],[97.0368,5.2133,6.0422],[97.0273,5.2105,9.4332],[97.026,5.2088,0.5],[97.0311,5.2047,0.5],[97.028,5.1986,1.7664],[97.0297,5.1973,1.7664],[97.0454,5.1985,2.7163],[97.0527,5.193,1.2729],[97.0546,5.1859,1.5732],[97.0607,5.1783,2.5396],[97.0566,5.1701,2.3879],[97.0661,5.1588,7.0389],[97.0806,5.157,7.8562],[97.0812,5.1664,26.8485],[97.0974,5.1662,44.4181]]]]}}