{"type":"Feature","properties":{"GID_3":"IDN.34.2.2_1","GID_0":"IDN","country":"Indonesia","GID_1":"IDN.34_1","province":"KalimantanTimur","NL_NAME_1":"NA","GID_2":"IDN.34.2_1","county":"Berau","NL_NAME_2":"NA","city":"Biatan","VARNAME_3":"NA","NL_NAME_3":"NA","TYPE_3":"Kecamatan","ENGTYPE_3":"Sub-district","CC_3":"6405110","HASC_3":"NA","name":"Biatan.city"},
"geometry":{"type": "MultiPolygon","coordinates": [[[[118.0916,1.6836,2.4754],[118.0872,1.6886,3.5053],[118.0813,1.6911,1.6656],[118.079,1.6995,17.4881],[118.0727,1.709,0.0],[118.062,1.7171,0.0],[118.0529,1.7296,17.9546],[118.053,1.737,7.6974],[118.0578,1.7382,0.0],[118.0439,1.7392,9.7114],[118.0318,1.7297,14.4263],[118.0291,1.7149,10.268],[118.0358,1.7013,15.5331],[118.025,1.6865,29.9296],[118.0331,1.6418,33.5497],[118.025,1.6229,53.3815],[118.002,1.6121,66.9727],[117.9844,1.6013,65.2559],[117.9695,1.5958,81.6504],[117.9492,1.5728,124.0997],[117.9114,1.539,309.9309],[117.8934,1.52,396.4237],[117.9053,1.5098,398.2668],[117.9135,1.4935,308.1345],[117.9136,1.4654,217.4573],[117.9086,1.4261,269.4192],[117.9037,1.4048,223.4455],[117.8944,1.3833,352.2664],[117.8594,1.3638,257.7751],[117.8569,1.3588,277.0595],[117.8546,1.345,537.364],[117.882,1.3207,688.399],[117.925,1.2916,280.9597],[117.9494,1.2869,192.3241],[117.9594,1.2801,196.1633],[117.9974,1.2432,279.6136],[118.0642,1.5309,116.022],[118.0764,1.5634,60.5304],[118.1102,1.6337,102.4195],[118.1187,1.6476,2.4679],[118.1073,1.66,5.7463],[118.0916,1.6836,2.4754]]]]}}