{"type":"Feature","properties":{"GID_3":"IDN.10.6.16_1","GID_0":"IDN","country":"Indonesia","GID_1":"IDN.10_1","province":"JawaTengah","NL_NAME_1":"NA","GID_2":"IDN.10.6_1","county":"Brebes","NL_NAME_2":"NA","city":"Tonjong","VARNAME_3":"NA","NL_NAME_3":"NA","TYPE_3":"Kecamatan","ENGTYPE_3":"Sub-district","CC_3":"3329060","HASC_3":"NA","name":"Tonjong.city"},
"geometry":{"type": "MultiPolygon","coordinates": [[[[109.0002,-7.2381,261.0023],[109.002,-7.2335,234.6698],[109.0065,-7.2346,234.923],[109.0075,-7.2321,221.6205],[109.0132,-7.2284,271.9206],[109.0151,-7.2216,292.2945],[109.0206,-7.2196,291.8612],[109.0163,-7.2176,274.992],[109.0198,-7.2103,282.2606],[109.0231,-7.2123,300.5757],[109.0296,-7.2122,278.9957],[109.0333,-7.2074,247.1642],[109.033,-7.203,258.8026],[109.0371,-7.197,293.3043],[109.0477,-7.1907,354.9334],[109.0573,-7.1897,391.7325],[109.0557,-7.1849,355.1359],[109.0644,-7.1721,491.2346],[109.0817,-7.1547,760.1198],[109.0843,-7.1471,552.7271],[109.0828,-7.1366,330.2449],[109.0737,-7.1261,329.4397],[109.0741,-7.1142,230.4501],[109.0692,-7.1269,255.0988],[109.0618,-7.1281,332.7057],[109.0596,-7.1302,341.4053],[109.0573,-7.136,500.9902],[109.0604,-7.1423,565.5486],[109.0571,-7.1499,543.5509],[109.0466,-7.1501,476.8179],[109.0423,-7.1436,416.4777],[109.0365,-7.1404,218.371],[109.0256,-7.1431,92.0538],[109.009,-7.1395,203.4243],[109.0,-7.1417,192.9276],[108.99,-7.1321,156.5575],[108.9837,-7.1321,45.8229],[108.9786,-7.1351,102.4349],[108.9748,-7.1397,125.4012],[108.9723,-7.1481,63.7851],[108.9654,-7.1507,50.1311],[108.9651,-7.1598,135.1736],[108.9708,-7.1642,168.5915],[108.9737,-7.1844,150.4576],[108.974,-7.1903,98.8855],[108.9699,-7.1927,90.5296],[108.975,-7.1993,101.6406],[108.9803,-7.2025,141.376],[108.9834,-7.2151,158.9605],[108.989,-7.221,210.0342],[108.9909,-7.2357,154.9957],[108.9879,-7.2404,141.011],[108.9911,-7.2411,151.8555],[108.9961,-7.2383,259.5371],[109.0002,-7.2381,261.0023]]]]}}