{"type":"Feature","properties":{"GID_3":"IDN.3.2.5_1","GID_0":"IDN","country":"Indonesia","GID_1":"IDN.3_1","province":"BangkaBelitung","NL_NAME_1":"NA","GID_2":"IDN.3.2_1","county":"BangkaSelatan","NL_NAME_2":"NA","city":"SimpangRimba","VARNAME_3":"NA","NL_NAME_3":"NA","TYPE_3":"Kecamatan","ENGTYPE_3":"Sub-district","CC_3":"1905020","HASC_3":"NA","name":"Simpang_Rimba.city"},
"geometry":{"type": "MultiPolygon","coordinates": [[[[106.028,-2.7767,2.2698],[106.0284,-2.7702,2.4117],[106.0314,-2.7621,6.9856],[106.0359,-2.7557,5.8721],[106.0416,-2.7525,5.8938],[106.0432,-2.7353,6.3148],[106.0471,-2.7281,3.8867],[106.0446,-2.722,5.5634],[106.0425,-2.7206,3.7907],[106.0501,-2.7177,11.8095],[106.0529,-2.7114,6.1074],[106.0458,-2.7034,5.603],[106.0459,-2.6987,5.5576],[106.0478,-2.6981,6.5934],[106.0481,-2.6959,9.5072],[106.0478,-2.684,9.8858],[106.0528,-2.6821,10.7508],[106.0588,-2.6756,16.5361],[106.0635,-2.673,15.6062],[106.0623,-2.6492,21.9371],[106.0643,-2.6454,23.1153],[106.0643,-2.6363,46.3617],[106.0685,-2.6192,22.1598],[106.0669,-2.6096,16.778],[106.0702,-2.5992,44.0664],[106.0725,-2.576,3.0402],[106.0746,-2.5707,16.1138],[106.0742,-2.5549,16.6336],[106.0786,-2.5413,1.7458],[106.0868,-2.5347,3.5014],[106.0901,-2.5219,9.8526],[106.0982,-2.5046,8.9489],[106.09,-2.4959,7.7718],[106.0699,-2.5,2.5906],[106.0674,-2.4981,2.03],[106.0677,-2.4931,2.4273],[106.0616,-2.4906,2.906],[106.0602,-2.4917,3.0596],[106.059,-2.4996,3.3101],[106.0529,-2.4989,2.2411],[106.0508,-2.5021,2.6695],[106.0518,-2.5063,3.6648],[106.0559,-2.5084,4.568],[106.0544,-2.5129,3.2276],[106.0511,-2.5157,5.5363],[106.0464,-2.5164,5.6397],[106.0314,-2.5124,6.275],[106.0303,-2.5105,5.0732],[106.0316,-2.5025,2.7813],[106.0288,-2.5013,4.1155],[106.0198,-2.4827,11.0867],[106.0121,-2.4789,18.1423],[105.9717,-2.4882,14.112],[105.9355,-2.4823,9.4651],[105.9387,-2.4955,11.1094],[105.9361,-2.5027,9.4628],[105.9366,-2.5122,15.1439],[105.9346,-2.523,14.6329],[105.9353,-2.5273,8.6522],[105.9384,-2.5303,4.6951],[105.9298,-2.5356,13.3824],[105.926,-2.541,17.964],[105.9163,-2.5457,0.0],[105.9121,-2.564,0.4688],[105.9038,-2.582,0.9676],[105.898,-2.589,3.7439],[105.8908,-2.5882,7.2969],[105.892,-2.5961,3.055],[105.8945,-2.5968,0.0],[105.8957,-2.6031,0.0],[105.8976,-2.6035,0.0],[105.8987,-2.6058,24.2017],[105.8965,-2.611,0.0],[105.8972,-2.614,0.0],[105.8874,-2.6384,0.0],[105.8866,-2.6443,0.0],[105.8918,-2.6469,1.1117],[105.898,-2.6605,0.0],[105.9001,-2.6605,1.4604],[105.9015,-2.6631,1.6155],[105.903,-2.6695,6.4013],[105.903,-2.683,0.6249],[105.9055,-2.6874,2.1826],[105.9065,-2.6965,0.0],[105.9155,-2.7094,3.5544],[105.9185,-2.7192,6.0338],[105.9193,-2.7253,12.1778],[105.9174,-2.7282,16.9844],[105.9157,-2.7264,0.0],[105.9191,-2.7437,0.0],[105.9285,-2.754,12.528],[105.933,-2.7636,0.0],[105.9489,-2.7756,9.3831],[105.9534,-2.7825,16.8954],[105.9556,-2.792,3.0716],[105.9539,-2.7987,2.5906],[105.9524,-2.7995,2.5906],[105.9512,-2.8073,0.0],[105.9496,-2.8087,0.0],[105.9501,-2.8211,0.0],[105.9538,-2.8212,3.7878],[105.968,-2.815,1.0747],[105.9771,-2.8154,5.1446],[106.0,-2.8236,0.0],[106.02,-2.8269,0.0],[106.0313,-2.8322,4.4588],[106.0291,-2.8126,12.0418],[106.0319,-2.8097,9.9374],[106.0316,-2.804,8.4508],[106.0289,-2.8009,9.7151],[106.0314,-2.7981,7.8437],[106.0297,-2.7982,11.7637],[106.0289,-2.7961,9.9446],[106.0305,-2.793,8.7172],[106.0286,-2.7888,11.2669],[106.028,-2.7767,2.2698]]]]}}