{"type":"Feature","properties":{"GID_3":"IDN.24.7.2_1","GID_0":"IDN","country":"Indonesia","GID_1":"IDN.24_1","province":"Riau","NL_NAME_1":"NA","GID_2":"IDN.24.7_1","county":"KuantanSingingi","NL_NAME_2":"NA","city":"Cerenti","VARNAME_3":"NA","NL_NAME_3":"NA","TYPE_3":"Kecamatan","ENGTYPE_3":"Sub-district","CC_3":"1401060","HASC_3":"NA","name":"Cerenti.city"},
"geometry":{"type": "MultiPolygon","coordinates": [[[[101.9079,-0.5168,26.738],[101.9081,-0.5108,24.6285],[101.9121,-0.504,31.9193],[101.9099,-0.4737,80.5849],[101.9049,-0.4614,59.0492],[101.897,-0.4479,50.0161],[101.8898,-0.4249,69.9483],[101.8895,-0.4135,74.5239],[101.8926,-0.3957,98.5735],[101.8908,-0.3962,99.1667],[101.8885,-0.3932,109.98],[101.8724,-0.3925,104.4804],[101.86279999999999,-0.4042,105.4842],[101.8586,-0.4048,101.2717],[101.8298,-0.4245,69.8579],[101.8292,-0.4474,77.0657],[101.8318,-0.4637,50.1261],[101.826,-0.4734,70.4506],[101.8299,-0.4792,41.6718],[101.8368,-0.4853,41.4175],[101.8368,-0.4889,59.9149],[101.8358,-0.4924,47.7583],[101.8298,-0.4978,40.6539],[101.8297,-0.5028,36.2332],[101.8334,-0.5056,39.0122],[101.8324,-0.5098,39.7886],[101.8211,-0.5116,30.7121],[101.8207,-0.5153,36.6828],[101.8187,-0.5171,37.8083],[101.8137,-0.5167,34.787],[101.8126,-0.5261,48.943],[101.82,-0.5514,84.125],[101.8288,-0.5928,50.4369],[101.8495,-0.594,77.7482],[101.8681,-0.5912,40.6331],[101.8845,-0.5725,59.8667],[101.9063,-0.5381,61.4124],[101.9079,-0.5168,26.738]]]]}}