{"type":"Feature","properties":{"GID_3":"IDN.9.25.24_1","GID_0":"IDN","country":"Indonesia","GID_1":"IDN.9_1","province":"JawaBarat","NL_NAME_1":"NA","GID_2":"IDN.9.25_1","county":"Sumedang","NL_NAME_2":"NA","city":"Tomo","VARNAME_3":"NA","NL_NAME_3":"NA","TYPE_3":"Kecamatan","ENGTYPE_3":"Sub-district","CC_3":"3211120","HASC_3":"NA","name":"Tomo.city"},
"geometry":{"type": "MultiPolygon","coordinates": [[[[108.1595,-6.8185,40.8475],[108.1616,-6.8138,43.1695],[108.1605,-6.8098,38.755],[108.1529,-6.804,39.1975],[108.1542,-6.7983,40.7883],[108.1576,-6.796,39.4428],[108.1652,-6.7971,36.3737],[108.1665,-6.7942,46.4007],[108.1648,-6.7888,36.6515],[108.1667,-6.7861,40.6784],[108.1693,-6.7872,34.7286],[108.1698,-6.7856,42.0359],[108.1684,-6.7805,40.5271],[108.1636,-6.7739,33.9976],[108.1643,-6.7614,36.5754],[108.1596,-6.7589,33.2713],[108.1541,-6.7623,31.9314],[108.149,-6.759,31.4944],[108.1488,-6.7545,34.6949],[108.1532,-6.7513,33.0208],[108.1517,-6.7477,34.7062],[108.1413,-6.7595,32.3016],[108.139,-6.7588,30.3225],[108.1371,-6.7545,33.575],[108.1351,-6.7577,35.1999],[108.1284,-6.7581,45.2013],[108.1205,-6.7527,56.544],[108.1135,-6.755,62.7602],[108.1064,-6.7506,99.6807],[108.1044,-6.7506,109.0183],[108.0938,-6.7591,101.8466],[108.08,-6.7572,111.7491],[108.0753,-6.7628,89.8614],[108.0748,-6.766,98.6295],[108.0566,-6.7744,159.4032],[108.0504,-6.781,183.0553],[108.05029999999999,-6.7855,167.9047],[108.0535,-6.7937,102.1658],[108.047,-6.8024,173.4193],[108.0479,-6.8125,301.079],[108.0502,-6.8153,369.9828],[108.0638,-6.8213,375.0065],[108.0673,-6.8171,292.2411],[108.0704,-6.8159,227.4199],[108.0716,-6.8126,246.2435],[108.0758,-6.8127,161.0523],[108.078,-6.8089,132.916],[108.0817,-6.8088,131.4413],[108.0841,-6.8108,86.6545],[108.0876,-6.8103,83.2592],[108.0903,-6.8125,82.0219],[108.0913,-6.8081,72.6289],[108.0902,-6.8056,68.6477],[108.0932,-6.8029,62.0331],[108.0967,-6.8036,58.3636],[108.0978,-6.8016,56.3869],[108.1013,-6.8011,51.7478],[108.1025,-6.8039,53.7043],[108.0993,-6.8109,62.691],[108.102,-6.8125,62.6283],[108.1022,-6.8151,68.6234],[108.1087,-6.8139,83.1626],[108.1105,-6.8176,68.5934],[108.1133,-6.8185,86.2332],[108.114,-6.8217,75.9245],[108.1271,-6.8244,125.3251],[108.1296,-6.8295,110.1647],[108.1281,-6.8361,117.6085],[108.1301,-6.8387,125.8006],[108.135,-6.84,165.2042],[108.1441,-6.8292,215.0841],[108.1527,-6.8279,93.914],[108.1609,-6.8288,50.9404],[108.1591,-6.824,43.007],[108.1595,-6.8185,40.8475]]]]}}