{"type":"Feature","properties":{"GID_3":"IDN.9.11.13_1","GID_0":"IDN","country":"Indonesia","GID_1":"IDN.9_1","province":"JawaBarat","NL_NAME_1":"NA","GID_2":"IDN.9.11_1","county":"Garut","NL_NAME_2":"NA","city":"Cikelet","VARNAME_3":"NA","NL_NAME_3":"NA","TYPE_3":"Kecamatan","ENGTYPE_3":"Sub-district","CC_3":"3205060","HASC_3":"NA","name":"Cikelet.city"},
"geometry":{"type": "MultiPolygon","coordinates": [[[[107.6831,-7.6436,3.1237],[107.6887,-7.6529,0.0],[107.6889,-7.6575,0.0],[107.686,-7.6617,5.9967],[107.6891,-7.664,8.7605],[107.6912,-7.6625,4.6767],[107.6938,-7.6637,8.8625],[107.6941,-7.6603,5.0962],[107.6955,-7.6619,4.5176],[107.6971,-7.6582,11.1249],[107.7007,-7.6565,7.0885],[107.7006,-7.6515,9.4038],[107.7028,-7.6461,9.3023],[107.7003,-7.6423,11.0684],[107.705,-7.6416,8.273],[107.7105,-7.6374,15.2235],[107.7116,-7.6312,38.6855],[107.7083,-7.624,44.6589],[107.7111,-7.6176,58.8255],[107.7097,-7.6159,63.5708],[107.7106,-7.6096,80.3466],[107.7161,-7.602,140.6906],[107.7222,-7.5971,147.8247],[107.7236,-7.5925,240.2025],[107.7287,-7.586,250.5234],[107.7333,-7.5821,272.7981],[107.7323,-7.5764,298.8724],[107.7376,-7.5688,379.5547],[107.7374,-7.5586,450.2429],[107.7477,-7.5476,665.8111],[107.7484,-7.5382,621.519],[107.7417,-7.5237,886.6088],[107.7518,-7.5198,886.2444],[107.7579,-7.5138,939.6693],[107.7607,-7.5043,996.5781],[107.7695,-7.4947,978.6108],[107.7705,-7.4871,1043.5721],[107.7771,-7.4819,1064.7434],[107.7775,-7.4725,1198.1985],[107.7762,-7.4676,1294.0977],[107.7526,-7.4683,898.6102],[107.7414,-7.4749,1026.7771],[107.7274,-7.4771,1048.2871],[107.7214,-7.4739,960.4669],[107.7125,-7.4752,911.6977],[107.7097,-7.4788,912.7742],[107.7048,-7.4802,907.4617],[107.6984,-7.4851,882.6017],[107.6924,-7.4939,799.134],[107.6853,-7.4973,704.6025],[107.6851,-7.5021,648.2017],[107.6826,-7.5043,600.637],[107.6763,-7.5034,640.1027],[107.6623,-7.5068,529.3284],[107.6649,-7.5101,488.3173],[107.6646,-7.5132,481.9931],[107.6616,-7.5189,410.3377],[107.6605,-7.5266,236.8387],[107.6573,-7.5271,220.6637],[107.6547,-7.5255,217.4424],[107.6543,-7.528,255.4375],[107.6503,-7.5287,208.0024],[107.6515,-7.532,216.1395],[107.6466,-7.5346,183.2519],[107.6473,-7.5381,172.6646],[107.644,-7.5425,184.6916],[107.6416,-7.5451,136.6885],[107.6357,-7.5454,135.3116],[107.6357,-7.552,113.9813],[107.631,-7.5566,57.0745],[107.6299,-7.5557,59.9623],[107.6297,-7.5584,83.2451],[107.6278,-7.558,57.8979],[107.6265,-7.5595,83.5288],[107.627,-7.5618,46.0168],[107.6228,-7.5641,72.7054],[107.6226,-7.5777,9.0295],[107.6218,-7.5788,18.6918],[107.6186,-7.5775,31.5732],[107.6204,-7.5789,10.6856],[107.6178,-7.5837,0.0],[107.6239,-7.5892,3.7043],[107.6229,-7.5951,0.0],[107.624,-7.5969,0.0],[107.6306,-7.6008,1.9614],[107.6332,-7.6011,4.3609],[107.6351,-7.5992,6.3473],[107.6394,-7.6013,0.0],[107.6419,-7.6045,6.0069],[107.6516,-7.6092,0.9218],[107.6689,-7.6215,1.1345],[107.683,-7.6382,3.9606],[107.6831,-7.6436,3.1237]]]]}}