{"type":"Feature","properties":{"GID_3":"IDN.32.18.9_1","GID_0":"IDN","country":"Indonesia","GID_1":"IDN.32_1","province":"SumateraUtara","NL_NAME_1":"NA","GID_2":"IDN.32.18_1","county":"NiasSelatan","NL_NAME_2":"NA","city":"Lolowau","VARNAME_3":"NA","NL_NAME_3":"NA","TYPE_3":"Kecamatan","ENGTYPE_3":"Sub-district","CC_3":"1214080","HASC_3":"NA","name":"Lolowau.city"},
"geometry":{"type": "MultiPolygon","coordinates": [[[[97.6801,0.8107,384.9072],[97.6775,0.8153,337.2426],[97.6783,0.8233,426.8478],[97.6768,0.8253,432.6596],[97.6699,0.827,254.9537],[97.6647,0.8221,156.5835],[97.6569,0.8103,122.6544],[97.6466,0.8044,186.5247],[97.6412,0.797,122.0735],[97.6396,0.7994,116.2205],[97.6374,0.8007,49.9343],[97.6368,0.7998,22.4616],[97.636,0.8024,29.3947],[97.6401,0.8128,118.8001],[97.6457,0.8175,48.8108],[97.6495,0.8239,175.7145],[97.6484,0.831,264.6584],[97.6345,0.8355,201.3302],[97.6284,0.8485,158.9932],[97.6154,0.8538,49.6675],[97.6086,0.866,156.5931],[97.5972,0.8704,22.1278],[97.5988,0.8771,108.797],[97.6025,0.8838,166.335],[97.606,0.8867,146.4467],[97.5995,0.9004,156.903],[97.6031,0.8999,185.4148],[97.6036,0.9083,259.1083],[97.6225,0.9095,358.0002],[97.6288,0.9164,220.4959],[97.6223,0.9264,223.5622],[97.6215,0.9341,209.7569],[97.6146,0.9419,189.7572],[97.6106,0.9496,175.1762],[97.6112,0.9538,170.7552],[97.6087,0.9582,173.9325],[97.6087,0.9601,163.1967],[97.6137,0.9613,170.2242],[97.6175,0.9663,200.444],[97.6207,0.9676,232.6615],[97.6266,0.9771,463.2883],[97.6261,0.9813,494.3538],[97.6294,0.9927,421.5742],[97.6281,1.0013,345.784],[97.629,1.0074,298.8496],[97.6281,1.0146,260.5701],[97.6228,1.0205,218.2016],[97.6224,1.0234,205.0597],[97.6117,1.0308,369.0406],[97.5901,1.0348,157.9186],[97.5963,1.0206,210.7305],[97.5807,1.0066,356.7518],[97.552,1.0007,248.795],[97.5456,1.0028,217.4483],[97.5366,1.0085,215.4775],[97.5353,0.994,84.2124],[97.5372,0.9791,174.3352],[97.5405,0.9729,187.5064],[97.549,0.9641,121.553],[97.5437,0.956,70.7202],[97.5479,0.9472,113.3768],[97.5407,0.9442,204.4325],[97.5417,0.9402,227.5832],[97.5407,0.9383,210.7766],[97.5455,0.9334,215.0859],[97.5511,0.9308,153.8659],[97.5608,0.9329,59.1949],[97.5671,0.9247,24.4753],[97.5616,0.9177,24.6056],[97.5616,0.911,14.9438],[97.5588,0.9104,17.3612],[97.5479,0.9002,11.8512],[97.5483,0.8968,11.5892],[97.5517,0.8935,7.0542],[97.5462,0.8921,11.399],[97.5449,0.8901,5.0536],[97.5448,0.8872,0.3898],[97.5475,0.888,0.9237],[97.5507,0.8868,2.6888],[97.5578,0.8787,0.0],[97.5563,0.8718,0.0],[97.5578,0.867,0.0],[97.5777,0.8564,9.4043],[97.6024,0.8388,7.7406],[97.6033,0.8238,0.0],[97.6058,0.8142,-0.0743],[97.6083,0.8167,0.0],[97.6126,0.8157,15.919],[97.6272,0.8052,0.0],[97.6336,0.7955,1.8346],[97.6332,0.7923,2.1938],[97.6295,0.7894,0.9041],[97.6347,0.7836,0.0],[97.6442,0.7868,96.8036],[97.6496,0.7866,50.4242],[97.6561,0.7839,92.0887],[97.6814,0.8031,288.1207],[97.6801,0.8107,384.9072]]]]}}