{"type":"Feature","properties":{"GID_3":"IDN.18.8.7_1","GID_0":"IDN","country":"Indonesia","GID_1":"IDN.18_1","province":"MalukuUtara","NL_NAME_1":"NA","GID_2":"IDN.18.8_1","county":"Ternate","NL_NAME_2":"NA","city":"TernateTengah","VARNAME_3":"NA","NL_NAME_3":"NA","TYPE_3":"Kecamatan","ENGTYPE_3":"Sub-district","CC_3":"8271021","HASC_3":"NA","name":"Ternate_Tengah.city"},
"geometry":{"type": "MultiPolygon","coordinates": [[[[127.3844,0.7765,3.0702],[127.3865,0.777,0.0],[127.3877,0.7804,0.0],[127.3879,0.779,0.0],[127.3888,0.781,0.0],[127.3886,0.7852,2.1269],[127.3912,0.7893,3.3972],[127.3885,0.7982,1.5008],[127.3809,0.7957,33.2273],[127.3727,0.7982,152.0996],[127.3731,0.8021,211.9193],[127.3708,0.803,253.0633],[127.3689,0.8114,273.6518],[127.3659,0.8147,318.7838],[127.3525,0.8092,779.7708],[127.3535,0.7968,594.5304],[127.3461,0.7915,776.9052],[127.3507,0.785,446.1279],[127.3631,0.7813,198.6127],[127.3651,0.7815,175.241],[127.366,0.7843,176.6199],[127.3781,0.7815,26.3557],[127.3794,0.7824,29.0006],[127.3839,0.7788,7.1283],[127.3844,0.7765,3.0702]]],
[[[127.3893,0.785,2.1269],[127.3891,0.785,2.1269],[127.3891,0.7849,2.1269],[127.3893,0.7849,2.1269],[127.3893,0.785,2.1269]]]]}}