{"type":"Feature","properties":{"GID_3":"IDN.31.1.3_1","GID_0":"IDN","country":"Indonesia","GID_1":"IDN.31_1","province":"SumateraSelatan","NL_NAME_1":"NA","GID_2":"IDN.31.1_1","county":"BanyuAsin","NL_NAME_2":"NA","city":"BanyuasinIii","VARNAME_3":"NA","NL_NAME_3":"NA","TYPE_3":"Kecamatan","ENGTYPE_3":"Sub-district","CC_3":"1607040","HASC_3":"NA","name":"Banyuasin_Iii.city"},
"geometry":{"type": "MultiPolygon","coordinates": [[[[104.3602,-2.9719,4.7648],[104.3974,-2.9601,21.4014],[104.4144,-2.9585,21.4868],[104.479,-2.978,27.3483],[104.4763,-2.9717,25.7657],[104.4813,-2.9694,23.5005],[104.4998,-2.9705,24.6205],[104.5026,-2.9754,13.3384],[104.5302,-2.9795,11.0378],[104.5384,-2.9787,12.9442],[104.5514,-2.9746,22.9364],[104.5649,-2.9669,33.7752],[104.6084,-2.9616,16.3039],[104.6037,-2.9336,22.8961],[104.6074,-2.9297,23.3743],[104.5906,-2.8823,16.1186],[104.5733,-2.8428,2.7972],[104.5751,-2.843,3.2732],[104.5378,-2.7722,4.5102],[104.5181,-2.7483,5.2975],[104.5194,-2.7343,7.507],[104.5214,-2.7303,5.7016],[104.4724,-2.7437,5.4878],[104.4749,-2.7652,5.4353],[104.4647,-2.7782,6.0231],[104.4442,-2.7902,3.912],[104.4371,-2.7902,5.101],[104.4332,-2.7962,6.4257],[104.4014,-2.8083,29.6212],[104.3704,-2.8257,7.9225],[104.3266,-2.8726,21.4203],[104.3053,-2.8878,29.9349],[104.2954,-2.8897,33.5185],[104.284,-2.8968,30.1471],[104.2836,-2.9014,26.9331],[104.2699,-2.9044,34.3691],[104.2578,-2.9013,36.513],[104.2546,-2.8965,37.6964],[104.2452,-2.9124,33.9001],[104.2432,-2.9213,28.0858],[104.2439,-2.9305,26.1726],[104.2536,-2.9331,30.6911],[104.2245,-2.9481,13.2753],[104.2258,-2.9751,15.0884],[104.2685,-2.9844,18.9294],[104.3077,-2.9677,28.688],[104.3142,-2.9764,7.4757],[104.3166,-2.9769,17.0604],[104.3294,-2.9757,23.2241],[104.3322,-2.9773,25.8496],[104.3387,-2.9774,26.9673],[104.35,-2.9759,2.9416],[104.3602,-2.9719,4.7648]]]]}}