{"type":"Feature","properties":{"GID_3":"IDN.13.5.16_1","GID_0":"IDN","country":"Indonesia","GID_1":"IDN.13_1","province":"KalimantanSelatan","NL_NAME_1":"NA","GID_2":"IDN.13.5_1","county":"BaritoKuala","NL_NAME_2":"NA","city":"Tamban","VARNAME_3":"NA","NL_NAME_3":"NA","TYPE_3":"Kecamatan","ENGTYPE_3":"Sub-district","CC_3":"6304020","HASC_3":"NA","name":"Tamban.city"},
"geometry":{"type": "MultiPolygon","coordinates": [[[[114.4164,-3.387,1.8661],[114.4322,-3.3835,1.0813],[114.4457,-3.3784,1.1853],[114.4673,-3.3596,2.1207],[114.4769,-3.3643,2.0022],[114.507,-3.3864,0.0],[114.5148,-3.3731,0.0],[114.5286,-3.3554,0.0],[114.5237,-3.3528,0.6283],[114.5338,-3.3417,1.8309],[114.5427,-3.3439,0.0],[114.5539,-3.3326,0.0],[114.5596,-3.3208,0.0],[114.5564,-3.3183,0.0],[114.5557,-3.3156,0.0],[114.5597,-3.2938,0.0],[114.5584,-3.2802,0.0],[114.5518,-3.2544,0.0],[114.547,-3.2467,0.0],[114.508,-3.2285,1.2963],[114.5062,-3.2433,2.7276],[114.5155,-3.2635,1.5574],[114.5211,-3.2658,1.3404],[114.5241,-3.2713,2.9499],[114.5303,-3.2745,2.8541],[114.5306,-3.2842,1.6989],[114.5408,-3.285,1.6598],[114.5451,-3.2912,2.1433],[114.5423,-3.2924,2.7822],[114.5389,-3.2971,3.4588],[114.5158,-3.3032,3.2053],[114.5151,-3.3115,2.8609],[114.4727,-3.3012,1.4966],[114.4594,-3.283,1.7584],[114.4374,-3.3021,2.5619],[114.4407,-3.307,3.6366],[114.4099,-3.3262,1.991],[114.3799,-3.34,1.3203],[114.3773,-3.3377,1.4558],[114.3599,-3.3504,1.223],[114.3538,-3.3425,1.9088],[114.3463,-3.3513,5.8363],[114.3505,-3.3688,4.3889],[114.3586,-3.3863,5.1227],[114.4164,-3.387,1.8661]]]]}}