{"type":"Feature","properties":{"GID_3":"IDN.32.16.11_1","GID_0":"IDN","country":"Indonesia","GID_1":"IDN.32_1","province":"SumateraUtara","NL_NAME_1":"NA","GID_2":"IDN.32.16_1","county":"MandailingNatal","NL_NAME_2":"NA","city":"Natal","VARNAME_3":"NA","NL_NAME_3":"NA","TYPE_3":"Kecamatan","ENGTYPE_3":"Sub-district","CC_3":"1202060","HASC_3":"NA","name":"Natal.city"},
"geometry":{"type": "MultiPolygon","coordinates": [[[[99.1087,0.5689,0.0],[99.1099,0.5545,0.0],[99.1052,0.5325,0.0],[99.0997,0.5286,6.1126],[99.0899,0.5325,0.0],[99.0886,0.5314,0.1773],[99.0896,0.5258,5.7811],[99.0949,0.5195,3.9555],[99.0919,0.5087,0.0],[99.0942,0.504,5.6293],[99.0979,0.5027,2.3234],[99.1015,0.5033,2.1717],[99.104,0.5081,0.0],[99.1142,0.5114,4.0828],[99.1168,0.509,6.9208],[99.1199,0.4965,0.0],[99.1188,0.4929,0.0],[99.1254,0.4862,0.0],[99.1417,0.4908,8.1599],[99.1667,0.506,8.9956],[99.1738,0.5078,7.9239],[99.1903,0.5075,12.3268],[99.2051,0.516,41.6898],[99.2229,0.5291,27.1902],[99.2467,0.522,39.046],[99.252,0.5224,35.0835],[99.2468,0.5303,58.3723],[99.2409,0.5326,54.9671],[99.2331,0.5401,39.3977],[99.2272,0.5569,20.0182],[99.2227,0.5614,53.9361],[99.2163,0.5644,29.8499],[99.21,0.5759,10.2348],[99.2126,0.5844,19.8207],[99.2268,0.6021,22.9784],[99.2302,0.6086,38.4301],[99.2162,0.6153,52.9757],[99.2156,0.6172,26.8936],[99.2239,0.6286,131.6642],[99.222,0.6372,104.8854],[99.2007,0.6418,27.1983],[99.1949,0.64,22.5071],[99.1832,0.6396,10.6859],[99.1796,0.643,21.0245],[99.1707,0.6449,27.2119],[99.1689,0.6467,16.7711],[99.168,0.6504,30.6723],[99.1701,0.6569,65.7374],[99.1738,0.663,47.3015],[99.1802,0.667,42.4347],[99.1817,0.6732,45.9549],[99.1887,0.6769,38.8041],[99.1906,0.6839,36.7499],[99.1937,0.6861,39.6914],[99.1979,0.6858,36.2395],[99.2019,0.6895,115.522],[99.1999,0.6947,68.8196],[99.2049,0.6932,89.1768],[99.2138,0.6947,146.4481],[99.2196,0.6932,66.4705],[99.2242,0.6938,100.6319],[99.2331,0.6891,124.3593],[99.2381,0.6913,110.2914],[99.2343,0.6961,129.2221],[99.2351,0.7003,145.1211],[99.2301,0.7115,203.6912],[99.2311,0.7161,212.1122],[99.2527,0.73,580.5648],[99.2682,0.7423,1281.4738],[99.2703,0.7459,1384.6538],[99.2711,0.7541,1757.5016],[99.2799,0.764,1466.104],[99.2845,0.7735,1423.8521],[99.3022,0.7766,1277.9974],[99.3226,0.79,1500.3169],[99.3535,0.8002,901.2434],[99.3735,0.8003,901.068],[99.3991,0.794,1140.6575],[99.4335,0.8183,1641.0295],[99.4293,0.8279,1587.1057],[99.4169,0.8365,1584.8281],[99.4151,0.8395,1585.6387],[99.4079,0.8331,1520.063],[99.3985,0.8321,1397.0317],[99.3933,0.8337,1239.4824],[99.3672,0.8489,1056.6704],[99.3385,0.8573,709.3213],[99.3207,0.8679,498.89],[99.3081,0.8785,417.5359],[99.2997,0.8805,395.6056],[99.2853,0.8789,337.7615],[99.2642,0.8857,456.8609],[99.2439,0.8853,354.178],[99.2413,0.8869,323.7809],[99.2365,0.8857,208.1592],[99.2305,0.8867,401.3531],[99.2086,0.8702,731.7861],[99.2093,0.8594,676.3544],[99.2172,0.8535,433.5745],[99.2194,0.8451,551.6317],[99.2194,0.8396,529.2245],[99.2126,0.8298,693.8167],[99.2067,0.8253,781.4858],[99.1977,0.8273,653.0997],[99.1759,0.8239,129.5779],[99.1663,0.8141,34.6261],[99.1597,0.8103,36.1319],[99.1537,0.8095,52.9008],[99.1321,0.8155,37.4151],[99.1229,0.8141,21.5711],[99.1131,0.8155,27.4781],[99.0782,0.8082,24.1094],[99.0707,0.8089,10.9828],[99.0583,0.8155,19.5025],[99.0327,0.8221,15.4115],[99.0129,0.8237,0.0],[99.0137,0.8187,0.0],[99.0203,0.8129,4.4694],[99.0229,0.7989,2.7439],[99.0329,0.7901,4.9667],[99.0369,0.7841,4.8733],[99.0381,0.7815,0.0],[99.0371,0.7795,2.7361],[99.0409,0.7739,1.4969],[99.0393,0.7693,7.8817],[99.0429,0.7687,4.9243],[99.0435,0.7619,3.0097],[99.0483,0.7605,3.2845],[99.0501,0.7527,0.0],[99.0527,0.7511,5.9168],[99.0563,0.7435,3.3602],[99.0583,0.7433,4.0032],[99.0605,0.7197,0.8363],[99.084,0.7198,6.5938],[99.0603,0.7196,0.8363],[99.0594,0.7138,4.6641],[99.0566,0.71,0.0],[99.0593,0.705,4.6039],[99.0621,0.6902,1.824],[99.0572,0.6842,0.0],[99.0558,0.6781,0.0],[99.0486,0.6723,3.7126],[99.0486,0.6706,5.6213],[99.0499,0.6693,2.1171],[99.055,0.6707,9.4517],[99.0606,0.6682,2.0118],[99.0645,0.6638,2.3185],[99.0659,0.6589,0.0],[99.0576,0.6552,1.5328],[99.0552,0.6512,2.1961],[99.0591,0.6474,3.898],[99.0577,0.6449,0.0],[99.0586,0.6391,1.7061],[99.0533,0.6412,2.7037],[99.0494,0.6454,2.3512],[99.0467,0.644,0.0],[99.0453,0.638,0.8028],[99.0471,0.6355,0.839],[99.05,0.6357,3.1873],[99.0506,0.6337,4.8479],[99.0478,0.6302,0.0],[99.0489,0.624,0.0],[99.0509,0.6221,3.5985],[99.0598,0.6214,2.1727],[99.0652,0.6321,2.4946],[99.0699,0.6299,2.5676],[99.0749,0.6302,0.0],[99.0751,0.6218,0.0],[99.078,0.6198,5.9762],[99.0849,0.62,0.0],[99.0977,0.6031,0.0],[99.1047,0.5851,5.6424],[99.1087,0.5689,0.0]]],
[[[99.0447,0.7605,2.5488],[99.0441,0.7605,3.0097],[99.0443,0.7593,0.0],[99.0447,0.7595,0.0],[99.0447,0.7605,2.5488]]],
[[[99.0395,0.7629,0.0],[99.0389,0.7615,0.0],[99.0411,0.7621,8.9057],[99.0411,0.7627,8.9057],[99.0395,0.7629,0.0]]],
[[[99.0381,0.7655,4.45],[99.0357,0.7657,0.0],[99.0373,0.7641,5.0978],[99.0387,0.7643,5.4485],[99.0381,0.7655,4.45]]],
[[[99.0075,0.7759,0.0],[99.0097,0.7759,0.0],[99.0107,0.7801,0.0],[99.0077,0.7801,7.7442],[99.0075,0.7759,0.0]]]]}}