{"type":"Feature","properties":{"GID_3":"IDN.23.21.20_1","GID_0":"IDN","country":"Indonesia","GID_1":"IDN.23_1","province":"Papua","NL_NAME_1":"NA","GID_2":"IDN.23.21_1","county":"PegununganBintang","NL_NAME_2":"NA","city":"Okbemta","VARNAME_3":"NA","NL_NAME_3":"NA","TYPE_3":"Distrik","ENGTYPE_3":"District","CC_3":"9417063","HASC_3":"NA","name":"Okbemta.city"},
"geometry":{"type": "MultiPolygon","coordinates": [[[[140.6256,-4.6021,1160.2463],[140.6219,-4.6196,1413.3958],[140.6223,-4.6348,2172.6348],[140.6482,-4.6178,1235.1293],[140.6646,-4.614,1602.9316],[140.6837,-4.6064,2557.0164],[140.7043,-4.601,1995.1265],[140.7032,-4.5882,1692.531],[140.7269,-4.5823,1721.5396],[140.7409,-4.5753,1584.0039],[140.7603,-4.5597,1028.5714],[140.7662,-4.5532,732.6882],[140.7727,-4.5494,1117.0918],[140.7883,-4.5451,1627.8422],[140.8,-4.5439,1118.0413],[140.7994,-4.548,1028.6887],[140.8046,-4.5655,1248.1765],[140.8064,-4.5952,1623.7595],[140.8134,-4.6249,1911.6505],[140.8221,-4.6389,2404.7312],[140.8606,-4.6616,1497.064],[140.8833,-4.6616,1341.8381],[140.9095,-4.6564,971.2495],[140.9235,-4.6442,1013.446],[140.9322,-4.6407,1152.0725],[140.9532,-4.6407,1085.6998],[140.9637,-4.6459,836.4857],[141.0,-4.6442,221.2525],[141.0,-4.4736,135.8473],[140.9652,-4.4755,104.0],[140.9016,-4.4901,154.4587],[140.8842,-4.4963,279.9566],[140.8655,-4.4985,599.3398],[140.8483,-4.4985,221.4209],[140.8062,-4.4905,690.7585],[140.8134,-4.4152,535.3854],[140.8221,-4.3627,441.6884],[140.8221,-4.3383,265.354],[140.7989,-4.2781,415.3287],[140.7485,-4.2784,331.3273],[140.7282,-4.2829,395.7436],[140.7102,-4.293,304.2178],[140.6899,-4.3144,315.2758],[140.6741,-4.3426,401.5339],[140.6583,-4.3843,489.8474],[140.6381,-4.4215,905.1581],[140.6178,-4.435,1828.9718],[140.625,-4.4711,1716.6892],[140.6216,-4.5095,999.85],[140.6264,-4.5252,895.5344],[140.6288,-4.5522,1052.149],[140.6315,-4.5639,995.4434],[140.6315,-4.5719,1014.1047],[140.6256,-4.6021,1160.2463]]]]}}