{"type":"Feature","properties":{"GID_3":"IDN.11.19.19_1","GID_0":"IDN","country":"Indonesia","GID_1":"IDN.11_1","province":"JawaTimur","NL_NAME_1":"NA","GID_2":"IDN.11.19_1","county":"Lumajang","NL_NAME_2":"NA","city":"Tempeh","VARNAME_3":"NA","NL_NAME_3":"NA","TYPE_3":"Kecamatan","ENGTYPE_3":"Sub-district","CC_3":"3508050","HASC_3":"NA","name":"Tempeh.city"},
"geometry":{"type": "MultiPolygon","coordinates": [[[[113.1757,-8.2737,8.4601],[113.177,-8.2809,4.7817],[113.2048,-8.2802,6.171],[113.2175,-8.2814,5.8182],[113.2207,-8.2666,10.9705],[113.216,-8.2623,13.6093],[113.2167,-8.2603,15.3729],[113.2149,-8.2595,15.4797],[113.2145,-8.2573,16.5932],[113.2092,-8.254,23.1697],[113.2093,-8.2507,25.3022],[113.211,-8.25,22.3746],[113.2101,-8.2477,25.0032],[113.206,-8.2461,28.1423],[113.2037,-8.2429,30.3329],[113.2052,-8.2378,42.1998],[113.2027,-8.2354,44.2943],[113.2046,-8.2284,49.0697],[113.2034,-8.2283,50.9559],[113.2036,-8.2263,52.5895],[113.2056,-8.2245,57.4949],[113.2073,-8.2164,54.8122],[113.2043,-8.2152,56.2765],[113.205,-8.2127,60.6246],[113.2109,-8.215,56.356],[113.2122,-8.211,52.3685],[113.2078,-8.2098,54.8947],[113.2105,-8.1985,60.9534],[113.2054,-8.1941,70.6672],[113.2098,-8.1808,70.3906],[113.212,-8.1806,68.1277],[113.2126,-8.1786,67.9789],[113.2106,-8.1782,70.2146],[113.211,-8.1758,69.3784],[113.2035,-8.1741,80.4092],[113.1936,-8.1679,90.6168],[113.1851,-8.1731,106.1178],[113.1827,-8.172,105.508],[113.1815,-8.1691,106.9963],[113.1775,-8.171,109.446],[113.1591,-8.172,140.417],[113.1591,-8.1598,142.8395],[113.1569,-8.1595,147.9557],[113.1587,-8.1516,138.9324],[113.1512,-8.1458,155.6461],[113.1399,-8.1502,187.2494],[113.1226,-8.1483,237.8641],[113.1232,-8.1563,228.7578],[113.1344,-8.1647,184.4514],[113.1323,-8.1687,187.5773],[113.1343,-8.1754,166.2362],[113.1325,-8.1794,173.6243],[113.136,-8.1792,161.6743],[113.1433,-8.1893,138.7174],[113.1453,-8.1888,132.8917],[113.1463,-8.1929,127.7457],[113.1484,-8.1947,123.4635],[113.147,-8.1966,123.5353],[113.1484,-8.1996,109.3121],[113.1519,-8.2025,106.7469],[113.1522,-8.2048,112.5705],[113.1596,-8.2087,89.8121],[113.161,-8.2148,79.348],[113.1633,-8.2158,75.0919],[113.1541,-8.221,97.0207],[113.1551,-8.2228,90.4263],[113.145,-8.2273,86.2661],[113.149,-8.2286,78.4538],[113.1578,-8.2365,68.718],[113.1618,-8.2353,60.5709],[113.17,-8.2373,49.8754],[113.172,-8.2429,38.705],[113.171,-8.247,40.1485],[113.173,-8.25,32.4134],[113.1712,-8.2579,21.981],[113.1756,-8.2652,17.5949],[113.1757,-8.2737,8.4601]]]]}}