{"type":"Feature","properties":{"GID_3":"IDN.34.7.16_1","GID_0":"IDN","country":"Indonesia","GID_1":"IDN.34_1","province":"KalimantanTimur","NL_NAME_1":"NA","GID_2":"IDN.34.7_1","county":"KutaiTimur","NL_NAME_2":"NA","city":"Sangkulirang","VARNAME_3":"NA","NL_NAME_3":"NA","TYPE_3":"Kecamatan","ENGTYPE_3":"Sub-district","CC_3":"6404050","HASC_3":"NA","name":"Sangkulirang.city"},
"geometry":{"type": "MultiPolygon","coordinates": [[[[118.0156,0.7458,0.0],[118.014,0.7442,0.0],[118.011,0.7464,0.0],[118.0088,0.7459,0.0],[118.0047,0.7391,1.5262],[118.0015,0.7382,0.0],[118.0004,0.7404,0.0],[117.9972,0.7352,0.0],[117.9977,0.7289,0.8025],[118.0042,0.7162,0.0],[118.0138,0.7117,0.0],[118.022,0.7239,0.0],[118.0217,0.7371,0.0],[118.0156,0.7458,0.0]]],
[[[117.98,0.8129,15.9217],[117.9838,0.7759,6.6763],[117.99,0.7749,1.5119],[118.0122,0.7762,4.1208],[118.0176,0.7791,5.3657],[118.0245,0.7782,5.6721],[118.0282,0.78,1.0385],[118.0294,0.7847,0.0],[118.0276,0.791,0.0],[118.0298,0.7996,1.3059],[118.0281,0.8024,0.0],[118.0199,0.8034,10.3612],[118.022,0.8058,5.2101],[118.0195,0.8118,6.6517],[118.0194,0.8158,0.0],[118.027,0.8287,4.8737],[118.027,0.832,5.9005],[118.0196,0.8495,2.6367],[118.0202,0.8599,6.3292],[118.0128,0.8813,0.0],[118.0117,0.8836,1.0348],[117.9995,0.8924,21.13],[117.9887,0.9124,2.4266],[117.9867,0.9196,1.0],[117.9783,0.9292,8.2769],[117.9783,0.944,6.5882],[117.9727,0.9484,9.0429],[117.9687,0.9592,8.1313],[117.9715,0.9804,14.2598],[117.9639,0.9856,6.8634],[117.9588,1.0054,4.3033],[117.9511,1.0096,4.1385],[117.9447,1.0216,5.5826],[117.9447,1.0312,4.5323],[117.9407,1.0364,1.0],[117.9295,1.0372,5.411],[117.9279,1.0436,7.2714],[117.9243,1.048,5.4475],[117.9289,1.0495,1.0],[117.9301,1.0457,2.954],[117.9335,1.0494,1.0],[117.9319,1.0537,9.9044],[117.9255,1.0528,9.8832],[117.9216,1.0538,10.2189],[117.92,1.0387,6.0771],[117.9058,1.0176,4.8029],[117.8931,0.9825,37.9539],[117.8926,0.9523,62.5316],[117.9036,0.9237,40.4725],[117.9211,0.9078,32.4974],[117.9634,0.8644,32.7153],[117.9782,0.8249,23.5789],[117.98,0.8129,15.9217]]],
[[[117.9996,0.9037,1.0],[118.0028,0.899,1.0],[118.006,0.8989,1.0],[118.01,0.902,1.0],[118.0071,0.9154,1.5206],[118.0079,0.9275,14.3886],[118.0026,0.9306,1.0],[117.9981,0.9378,1.0],[117.9972,0.9341,14.721],[117.9931,0.9301,6.8628],[117.992,0.9248,1.0],[117.9996,0.9037,1.0]]],
[[[117.9972,0.9743,1.0],[117.9967,0.9693,1.0],[117.9987,0.9654,1.0],[118.0039,0.9618,1.0],[118.0069,0.9635,1.0],[118.0036,0.9687,12.1301],[118.0028,0.9741,2.4438],[118.0051,0.9825,5.8465],[118.0047,0.9875,10.701],[118.0022,0.9897,8.697],[117.9986,0.9902,6.9019],[118.0005,0.9799,10.2182],[117.9972,0.9743,1.0]]],
[[[118.0407,0.7722,1.8643],[118.0453,0.7708,4.9298],[118.0462,0.7718,0.0],[118.046,0.7768,0.0],[118.0419,0.7827,2.9869],[118.0384,0.7792,5.178],[118.0407,0.7722,1.8643]]],
[[[118.0161,0.8906,3.248],[118.0234,0.882,0.0],[118.027,0.8799,0.0],[118.0286,0.8822,0.0],[118.0272,0.8889,0.5],[118.018,0.8953,14.8435],[118.0159,0.8929,13.3022],[118.0161,0.8906,3.248]]],
[[[118.1675,0.89,16.9041],[118.2001,0.9731,50.934],[118.2065,0.9952,50.6499],[118.2143,1.0372,98.8977],[118.2049,1.0851,85.2552],[118.2065,1.1697,123.0149],[118.2012,1.1865,148.2235],[118.196,1.1941,165.5305],[118.176,1.1817,189.2783],[118.1588,1.1685,325.5221],[118.1251,1.1653,361.1519],[118.0489,1.1822,201.5379],[118.0333,1.1882,232.8535],[118.0136,1.2276,173.2736],[117.971,1.2687,341.9777],[117.9593,1.2642,167.8072],[117.889,1.2497,39.8673],[117.8366,1.2296,11.8861],[117.84,1.2118,5.2298],[117.7912,1.2093,23.6856],[117.7989,1.176,26.4234],[117.8067,1.1611,64.4669],[117.8195,1.1433,91.5102],[117.8223,1.1241,33.1499],[117.8294,1.117,30.6594],[117.882,1.1106,5.6719],[117.8979,1.1106,1.0],[117.9019,1.1124,1.0],[117.9155,1.1052,3.8539],[117.9249,1.1046,1.0],[117.9439,1.0896,1.0],[117.9507,1.0796,1.0],[117.9663,1.0692,1.0],[117.9756,1.0659,1.0],[117.9843,1.0592,5.866],[117.9843,1.0484,5.1476],[117.9871,1.0356,2.8954],[117.9959,1.02,11.6965],[117.9907,1.0,1.0],[118.0075,0.9876,3.4137],[118.0046,0.9742,8.9358],[118.0099,0.9648,1.0],[118.0079,0.9616,1.0],[118.0131,0.9536,1.0],[118.0215,0.9476,1.0],[118.0266,0.9518,1.0],[118.0327,0.9492,1.0],[118.0451,0.9472,1.0],[118.0503,0.9424,8.748],[118.0559,0.9352,12.9901],[118.0555,0.9236,5.4987],[118.0511,0.9132,1.0],[118.0612,0.9083,0.5],[118.0638,0.903,2.1292],[118.0909,0.8967,4.0192],[118.1162,0.8882,0.0],[118.1213,0.8885,0.0],[118.152,0.8811,2.5898],[118.1565,0.8786,0.0],[118.1646,0.8777,0.0],[118.1675,0.89,16.9041]]],
[[[117.9483,1.0231,1.0],[117.9507,1.0151,1.0],[117.954,1.0098,1.0],[117.9597,1.0057,2.9309],[117.9709,0.9839,1.0],[117.9749,0.9824,2.1785],[117.9783,0.9745,1.0],[117.9842,0.9735,1.0],[117.9876,0.977,1.0],[117.9846,0.9878,2.416],[117.9797,0.9953,1.0],[117.9803,1.0008,2.2499],[117.9746,1.0119,10.0515],[117.9777,1.0163,1.0],[117.9746,1.0231,9.2909],[117.9638,1.0359,4.9368],[117.9609,1.0351,3.4258],[117.953,1.0416,6.1877],[117.956,1.0408,2.8584],[117.9548,1.0459,6.3283],[117.9483,1.0532,12.3239],[117.9408,1.0567,3.8565],[117.9367,1.0569,2.6832],[117.9352,1.0502,5.4381],[117.9383,1.0483,7.765],[117.9389,1.0426,4.7747],[117.9463,1.0351,1.0],[117.9483,1.0231,1.0]]],
[[[117.9071,1.108,1.0],[117.908,1.1035,1.0],[117.9138,1.0943,1.0],[117.918,1.0915,1.0],[117.9174,1.0977,19.7181],[117.9071,1.108,1.0]]]]}}