{"type":"Feature","properties":{"GID_3":"IDN.9.24.36_1","GID_0":"IDN","country":"Indonesia","GID_1":"IDN.9_1","province":"JawaBarat","NL_NAME_1":"NA","GID_2":"IDN.9.24_1","county":"Sukabumi","NL_NAME_2":"NA","city":"ParungKuda","VARNAME_3":"NA","NL_NAME_3":"NA","TYPE_3":"Kecamatan","ENGTYPE_3":"Sub-district","CC_3":"3202260","HASC_3":"NA","name":"Parung_Kuda.city"},
"geometry":{"type": "MultiPolygon","coordinates": [[[[106.7124,-6.8592,471.8309],[106.7219,-6.8603,445.3049],[106.7257,-6.8636,439.4791],[106.7329,-6.8633,417.5986],[106.7372,-6.8671,410.8304],[106.7414,-6.8679,402.2594],[106.7419,-6.8667,402.2594],[106.747,-6.8691,394.2312],[106.7571,-6.8677,392.2281],[106.7715,-6.8728,383.1407],[106.7714,-6.8708,376.8522],[106.7734,-6.8702,376.4074],[106.7722,-6.8663,384.0558],[106.7701,-6.866,372.9889],[106.771,-6.8627,374.3535],[106.769,-6.8605,385.3829],[106.7705,-6.8597,379.3888],[106.7648,-6.8526,396.8994],[106.7643,-6.8491,389.6989],[106.7618,-6.8482,394.5948],[106.7627,-6.8423,395.5644],[106.7608,-6.8372,407.6298],[106.7639,-6.8345,402.4569],[106.7652,-6.8293,410.3032],[106.7685,-6.8287,406.8025],[106.7702,-6.8225,413.7959],[106.7728,-6.8224,413.016],[106.7719,-6.8212,415.3215],[106.7763,-6.8188,418.0374],[106.7796,-6.8143,418.5225],[106.7752,-6.8101,465.363],[106.7711,-6.8099,459.6564],[106.7723,-6.8073,481.006],[106.7704,-6.8059,463.3767],[106.7709,-6.8027,466.3352],[106.7669,-6.8026,471.2875],[106.7668,-6.7978,480.0324],[106.757,-6.7993,501.9118],[106.7549,-6.8039,487.488],[106.7515,-6.8038,491.8628],[106.7512,-6.8069,476.8809],[106.7498,-6.8075,481.4786],[106.7533,-6.8149,454.1346],[106.7482,-6.8206,450.2094],[106.7407,-6.8333,492.1445],[106.7424,-6.8351,479.9334],[106.7398,-6.8378,420.427],[106.7403,-6.8399,415.9566],[106.7435,-6.8412,409.4804],[106.7448,-6.8469,401.394],[106.7404,-6.8469,438.7618],[106.7365,-6.8445,451.6238],[106.733,-6.8483,415.2085],[106.7309,-6.8476,432.4337],[106.7315,-6.8494,423.9369],[106.7292,-6.8509,430.1047],[106.7246,-6.8499,454.4768],[106.7225,-6.8477,436.6651],[106.7217,-6.8496,475.0176],[106.7141,-6.8487,454.1513],[106.7102,-6.8522,507.7485],[106.7104,-6.8568,494.6169],[106.7124,-6.8592,471.8309]]]]}}