{"type":"Feature","properties":{"GID_3":"IDN.9.12.10_1","GID_0":"IDN","country":"Indonesia","GID_1":"IDN.9_1","province":"JawaBarat","NL_NAME_1":"NA","GID_2":"IDN.9.12_1","county":"Indramayu","NL_NAME_2":"NA","city":"Haurgeulis","VARNAME_3":"NA","NL_NAME_3":"NA","TYPE_3":"Kecamatan","ENGTYPE_3":"Sub-district","CC_3":"3212010","HASC_3":"NA","name":"Haurgeulis.city"},
"geometry":{"type": "MultiPolygon","coordinates": [[[[107.9295,-6.469,28.6174],[107.9297,-6.4656,26.1437],[107.9342,-6.4709,27.4517],[107.9443,-6.4734,27.3018],[107.9483,-6.4818,26.2155],[107.9505,-6.4792,24.7917],[107.9558,-6.4869,27.1428],[107.9589,-6.4868,28.3639],[107.959,-6.4853,28.154],[107.9643,-6.4855,26.4611],[107.9692,-6.4747,24.3163],[107.9674,-6.47,23.0497],[107.9695,-6.4586,21.3654],[107.9732,-6.4553,20.7077],[107.9723,-6.4536,21.1521],[107.9747,-6.4485,19.8842],[107.9809,-6.4426,20.0074],[107.986,-6.4413,18.3596],[107.9865,-6.4385,18.2137],[107.9901,-6.4374,19.7347],[107.9926,-6.4345,17.6385],[107.9945,-6.4293,17.0888],[107.9924,-6.4242,14.6538],[107.9929,-6.4211,18.1654],[107.9592,-6.4175,19.4918],[107.9468,-6.4096,17.316],[107.9429,-6.4045,19.0419],[107.9414,-6.4098,16.8786],[107.9382,-6.4087,17.162],[107.9375,-6.411,17.0812],[107.9342,-6.4103,17.286],[107.9342,-6.4123,18.0034],[107.9323,-6.4132,18.0021],[107.9291,-6.4191,18.3352],[107.9257,-6.4178,19.4589],[107.9241,-6.42,19.86],[107.9222,-6.4198,19.4503],[107.9212,-6.423,19.9223],[107.9173,-6.4269,21.0746],[107.9111,-6.4226,21.6433],[107.9034,-6.4222,21.0145],[107.8966,-6.4195,22.8029],[107.8943,-6.4202,19.4802],[107.8956,-6.4253,24.0766],[107.897,-6.4257,22.9295],[107.8916,-6.4338,23.5185],[107.8927,-6.4389,23.9243],[107.89,-6.4433,24.6347],[107.8948,-6.4489,27.2501],[107.8912,-6.4489,29.1558],[107.893,-6.4524,24.2245],[107.8889,-6.4578,26.2026],[107.8789,-6.4572,24.9594],[107.8789,-6.4577,24.9594],[107.8873,-6.4579,24.6258],[107.888,-6.4598,25.5799],[107.891,-6.4599,26.135],[107.892,-6.4629,26.1363],[107.8951,-6.4627,24.7805],[107.8952,-6.472,25.3925],[107.8992,-6.4716,27.9178],[107.8978,-6.4752,27.4924],[107.8994,-6.4774,27.8706],[107.8965,-6.4804,27.1411],[107.8983,-6.485,26.8555],[107.9029,-6.4824,27.1626],[107.9056,-6.4842,31.6423],[107.9085,-6.4834,31.1796],[107.9106,-6.4856,28.643],[107.9126,-6.4809,29.6798],[107.9265,-6.4778,29.5853],[107.9295,-6.469,28.6174]]]]}}