{"type":"Feature","properties":{"GID_3":"IDN.10.36.15_1","GID_0":"IDN","country":"Indonesia","GID_1":"IDN.10_1","province":"JawaTengah","NL_NAME_1":"NA","GID_2":"IDN.10.36_1","county":"Wonosobo","NL_NAME_2":"NA","city":"Wonosobo","VARNAME_3":"NA","NL_NAME_3":"NA","TYPE_3":"Kecamatan","ENGTYPE_3":"Sub-district","CC_3":"3307090","HASC_3":"NA","name":"Wonosobo.city"},
"geometry":{"type": "MultiPolygon","coordinates": [[[[109.8882,-7.3799,625.9087],[109.8872,-7.3895,593.1946],[109.8894,-7.3911,675.2304],[109.8933,-7.3915,676.6592],[109.8957,-7.3858,707.0159],[109.8999,-7.3837,641.2094],[109.9076,-7.3933,704.4762],[109.9176,-7.395,653.2799],[109.9204,-7.3911,663.0831],[109.9196,-7.3825,690.0906],[109.9272,-7.375,743.6116],[109.9296,-7.3693,779.9835],[109.9333,-7.3674,802.3453],[109.948,-7.3531,961.8464],[109.9629,-7.3438,1183.064],[109.9666,-7.3395,1264.2148],[109.9712,-7.3218,1742.6556],[109.96,-7.3333,1268.7635],[109.9491,-7.339,1081.1184],[109.9361,-7.3488,922.592],[109.9249,-7.3388,897.8813],[109.9213,-7.342,855.8099],[109.9187,-7.3418,851.0645],[109.9132,-7.3346,866.0447],[109.912,-7.3271,884.0406],[109.9065,-7.3296,847.8365],[109.9037,-7.3327,820.2891],[109.8988,-7.3329,801.2816],[109.8971,-7.3349,769.1246],[109.8985,-7.3359,769.1246],[109.8961,-7.3472,727.1373],[109.8974,-7.3503,710.0974],[109.8966,-7.355,699.6481],[109.8893,-7.3652,673.3096],[109.8882,-7.3799,625.9087]]]]}}