{"type":"Feature","properties":{"GID_3":"IDN.17.4.11_1","GID_0":"IDN","country":"Indonesia","GID_1":"IDN.17_1","province":"Lampung","NL_NAME_1":"NA","GID_2":"IDN.17.4_1","county":"LampungTengah","NL_NAME_2":"NA","city":"KotaGajah","VARNAME_3":"NA","NL_NAME_3":"NA","TYPE_3":"Kecamatan","ENGTYPE_3":"Sub-district","CC_3":"1805061","HASC_3":"NA","name":"Kota_Gajah.city"},
"geometry":{"type": "MultiPolygon","coordinates": [[[[105.3032,-5.0452,45.324],[105.3055,-5.043,44.6223],[105.3113,-5.0421,47.0411],[105.3238,-5.0363,44.5801],[105.3282,-5.0323,43.8344],[105.3293,-5.0379,48.386],[105.3384,-5.0357,51.3941],[105.342,-5.0328,48.2228],[105.345,-5.0394,39.1235],[105.3487,-5.0358,35.3843],[105.3504,-5.0364,40.1789],[105.3495,-5.0342,36.0391],[105.3516,-5.0336,37.1757],[105.3512,-5.0311,44.3652],[105.3573,-5.0335,33.92],[105.3585,-5.0305,34.5245],[105.362,-5.0293,36.4903],[105.3643,-5.0304,37.6084],[105.3643,-5.0281,33.0218],[105.3657,-5.029,33.0218],[105.3663,-5.0266,33.6508],[105.3629,-5.0222,41.7286],[105.363,-5.0119,37.2225],[105.3529,-5.0138,45.2657],[105.3541,-5.0088,38.596],[105.3445,-5.0087,39.6661],[105.3439,-5.0072,33.8717],[105.3397,-5.0089,38.8809],[105.3373,-5.012,36.3042],[105.3331,-5.0113,46.3503],[105.3329,-5.0072,45.7455],[105.3231,-5.0067,41.1589],[105.3277,-4.9865,48.4797],[105.3336,-4.9762,40.6686],[105.3399,-4.9723,47.2603],[105.3454,-4.9642,39.1992],[105.349,-4.9648,34.9647],[105.3494,-4.9698,37.5759],[105.3545,-4.9706,36.9636],[105.3564,-4.9677,35.6662],[105.3616,-4.973,37.363],[105.3765,-4.9739,35.1688],[105.3866,-4.9677,35.4364],[105.3952,-4.9688,33.2611],[105.3954,-4.9645,34.4295],[105.3926,-4.9638,34.3095],[105.3928,-4.9602,30.2771],[105.3865,-4.9578,31.5726],[105.3837,-4.9591,32.6729],[105.3766,-4.9564,40.5797],[105.3728,-4.9574,30.9926],[105.3671,-4.9549,29.3178],[105.3643,-4.9553,29.7275],[105.3415,-4.9634,36.9628],[105.3381,-4.963,36.4533],[105.3369,-4.9661,41.9619],[105.3324,-4.9663,38.1221],[105.3293,-4.9706,43.0273],[105.33,-4.9672,41.9487],[105.3279,-4.9649,43.2954],[105.3262,-4.9535,36.3953],[105.3206,-4.9468,43.9006],[105.3189,-4.9397,43.0725],[105.3126,-4.9302,31.9087],[105.3119,-4.9241,34.0622],[105.3073,-4.926,29.808],[105.3033,-4.9235,29.1874],[105.3016,-4.9242,29.7366],[105.3018,-4.9351,30.3157],[105.3057,-4.9407,34.8366],[105.3034,-4.9521,35.7504],[105.3111,-4.964,38.5087],[105.3148,-4.9734,39.8973],[105.3096,-4.9807,46.0825],[105.3012,-4.9809,38.9134],[105.2998,-4.9883,39.7757],[105.2971,-4.9889,41.2614],[105.2884,-4.9864,43.2557],[105.2811,-4.9942,39.1579],[105.2853,-4.9947,39.2016],[105.2868,-4.9987,41.3159],[105.2832,-5.0051,45.6102],[105.2829,-5.0088,42.9688],[105.2894,-5.0124,41.6136],[105.2924,-5.0153,43.9336],[105.2914,-5.0182,43.542],[105.2984,-5.0231,45.5147],[105.2938,-5.0244,51.216],[105.2952,-5.0371,45.7808],[105.2976,-5.04,51.4383],[105.2981,-5.0453,53.8732],[105.3032,-5.0452,45.324]]]]}}