{"type":"Feature","properties":{"GID_3":"IDN.23.10.5_1","GID_0":"IDN","country":"Indonesia","GID_1":"IDN.23_1","province":"Papua","NL_NAME_1":"NA","GID_2":"IDN.23.10_1","county":"KepulauanYapen","NL_NAME_2":"NA","city":"Raimbawi","VARNAME_3":"NA","NL_NAME_3":"NA","TYPE_3":"Distrik","ENGTYPE_3":"District","CC_3":"9408043","HASC_3":"NA","name":"Raimbawi.city"},
"geometry":{"type": "MultiPolygon","coordinates": [[[[137.0539,-1.859,0.0],[137.0524,-1.8547,6.9938],[137.045,-1.8455,0.0],[137.0377,-1.8411,0.0],[137.0334,-1.8345,0.0],[137.0287,-1.8317,2.0255],[137.0165,-1.831,0.0],[136.9911,-1.8371,5.8634],[136.9826,-1.837,7.5213],[136.9727,-1.8346,15.8689],[136.9688,-1.8363,27.0964],[136.9556,-1.8333,11.8253],[136.9504,-1.8365,12.5311],[136.9545,-1.8423,23.0475],[136.968,-1.8449,0.0],[136.9741,-1.8478,7.1373],[136.988,-1.8504,0.0],[136.988,-1.8477,1.6091],[136.9925,-1.8459,24.7405],[137.0004,-1.8503,6.4236],[137.0018,-1.8526,13.3719],[137.0073,-1.8535,11.764099999999999],[137.0132,-1.8576,9.2648],[137.0167,-1.8554,10.8937],[137.023,-1.8592,34.5507],[137.0394,-1.8626,35.9991],[137.0484,-1.8703,1.1653],[137.055,-1.8687,0.0],[137.0563,-1.8668,7.1931],[137.057,-1.8639,13.7806],[137.0539,-1.859,0.0]]],
[[[136.8531,-1.8199,9.7031],[136.8595,-1.8158,5.2103],[136.8693,-1.8144,11.3153],[136.8715,-1.8115,8.5026],[136.8738,-1.801,11.814],[136.8777,-1.7986,5.6348],[136.8825,-1.7974,8.9486],[136.8953,-1.7977,7.0517],[136.9031,-1.7943,0.92],[136.9038,-1.7922,1.322],[136.8989,-1.7871,0.0],[136.8916,-1.7846,21.3159],[136.8869,-1.7807,1.3762],[136.8851,-1.782,8.3257],[136.8806,-1.7782,12.8583],[136.8745,-1.779,7.4827],[136.8645,-1.7765,18.3295],[136.8481,-1.7701,9.486],[136.8019,-1.7479,0.0],[136.7946,-1.7423,0.0],[136.7888,-1.7401,7.528],[136.7871,-1.7426,5.6779],[136.7776,-1.742,6.8592],[136.7726,-1.7475,3.9606],[136.7684,-1.7474,9.0962],[136.7475,-1.7435,13.593],[136.7154,-1.732,3.0989],[136.7115,-1.7335,7.4431],[136.7046,-1.7309,0.0],[136.6936,-1.7318,19.3886],[136.6821,-1.7285,24.8484],[136.6741,-1.7284,29.3879],[136.6695,-1.7263,25.7308],[136.6672,-1.7286,27.323],[136.651,-1.7294,1.1432],[136.644,-1.7266,8.4337],[136.6398,-1.7275,1.196],[136.6365,-1.7251,2.1539],[136.6335,-1.7265,16.3168],[136.6263,-1.7249,10.6013],[136.603,-1.7279,0.0],[136.5901,-1.7256,3.762],[136.595,-1.7315,15.315],[136.597,-1.7391,78.3218],[136.596,-1.7448,72.7231],[136.5992,-1.7465,81.3161],[136.5985,-1.7487,80.6239],[136.601,-1.7496,101.8931],[136.5975,-1.7544,116.0522],[136.5933,-1.755,169.6832],[136.5946,-1.7594,234.0444],[136.5929,-1.7662,276.9059],[136.5984,-1.7808,390.4546],[136.5972,-1.798,685.2113],[136.7167,-1.7851,230.5291],[136.7758,-1.7822,52.8394],[136.7798,-1.7843,41.7853],[136.7807,-1.783,41.7853],[136.7832,-1.7853,42.1363],[136.7855,-1.7843,46.5082],[136.7901,-1.7886,50.4625],[136.791,-1.7863,42.6604],[136.7923,-1.7877,39.2488],[136.7977,-1.7873,30.7161],[136.7979,-1.7927,30.6604],[136.8016,-1.792,30.349],[136.803,-1.7945,35.1173],[136.8064,-1.7961,29.2239],[136.8107,-1.7961,30.695],[136.8133,-1.7997,42.9077],[136.8169,-1.7986,22.6318],[136.8173,-1.8017,26.2925],[136.821,-1.8017,23.7506],[136.8203,-1.8034,31.2852],[136.823,-1.8033,12.588],[136.8243,-1.806,12.2009],[136.8258,-1.8054,9.2869],[136.8267,-1.8083,27.0589],[136.8252,-1.814,21.9627],[136.8324,-1.8206,10.3153],[136.8327,-1.8228,3.8394],[136.8492,-1.8274,0.0],[136.8531,-1.8199,9.7031]]]]}}