{"type":"Feature","properties":{"GID_3":"IDN.27.2.9_1","GID_0":"IDN","country":"Indonesia","GID_1":"IDN.27_1","province":"SulawesiTengah","NL_NAME_1":"NA","GID_2":"IDN.27.2_1","county":"Banggai","NL_NAME_2":"NA","city":"Lobu","VARNAME_3":"NA","NL_NAME_3":"NA","TYPE_3":"Kecamatan","ENGTYPE_3":"Sub-district","CC_3":"7202062","HASC_3":"NA","name":"Lobu.city"},
"geometry":{"type": "MultiPolygon","coordinates": [[[[122.4861,-0.828,160.8027],[122.4974,-0.8343,316.9571],[122.5195,-0.8357,123.5685],[122.5275,-0.8388,250.8058],[122.536,-0.8393,271.7153],[122.5465,-0.845,370.3185],[122.5575,-0.8351,188.8583],[122.5593,-0.8289,195.7873],[122.5566,-0.8127,296.7581],[122.559,-0.7986,233.0866],[122.5595,-0.7797,0.0],[122.5561,-0.7811,0.0],[122.5519,-0.7798,0.0],[122.5469,-0.7822,1.2437],[122.5403,-0.78,0.0],[122.5343,-0.7825,2.556],[122.5316,-0.7809,0.0],[122.5248,-0.786,11.2286],[122.5224,-0.7843,2.3875],[122.5215,-0.7775,0.8478],[122.5097,-0.7669,1.4216],[122.508,-0.7687,0.0],[122.5001,-0.7706,0.3514],[122.4912,-0.7692,0.0],[122.494,-0.7896,22.2741],[122.488,-0.7928,136.7659],[122.4858,-0.7974,36.7771],[122.4709,-0.8071,47.0667],[122.4663,-0.8129,110.0195],[122.4624,-0.8221,94.8699],[122.4861,-0.828,160.8027]]]]}}