{"type":"Feature","properties":{"GID_3":"IDN.22.11.5_1","GID_0":"IDN","country":"Indonesia","GID_1":"IDN.22_1","province":"PapuaBarat","NL_NAME_1":"NA","GID_2":"IDN.22.11_1","county":"TelukWondama","NL_NAME_2":"NA","city":"Rasiey","VARNAME_3":"NA","NL_NAME_3":"NA","TYPE_3":"Distrik","ENGTYPE_3":"District","CC_3":"9103021","HASC_3":"NA","name":"Rasiey.city"},
"geometry":{"type": "MultiPolygon","coordinates": [[[[134.4713,-2.9186,155.9747],[134.4711,-2.9408,220.4098],[134.6544,-2.9391,119.6132],[134.6372,-2.8002,412.5751],[134.5682,-2.8075,988.446],[134.5366,-2.8156,67.4654],[134.5274,-2.8149,22.9192],[134.518,-2.8109,0.0],[134.5175,-2.8203,0.0],[134.5107,-2.8429,21.6343],[134.5089,-2.8374,0.0],[134.4981,-2.8469,6.373],[134.4975,-2.849,6.9082],[134.5,-2.8495,13.0466],[134.4966,-2.8526,23.3379],[134.4941,-2.8539,15.4382],[134.4881,-2.8522,0.0],[134.4876,-2.8545,0.0],[134.4901,-2.8583,6.1082],[134.4962,-2.8638,21.9574],[134.4948,-2.8673,22.1377],[134.4894,-2.8637,24.0854],[134.4848,-2.863,18.6109],[134.4818,-2.8659,19.8308],[134.4722,-2.8677,20.813],[134.4692,-2.8737,96.6879],[134.4694,-2.8811,75.51],[134.4725,-2.8927,131.1308],[134.4713,-2.9186,155.9747]]]]}}