{"type":"Feature","properties":{"GID_3":"IDN.14.5.12_1","GID_0":"IDN","country":"Indonesia","GID_1":"IDN.14_1","province":"KalimantanTengah","NL_NAME_1":"NA","GID_2":"IDN.14.5_1","county":"Kapuas","NL_NAME_2":"NA","city":"Mantangai","VARNAME_3":"NA","NL_NAME_3":"NA","TYPE_3":"Kecamatan","ENGTYPE_3":"Sub-district","CC_3":"6203150","HASC_3":"NA","name":"Mantangai.city"},
"geometry":{"type": "MultiPolygon","coordinates": [[[[114.4188,-2.6856,3.0913],[114.5189,-2.6847,4.679],[114.5225,-2.6634,4.4393],[114.5988,-2.5627,3.2747],[114.5541,-2.5463,3.7629],[114.6818,-2.2332,5.504],[114.7157,-2.1444,22.2166],[114.7181,-2.115,21.336],[114.7174,-2.0976,22.3199],[114.7064,-2.042,24.0903],[114.6804,-2.041,26.4943],[114.6043,-2.0423,29.1674],[114.5371,-2.0486,32.9967],[114.5274,-2.0421,31.5888],[114.4947,-1.9619,19.4347],[114.4744,-1.9321,7.7501],[114.4578,-1.9118,17.9199],[114.431,-1.8712,29.3582],[114.4072,-1.8217,38.6828],[114.3968,-1.689,50.5269],[114.3791,-1.5661,70.8529],[114.3416,-1.5321,64.3398],[114.3236,-1.5198,78.1627],[114.3117,-1.5161,75.6576],[114.3117,-1.5017,75.0101],[114.3166,-1.4952,84.5416],[114.3154,-1.4693,83.0987],[114.3096,-1.4562,87.237],[114.3048,-1.4288,89.0614],[114.302,-1.4238,86.7749],[114.2882,-1.4159,85.6765],[114.2653,-1.4073,93.5138],[114.2594,-1.401,94.612799999999993],[114.2606,-1.3862,88.9861],[114.2586,-1.3654,93.9908],[114.2563,-1.3509,99.2186],[114.2518,-1.3451,98.2938],[114.2444,-1.3415,97.8262],[114.2109,-1.3326,94.7243],[114.2054,-1.3267,83.215],[114.2024,-1.3124,104.9914],[114.1821,-1.2941,103.8897],[114.16,-1.2835,109.9957],[114.1488,-1.2805,120.6936],[114.1377,-1.2724,118.4506],[114.1325,-1.2483,119.0779],[114.1204,-1.2381,105.0958],[114.1176,-1.2313,114.5856],[114.0821,-1.1872,99.613],[114.0231,-1.1439,79.5507],[113.9696,-1.1123,62.7304],[113.9973,-1.2299,120.3969],[113.9949,-1.2829,83.0094],[113.9971,-1.3625,88.9939],[114.0083,-1.475,85.9708],[113.9937,-1.5081,80.5695],[113.9693,-1.5416,70.4857],[113.9834,-1.5563,63.8713],[113.9918,-1.5794,71.8366],[113.9904,-1.6209,59.343],[113.9839,-1.6496,46.8856],[113.9713,-1.6726,44.946],[113.9814,-1.6945,60.645],[113.9844,-1.7598,55.7991],[113.9892,-1.7972,48.9624],[113.9985,-1.8327,33.3953],[114.0159,-1.8694,51.1497],[114.0209,-1.9033,46.8148],[114.0326,-1.9243,31.195],[114.0727,-1.9657,48.1664],[114.0985,-1.979,45.9509],[114.1166,-2.0002,38.6704],[114.1335,-2.0404,43.9319],[114.1368,-2.0653,40.4715],[114.1298,-2.1013,41.2245],[114.1258,-2.157,27.2948],[114.1338,-2.2188,22.6069],[114.1613,-2.2476,24.0929],[114.2157,-2.2682,23.403],[114.252,-2.2939,25.1294],[114.276,-2.3316,24.8238],[114.2961,-2.4324,20.9411],[114.3178,-2.5236,9.5595],[114.3313,-2.6372,4.5402],[114.3339,-2.6876,4.5384],[114.4167,-2.6877,4.6995],[114.4188,-2.6856,3.0913]]]]}}