{"type":"Feature","properties":{"GID_3":"IDN.27.1.3_1","GID_0":"IDN","country":"Indonesia","GID_1":"IDN.27_1","province":"SulawesiTengah","NL_NAME_1":"NA","GID_2":"IDN.27.1_1","county":"BanggaiKepulauan","NL_NAME_2":"NA","city":"BanggaiUtara","VARNAME_3":"NA","NL_NAME_3":"NA","TYPE_3":"Kecamatan","ENGTYPE_3":"Sub-district","CC_3":"7201021","HASC_3":"NA","name":"Banggai_Utara.city"},
"geometry":{"type": "MultiPolygon","coordinates": [[[[123.4983,-1.5286,3.5395],[123.4951,-1.533,4.2023],[123.4891,-1.532,0.8273],[123.4889,-1.5335,8.0479],[123.4839,-1.5358,1.3248],[123.4795,-1.5461,0.0],[123.4916,-1.5465,143.454],[123.5069,-1.5501,140.1552],[123.5148,-1.5551,121.0568],[123.5224,-1.5697,119.1441],[123.5289,-1.5767,69.1985],[123.5568,-1.5815,10.4513],[123.5545,-1.5652,0.0],[123.5558,-1.5601,1.559],[123.5592,-1.5577,9.4274],[123.5591,-1.5533,19.2177],[123.5609,-1.5517,2.7002],[123.562,-1.5524,2.7002],[123.5619,-1.5498,0.0],[123.5635,-1.5499,0.0],[123.5638,-1.5483,10.7134],[123.5613,-1.547,0.0],[123.5622,-1.5439,5.4146],[123.5586,-1.5413,12.625],[123.5585,-1.5378,7.7752],[123.5598,-1.5371,7.7752],[123.5572,-1.536,6.8256],[123.5575,-1.533,12.5012],[123.5529,-1.5279,0.0],[123.5504,-1.5202,7.4901],[123.55,-1.5125,0.0],[123.547,-1.5097,36.6737],[123.5456,-1.5037,3.0502],[123.5478,-1.4955,14.1173],[123.5471,-1.4912,1.2616],[123.5351,-1.484,2.7251],[123.5317,-1.4772,1.9947],[123.5245,-1.4812,0.0],[123.5217,-1.4867,4.074],[123.5233,-1.4923,9.768],[123.5265,-1.493,0.0],[123.5229,-1.4893,5.6798],[123.5256,-1.4901,1.8431],[123.5244,-1.4856,5.3324],[123.5269,-1.4849,1.8283],[123.5254,-1.4872,6.6628],[123.5264,-1.4895,7.0451],[123.5276,-1.4906,1.5571],[123.5295,-1.4892,2.5929],[123.5284,-1.491,1.5571],[123.5307,-1.4915,2.3244],[123.5284,-1.4939,0.8987],[123.5312,-1.4943,1.8358],[123.5302,-1.4992,6.9991],[123.5282,-1.4984,2.3599],[123.5271,-1.5004,12.5483],[123.5228,-1.4984,0.0],[123.5241,-1.501,3.7184],[123.5258,-1.5003,12.5483],[123.5258,-1.5021,7.7058],[123.5282,-1.503,32.3804],[123.5266,-1.5039,3.8764],[123.5283,-1.5084,23.6572],[123.5267,-1.5084,3.0452],[123.5249,-1.511,4.9243],[123.5216,-1.5112,4.3073],[123.5167,-1.5077,8.3344],[123.5133,-1.4986,1.883],[123.5057,-1.4972,3.1732],[123.4994,-1.5076,0.0],[123.4986,-1.5124,5.9795],[123.5003,-1.5187,0.0],[123.5001,-1.5269,0.0],[123.4983,-1.5286,3.5395]]]]}}