{"type":"Feature","properties":{"GID_3":"IDN.29.12.5_1","GID_0":"IDN","country":"Indonesia","GID_1":"IDN.29_1","province":"SulawesiUtara","NL_NAME_1":"NA","GID_2":"IDN.29.12_1","county":"MinahasaUtara","NL_NAME_2":"NA","city":"Kauditan","VARNAME_3":"NA","NL_NAME_3":"NA","TYPE_3":"Kecamatan","ENGTYPE_3":"Sub-district","CC_3":"7106020","HASC_3":"NA","name":"Kauditan.city"},
"geometry":{"type": "MultiPolygon","coordinates": [[[[124.9736,1.3076,1049.0532],[124.975,1.3066,994.4092],[124.9773,1.3097,983.2555],[124.9818,1.3105,1034.6593],[124.9825,1.313,1040.382],[124.9889,1.3196,1007.1058],[124.9881,1.3238,915.7242],[124.9899,1.3276,926.3254],[124.9979,1.3278,865.5867],[125.0018,1.3226,799.022],[125.0029,1.331,632.086],[125.0084,1.3398,499.354],[125.0153,1.3461,326.0325],[125.0242,1.3473,413.432],[125.0275,1.3674,262.4854],[125.0412,1.3664,133.1961],[125.0474,1.3734,87.3836],[125.0518,1.3741,72.5977],[125.0529,1.3817,78.6293],[125.0582,1.3951,150.3237],[125.0604,1.3969,130.39],[125.0626,1.4091,307.0638],[125.0702,1.4261,346.7369],[125.0797,1.4157,203.861],[125.0812,1.4114,173.8296],[125.088,1.4104,133.893],[125.0904,1.4175,145.3417],[125.0853,1.4271,218.1622],[125.0803,1.424,240.3472],[125.0782,1.4272,289.4081],[125.0759,1.4476,399.1704],[125.0729,1.4531,400.4888],[125.0673,1.4522,540.2015],[125.055,1.4543,815.0579],[125.0483,1.4533,1039.1047],[125.0301,1.4545,1951.8579],[125.0308,1.4529,1960.3572],[125.025,1.4435,1303.2715],[125.02,1.4387,978.3735],[125.0111,1.4249,557.8553],[125.0014,1.4151,313.0876],[124.9896,1.4083,231.3003],[124.9875,1.4043,211.7121],[124.9824,1.4011,199.3922],[124.985,1.3977,191.3758],[124.9845,1.395,194.5803],[124.9801,1.3899,204.4873],[124.9792,1.384,198.9514],[124.9761,1.3821,205.7817],[124.9716,1.3738,234.6335],[124.9659,1.3682,311.4819],[124.9625,1.3599,552.8687],[124.974,1.3484,658.8983],[124.9736,1.3421,754.2613],[124.9772,1.3376999999999999,797.7598],[124.977,1.3335,726.5711],[124.9736,1.328,900.3779],[124.9684,1.3218,941.0698],[124.9644,1.3205,959.4536],[124.9701,1.3073,1060.376],[124.9714,1.3089,1020.5856],[124.9737,1.3087,1049.0532],[124.9736,1.3076,1049.0532]]]]}}