{"type":"Feature","properties":{"GID_3":"IDN.16.3.3_1","GID_0":"IDN","country":"Indonesia","GID_1":"IDN.16_1","province":"KepulauanRiau","NL_NAME_1":"NA","GID_2":"IDN.16.3_1","county":"Karimun","NL_NAME_2":"NA","city":"Karimun","VARNAME_3":"NA","NL_NAME_3":"NA","TYPE_3":"Kecamatan","ENGTYPE_3":"Sub-district","CC_3":"2101030","HASC_3":"NA","name":"Karimun.city"},
"geometry":{"type": "MultiPolygon","coordinates": [[[[103.3715,0.9009,2.2974],[103.3693,0.9015,5.0611],[103.3678,0.9058,0.0],[103.3654,0.906,0.0],[103.364,0.9008,3.3566],[103.3655,0.8971,0.3352],[103.3732,0.898,2.528],[103.3715,0.9009,2.2974]]],
[[[103.3602,0.9117,17.8445],[103.3578,0.9126,0.8646],[103.3581,0.9045,1.4875],[103.3629,0.9081,4.2666],[103.3602,0.9117,17.8445]]],
[[[103.3988,0.9084,0.0],[103.4026,0.9062,0.0],[103.405,0.911,1.0185],[103.4012,0.9118,7.6234],[103.3983,0.9102,0.0],[103.3988,0.9084,0.0]]],
[[[103.3547,0.9162,0.513],[103.3537,0.9153,0.7801],[103.3544,0.914,0.7801],[103.3549,0.9147,0.7801],[103.3547,0.9162,0.513]]],
[[[103.3491,0.9046,0.1731],[103.3487,0.9047,0.1731],[103.3485,0.9029,0.0],[103.349,0.9033,0.0],[103.3491,0.9046,0.1731]]],
[[[103.3434,0.913,0.847],[103.3384,0.9167,3.7299],[103.3364,0.9155,0.0],[103.3374,0.911,2.9284],[103.3343,0.905,7.1115],[103.3327,0.9047,7.1115],[103.3346,0.9031,1.3617],[103.3333,0.9005,3.492],[103.3343,0.8989,2.6316],[103.3402,0.894,0.0],[103.344,0.9118,1.427],[103.3434,0.913,0.847]]],
[[[103.3413,0.915,2.2591],[103.3427,0.9157,3.2326],[103.3428,0.9168,3.2326],[103.3405,0.9166,2.9587],[103.3413,0.915,2.2591]]],
[[[103.3444,0.9196,0.1387],[103.3439,0.9197,0.1387],[103.3437,0.9193,0.1387],[103.3444,0.9191,0.1387],[103.3444,0.9196,0.1387]]],
[[[103.3486,0.9224,6.3906],[103.3506,0.9215,0.0],[103.3511,0.9232,7.9385],[103.3499,0.9242,1.272],[103.3486,0.9224,6.3906]]],
[[[103.3464,0.9265,0.5038],[103.3481,0.9271,0.0],[103.3481,0.9278,0.0],[103.3462,0.9276,1.0398],[103.3464,0.9265,0.5038]]],
[[[103.3394,0.9276,27.5151],[103.3422,0.9269,0.0],[103.3442,0.9298,6.2181],[103.3417,0.9312,18.6774],[103.3388,0.9289,-0.0008],[103.3394,0.9276,27.5151]]],
[[[103.3367,0.9364,0.0],[103.3371,0.9358,0.0],[103.3379,0.9357,0.0],[103.3377,0.9363,0.0],[103.3367,0.9364,0.0]]],
[[[103.3436,0.9386,0.0701],[103.3446,0.9384,0.0701],[103.3448,0.9393,0.6655],[103.3435,0.9392,0.6655],[103.3436,0.9386,0.0701]]],
[[[103.3871,0.9247,1.7513],[103.388,0.9241,1.7513],[103.3888,0.9244,1.0371],[103.3879,0.9258,1.2431],[103.3871,0.9247,1.7513]]],
[[[103.3859,0.9254,5.9748],[103.3857,0.9277,1.2876],[103.3805,0.9247,1.9361],[103.3855,0.9233,0.0],[103.3859,0.9254,5.9748]]],
[[[103.4183,0.9494,0.7711],[103.4168,0.9499,0.0],[103.4172,0.946,12.5494],[103.4131,0.9408,5.6264],[103.4089,0.9407,6.5315],[103.4153,0.9326,5.7919],[103.4123,0.9202,1.456],[103.4146,0.9167,0.0],[103.4197,0.9133,0.0],[103.4258,0.9161,0.0],[103.4394,0.9312,3.344],[103.4362,0.9376,0.0],[103.4295,0.9448,0.8969],[103.4183,0.9494,0.7711]]],
[[[103.3732,0.931,0.9062],[103.3746,0.931,0.0],[103.3753,0.9349,0.0],[103.3725,0.9325,1.6517],[103.3732,0.931,0.9062]]],
[[[103.4417,0.9381,6.0362],[103.4394,0.9377,1.7159],[103.4391,0.9358,2.8404],[103.4414,0.9283,0.0],[103.4441,0.9248,4.0976],[103.4536,0.9232,0.0],[103.4612,0.9251,0.0],[103.4609,0.9296,4.6272],[103.4571,0.9341,2.1574],[103.4482,0.9353,7.7147],[103.4417,0.9381,6.0362]]],
[[[103.4456,0.9608,3.4453],[103.437,0.9614,3.6141],[103.433,0.9583,5.8356],[103.4277,0.958,3.1611],[103.4265,0.9561,3.9889],[103.4302,0.9541,10.6887],[103.4387,0.9408,5.2663],[103.4481,0.9363,3.1126],[103.4565,0.9357,19.9648],[103.4616,0.9302,4.6272],[103.4638,0.9248,2.3413],[103.4759,0.9202,0.0],[103.4784,0.9241,7.308],[103.4766,0.9338,7.3829],[103.478,0.9354,2.0095],[103.4758,0.9393,4.3177],[103.4767,0.9437,14.1359],[103.4736,0.9497,0.8321],[103.4698,0.951,3.7187],[103.4701,0.9526,3.1167],[103.463,0.9592,0.0511],[103.4558,0.9573,1.1421],[103.4456,0.9608,3.4453]]],
[[[103.4944,0.9447,1.6941],[103.4943,0.9499,3.806],[103.4897,0.95,4.5267],[103.4886,0.9468,2.1341],[103.4897,0.9428,0.7828],[103.4944,0.9447,1.6941]]],
[[[103.4963,0.9511,0.0],[103.4943,0.9537,5.6436],[103.4928,0.9526,1.0538],[103.4963,0.9496,0.0],[103.4963,0.9511,0.0]]],
[[[103.4431,1.0011,3.2103],[103.4344,1.0111,2.236],[103.4285,1.01,5.5636],[103.4262,1.0051,31.1907],[103.4243,1.0052,8.4995],[103.4181,1.0106,14.3603],[103.4178,1.0159,15.1319],[103.4153,1.0159,18.3145],[103.4084,1.0022,18.376],[103.4107,0.9924,1.172],[103.4152,0.9922,0.0],[103.4167,0.9963,4.1805],[103.4153,0.9971,4.2089],[103.418,0.998,5.1307],[103.419,0.9962,1.6712],[103.4205,0.9967,3.9636],[103.4183,0.995,2.9906],[103.4181,0.9925,0.304],[103.4208,0.9937,0.0],[103.4263,0.9927,4.8184],[103.4375,0.9876,1.7774],[103.4462,0.9941,0.0],[103.4431,1.0011,3.2103]]]]}}