{"type":"Feature","properties":{"GID_3":"IDN.1.10.23_1","GID_0":"IDN","country":"Indonesia","GID_1":"IDN.1_1","province":"Aceh","NL_NAME_1":"NA","GID_2":"IDN.1.10_1","county":"AcehTimur","NL_NAME_2":"NA","city":"SimpangUlim","VARNAME_3":"NA","NL_NAME_3":"NA","TYPE_3":"Kecamatan","ENGTYPE_3":"Sub-district","CC_3":"1105180","HASC_3":"NA","name":"Simpang_Ulim.city"},
"geometry":{"type": "MultiPolygon","coordinates": [[[[97.547,5.0674,7.3207],[97.550299999999993,5.0642,5.0145],[97.5527,5.0695,6.1123],[97.5589,5.0665,10.1613],[97.5632,5.0623,6.993],[97.568,5.0647,5.6258],[97.5702,5.0617,6.3845],[97.5726,5.0639,6.6218],[97.5719,5.0713,6.1655],[97.5733,5.0743,4.0999],[97.5783,5.075,6.767],[97.5821,5.0731,4.8026],[97.5853,5.0748,7.4406],[97.5903,5.0745,5.2862],[97.5983,5.0782,4.9184],[97.6007,5.0806,6.036],[97.6045,5.0934,4.4591],[97.606,5.094,3.341],[97.6094,5.0899,4.0796],[97.6146,5.0879,3.0423],[97.6149,5.0855,2.2875],[97.6125,5.0836,5.2116],[97.6149,5.0813,3.9164],[97.6203,5.0837,2.9446],[97.6171,5.0887,2.3462],[97.621,5.0956,6.5696],[97.6239,5.0912,1.9526],[97.6331,5.0855,1.1431],[97.629,5.1035,1.8864],[97.6394,5.1096,1.5276],[97.6493,5.1118,1.6884],[97.6524,5.1184,0.0],[97.6367,5.1287,2.7584],[97.6136,5.1318,1.9193],[97.5909,5.1445,0.0],[97.593,5.1468,1.2349],[97.5921,5.1487,1.149],[97.577,5.1661,0.0],[97.5748,5.1661,0.5931],[97.574,5.1637,0.0],[97.5764,5.1555,0.8716],[97.5756,5.1536,0.6284],[97.5682,5.1539,0.662],[97.5633,5.1584,0.7624],[97.5579,5.156,0.9138],[97.5548,5.16,0.7906],[97.5511,5.1598,0.8499],[97.5505,5.1585,1.1786],[97.5543,5.1538,1.0427],[97.5598,5.1514,2.3701],[97.5591,5.148,1.0176],[97.5763,5.1405,0.5],[97.5764,5.1369,0.5],[97.5695,5.1343,0.5],[97.5618,5.1261,0.5],[97.5591,5.1335,0.9639],[97.557,5.1313,0.5],[97.5582,5.128,0.6389],[97.5569,5.1265,0.5],[97.5525,5.1296,0.9871],[97.5504,5.1279,0.7929],[97.5525,5.1255,0.7879],[97.5504,5.124,0.5],[97.5513,5.122,0.5],[97.5481,5.1195,0.5],[97.5449,5.1182,0.6059],[97.5416,5.1197,1.1073],[97.5389,5.1189,0.875],[97.5374,5.1209,0.75],[97.5348,5.1188,0.7422],[97.5322,5.1194,1.4868],[97.5283,5.1118,1.7518],[97.5245,5.0966,2.8048],[97.5093,5.0987,10.5272],[97.5087,5.0945,10.8621],[97.5102,5.09,11.1586],[97.517,5.0899,4.9274],[97.5183,5.0812,6.6696],[97.5228,5.0812,13.1554],[97.5237,5.0854,5.7337],[97.5308,5.0829,4.3534],[97.5308,5.0803,4.657],[97.539,5.0792,4.2623],[97.5395,5.0726,4.9137],[97.5421,5.0725,5.8268],[97.5424,5.066,4.0],[97.547,5.0674,7.3207]]]]}}