{"type":"Feature","properties":{"GID_3":"IDN.9.5.5_1","GID_0":"IDN","country":"Indonesia","GID_1":"IDN.9_1","province":"JawaBarat","NL_NAME_1":"NA","GID_2":"IDN.9.5_1","county":"Bogor","NL_NAME_2":"NA","city":"Ciampea","VARNAME_3":"NA","NL_NAME_3":"NA","TYPE_3":"Kecamatan","ENGTYPE_3":"Sub-district","CC_3":"3201050","HASC_3":"NA","name":"Ciampea.city"},
"geometry":{"type": "MultiPolygon","coordinates": [[[[106.6893,-6.6036,289.5197],[106.6928,-6.604,290.1775],[106.6948,-6.6069,304.4523],[106.6972,-6.6065,303.6669],[106.6973,-6.604,286.4341],[106.7009,-6.6028,272.2427],[106.7025,-6.596,256.7529],[106.7085,-6.5899,227.752],[106.713,-6.5903,226.7596],[106.7108,-6.6017,257.2409],[106.7155,-6.6036,264.382],[106.7184,-6.5942,223.671],[106.7201,-6.5958,226.7961],[106.7211,-6.5945,216.7899],[106.7199,-6.5904,213.9029],[106.7224,-6.5893,208.6973],[106.7212,-6.5852,206.1033],[106.722,-6.5823,195.7117],[106.7239,-6.5824,198.1765],[106.7221,-6.5804,193.3665],[106.7226,-6.5788,194.1421],[106.7253,-6.578,194.0597],[106.7272,-6.5719,183.3442],[106.7289,-6.5724,181.2994],[106.7294,-6.5694,177.7381],[106.7277,-6.5704,185.5487],[106.7276,-6.5684,180.2224],[106.7295,-6.5669,176.7541],[106.7282,-6.565,176.1429],[106.7241,-6.5659,179.8202],[106.7222,-6.561,179.0228],[106.7163,-6.557,170.2406],[106.7132,-6.5518,165.9906],[106.7155,-6.5477,149.4943],[106.7144,-6.5447,133.6918],[106.7121,-6.5448,135.417],[106.7126,-6.5425,136.3447],[106.7098,-6.5429,136.8308],[106.7063,-6.5412,129.1407],[106.7061,-6.5391,144.4362],[106.697,-6.5367,144.4058],[106.6946,-6.5312,114.7031],[106.6926,-6.5306,133.3599],[106.6927,-6.5281,124.7149],[106.69,-6.5309,129.4553],[106.6904,-6.5342,128.6703],[106.6889,-6.5352,135.9079],[106.6869,-6.534,134.4265],[106.6849,-6.5365,132.6622],[106.6858,-6.5386,134.1275],[106.6834,-6.541,136.1904],[106.6808,-6.5496,219.6483],[106.6798,-6.5545,255.4932],[106.6842,-6.5596,176.6081],[106.6822,-6.5621,189.6809],[106.686,-6.5626,178.1335],[106.6852,-6.5654,185.9271],[106.6801,-6.5693,198.2714],[106.6809,-6.5728,206.4541],[106.6775,-6.5731,227.3739],[106.6795,-6.5811,230.3573],[106.6783,-6.5825,240.2076],[106.6764,-6.5773,222.9447],[106.6743,-6.5763,223.4717],[106.6727,-6.5799,228.7141],[106.6743,-6.5826,231.373],[106.6732,-6.5865,247.3573],[106.6746,-6.5901,257.3154],[106.6781,-6.5918,265.272],[106.6802,-6.5967,278.6193],[106.6794,-6.6086,316.3377],[106.6774,-6.6086,315.1083],[106.6767,-6.6155,346.4127],[106.6801,-6.6191,360.0304],[106.6801,-6.6224,366.7917],[106.6846,-6.6296,412.8763],[106.684,-6.6212,363.6059],[106.6882,-6.6161,336.9501],[106.687,-6.6104,322.5515],[106.6893,-6.6036,289.5197]]]]}}