{"type":"Feature","properties":{"GID_3":"IDN.4.8.29_1","GID_0":"IDN","country":"Indonesia","GID_1":"IDN.4_1","province":"Banten","NL_NAME_1":"NA","GID_2":"IDN.4.8_1","county":"Tangerang","NL_NAME_2":"NA","city":"Tigaraksa","VARNAME_3":"NA","NL_NAME_3":"NA","TYPE_3":"Kecamatan","ENGTYPE_3":"Sub-district","CC_3":"3603020","HASC_3":"NA","name":"Tigaraksa.city"},
"geometry":{"type": "MultiPolygon","coordinates": [[[[106.4311,-6.3132,42.613],[106.4294,-6.3152,46.8191],[106.4294,-6.3251,51.416],[106.4309,-6.3259,52.8344],[106.434,-6.3235,47.0468],[106.4357,-6.3198,44.1393],[106.4416,-6.3193,41.8283],[106.4427,-6.3252,43.8959],[106.4442,-6.3251,48.3422],[106.4644,-6.3089,45.693],[106.4666,-6.3048,36.3838],[106.4882,-6.2938,45.8088],[106.4899,-6.2871,36.9438],[106.5,-6.29,32.944],[106.5044,-6.287,23.7385],[106.5083,-6.2886,23.7164],[106.5063,-6.2874,23.3938],[106.507,-6.2858,23.9642],[106.5051,-6.2853,23.1326],[106.5072,-6.2843,24.9927],[106.5059,-6.2826,22.9931],[106.5073,-6.2818,22.9931],[106.5052,-6.2811,22.8276],[106.5049,-6.2793,26.8967],[106.5062,-6.2783,22.9028],[106.5082,-6.2796,22.2798],[106.5092,-6.2773,22.5332],[106.5098,-6.2787,22.1826],[106.5117,-6.277,22.0878],[106.5109,-6.2749,22.0935],[106.5124,-6.2747,22.3939],[106.5097,-6.2734,25.2969],[106.5097,-6.2703,22.4233],[106.5078,-6.2709,22.4233],[106.5077,-6.269,21.9421],[106.505,-6.2684,21.5585],[106.5049,-6.2669,22.333],[106.5028,-6.2695,20.816],[106.5007,-6.2666,24.6571],[106.5024,-6.2661,21.1216],[106.5001,-6.2645,21.1186],[106.5017,-6.2637,20.9173],[106.5008,-6.2601,20.7739],[106.499,-6.2613,19.609],[106.4987,-6.2594,21.3569],[106.4967,-6.2586,20.0746],[106.4973,-6.257,20.9389],[106.4954,-6.2575,22.7289],[106.4955,-6.2556,20.784],[106.4972,-6.2555,20.784],[106.4946,-6.2546,19.3755],[106.4958,-6.2527,21.2421],[106.4936,-6.2522,18.8291],[106.4964,-6.2517,21.2421],[106.4939,-6.2502,18.8498],[106.4957,-6.2479,20.7177],[106.4923,-6.2493,18.85],[106.4931,-6.247,20.0438],[106.4908,-6.2481,21.118],[106.4898,-6.2456,21.2785],[106.4881,-6.2466,22.1909],[106.4898,-6.2445,20.3658],[106.4882,-6.2439,21.0243],[106.4888,-6.2417,18.5689],[106.4851,-6.2439,16.126],[106.4856,-6.2409,17.088],[106.483,-6.2415,15.8269],[106.4855,-6.2389,22.2771],[106.4795,-6.2357,17.2661],[106.4812,-6.2336,16.8984],[106.4839,-6.234,16.5048],[106.4782,-6.2284,15.2549],[106.4805,-6.2266,15.6739],[106.4773,-6.2262,16.3393],[106.4794,-6.2251,15.2532],[106.4784,-6.2242,15.4641],[106.4794,-6.2221,14.4802],[106.4774,-6.2216,15.3533],[106.4757,-6.2163,17.0059],[106.477,-6.2147,15.6111],[106.4782,-6.2164,13.8361],[106.479,-6.2154,19.4467],[106.4764,-6.212,14.099],[106.4773,-6.2098,14.8227],[106.4791,-6.2099,21.6267],[106.4784,-6.2058,14.1745],[106.4768,-6.2055,12.4694],[106.4783,-6.2029,15.704],[106.4766,-6.2031,13.1284],[106.476,-6.2011,14.5954],[106.4757,-6.2034,13.1284],[106.4735,-6.2031,13.2692],[106.4736,-6.1999,13.0547],[106.4705,-6.2009,13.1167],[106.4721,-6.1989,14.5492],[106.4686,-6.1939,13.3107],[106.4671,-6.1961,10.9165],[106.4685,-6.2015,15.1569],[106.4663,-6.2036,13.7076],[106.4651,-6.2077,12.907],[106.4666,-6.2089,20.0242],[106.4642,-6.2162,13.4423],[106.4568,-6.2156,15.3654],[106.4514,-6.2221,12.8562],[106.45,-6.2293,13.8092],[106.4467,-6.2298,14.8856],[106.4456,-6.2321,14.9959],[106.4429,-6.2314,14.9626],[106.4426,-6.2329,14.9626],[106.4384,-6.233,15.5844],[106.4372,-6.236,19.9526],[106.4394,-6.2401,16.5166],[106.4385,-6.2493,17.5078],[106.4411,-6.2559,19.6549],[106.4399,-6.2587,19.556],[106.4466,-6.2618,23.2173],[106.4535,-6.2582,24.5524],[106.457,-6.2616,24.8678],[106.4565,-6.2641,25.92],[106.4587,-6.2655,23.7199],[106.4578,-6.2665,32.8338],[106.4601,-6.268,31.0173],[106.461,-6.271,33.2706],[106.4646,-6.2723,29.8698],[106.465,-6.2754,28.1523],[106.4634,-6.2752,27.4908],[106.4622,-6.2823,28.8979],[106.4609,-6.2829,28.8979],[106.4622,-6.2852,29.5905],[106.4608,-6.2871,30.4001],[106.4615,-6.2893,31.099],[106.4505,-6.2902,42.2595],[106.447,-6.2933,40.1064],[106.4424,-6.2937,37.0891],[106.4416,-6.2917,31.9897],[106.4278,-6.2949,48.2653],[106.4256,-6.2982,43.3999],[106.4282,-6.3016,38.7476],[106.4327,-6.302,48.345],[106.4351,-6.3089,51.1567],[106.4345,-6.3115,44.3685],[106.4311,-6.3132,42.613]]]]}}