{"type":"Feature","properties":{"GID_3":"IDN.10.35.26_1","GID_0":"IDN","country":"Indonesia","GID_1":"IDN.10_1","province":"JawaTengah","NL_NAME_1":"NA","GID_2":"IDN.10.35_1","county":"Wonogiri","NL_NAME_2":"NA","city":"Wuryantoro","VARNAME_3":"NA","NL_NAME_3":"NA","TYPE_3":"Kecamatan","ENGTYPE_3":"Sub-district","CC_3":"3312110","HASC_3":"NA","name":"Wuryantoro.city"},
"geometry":{"type": "MultiPolygon","coordinates": [[[[110.8172,-7.9455,210.228],[110.8249,-7.9471,298.0109],[110.825,-7.9444,309.059],[110.8277,-7.9429,287.525],[110.8296,-7.9363,200.197],[110.8311,-7.9357,217.9977],[110.8355,-7.9385,174.4955],[110.8428,-7.94,160.7277],[110.8436,-7.942,155.4054],[110.8404,-7.9437,162.6606],[110.8452,-7.9466,152.5426],[110.845,-7.9479,152.5426],[110.8498,-7.9488,149.4188],[110.849,-7.9509,147.3943],[110.8565,-7.9518,143.1544],[110.8588,-7.9483,138.9697],[110.861,-7.9514,139.4775],[110.864,-7.9504,139.7382],[110.8658,-7.9524,136.4005],[110.8714,-7.9518,134.8279],[110.8731,-7.9505,134.5],[110.8734,-7.9471,134.5],[110.8698,-7.9467,141.6761],[110.8752,-7.9451,134.5],[110.8716,-7.9425,140.4244],[110.8735,-7.9412,143.1088],[110.8759,-7.9426,134.5],[110.875,-7.9402,135.8188],[110.8783,-7.9405,136.4339],[110.8785,-7.9375,140.5089],[110.8819,-7.9403,134.5],[110.8849,-7.9364,134.5],[110.885,-7.9329,134.5],[110.8803,-7.9314,134.5],[110.8782,-7.9336,137.3776],[110.8684,-7.9362,137.5367],[110.87,-7.9339,143.9081],[110.8725,-7.9338,134.5],[110.8765,-7.9294,138.755],[110.8817,-7.927,134.5],[110.8784,-7.9242,134.5],[110.8686,-7.928,138.1596],[110.8701,-7.9256,138.8074],[110.868,-7.9241,141.1263],[110.8752,-7.922,135.0721],[110.876,-7.9187,137.522],[110.8805,-7.9176,134.5],[110.8776,-7.9141,134.5],[110.8755,-7.917,137.1208],[110.8726,-7.9163,135.9965],[110.8707,-7.9189,136.6478],[110.8653,-7.9204,140.1033],[110.8666,-7.9156,135.6229],[110.8647,-7.9154,136.0618],[110.8654,-7.9166,136.8595],[110.8637,-7.918,143.9601],[110.8604,-7.9163,142.7213],[110.8569,-7.9219,140.2779],[110.8541,-7.9234,148.4583],[110.8546,-7.9212,134.5],[110.8499,-7.9222,136.7532],[110.856,-7.9194,135.0906],[110.8572,-7.9149,136.6322],[110.8613,-7.9137,136.4785],[110.8538,-7.9116,140.8513],[110.8516,-7.9059,144.27],[110.8539,-7.9062,146.2891],[110.8556,-7.91,135.0115],[110.8589,-7.9099,134.9477],[110.8582,-7.907,136.9584],[110.8595,-7.9066,136.9584],[110.8611,-7.9077,139.3626],[110.8605,-7.91,136.7128],[110.8639,-7.9114,134.7454],[110.8672,-7.908,136.403],[110.8693,-7.9093,137.9182],[110.8702,-7.9083,135.4151],[110.8692,-7.9054,142.5343],[110.8705,-7.9043,135.7347],[110.868,-7.8988,145.7131],[110.8733,-7.902,139.7746],[110.8736,-7.9051,135.0172],[110.8773,-7.9037,136.1655],[110.8757,-7.8993,139.6875],[110.8789,-7.8987,136.1996],[110.8772,-7.8965,137.743],[110.8779,-7.8948,136.611],[110.8737,-7.8963,144.5999],[110.8731,-7.8942,134.5],[110.8709,-7.8942,143.2684],[110.8702,-7.8921,139.0144],[110.8732,-7.8928,135.5592],[110.8739,-7.8908,136.2145],[110.8736,-7.8889,135.0938],[110.8703,-7.8872,139.8831],[110.8724,-7.886,146.9788],[110.8765,-7.8869,134.8853],[110.8771,-7.8826,143.8572],[110.8796,-7.8809,152.9075],[110.8792,-7.8777,147.9224],[110.8804,-7.875,146.0798],[110.8807,-7.8757,147.7966],[110.8797,-7.878,158.0363],[110.8811,-7.8806,149.3429],[110.8773,-7.8903,136.842],[110.8801,-7.8924,137.7042],[110.8824,-7.8916,135.2225],[110.8849,-7.8878,143.8002],[110.8858,-7.8903,134.5],[110.889,-7.8894,134.5],[110.888,-7.887,144.3046],[110.8904,-7.8837,134.5],[110.8862,-7.8804,165.3662],[110.8851,-7.8779,172.0764],[110.8862,-7.8766,172.0764],[110.894,-7.877,135.3048],[110.8917,-7.8722,142.0937],[110.8941,-7.8731,134.5],[110.8938,-7.871,151.6151],[110.8967,-7.8718,136.2346],[110.8954,-7.8697,144.6694],[110.8974,-7.8692,136.8269],[110.8959,-7.8677,150.5725],[110.9027,-7.8687,136.5256],[110.9004,-7.8666,142.6427],[110.9028,-7.8657,139.805],[110.8973,-7.8653,137.6545],[110.8774,-7.845,494.8784],[110.8735,-7.8444,493.1635],[110.8662,-7.8501,268.017],[110.8626,-7.8498,275.6479],[110.8552,-7.8527,219.1618],[110.8514,-7.8581,217.5665],[110.8373,-7.8591,217.4157],[110.8281,-7.8695,234.6837],[110.8309,-7.8774,209.9788],[110.8283,-7.8782,217.672],[110.8229,-7.8859,219.0478],[110.8233,-7.9012,228.3264],[110.82,-7.9103,217.7238],[110.8248,-7.9108,213.6254],[110.8266,-7.9156,225.4033],[110.822,-7.9242,331.2678],[110.8195,-7.9428,306.882],[110.8172,-7.9455,210.228]]]]}}