{"type":"Feature","properties":{"GID_3":"IDN.10.19.5_1","GID_0":"IDN","country":"Indonesia","GID_1":"IDN.10_1","province":"JawaTengah","NL_NAME_1":"NA","GID_2":"IDN.10.19_1","county":"Kudus","NL_NAME_2":"NA","city":"Jekulo","VARNAME_3":"NA","NL_NAME_3":"NA","TYPE_3":"Kecamatan","ENGTYPE_3":"Sub-district","CC_3":"3319060","HASC_3":"NA","name":"Jekulo.city"},
"geometry":{"type": "MultiPolygon","coordinates": [[[[110.921,-6.8669,8.2142],[110.9374,-6.8552,4.4806],[110.9622,-6.8443,3.3563],[110.9768,-6.8336,3.2231],[110.9742,-6.8228,3.7943],[110.9743,-6.8041,10.2944],[110.9705,-6.8027,11.1048],[110.9712,-6.7927,26.4022],[110.9679,-6.7821,41.957],[110.9642,-6.7767,68.0158],[110.9654,-6.7728,94.6903],[110.9629,-6.7629,223.5877],[110.9655,-6.7569,109.388],[110.9606,-6.755,189.4412],[110.945,-6.7559,284.8005],[110.9447,-6.7521,272.6011],[110.9408,-6.7496,262.7985],[110.9387,-6.7401,199.0244],[110.9319,-6.738,196.879],[110.9258,-6.7387,122.7842],[110.9243,-6.7408,88.3253],[110.9262,-6.746,89.3816],[110.9234,-6.7478,106.5813],[110.9245,-6.7542,74.4634],[110.9222,-6.7553,56.5235],[110.923,-6.7605,49.6462],[110.9145,-6.7602,82.5205],[110.9059,-6.7633,76.2168],[110.8995,-6.7606,76.5504],[110.8926,-6.7643,50.664],[110.8864,-6.764,55.3295],[110.8884,-6.7687,51.3152],[110.8862,-6.7714,51.3832],[110.8872,-6.7736,42.9916],[110.889,-6.7733,45.6679],[110.8898,-6.7763,38.3946],[110.8886,-6.7883,27.0659],[110.8906,-6.7927,21.4505],[110.8937,-6.7952,16.9412],[110.8911,-6.7976,14.4403],[110.8875,-6.7979,17.9235],[110.8861,-6.8043,17.4731],[110.8869,-6.8061,16.1696],[110.8902,-6.8062,12.9378],[110.8952,-6.8045,13.7268],[110.8961,-6.8008,12.7662],[110.8987,-6.8004,15.5792],[110.8987,-6.8024,15.6387],[110.9032,-6.8026,17.4716],[110.9049,-6.8068,17.9443],[110.9125,-6.8074,11.2303],[110.9149,-6.8114,9.9149],[110.9141,-6.8167,9.0056],[110.9163,-6.8174,10.3214],[110.9158,-6.8212,8.549],[110.9119,-6.8223,7.867],[110.9107,-6.8277,7.3519],[110.9113,-6.833,9.3202],[110.9143,-6.8344,9.3996],[110.9136,-6.8483,6.7145],[110.9176,-6.8623,5.2954],[110.9195,-6.8616,5.2954],[110.921,-6.8669,8.2142]]]]}}