{"type":"Feature","properties":{"GID_3":"IDN.31.6.7_1","GID_0":"IDN","country":"Indonesia","GID_1":"IDN.31_1","province":"SumateraSelatan","NL_NAME_1":"NA","GID_2":"IDN.31.6_1","county":"MusiBanyuasin","NL_NAME_2":"NA","city":"PlakatTinggi","VARNAME_3":"NA","NL_NAME_3":"NA","TYPE_3":"Kecamatan","ENGTYPE_3":"Sub-district","CC_3":"1606022","HASC_3":"NA","name":"Plakat_Tinggi.city"},
"geometry":{"type": "MultiPolygon","coordinates": [[[[103.6101,-3.0026,64.6775],[103.6197,-2.9902,59.1743],[103.6269,-2.985,53.8635],[103.6326,-2.9854,59.9131],[103.6586,-2.9937,46.4794],[103.6796,-2.9967,46.8408],[103.6923,-2.9698,46.3213],[103.7115,-2.9432,29.312],[103.7219,-2.9319,23.2966],[103.6692,-2.9248,40.3552],[103.6642,-2.9166,37.7401],[103.6396,-2.8875,46.6666],[103.6393,-2.8506,22.01],[103.6186,-2.8251,30.1573],[103.5878,-2.8282,39.1825],[103.562,-2.8372,19.7848],[103.5581,-2.8403,19.2544],[103.4424,-2.8406,22.1043],[103.4016,-2.8671,49.2207],[103.4313,-2.8771,47.2276],[103.4177,-2.9025,59.6812],[103.4111,-2.9246,61.5662],[103.4264,-2.9433,63.3251],[103.4385,-2.9476,84.9536],[103.4456,-2.9675,60.7923],[103.4608,-2.9928,67.1832],[103.4827,-3.0377,62.19],[103.4999,-3.0323,61.5513],[103.4995,-3.0295,49.6805],[103.5025,-3.0226,59.1858],[103.5097,-3.0141,50.3452],[103.5173,-3.0077,56.881],[103.5312,-3.0015,55.1022],[103.5377,-3.0007,55.124],[103.5466,-3.0021,57.1293],[103.5818,-3.0151,61.4787],[103.5929,-3.0174,70.558],[103.6003,-3.0148,72.0679],[103.6101,-3.0026,64.6775]]]]}}