{"type":"Feature","properties":{"GID_3":"IDN.8.9.12_1","GID_0":"IDN","country":"Indonesia","GID_1":"IDN.8_1","province":"Jambi","NL_NAME_1":"NA","GID_2":"IDN.8.9_1","county":"TanjungJabungB","NL_NAME_2":"NA","city":"TungkalIlir","VARNAME_3":"NA","NL_NAME_3":"NA","TYPE_3":"Kecamatan","ENGTYPE_3":"Sub-district","CC_3":"1507030","HASC_3":"NA","name":"Tungkal_Ilir.city"},
"geometry":{"type": "MultiPolygon","coordinates": [[[[103.4215,-0.89,2.1308],[103.4262,-0.8889,1.2062],[103.4263,-0.8849,2.3141],[103.4211,-0.8787,5.7058],[103.4145,-0.8822,3.8417],[103.4162,-0.8944,2.4552],[103.4196,-0.8939,2.7745],[103.4215,-0.89,2.1308]]],
[[[103.4561,-0.8869,0.7838],[103.4564,-0.8833,1.9601],[103.451,-0.8775,1.0364],[103.4542,-0.8731,3.2132],[103.4551,-0.8589,7.5444],[103.4697,-0.8622,7.9018],[103.4724,-0.8575,7.6083],[103.4738,-0.8462,5.148],[103.4785,-0.8443,6.2261],[103.4814,-0.8445,5.7043],[103.4914,-0.8537,7.3352],[103.5019,-0.8607,1.385],[103.5083,-0.8583,2.7397],[103.5129,-0.8525,2.0654],[103.5161,-0.8531,1.1621],[103.5194,-0.8608,0.7778],[103.518,-0.8671,4.3278],[103.5212,-0.8695,2.8566],[103.5383,-0.8675,0.0],[103.5482,-0.8567,0.0],[103.5559,-0.8546,0.0],[103.5586,-0.8473,0.0],[103.5586,-0.8389,0.0],[103.5484,-0.8106,2.6609],[103.5418,-0.8068,0.0],[103.518,-0.8007,0.0],[103.4884,-0.7966,0.0],[103.4573,-0.8105,0.0],[103.4365,-0.8228,0.0],[103.428,-0.8246,0.0],[103.43,-0.8308,5.207],[103.4388,-0.8319,5.5322],[103.4421,-0.8449,4.3081],[103.4348,-0.8622,6.8294],[103.4384,-0.8694,8.6896],[103.4285,-0.8752,5.2832],[103.4349,-0.892,2.5466],[103.4329,-0.8941,1.9892],[103.4349,-0.8995,1.3076],[103.4377,-0.9004,3.0999],[103.4401,-0.8991,1.0721],[103.4433,-0.8963,1.0635],[103.445,-0.8915,2.5845],[103.4495,-0.8904,1.1674],[103.453,-0.8913,5.1145],[103.4561,-0.8869,0.7838]]]]}}