{"type":"Feature","properties":{"GID_3":"IDN.10.13.19_1","GID_0":"IDN","country":"Indonesia","GID_1":"IDN.10_1","province":"JawaTengah","NL_NAME_1":"NA","GID_2":"IDN.10.13_1","county":"Kendal","NL_NAME_2":"NA","city":"Sukorejo","VARNAME_3":"NA","NL_NAME_3":"NA","TYPE_3":"Kecamatan","ENGTYPE_3":"Sub-district","CC_3":"3324020","HASC_3":"NA","name":"Sukorejo.city"},
"geometry":{"type": "MultiPolygon","coordinates": [[[[110.0162,-7.1514,916.9936],[110.0177,-7.152,943.5511],[110.0175,-7.1495,901.3974],[110.0191,-7.1493,890.7792],[110.0181,-7.1465,938.0273],[110.0195,-7.1444,886.8297],[110.0185,-7.1433,886.8297],[110.0165,-7.1442,914.8552],[110.0165,-7.14,867.8248],[110.0236,-7.132,838.7864],[110.0245,-7.1285,813.2885],[110.0228,-7.1203,738.163],[110.0297,-7.1073,648.0313],[110.0333,-7.1038,598.6896],[110.0328,-7.1021,594.9539],[110.0345,-7.102,594.9539],[110.0386,-7.0968,564.5978],[110.0438,-7.0944,544.6149],[110.0442,-7.092,555.1903],[110.0479,-7.0931,525.8434],[110.0504,-7.092,541.2925],[110.0458,-7.1013,559.3612],[110.0518,-7.1006,527.9765],[110.0565,-7.0922,516.4288],[110.0589,-7.0915,516.2138],[110.0556,-7.0837,557.9453],[110.0602,-7.0795,564.2631],[110.0588,-7.0765,552.1879],[110.0555,-7.0758,544.7001],[110.0533,-7.0725,518.2894],[110.0574,-7.0606,483.0571],[110.0555,-7.0578,466.6205],[110.0531,-7.0586,483.4443],[110.0481,-7.0567,463.6807],[110.0479,-7.0621,498.8835],[110.0496,-7.0644,502.6224],[110.0478,-7.0753,536.6126],[110.0446,-7.076,544.5599],[110.0427,-7.0744,550.2407],[110.0437,-7.0731,544.3132],[110.0411,-7.0711,539.7448],[110.0402,-7.0676,489.2366],[110.0262,-7.07,519.5591],[110.023,-7.0724,520.3459],[110.0221,-7.0711,518.5462],[110.0206,-7.073,532.9755],[110.0217,-7.0754,532.1489],[110.0092,-7.0769,565.9429],[110.0011,-7.0757,554.1022],[109.9943,-7.0909,630.2762],[109.9947,-7.0947,705.3954],[110.0026,-7.0938,680.3253],[110.0009,-7.1002,720.0437],[109.997,-7.1064,769.4897],[109.9921,-7.105,758.457],[109.9925,-7.1076,773.0137],[109.9873,-7.1155,833.6435],[109.9895,-7.1168,866.2674],[109.988,-7.1177,850.4442],[109.9828,-7.1153,801.4516],[109.9812,-7.1164,820.7122],[109.9802,-7.1224,847.016],[109.9786,-7.1238,884.6427],[109.981,-7.1258,866.5645],[109.9785,-7.129,891.1573],[109.9739,-7.1279,934.7863],[109.9727,-7.129,953.8292],[109.9688,-7.1383,1021.9557],[109.9631,-7.1446,1095.1169],[109.9612,-7.1503,1093.6017],[109.9525,-7.1596,1315.3893],[109.9401,-7.1785,1958.5453],[109.9365,-7.1877,2377.5371],[109.9338,-7.1897,2478.3203],[109.9291,-7.1893,2403.074],[109.9323,-7.1923,2518.6677],[109.9312,-7.1926,2560.8032],[109.9274,-7.1921,2537.0808],[109.9256,-7.1895,2511.4209],[109.927,-7.1927,2537.0808],[109.9309,-7.1952,2523.7437],[109.9341,-7.2023,2549.1479],[109.9486,-7.1952,2218.0557],[109.9604,-7.1931,1600.2286],[109.9816,-7.18,1242.0743],[109.9861,-7.1732,1155.7759],[109.9936,-7.1719,1133.2428],[109.9928,-7.169,1139.4891],[109.9973,-7.1666,1067.2593],[109.9989,-7.1632,1030.4301],[110.0074,-7.1604,988.9293],[110.0073,-7.159,1003.7183],[110.01,-7.1577,986.5112],[110.01,-7.1548,980.791],[110.0125,-7.1547,989.0817],[110.0126,-7.1525,928.6989],[110.0138,-7.1533,940.8115],[110.0162,-7.1514,916.9936]]]]}}