{"type":"Feature","properties":{"GID_3":"IDN.32.12.3_1","GID_0":"IDN","country":"Indonesia","GID_1":"IDN.32_1","province":"SumateraUtara","NL_NAME_1":"NA","GID_2":"IDN.32.12_1","county":"LabuhanbatuUtara","NL_NAME_2":"NA","city":"KualuhHilir","VARNAME_3":"NA","NL_NAME_3":"NA","TYPE_3":"Kecamatan","ENGTYPE_3":"Sub-district","CC_3":"1223060","HASC_3":"NA","name":"Kualuh_Hilir.city"},
"geometry":{"type": "MultiPolygon","coordinates": [[[[99.9687,2.3866,13.1236],[99.9875,2.3751,11.1386],[100.001,2.3959,11.2692],[100.0059,2.4162,13.8838],[100.0101,2.4216,14.0251],[100.0149,2.4342,7.8226],[100.0229,2.4615,8.6581],[100.0401,2.4908,6.8723],[100.0475,2.4967,5.2202],[100.0525,2.5049,3.1143],[100.0585,2.5257,3.0408],[100.0661,2.5327,3.2137],[100.0745,2.5447,2.958],[100.0727,2.5623,2.8836],[100.0727,2.5836,2.4891],[100.0677,2.6322,2.3727],[100.0636,2.6589,2.1929],[100.0581,2.6784,2.141],[100.0538,2.711,3.4162],[100.0501,2.7178,2.6275],[100.0492,2.7357,4.1789],[100.0452,2.7377,2.9692],[100.0344,2.7392,5.5319],[100.0192,2.7334,6.5256],[100.0061,2.7223,5.2534],[99.9973,2.7092,5.3083],[99.9905,2.6965,1.0],[99.9879,2.6681,3.1343],[99.9824,2.6452,3.536],[99.9815,2.6331,3.5548],[99.9758,2.6153,3.1048],[99.9333,2.6029,6.8585],[99.8307,2.5999,9.2798],[99.8299,2.5749,12.3568],[99.878,2.574,13.3176],[99.878,2.5663,10.4218],[99.8807,2.5563,12.8169],[99.8717,2.5343,9.4577],[99.8675,2.5313,4.6303],[99.8666,2.5262,6.7454],[99.8636,2.5213,6.2999],[99.8604,2.5188,6.461],[99.8497,2.5187,14.5153],[99.8452,2.5102,10.8574],[99.8349,2.5041,11.2746],[99.8338,2.4878,5.4419],[99.8355,2.4736,6.2154],[99.8407,2.4533,5.8492],[99.8442,2.4477,10.6632],[99.852,2.4454,11.0832],[99.8716,2.4344,12.8291],[99.9309,2.4091,9.3518],[99.9362,2.4047,7.2665],[99.9474,2.4017,5.781],[99.9687,2.3866,13.1236]]]]}}