{"type":"Feature","properties":{"GID_3":"IDN.26.5.4_1","GID_0":"IDN","country":"Indonesia","GID_1":"IDN.26_1","province":"SulawesiSelatan","NL_NAME_1":"NA","GID_2":"IDN.26.5_1","county":"Enrekang","NL_NAME_2":"NA","city":"Baroko","VARNAME_3":"NA","NL_NAME_3":"NA","TYPE_3":"Kecamatan","ENGTYPE_3":"Sub-district","CC_3":"7316053","HASC_3":"NA","name":"Baroko.city"},
"geometry":{"type": "MultiPolygon","coordinates": [[[[119.8157,-3.3091,967.6068],[119.82,-3.3009,903.4006],[119.8221,-3.2907,1075.0659],[119.8189,-3.2764,1139.8761],[119.8349,-3.2761,935.8276],[119.8427,-3.268,846.6721],[119.8426,-3.2615,913.376],[119.8407,-3.2595,858.8287],[119.8406,-3.2563,861.4747],[119.833,-3.2535,945.1371],[119.831,-3.2487,897.1027],[119.827,-3.2488,893.6003],[119.8245,-3.2466,930.3694],[119.8139,-3.2452,1031.2217],[119.7959,-3.2472,1263.4441],[119.7873,-3.2437,1507.4053],[119.7838,-3.2403,1777.9896],[119.7801,-3.2405,1820.1948],[119.7748,-3.2467,1772.9756],[119.7739,-3.2552,1567.6663],[119.7756,-3.2651,1630.3843],[119.7724,-3.272,1702.1731],[119.7777,-3.2874,1400.8182],[119.7803,-3.2918,1364.9882],[119.7852,-3.2951,1333.6364],[119.7992,-3.2967,1136.0326],[119.7936,-3.3021,1237.745],[119.7958,-3.3095,1147.9795],[119.7952,-3.3134,1277.9155],[119.8047,-3.3133,1021.04],[119.811,-3.3172,938.6049],[119.8146,-3.3173,944.8246],[119.8157,-3.3091,967.6068]]]]}}