{"type":"Feature","properties":{"GID_3":"IDN.9.10.9_1","GID_0":"IDN","country":"Indonesia","GID_1":"IDN.9_1","province":"JawaBarat","NL_NAME_1":"NA","GID_2":"IDN.9.10_1","county":"Depok","NL_NAME_2":"NA","city":"Sawangan","VARNAME_3":"NA","NL_NAME_3":"NA","TYPE_3":"Kecamatan","ENGTYPE_3":"Sub-district","CC_3":"3276010","HASC_3":"NA","name":"Sawangan.city"},
"geometry":{"type": "MultiPolygon","coordinates": [[[[106.7871,-6.4388,108.9612],[106.7908,-6.4336,97.1801],[106.7884,-6.4301,94.7605],[106.7891,-6.4244,95.5458],[106.7872,-6.4236,89.8356],[106.7866,-6.4174,91.2975],[106.7845,-6.4167,95.7025],[106.786,-6.4148,94.2723],[106.7842,-6.415,90.9076],[106.7831,-6.4121,89.7185],[106.7846,-6.4101,83.8168],[106.7792,-6.4079,85.9461],[106.7806,-6.4064,81.483],[106.7789,-6.4061,81.0528],[106.7796,-6.4046,85.1277],[106.7759,-6.401,83.278],[106.7769,-6.3998,83.278],[106.7754,-6.3999,83.278],[106.7715,-6.3957,83.4212],[106.769,-6.3962,74.0751],[106.7698,-6.3942,82.0636],[106.7674,-6.3955,74.0751],[106.7659,-6.3943,76.1975],[106.7653,-6.3903,72.1232],[106.7669,-6.3898,72.1232],[106.7657,-6.3875,70.658],[106.7672,-6.3856,82.8728],[106.764,-6.3852,66.2133],[106.762,-6.383,71.3971],[106.7637,-6.3823,70.1881],[106.762,-6.3811,70.8861],[106.7632,-6.3785,65.6978],[106.7653,-6.3796,75.1049],[106.7664,-6.3782,64.7196],[106.7664,-6.3766,64.0631],[106.7622,-6.3759,69.9824],[106.7635,-6.3719,66.2748],[106.766,-6.3736,58.724],[106.7646,-6.3694,76.0814],[106.7668,-6.3715,59.9048],[106.7682,-6.3709,60.0722],[106.7676,-6.3685,53.7484],[106.7696,-6.37,67.7487],[106.7687,-6.3676,52.7587],[106.767,-6.3669,68.9419],[106.7679,-6.3653,50.5645],[106.77,-6.3664,63.0411],[106.7692,-6.3648,52.0266],[106.771,-6.3638,47.4865],[106.7691,-6.3626,46.9171],[106.7711,-6.3572,45.4947],[106.7638,-6.3567,69.5398],[106.7599,-6.3584,59.8978],[106.7594,-6.3608,61.9303],[106.748,-6.361,70.0121],[106.7456,-6.3674,76.7103],[106.7456,-6.3767,80.4888],[106.7465,-6.3823,79.612],[106.7514,-6.3855,75.5],[106.7519,-6.389,78.2401],[106.7502,-6.3937,86.9576],[106.7504,-6.4013,84.9297],[106.7475,-6.405,88.2674],[106.7489,-6.4205,90.9416],[106.7477,-6.4209,93.2451],[106.7455,-6.4292,99.3945],[106.7547,-6.4304,96.8548],[106.7522,-6.4346,100.1665],[106.753,-6.4387,102.707],[106.7663,-6.4373,98.4727],[106.7712,-6.4387,108.7306],[106.7871,-6.4388,108.9612]]]]}}