{"type":"Feature","properties":{"GID_2":"IDN.8.9_1","GID_0":"IDN","country":"Indonesia","GID_1":"IDN.8_1","province":"Jambi","NL_NAME_1":"NA","county":"TanjungJabungB","VARNAME_2":"NA","NL_NAME_2":"NA","TYPE_2":"Kabupaten","ENGTYPE_2":"Regency","CC_2":"1507","HASC_2":"ID.JA.TJ","name":"Tanjung_Jabung_B.county"},
"geometry":{"type": "MultiPolygon","coordinates": [[[[103.0283,-1.4369,67.9271],[103.0306,-1.4391,71.2134],[103.0317,-1.4477,83.9909],[103.0353,-1.4519,116.7301],[103.0435,-1.4508,100.0318],[103.0475,-1.436,75.9171],[103.0513,-1.4332,85.3146],[103.0537,-1.4226,82.4849],[103.0519,-1.4157,84.8102],[103.0542,-1.4126,97.3489],[103.0659,-1.4094,93.3602],[103.071,-1.404,151.9031],[103.07,-1.3987,145.699],[103.0637,-1.3953,93.7166],[103.0598,-1.3885,138.5055],[103.0654,-1.3884,137.3536],[103.079,-1.393,102.1225],[103.1178,-1.3996,88.9879],[103.1195,-1.3975,78.7457],[103.12,-1.3915,53.314],[103.128,-1.3892,49.3272],[103.1476,-1.3678,59.9512],[103.149,-1.3739,55.9338],[103.156,-1.3765,49.5334],[103.166,-1.3863,73.1799],[103.1689,-1.3861,54.5765],[103.1753,-1.3784,49.282],[103.1948,-1.3672,64.6118],[103.2025,-1.358,57.7291],[103.2204,-1.3442,70.6025],[103.2317,-1.3431,67.1711],[103.2326,-1.3578,59.5336],[103.2364,-1.3638,59.4635],[103.2467,-1.3611,57.3613],[103.2529,-1.354,74.7094],[103.2527,-1.343,54.3194],[103.2562,-1.3368,44.9637],[103.2622,-1.3325,49.7285],[103.2602,-1.3181,54.8017],[103.263,-1.3161,61.4927],[103.2639,-1.3109,66.8117],[103.2606,-1.2313,43.0216],[103.2727,-1.2297,20.5824],[103.4018,-1.2282,48.4946],[103.4357,-1.1954,12.6207],[103.4362,-1.1705,18.3557],[103.4318,-1.1045,11.298],[103.4349,-1.0884,5.716],[103.4394,-1.0795,15.4896],[103.4411,-1.0693,10.2933],[103.4529,-1.059,7.1973],[103.4587,-1.0458,5.8163],[103.4657,-1.0405,4.9266],[103.4758,-1.0276,9.3637],[103.4928,-1.0191,3.7123],[103.4958,-1.0151,3.1978],[103.5063,-1.0085,4.0675],[103.5125,-1.0068,5.0755],[103.5147,-1.005,7.0809],[103.5142,-1.0015,12.9408],[103.5205,-1.0004,10.3443],[103.5239,-1.0026,8.9144],[103.5268,-1.0001,10.1708],[103.5261,-0.9966,9.831],[103.53,-0.9966,9.7319],[103.5312,-0.9929,7.4652],[103.5351,-0.9932,8.9904],[103.5371,-0.9883,9.6],[103.5348,-0.9849,9.0181],[103.5392,-0.9818,8.4857],[103.539,-0.9802,9.0643],[103.5406,-0.9788,10.8862],[103.5479,-0.9792,11.4197],[103.5491,-0.9781,10.0415],[103.5481,-0.9757,10.008],[103.5432,-0.9741,11.0044],[103.5431,-0.9708,9.8363],[103.5458,-0.969,8.7772],[103.5436,-0.9665,7.9296],[103.5485,-0.9654,8.3114],[103.5488,-0.9599,9.2003],[103.5506,-0.9604,9.2003],[103.5517,-0.9639,12.2781],[103.5551,-0.9633,10.207],[103.5587,-0.9572,5.7847],[103.5559,-0.9565,9.2874],[103.5541,-0.9582,11.3431],[103.5509,-0.9567,9.2577],[103.5512,-0.9534,7.473],[103.5556,-0.9542,6.2635],[103.5564,-0.9528,6.8087],[103.5534,-0.9478,3.7536],[103.5577,-0.9467,3.4755],[103.5572,-0.942,4.431],[103.5641,-0.9429,4.7738],[103.566,-0.9416,4.6401],[103.5647,-0.939,4.3438],[103.5599,-0.9387,4.2102],[103.5606,-0.9341,3.5007],[103.5592,-0.928,4.4406],[103.5632,-0.9299,3.1745],[103.5679,-0.9282,4.9517],[103.5665,-0.9251,3.752],[103.5632,-0.926,4.1003],[103.5613,-0.9224,4.4178],[103.5603,-0.9159,3.6994],[103.5645,-0.9161,5.4587],[103.5672,-0.9134,6.8699],[103.5625,-0.9113,3.7419],[103.5605,-0.9067,4.4465],[103.5633,-0.8966,8.1291],[103.5693,-0.8932,4.3796],[103.5675,-0.8877,9.2495],[103.5682,-0.8818,9.3526],[103.5741,-0.8752,2.9949],[103.5662,-0.8631,1.3218],[103.5499,-0.8562,0.0],[103.5559,-0.8546,0.0],[103.5591,-0.8442,0.0],[103.5576,-0.835,0.0],[103.5484,-0.8106,2.6609],[103.5418,-0.8068,0.0],[103.518,-0.8007,0.0],[103.4884,-0.7966,0.0],[103.489,-0.7767,0.0],[103.4868,-0.7644,7.7237],[103.4773,-0.7476,0.9467],[103.4632,-0.7356,0.0],[103.4557,-0.7333,0.0],[103.4469,-0.7341,0.0],[103.4435,-0.7376,1.8262],[103.4424,-0.7396,10.2589],[103.4428,-0.7407,10.2589],[103.4444,-0.737,9.8469],[103.4543,-0.7343,0.0],[103.4614,-0.736,0.0],[103.4801,-0.7568,12.2414],[103.4853,-0.7684,12.3822],[103.4397,-0.7712,5.7292],[103.4249,-0.776,3.8291],[103.3817,-0.7943,6.3424],[103.37,-0.7961,3.9895],[103.3626,-0.7947,4.6505],[103.3367,-0.7845,6.2029],[103.3129,-0.7792,6.0168],[103.2871,-0.7748,7.623],[103.247,-0.7726,10.2905],[103.2034,-0.7669,9.4494],[103.1861,-0.7602,11.01],[103.1419,-0.7498,5.3871],[103.1215,-0.7469,8.3058],[103.0962,-0.7553,5.7784],[103.0549,-0.7523,8.885],[103.0156,-0.7528,10.5024],[103.0036,-0.7629,8.2959],[102.9723,-0.8082,7.0053],[102.9351,-0.8578,12.6096],[102.883,-0.9126,19.0517],[102.8616,-0.9316,12.3737],[102.8247,-0.9599,15.6513],[102.79,-0.9941,52.7736],[102.7834,-0.9985,70.0978],[102.7754,-1.0089,254.4518],[102.7737,-1.0138,360.1291],[102.7811,-1.0198,329.2855],[102.782,-1.0227,387.326],[102.7788,-1.0291,185.6375],[102.7761,-1.0278,175.9886],[102.7749,-1.0247,139.8587],[102.7713,-1.028,161.8077],[102.7686,-1.0281,166.2021],[102.7669,-1.0255,123.2161],[102.7583,-1.0237,168.4057],[102.7544,-1.028,184.4314],[102.7555,-1.0401,131.3438],[102.7412,-1.042,132.8642],[102.7338,-1.0483,241.644],[102.7318,-1.0529,190.149],[102.7343,-1.0677,346.2949],[102.7325,-1.0708,420.7393],[102.7278,-1.0744,314.821],[102.7219,-1.0711,230.93],[102.7151,-1.0714,267.2184],[102.7121,-1.0727,277.6517],[102.7097,-1.0773,233.6789],[102.6867,-1.0775,279.7442],[102.6835,-1.0806,199.2893],[102.6828,-1.0882,269.0697],[102.6736,-1.0923,205.0812],[102.6733,-1.0965,340.0461],[102.6683,-1.1074,314.1552],[102.6529,-1.1108,307.5546],[102.6504,-1.1131,283.7318],[102.6487,-1.1186,332.1716],[102.6501,-1.1198,371.6754],[102.6507,-1.1264,482.8951],[102.6456,-1.1358,444.4229],[102.6665,-1.1628,576.8465],[102.675,-1.1781,664.5109],[102.6766,-1.1845,650.4045],[102.6845,-1.1911,512.7186],[102.6857,-1.1948,538.7493],[102.6839,-1.2057,451.4951],[102.6882,-1.2165,524.6891],[102.6876,-1.2197,553.4052],[102.6934,-1.2254,584.0918],[102.7,-1.2406,581.0604],[102.7125,-1.2458,499.7292],[102.7153,-1.2488,483.3652],[102.7192,-1.2576,479.7071],[102.7232,-1.261,450.6393],[102.7393,-1.2598,383.96],[102.7463,-1.2629,344.0934],[102.7568,-1.2707,299.9908],[102.7613,-1.276,291.8033],[102.7628,-1.2825,189.2906],[102.7674,-1.2862,200.315],[102.7664,-1.2968,110.8028],[102.7749,-1.3019,108.1821],[102.78,-1.3077,100.9485],[102.7821,-1.3167,84.808],[102.7897,-1.3334,78.7931],[102.7909,-1.3421,72.5185],[102.8056,-1.374,73.604],[102.8051,-1.379,83.761],[102.7992,-1.3839,98.0416],[102.7977,-1.3872,97.1512],[102.798,-1.3926,100.5535],[102.8051,-1.4123,230.9811],[102.8126,-1.4227,213.8418],[102.819,-1.4226,151.2382],[102.8226,-1.4181,126.5987],[102.822,-1.399,81.7893],[102.8236,-1.3957,77.61],[102.8263,-1.3948,80.6108],[102.8346,-1.3977,72.293],[102.8448,-1.386,75.2846],[102.8475,-1.3854,69.0997],[102.8578,-1.3891,72.2084],[102.8607,-1.3854,69.2475],[102.8575,-1.3801,66.4511],[102.859,-1.3775,68.5392],[102.8638,-1.3789,67.4062],[102.8677,-1.3768,70.6411],[102.8675,-1.3709,58.1038],[102.8891,-1.3693,73.3969],[102.893,-1.3697,67.3948],[102.901,-1.3776,76.6851],[102.9211,-1.3814,80.4179],[102.9324,-1.3906,75.0272],[102.9462,-1.4059,77.1819],[102.9543,-1.4105,79.1701],[102.9614,-1.4202,83.1605],[102.972,-1.4236,68.4861],[102.9816,-1.4213,69.2913],[102.9883,-1.4232,73.9796],[102.9969,-1.4309,93.0424],[103.0102,-1.4348,73.96],[103.0118,-1.4393,76.2769],[103.0212,-1.4363,109.8629],[103.0283,-1.4369,67.9271]]]]}}