{"type":"Feature","properties":{"GID_3":"IDN.29.7.15_1","GID_0":"IDN","country":"Indonesia","GID_1":"IDN.29_1","province":"SulawesiUtara","NL_NAME_1":"NA","GID_2":"IDN.29.7_1","county":"KepulauanTalaud","NL_NAME_2":"NA","city":"Nanusa","VARNAME_3":"NA","NL_NAME_3":"NA","TYPE_3":"Kecamatan","ENGTYPE_3":"Sub-district","CC_3":"7104080","HASC_3":"NA","name":"Nanusa.city"},
"geometry":{"type": "MultiPolygon","coordinates": [[[[127.1493,4.6161,0.0],[127.1489,4.6181,2.6207],[127.1467,4.6188,0.0],[127.1316,4.6123,5.5116],[127.126,4.6136,11.4712],[127.1211,4.6173,0.0],[127.1186,4.6161,2.9367],[127.1218,4.6124,1.5556],[127.1417,4.6065,0.0],[127.1493,4.6161,0.0]]],
[[[127.1637,4.6275,2.6311],[127.1589,4.6336,2.0315],[127.1568,4.6235,0.0],[127.1585,4.6218,0.0],[127.1624,4.6232,0.7329],[127.1637,4.6275,2.6311]]],
[[[127.1615,4.6426,0.0],[127.1596,4.6442,3.8437],[127.1556,4.6438,2.3445],[127.155,4.6406,0.0],[127.1583,4.6383,0.0],[127.1589,4.6405,15.5879],[127.1614,4.6407,0.0],[127.1615,4.6426,0.0]]],
[[[127.1443,4.6956,5.924],[127.144,4.7016,4.0451],[127.1411,4.7047,0.8752],[127.1364,4.7045,3.9496],[127.1326,4.702,18.4152],[127.1318,4.6931,2.7553],[127.1409,4.6871,2.7951],[127.1438,4.6891,1.3796],[127.1443,4.6956,5.924]]],
[[[127.0779,4.7167,0.0],[127.0855,4.7194,1.4497],[127.0885,4.725,0.0],[127.0931,4.7284,1.7737],[127.0929,4.7328,7.7093],[127.0835,4.7355,0.0],[127.0795,4.7394,0.0],[127.0713,4.7393,5.6878],[127.0647,4.7414,6.027],[127.0614,4.7398,12.8955],[127.0598,4.7354,10.02],[127.0543,4.7331,1.894],[127.056,4.7278,1.2893],[127.0641,4.7211,1.1941],[127.0701,4.7178,1.5254],[127.0779,4.7167,0.0]]],
[[[127.1147,4.7319,0.0],[127.1312,4.7311,0.0],[127.1407,4.7367,0.0],[127.1437,4.7418,0.0],[127.1461,4.7494,13.2353],[127.1441,4.7626,5.1135],[127.1417,4.7694,0.0],[127.1335,4.7783,6.226],[127.1291,4.7766,11.1087],[127.1166,4.7631,9.1025],[127.1115,4.7511,0.0],[127.111,4.7421,1.4952],[127.1147,4.7319,0.0]]],
[[[127.063,4.8073,0.0],[127.0596,4.8055,0.0],[127.0572,4.8011,9.9422],[127.0564,4.7948,18.3815],[127.058,4.7908,0.0],[127.0613,4.791,0.0],[127.0648,4.794,0.0],[127.0654,4.8028,4.4705],[127.063,4.8073,0.0]]]]}}