{"type":"Feature","properties":{"GID_3":"IDN.5.8.1_1","GID_0":"IDN","country":"Indonesia","GID_1":"IDN.5_1","province":"Bengkulu","NL_NAME_1":"NA","GID_2":"IDN.5.8_1","county":"Mukomuko","NL_NAME_2":"NA","city":"AirDikit","VARNAME_3":"NA","NL_NAME_3":"NA","TYPE_3":"Kecamatan","ENGTYPE_3":"Sub-district","CC_3":"1706041","HASC_3":"NA","name":"Air_Dikit.city"},
"geometry":{"type": "MultiPolygon","coordinates": [[[[101.2687,-2.6966,0.0],[101.2935,-2.7125,9.1953],[101.2948,-2.7093,18.1103],[101.2938,-2.7044,14.1677],[101.297,-2.6981,20.0003],[101.3009,-2.6946,19.7335],[101.301,-2.6915,38.1346],[101.2922,-2.6887,25.7358],[101.2898,-2.6851,34.245],[101.2874,-2.6855,40.079],[101.2779,-2.6809,25.5614],[101.2693,-2.6743,13.8074],[101.2829,-2.667,17.8915],[101.2834,-2.6517,38.8975],[101.2955,-2.6509,62.0123],[101.3047,-2.6406,56.9359],[101.3025,-2.6335,65.7303],[101.2998,-2.6331,55.9001],[101.2919,-2.6179,56.8245],[101.2935,-2.6121,53.7902],[101.2891,-2.6104,58.1544],[101.288,-2.608,45.4062],[101.2891,-2.6048,38.5813],[101.2914,-2.605,36.5404],[101.293,-2.6024,36.01],[101.2906,-2.6035,44.5678],[101.285,-2.6023,41.2473],[101.2842,-2.6067,58.4855],[101.277,-2.6097,54.2504],[101.2802,-2.6125,56.5378],[101.2728,-2.6138,53.2559],[101.2752,-2.6199,49.6031],[101.2716,-2.6215,53.5265],[101.2687,-2.6219,41.3493],[101.2501,-2.6029,21.9709],[101.2421,-2.6059,31.9081],[101.236,-2.6046,26.6905],[101.2141,-2.6199,20.9031],[101.2101,-2.6146,16.0841],[101.1944,-2.6225,15.3512],[101.1905,-2.6223,12.5616],[101.1922,-2.6275,15.2049],[101.1937,-2.6587,2.4754],[101.2373,-2.6785,0.0],[101.2687,-2.6966,0.0]]]]}}