{"type":"Feature","properties":{"GID_2":"IDN.10.12_1","GID_0":"IDN","country":"Indonesia","GID_1":"IDN.10_1","province":"JawaTengah","NL_NAME_1":"NA","county":"Kebumen","VARNAME_2":"NA","NL_NAME_2":"NA","TYPE_2":"Kabupaten","ENGTYPE_2":"Regency","CC_2":"3305","HASC_2":"ID.JT.KB","name":"Kebumen.county"},
"geometry":{"type": "MultiPolygon","coordinates": [[[[109.8283,-7.8241,0.125],[109.833,-7.8044,2.5243],[109.8294,-7.8037,5.0193],[109.8341,-7.7934,4.5301],[109.839,-7.7732,8.58],[109.8352,-7.7731,9.7168],[109.8336,-7.7569,5.723],[109.8316,-7.7532,4.1648],[109.8325,-7.7417,7.0102],[109.8302,-7.7398,3.4768],[109.8322,-7.7383,9.2008],[109.8313,-7.7265,9.0502],[109.8281,-7.7186,9.6896],[109.8304,-7.7158,10.191],[109.8123,-7.7124,14.3073],[109.8113,-7.7104,12.5859],[109.8084,-7.7106,15.2489],[109.8079,-7.7086,15.9628],[109.8055,-7.7078,15.2727],[109.8026,-7.709,14.26],[109.802,-7.7069,14.3127],[109.8002,-7.7066,14.3127],[109.7981,-7.699,7.9178],[109.7982,-7.6964,7.406],[109.8032,-7.6931,8.3231],[109.8039,-7.6899,8.7135],[109.8064,-7.6903,10.64],[109.8067,-7.6885,15.215],[109.8049,-7.6884,15.9686],[109.8079,-7.6705,16.9058],[109.8021,-7.6627,19.0592],[109.8035,-7.6549,24.1836],[109.7998,-7.6511,42.6133],[109.8002,-7.6487,28.7435],[109.7983,-7.6489,25.9126],[109.7984,-7.6468,27.6053],[109.7997,-7.6439,28.0094],[109.804,-7.6427,28.8241],[109.808,-7.6323,76.6506],[109.8095,-7.6339,45.7919],[109.8147,-7.6313,71.8172],[109.8136,-7.6245,76.7952],[109.8105,-7.6229,90.8583],[109.812,-7.6183,133.5394],[109.8119,-7.6048,445.2594],[109.815,-7.5992,459.7515],[109.8108,-7.5999,487.8199],[109.8082,-7.6069,355.3519],[109.8056,-7.6068,370.1169],[109.8005,-7.6123,301.7444],[109.7889,-7.61,195.906],[109.7879,-7.6085,178.0],[109.7859,-7.6114,200.4665],[109.7803,-7.6056,178.0],[109.7645,-7.6032,347.1365],[109.76,-7.5999,414.2971],[109.7562,-7.5944,457.8391],[109.7523,-7.5821,438.0499],[109.7508,-7.5801,403.0194],[109.7498,-7.5819,509.7635],[109.7497,-7.5793,420.7491],[109.7463,-7.5762,362.6795],[109.7412,-7.5742,277.8071],[109.742,-7.5608,278.1139],[109.7406,-7.5555,314.9009],[109.7422,-7.5511,393.7056],[109.7372,-7.5441,398.4965],[109.7394,-7.5429,435.0041],[109.7379,-7.5353,495.3334],[109.7411,-7.5303,500.466],[109.7453,-7.5305,526.1785],[109.7503,-7.5282,543.4664],[109.752,-7.5237,500.2796],[109.7616,-7.5234,470.3707],[109.7673,-7.5182,503.2873],[109.7729,-7.5187,506.3665],[109.7743,-7.5171,451.8436],[109.7671,-7.5101,197.8794],[109.7685,-7.5065,228.9785],[109.7576,-7.494,192.472],[109.7589,-7.4895,346.5204],[109.7613,-7.488,348.1371],[109.7611,-7.4788,324.8085],[109.7592,-7.4688,539.5872],[109.7561,-7.4681,531.7546],[109.7507,-7.4578,682.5526],[109.7473,-7.4599,609.6212],[109.7463,-7.4631,564.1068],[109.7425,-7.4651,501.8936],[109.741,-7.4688,458.1213],[109.7375,-7.4688,401.3486],[109.7349,-7.4711,378.5386],[109.7322,-7.4702,399.6512],[109.7347,-7.4748,268.0115],[109.736,-7.4748,268.0115],[109.7331,-7.4784,250.5226],[109.7259,-7.4761,378.4487],[109.7194,-7.4781,481.1271],[109.7151,-7.4823,526.7487],[109.7113,-7.4828,464.2883],[109.6989,-7.4956,457.3961],[109.6889,-7.4969,186.3055],[109.6879,-7.5019,190.835],[109.6844,-7.5035,149.5352],[109.6787,-7.5018,135.1118],[109.6775,-7.5032,143.5796],[109.6725,-7.503,114.8011],[109.6723,-7.5008,121.2681],[109.6651,-7.4929,339.2068],[109.6548,-7.4959,209.4377],[109.6483,-7.4954,204.4577],[109.6393,-7.482,350.9231],[109.6331,-7.4816,382.0602],[109.6191,-7.4916,440.6551],[109.6152,-7.4966,463.9819],[109.6151,-7.5012,438.995],[109.6129,-7.5025,400.6765],[109.6132,-7.5042,367.2845],[109.6022,-7.5061,473.8938],[109.5939,-7.513,478.4672],[109.5887,-7.5136,458.1005],[109.5871,-7.5156,418.5939],[109.5849,-7.5136,431.9592],[109.5721,-7.5132,491.9291],[109.5687,-7.5099,461.8415],[109.5598,-7.5097,307.8627],[109.5559,-7.5116,252.1046],[109.5514,-7.5115,185.2951],[109.5451,-7.5227,347.1218],[109.5375,-7.5156,425.5778],[109.526,-7.5157,419.4134],[109.5187,-7.511,396.8884],[109.5082,-7.5087,292.7075],[109.5,-7.5105,258.9597],[109.4979,-7.5032,224.4193],[109.4911,-7.51,262.9939],[109.4848,-7.5112,252.5032],[109.4818,-7.5179,299.3948],[109.468,-7.5224,319.7058],[109.4651,-7.5197,389.9093],[109.4623,-7.5194,445.6633],[109.4556,-7.5233,454.2171],[109.4456,-7.5247,508.9171],[109.435,-7.5289,582.6422],[109.4327,-7.5361,642.8175],[109.4339,-7.5392,623.4097],[109.4319,-7.5415,595.0748],[109.433,-7.5495,579.3906],[109.4286,-7.5562,467.6056],[109.4191,-7.5589,406.3239],[109.4151,-7.5657,392.7716],[109.4154,-7.5697,312.3464],[109.4211,-7.5785,202.8076],[109.4203,-7.5858,146.2118],[109.4235,-7.5893,143.035],[109.4251,-7.5885,122.3828],[109.4268,-7.5933,91.4999],[109.4286,-7.5948,98.4128],[109.4298,-7.5939,101.328],[109.4325,-7.5987,70.9528],[109.4378,-7.6012,62.0305],[109.4374,-7.604,58.5564],[109.4401,-7.6054,46.3547],[109.4412,-7.613,31.4422],[109.4439,-7.6153,27.6807],[109.4458,-7.6207,19.0352],[109.4439,-7.6217,15.6029],[109.4439,-7.6245,19.1041],[109.4422,-7.624,19.1041],[109.44,-7.6264,18.32],[109.4401,-7.6305,15.4379],[109.4349,-7.6358,14.1332],[109.4263,-7.6333,11.9682],[109.4239,-7.6371,6.5649],[109.4192,-7.6384,17.2368],[109.4145,-7.6481,4.8952],[109.4079,-7.6491,7.6365],[109.4071,-7.6513,1.7017],[109.4051,-7.6481,3.2369],[109.4041,-7.6515,1.7939],[109.4022,-7.6498,1.6945],[109.4033,-7.6467,5.6266],[109.4017,-7.6464,2.5464],[109.3991,-7.6494,3.1683],[109.3961,-7.647,5.7429],[109.3945,-7.6481,11.1858],[109.3921,-7.6472,3.532],[109.3921,-7.6443,6.8682],[109.389,-7.6458,1.416],[109.39,-7.6498,8.4179],[109.3869,-7.6514,8.5651],[109.3848,-7.6506,4.5494],[109.3835,-7.6533,8.2103],[109.3895,-7.6581,6.4092],[109.3831,-7.6656,2.5457],[109.3854,-7.6707,2.2976],[109.39,-7.6688,7.4669],[109.3917,-7.6693,11.8091],[109.3917,-7.6723,7.2496],[109.3866,-7.6731,1.8824],[109.3875,-7.6807,1.2734],[109.3796,-7.6867,8.2788],[109.3845,-7.6909,4.1521],[109.3862,-7.6875,1.5208],[109.3876,-7.6876,2.6367],[109.3955,-7.6965,2.0118],[109.395,-7.6989,3.3698],[109.3912,-7.7007,1.4696],[109.3876,-7.7141,1.9605],[109.388,-7.7196,2.4421],[109.3942,-7.7213,0.0],[109.392,-7.7257,0.0],[109.3937,-7.7281,29.9168],[109.3913,-7.7297,36.2809],[109.3896,-7.7356,69.718],[109.3876,-7.7363,0.0],[109.3881,-7.7456,0.0],[109.3863,-7.751,0.0],[109.3873,-7.7545,25.3777],[109.3885,-7.7562,5.5013],[109.3915,-7.7546,3.9504],[109.3943,-7.7575,3.8999],[109.3969,-7.7571,29.9431],[109.398,-7.7637,1.2544],[109.4001,-7.7626,66.2199],[109.4092,-7.7659,68.2151],[109.4128,-7.7703,0.0],[109.4112,-7.7758,1.4407],[109.4127,-7.7761,22.4533],[109.4167,-7.7712,21.4544],[109.4209,-7.7704,10.2443],[109.4306,-7.7723,12.9386],[109.4343,-7.7759,0.3807],[109.4344,-7.7741,25.6353],[109.437,-7.7723,9.2926],[109.4364,-7.7685,3.9676],[109.4395,-7.7665,1.5578],[109.4443,-7.7683,0.0],[109.4491,-7.7653,70.8813],[109.451,-7.7667,0.0],[109.4535,-7.7633,42.3327],[109.456,-7.7654,15.6011],[109.4608,-7.7625,50.1296],[109.4613,-7.7639,0.0],[109.4626,-7.7623,50.1296],[109.4644,-7.7632,0.0],[109.4661,-7.7623,28.2197],[109.467,-7.7586,2.3178],[109.4948,-7.7616,0.0],[109.56,-7.7715,0.8079],[109.6096,-7.783,0.0],[109.6102,-7.7812,0.2826],[109.6088,-7.7801,0.2826],[109.5943,-7.7771,4.8301],[109.6211,-7.7813,0.5156],[109.625,-7.7825,1.8561],[109.6236,-7.7841,0.0],[109.6143,-7.7831,0.0],[109.7017,-7.8003,2.8871],[109.8192,-7.8305,1.2292],[109.8283,-7.8241,0.125]]]]}}