{"type":"Feature","properties":{"GID_3":"IDN.10.21.13_1","GID_0":"IDN","country":"Indonesia","GID_1":"IDN.10_1","province":"JawaTengah","NL_NAME_1":"NA","GID_2":"IDN.10.21_1","county":"Pati","NL_NAME_2":"NA","city":"Pati","VARNAME_3":"NA","NL_NAME_3":"NA","TYPE_3":"Kecamatan","ENGTYPE_3":"Sub-district","CC_3":"3318100","HASC_3":"NA","name":"Pati.city"},
"geometry":{"type": "MultiPolygon","coordinates": [[[[111.0447,-6.7832,3.3593],[111.0499,-6.7747,4.3273],[111.0538,-6.7735,4.1989],[111.0595,-6.7675,3.9317],[111.0633,-6.7678,3.8484],[111.0641,-6.7615,3.3602],[111.0665,-6.7626,3.1691],[111.07,-6.7618,3.1811],[111.0721,-6.7589,3.1751],[111.0781,-6.7557,2.9051],[111.082,-6.7514,2.7044],[111.0813,-6.7483,3.1647],[111.0882,-6.745,2.2252],[111.089,-6.7405,2.5655],[111.0956,-6.7336,2.3913],[111.1014,-6.7328,1.9027],[111.1036,-6.7346,3.0839],[111.107,-6.7345,2.8606],[111.1075,-6.7323,3.5295],[111.1046,-6.7313,2.7558],[111.104,-6.729,4.7627],[111.1023,-6.7305,3.4766],[111.0996,-6.7259,5.1921],[111.1061,-6.7213,2.3955],[111.1062,-6.7136,2.765],[111.103,-6.7124,2.8217],[111.1017,-6.7085,2.9899],[111.094,-6.7106,4.3786],[111.0919,-6.719,4.4613],[111.0869,-6.7166,5.0809],[111.0763,-6.7179,6.2629],[111.07,-6.716,9.247],[111.0693,-6.7143,11.3427],[111.0609,-6.7125,13.0616],[111.0591,-6.7095,16.3354],[111.0545,-6.7152,16.0669],[111.0501,-6.7123,19.0839],[111.0453,-6.7147,20.4346],[111.039,-6.7111,26.5187],[111.0367,-6.7175,28.5556],[111.0335,-6.7165,29.836],[111.0313,-6.7205,26.4689],[111.032,-6.7222,26.1922],[111.025,-6.7205,36.5304],[111.0253,-6.724,31.4467],[111.0222,-6.7297,23.7361],[111.0258,-6.7396,20.5159],[111.0229,-6.7391,22.4212],[111.0244,-6.7446,17.4821],[111.0229,-6.7446,17.4821],[111.0222,-6.7475,19.1335],[111.0209,-6.7472,19.1335],[111.0224,-6.7515,15.8682],[111.0184,-6.7518,17.5009],[111.0185,-6.7569,16.6808],[111.0216,-6.7594,13.4841],[111.0222,-6.7632,13.1862],[111.0267,-6.7612,10.4766],[111.0318,-6.7656,8.0264],[111.0386,-6.7665,6.8944],[111.0386,-6.768,9.0037],[111.0358,-6.7689,8.071],[111.0358,-6.773,8.4951],[111.0373,-6.7733,7.5659],[111.0377,-6.776,6.4127],[111.0351,-6.7849,5.1782],[111.036,-6.7862,5.1782],[111.0447,-6.7832,3.3593]]]]}}