{"type":"Feature","properties":{"GID_3":"IDN.30.4.3_1","GID_0":"IDN","country":"Indonesia","GID_1":"IDN.30_1","province":"SumateraBarat","NL_NAME_1":"NA","GID_2":"IDN.30.4_1","county":"Dharmasraya","NL_NAME_2":"NA","city":"KotoBaru","VARNAME_3":"NA","NL_NAME_3":"NA","TYPE_3":"Kecamatan","ENGTYPE_3":"Sub-district","CC_3":"1311020","HASC_3":"NA","name":"Koto_Baru.city"},
"geometry":{"type": "MultiPolygon","coordinates": [[[[101.7107,-1.1782,100.5783],[101.7312,-1.1831,81.6227],[101.7519,-1.1935,110.4111],[101.7662,-1.1896,103.0738],[101.7556,-1.1784,104.7992],[101.7444,-1.1578,71.5872],[101.749,-1.1484,74.5871],[101.7519,-1.109,88.5793],[101.7612,-1.0996,83.0585],[101.7754,-1.0962,83.8141],[101.7762,-1.0914,91.1372],[101.7539,-1.0924,94.5278],[101.7431,-1.091,86.0928],[101.7313,-1.086,93.9304],[101.722,-1.0717,95.6093],[101.7087,-1.0584,91.77],[101.7033,-1.0496,90.097],[101.6979,-1.0552,91.2417],[101.6818,-1.0642,94.5205],[101.6725,-1.0637,90.6126],[101.6661,-1.0684,89.9675],[101.664,-1.0752,97.7461],[101.6529,-1.0811,99.5763],[101.6274,-1.0858,113.6123],[101.6156,-1.0935,136.7773],[101.6024,-1.099,154.9441],[101.5863,-1.1021,165.0019],[101.5912,-1.1085,133.7004],[101.5931,-1.1154,116.2778],[101.5992,-1.1176,131.5827],[101.6053,-1.1271,158.3549],[101.6186,-1.1317,142.5979],[101.6231,-1.1366,133.8344],[101.6261,-1.1467,95.8062],[101.6411,-1.151,91.7051],[101.647,-1.149,96.3959],[101.6642,-1.1622,100.2944],[101.6708,-1.1642,89.9052],[101.6759,-1.1622,99.3158],[101.6852,-1.1653,118.2156],[101.704,-1.1766,102.1025],[101.7107,-1.1782,100.5783]]]]}}