{"type":"Feature","properties":{"GID_3":"IDN.24.9.6_1","GID_0":"IDN","country":"Indonesia","GID_1":"IDN.24_1","province":"Riau","NL_NAME_1":"NA","GID_2":"IDN.24.9_1","county":"Pelalawan","NL_NAME_2":"NA","city":"Langgam","VARNAME_3":"NA","NL_NAME_3":"NA","TYPE_3":"Kecamatan","ENGTYPE_3":"Sub-district","CC_3":"1404010","HASC_3":"NA","name":"Langgam.city"},
"geometry":{"type": "MultiPolygon","coordinates": [[[[101.5298,-0.0014,60.324],[101.5145,-0.0405,86.3596],[101.5229,-0.1176,92.6832],[101.5304,-0.1193,102.9053],[101.5325,-0.1279,78.9802],[101.5357,-0.1268,81.7496],[101.5446,-0.1302,91.7485],[101.5482,-0.1456,92.1245],[101.5525,-0.1527,85.536],[101.5573,-0.1553,94.4641],[101.5568,-0.1614,113.8751],[101.5601,-0.1704,98.1991],[101.5665,-0.1767,91.8363],[101.5701,-0.1832,99.8027],[101.5828,-0.1877,89.4345],[101.5856,-0.1926,106.1385],[101.5924,-0.1982,110.1975],[101.5962,-0.2141,131.6429],[101.6025,-0.2195,114.4115],[101.6044,-0.2257,135.2065],[101.611,-0.2351,123.6817],[101.6166,-0.2362,146.8676],[101.6197,-0.2311,159.2787],[101.623,-0.2309,130.0682],[101.6394,-0.2464,116.0549],[101.6519,-0.2406,138.4214],[101.6617,-0.2396,137.1157],[101.6673,-0.2232,148.7892],[101.673,-0.1905,114.9827],[101.6732,-0.178,93.4487],[101.6722,-0.1709,110.5245],[101.6619,-0.1479,110.7342],[101.6603,-0.1392,78.1625],[101.6629,-0.1332,84.7262],[101.6701,-0.1291,73.897],[101.6755,-0.1238,74.3802],[101.6778,-0.1198,92.7822],[101.6782,-0.1152,87.9952],[101.6696,-0.0968,71.3698],[101.67,-0.0905,60.2566],[101.6721,-0.0879,66.8211],[101.6784,-0.0853,66.6009],[101.6934,-0.0705,55.3807],[101.7025,-0.0404,46.454],[101.7834,0.0107,30.5419],[101.7882,0.0164,28.8353],[101.7969,0.0409,28.0616],[101.8718,0.0868,17.2982],[101.9303,0.1201,14.449],[101.9276,0.1292,16.5585],[101.9207,0.1411,22.3948],[101.9169,0.1438,18.5737],[101.9158,0.1492,15.4011],[101.9111,0.1532,10.7977],[101.9063,0.1546,10.7609],[101.9007,0.16,11.8575],[101.9011,0.1623,10.5573],[101.8952,0.1659,4.4034],[101.8927,0.1762,4.6672],[101.8863,0.1818,5.1857],[101.8828,0.1908,4.5182],[101.8846,0.2094,3.9179],[101.89,0.2214,4.03],[101.8975,0.2273,8.5233],[101.8956,0.2333,8.7859],[101.8962,0.2379,8.8675],[101.8936,0.242,8.6009],[101.8887,0.2444,8.4634],[101.8878,0.2487,8.9113],[101.8794,0.2614,7.7218],[101.8789,0.2682,7.1625],[101.882,0.2753,6.5234],[101.8501,0.2723,8.2119],[101.8311,0.2685,7.7978],[101.8209,0.2709,6.1637],[101.8044,0.2808,8.5133],[101.8009,0.2899,5.8479],[101.7996,0.2999,5.1443],[101.7978,0.3017,4.2079],[101.7873,0.3031,4.0407],[101.78,0.3006,7.5122],[101.7747,0.2967,9.0669],[101.7657,0.2963,9.037],[101.7569,0.304,5.6714],[101.7496,0.308,11.2345],[101.7228,0.3185,18.021],[101.676,0.3275,10.1657],[101.6594,0.3211,17.7542],[101.6591,0.3187,17.7407],[101.6796,0.2948,8.9594],[101.6827,0.2759,7.3354],[101.6817,0.2708,8.1629],[101.5805,0.268,24.4965],[101.5743,0.2539,14.9037],[101.567,0.2307,9.6855],[101.5652,0.2184,11.32],[101.5707,0.213,9.103],[101.5741,0.2054,19.0857],[101.5779,0.2019,11.1641],[101.5864,0.2022,7.9618],[101.5871,0.2047,5.5],[101.5921,0.1938,22.0355],[101.5904,0.1848,10.5624],[101.5801,0.1615,20.0817],[101.5789,0.1445,33.4093],[101.5724,0.1229,38.8785],[101.5709,0.1044,29.8287],[101.5759,0.0918,33.1399],[101.5717,0.0644,35.9797],[101.5686,0.0519,40.9803],[101.5624,0.046,45.9009],[101.5618,0.0421,50.0305],[101.5563,0.0438,52.0347],[101.5497,0.0417,69.3131],[101.5396,0.0364,57.2422],[101.534,0.0296,57.9161],[101.5319,0.0231,57.1394],[101.5298,-0.0014,60.324]]]]}}