{"type":"Feature","properties":{"GID_3":"IDN.2.5.4_1","GID_0":"IDN","country":"Indonesia","GID_1":"IDN.2_1","province":"Bali","NL_NAME_1":"NA","GID_2":"IDN.2.5_1","county":"Gianyar","NL_NAME_2":"NA","city":"Sukawati","VARNAME_3":"NA","NL_NAME_3":"NA","TYPE_3":"Kecamatan","ENGTYPE_3":"Sub-district","CC_3":"5104010","HASC_3":"NA","name":"Sukawati.city"},
"geometry":{"type": "MultiPolygon","coordinates": [[[[115.2439,-8.6012,75.9998],[115.2423,-8.6031,72.7844],[115.2439,-8.6112,66.6962],[115.2557,-8.6229,44.9992],[115.2561,-8.6283,33.1272],[115.2603,-8.6363,25.9491],[115.2645,-8.6374,21.3412],[115.2658,-8.6414,19.1062],[115.2693,-8.6414,18.5861],[115.2715,-8.6471,15.614],[115.275,-8.6502,0.0],[115.2982,-8.6322,3.2406],[115.3029,-8.6241,1.1246],[115.3169,-8.6157,3.0538],[115.3132,-8.6131,7.5718],[115.3113,-8.6085,18.1927],[115.3084,-8.6092,22.3752],[115.298,-8.6,42.3399],[115.2979,-8.5979,37.3631],[115.2894,-8.5919,49.3816],[115.2883,-8.5862,49.4527],[115.2905,-8.5842,53.1411],[115.2893,-8.5815,65.8603],[115.2911,-8.5743,79.9476],[115.29,-8.5691,95.896],[115.2927,-8.5647,101.0429],[115.292,-8.5502,118.8754],[115.2899,-8.5471,126.4715],[115.2912,-8.5442,113.0899],[115.2893,-8.5427,125.4835],[115.2925,-8.534,149.3357],[115.287,-8.5292,149.8932],[115.2881,-8.5263,154.751],[115.2791,-8.5165,183.5381],[115.2778,-8.5199,187.444],[115.2805,-8.523,181.8134],[115.2783,-8.5306,167.9151],[115.28,-8.5327,162.5874],[115.2784,-8.544,142.8618],[115.2822,-8.5557,116.6985],[115.2791,-8.562,112.0503],[115.268,-8.5614,113.8339],[115.2682,-8.579,89.2755],[115.265,-8.579,103.203],[115.2631,-8.576,97.1838],[115.2592,-8.5742,99.7953],[115.255,-8.5604,121.5146],[115.2543,-8.5513,124.8169],[115.2487,-8.5495,132.8561],[115.2484,-8.546,138.9372],[115.2465,-8.5443,140.8922],[115.2481,-8.5403,147.9064],[115.2456,-8.5336,160.7359],[115.2421,-8.5353,152.4724],[115.242,-8.5379,145.8066],[115.2441,-8.5403,143.4967],[115.234,-8.5413,146.5492],[115.2351,-8.5454,143.8717],[115.2391,-8.548,137.5426],[115.2415,-8.5561,127.022],[115.2449,-8.5583,124.1617],[115.2449,-8.5642,118.7198],[115.2493,-8.5744,106.798],[115.2496,-8.585,87.4635],[115.2439,-8.6012,75.9998]]]]}}