{"type":"Feature","properties":{"GID_3":"IDN.23.27.1_1","GID_0":"IDN","country":"Indonesia","GID_1":"IDN.23_1","province":"Papua","NL_NAME_1":"NA","GID_2":"IDN.23.27_1","county":"Waropen","NL_NAME_2":"NA","city":"Demba","VARNAME_3":"NA","NL_NAME_3":"NA","TYPE_3":"Distrik","ENGTYPE_3":"District","CC_3":"9426022","HASC_3":"NA","name":"Demba.city"},
"geometry":{"type": "MultiPolygon","coordinates": [[[[136.7445,-2.2545,0.0],[136.7416,-2.2575,9.0171],[136.7443,-2.2525,0.0],[136.7413,-2.2471,1.114],[136.7376,-2.2493,9.776],[136.7322,-2.2482,11.0707],[136.7367,-2.2486,9.776],[136.7388,-2.2466,3.3299],[136.7312,-2.2427,2.8569],[136.7229,-2.2348,9.7814],[136.7117,-2.2279,0.0],[136.7048,-2.2275,0.0],[136.7017,-2.2358,2.9837],[136.6903,-2.2453,0.0],[136.6853,-2.247,0.0],[136.6828,-2.2522,5.2561],[136.6741,-2.2581,0.0],[136.6745,-2.2605,6.3804],[136.6733,-2.2612,0.0],[136.6662,-2.258,2.993],[136.6634,-2.2596,8.2794],[136.6629,-2.2567,0.0],[136.6545,-2.257,0.8697],[136.6541,-2.2545,0.0],[136.6466,-2.2516,3.3479],[136.6458,-2.2481,0.0],[136.6408,-2.2461,0.0],[136.6372,-2.2465,0.0],[136.6354,-2.2519,3.7673],[136.6299,-2.2472,0.0],[136.6206,-2.2471,0.0],[136.6147,-2.2507,6.9464],[136.6102,-2.2487,0.0],[136.6059,-2.2531,10.1033],[136.6015,-2.2535,2.9107],[136.5983,-2.2773,0.0],[136.6268,-2.2776,6.9451],[136.677,-2.2874,9.9964],[136.6744,-2.2988,20.0187],[136.6807,-2.3062,29.6712],[136.6806,-2.3106,41.0008],[136.6921,-2.3109,26.3068],[136.697,-2.3206,68.2476],[136.6952,-2.3273,14.963],[136.6974,-2.3281,29.9485],[136.7044,-2.3222,24.9889],[136.7093,-2.3283,28.7096],[136.7131,-2.3275,41.045],[136.7157,-2.3289,39.7494],[136.7142,-2.332,30.0053],[136.7149,-2.3358,42.7549],[136.7176,-2.3357,29.7135],[136.7207,-2.3375,23.7424],[136.7215,-2.3398,39.0654],[136.7242,-2.3398,47.0186],[136.7262,-2.3482,63.182],[136.7334,-2.3478,167.0142],[136.7514,-2.3438,126.6584],[136.7506,-2.3382,140.8587],[136.7537,-2.3353,145.9785],[136.7529,-2.3261,98.1817],[136.7587,-2.3064,40.9156],[136.7575,-2.2987,25.6926],[136.7551,-2.2959,11.9517],[136.7652,-2.288,12.1185],[136.7717,-2.2899,22.9255],[136.774,-2.2937,31.3183],[136.7786,-2.2964,33.2824],[136.7826,-2.2955,32.6511],[136.7877,-2.2884,14.3768],[136.7845,-2.2916,13.7568],[136.7781,-2.2887,10.8948],[136.7801,-2.2863,19.3613],[136.7791,-2.2832,5.1774],[136.7764,-2.2878,11.8033],[136.773,-2.2848,7.935],[136.7671,-2.2847,3.8353],[136.7678,-2.2814,3.9135],[136.7656,-2.28,3.2706],[136.7674,-2.2783,7.6489],[136.7664,-2.2746,8.5485],[136.764,-2.2746,13.506],[136.7576,-2.2788,7.0635],[136.7534,-2.2775,2.0008],[136.7471,-2.265,4.6128],[136.7467,-2.2582,3.2663],[136.7445,-2.2545,0.0]]],
[[[136.738,-2.2448,1.9205],[136.7397,-2.2461,2.5141],[136.7404,-2.245,0.7423],[136.7395,-2.244,0.0],[136.738,-2.2448,1.9205]]],
[[[136.6492,-2.2514,4.8337],[136.6503,-2.2515,0.0],[136.6503,-2.2504,1.5951],[136.6482,-2.2507,1.2991],[136.6492,-2.2514,4.8337]]]]}}