{"type":"Feature","properties":{"GID_3":"IDN.6.6.6_1","GID_0":"IDN","country":"Indonesia","GID_1":"IDN.6_1","province":"Gorontalo","NL_NAME_1":"NA","GID_2":"IDN.6.6_1","county":"KotaGorontalo","NL_NAME_2":"NA","city":"KotaUtara","VARNAME_3":"NA","NL_NAME_3":"NA","TYPE_3":"Kecamatan","ENGTYPE_3":"Sub-district","CC_3":"7571030","HASC_3":"NA","name":"Kota_Utara.city"},
"geometry":{"type": "MultiPolygon","coordinates": [[[[123.0859,0.547,7.7461],[123.0892,0.5529,9.1041],[123.0876,0.5548,8.422],[123.091,0.5803,14.7148],[123.0611,0.5889,14.926],[123.0595,0.5873,13.9404],[123.0528,0.5869,15.1862],[123.0514,0.583,14.753],[123.0464,0.5774,15.0168],[123.0586,0.5705,13.5728],[123.0689,0.5669,13.9092],[123.0651,0.5563,10.5418],[123.0699,0.5551,6.4686],[123.0809,0.5484,7.1559],[123.0758,0.5405,6.4342],[123.0838,0.5422,7.9222],[123.0859,0.547,7.7461]]]]}}