{"type":"Feature","properties":{"GID_3":"IDN.12.10.2_1","GID_0":"IDN","country":"Indonesia","GID_1":"IDN.12_1","province":"KalimantanBarat","NL_NAME_1":"NA","GID_2":"IDN.12.10_1","county":"Sambas","NL_NAME_2":"NA","city":"JawaiSelatan","VARNAME_3":"NA","NL_NAME_3":"NA","TYPE_3":"Kecamatan","ENGTYPE_3":"Sub-district","CC_3":"6101051","HASC_3":"NA","name":"Jawai_Selatan.city"},
"geometry":{"type": "MultiPolygon","coordinates": [[[[109.0394,1.2042,0.0],[109.0544,1.203,0.0],[109.0713,1.2052,0.0],[109.0775,1.209,0.5],[109.0849,1.2172,0.5],[109.0973,1.2234,0.5],[109.0629,1.2794,2.574],[109.0603,1.2888,2.2777],[109.0634,1.2947,5.4622],[109.0536,1.2975,2.1766],[109.048,1.2973,2.9069],[109.0389,1.2903,4.0584],[109.033,1.282,3.1487],[109.0185,1.2889,5.0533],[109.0117,1.297,0.991],[108.9925,1.277,32.9925],[108.9897,1.2759,22.0044],[108.9899,1.2736,62.5248],[108.9873,1.2718,4.0765],[108.9896,1.2695,10.7507],[108.9898,1.2665,5.155],[108.9871,1.2563,2.544],[108.964,1.2184,0.5789],[108.9598,1.2047,0.0],[108.9627,1.1978,24.7545],[108.967,1.1958,0.0],[108.9695,1.1898,0.0],[108.9732,1.1926,0.0],[108.9786,1.2025,0.0],[108.9832,1.2055,0.0],[108.993,1.2085,0.0],[109.0013,1.2095,0.0],[109.0394,1.2042,0.0]]]]}}