{"type":"Feature","properties":{"GID_3":"IDN.4.4.2_1","GID_0":"IDN","country":"Indonesia","GID_1":"IDN.4_1","province":"Banten","NL_NAME_1":"NA","GID_2":"IDN.4.4_1","county":"Lebak","NL_NAME_2":"NA","city":"Bayah","VARNAME_3":"NA","NL_NAME_3":"NA","TYPE_3":"Kecamatan","ENGTYPE_3":"Sub-district","CC_3":"3602030","HASC_3":"NA","name":"Bayah.city"},
"geometry":{"type": "MultiPolygon","coordinates": [[[[106.2794,-6.9801,0.0],[106.2796,-6.9804,0.0],[106.2799,-6.9801,0.0],[106.2796,-6.9799,0.0],[106.2794,-6.9801,0.0]]],
[[[106.2973,-6.9007,83.5667],[106.2941,-6.8945,217.5156],[106.3018,-6.881,305.0043],[106.3004,-6.8765,361.6472],[106.3017,-6.874,374.342],[106.299,-6.8672,398.1639],[106.2937,-6.866,294.5852],[106.2923,-6.8617,259.5074],[106.2743,-6.8548,127.9519],[106.2733,-6.8462,172.3487],[106.2773,-6.8333,308.3618],[106.2767,-6.8307,252.5007],[106.2786,-6.8299,278.6299],[106.2815,-6.8238,272.5745],[106.2837,-6.8245,278.3427],[106.2857,-6.8226,318.7801],[106.2876,-6.8172,303.5737],[106.2922,-6.8113,319.3499],[106.2935,-6.8074,349.9937],[106.292,-6.805,330.7672],[106.2946,-6.8035,354.2643],[106.2931,-6.7965,585.0692],[106.2768,-6.8064,569.3977],[106.2722,-6.8232,508.8862],[106.265,-6.8284,538.1968],[106.2633,-6.8316,504.6339],[106.2631,-6.8369,478.8065],[106.2599,-6.8415,436.3685],[106.2584,-6.8499,428.0568],[106.2599,-6.855,368.0854],[106.2564,-6.8591,307.9682],[106.2578,-6.8661,301.8834],[106.2569,-6.874,202.6794],[106.2523,-6.875,175.3659],[106.2488,-6.8815,142.2919],[106.2434,-6.8823,193.6383],[106.2452,-6.8883,122.7574],[106.2438,-6.8947,111.2037],[106.2409,-6.8969,100.182],[106.2424,-6.8994,83.8776],[106.2387,-6.9072,70.6889],[106.2399,-6.9095,71.678],[106.238,-6.912,80.206],[106.2381,-6.9152,58.5902],[106.232,-6.92,32.1361],[106.2281,-6.9198,23.8496],[106.2277,-6.9235,4.9083],[106.2296,-6.9272,0.0],[106.2417,-6.9346,0.9794],[106.2461,-6.9402,0.0],[106.2478,-6.9485,7.216],[106.2415,-6.952,29.4854],[106.2394,-6.9559,0.0],[106.246,-6.9606,2.8525],[106.2548,-6.9603,3.025],[106.2591,-6.9623,7.7751],[106.2627,-6.9675,0.0],[106.2654,-6.9684,8.268],[106.2645,-6.972,0.0],[106.2664,-6.9743,4.7853],[106.2787,-6.978,2.7259],[106.2801,-6.9799,0.0],[106.2836,-6.9741,20.9968],[106.3016,-6.9789,0.0],[106.3083,-6.9867,2.2507],[106.3089,-6.9896,2.913],[106.3066,-6.994,2.5453],[106.31,-6.9958,0.0],[106.3203,-6.9916,16.0909],[106.3229,-6.9879,3.9894],[106.3253,-6.9885,0.7884],[106.3253,-6.9917,0.0],[106.3309,-6.9918,0.0],[106.3345,-6.9877,32.8537],[106.3376,-6.9872,2.7813],[106.3433,-6.9901,2.2946],[106.3433,-6.9975,4.8046],[106.3524,-6.994,31.3372],[106.3561,-6.9963,26.6408],[106.3547,-6.9994,0.0],[106.3588,-6.9977,16.7502],[106.3617,-6.9949,0.0],[106.3607,-6.9927,47.3247],[106.3631,-6.9909,60.4031],[106.3627,-6.9868,54.386],[106.3671,-6.9821,185.952],[106.3639,-6.9715,200.0421],[106.3606,-6.9674,217.9878],[106.3484,-6.961,194.5979],[106.3476,-6.9631,210.6466],[106.345,-6.9626,190.9391],[106.339,-6.9669,125.8823],[106.3348,-6.9625,149.455],[106.3291,-6.9606,99.0223],[106.3308,-6.9547,107.9527],[106.3264,-6.9526,91.3353],[106.3274,-6.9497,85.7749],[106.3316,-6.9472,130.9414],[106.3305,-6.941,253.7862],[106.3451,-6.9352,208.24],[106.3427,-6.9342,185.2355],[106.3425,-6.9279,207.4546],[106.3349,-6.9274,316.637],[106.3318,-6.9247,308.0962],[106.3323,-6.9218,336.0134],[106.3272,-6.9185,339.5362],[106.3266,-6.9141,250.1504],[106.3292,-6.9096,308.4651],[106.3271,-6.9033,185.5675],[106.3353,-6.9006,197.1299],[106.3344,-6.899,235.891],[106.3382,-6.8942,256.0255],[106.3367,-6.8896,313.0202],[106.3394,-6.8866,330.2994],[106.3428,-6.8852,350.1233],[106.3458,-6.8814,442.5752],[106.3531,-6.8791,606.8599],[106.3513,-6.8704,710.3593],[106.3486,-6.8684,638.2994],[106.3476,-6.8648,521.3398],[106.3435,-6.8636,367.9847],[106.3367,-6.866,360.1246],[106.3354,-6.8682,314.2245],[106.3332,-6.8671,272.6875],[106.3308,-6.8701,285.0668],[106.3266,-6.8699,319.0968],[106.3217,-6.8761,189.0787],[106.3155,-6.8774,161.9955],[106.3135,-6.8804,172.7668],[106.3095,-6.8814,146.4809],[106.3102,-6.8851,128.8039],[106.3013,-6.8969,125.4305],[106.3022,-6.8997,111.7075],[106.3008,-6.9017,101.9402],[106.2973,-6.9007,83.5667]]],
[[[106.262,-6.9717,0.0],[106.2619,-6.9721,0.0],[106.262,-6.9722,0.0],[106.2622,-6.9718,0.0],[106.262,-6.9717,0.0]]],
[[[106.2615,-6.9722,0.0],[106.2618,-6.9724,0.0],[106.2617,-6.9714,0.0],[106.2612,-6.9723,0.0],[106.2615,-6.9722,0.0]]]]}}