{"type":"Feature","properties":{"GID_3":"IDN.11.35.18_1","GID_0":"IDN","country":"Indonesia","GID_1":"IDN.11_1","province":"JawaTimur","NL_NAME_1":"NA","GID_2":"IDN.11.35_1","county":"Surabaya","NL_NAME_2":"NA","city":"Rungkut","VARNAME_3":"NA","NL_NAME_3":"NA","TYPE_3":"Kecamatan","ENGTYPE_3":"Sub-district","CC_3":"3578070","HASC_3":"NA","name":"Rungkut.city"},
"geometry":{"type": "MultiPolygon","coordinates": [[[[112.7875,-7.3319,5.7584],[112.7948,-7.3334,4.1456],[112.8223,-7.3303,3.1767],[112.8279,-7.3325,2.8057],[112.8329,-7.3253,5.1282],[112.8377,-7.3224,0.0],[112.8358,-7.3193,6.0293],[112.8402,-7.3189,3.1378],[112.8425,-7.317,3.4421],[112.8463,-7.3055,0.0],[112.8457,-7.3042,0.0],[112.8445,-7.3048,1.2918],[112.8387,-7.3102,1.946],[112.822,-7.3068,1.9212],[112.8167,-7.3017,2.629],[112.81,-7.2988,2.4553],[112.8061,-7.3024,2.1267],[112.8084,-7.3071,1.0166],[112.8073,-7.3086,2.4156],[112.7916,-7.3075,3.1149],[112.7794,-7.3108,3.6499],[112.771,-7.3086,5.5772],[112.7706,-7.3107,8.1841],[112.7686,-7.3106,5.3793],[112.7689,-7.3138,4.1565],[112.7658,-7.3147,5.2984],[112.7639,-7.3134,5.4369],[112.7641,-7.315,4.9939],[112.7617,-7.3147,5.269],[112.7648,-7.3158,4.9939],[112.7575,-7.3303,7.8627],[112.7669,-7.332,5.7742],[112.7875,-7.3319,5.7584]]]]}}