{"type":"Feature","properties":{"GID_3":"IDN.32.18.18_1","GID_0":"IDN","country":"Indonesia","GID_1":"IDN.32_1","province":"SumateraUtara","NL_NAME_1":"NA","GID_2":"IDN.32.18_1","county":"NiasSelatan","NL_NAME_2":"NA","city":"Toma","VARNAME_3":"NA","NL_NAME_3":"NA","TYPE_3":"Kecamatan","ENGTYPE_3":"Sub-district","CC_3":"1214032","HASC_3":"NA","name":"Toma.city"},
"geometry":{"type": "MultiPolygon","coordinates": [[[[97.8564,0.6397,294.5132],[97.856,0.6335,278.299],[97.8581,0.6268,199.0981],[97.8612,0.6242,179.1316],[97.8569,0.6222,212.2609],[97.8663,0.6204,161.6213],[97.884,0.6063,0.0],[97.8909,0.6199,4.253],[97.8987,0.6234,0.0],[97.9006,0.6262,8.8573],[97.9002,0.63,11.886],[97.8952,0.6385,7.0233],[97.896,0.6442,18.6201],[97.893,0.6544,0.0],[97.8932,0.6632,2.6835],[97.8961,0.6681,17.9294],[97.8936,0.6758,12.7505],[97.8981,0.6916,18.7666],[97.8931,0.7036,0.0],[97.8977,0.7127,7.6117],[97.8937,0.7197,2.8069],[97.889,0.719,182.9303],[97.8675,0.7244,276.2075],[97.8508,0.7245,117.3143],[97.8556,0.709,61.9903],[97.8648,0.6891,56.2784],[97.8661,0.682,90.4646],[97.8645,0.6603,244.1717],[97.8564,0.6397,294.5132]]]]}}