{"type":"Feature","properties":{"GID_3":"IDN.4.4.26_1","GID_0":"IDN","country":"Indonesia","GID_1":"IDN.4_1","province":"Banten","NL_NAME_1":"NA","GID_2":"IDN.4.4_1","county":"Lebak","NL_NAME_2":"NA","city":"Sobang","VARNAME_3":"NA","NL_NAME_3":"NA","TYPE_3":"Kecamatan","ENGTYPE_3":"Sub-district","CC_3":"3602111","HASC_3":"NA","name":"Sobang.city"},
"geometry":{"type": "MultiPolygon","coordinates": [[[[106.4059,-6.6979,1513.1577],[106.41,-6.6973,1481.9542],[106.4064,-6.6907,1330.892],[106.4024,-6.6693,1204.1637],[106.3917,-6.6566,836.6317],[106.3854,-6.6432,833.5835],[106.3712,-6.624,863.1102],[106.3623,-6.6203,1259.4558],[106.3449,-6.6185,880.3494],[106.3432,-6.6162,877.0232],[106.3392,-6.615,803.5645],[106.3384,-6.6161,786.3368],[106.3357,-6.6139,734.411],[106.332,-6.6166,703.6424],[106.3257,-6.6155,624.5033],[106.3251,-6.6128,610.918],[106.3203,-6.6125,549.6001],[106.3025,-6.6021,355.9826],[106.2948,-6.605,299.891],[106.2937,-6.6036,357.751],[106.2953,-6.6003,292.2315],[106.2889,-6.5926,246.9012],[106.2894,-6.5888,227.3539],[106.2841,-6.5918,297.9345],[106.2763,-6.5919,399.4176],[106.273,-6.5948,580.4476],[106.2698,-6.595,549.2929],[106.2734,-6.5981,521.972],[106.2741,-6.6093,215.133],[106.269,-6.6063,209.0668],[106.2685,-6.6094,207.654],[106.2631,-6.6106,227.2118],[106.263,-6.6134,224.126],[106.2602,-6.612,203.573],[106.2576,-6.6143,204.3785],[106.2543,-6.6085,184.4678],[106.2551,-6.6132,250.2005],[106.251,-6.6223,399.4696],[106.2517,-6.6271,496.5523],[106.259,-6.6344,455.4551],[106.2667,-6.6498,555.7059],[106.2666,-6.666,577.7191],[106.2574,-6.6852,938.3999],[106.2676,-6.6806,803.8904],[106.2751,-6.6801,846.8409],[106.2952,-6.692,936.9586],[106.3037,-6.6929,995.996],[106.3141,-6.688,851.79],[106.3226,-6.6865,774.9773],[106.3329,-6.6812,839.5392],[106.3473,-6.6788,756.3065],[106.3591,-6.6739,927.2366],[106.3687,-6.6774,924.3185],[106.3876,-6.6897,1013.442],[106.3958,-6.6923,1301.9451],[106.4005,-6.6974,1445.614],[106.4059,-6.6979,1513.1577]]]]}}