{"type":"Feature","properties":{"GID_3":"IDN.8.3.7_1","GID_0":"IDN","country":"Indonesia","GID_1":"IDN.8_1","province":"Jambi","NL_NAME_1":"NA","GID_2":"IDN.8.3_1","county":"Jambi","NL_NAME_2":"NA","city":"Pelayangan","VARNAME_3":"NA","NL_NAME_3":"NA","TYPE_3":"Kecamatan","ENGTYPE_3":"Sub-district","CC_3":"1571070","HASC_3":"NA","name":"Pelayangan.city"},
"geometry":{"type": "MultiPolygon","coordinates": [[[[103.6211,-1.5803,3.0],[103.6267,-1.5702,3.1116],[103.6379,-1.5597,3.6729],[103.6451,-1.5577,2.5],[103.6541,-1.5579,4.5817],[103.6531,-1.5521,9.3097],[103.6486,-1.55,8.8429],[103.6221,-1.5512,10.3719],[103.6158,-1.5471,4.7913],[103.611,-1.5466,6.9661],[103.6114,-1.5735,12.1896],[103.6047,-1.5848,10.7268],[103.6044,-1.5876999999999999,3.0],[103.6143,-1.5873,3.0],[103.6211,-1.5803,3.0]]]]}}