{"type":"Feature","properties":{"GID_3":"IDN.1.2.4_1","GID_0":"IDN","country":"Indonesia","GID_1":"IDN.1_1","province":"Aceh","NL_NAME_1":"NA","GID_2":"IDN.1.2_1","county":"AcehBarat","NL_NAME_2":"NA","city":"KawayXvi","VARNAME_3":"NA","NL_NAME_3":"NA","TYPE_3":"Kecamatan","ENGTYPE_3":"Sub-district","CC_3":"1107080","HASC_3":"NA","name":"Kaway_Xvi.city"},
"geometry":{"type": "MultiPolygon","coordinates": [[[[96.1482,4.1911,5.5247],[96.1607,4.184,4.1034],[96.1602,4.1875,4.9362],[96.164,4.1897,2.987],[96.1639,4.1926,3.4635],[96.1603,4.1966,4.0315],[96.162,4.1991,5.6938],[96.1613,4.2027,7.9009],[96.1821,4.2042,23.8288],[96.1835,4.2078,22.2814],[96.1945,4.2179,19.6647],[96.1998,4.2174,8.5098],[96.2005,4.2204,8.8922],[96.2031,4.2217,15.6139],[96.2263,4.2155,14.6674],[96.2395,4.2078,33.4464],[96.2442,4.2096,28.9966],[96.262,4.2027,42.447],[96.2734,4.2014,53.8457],[96.2769,4.2105,70.8769],[96.2751,4.2143,81.3085],[96.2709,4.2149,60.9376],[96.2682,4.2173,53.7892],[96.2665,4.2272,59.5808],[96.2704,4.244,67.5459],[96.2807,4.2538,36.6107],[96.282,4.2657,48.8376],[96.2861,4.2696,55.6036],[96.282,4.2859,93.7573],[96.2859,4.2893,90.2483],[96.2933,4.3343,80.5658],[96.2482,4.3513,35.2565],[96.238,4.3484,29.0107],[96.2232,4.3478,24.1838],[96.2221,4.3459,26.6744],[96.2257,4.3406,38.3167],[96.2265,4.3344,32.7852],[96.2236,4.32,18.6583],[96.2062,4.3186,22.4898],[96.2022,4.3164,9.5283],[96.2012,4.3174,11.828],[96.1971,4.316,10.3493],[96.1961,4.32,9.0145],[96.1924,4.3191,10.3027],[96.1897,4.3205,15.2053],[96.1858,4.3294,12.5765],[96.1871,4.3323,12.9074],[96.1933,4.329,14.7338],[96.1975,4.3403,16.3768],[96.1943,4.3412,16.6605],[96.1904,4.3352,24.9387],[96.189,4.3354,15.707],[96.1878,4.3463,19.6383],[96.1834,4.3507,14.25],[96.184,4.3538,24.7696],[96.1888,4.3572,20.5348],[96.1677,4.3594,24.6409],[96.1759,4.3286,18.9231],[96.1816,4.3149,17.7066],[96.1821,4.3065,17.3841],[96.1794,4.2962,22.0644],[96.1727,4.2851,24.3227],[96.1582,4.2704,30.8352],[96.1264,4.2492,33.1654],[96.1399,4.2326,14.4448],[96.1431,4.2251,17.56],[96.1385,4.2124,17.753],[96.1415,4.2033,9.7492],[96.1472,4.197,3.7521],[96.1482,4.1911,5.5247]]]]}}