{"type":"Feature","properties":{"GID_3":"IDN.14.5.2_1","GID_0":"IDN","country":"Indonesia","GID_1":"IDN.14_1","province":"KalimantanTengah","NL_NAME_1":"NA","GID_2":"IDN.14.5_1","county":"Kapuas","NL_NAME_2":"NA","city":"Bataguh","VARNAME_3":"NA","NL_NAME_3":"NA","TYPE_3":"Kecamatan","ENGTYPE_3":"Sub-district","CC_3":"6203041","HASC_3":"NA","name":"Bataguh.city"},
"geometry":{"type": "MultiPolygon","coordinates": [[[[114.2439,-3.3102,1.7115],[114.274,-3.2498,5.4197],[114.2871,-3.2271,4.9636],[114.3584,-3.1881,1.9438],[114.3707,-3.1846,3.3955],[114.3976,-3.1723,2.5141],[114.425,-3.1635,1.2955],[114.3882,-3.0808,6.3248],[114.3927,-3.0581,2.5347],[114.3952,-3.0505,1.7592],[114.3979,-3.048,1.696],[114.3973,-3.0446,2.395],[114.4019,-3.0381,2.7843],[114.393,-3.0283,0.0],[114.3894,-3.0275,0.0],[114.3723,-3.0467,0.0],[114.3656,-3.0382,5.2838],[114.3567,-3.0338,4.6434],[114.337,-3.0412,2.7527],[114.3194,-3.0456,4.8329],[114.3162,-3.043,2.2547],[114.316,-3.0401,3.1064],[114.3076,-3.0441,1.9104],[114.2837,-3.0432,3.0421],[114.2266,-3.1941,3.6181],[114.2038,-3.1875,3.4002],[114.1918,-3.2157,1.9454],[114.1755,-3.2734,0.9073],[114.1329,-3.3803,13.7337],[114.1581,-3.3844,7.1061],[114.1779,-3.3928,7.2976],[114.1886,-3.3905,2.7503],[114.2088,-3.3804,4.458],[114.2439,-3.3102,1.7115]]]]}}