{"type":"Feature","properties":{"GID_3":"IDN.9.10.3_1","GID_0":"IDN","country":"Indonesia","GID_1":"IDN.9_1","province":"JawaBarat","NL_NAME_1":"NA","GID_2":"IDN.9.10_1","county":"Depok","NL_NAME_2":"NA","city":"Cilodong","VARNAME_3":"NA","NL_NAME_3":"NA","TYPE_3":"Kecamatan","ENGTYPE_3":"Sub-district","CC_3":"3276031","HASC_3":"NA","name":"Cilodong.city"},
"geometry":{"type": "MultiPolygon","coordinates": [[[[106.8385,-6.4493,116.1531],[106.8443,-6.4473,108.8636],[106.846,-6.4435,108.11],[106.8428,-6.441,111.0806],[106.8441,-6.4372,111.4534],[106.853,-6.436,108.0198],[106.8551,-6.4338,103.9015],[106.857,-6.4218,106.4559],[106.8622,-6.4064,98.2919],[106.8608,-6.3995,84.4662],[106.857,-6.3951,78.7945],[106.8503,-6.4029,93.6216],[106.8495,-6.4095,97.2442],[106.8454,-6.4179,101.7551],[106.8451,-6.4234,102.9704],[106.8215,-6.4223,92.8374],[106.8177,-6.4243,98.2064],[106.8183,-6.4289,85.0704],[106.8162,-6.4268,89.0828],[106.8139,-6.4287,92.5857],[106.8143,-6.4306,97.2142],[106.8171,-6.4312,97.2983],[106.8121,-6.4339,101.2605],[106.8143,-6.4361,96.1721],[106.8131,-6.4373,94.8138],[106.8141,-6.4427,99.6762],[106.8116,-6.4437,95.8227],[106.8163,-6.445,113.089],[106.8232,-6.4444,104.6187],[106.8236,-6.4474,104.5388],[106.8206,-6.4523,113.6981],[106.8212,-6.4541,112.7525],[106.8253,-6.4553,120.4718],[106.824,-6.461,118.0083],[106.8264,-6.4606,121.121],[106.8288,-6.4552,109.7183],[106.832,-6.4548,110.5333],[106.8328,-6.4531,108.7696],[106.8353,-6.4547,112.9995],[106.8337,-6.4511,111.3113],[106.8352,-6.4492,114.6951],[106.8365,-6.4507,115.9355],[106.8385,-6.4493,116.1531]]]]}}