{"type":"Feature","properties":{"GID_3":"IDN.1.20.15_1","GID_0":"IDN","country":"Indonesia","GID_1":"IDN.1_1","province":"Aceh","NL_NAME_1":"NA","GID_2":"IDN.1.20_1","county":"Pidie","NL_NAME_2":"NA","city":"Mutiara","VARNAME_3":"NA","NL_NAME_3":"NA","TYPE_3":"Kecamatan","ENGTYPE_3":"Sub-district","CC_3":"1109080","HASC_3":"NA","name":"Mutiara.city"},
"geometry":{"type": "MultiPolygon","coordinates": [[[[95.9453,5.2649,24.3331],[95.9546,5.2768,19.4041],[95.9571,5.2766,19.6203],[95.9614,5.2719,25.1581],[95.9718,5.2768,21.8432],[95.9806,5.2747,19.3833],[95.9876,5.2778,17.4021],[95.9926,5.284,17.1155],[95.9968,5.2827,17.0569],[96.0014,5.2845,20.5723],[96.0036,5.2869,18.0172],[96.0002,5.2868,16.7373],[96.0,5.2909,18.7684],[96.0075,5.2892,15.0019],[96.0043,5.2947,15.5389],[96.0085,5.2949,11.6308],[96.0098,5.3001,19.3049],[96.0022,5.3026,9.3019],[96.0003,5.2992,9.6806],[95.99,5.2977,9.2044],[95.9942,5.3056,8.1589],[95.9933,5.3119,7.8052],[95.9846,5.3049,9.5197],[95.9786,5.3053,13.3778],[95.9774,5.304,17.1973],[95.9756,5.3055,14.3237],[95.9624,5.2892,19.6574],[95.9487,5.2893,18.2308],[95.9469,5.2853,23.2903],[95.9407,5.2808,21.9476],[95.936,5.2696,26.4739],[95.9453,5.2649,24.3331]]]]}}