{"type":"Feature","properties":{"GID_3":"IDN.12.11.3_1","GID_0":"IDN","country":"Indonesia","GID_1":"IDN.12_1","province":"KalimantanBarat","NL_NAME_1":"NA","GID_2":"IDN.12.11_1","county":"Sanggau","NL_NAME_2":"NA","city":"Bonti","VARNAME_3":"NA","NL_NAME_3":"NA","TYPE_3":"Kecamatan","ENGTYPE_3":"Sub-district","CC_3":"6105130","HASC_3":"NA","name":"Bonti.city"},
"geometry":{"type": "MultiPolygon","coordinates": [[[[110.5565,0.295,84.1122],[110.5741,0.2822,102.9638],[110.5799,0.2806,70.5692],[110.5867,0.2813,32.0289],[110.5906,0.2793,79.2214],[110.5916,0.2766,46.7981],[110.5961,0.2782,56.5825],[110.5955,0.2724,43.1191],[110.6003,0.2693,43.0954],[110.6039,0.2632,70.8951],[110.6087,0.2625,34.9508],[110.6137,0.2656,39.2734],[110.6193,0.2758,38.4792],[110.6317,0.2918,26.1929],[110.6365,0.2956,30.3222],[110.6541,0.2993,37.8312],[110.6605,0.2981,26.5939],[110.6659,0.3035,37.9144],[110.6685,0.3087,45.9434],[110.6685,0.3275,57.1445],[110.674,0.353,34.1777],[110.6733,0.3748,79.7938],[110.6715,0.3785,67.7323],[110.6751,0.3971,84.2003],[110.6738,0.4285,70.8383],[110.6791,0.4316,52.4613],[110.6763,0.4403,66.825],[110.6798,0.4415,142.1985],[110.68,0.4428,117.0354],[110.6751,0.4428,119.9089],[110.6706,0.4502,59.9321],[110.6743,0.4496,70.5714],[110.673,0.4542,64.3676],[110.6713,0.4547,58.9589],[110.6744,0.4571,58.0632],[110.6717,0.4641,82.127],[110.6719,0.4661,59.9497],[110.6748,0.4667,98.3411],[110.6749,0.4686,77.4918],[110.6724,0.4692,58.8926],[110.6718,0.4722,56.8761],[110.6739,0.4743,68.7294],[110.6696,0.4814,62.6253],[110.674,0.4872,57.0303],[110.6742,0.4903,59.2994],[110.6686,0.4963,71.217],[110.667,0.5009,65.5137],[110.6739,0.5095,70.6389],[110.6701,0.5165,68.7625],[110.6711,0.521,74.9701],[110.6825,0.5178,83.3091],[110.6815,0.5293,71.4097],[110.6768,0.5445,67.182],[110.6787,0.5509,66.8328],[110.6751,0.557,67.0534],[110.6792,0.5636,82.1286],[110.6867,0.5647,78.4103],[110.6888,0.5719,82.877],[110.714,0.5866,142.836],[110.7171,0.5909,140.5217],[110.7183,0.6001,229.5974],[110.7164,0.6066,217.3959],[110.7077,0.6168,411.4629],[110.709,0.6286,253.9832],[110.7149,0.6325,400.4426],[110.7118,0.6396,256.4257],[110.7118,0.6479,136.87],[110.7024,0.6594,101.6266],[110.6956,0.6543,112.9642],[110.6861,0.651,140.7567],[110.6611,0.6554,99.1054],[110.6531,0.6596,100.8917],[110.6463,0.6731,90.4793],[110.6402,0.6764,77.0891],[110.6378,0.6757,87.5602],[110.6283,0.6642,83.47],[110.6183,0.6612,98.9864],[110.6025,0.6609,211.7903],[110.5991,0.658,243.1637],[110.5994,0.6468,351.9867],[110.5957,0.6449,334.2654],[110.5897,0.6347,425.2242],[110.5825,0.6263,467.3636],[110.5753,0.6049,510.4998],[110.5751,0.5981,765.1623],[110.5713,0.586,694.9156],[110.5597,0.574,812.0948],[110.5526,0.5611,769.0942],[110.5553,0.5457,797.7875],[110.5466,0.5374,651.9941],[110.5311,0.5292,390.541],[110.5315,0.5189,152.0887],[110.53,0.5147,100.5553],[110.5024,0.4958,46.7907],[110.4709,0.4863,35.9967],[110.4644,0.4824,35.4164],[110.4586,0.4751,37.4694],[110.454,0.472,43.187],[110.4473,0.468,41.0231],[110.4358,0.4648,60.4579],[110.434,0.4625,53.6406],[110.432,0.441,40.5757],[110.427,0.4322,58.0278],[110.4269,0.4244,56.7121],[110.4305,0.4194,62.5578],[110.4441,0.4068,83.1562],[110.461,0.3977,75.2288],[110.463,0.3912,64.1238],[110.4692,0.3862,57.748],[110.4741,0.3776,54.8955],[110.4836,0.3685,41.62],[110.488,0.3518,46.9118],[110.4986,0.3407,39.5655],[110.5103,0.333,62.2002],[110.5183,0.3212,79.0974],[110.5383,0.3104,49.8482],[110.5446,0.3051,57.5339],[110.5465,0.3009,56.4457],[110.5565,0.295,84.1122]]]]}}