{"type":"Feature","properties":{"GID_3":"IDN.8.2.7_1","GID_0":"IDN","country":"Indonesia","GID_1":"IDN.8_1","province":"Jambi","NL_NAME_1":"NA","GID_2":"IDN.8.2_1","county":"Bungo","NL_NAME_2":"NA","city":"Jujuhan","VARNAME_3":"NA","NL_NAME_3":"NA","TYPE_3":"Kecamatan","ENGTYPE_3":"Sub-district","CC_3":"1509060","HASC_3":"NA","name":"Jujuhan.city"},
"geometry":{"type": "MultiPolygon","coordinates": [[[[101.7647,-1.3941,148.8497],[101.7773,-1.3831,140.9245],[101.7845,-1.3649,119.6518],[101.7921,-1.3606,129.734],[101.8458,-1.3183,113.3679],[101.8504,-1.3164,108.3201],[101.8718,-1.3154,105.1435],[101.8723,-1.3054,85.6382],[101.8801,-1.3,104.7183],[101.8672,-1.2928,112.4303],[101.8581,-1.2848,115.5503],[101.8484,-1.2751,106.7309],[101.8421,-1.2661,73.4663],[101.8358,-1.2524,86.3716],[101.8343,-1.2373,93.2756],[101.8259,-1.2212,88.6872],[101.8242,-1.2073,109.3292],[101.8138,-1.221,113.7484],[101.7943,-1.22,113.4773],[101.7914,-1.2227,117.3705],[101.7853,-1.2244,108.7865],[101.7809,-1.2341,109.2649],[101.7747,-1.2376,110.4426],[101.7336,-1.2352,115.1561],[101.7262,-1.2401,125.8444],[101.7217,-1.2411,124.2841],[101.7218,-1.2502,126.4943],[101.716,-1.2542,122.7381],[101.7149,-1.2635,135.2713],[101.6961,-1.2884,155.1809],[101.6953,-1.2913,150.9232],[101.6971,-1.2994,157.3581],[101.701,-1.309,114.5035],[101.7085,-1.3206,81.2905],[101.7142,-1.3363,98.0328],[101.7218,-1.3482,109.7949],[101.7245,-1.359,78.3458],[101.7227,-1.3666,85.2943],[101.7004,-1.3887,154.5297],[101.6968,-1.3941,160.4994],[101.703,-1.4113,110.9957],[101.7067,-1.4146,111.2743],[101.7162,-1.4172,111.7598],[101.7197,-1.4229,177.044],[101.7262,-1.4246,177.4278],[101.7298,-1.4283,173.2488],[101.7326,-1.4281,173.0051],[101.7443,-1.4225,176.2451],[101.7489,-1.4233,160.6945],[101.753,-1.4144,154.6131],[101.7615,-1.4025,151.5649],[101.7647,-1.3941,148.8497]]]]}}