{"type":"Feature","properties":{"GID_3":"IDN.4.5.2_1","GID_0":"IDN","country":"Indonesia","GID_1":"IDN.4_1","province":"Banten","NL_NAME_1":"NA","GID_2":"IDN.4.5_1","county":"Pandeglang","NL_NAME_2":"NA","city":"Banjar","VARNAME_3":"NA","NL_NAME_3":"NA","TYPE_3":"Kecamatan","ENGTYPE_3":"Sub-district","CC_3":"3601170","HASC_3":"NA","name":"Banjar.city"},
"geometry":{"type": "MultiPolygon","coordinates": [[[[106.1105,-6.4205,67.0119],[106.1128,-6.4192,57.2499],[106.1135,-6.4128,67.3302],[106.1167,-6.4079,94.8906],[106.1166,-6.4003,98.6919],[106.1216,-6.3903,108.819],[106.1211,-6.3844,69.4146],[106.1261,-6.3834,62.0618],[106.1306,-6.3757,93.5004],[106.129,-6.3717,84.4631],[106.1255,-6.3691,86.5839],[106.126,-6.3632,103.346],[106.1239,-6.3569,120.8671],[106.1207,-6.3584,112.2755],[106.1168,-6.3572,118.5259],[106.1162,-6.3541,121.5933],[106.1143,-6.3531,122.5377],[106.1147,-6.345,145.1228],[106.1108,-6.3443,152.285],[106.1113,-6.3419,150.358],[106.1063,-6.3393,150.2366],[106.1008,-6.3473,138.5377],[106.0963,-6.3474,144.1937],[106.0953,-6.3419,158.9442],[106.0854,-6.3464,156.5333],[106.0878,-6.3542,134.2655],[106.0781,-6.3592,135.2387],[106.0794,-6.3615,129.9467],[106.0783,-6.3664,124.0281],[106.0723,-6.3605,140.2773],[106.0708,-6.3611,142.1291],[106.0707,-6.3636,137.5019],[106.0718,-6.3691,134.2404],[106.0749,-6.3737,128.1427],[106.0802,-6.3737,129.3557],[106.0821,-6.3764,120.879],[106.0882,-6.3755,115.9422],[106.0889,-6.3826,113.5981],[106.0904,-6.3843,110.6149],[106.0891,-6.3926,94.8193],[106.0918,-6.3946,102.7032],[106.094,-6.3937,92.2952],[106.0981,-6.3974,71.0359],[106.096,-6.3988,77.9546],[106.0982,-6.4016,75.2387],[106.0977,-6.4034,74.0571],[106.0992,-6.404,61.275],[106.0976,-6.4041,74.0571],[106.0971,-6.4066,78.308],[106.0993,-6.4074,65.9853],[106.0991,-6.4092,71.6287],[106.1005,-6.4082,82.9747],[106.1013,-6.4111,72.9525],[106.1004,-6.4125,78.7705],[106.0977,-6.4116,69.4066],[106.1002,-6.4138,62.5333],[106.0988,-6.4158,61.4701],[106.1003,-6.4163,68.9874],[106.0995,-6.4186,67.0004],[106.1016,-6.4225,51.4157],[106.1037,-6.4223,55.0354],[106.1038,-6.4238,55.3515],[106.106,-6.4218,50.7762],[106.1065,-6.424,49.2051],[106.1105,-6.4205,67.0119]]]]}}