{"type":"Feature","properties":{"GID_3":"IDN.11.24.11_1","GID_0":"IDN","country":"Indonesia","GID_1":"IDN.11_1","province":"JawaTimur","NL_NAME_1":"NA","GID_2":"IDN.11.24_1","county":"Nganjuk","NL_NAME_2":"NA","city":"Ngluyu","VARNAME_3":"NA","NL_NAME_3":"NA","TYPE_3":"Kecamatan","ENGTYPE_3":"Sub-district","CC_3":"3518180","HASC_3":"NA","name":"Ngluyu.city"},
"geometry":{"type": "MultiPolygon","coordinates": [[[[112.0259,-7.4676,125.425],[112.0279,-7.4678,117.3953],[112.0311,-7.4734,109.234],[112.0324,-7.4723,108.7951],[112.0342,-7.476,110.1198],[112.0394,-7.4743,146.7137],[112.0349,-7.4587,202.4485],[112.0366,-7.4537,158.1714],[112.0383,-7.4529,160.1212],[112.0372,-7.4502,174.447],[112.0383,-7.4456,170.1471],[112.0401,-7.4416,175.3121],[112.0434,-7.4398,152.5372],[112.0442,-7.4369,189.52],[112.0488,-7.4365,176.9915],[112.052,-7.434,127.1771],[112.0528,-7.4303,119.8824],[112.0494,-7.4288,131.5897],[112.0503,-7.428,131.5897],[112.0477,-7.4206,159.3015],[112.0443,-7.4174,211.3108],[112.0462,-7.4123,150.5223],[112.0451,-7.409,148.198],[112.0428,-7.4085,153.9198],[112.0439,-7.4033,180.9368],[112.0421,-7.4007,193.8151],[112.0352,-7.4018,184.2477],[112.0298,-7.4002,203.3561],[112.0282,-7.3971,204.5583],[112.0244,-7.3956,217.8929],[112.0202,-7.3999,193.46],[112.0197,-7.4098,285.2886],[112.0125,-7.4057,263.7735],[111.9987,-7.4034,286.2654],[111.984,-7.4074,350.5349],[111.9784,-7.4068,280.6259],[111.9772,-7.4047,243.446],[111.9713,-7.405,233.6257],[111.9678,-7.4085,191.2806],[111.9634,-7.4089,168.1666],[111.958,-7.4132999999999996,285.418],[111.9507,-7.4074,197.6609],[111.9437,-7.4061,166.5478],[111.9424,-7.4073,165.7862],[111.9432,-7.4091,163.4894],[111.9415,-7.4092,166.858],[111.9424,-7.411,181.0449],[111.9464,-7.4112,211.2962],[111.9577,-7.4183,275.9195],[111.9581,-7.4288,318.6514],[111.9533,-7.4324,312.1759],[111.9474,-7.4342,312.5147],[111.9397,-7.4403,334.2176],[111.9346,-7.4404,361.3018],[111.923,-7.4355,378.1712],[111.9096,-7.4341,313.4338],[111.9114,-7.4431,255.5551],[111.9096,-7.4443,253.1218],[111.9095,-7.447,205.044],[111.9138,-7.4549,185.2843],[111.9174,-7.4582,171.8166],[111.918,-7.4656,120.2182],[111.9224,-7.464,119.2572],[111.9364,-7.4695,114.9242],[111.9459,-7.4715,129.2556],[111.9531,-7.4849,100.1549],[111.9591,-7.4878,98.2834],[111.9654,-7.4879,112.5145],[111.9772,-7.4748,211.5624],[111.9825,-7.4728,304.887],[111.9875,-7.4651,192.5193],[111.9925,-7.4635,172.1062],[111.9968,-7.4658,165.1644],[112.0035,-7.4641,146.8489],[112.0136,-7.4688,146.1018],[112.0209,-7.4666,141.4271],[112.0231,-7.4696,122.9702],[112.0225,-7.4711,121.2451],[112.0259,-7.4676,125.425]]]]}}