{"type":"Feature","properties":{"GID_3":"IDN.32.30.10_1","GID_0":"IDN","country":"Indonesia","GID_1":"IDN.32_1","province":"SumateraUtara","NL_NAME_1":"NA","GID_2":"IDN.32.30_1","county":"TapanuliSelatan","NL_NAME_2":"NA","city":"SaiparDolokHole","VARNAME_3":"NA","NL_NAME_3":"NA","TYPE_3":"Kecamatan","ENGTYPE_3":"Sub-district","CC_3":"1203160","HASC_3":"NA","name":"Saipar_Dolok_Hole.city"},
"geometry":{"type": "MultiPolygon","coordinates": [[[[99.5494,1.7208,515.378],[99.5497,1.7245,589.9763],[99.553,1.73,804.2797],[99.5509,1.7341,942.3429],[99.5524,1.7372,959.5081],[99.5521,1.7421,1062.5538],[99.5582,1.7502,1345.0178],[99.5659,1.7567,1115.3833],[99.5649,1.777,1222.5576],[99.5708,1.8094,1146.4102],[99.568,1.8243,775.7518],[99.5573,1.8441,969.289],[99.5542,1.8566,760.3296],[99.5489,1.8597,768.8793],[99.5481,1.862,783.9105],[99.5505,1.8668,700.3273],[99.56,1.8722,424.2182],[99.5587,1.8851,401.4739],[99.5463,1.8794,695.7673],[99.5235,1.8812,445.1006],[99.5116,1.8781,767.4304],[99.4999,1.8819,892.1361],[99.4962,1.885,1011.1563],[99.4902,1.8853,986.4905],[99.4768,1.8819,1051.3928],[99.4674,1.8813,842.0483],[99.4605,1.8838,737.465],[99.4505,1.8913,726.5341],[99.4467,1.8995,974.631],[99.4417,1.9045,599.3471],[99.4354,1.9076,731.555],[99.4294,1.9156,1042.1816],[99.4197,1.9184,885.4709],[99.3975,1.9171,1223.9744],[99.3767,1.9264,879.9516],[99.3639,1.9353,847.1564],[99.3537,1.9102,1001.875],[99.3482,1.9065,1212.1936],[99.3417,1.9068,1228.5507],[99.3394,1.9045,1388.3928],[99.3407,1.8976,1196.7469],[99.3447,1.8948,1165.1851],[99.343,1.8899,975.072],[99.3438,1.884,968.067],[99.3415,1.8825,958.4047],[99.3494,1.8747,981.2679],[99.3466,1.8535,924.0971],[99.3399,1.85,923.0224],[99.3334,1.8408,926.6661],[99.3248,1.8354,918.6683],[99.3173,1.8336,973.708],[99.3115,1.8301,888.7614],[99.3027,1.8064,987.8308],[99.2938,1.789,1064.5326],[99.2969,1.7848,1077.8739],[99.2925,1.7738,851.3893],[99.2777,1.7576,788.1996],[99.2941,1.7612,833.5912],[99.2934,1.7593,830.4354],[99.2953,1.7564,823.5447],[99.3045,1.7524,842.291],[99.3393,1.7546,1216.0959],[99.3481,1.7526,1293.6628],[99.3587,1.7467,1313.6462],[99.3673,1.7466,1365.3098],[99.371,1.7438,1427.9095],[99.384,1.7468,1851.2115],[99.4015,1.7437,1751.1119],[99.4095,1.7434,1680.2285],[99.4141,1.7449,1737.9299],[99.4214,1.7388,1756.0641],[99.447,1.7299,1461.6267],[99.4597,1.7332,1116.6176],[99.4691,1.7313,945.8981],[99.4782,1.7337,814.5046],[99.4832,1.7315,720.455],[99.5023,1.7304,554.9546],[99.5093,1.7243,533.3519],[99.5186,1.7288,502.4402],[99.5224,1.7261,456.4447],[99.5287,1.7262,428.3131],[99.5369,1.7222,433.9769],[99.5398,1.7172,388.0013],[99.55,1.7169,388.7005],[99.5494,1.7208,515.378]]]]}}