{"type":"Feature","properties":{"GID_3":"IDN.10.26.13_1","GID_0":"IDN","country":"Indonesia","GID_1":"IDN.10_1","province":"JawaTengah","NL_NAME_1":"NA","GID_2":"IDN.10.26_1","county":"Rembang","NL_NAME_2":"NA","city":"Sulang","VARNAME_3":"NA","NL_NAME_3":"NA","TYPE_3":"Kecamatan","ENGTYPE_3":"Sub-district","CC_3":"3317080","HASC_3":"NA","name":"Sulang.city"},
"geometry":{"type": "MultiPolygon","coordinates": [[[[111.4,-6.8363,94.6323],[111.4062,-6.8345,133.8108],[111.4084,-6.8284,61.6926],[111.4174,-6.8257,139.9185],[111.4165,-6.8098,45.603],[111.4187,-6.7991,35.7114],[111.4164,-6.7945,31.3259],[111.419,-6.789,27.836],[111.4118,-6.7865,44.2225],[111.4063,-6.781,35.2656],[111.3979,-6.7774,46.2479],[111.3959,-6.7684,47.1116],[111.3978,-6.7655,39.4632],[111.3965,-6.7611,49.8525],[111.3989,-6.7577,67.0366],[111.3917,-6.7473,33.6825],[111.3855,-6.7472,36.819],[111.3793,-6.756,56.0078],[111.3768,-6.7546,52.1565],[111.3768,-6.7561,52.1565],[111.3747,-6.7563,56.4856],[111.3745,-6.7541,43.5006],[111.3714,-6.7553,51.1057],[111.3688,-6.7543,43.8206],[111.3677,-6.751,39.3452],[111.363,-6.7512,34.953],[111.361,-6.7485,38.3112],[111.3525,-6.7463,28.9264],[111.3491,-6.7467,23.0663],[111.3466,-6.7537,20.8663],[111.3438,-6.7474,20.867],[111.3377,-6.7471,24.5802],[111.3353,-6.7454,22.5847],[111.3353,-6.7417,16.3701],[111.3274,-6.7396,19.1186],[111.3277,-6.7421,17.8617],[111.3252,-6.7434,20.9738],[111.3182,-6.7403,19.2726],[111.318,-6.7469,23.9425],[111.3138,-6.7556,30.3481],[111.3153,-6.7565,29.9721],[111.3162,-6.7617,34.4854],[111.3224,-6.7651,34.9389],[111.3228,-6.767,38.2879],[111.3199,-6.7699,39.8981],[111.3216,-6.7703,44.7038],[111.3216,-6.7724,42.299],[111.3257,-6.773,53.379],[111.3256,-6.7788,58.4804],[111.324,-6.7817,57.9605],[111.3212,-6.781,51.4936],[111.3186,-6.785,59.9052],[111.3167,-6.7938,60.6933],[111.3115,-6.7964,68.7612],[111.3103,-6.8003,72.2328],[111.3081,-6.8013,73.9994],[111.3079,-6.8115,97.2463],[111.33,-6.8151,89.8247],[111.3394,-6.8119,79.5182],[111.3486,-6.8135,70.1269],[111.356,-6.8121,64.9637],[111.3603,-6.815,68.983],[111.3634,-6.8255,53.5271],[111.367,-6.8229,49.931399999999996],[111.3727,-6.8266,53.5875],[111.3771,-6.8247,60.2505],[111.3934,-6.8371,85.616],[111.4,-6.8363,94.6323]],
[[111.3281,-6.7463,20.3766],[111.3257,-6.7475,25.9218],[111.3254,-6.7445,20.9738],[111.3279,-6.7445,18.8286],[111.3281,-6.7463,20.3766]]]]}}