{"type":"Feature","properties":{"GID_1":"BRN.4_1","GID_0":"BRN","country":"Brunei","province":"Tutong","VARNAME_1":"NA","NL_NAME_1":"NA","TYPE_1":"Daerah-Daerah","ENGTYPE_1":"District","CC_1":"NA","HASC_1":"BN.TU","ISO_1":"BN-TU","name":"Tutong.province"},
"geometry":{"type": "MultiPolygon","coordinates": [[[[114.6842,4.5075,33.6437],[114.6944,4.4969,48.4385],[114.6957,4.4815,54.1323],[114.6985,4.4803,49.1461],[114.7026,4.482,47.9307],[114.7102,4.4821,49.0057],[114.7155,4.4778,51.8621],[114.752,4.4249,72.6304],[114.7634,4.4034,70.1108],[114.7818,4.3811,87.4528],[114.7855,4.3801,76.9634],[114.7912,4.3853,98.4982],[114.7943,4.3852,102.1688],[114.8164,4.3607,115.0174],[114.825,4.3478,185.588],[114.8473,4.3497,290.4511],[114.8616,4.3408,213.1142],[114.8716,4.3409,294.7417],[114.8866,4.3741,73.187],[114.8893,4.4076,63.4664],[114.888,4.4232,189.5961],[114.8818,4.4271,355.6623],[114.8487,4.4346,134.0146],[114.8379,4.4411,40.519],[114.8309,4.4541,122.2926],[114.8274,4.4755,66.5555],[114.8253,4.5183,131.4401],[114.827,4.5548,94.7286],[114.8148,4.6619,11.6582],[114.8129,4.6726,15.0423],[114.7912,4.7089,18.4164],[114.7905,4.7272,22.0135],[114.794,4.7402,10.1103],[114.7838,4.7512,14.0727],[114.7793,4.7603,30.2366],[114.7809,4.7723,46.1337],[114.7809,4.7956,50.2631],[114.7991,4.8316,48.0064],[114.801,4.846,42.1822],[114.8013,4.8648,17.5661],[114.7924,4.8793,51.0369],[114.7942,4.8864,51.5506],[114.7899,4.8963,58.8186],[114.792,4.9042,70.1417],[114.7901,4.9099,30.4844],[114.7898,4.9189,0.0],[114.7467,4.8883,1.7091],[114.6881,4.8522,0.0],[114.6747,4.8425,0.0],[114.6383,4.8079,5.0425],[114.6117,4.7867,2.6778],[114.5983,4.7736,0.6526],[114.5986,4.7719,0.0],[114.6014,4.7731,0.0],[114.6097,4.7808,0.7788],[114.6125,4.7811,0.0],[114.6122,4.7761,2.6335],[114.6069,4.7703,8.7449],[114.6025,4.7703,1.3882],[114.5992,4.7681,5.1994],[114.5964,4.7694,1.763],[114.5939,4.7667,7.4603],[114.5889,4.7664,1.9341],[114.5594,4.7394,1.1352],[114.5295,4.7159,2.8588],[114.5346,4.688,49.1008],[114.5433,4.6678,63.548],[114.5513,4.6569,87.8869],[114.5797,4.6254,64.145],[114.5945,4.6157,56.7688],[114.6059,4.5812,49.3646],[114.6191,4.5724,42.2751],[114.633,4.5549,24.6371],[114.6504,4.5456,86.5143],[114.6517,4.5419,75.0004],[114.6498,4.5365,95.4532],[114.6506,4.5318,72.6306],[114.675,4.5249,40.8933],[114.6842,4.5075,33.6437]]],
[[[114.6072,4.7728,0.0],[114.6097,4.775,0.0],[114.6094,4.7775,0.0],[114.6025,4.7725,0.0],[114.6072,4.7728,0.0]]]]}}