{"type":"Feature","properties":{"GID_3":"IDN.14.10.3_1","GID_0":"IDN","country":"Indonesia","GID_1":"IDN.14_1","province":"KalimantanTengah","NL_NAME_1":"NA","GID_2":"IDN.14.10_1","county":"MurungRaya","NL_NAME_2":"NA","city":"Murung","VARNAME_3":"NA","NL_NAME_3":"NA","TYPE_3":"Kecamatan","ENGTYPE_3":"Sub-district","CC_3":"6213020","HASC_3":"NA","name":"Murung.city"},
"geometry":{"type": "MultiPolygon","coordinates": [[[[114.5025,-0.8464,73.4622],[114.5694,-0.8576,153.0956],[114.5807,-0.8468,137.515],[114.6244,-0.8152,129.2785],[114.6621,-0.7836,123.2356],[114.6621,-0.7497,114.9623],[114.6522,-0.6742,67.7389],[114.6497,-0.6284,34.918],[114.6472,-0.6161,41.3639],[114.6534,-0.5864,52.6754],[114.657,-0.5542,62.3969],[114.6423,-0.5579,55.5489],[114.6177,-0.5678,49.8324],[114.5821,-0.5864,74.7074],[114.56,-0.5938,61.9171],[114.5514,-0.6087,59.1873],[114.5514,-0.657,76.1948],[114.5403,-0.6805,76.0094],[114.5022,-0.6941,52.7485],[114.4826,-0.6966,66.5157],[114.4678,-0.6942,53.3131],[114.4432,-0.6942,126.3823],[114.4236,-0.7004,69.8058],[114.4051,-0.7004,80.9028],[114.3879,-0.6917,94.8833],[114.3707,-0.6868,109.6992],[114.3533,-0.6883,77.6303],[114.3498,-0.6955,85.167],[114.3535,-0.7041,85.6959],[114.3695,-0.7215,51.7795],[114.4125,-0.7462,92.4887],[114.4236,-0.7573,88.0179],[114.4298,-0.7746,126.4706],[114.4298,-0.8327,136.7441],[114.4591,-0.8336,117.2442],[114.5025,-0.8464,73.4622]]]]}}