{"type":"Feature","properties":{"GID_3":"IDN.24.11.4_1","GID_0":"IDN","country":"Indonesia","GID_1":"IDN.24_1","province":"Riau","NL_NAME_1":"NA","GID_2":"IDN.24.11_1","county":"RokanHulu","NL_NAME_2":"NA","city":"KepenuhanHulu","VARNAME_3":"NA","NL_NAME_3":"NA","TYPE_3":"Kecamatan","ENGTYPE_3":"Sub-district","CC_3":"1407061","HASC_3":"NA","name":"Kepenuhan_Hulu.city"},
"geometry":{"type": "MultiPolygon","coordinates": [[[[100.5096,1.0662,32.0947],[100.496,1.0771,38.5222],[100.45,1.1406,41.3688],[100.4425,1.141,42.4494],[100.4366,1.1394,41.7676],[100.4173,1.0334,59.8304],[100.4228,1.0315,75.9502],[100.4308,1.0323,74.4363],[100.4312,1.0261,60.9315],[100.4354,1.0262,81.6147],[100.4357,1.0248,78.1381],[100.433,1.0172,50.2668],[100.4349,1.0136,47.553],[100.4408,1.0118,57.6645],[100.4479,1.0149,56.5571],[100.4551,1.0145,50.3166],[100.4709,0.9974,57.3138],[100.4756,0.9949,33.4898],[100.4814,0.9886,36.3734],[100.4849,0.9782,33.7798],[100.4821,0.9791,33.144],[100.4782,0.976,47.9267],[100.4759,0.9709,42.4328],[100.479,0.9586,46.2576],[100.4646,0.9484,40.9685],[100.4592,0.9467,43.0483],[100.4526,0.949,45.0883],[100.4407,0.9439,42.2023],[100.4424,0.9288,46.2834],[100.4474,0.9198,51.235],[100.4455,0.9105,45.4128],[100.4514,0.9032,55.1443],[100.4511,0.8924,57.159],[100.4492,0.8867,53.3942],[100.4573,0.8873,79.0339],[100.4652,0.8899,125.9365],[100.479,0.8884,58.4555],[100.4889,0.8949,48.6495],[100.4982,0.9064,51.2455],[100.5078,0.9045,53.6818],[100.5125,0.9009,60.3226],[100.5191,0.8827,57.2924],[100.5274,0.8721,77.3073],[100.5371,0.8645,89.194],[100.5435,0.865,91.0303],[100.5542,0.8587,87.3666],[100.5609,0.868,85.0446],[100.5483,0.8768,86.295],[100.5367,0.8995,79.5843],[100.5422,0.9071,82.8251],[100.5537,0.9113,84.7715],[100.5724,0.9028,73.1873],[100.6255,0.9487,42.8319],[100.6397,0.9822,35.5413],[100.6125,1.0005,34.7046],[100.5289,1.0483,25.9502],[100.5096,1.0662,32.0947]]]]}}