{"type":"Feature","properties":{"GID_3":"IDN.10.8.12_1","GID_0":"IDN","country":"Indonesia","GID_1":"IDN.10_1","province":"JawaTengah","NL_NAME_1":"NA","GID_2":"IDN.10.8_1","county":"Demak","NL_NAME_2":"NA","city":"Sayung","VARNAME_3":"NA","NL_NAME_3":"NA","TYPE_3":"Kecamatan","ENGTYPE_3":"Sub-district","CC_3":"3321040","HASC_3":"NA","name":"Sayung.city"},
"geometry":{"type": "MultiPolygon","coordinates": [[[[110.5248,-6.9846,4.991],[110.5265,-6.9833,4.8784],[110.5316,-6.9863,5.4566],[110.5331,-6.9846,5.6286],[110.5355,-6.9867,6.1689],[110.5367,-6.9852,6.4629],[110.5378,-6.9884,6.5765],[110.5412,-6.9872,6.6345],[110.5451,-6.9819,4.485],[110.5475,-6.9819,4.8138],[110.5499,-6.9645,4.319],[110.5525,-6.9596,4.0652],[110.5597,-6.9624,2.5402],[110.5607,-6.9586,2.1214],[110.5587,-6.958,2.1488],[110.5577,-6.9509,1.8865],[110.5585,-6.9478,1.8762],[110.5603,-6.9487,1.7695],[110.5604,-6.946,1.4272],[110.5628,-6.9455,1.4753],[110.5632,-6.9422,1.6837],[110.5625,-6.9404,1.7463],[110.551,-6.9467,1.8818],[110.544,-6.9199,1.1522],[110.5429,-6.912,1.2765],[110.5487,-6.9086,0.6312],[110.5541,-6.9103,1.8899],[110.5576,-6.9094,1.5451],[110.5618,-6.9034,4.2651],[110.5594,-6.899,4.995],[110.5611,-6.8956,2.489],[110.5585,-6.8933,1.3673],[110.5613,-6.8919,1.0491],[110.5613,-6.8903,0.9806],[110.556,-6.8881,1.1647],[110.5586,-6.8851,1.0418],[110.558,-6.8833,0.9246],[110.555,-6.8856,2.9848],[110.5555,-6.8832,0.8448],[110.5533,-6.8849,2.9848],[110.5524,-6.8807,3.3153],[110.5549,-6.8808,2.343],[110.5549,-6.8791,2.9805],[110.5514,-6.8793,4.1015],[110.5521,-6.8767,1.7829],[110.551,-6.8754,1.1395],[110.5537,-6.8753,0.3881],[110.5501,-6.8723,0.5665],[110.5525,-6.8709,0.8972],[110.5528,-6.8673,0.947],[110.5495,-6.867,0.0],[110.5488,-6.8684,0.9722],[110.5476,-6.8665,0.2106],[110.5493,-6.8635,1.3015],[110.5431,-6.8619,0.2448],[110.5422,-6.8653,0.8388],[110.5388,-6.866,1.1505],[110.5354,-6.8643,1.1759],[110.5328,-6.8666,1.5977],[110.5347,-6.8701,0.5],[110.533,-6.872,1.0982],[110.5236,-6.859,2.4604],[110.5182,-6.8625,0.5244],[110.5088,-6.88,0.0],[110.4756,-6.9209,0.0],[110.4761,-6.9241,0.0],[110.4705,-6.9254,0.0],[110.4675,-6.9304,0.0],[110.465,-6.9297,0.0],[110.4632,-6.9315,0.0],[110.4734,-6.9421,0.3121],[110.4809,-6.9454,0.6765],[110.4875,-6.9461,3.6814],[110.4892,-6.947,4.7976],[110.4888,-6.9487,4.2592],[110.4922,-6.9475,4.5959],[110.49,-6.9549,5.351],[110.501,-6.9526,1.8752],[110.5028,-6.9589,5.4117],[110.5012,-6.9638,6.7714],[110.5029,-6.969,4.6727],[110.5049,-6.9704,5.253],[110.5052,-6.9766,9.3077],[110.5155,-6.9787,6.6152],[110.5179,-6.9785,4.0691],[110.5195,-6.9764,3.6017],[110.5229,-6.9768,3.7467],[110.5198,-6.9843,5.6948],[110.5229,-6.9857,5.1017],[110.5248,-6.9846,4.991]]]]}}