{"type":"Feature","properties":{"GID_3":"IDN.32.17.6_1","GID_0":"IDN","country":"Indonesia","GID_1":"IDN.32_1","province":"SumateraUtara","NL_NAME_1":"NA","GID_2":"IDN.32.17_1","county":"NiasBarat","NL_NAME_2":"NA","city":"MaroO","VARNAME_3":"NA","NL_NAME_3":"NA","TYPE_3":"Kecamatan","ENGTYPE_3":"Sub-district","CC_3":"1225080","HASC_3":"NA","name":"Maro_O.city"},
"geometry":{"type": "MultiPolygon","coordinates": [[[[97.4199,1.0395,17.8704],[97.4298,1.0395,23.4575],[97.4298,1.0444,20.373],[97.4262,1.0506,20.6303],[97.4267,1.0592,17.177],[97.4314,1.0583,18.3678],[97.4383,1.0596,25.2196],[97.4419,1.062,35.7606],[97.4446,1.056,22.4018],[97.4509,1.0537,58.4501],[97.4562,1.057,34.5756],[97.4669,1.059,83.9554],[97.4745,1.0786,115.1295],[97.4775,1.0874,108.7008],[97.4716,1.0921,90.5868],[97.4554,1.1108,62.5429],[97.4519,1.1181,57.4234],[97.4496,1.119,53.6261],[97.4463,1.1192,84.062],[97.4449,1.115,82.3243],[97.4463,1.1041,89.3269],[97.4496,1.0966,122.9444],[97.4398,1.0959,71.1315],[97.4323,1.0915,30.5895],[97.4222,1.0931,18.4757],[97.4118,1.0916,19.4058],[97.3985,1.0928,17.0212],[97.3695,1.0788,4.1489],[97.3888,1.0358,3.3779],[97.3982,1.04,14.7024],[97.4199,1.0395,17.8704]]]]}}