{"type":"Feature","properties":{"GID_3":"IDN.27.5.7_1","GID_0":"IDN","country":"Indonesia","GID_1":"IDN.27_1","province":"SulawesiTengah","NL_NAME_1":"NA","GID_2":"IDN.27.5_1","county":"Morowali","NL_NAME_2":"NA","city":"Lembo","VARNAME_3":"NA","NL_NAME_3":"NA","TYPE_3":"Kecamatan","ENGTYPE_3":"Sub-district","CC_3":"7203050","HASC_3":"NA","name":"Lembo.city"},
"geometry":{"type": "MultiPolygon","coordinates": [[[[121.3079,-2.3828,411.6465],[121.3187,-2.3888,423.5611],[121.4097,-2.4106,647.2428],[121.4162,-2.4066,604.0568],[121.4406,-2.4068,486.5527],[121.4421,-2.405,469.7459],[121.4417,-2.3976,489.3477],[121.4394,-2.3952,451.1905],[121.4375,-2.3965,537.6186],[121.4382,-2.3941,600.694],[121.4463,-2.3912,460.9405],[121.4478,-2.3753,418.3129],[121.4533,-2.3706,374.9566],[121.4571,-2.3591,416.4622],[121.4554,-2.3577,409.9981],[121.4595,-2.3462,348.3507],[121.4572,-2.3445,440.8855],[121.4612,-2.3329,357.7315],[121.4599,-2.323,319.0049],[121.4619,-2.3185,321.6161],[121.4666,-2.3147,316.3156],[121.4673,-2.3098,310.1016],[121.4614,-2.3083,308.4886],[121.4593,-2.3029,335.0168],[121.4624,-2.3023,297.1902],[121.4625,-2.2986,318.6184],[121.4694,-2.2882,289.5041],[121.4595,-2.2776,326.7613],[121.4566,-2.268,327.9476],[121.4537,-2.2651,310.6723],[121.4503,-2.2651,289.2666],[121.4439,-2.2579,357.8963],[121.4384,-2.2542,359.1678],[121.4362,-2.2542,366.4107],[121.4289,-2.2595,325.8709],[121.4251,-2.2589,280.3891],[121.4215,-2.2611,304.9117],[121.4198,-2.2591,258.3883],[121.4221,-2.2553,274.0146],[121.4159,-2.253,211.9495],[121.4115,-2.2454,200.278],[121.4034,-2.2444,172.8706],[121.3983,-2.2459,149.058],[121.3988,-2.2362,154.5853],[121.4098,-2.225,347.4316],[121.4211,-2.2222,353.7149],[121.4287,-2.2101,267.5363],[121.4308,-2.1997,288.1205],[121.4293,-2.1903,166.6985],[121.432,-2.187,143.0488],[121.4264,-2.1852,213.3924],[121.4215,-2.1796,118.4089],[121.4129,-2.1759,166.5595],[121.4084,-2.1701,199.0309],[121.4089,-2.1596,123.3007],[121.4077,-2.1591,79.765],[121.4089,-2.1542,32.6655],[121.4108,-2.1544,19.9272],[121.4116,-2.1512,23.7695],[121.4094,-2.1482,21.428],[121.4124,-2.1437,43.4831],[121.4121,-2.1402,56.4348],[121.4092,-2.1382,24.2229],[121.404,-2.1395,24.4498],[121.4049,-2.1307,37.3528],[121.4035,-2.1295,34.5945],[121.3987,-2.1326,28.5391],[121.4005,-2.1364,23.7336],[121.3978,-2.1368,20.4351],[121.3948,-2.1289,24.7831],[121.3953,-2.1199,169.9093],[121.3907,-2.1109,404.936],[121.3934,-2.1003,595.1919],[121.3914,-2.0943,583.0099],[121.3879,-2.0921,552.2826],[121.3735,-2.0913,214.6533],[121.3691,-2.0868,92.0913],[121.3667,-2.0813,61.1125],[121.3566,-2.0821,8.1591],[121.3418,-2.0808,180.2503],[121.2997,-2.07,254.794],[121.2718,-2.0856,372.8482],[121.2477,-2.092,271.6093],[121.2172,-2.0796,27.4178],[121.1961,-2.0638,566.3183],[121.1612,-2.0423,1036.7795],[121.1445,-2.0829,793.237],[121.142,-2.1098,413.302],[121.1289,-2.1283,663.989],[121.1133,-2.1594,759.1671],[121.098,-2.1797,836.5778],[121.0872,-2.1982,926.4203],[121.0731,-2.2144,1041.1587],[121.0458,-2.2379,1360.1559],[121.0,-2.25,1420.8257],[121.0034,-2.2524,1361.6732],[121.0098,-2.2618,1296.2826],[121.0284,-2.2703,1321.4929],[121.0344,-2.2755,1290.0974],[121.0392,-2.2744,1311.5762],[121.0501,-2.2674,1537.6196],[121.0617,-2.2673,1598.3696],[121.0919,-2.2732,1586.4766],[121.1051,-2.2792,1651.5941],[121.1127,-2.2909,1462.8636],[121.1408,-2.3204,681.7144],[121.1459,-2.3342,476.5016],[121.1505,-2.3416,779.0836],[121.1629,-2.3514,786.1818],[121.1756,-2.3698,1246.8992],[121.181,-2.3749,1337.8945],[121.1854,-2.3755,1309.8586],[121.205,-2.3717,1212.1067],[121.2306,-2.3613,1228.5897],[121.2406,-2.3666,1096.4764],[121.2957,-2.3771,478.4461],[121.3079,-2.3828,411.6465]]]]}}