{"type":"Feature","properties":{"GID_3":"IDN.7.1.2_1","GID_0":"IDN","country":"Indonesia","GID_1":"IDN.7_1","province":"JakartaRaya","NL_NAME_1":"NA","GID_2":"IDN.7.1_1","county":"JakartaBarat","NL_NAME_2":"NA","city":"Grogolpetamburan","VARNAME_3":"NA","NL_NAME_3":"NA","TYPE_3":"Kecamatan","ENGTYPE_3":"Sub-district","CC_3":"3174040","HASC_3":"NA","name":"Grogolpetamburan.city"},
"geometry":{"type": "MultiPolygon","coordinates": [[[[106.7945,-6.1527,5.7063],[106.7892,-6.1425,3.6817],[106.7771,-6.1441,6.0869],[106.7745,-6.1459,3.5677],[106.7677,-6.1578,4.8193],[106.7699,-6.1613,5.9434],[106.7801,-6.165,6.1971],[106.7798,-6.1802,5.8069],[106.7826,-6.1854,6.2806],[106.7921,-6.1837,7.7247],[106.7952,-6.1799,7.8897],[106.8055,-6.1735,4.2379],[106.7994,-6.1646,6.0702],[106.7945,-6.1527,5.7063]]]]}}