{"type":"Feature","properties":{"GID_3":"IDN.34.7.12_1","GID_0":"IDN","country":"Indonesia","GID_1":"IDN.34_1","province":"KalimantanTimur","NL_NAME_1":"NA","GID_2":"IDN.34.7_1","county":"KutaiTimur","NL_NAME_2":"NA","city":"RantauPulung","VARNAME_3":"NA","NL_NAME_3":"NA","TYPE_3":"Kecamatan","ENGTYPE_3":"Sub-district","CC_3":"6404044","HASC_3":"NA","name":"Rantau_Pulung.city"},
"geometry":{"type": "MultiPolygon","coordinates": [[[[117.2732,0.7632,47.6367],[117.2181,0.8342,59.5691],[117.2015,0.8515,173.9907],[117.1574,0.8617,45.3239],[117.0881,0.8822,146.1693],[117.0629,0.8869,163.135],[117.0108,0.8862,92.8185],[117.0077,0.8058,139.297],[117.014,0.7924,204.5808],[117.014,0.7727,227.5336],[116.9969,0.7579,179.8917],[117.0038,0.7577,176.6881],[117.0014,0.7451,174.943],[116.988,0.7168,148.7596],[116.9888,0.6585,140.3593],[116.9874,0.614,123.3393],[116.9933,0.6165,133.0537],[117.0565,0.6188,110.1085],[117.057,0.6106,101.1487],[117.0597,0.6014,93.4757],[117.0688,0.5964,98.7125],[117.0661,0.574,97.3275],[117.0775,0.5639,90.8258],[117.083,0.5525,85.6676],[117.0977,0.5461,81.5244],[117.1128,0.536,102.2749],[117.1352,0.5204,67.9725],[117.138,0.515,73.8111],[117.1695,0.5035,63.7449],[117.1768,0.5044,60.9125],[117.1942,0.4985,64.9004],[117.1993,0.4898,65.9014],[117.2025,0.4797,63.8601],[117.2135,0.4733,57.281],[117.2203,0.4774,67.1118],[117.229,0.4742,65.8027],[117.246,0.4719,52.3087],[117.256,0.4747,63.7094],[117.2565,0.4793,63.367],[117.262,0.4788,50.5813],[117.2661,0.4829,64.3874],[117.2725,0.4815,60.5228],[117.2766,0.4893,66.819],[117.2762,0.4939,61.6345],[117.2794,0.4994,51.7573],[117.2784,0.5017,45.2807],[117.2839,0.5008,53.4469],[117.2849,0.5076,52.3144],[117.2885,0.5159,50.5921],[117.289,0.5223,63.7914],[117.294,0.5255,49.7983],[117.2977,0.531,55.4666],[117.3018,0.5269,57.6178],[117.3,0.5246,51.1369],[117.3068,0.5214,55.2331],[117.3137,0.5232,57.7955],[117.3155,0.52,56.0278],[117.3279,0.5214,43.309],[117.3338,0.5264,50.4122],[117.3379,0.5255,69.6983],[117.3425,0.5314,84.9186],[117.3457,0.5287,53.9961],[117.343,0.5246,68.3695],[117.3553,0.52,42.9049],[117.3572,0.5227,44.1619],[117.3558,0.5314,53.3324],[117.3604,0.5397,42.2488],[117.354,0.5447,38.1582],[117.3572,0.5506,43.1778],[117.3613,0.5529,42.678],[117.3604,0.5566,43.0484],[117.3626,0.5598,46.3214],[117.3695,0.5534,37.5663],[117.3805,0.5516,73.6196],[117.3846,0.5529,48.3491],[117.3892,0.5575,53.5978],[117.3988,0.5575,70.9579],[117.4066,0.5612,56.8211],[117.4189,0.5625,67.119],[117.429,0.5699,38.0041],[117.4359,0.569,22.9323],[117.4404,0.5772,18.4506],[117.4427,0.5754,62.1139],[117.4427,0.5671,27.3707],[117.4473,0.5658,14.2008],[117.4546,0.5694,41.735],[117.461,0.5644,37.9088],[117.4647,0.5644,73.6791],[117.468,0.5599,41.5037],[117.4616,0.6618,76.6952],[117.4056,0.6758,33.7008],[117.3512,0.6947,44.112],[117.3142,0.7176,23.8235],[117.2732,0.7632,47.6367]]]]}}