{"type":"Feature","properties":{"GID_3":"IDN.17.14.11_1","GID_0":"IDN","country":"Indonesia","GID_1":"IDN.17_1","province":"Lampung","NL_NAME_1":"NA","GID_2":"IDN.17.14_1","county":"WayKanan","NL_NAME_2":"NA","city":"NegeriBesar","VARNAME_3":"NA","NL_NAME_3":"NA","TYPE_3":"Kecamatan","ENGTYPE_3":"Sub-district","CC_3":"1807062","HASC_3":"NA","name":"Negeri_Besar.city"},
"geometry":{"type": "MultiPolygon","coordinates": [[[[104.9244,-4.5393,20.4798],[104.9315,-4.534,22.4947],[104.9368,-4.5323,18.6726],[104.9417,-4.5333,14.5361],[104.9455,-4.5287,21.5784],[104.9502,-4.5119,27.3182],[104.9512,-4.4994,32.5458],[104.9539,-4.498,31.2321],[104.9561,-4.4933,56.1564],[104.9636,-4.4893,45.1297],[104.9677,-4.4846,36.5498],[104.9687,-4.48,22.2486],[104.9673,-4.4753,36.0826],[104.9725,-4.4685,27.8312],[104.9715,-4.4588,55.8556],[104.9774,-4.4532,48.416],[104.9781,-4.4493,52.9869],[104.9807,-4.4469,48.2349],[104.9902,-4.4546,28.1414],[104.9976,-4.4557,20.2827],[105.0008,-4.4622,17.15],[105.0081,-4.463,15.0947],[105.0202,-4.47,11.7392],[105.048,-4.4709,33.5628],[105.0638,-4.4652,22.2833],[105.0676,-4.4466,9.0209],[105.0673,-4.435,12.1556],[105.0625,-4.4353,15.9141],[105.0613,-4.4145,8.3029],[105.0576,-4.4151,8.7398],[105.0527,-4.4114,9.2357],[105.0569,-4.4088,9.5272],[105.0564,-4.4062,10.0861],[105.0483,-4.4075,10.3263],[105.0499,-4.403,6.62],[105.0476,-4.4004,8.4632],[105.0446,-4.4065,9.9211],[105.0415,-4.404,7.8881],[105.0414,-4.4002,6.7336],[105.039,-4.3993,10.3322],[105.0376,-4.4099,7.2861],[105.0329,-4.4105,8.5282],[105.031,-4.4084,9.4145],[105.0323,-4.4039,9.6886],[105.031,-4.4015,9.6045],[105.0257,-4.4009,10.4241],[105.029,-4.4065,8.8259],[105.0261,-4.4093,8.1001],[105.0239,-4.4026,7.9851],[105.0183,-4.4,7.1814],[105.0192,-4.409,9.7877],[105.0161,-4.4106,10.8187],[105.0127,-4.4089,12.3457],[105.0129,-4.4046,9.7576],[105.0082,-4.404,10.2923],[104.9971,-4.3984,9.4359],[104.9908,-4.4012,10.8251],[104.9894,-4.4049,10.9939],[104.9874,-4.4049,9.0729],[104.9862,-4.4036,10.8366],[104.9868,-4.3988,12.7397],[104.9916,-4.3852,11.9886],[104.9542,-4.3795,21.4687],[104.9368,-4.3858,17.518],[104.9324,-4.386,14.9044],[104.9249,-4.3802,13.7483],[104.919,-4.38,12.3128],[104.9176,-4.3822,13.9391],[104.9164,-4.3787,14.6381],[104.9111,-4.3739,16.4303],[104.9063,-4.3743,13.5199],[104.9069,-4.403,24.4617],[104.8805,-4.4031,23.4273],[104.877,-4.4054,33.1657],[104.8805,-4.4131,31.6232],[104.8792,-4.4204,38.9889],[104.8815,-4.4359,20.3994],[104.891,-4.445,21.987],[104.9006,-4.4502,26.7502],[104.9017,-4.4558,29.8133],[104.8748,-4.5298,44.6288],[104.8742,-4.5438,30.0398],[104.8852,-4.5418,24.8666],[104.8868,-4.5437,23.8295],[104.9011,-4.5481,22.7161],[104.9065,-4.5527,20.3563],[104.9121,-4.55,19.339],[104.9135,-4.5457,22.0247],[104.9244,-4.5393,20.4798]]]]}}