{"type":"Feature","properties":{"GID_3":"IDN.10.32.14_1","GID_0":"IDN","country":"Indonesia","GID_1":"IDN.10_1","province":"JawaTengah","NL_NAME_1":"NA","GID_2":"IDN.10.32_1","county":"Tegal","NL_NAME_2":"NA","city":"Slawi","VARNAME_3":"NA","NL_NAME_3":"NA","TYPE_3":"Kecamatan","ENGTYPE_3":"Sub-district","CC_3":"3328100","HASC_3":"NA","name":"Slawi.city"},
"geometry":{"type": "MultiPolygon","coordinates": [[[[109.1429,-7.0083,55.3535],[109.1462,-7.0081,53.1705],[109.1441,-6.9972,38.7957],[109.1473,-6.9946,41.6286],[109.149,-6.9885,41.7356],[109.1555,-6.9926,45.835],[109.1579,-6.9913,43.4101],[109.1552,-6.9875,44.7787],[109.1499,-6.9856,40.525],[109.1499,-6.9815,41.2079],[109.146,-6.9796,38.4584],[109.1464,-6.977,38.0018],[109.1418,-6.9753,32.3904],[109.1451,-6.9724,34.4542],[109.1428,-6.9703,35.4082],[109.1434,-6.9673,32.4654],[109.141,-6.9671,34.6158],[109.1452,-6.9624,32.009],[109.1448,-6.96,28.3116],[109.1479,-6.9589,30.3229],[109.1474,-6.9572,28.4653],[109.1385,-6.9585,31.1416],[109.1376,-6.9627,32.2334],[109.1357,-6.9604,29.8015],[109.1317,-6.9633,31.2024],[109.126,-6.9603,28.9144],[109.1263,-6.9688,33.2911],[109.1221,-6.9704,31.5236],[109.1251,-6.9787,34.8628],[109.1227,-6.9777,35.3954],[109.1207,-6.9798,35.4563],[109.1203,-6.9844,38.2082],[109.1173,-6.9868,38.4478],[109.1161,-6.9945,43.8804],[109.1149,-6.9939,43.5439],[109.117,-6.9861,38.5197],[109.1092,-6.9855,37.6592],[109.1086,-6.9904,40.5719],[109.1098,-6.9904,40.6302],[109.1094,-6.9944,42.6147],[109.1254,-6.9988,46.5902],[109.1263,-7.0033,50.0324],[109.1251,-7.0059,52.5411],[109.1263,-7.0076,52.615],[109.1253,-7.0114,60.5995],[109.1367,-7.0124,61.6332],[109.1394,-7.0088,57.8039],[109.1429,-7.0083,55.3535]],
[[109.1122,-6.9928,42.5064],[109.1138,-6.9931,43.5439],[109.1134,-6.9942,43.5439],[109.1126,-6.9939,43.4798],[109.1122,-6.9928,42.5064]]]]}}