{"type":"Feature","properties":{"GID_3":"IDN.1.3.23_1","GID_0":"IDN","country":"Indonesia","GID_1":"IDN.1_1","province":"Aceh","NL_NAME_1":"NA","GID_2":"IDN.1.3_1","county":"AcehBesar","NL_NAME_2":"NA","city":"SukaMakmur","VARNAME_3":"NA","NL_NAME_3":"NA","TYPE_3":"Kecamatan","ENGTYPE_3":"Sub-district","CC_3":"1108100","HASC_3":"NA","name":"Suka_Makmur.city"},
"geometry":{"type": "MultiPolygon","coordinates": [[[[95.3655,5.3786,615.8702],[95.3785,5.3922,186.9529],[95.3799,5.4202,87.1358],[95.3839,5.4416,16.7109],[95.391,5.45,14.1977],[95.3934,5.4498,15.9737],[95.3945,5.4517,13.8006],[95.3925,5.4539,14.8306],[95.3955,5.4566,18.8297],[95.3972,5.4548,20.3382],[95.3981,5.4555,15.307],[95.4004,5.4615,8.7847],[95.3973,5.462,8.2602],[95.3951,5.4598,12.9469],[95.392,5.4611,6.5979],[95.3914,5.4655,11.5438],[95.395,5.4721,7.8512],[95.3948,5.483,8.558],[95.3875,5.4843,7.8154],[95.3833,5.4925,6.4502],[95.3749,5.4937,13.5429],[95.3717,5.4964,5.3464],[95.3634,5.4921,6.9534],[95.3614,5.4884,6.3103],[95.3602,5.479,9.9179],[95.3607,5.4744,10.861],[95.3631,5.4734,20.7132],[95.3644,5.4698,16.541],[95.3674,5.4689,18.1396],[95.3676,5.4665,12.1855],[95.3772,5.4631,12.1965],[95.3756,5.4591,12.9333],[95.3635,5.459,14.8962],[95.3605,5.4519,14.0022],[95.3594,5.4368,57.8512],[95.3407,5.4121,625.3171],[95.3281,5.4041,1116.712],[95.3303,5.3905,1321.1656],[95.3394,5.3835,1500.2645],[95.3434,5.3692,1504.1053],[95.3558,5.372,1079.4921],[95.3655,5.3786,615.8702]]]]}}