{"type":"Feature","properties":{"GID_3":"IDN.9.25.18_1","GID_0":"IDN","country":"Indonesia","GID_1":"IDN.9_1","province":"JawaBarat","NL_NAME_1":"NA","GID_2":"IDN.9.25_1","county":"Sumedang","NL_NAME_2":"NA","city":"SumedangSelatan","VARNAME_3":"NA","NL_NAME_3":"NA","TYPE_3":"Kecamatan","ENGTYPE_3":"Sub-district","CC_3":"3211050","HASC_3":"NA","name":"Sumedang_Selatan.city"},
"geometry":{"type": "MultiPolygon","coordinates": [[[[107.9553,-6.9592,1564.3615],[107.9581,-6.9604,1577.4355],[107.9665,-6.9587,1553.5168],[107.9717,-6.9538,1584.2734],[107.971,-6.9473,1515.0363],[107.9781,-6.9412,1372.2928],[107.9755,-6.9361,1251.847],[107.9766,-6.9281,1148.2566],[107.9697,-6.9241,1186.578],[107.9695,-6.9208,1156.981],[107.973,-6.914,1147.6437],[107.9714,-6.9108,1122.4235],[107.9714,-6.9047,1047.8877],[107.9661,-6.9054,1109.2876],[107.9581,-6.9034,990.347],[107.9525,-6.8856,792.8798],[107.9497,-6.8828,710.9683],[107.9498,-6.8787,600.0671],[107.9441,-6.8669,569.7481],[107.9466,-6.8534,644.994],[107.937,-6.859,476.259],[107.9341,-6.8577,503.5121],[107.9335,-6.8532,461.7326],[107.9302,-6.8523,449.2249],[107.9308,-6.8554,451.6966],[107.9257,-6.8572,465.7364],[107.9246,-6.8552,467.5478],[107.9262,-6.854,460.6563],[107.9246,-6.8514,461.7166],[107.9258,-6.8496,461.8006],[107.9243,-6.8503,462.8723],[107.9238,-6.8478,466.5723],[107.9212,-6.8484,464.6014],[107.9197,-6.8451,465.2826],[107.9189,-6.8468,463.6872],[107.9139,-6.8459,463.5743],[107.9148,-6.8435,466.2087],[107.9129,-6.8416,467.451],[107.9128,-6.8382,469.5698],[107.9116,-6.8365,469.6631],[107.9084,-6.837,476.9039],[107.9069,-6.8432,466.4957],[107.9094,-6.8438,465.7378],[107.9104,-6.8478,460.6694],[107.907,-6.8471,464.813],[107.9071,-6.8527,530.0259],[107.9044,-6.8555,464.7889],[107.9027,-6.8544,475.0165],[107.8983,-6.856,498.2062],[107.8985,-6.8586,488.697],[107.8942,-6.8642,507.6845],[107.8839,-6.8555,710.8926],[107.8781,-6.8526,748.3845],[107.875,-6.8538,755.4464],[107.8733,-6.8474,757.5645],[107.8665,-6.8452,817.6727],[107.8603,-6.8487,780.1064],[107.8572,-6.8464,794.4755],[107.8542,-6.851,733.0362],[107.858,-6.8519,750.3018],[107.8615,-6.8603,677.7567],[107.8669,-6.862,638.3529],[107.8723,-6.8677,629.652],[107.8693,-6.8708,622.9178],[107.8646,-6.8715,700.6164],[107.8652,-6.8742,756.7526],[107.8696,-6.8738,686.3959],[107.8636,-6.8797,731.1666],[107.8642,-6.8817,713.0236],[107.874,-6.8781,602.5312],[107.8741,-6.8806,611.8154],[107.8778,-6.8815,698.5756],[107.8781,-6.8862,744.952],[107.8813,-6.8875,798.5438],[107.8807,-6.8912,842.8076],[107.884,-6.8967,933.4213],[107.8832,-6.9026,1019.8162],[107.8847,-6.9053,1070.9971],[107.8816,-6.9192,1395.6412],[107.8825,-6.9262,1480.9307],[107.8846,-6.9282,1533.8232],[107.8817,-6.9342,1680.2153],[107.8843,-6.938,1494.136],[107.8862,-6.939,1522.6267],[107.8916,-6.938,1392.4746],[107.903,-6.944,1393.0259],[107.9108,-6.9351,1250.5731],[107.9162,-6.9349,1309.0547],[107.9195,-6.9379,1326.8948],[107.9255,-6.9372,1349.2539],[107.9304,-6.9445,1354.6675],[107.9259,-6.9486,1214.1711],[107.9301,-6.9553,1256.6422],[107.939,-6.9563,1351.8375],[107.9429,-6.9531,1475.6965],[107.9459,-6.9575,1496.6528],[107.9553,-6.9592,1564.3615]]]]}}