{"type":"Feature","properties":{"GID_3":"IDN.11.2.16_1","GID_0":"IDN","country":"Indonesia","GID_1":"IDN.11_1","province":"JawaTimur","NL_NAME_1":"NA","GID_2":"IDN.11.2_1","county":"Banyuwangi","NL_NAME_2":"NA","city":"Rogojampi","VARNAME_3":"NA","NL_NAME_3":"NA","TYPE_3":"Kecamatan","ENGTYPE_3":"Sub-district","CC_3":"3510120","HASC_3":"NA","name":"Rogojampi.city"},
"geometry":{"type": "MultiPolygon","coordinates": [[[[114.3465,-8.3882,1.9509],[114.3478,-8.3892,0.0],[114.352,-8.3741,2.135],[114.3524,-8.3642,1.7565],[114.3512,-8.3621,5.3064],[114.353,-8.3537,3.1038],[114.3608,-8.3359,1.3443],[114.3578,-8.3272,2.6204],[114.3639,-8.313,0.8613],[114.334,-8.3104,33.1636],[114.3335,-8.3052,29.3173],[114.3306,-8.3026,32.5662],[114.3288,-8.2956,36.397],[114.3266,-8.2937,39.2022],[114.3216,-8.2949,42.4272],[114.311,-8.2932,56.4117],[114.3042,-8.2983,68.2874],[114.2999,-8.2978,76.8316],[114.2986,-8.2971,76.8316],[114.3022,-8.2933,67.9216],[114.2963,-8.2916,79.0333],[114.2938,-8.2893,80.2038],[114.2908,-8.2914,87.699],[114.2892,-8.2974,87.1614],[114.2848,-8.2963,94.7539],[114.2825,-8.3002,101.0266],[114.2768,-8.2958,107.2995],[114.2636,-8.2966,138.5437],[114.2641,-8.3005,134.5901],[114.2682,-8.3047,122.9765],[114.2745,-8.3064,110.6618],[114.2717,-8.3127,111.2857],[114.2759,-8.3158,102.4882],[114.2825,-8.3174,91.8991],[114.2813,-8.3216,91.6822],[114.283,-8.3239,89.2093],[114.2825,-8.3257,90.8218],[114.2742,-8.3176,103.0888],[114.2656,-8.3352,104.5546],[114.2536,-8.335,116.8265],[114.2478,-8.3424,116.0268],[114.2454,-8.3486,109.5155],[114.25,-8.3549,103.0703],[114.2571,-8.3554,101.627],[114.2577,-8.3535,98.5612],[114.2612,-8.3533,95.1302],[114.2708,-8.3585,87.6444],[114.2749,-8.3553,78.2941],[114.2863,-8.3603,64.1186],[114.2929,-8.3582,50.454],[114.297,-8.3585,52.4163],[114.2987,-8.3618,42.7139],[114.3023,-8.3614,37.7663],[114.3038,-8.3645,35.8209],[114.3086,-8.3641,33.6079],[114.3084,-8.3662,43.6865],[114.3105,-8.3677,37.6635],[114.3111,-8.3656,30.9486],[114.3136,-8.3646,29.632],[114.3158,-8.3676,35.0559],[114.3179,-8.3673,31.2582],[114.3191,-8.3698,32.9758],[114.32,-8.3685,23.5606],[114.3246,-8.3719,29.1614],[114.3283,-8.371,25.9969],[114.331,-8.377,21.0701],[114.3384,-8.3761,11.0543],[114.3403,-8.379,10.4005],[114.3427,-8.3785,5.3324],[114.3432,-8.3807,12.6975],[114.346,-8.3818,3.0324],[114.3465,-8.3882,1.9509]]]]}}