{"type":"Feature","properties":{"GID_3":"IDN.28.4.8_1","GID_0":"IDN","country":"Indonesia","GID_1":"IDN.28_1","province":"SulawesiTenggara","NL_NAME_1":"NA","GID_2":"IDN.28.4_1","county":"Buton","NL_NAME_2":"NA","city":"LasalimuSelatan","VARNAME_3":"NA","NL_NAME_3":"NA","TYPE_3":"Kecamatan","ENGTYPE_3":"Sub-district","CC_3":"7401051","HASC_3":"NA","name":"Lasalimu_Selatan.city"},
"geometry":{"type": "MultiPolygon","coordinates": [[[[123.1869,-5.3394,4.7381],[123.1949,-5.3315,0.0],[123.1975,-5.32,5.1932],[123.2033,-5.3113,0.0],[123.208,-5.3084,12.445],[123.2113,-5.3083,0.0],[123.2168,-5.3037,0.0],[123.2243,-5.2787,12.8349],[123.2214,-5.2733,1.5971],[123.2154,-5.2703,0.2086],[123.1991,-5.2717,5.5722],[123.1979,-5.27,1.4424],[123.1997,-5.2672,5.2921],[123.1981,-5.2606,4.1874],[123.1941,-5.2574,0.0],[123.1893,-5.2567,2.1848],[123.1848,-5.2494,0.0],[123.1814,-5.247,11.7468],[123.1771,-5.246,0.0],[123.1582,-5.2489,0.9504],[123.1566,-5.2475,1.0633],[123.1518,-5.248,7.2006],[123.1491,-5.2443,0.0],[123.1318,-5.2614,53.7579],[123.13,-5.2686,46.7702],[123.1255,-5.2686,77.3758],[123.0856,-5.2271,10.6989],[123.079,-5.2356,41.6974],[123.0376,-5.2483,82.9433],[123.0117,-5.27,203.75],[123.0202,-5.286,308.3124],[123.0375,-5.2893,124.1076],[123.0455,-5.302,157.9542],[123.0615,-5.3073,99.9221],[123.0735,-5.3067,87.4225],[123.0869,-5.3113,69.1373],[123.1155,-5.3461,54.2515],[123.1449,-5.3421,57.2148],[123.1575,-5.3494,11.1705],[123.1657,-5.3605,5.6778],[123.1673,-5.3569,13.362],[123.1686,-5.3596,0.0],[123.1727,-5.3591,8.8047],[123.177,-5.3494,8.3116],[123.1856,-5.3422,6.535],[123.1869,-5.3394,4.7381]]],
[[[123.1602,-5.2431,0.0],[123.1576,-5.2441,0.0],[123.1582,-5.2454,0.0],[123.161,-5.245,0.0],[123.1602,-5.2431,0.0]]]]}}