{"type":"Feature","properties":{"GID_3":"IDN.12.4.16_1","GID_0":"IDN","country":"Indonesia","GID_1":"IDN.12_1","province":"KalimantanBarat","NL_NAME_1":"NA","GID_2":"IDN.12.4_1","county":"Ketapang","NL_NAME_2":"NA","city":"SimpangHulu","VARNAME_3":"NA","NL_NAME_3":"NA","TYPE_3":"Kecamatan","ENGTYPE_3":"Sub-district","CC_3":"6106120","HASC_3":"NA","name":"Simpang_Hulu.city"},
"geometry":{"type": "MultiPolygon","coordinates": [[[[110.3379,-0.6802,60.8122],[110.3663,-0.6909,50.3914],[110.3921,-0.7044,43.8119],[110.4108,-0.7061,81.6015],[110.4574,-0.7029,315.6437],[110.4576,-0.6472,67.7138],[110.4595,-0.6345,167.4019],[110.4646,-0.6198,136.5054],[110.4856,-0.5925,89.4105],[110.5121,-0.5717,116.0759],[110.5381,-0.5564,472.23],[110.5875,-0.5322,114.3826],[110.6161,-0.5149,604.6862],[110.6137,-0.5072,543.1231],[110.6157,-0.4875,479.0277],[110.6132,-0.4679,703.292],[110.6168,-0.4594,462.7883],[110.6042,-0.4229,423.9565],[110.5932,-0.4048,349.1053],[110.5663,-0.3793,433.3464],[110.5618,-0.3657,489.7404],[110.5282,-0.3383,646.2965],[110.4761,-0.3261,789.5386],[110.4685,-0.326,666.0232],[110.4584,-0.3308,347.263],[110.4384,-0.3462,168.1413],[110.4338,-0.3548,127.3696],[110.4269,-0.363,79.7374],[110.4165,-0.3674,108.9383],[110.4024,-0.3771,84.4311],[110.4065,-0.3831,99.7805],[110.4129,-0.4022,71.1557],[110.4109,-0.4123,61.6658],[110.413,-0.4204,56.2806],[110.411,-0.4253,56.5667],[110.4144,-0.4341,44.2126],[110.412,-0.4377,44.6293],[110.4118,-0.4431,38.2749],[110.4059,-0.443,45.3775],[110.4044,-0.448,46.3354],[110.4002,-0.4499,85.9273],[110.3981,-0.4557,79.4208],[110.3985,-0.4598,52.2537],[110.3951,-0.4632,64.7265],[110.3962,-0.4687,38.5248],[110.3917,-0.4667,49.0043],[110.3921,-0.4725,41.43],[110.3906,-0.4741,36.8116],[110.3845,-0.4699,46.5112],[110.3818,-0.471,45.8216],[110.3762,-0.4674,51.9377],[110.3697,-0.466,94.5132],[110.3685,-0.4616,89.8731],[110.3713,-0.4495,94.4597],[110.3697,-0.4457,100.9708],[110.3561,-0.4453,97.3078],[110.3521,-0.4421,68.4282],[110.3506,-0.4379,100.1551],[110.3505,-0.4336,93.71],[110.3572,-0.4207,65.9274],[110.3713,-0.4124,55.0856],[110.3715,-0.4011,39.4938],[110.3668,-0.3955,43.2292],[110.3577,-0.3961,51.0131],[110.3452,-0.3928,33.0896],[110.3182,-0.4094,42.17],[110.3129,-0.4149,53.3961],[110.3115,-0.426,28.0794],[110.3072,-0.432,63.4422],[110.3066,-0.4378,42.5607],[110.3027,-0.4418,55.9737],[110.3024,-0.4464,44.1922],[110.2999,-0.449,29.0571],[110.2953,-0.448,27.3151],[110.2747,-0.4372,50.1341],[110.2638,-0.4385,19.2278],[110.2511,-0.444,28.479],[110.2456,-0.4377,21.022],[110.2314,-0.4326,16.4737],[110.2262,-0.4271,13.1804],[110.2153,-0.4237,8.1682],[110.2155,-0.4208,9.2335],[110.213,-0.4193,13.0974],[110.1943,-0.4213,18.6045],[110.1914,-0.4185,16.8247],[110.1841,-0.4185,10.1922],[110.1672,-0.423,46.5214],[110.1564,-0.4284,12.6699],[110.1505,-0.4354,10.8526],[110.1468,-0.4344,6.2792],[110.1414,-0.4289,9.8507],[110.1353,-0.4281,12.8332],[110.1305,-0.4248,10.6276],[110.12,-0.4248,7.7781],[110.1201,-0.4223,5.7633],[110.1138,-0.4219,10.8513],[110.1131,-0.4242,9.5022],[110.1122,-0.4225,14.6404],[110.1104,-0.4257,11.1436],[110.111,-0.4276,12.3966],[110.1085,-0.4274,5.5924],[110.1063,-0.4261,13.8199],[110.1081,-0.4239,11.4918],[110.1062,-0.4208,10.757],[110.108,-0.4185,10.6013],[110.1032,-0.4188,11.2713],[110.1042,-0.4144,4.7723],[110.1,-0.4073,12.162],[110.1006,-0.4053,7.4034],[110.1032,-0.4043,9.315],[110.0998,-0.4007,11.7948],[110.0988,-0.3968,7.1326],[110.0923,-0.3984,11.6503],[110.0858,-0.398,11.6455],[110.0794,-0.3944,9.7175],[110.0773,-0.3885,9.3418],[110.0603,-0.3885,11.7651],[110.0579,-0.3857,17.0139],[110.0513,-0.3865,11.1757],[110.0483,-0.3926,8.7665],[110.0425,-0.3956,18.0594],[110.0398,-0.3998,10.6319],[110.0399,-0.4045,10.5165],[110.0436,-0.4143,8.055],[110.0365,-0.4232,13.3961],[110.0361,-0.4272,8.9455],[110.0381,-0.4307,6.1914],[110.0373,-0.4348,6.4804],[110.0283,-0.4436,11.8879],[110.0153,-0.447,13.2319],[110.0145,-0.4582,11.8983],[110.0101,-0.46,3.1899],[110.005,-0.4721,4.563],[109.9966,-0.4714,6.1785],[109.9937,-0.4726,4.0372],[109.9922,-0.4787,5.5802],[109.996,-0.4833,9.097],[109.996,-0.4854,7.9547],[109.9906,-0.484,6.4541],[109.9875,-0.4852,5.6445],[109.9808,-0.4908,7.3392],[109.9759,-0.4984,5.2127],[109.9644,-0.4965,0.7513],[109.9474,-0.4992,7.8623],[109.9381,-0.5134,3.4648],[109.9258,-0.522,8.8927],[109.9187,-0.531,8.0908],[109.887,-0.5511,6.163],[109.88,-0.5612,12.6727],[109.8791,-0.5651,0.9512],[109.882,-0.5772,1.5625],[109.881,-0.5864,8.1661],[109.8682,-0.5938,1.0563],[109.8635,-0.6059,2.4358],[109.86,-0.6107,5.0853],[109.8264,-0.6318,14.0782],[109.8161,-0.6408,10.2426],[109.8139,-0.6455,5.8769],[109.8104,-0.668,3.9695],[109.8133,-0.6802,16.6227],[109.8185,-0.6822,14.8594],[109.8219,-0.6805,10.2331],[109.8246,-0.6723,14.2216],[109.8385,-0.6754,13.1296],[109.8406,-0.6726,16.9994],[109.8416,-0.6645,8.4897],[109.8463,-0.659,10.0724],[109.8592,-0.6576,12.9903],[109.8687,-0.6723,8.6259],[109.8804,-0.685,10.5303],[109.8843,-0.6915,2.9878],[109.885,-0.6997,8.0355],[109.8791,-0.711,3.755],[109.8791,-0.7146,1.9855],[109.8887,-0.7268,8.897],[109.898,-0.7317,0.0],[109.9029,-0.7322,5.3224],[109.9337,-0.7195,5.7534],[109.9411,-0.7299,0.0],[109.9412,-0.734,5.1],[109.9398,-0.7417,0.0],[109.9326,-0.7483,1.6281],[109.9322,-0.7522,0.0],[109.9655,-0.7522,12.1732],[109.9904,-0.7547,7.9823],[110.0066,-0.7123,11.8609],[110.0155,-0.7097,12.0072],[110.0031,-0.7007,17.3741],[109.9844,-0.6944,12.3063],[109.9644,-0.6766,6.8074],[109.964,-0.6729,8.6371],[109.9659,-0.6714,4.2863],[109.9808,-0.6707,11.3541],[109.9829,-0.6691,7.9927],[109.9845,-0.6726,7.4921],[109.9874,-0.6686,8.2386],[109.9895,-0.6743,15.4668],[109.9913,-0.6749,5.5099],[109.9939,-0.6725,14.5912],[109.9937,-0.6707,15.4265],[109.9855,-0.6641,7.0412],[109.9883,-0.6583,6.2264],[109.993,-0.6557,12.4364],[109.9958,-0.6569,8.7493],[109.9978,-0.6529,1.0],[110.002,-0.6506,10.3213],[110.0036,-0.6529,3.0362],[110.0064,-0.6503,9.8842],[110.0122,-0.6516,13.0847],[110.013,-0.6482,10.4391],[110.0175,-0.6518,1.9446],[110.0191,-0.6471,4.2347],[110.0183,-0.643,3.9914],[110.0214,-0.6411,4.8843],[110.0229,-0.638,4.9996],[110.0299,-0.6395,13.2527],[110.0329,-0.6425,4.4213],[110.0385,-0.6381,7.7945],[110.0365,-0.6366,7.428],[110.0377,-0.6346,4.5],[110.0363,-0.6322,9.3385],[110.0388,-0.6327,10.1648],[110.0409,-0.6304,13.337],[110.04,-0.6336,3.6551],[110.0446,-0.6348,5.0465],[110.0462,-0.6329,15.1642],[110.0479,-0.6367,8.1135],[110.0462,-0.6385,7.3141],[110.0499,-0.6381,5.9084],[110.0505,-0.6403,4.2024],[110.0531,-0.6404,5.877],[110.0511,-0.645,6.4122],[110.0556,-0.6453,9.8265999999999991],[110.0541,-0.6476,10.8535],[110.0555,-0.6478,10.7047],[110.0571,-0.6519,5.4095],[110.0627,-0.6549,6.4887],[110.0626,-0.6573,6.1221],[110.0648,-0.6565,6.5852],[110.0658,-0.6592,12.7816],[110.0688,-0.6587,9.8039],[110.0669,-0.663,4.1764],[110.0709,-0.664,10.6311],[110.0712,-0.6666,10.5204],[110.0745,-0.6671,15.0503],[110.0751,-0.669,5.6642],[110.0774,-0.6686,7.2178],[110.0754,-0.6719,5.9525],[110.0753,-0.6779,9.086],[110.0803,-0.6773,16.7175],[110.081,-0.6823,9.6065],[110.0824,-0.681,11.489],[110.0847,-0.6839,11.0644],[110.0817,-0.6868,12.4277],[110.0806,-0.6851,12.0303],[110.0796,-0.6858,17.6385],[110.0815,-0.6911,10.4911],[110.0804,-0.6931,6.9362],[110.0841,-0.6954,9.9821],[110.0823,-0.6984,6.3933],[110.0847,-0.6972,14.7353],[110.0862,-0.6998,15.0678],[110.0912,-0.6974,11.6045],[110.09,-0.6996,15.3121],[110.0922,-0.7,11.7601],[110.0928,-0.7023,11.4168],[110.0974,-0.7014,8.7979],[110.0961,-0.706,9.2143],[110.0988,-0.7025,12.2034],[110.1014,-0.7067,14.8244],[110.1009,-0.704,9.8069],[110.1033,-0.7025,12.5546],[110.1058,-0.7043,17.9952],[110.1069,-0.7013,12.6871],[110.1105,-0.705,9.9595],[110.1168,-0.7015,19.839],[110.1207,-0.7042,9.7608],[110.1224,-0.6993,14.9393],[110.1251,-0.7038,10.0228],[110.1251,-0.7018,10.0712],[110.1283,-0.7009,9.7832],[110.1268,-0.6982,12.2862],[110.1282,-0.6979,16.3244],[110.1302,-0.7013,9.2863],[110.1325,-0.701,13.04],[110.1334,-0.7,13.04],[110.1317,-0.6985,13.2169],[110.1365,-0.6977,12.2228],[110.1381,-0.6959,14.8903],[110.139,-0.6987,10.5068],[110.1411,-0.6973,11.0136],[110.1406,-0.6997,11.2482],[110.1421,-0.699,14.3554],[110.1475,-0.7026,12.2199],[110.151,-0.6981,14.4007],[110.1528,-0.6994,19.2282],[110.1569,-0.6984,17.671],[110.1541,-0.6957,15.0305],[110.1567,-0.6949,17.5306],[110.1595,-0.6967,15.0295],[110.1633,-0.6946,15.7265],[110.1642,-0.6915,20.2852],[110.1668,-0.6926,17.0374],[110.1684,-0.6889,22.5655],[110.1726,-0.6863,13.0488],[110.1749,-0.6868,13.9615],[110.1739,-0.6891,14.7416],[110.1764,-0.6891,15.1329],[110.1781,-0.6911,15.3443],[110.1804,-0.6876,18.9379],[110.1837,-0.6902,12.8821],[110.1865,-0.6852,21.4748],[110.1901,-0.685,21.9266],[110.1912,-0.6867,20.7395],[110.1928,-0.6832,17.9318],[110.1951,-0.6843,14.958],[110.1932,-0.6802,14.6746],[110.1942,-0.6789,22.689],[110.1961,-0.681,14.8351],[110.1985,-0.6775,23.2217],[110.2118,-0.682,19.72],[110.2384,-0.6757,26.8147],[110.2464,-0.6713,20.8565],[110.2562,-0.6695,35.2149],[110.2642,-0.6641,32.5337],[110.274,-0.6668,30.3283],[110.2766,-0.6641,33.7967],[110.2864,-0.6659,59.911],[110.2953,-0.6641,32.3229],[110.3228,-0.6641,53.8466],[110.3379,-0.6802,60.8122]]]]}}