{"type":"Feature","properties":{"GID_3":"IDN.27.10.9_1","GID_0":"IDN","country":"Indonesia","GID_1":"IDN.27_1","province":"SulawesiTengah","NL_NAME_1":"NA","GID_2":"IDN.27.10_1","county":"TojoUna-Una","NL_NAME_2":"NA","city":"WaleaKepulauan","VARNAME_3":"NA","NL_NAME_3":"NA","TYPE_3":"Kecamatan","ENGTYPE_3":"Sub-district","CC_3":"7209080","HASC_3":"NA","name":"Walea_Kepulauan.city"},
"geometry":{"type": "MultiPolygon","coordinates": [[[[122.1003,-0.4064,0.3585],[122.1004,-0.4039,0.0],[122.098,-0.4042,0.0],[122.0981,-0.4088,2.1496],[122.1003,-0.4088,0.4748],[122.1003,-0.4064,0.3585]]],
[[[122.076,-0.3972,0.6425],[122.0791,-0.3998,0.7263],[122.0807,-0.397,0.0],[122.08,-0.3961,0.0],[122.076,-0.3972,0.6425]]],
[[[122.0971,-0.4024,0.0],[122.0948,-0.4026,1.6725],[122.0953,-0.4049,0.6087],[122.0974,-0.4031,0.0],[122.0971,-0.4024,0.0]]],
[[[122.1257,-0.4236,0.0],[122.1251,-0.4244,0.0],[122.1262,-0.4252,0.0],[122.126,-0.4234,0.0],[122.1257,-0.4236,0.0]]],
[[[122.2333,-0.3122,1.5918],[122.2324,-0.3141,0.0],[122.2335,-0.3149,0.0],[122.2342,-0.3114,1.5918],[122.2333,-0.3122,1.5918]]],
[[[122.2377,-0.3034,0.0],[122.2383,-0.3004,0.0],[122.2323,-0.3017,2.6077],[122.2345,-0.31,0.0],[122.2379,-0.3071,0.0],[122.2377,-0.3034,0.0]]],
[[[122.2656,-0.2855,8.6573],[122.2629,-0.2891,0.0],[122.2639,-0.29,0.0],[122.2686,-0.2887,10.8002],[122.2656,-0.2855,8.6573]]],
[[[122.2704,-0.2866,0.0],[122.2722,-0.2879,0.0],[122.2733,-0.2875,0.0],[122.2722,-0.2859,0.0],[122.2704,-0.2866,0.0]]],
[[[122.2556,-0.2809,0.0],[122.2576,-0.2825,0.0],[122.258,-0.2821,0.0],[122.2576,-0.28,0.0],[122.2556,-0.2809,0.0]]],
[[[122.0915,-0.2605,0.0],[122.0947,-0.2604,0.8361],[122.0957,-0.2551,0.0],[122.0924,-0.2569,2.4465],[122.0915,-0.2605,0.0]]],
[[[122.2069,-0.2229,3.059],[122.2082,-0.2239,0.0],[122.2099,-0.2218,10.5362],[122.2087,-0.2217,10.5362],[122.2069,-0.2229,3.059]]],
[[[122.2128,-0.2145,0.0],[122.2129,-0.214,0.0],[122.2124,-0.2139,0.0],[122.2125,-0.2143,0.0],[122.2128,-0.2145,0.0]]],
[[[122.2303,-0.2738,1.83],[122.2308,-0.274,1.83],[122.2309,-0.2739,1.83],[122.2308,-0.2735,1.83],[122.2303,-0.2738,1.83]]],
[[[122.1279,-0.3412,0.0],[122.1278,-0.3424,0.0],[122.1315,-0.3449,0.0],[122.1312,-0.3438,2.9873],[122.1279,-0.3412,0.0]]],
[[[122.1442,-0.3353,1.5249],[122.143,-0.3353,1.5249],[122.1425,-0.3372,0.9475],[122.1431,-0.3371,0.9475],[122.1442,-0.3353,1.5249]]],
[[[122.1164,-0.27,0.0],[122.1225,-0.2712,0.0],[122.1296,-0.267,0.0],[122.1268,-0.2589,0.0],[122.1173,-0.2531,0.0],[122.1153,-0.2532,3.7359],[122.1121,-0.2563,0.0],[122.1125,-0.2625,0.0],[122.1108,-0.264,0.0],[122.1138,-0.2654,15.0897],[122.1131,-0.2672,0.0],[122.1164,-0.27,0.0]]],
[[[122.0915,-0.2589,0.0],[122.0953,-0.2478,0.0],[122.0891,-0.2415,0.0],[122.0868,-0.241,0.0],[122.0684,-0.2504,0.0],[122.0597,-0.2506,0.0],[122.0478,-0.2558,10.4635],[122.0432,-0.2561,0.0],[122.0366,-0.2618,42.9397],[122.0303,-0.2738,35.1524],[122.0283,-0.2751,4.9879],[122.0319,-0.277,0.0],[122.0442,-0.2777,0.0],[122.0542,-0.2736,0.0],[122.07,-0.2613,0.0],[122.0743,-0.2663,0.0],[122.0767,-0.267,0.0],[122.0833,-0.2658,0.0],[122.0897,-0.2591,0.0],[122.0901,-0.2561,12.1833],[122.0915,-0.2589,0.0]]],
[[[122.1544,-0.2716,6.8262],[122.1533,-0.2665,0.0],[122.155,-0.2657,0.0],[122.1514,-0.2631,0.0],[122.1482,-0.2674,0.0],[122.1515,-0.27,37.2491],[122.1474,-0.2723,0.0],[122.1475,-0.2751,0.0],[122.1504,-0.2763,0.0],[122.1496,-0.2747,0.0],[122.1523,-0.2746,0.0],[122.1544,-0.2716,6.8262]]],
[[[122.2464,-0.2836,0.0],[122.2458,-0.281,22.9578],[122.2493,-0.2833,0.0],[122.2507,-0.2807,3.9624],[122.2478,-0.2783,0.0],[122.2495,-0.2759,0.0],[122.2481,-0.2741,0.0],[122.2463,-0.2748,19.7437],[122.2418,-0.2728,0.0],[122.2411,-0.2711,0.0],[122.2398,-0.2714,0.0],[122.24,-0.274,4.441],[122.238,-0.2747,2.3047],[122.2341,-0.2728,0.0],[122.2305,-0.2762,5.1744],[122.2301,-0.274,1.83],[122.2281,-0.273,37.827],[122.2283,-0.2704,11.0798],[122.2325,-0.2705,5.2861],[122.2353,-0.265,3.6176],[122.2332,-0.2584,0.0],[122.2298,-0.2563,7.9098],[122.2248,-0.2603,5.1882],[122.2216,-0.26,7.4525],[122.2208,-0.2626,29.0557],[122.2147,-0.2618,2.0676],[122.2175,-0.2545,8.3437],[122.2154,-0.2526,7.9335],[122.2184,-0.2485,13.942],[122.2149,-0.2496,33.0114],[122.212,-0.247,5.7867],[122.2102,-0.2496,61.569],[122.2023,-0.246,5.7617],[122.1994,-0.2485,44.6836],[122.1971,-0.2482,7.0026],[122.1929,-0.2565,14.8608],[122.1881,-0.2504,0.0],[122.1875,-0.2475,3.3511],[122.1902,-0.2425,4.0089],[122.2011,-0.2329,2.2156],[122.2064,-0.2216,3.059],[122.211,-0.2189,0.0],[122.2111,-0.2172,0.0],[122.2084,-0.2157,4.0585],[122.2099,-0.2147,4.0585],[122.2087,-0.2103,4.279],[122.2037,-0.2106,5.8561],[122.2051,-0.2132,33.7554],[122.2007,-0.2119,12.0448],[122.1978,-0.2148,66.1397],[122.1985,-0.2121,0.0],[122.1961,-0.2113,25.8622],[122.1925,-0.2131,9.8146],[122.1915,-0.2123,0.0],[122.1905,-0.215,22.1548],[122.1893,-0.2134,0.0],[122.1851,-0.2152,3.7178],[122.1867,-0.2171,27.5688],[122.1844,-0.2165,26.9476],[122.1838,-0.2182,57.2852],[122.1762,-0.2216,6.5939],[122.1762,-0.2229,6.5939],[122.1736,-0.223,31.6552],[122.1668,-0.2305,14.74],[122.1651,-0.2297,0.0],[122.164,-0.2325,17.1409],[122.1627,-0.2321,0.0],[122.1631,-0.2351,5.4733],[122.1572,-0.2346,18.1961],[122.1539,-0.2423,18.2231],[122.1526,-0.2397,6.9338],[122.1475,-0.2437,0.0],[122.1466,-0.2499,0.0],[122.1484,-0.2525,0.0],[122.1504,-0.2519,24.1306],[122.1496,-0.2536,3.1482],[122.1512,-0.253,29.2005],[122.1537,-0.2579,13.4058],[122.1515,-0.2623,1.6868],[122.1559,-0.2609,10.0029],[122.1556,-0.2594,25.9905],[122.1577,-0.2582,8.0893],[122.1608,-0.2586,18.7726],[122.1584,-0.2611,0.0],[122.1596,-0.263,0.0],[122.1619,-0.2587,5.9804],[122.1667,-0.2567,1.261],[122.1654,-0.2535,0.0],[122.1694,-0.2509,8.5673],[122.1686,-0.2484,8.7097],[122.1713,-0.2513,0.3967],[122.1744,-0.2481,9.4493],[122.1782,-0.2511,18.5547],[122.1779,-0.253,76.2882],[122.1734,-0.2561,19.8242],[122.1746,-0.2651,3.9008],[122.1804,-0.2793,42.6349],[122.1927,-0.2772,6.043],[122.1956,-0.2744,15.9055],[122.1999,-0.2756,4.0927],[122.2047,-0.2719,8.6252],[122.2076,-0.2746,0.0],[122.203,-0.2764,10.5269],[122.2018,-0.2786,0.0],[122.2067,-0.2824,29.9425],[122.2087,-0.2877,15.8232],[122.2133,-0.2915,0.0],[122.2153,-0.2904,0.0],[122.2139,-0.2873,23.6928],[122.2159,-0.2875,19.5775],[122.2186,-0.2839,56.6815],[122.2279,-0.2817,28.175],[122.2337,-0.2831,5.6716],[122.2396,-0.2806,27.4165],[122.2371,-0.2852,3.2012],[122.2355,-0.2854,3.2012],[122.2346,-0.2892,0.0],[122.2293,-0.2924,1.0331],[122.2322,-0.2943,27.6608],[122.2336,-0.2976,6.9726],[122.2351,-0.2949,18.0765],[122.2388,-0.2934,0.0],[122.2401,-0.2903,44.6721],[122.2451,-0.2922,15.9023],[122.2443,-0.2853,23.7407],[122.2464,-0.2836,0.0]]],
[[[122.062,-0.4287,0.7954],[122.0615,-0.4289,0.7954],[122.0621,-0.4297,1.6986],[122.0624,-0.4291,0.0],[122.062,-0.4287,0.7954]]],
[[[122.0607,-0.431,1.6986],[122.0618,-0.4262,0.0],[122.0598,-0.4266,0.0],[122.0601,-0.4281,0.0],[122.0591,-0.4269,0.0],[122.0607,-0.431,1.6986]]],
[[[122.1192,-0.4258,5.1448],[122.1189,-0.4267,0.0],[122.1198,-0.4271,0.0],[122.1198,-0.4256,5.1448],[122.1192,-0.4258,5.1448]]],
[[[122.1171,-0.4267,0.0],[122.1167,-0.4265,0.0],[122.1166,-0.4267,0.0],[122.1172,-0.427,0.0],[122.1171,-0.4267,0.0]]],
[[[122.115,-0.4297,0.0],[122.115,-0.4304,0.0],[122.1157,-0.4305,0.0],[122.1157,-0.4297,0.0],[122.115,-0.4297,0.0]]],
[[[122.1154,-0.4262,0.0],[122.1153,-0.427,2.2328],[122.1164,-0.4268,0.0],[122.1161,-0.426,0.0],[122.1154,-0.4262,0.0]]],
[[[122.0647,-0.4242,0.0],[122.0643,-0.4244,0.0],[122.0647,-0.4252,0.0],[122.0649,-0.4248,0.0],[122.0647,-0.4242,0.0]]],
[[[122.0681,-0.4214,0.0],[122.0678,-0.422,0.0],[122.0682,-0.4222,0.0],[122.0688,-0.4213,2.6498],[122.0681,-0.4214,0.0]]],
[[[122.0688,-0.4254,7.7431],[122.0699,-0.4261,7.7431],[122.0698,-0.4232,2.6721],[122.0693,-0.4235,2.6721],[122.0688,-0.4254,7.7431]]],
[[[122.0788,-0.4237,36.2068],[122.0785,-0.4246,4.8434],[122.0789,-0.4251,35.5403],[122.079,-0.4237,36.2068],[122.0788,-0.4237,36.2068]]],
[[[122.1176,-0.4235,0.0],[122.118,-0.4252,5.1448],[122.1187,-0.4255,5.1448],[122.1185,-0.4221,0.0],[122.1176,-0.4235,0.0]]],
[[[122.1052,-0.4248,3.4197],[122.1059,-0.4238,0.0],[122.1045,-0.4232,0.0],[122.1037,-0.4243,0.0],[122.1052,-0.4248,3.4197]]],
[[[122.0686,-0.4235,2.6721],[122.0687,-0.4223,2.6498],[122.0671,-0.4223,0.0],[122.0662,-0.4255,0.0],[122.0676,-0.4256,8.9773],[122.0686,-0.4235,2.6721]]],
[[[122.0788,-0.4183,5.1805],[122.0785,-0.4161,0.8974],[122.0767,-0.4165,0.8435],[122.0777,-0.4177,0.8435],[122.0749,-0.4176,0.0],[122.0748,-0.4198,9.2683],[122.0705,-0.4188,0.0],[122.0689,-0.4219,2.6498],[122.0717,-0.4214,0.0],[122.0714,-0.4198,7.8979],[122.0738,-0.422,14.354],[122.0745,-0.4243,9.7979],[122.077,-0.4253,4.8434],[122.0775,-0.4231,9.335],[122.0797,-0.4226,8.3489],[122.0783,-0.421,7.7129],[122.0788,-0.4183,5.1805]]],
[[[122.1029,-0.4447,0.0],[122.1031,-0.4448,0.0],[122.1039,-0.4447,0.0],[122.1036,-0.4444,0.0],[122.1029,-0.4447,0.0]]],
[[[122.1027,-0.4441,9.3482],[122.103,-0.443,9.3482],[122.1004,-0.4436,2.2541],[122.1007,-0.4441,2.2541],[122.1027,-0.4441,9.3482]]],
[[[122.1012,-0.4419,0.0],[122.1008,-0.4418,0.0],[122.1007,-0.4424,0.0],[122.1014,-0.4425,0.0],[122.1012,-0.4419,0.0]]],
[[[122.1022,-0.4409,4.9565],[122.1019,-0.4411,4.9565],[122.1023,-0.4414,0.0],[122.1023,-0.441,4.9565],[122.1022,-0.4409,4.9565]]],
[[[122.0716,-0.4418,2.7187],[122.0722,-0.4428,2.7187],[122.0732,-0.443,0.0],[122.073,-0.4413,0.0],[122.0716,-0.4418,2.7187]]],
[[[122.0676,-0.4354,0.0],[122.0673,-0.4356,0.0],[122.0684,-0.4358,0.0],[122.068,-0.4348,0.0],[122.0676,-0.4354,0.0]]],
[[[122.1104,-0.432,0.0],[122.1097,-0.4313,0.0],[122.1095,-0.4315,0.0],[122.1095,-0.4319,0.0],[122.1104,-0.432,0.0]]],
[[[122.0742,-0.4311,8.7266],[122.0742,-0.432,0.0],[122.0748,-0.432,0.0],[122.0751,-0.4315,0.0],[122.0742,-0.4311,8.7266]]],
[[[122.0769,-0.4318,0.0],[122.0765,-0.4308,0.0],[122.0761,-0.4303,0.0],[122.0759,-0.4318,0.0],[122.0769,-0.4318,0.0]]],
[[[122.1012,-0.4316,0.0],[122.1017,-0.4313,0.0],[122.1008,-0.4311,29.8055],[122.101,-0.4317,0.0],[122.1012,-0.4316,0.0]]],
[[[122.1133,-0.4358,14.052],[122.1131,-0.435,14.052],[122.1101,-0.4322,0.0],[122.1112,-0.4369,5.024],[122.1133,-0.4358,14.052]]],
[[[122.0796,-0.432,0.0],[122.0794,-0.4327,0.0],[122.0798,-0.4327,0.0],[122.08,-0.4323,0.0],[122.0796,-0.432,0.0]]],
[[[122.0862,-0.4315,0.0],[122.0838,-0.4313,0.0],[122.0835,-0.4314,0.0],[122.0857,-0.4322,0.0],[122.0862,-0.4315,0.0]]],
[[[122.1037,-0.4364,5.9843],[122.1043,-0.4365,5.9843],[122.1047,-0.4365,5.9843],[122.1039,-0.4355,0.0],[122.1037,-0.4364,5.9843]]],
[[[122.0728,-0.4343,0.0],[122.0725,-0.4349,0.0],[122.0729,-0.4352,3.6706],[122.0732,-0.4349,3.6706],[122.0728,-0.4343,0.0]]],
[[[122.0834,-0.4359,0.0],[122.0839,-0.4361,0.0],[122.0838,-0.4355,0.0],[122.0832,-0.4358,0.0],[122.0834,-0.4359,0.0]]],
[[[122.10075730593609,-0.43455479452056,0.0],[122.1008,-0.4346,10.7973],[122.103,-0.4357,10.3802],[122.10075730593609,-0.43455479452056,0.0]]],
[[[122.078,-0.4348,0.0],[122.0777,-0.4353,0.0],[122.0778,-0.436,0.0],[122.0784,-0.4356,0.0],[122.078,-0.4348,0.0]]],
[[[122.0998,-0.4373,0.0],[122.0996,-0.4369,0.0],[122.0987,-0.437,0.0],[122.0992,-0.4375,0.0],[122.0998,-0.4373,0.0]]],
[[[122.0827,-0.4372,0.0],[122.0827,-0.4369,0.0],[122.0823,-0.437,0.0],[122.0825,-0.4373,0.0],[122.0827,-0.4372,0.0]]],
[[[122.0755,-0.4367,0.0],[122.0749,-0.4371,0.0],[122.0763,-0.437,0.0],[122.0761,-0.4365,0.0],[122.0755,-0.4367,0.0]]],
[[[122.0713,-0.4295,0.0],[122.0711,-0.4267,0.0],[122.0691,-0.4271,2.4904],[122.0715,-0.4354,0.0],[122.0714,-0.4326,12.0881],[122.0733,-0.4325,0.0],[122.0713,-0.4295,0.0]]],
[[[122.074,-0.4349,3.6706],[122.0752,-0.4351,0.0],[122.0737,-0.4334,0.0],[122.0736,-0.4336,0.0],[122.074,-0.4349,3.6706]]],
[[[122.0831,-0.4339,0.0],[122.083,-0.4342,0.0],[122.0833,-0.4343,0.0],[122.0834,-0.434,0.0],[122.0831,-0.4339,0.0]]],
[[[122.0763,-0.4335,0.0],[122.076,-0.4341,0.0],[122.0767,-0.4343,0.0],[122.0767,-0.4337,0.0],[122.0763,-0.4335,0.0]]],
[[[122.0813,-0.4341,0.0],[122.0804,-0.4329,0.0],[122.0801,-0.4331,0.0],[122.0808,-0.4346,0.0],[122.0813,-0.4341,0.0]]],
[[[122.10075730593609,-0.43455479452056,0.0],[122.0991,-0.4328,0.0],[122.0983,-0.4333,0.0],[122.10075730593609,-0.43455479452056,0.0]]],
[[[122.1026,-0.4397,4.9565],[122.1006,-0.4395,0.0],[122.1052,-0.4424,7.0305],[122.105,-0.4414,7.0305],[122.1026,-0.4397,4.9565]]],
[[[122.0705,-0.4403,3.8433],[122.07,-0.4405,0.0],[122.0708,-0.4414,2.7187],[122.071,-0.4409,3.8433],[122.0705,-0.4403,3.8433]]],
[[[122.069,-0.4397,0.0],[122.0688,-0.4392,0.0],[122.0681,-0.4391,0.0],[122.0684,-0.4399,0.0],[122.069,-0.4397,0.0]]],
[[[122.0989,-0.4386,0.0],[122.0993,-0.4391,0.0],[122.0997,-0.4392,0.0],[122.0995,-0.4383,0.0],[122.0989,-0.4386,0.0]]],
[[[122.0714,-0.4383,0.0],[122.0707,-0.4388,0.0],[122.0708,-0.4395,0.0],[122.0714,-0.4392,0.0],[122.0714,-0.4383,0.0]]],
[[[122.0969,-0.4393,1.8031],[122.0972,-0.439,1.8031],[122.0962,-0.4382,1.8031],[122.0963,-0.4386,1.8031],[122.0969,-0.4393,1.8031]]],
[[[122.0821,-0.4416,5.4763],[122.0847,-0.4421,21.8031],[122.0845,-0.4401,0.0],[122.0838,-0.44,0.0],[122.0821,-0.4416,5.4763]]],
[[[122.0979,-0.4409,0.0],[122.0985,-0.4416,0.0],[122.0989,-0.4414,0.0],[122.0986,-0.4402,0.0],[122.0979,-0.4409,0.0]]],
[[[122.0969,-0.441,0.0],[122.0971,-0.4403,0.0],[122.0959,-0.4406,0.0],[122.0961,-0.4414,9.1452],[122.0969,-0.441,0.0]]],
[[[122.0719,-0.4391,0.0],[122.0712,-0.4403,3.8433],[122.0714,-0.4408,3.8433],[122.0728,-0.4389,0.0],[122.0719,-0.4391,0.0]]],
[[[122.0823,-0.4401,3.382],[122.0825,-0.4397,3.382],[122.0811,-0.439,0.0],[122.0814,-0.4406,3.382],[122.0823,-0.4401,3.382]]],
[[[122.0682,-0.4378,0.0],[122.0677,-0.438,0.0],[122.0684,-0.4389,0.0],[122.0687,-0.4382,0.0],[122.0682,-0.4378,0.0]]],
[[[122.0959,-0.4387,1.8031],[122.0949,-0.4372,0.0],[122.0932,-0.4378,0.0],[122.0956,-0.4396,0.0],[122.0959,-0.4387,1.8031]]],
[[[122.0852,-0.4388,0.0],[122.085,-0.437,0.0],[122.083,-0.4372,0.0],[122.0839,-0.4389,13.2661],[122.0852,-0.4388,0.0]]],
[[[122.0732,-0.4404,0.0],[122.0745,-0.4399,0.0],[122.0726,-0.4368,0.0],[122.0733,-0.4389,0.0],[122.0732,-0.4404,0.0]]],
[[[122.0793,-0.43,0.0],[122.0771,-0.4286,0.0],[122.0781,-0.4321,0.0],[122.0788,-0.4305,0.0],[122.0798,-0.4317,0.0],[122.0793,-0.43,0.0]]],
[[[122.0696,-0.4298,0.0],[122.0691,-0.4299,0.0],[122.0694,-0.4306,0.0],[122.0698,-0.4301,0.0],[122.0696,-0.4298,0.0]]],
[[[122.0829,-0.4292,0.0],[122.0836,-0.4299,1.5191],[122.0837,-0.4285,0.0],[122.0832,-0.4291,0.0],[122.0829,-0.4292,0.0]]],
[[[122.1105,-0.4283,0.0],[122.1089,-0.4267,0.0],[122.1091,-0.4278,0.0],[122.1122,-0.4313,0.0],[122.1121,-0.4303,0.0],[122.1105,-0.4283,0.0]]],
[[[122.0755,-0.4293,13.3552],[122.0758,-0.427,5.8689],[122.0748,-0.4265,5.8689],[122.0744,-0.4283,18.1924],[122.0755,-0.4293,13.3552]]],
[[[122.0689,-0.4273,2.4904],[122.0683,-0.4277,0.0],[122.0684,-0.4281,0.0],[122.0688,-0.428,4.5492],[122.0689,-0.4273,2.4904]]],
[[[122.0736,-0.4241,9.7979],[122.0733,-0.4225,14.354],[122.0714,-0.4222,0.0],[122.0726,-0.4295,18.1924],[122.0745,-0.4308,8.7266],[122.0729,-0.4237,9.7979],[122.0736,-0.4241,9.7979]]],
[[[122.0799,-0.3922,1.4532],[122.0839,-0.3922,16.9717],[122.0849,-0.3949,33.9148],[122.0813,-0.3997,6.4614],[122.0768,-0.4009,0.0],[122.0729,-0.3982,0.0],[122.0683,-0.3998,0.4363],[122.0672,-0.4051,5.401],[122.0636,-0.4085,0.9469],[122.0684,-0.4135,0.3722],[122.071,-0.4129,20.0958],[122.0735,-0.4156,3.0277],[122.0789,-0.4142,16.9885],[122.08,-0.4218,8.3489],[122.08,-0.4279,11.1381],[122.081,-0.4287,0.0],[122.0813,-0.4268,7.4163],[122.0824,-0.4274,7.4163],[122.0832,-0.4244,18.4681],[122.0834,-0.4276,7.5399],[122.0851,-0.4249,42.1833],[122.0852,-0.4297,3.5952],[122.0899,-0.43,30.7966],[122.0906,-0.4324,12.0356],[122.0891,-0.4306,30.7966],[122.0875,-0.4321,28.0693],[122.0889,-0.4328,28.0693],[122.0867,-0.4332,0.0],[122.0896,-0.4374,46.9232],[122.0877,-0.44,15.5104],[122.0962,-0.4465,1.9525],[122.0986,-0.446,0.0],[122.0983,-0.4437,0.0],[122.0958,-0.4424,9.1452],[122.0955,-0.4404,0.0],[122.0926,-0.4425,24.4432],[122.0931,-0.4396,35.2871],[122.0897,-0.4336,32.4718],[122.0931,-0.4362,13.9205],[122.0956,-0.4353,15.7173],[122.0972,-0.4372,0.0],[122.0964,-0.433,14.1433],[122.0937,-0.4314,10.3113],[122.0934,-0.4272,12.0287],[122.1084,-0.434,0.0],[122.1058,-0.4326,0.0],[122.1036,-0.4281,18.3115],[122.1077,-0.43,0.0],[122.1063,-0.4278,0.0],[122.1038,-0.4274,0.0],[122.1019,-0.4249,1.1471],[122.1022,-0.4227,12.04],[122.1043,-0.4216,10.5173],[122.1034,-0.4179,0.0],[122.0995,-0.4201,4.5361],[122.0926,-0.4152,11.7316],[122.0935,-0.4144,0.0],[122.0911,-0.4109,1.0893],[122.0947,-0.4076,0.4544],[122.0936,-0.4056,1.3392],[122.0945,-0.3992,7.3812],[122.0974,-0.3985,11.6508],[122.1039,-0.4015,4.3968],[122.1079,-0.4043,7.5852],[122.1111,-0.4094,3.2361],[122.1187,-0.4107,17.3986],[122.118,-0.4174,5.1677],[122.1199,-0.4171,20.1855],[122.1216,-0.4205,0.0],[122.1256,-0.423,0.0],[122.1267,-0.4216,13.3979],[122.1297,-0.4239,5.6286],[122.1289,-0.4166,7.8188],[122.1306,-0.4141,16.937],[122.1321,-0.4152,2.3961],[122.1324,-0.4118,49.8987],[122.135,-0.4158,20.0928],[122.1335,-0.4181,1.02],[122.1364,-0.4202,1.0433],[122.137,-0.4169,4.2171],[122.1387,-0.4159,0.0],[122.1364,-0.4115,0.0],[122.1382,-0.4104,12.7631],[122.1426,-0.4167,34.1541],[122.146,-0.4187,1.9793],[122.1411,-0.4057,11.87],[122.1458,-0.4069,3.2771],[122.148,-0.4038,1.1853],[122.1464,-0.4027,0.0],[122.1482,-0.4004,4.1333],[122.1507,-0.4024,3.903],[122.1504,-0.4006,1.1979],[122.154,-0.3972,0.0],[122.154,-0.3927,0.0],[122.151,-0.3945,3.0579],[122.1493,-0.3914,3.4108],[122.1534,-0.39,0.0],[122.1499,-0.3855,0.0],[122.15,-0.3825,0.0],[122.1467,-0.3849,19.0951],[122.1495,-0.3798,0.0],[122.1492,-0.373,0.0],[122.1459,-0.3711,0.0],[122.1434,-0.3742,2.0749],[122.1399,-0.3755,6.9658],[122.1393,-0.3745,6.9424],[122.1423,-0.3711,0.0],[122.1403,-0.3705,3.0648],[122.1407,-0.3687,0.4485],[122.1439,-0.3664,0.872],[122.1438,-0.3638,10.1707],[122.1458,-0.3617,1.0295],[122.1414,-0.3578,23.2129],[122.1465,-0.3566,21.7588],[122.1428,-0.3532,0.0],[122.1446,-0.3512,0.0],[122.1436,-0.3459,0.0],[122.1409,-0.3436,0.0],[122.1416,-0.3391,0.0],[122.1346,-0.3398,1.0844],[122.1347,-0.3415,3.0336],[122.1382,-0.3421,1.6224],[122.1383,-0.346,0.0],[122.1338,-0.3453,1.2554],[122.1356,-0.3461,1.6713],[122.1345,-0.3509,30.3126],[122.1398,-0.3565,7.5423],[122.1368,-0.3555,0.0],[122.1316,-0.3476,0.0],[122.1294,-0.3473,0.0],[122.1282,-0.3503,5.5584],[122.1212,-0.3385,2.6228],[122.1191,-0.3378,0.0],[122.1186,-0.3406,1.4849],[122.1202,-0.3424,11.8297],[122.1164,-0.3416,0.6073],[122.1154,-0.3438,0.5183],[122.1131,-0.3418,3.899],[122.1135,-0.3392,0.0],[122.1109,-0.339,1.6042],[122.1117,-0.3373,0.0],[122.1107,-0.3365,1.3519],[122.1136,-0.3359,14.2273],[122.1131,-0.3319,5.9084],[122.116,-0.3334,0.0],[122.1173,-0.3314,0.0],[122.1152,-0.3308,0.0],[122.1159,-0.3271,0.0],[122.1137,-0.3285,0.0],[122.1124,-0.3269,0.0],[122.1098,-0.3293,1.6123],[122.11,-0.3263,0.0],[122.1059,-0.3271,0.0],[122.1053,-0.3258,11.8509],[122.1111,-0.3241,1.6403],[122.1145,-0.3208,0.0],[122.1115,-0.3227,0.0],[122.1079,-0.3222,0.0],[122.112,-0.3169,0.0],[122.1098,-0.313,0.0],[122.1107,-0.3099,0.0],[122.1067,-0.3108,0.0],[122.1078,-0.3034,0.0],[122.1043,-0.3053,2.0066],[122.1024,-0.304,11.0276],[122.1043,-0.3008,4.8885],[122.1019,-0.2972,7.1381],[122.1023,-0.2902,4.946],[122.0983,-0.2911,0.0],[122.0981,-0.2872,9.1058],[122.1003,-0.2854,0.0],[122.0951,-0.2838,32.1332],[122.0957,-0.2738,0.0],[122.0924,-0.275,13.2689],[122.092,-0.2709,0.0],[122.0857,-0.2753,0.0],[122.0864,-0.2766,0.0],[122.081,-0.2936,0.0],[122.0871,-0.2912,46.8879],[122.0849,-0.2934,0.0],[122.0857,-0.2984,0.0],[122.0839,-0.3008,0.0],[122.08,-0.3016,7.2959],[122.0806,-0.3065,5.2703],[122.0789,-0.307,5.2703],[122.077,-0.3046,13.8132],[122.0756,-0.3089,24.5228],[122.0745,-0.3068,42.4492],[122.0734,-0.3029,0.0],[122.0698,-0.3032,0.0],[122.0735,-0.3178,46.3614],[122.0769,-0.321,11.3797],[122.0765,-0.3224,3.3413],[122.0727,-0.3213,15.9587],[122.0719,-0.3231,19.6761],[122.0747,-0.3253,8.5353],[122.0676,-0.3284,0.0],[122.0758,-0.3445,3.1143],[122.0712,-0.3445,0.0],[122.0675,-0.3485,6.3694],[122.0635,-0.3479,0.0],[122.0638,-0.3501,17.5621],[122.0614,-0.3529,0.0],[122.0622,-0.3591,0.0],[122.0642,-0.3589,3.6744],[122.0621,-0.3611,0.0],[122.062,-0.3664,0.0],[122.0633,-0.3678,2.9316],[122.0672,-0.3673,0.0],[122.067,-0.3657,3.2605],[122.0691,-0.3658,1.3614],[122.0684,-0.3647,3.2605],[122.0702,-0.3667,1.8498],[122.0692,-0.3684,0.9464],[122.0702,-0.3687,0.9464],[122.0661,-0.3696,0.2634],[122.0663,-0.3715,1.2749],[122.0645,-0.3726,1.2749],[122.0667,-0.3781,12.8659],[122.0643,-0.3807,3.2554],[122.0693,-0.3868,8.0477],[122.0672,-0.391,0.7472],[122.0704,-0.3934,0.0],[122.0799,-0.3922,1.4532]]]]}}