{"type":"Feature","properties":{"GID_3":"IDN.31.7.10_1","GID_0":"IDN","country":"Indonesia","GID_1":"IDN.31_1","province":"SumateraSelatan","NL_NAME_1":"NA","GID_2":"IDN.31.7_1","county":"MusiRawas","NL_NAME_2":"NA","city":"Purwodadi","VARNAME_3":"NA","NL_NAME_3":"NA","TYPE_3":"Kecamatan","ENGTYPE_3":"Sub-district","CC_3":"1605041","HASC_3":"NA","name":"Purwodadi.city"},
"geometry":{"type": "MultiPolygon","coordinates": [[[[102.9692,-3.1473,53.2661],[102.9717,-3.1477,55.612],[102.9747,-3.1424,63.5631],[102.977,-3.1288,52.9881],[102.9909,-3.1239,52.5584],[102.9929,-3.1342,66.2023],[103.0081,-3.1287,50.0649],[103.0102,-3.125,53.0312],[103.0097,-3.1193,48.3558],[103.012,-3.1184,50.7986],[103.0148,-3.1139,51.0727],[103.0166,-3.1138,55.9676],[103.0165,-3.1115,55.6319],[103.0139,-3.1102,49.1544],[103.0268,-3.0936,49.0415],[103.0243,-3.088,49.0222],[103.0304,-3.0755,51.9294],[103.0345,-3.072,49.7579],[103.0364,-3.0537,45.3241],[103.0336,-3.055,44.9426],[103.0328,-3.0573,46.4148],[103.0253,-3.0586,46.5863],[103.0258,-3.0566,49.0116],[103.0182,-3.057,41.9058],[103.0187,-3.0601,43.4432],[103.0158,-3.0608,42.6892],[103.0155,-3.0655,45.6929],[103.0136,-3.0652,51.5602],[103.0102,-3.0691,44.1422],[103.0088,-3.068,41.9732],[103.0087,-3.0734,49.5695],[103.0047,-3.0755,47.555],[103.0039,-3.0814,51.4392],[102.9967,-3.0842,48.7245],[102.9944,-3.0832,45.0917],[102.9932,-3.0848,43.3736],[102.9925,-3.0829,42.6838],[102.9865,-3.0844,43.8048],[102.9848,-3.0826,48.797],[102.9809,-3.0857,43.5606],[102.9808,-3.0887,44.4985],[102.979,-3.09,44.49],[102.9753,-3.082,43.7089],[102.9733,-3.0826,42.2427],[102.9697,-3.0853,48.4894],[102.9669,-3.0852,48.8015],[102.9638,-3.0929,47.3785],[102.9662,-3.0971,50.2372],[102.9653,-3.0998,52.2146],[102.9604,-3.0978,49.3848],[102.9501,-3.0979,63.9387],[102.9481,-3.1043,49.323],[102.9559,-3.1088,58.4756],[102.9552,-3.1116,57.2431],[102.9529,-3.1118,55.64],[102.9529,-3.1149,48.6979],[102.9484,-3.1185,51.2003],[102.9499,-3.1198,53.0168],[102.9478,-3.1195,52.0517],[102.9429,-3.1224,65.0491],[102.9411,-3.1273,52.335],[102.9396,-3.1277,77.1088],[102.9474,-3.1371,56.2825],[102.9466,-3.1392,55.0819],[102.9419,-3.141,53.3633],[102.9422,-3.1427,54.0826],[102.9465,-3.1434,52.474],[102.9465,-3.1421,52.1012],[102.9505,-3.1413,52.6228],[102.955,-3.143,54.7803],[102.9582,-3.1471,57.2066],[102.9692,-3.1473,53.2661]]]]}}