{"type":"Feature","properties":{"GID_3":"IDN.10.32.18_1","GID_0":"IDN","country":"Indonesia","GID_1":"IDN.10_1","province":"JawaTengah","NL_NAME_1":"NA","GID_2":"IDN.10.32_1","county":"Tegal","NL_NAME_2":"NA","city":"Warureja","VARNAME_3":"NA","NL_NAME_3":"NA","TYPE_3":"Kecamatan","ENGTYPE_3":"Sub-district","CC_3":"3328180","HASC_3":"NA","name":"Warureja.city"},
"geometry":{"type": "MultiPolygon","coordinates": [[[[109.3234,-6.9627,16.208],[109.3293,-6.9605,18.4035],[109.3297,-6.9634,16.9113],[109.3313,-6.9637,16.9454],[109.3317,-6.9582,14.1803],[109.3359,-6.9562,14.7697],[109.3325,-6.9547,15.0055],[109.3316,-6.9573,13.1044],[109.3292,-6.9546,15.8455],[109.3316,-6.95,19.0326],[109.3315,-6.946,15.2268],[109.3345,-6.9457,12.7209],[109.333,-6.9441,17.2518],[109.3336,-6.9419,14.18],[109.3313,-6.9397,15.0581],[109.3331,-6.9392,14.4326],[109.3332,-6.9356,15.8016],[109.3309,-6.9344,14.3417],[109.3304,-6.9363,13.4522],[109.3266,-6.9347,15.3609],[109.3305,-6.9296,12.8884],[109.3282,-6.9289,14.5688],[109.3284,-6.927,13.0857],[109.3261,-6.9285,15.9292],[109.3254,-6.9249,13.9926],[109.3292,-6.9227,13.6799],[109.3287,-6.9212,15.5273],[109.3318,-6.9193,10.8854],[109.3321,-6.9166,12.452],[109.3336,-6.9171,12.3174],[109.3321,-6.9148,12.6686],[109.3349,-6.9134,14.0878],[109.3364,-6.9099,11.7822],[109.3365,-6.9046,12.4759],[109.3378,-6.9037,8.3393],[109.3405,-6.9054,8.0461],[109.3409,-6.9033,7.0187],[109.3391,-6.9029,8.5737],[109.3424,-6.9001,7.0221],[109.3413,-6.8988,8.4297],[109.3488,-6.8971,8.3113],[109.3456,-6.8951,10.5353],[109.3466,-6.8937,7.5039],[109.3512,-6.8954,7.1157],[109.35,-6.8927,6.1431],[109.3522,-6.8901,6.4438],[109.356,-6.8894,4.1309],[109.3539,-6.8869,4.6037],[109.357,-6.883,3.401],[109.3597,-6.8822,3.0399],[109.3585,-6.8799,3.3417],[109.3603,-6.8776,3.3151],[109.3594,-6.8713,3.6458],[109.3543,-6.8722,2.8813],[109.3543,-6.8704,1.2309],[109.357,-6.868,2.3712],[109.3559,-6.8669,2.3767],[109.3528,-6.869,1.4097],[109.3512,-6.8683,3.1566],[109.3503,-6.8626,2.203],[109.3398,-6.8625,0.0],[109.3216,-6.869,0.3132],[109.3033,-6.8726,1.2493],[109.2901,-6.8734,1.4815],[109.2912,-6.8775,3.3919],[109.2947,-6.8783,2.209],[109.2968,-6.8821,2.2103],[109.2954,-6.8863,3.865],[109.2922,-6.8856,3.2878],[109.2928,-6.8889,4.2493],[109.2909,-6.8892,4.2184],[109.2914,-6.891,4.2449],[109.2895,-6.8922,4.8507],[109.2907,-6.8928,5.6327],[109.2915,-6.9032,7.882],[109.2944,-6.9051,8.8239],[109.293,-6.9082,9.4164],[109.2951,-6.9106,10.585],[109.2938,-6.912,11.0501],[109.2953,-6.9168,12.4073],[109.2939,-6.9187,11.9356],[109.2941,-6.9247,13.8428],[109.2879,-6.9294,17.4986],[109.2852,-6.9347,21.0432],[109.2835,-6.9344,22.2285],[109.2817,-6.9368,23.4083],[109.2819,-6.9418,26.8574],[109.2785,-6.9434,29.5384],[109.2796,-6.9438,28.8004],[109.2792,-6.9468,30.6358],[109.2879,-6.9532,42.2009],[109.2932,-6.9537,38.1632],[109.2988,-6.9572,35.1964],[109.2993,-6.9632,59.3223],[109.2951,-6.9737,62.8018],[109.3015,-6.988,39.3988],[109.3104,-6.9888,27.1072],[109.3144,-6.9855,27.0812],[109.3158,-6.9798,24.8077],[109.3194,-6.9766,28.7735],[109.3167,-6.9741,21.0804],[109.3165,-6.9676,23.4072],[109.3213,-6.9702,19.5353],[109.3221,-6.9685,17.5464],[109.32,-6.9672,16.931],[109.3215,-6.9656,19.1773],[109.3245,-6.9684,18.5031],[109.3255,-6.9656,16.1403],[109.3225,-6.9637,18.1682],[109.3234,-6.9627,16.208]]]]}}