{"type":"Feature","properties":{"GID_3":"IDN.9.21.11_1","GID_0":"IDN","country":"Indonesia","GID_1":"IDN.9_1","province":"JawaBarat","NL_NAME_1":"NA","GID_2":"IDN.9.21_1","county":"Majalengka","NL_NAME_2":"NA","city":"Kasokandel","VARNAME_3":"NA","NL_NAME_3":"NA","TYPE_3":"Kecamatan","ENGTYPE_3":"Sub-district","CC_3":"3210151","HASC_3":"NA","name":"Kasokandel.city"},
"geometry":{"type": "MultiPolygon","coordinates": [[[[108.2274,-6.8029,76.1996],[108.2271,-6.8009,73.9044],[108.2249,-6.8028,79.5998],[108.2229,-6.7972,69.3514],[108.2193,-6.7956,76.1187],[108.2199,-6.7928,68.0498],[108.216,-6.7903,87.5968],[108.22,-6.7857,52.7967],[108.222,-6.7873,52.1095],[108.2303,-6.7856,59.7904],[108.2337,-6.7888,60.418],[108.2396,-6.7888,100.8016],[108.2492,-6.7919,99.5083],[108.2545,-6.7882,95.8349],[108.2571,-6.7836,82.9651],[108.2657,-6.7828,74.5298],[108.2632,-6.7757,67.26],[108.2597,-6.7712,63.1773],[108.2609,-6.77,63.1773],[108.259,-6.7675,59.3753],[108.2593,-6.7618,55.6669],[108.2561,-6.7586,55.3971],[108.2511,-6.759,52.5539],[108.25,-6.7555,49.7456],[108.2448,-6.7499,44.4193],[108.2337,-6.7484,38.0696],[108.231,-6.7405,37.846],[108.2288,-6.7396,38.9919],[108.2203,-6.7418,45.188],[108.2159,-6.746,34.6556],[108.2097,-6.749,36.5672],[108.2067,-6.7541,38.2404],[108.1991,-6.7579,36.5389],[108.195,-6.7575,39.8366],[108.1964,-6.76,41.7786],[108.1955,-6.7631,51.5065],[108.1976,-6.7636,50.5306],[108.1973,-6.767,45.2523],[108.1992,-6.7684,45.1045],[108.1978,-6.7726,41.6905],[108.2001,-6.7724,49.3612],[108.2016,-6.7755,48.1453],[108.2006,-6.7824,48.3413],[108.2026,-6.7858,51.1566],[108.1924,-6.7888,56.6701],[108.193,-6.7932,54.8641],[108.1968,-6.7946,55.8238],[108.1973,-6.8006,59.4348],[108.2019,-6.8057,81.4894],[108.2059,-6.8033,67.5354],[108.211,-6.8042,75.8289],[108.2167,-6.807,102.6177],[108.2168,-6.8086,106.1206],[108.2198,-6.808,94.0804],[108.2238,-6.8119,96.2041],[108.2256,-6.8118,96.6328],[108.2298,-6.8173,104.7702],[108.229,-6.8078,85.6013],[108.2302,-6.8058,81.6205],[108.2274,-6.8029,76.1996]]]]}}