{"type":"Feature","properties":{"GID_3":"IDN.10.18.4_1","GID_0":"IDN","country":"Indonesia","GID_1":"IDN.10_1","province":"JawaTengah","NL_NAME_1":"NA","GID_2":"IDN.10.18_1","county":"KotaTegal","NL_NAME_2":"NA","city":"TegalTimur","VARNAME_3":"NA","NL_NAME_3":"NA","TYPE_3":"Kecamatan","ENGTYPE_3":"Sub-district","CC_3":"3376020","HASC_3":"NA","name":"Tegal_Timur.city"},
"geometry":{"type": "MultiPolygon","coordinates": [[[[109.1322,-6.8876,7.8115],[109.132,-6.888,8.7456],[109.1322,-6.8881,8.7456],[109.1322,-6.8878,7.8115],[109.1322,-6.8876,7.8115]]],
[[[109.1336,-6.8843,6.7424],[109.1322,-6.8876,7.8115],[109.1335,-6.8853,8.0069],[109.1359,-6.8867,9.6554],[109.1474,-6.8863,9.4829],[109.1479,-6.8815,6.3574],[109.1466,-6.8791,8.5417],[109.15,-6.8652,5.478],[109.1527,-6.8629,5.245],[109.1543,-6.8556,2.3033],[109.1614,-6.8462,2.1303],[109.1611,-6.8433,0.7822],[109.1518,-6.8474,0.0],[109.1368,-6.8467,0.6633],[109.1389,-6.8549,4.3701],[109.1375,-6.8598,6.8983],[109.1346,-6.8592,5.5944],[109.1334,-6.8662,5.9687],[109.1363,-6.8666,6.827],[109.136,-6.8812,8.1456],[109.1359,-6.8835,8.6716],[109.1336,-6.8843,6.7424]]]]}}