{"type":"Feature","properties":{"GID_3":"IDN.9.21.6_1","GID_0":"IDN","country":"Indonesia","GID_1":"IDN.9_1","province":"JawaBarat","NL_NAME_1":"NA","GID_2":"IDN.9.21_1","county":"Majalengka","NL_NAME_2":"NA","city":"Cingambul","VARNAME_3":"NA","NL_NAME_3":"NA","TYPE_3":"Kecamatan","ENGTYPE_3":"Sub-district","CC_3":"3210031","HASC_3":"NA","name":"Cingambul.city"},
"geometry":{"type": "MultiPolygon","coordinates": [[[[108.3843,-7.0723,428.2267],[108.3857,-7.0735,425.5673],[108.3857,-7.0703,432.6019],[108.3902,-7.0632,616.6676],[108.388,-7.0517,754.369],[108.3833,-7.0525,740.582],[108.3743,-7.0483,732.1827],[108.3712,-7.0399,588.3135],[108.3658,-7.0384,583.4158],[108.3636,-7.0342,580.7761],[108.3542,-7.0294,578.7122],[108.3539,-7.0269,578.4502],[108.3489,-7.021,577.4185],[108.3473,-7.024,577.6471],[108.3479,-7.0351,580.5961],[108.343,-7.0357,587.1949],[108.3422,-7.0221,578.7708],[108.3405,-7.0171,576.5661],[108.3318,-7.0113,574.0874],[108.3298,-7.0129,573.8033],[108.3213,-7.0091,574.1191],[108.3091,-7.0218,594.2068],[108.3017,-7.0265,679.3163],[108.2911,-7.0259,878.1337],[108.2878,-7.0336,843.1454],[108.289,-7.0389,953.9194],[108.2845,-7.0404,847.4161],[108.2853,-7.0436,860.6877],[108.2816,-7.0531,886.6141],[108.2823,-7.0581,972.2725],[108.2958,-7.0585,1142.6241],[108.3036,-7.0622,1129.4935],[108.3137,-7.0567,1167.3142],[108.3203,-7.0595,1256.6417],[108.3219,-7.0556,1090.817],[108.3266,-7.0643,1339.0237],[108.3407,-7.0713,1239.0931],[108.3434,-7.07,1115.624],[108.34,-7.0694,1130.8267],[108.3452,-7.0646,890.042],[108.3481,-7.0554,632.7726],[108.36,-7.0516,551.7695],[108.3633,-7.0523,558.9956],[108.3623,-7.0538,517.342],[108.3676,-7.0596,499.0917],[108.3705,-7.0593,490.9228],[108.3725,-7.0612,482.7907],[108.3742,-7.0595,556.9272],[108.3778,-7.0599,539.5092],[108.3787,-7.0645,477.3104],[108.3812,-7.0637,488.702],[108.3803,-7.0683,498.6178],[108.3824,-7.072,428.2267],[108.3843,-7.0723,428.2267]]]]}}