{"type":"Feature","properties":{"GID_3":"IDN.1.18.8_1","GID_0":"IDN","country":"Indonesia","GID_1":"IDN.1_1","province":"Aceh","NL_NAME_1":"NA","GID_2":"IDN.1.18_1","county":"NaganRaya","NL_NAME_2":"NA","city":"TaduRaya","VARNAME_3":"NA","NL_NAME_3":"NA","TYPE_3":"Kecamatan","ENGTYPE_3":"Sub-district","CC_3":"1115022","HASC_3":"NA","name":"Tadu_Raya.city"},
"geometry":{"type": "MultiPolygon","coordinates": [[[[96.3352,3.9235,0.0],[96.3861,3.9554,8.3485],[96.4134,3.9629,12.1554],[96.43,3.9824,11.8092],[96.448,3.999,14.4412],[96.4574,4.0142,14.6957],[96.4553,4.0443,16.7045],[96.4653,4.0866,64.6177],[96.4807,4.1106,66.2997],[96.4874,4.1174,85.9149],[96.5044,4.1294,80.2791],[96.5099,4.1317,118.8688],[96.5149,4.1495,89.1175],[96.5151,4.1577,129.6975],[96.5061,4.1704,103.9538],[96.5007,4.1709,84.6277],[96.495,4.1683,90.5623],[96.4833,4.1594,130.8989],[96.4597,4.1605,132.5332],[96.4505,4.1649,75.6498],[96.4044,4.1743,69.8119],[96.3924,4.1897,87.09],[96.3915,4.189,79.0933],[96.3797,4.1947,50.0542],[96.362,4.1982,61.6854],[96.3607,4.1966,56.1803],[96.3585,4.1992,55.5358],[96.356,4.1958,50.0787],[96.3602,4.1943,57.7768],[96.3602,4.1923,52.2308],[96.3571,4.1923,52.9975],[96.3543,4.1903,45.5143],[96.3567,4.1876,40.6174],[96.3555,4.1857,39.8983],[96.3517,4.1865,43.1974],[96.3468,4.1842,39.8552],[96.3454,4.1864,39.6353],[96.3436,4.1864,38.0363],[96.342,4.1825,35.5424],[96.3345,4.1866,32.7891],[96.3314,4.1834,31.1896],[96.3341,4.179,36.9283],[96.3305,4.1809,27.725],[96.3286,4.1802,27.8769],[96.3315,4.1787,26.2915],[96.3324,4.1756,25.7883],[96.3361,4.1746,28.6844],[96.3356,4.1724,28.3947],[96.3322,4.1737,28.0001],[96.3306,4.1725,28.0001],[96.3322,4.1699,24.3535],[96.3314,4.1627,27.0107],[96.3337,4.1585,31.2562],[96.3354,4.1477,18.6597],[96.3417,4.1517,15.3179],[96.3451,4.1508,21.6516],[96.3441,4.1488,19.4881],[96.3456,4.1424,16.8203],[96.3431,4.1434,18.7505],[96.3416,4.1405,20.2128],[96.3333,4.1405,23.1603],[96.3314,4.1347,16.3824],[96.3363,4.1356,21.778199999999998],[96.3377,4.1341,25.0215],[96.3348,4.1327,14.6405],[96.3348,4.1297,19.3629],[96.3372,4.1263,13.7256],[96.3333,4.1239,11.2627],[96.3323,4.1185,23.8705],[96.3284,4.118,14.1562],[96.3298,4.1121,12.0225],[96.3269,4.1131,19.4188],[96.3259,4.1116,13.3258],[96.3283,4.1102,9.939],[96.3259,4.1087,16.5485],[96.3239,4.1112,17.887],[96.322,4.1097,15.2649],[96.3239,4.1063,18.1435],[96.3215,4.1067,8.584],[96.322,4.1048,14.0018],[96.3155,4.0933,10.0697],[96.3186,4.0892,11.6024],[96.3173,4.0882,8.0314],[96.3204,4.0865,9.8431],[96.3176,4.0823,8.3904],[96.3195,4.0811,8.1843],[96.3179,4.0801,9.8113],[96.3207,4.076,7.9348],[96.345,4.0756,11.3848],[96.3365,4.0477,7.3344],[96.3266,4.0366,5.7862],[96.3227,4.0358,10.095],[96.303,4.0098,14.1371],[96.303,4.0068,11.2837],[96.3002,4.0043,11.0271],[96.3063,3.9906,5.2235],[96.296,3.9828,0.2782],[96.3352,3.9235,0.0]]]]}}