{"type":"Feature","properties":{"GID_3":"IDN.2.6.1_1","GID_0":"IDN","country":"Indonesia","GID_1":"IDN.2_1","province":"Bali","NL_NAME_1":"NA","GID_2":"IDN.2.6_1","county":"Jembrana","NL_NAME_2":"NA","city":"Jembrana","VARNAME_3":"NA","NL_NAME_3":"NA","TYPE_3":"Kecamatan","ENGTYPE_3":"Sub-district","CC_3":"5101021","HASC_3":"NA","name":"Jembrana.city"},
"geometry":{"type": "MultiPolygon","coordinates": [[[[114.6393,-8.4065,0.0],[114.6682,-8.4008,4.5556],[114.6689,-8.3896,14.8473],[114.6569,-8.3894,4.0505],[114.6573,-8.3878,4.1254],[114.6541,-8.3865,5.0267],[114.6569,-8.3822,12.8677],[114.6559,-8.3804,8.6628],[114.6605,-8.3693,8.176],[114.6656,-8.3374,73.7619],[114.6679,-8.3357,90.5074],[114.6705,-8.3367,72.526],[114.6702,-8.3293,152.0593],[114.6736,-8.3285,100.5638],[114.6732,-8.3261,138.864],[114.675,-8.3264,127.7334],[114.6747,-8.3221,171.3894],[114.6766,-8.3214,146.4602],[114.6738,-8.3138,201.1515],[114.6759,-8.299,429.1895],[114.6715,-8.2916,613.1819],[114.6776,-8.2794,693.5416],[114.6796,-8.2661,1058.6887],[114.6832,-8.2621,1188.8845],[114.6863,-8.254,1229.468],[114.6775,-8.2521,824.6035],[114.6883,-8.2447,1301.5833],[114.6843,-8.2317,1005.3592],[114.6785,-8.226,852.6692],[114.6721,-8.2229,782.6525],[114.6675,-8.2224,844.6892],[114.6525,-8.226,1308.0609],[114.6534,-8.2301,1188.1361],[114.6518,-8.2343,1024.1227],[114.6529,-8.237,880.632],[114.6545,-8.2369,826.631],[114.6479,-8.2419,1137.4404],[114.6484,-8.2501,1188.376],[114.6445,-8.255,1051.5635],[114.6449,-8.2586,882.195],[114.6422,-8.2608,804.1715],[114.6404,-8.2681,587.6968],[114.6413,-8.2794,681.7952],[114.638,-8.289,592.0671],[114.6269,-8.3023,185.2838],[114.6278,-8.3044,159.1161],[114.6257,-8.31,103.8174],[114.626,-8.3157,124.3167],[114.6217,-8.3217,88.4457],[114.6219,-8.3255,67.9446],[114.6262,-8.3309,66.8473],[114.6242,-8.3467,16.4711],[114.6257,-8.3515,15.2755],[114.6235,-8.3546,11.5386],[114.6242,-8.3647,7.4878],[114.623,-8.3677,9.1141],[114.6158,-8.376,10.5433],[114.6178,-8.3765,2.3879],[114.6166,-8.3796,2.467],[114.6203,-8.3795,1.8173],[114.6194,-8.3813,2.0623],[114.6238,-8.3861,2.4179],[114.6223,-8.3879,1.6278],[114.624,-8.389,2.2188],[114.6235,-8.3944,0.5],[114.6047,-8.4003,2.4766],[114.6056,-8.4036,0.0],[114.6228,-8.4076,3.2143],[114.6393,-8.4065,0.0]]]]}}