{"type":"Feature","properties":{"GID_3":"IDN.21.21.5_1","GID_0":"IDN","country":"Indonesia","GID_1":"IDN.21_1","province":"NusaTenggaraTimur","NL_NAME_1":"NA","GID_2":"IDN.21.21_1","county":"TimorTengahUtara","NL_NAME_2":"NA","city":"BibokiTanpah","VARNAME_3":"NA","NL_NAME_3":"NA","TYPE_3":"Kecamatan","ENGTYPE_3":"Sub-district","CC_3":"5305051","HASC_3":"NA","name":"Biboki_Tanpah.city"},
"geometry":{"type": "MultiPolygon","coordinates": [[[[124.8016,-9.3505,354.9266],[124.8043,-9.3471,351.8269],[124.8121,-9.3445,343.5362],[124.8153,-9.341,341.5994],[124.8129,-9.3378,342.5295],[124.8122,-9.3287,345.0209],[124.8109,-9.3298,343.3939],[124.8052,-9.3238,352.3433],[124.7991,-9.3231,353.9011],[124.7975,-9.3197,364.3761],[124.7941,-9.3206,359.3907],[124.7945,-9.3166,360.1903],[124.7679,-9.3172,487.9808],[124.7664,-9.3217,588.5709],[124.7579,-9.3321,615.5624],[124.7584,-9.3421,444.0262],[124.7532,-9.3446,491.4885],[124.7434,-9.346,548.1647],[124.736,-9.3447,591.4402],[124.7316,-9.3456,623.278],[124.7281,-9.3502,770.0374],[124.73,-9.3582,715.6798],[124.7375,-9.3707,681.9681],[124.7373,-9.375,574.3862],[124.7286,-9.3803,828.9688],[124.7219,-9.3817,863.9847],[124.7202,-9.3867,791.5375],[124.7202,-9.3953,904.6191],[124.7286,-9.3964,795.4247],[124.7365,-9.4015,658.1752],[124.7505,-9.394,514.3923],[124.7581,-9.3968,485.1928],[124.7652,-9.3942,479.089],[124.7681,-9.3973,473.5104],[124.775,-9.3982,515.4744],[124.789,-9.385,481.3908],[124.7944,-9.3829,474.0868],[124.8001,-9.3836,517.2146],[124.8034,-9.3798,498.7497],[124.8052,-9.3738,436.3439],[124.8089,-9.3689,413.3252],[124.8073,-9.3679,409.448],[124.8081,-9.366,406.4683],[124.8063,-9.3655,392.7929],[124.8061,-9.3619,408.1041],[124.8009,-9.3558,364.3696],[124.8016,-9.3505,354.9266]]]]}}