{"type":"Feature","properties":{"GID_3":"IDN.21.21.18_1","GID_0":"IDN","country":"Indonesia","GID_1":"IDN.21_1","province":"NusaTenggaraTimur","NL_NAME_1":"NA","GID_2":"IDN.21.21_1","county":"TimorTengahUtara","NL_NAME_2":"NA","city":"MiomaffoTengah","VARNAME_3":"NA","NL_NAME_3":"NA","TYPE_3":"Kecamatan","ENGTYPE_3":"Sub-district","CC_3":"5305011","HASC_3":"NA","name":"Miomaffo_Tengah.city"},
"geometry":{"type": "MultiPolygon","coordinates": [[[[124.4161,-9.5689,440.0283],[124.4183,-9.5687,430.0923],[124.4209,-9.5655,413.5057],[124.42529999999999,-9.5677,403.8172],[124.4306,-9.5648,390.8501],[124.435,-9.5654,389.2065],[124.4344,-9.5643,385.5893],[124.4368,-9.5624,380.3899],[124.4359,-9.5612,381.1515],[124.4374,-9.562,380.3821],[124.4372,-9.5598,379.2122],[124.4394,-9.5604,379.0299],[124.4428,-9.5564,368.8275],[124.4501,-9.5564,360.0061],[124.4574,-9.5495,392.7019],[124.4623,-9.5362,398.3524],[124.474,-9.5313,382.1336],[124.4725,-9.5262,381.4291],[124.4621,-9.5192,399.8138],[124.4619,-9.5125,421.2302],[124.4577,-9.5083,433.3367],[124.4574,-9.5008,436.3155],[124.4529,-9.5022,451.3201],[124.4522,-9.5002,442.8585],[124.4505,-9.5002,448.2842],[124.449,-9.4936,460.8972],[124.4412,-9.4926,494.3584],[124.4348,-9.4849,606.6042],[124.4331,-9.4847,606.6042],[124.4236,-9.493,505.5562],[124.4205,-9.5017,465.1501],[124.4182,-9.501,463.9346],[124.4175,-9.5026,459.7258],[124.4171,-9.5,463.9346],[124.412,-9.4951,492.9288],[124.4087,-9.4974,478.0235],[124.4052,-9.4936,494.3422],[124.3994,-9.4979,503.2053],[124.3988,-9.4969,503.2053],[124.3914,-9.505,711.9081],[124.3893,-9.5148,703.8741],[124.3873,-9.519,683.3463],[124.3838,-9.5209,678.4069],[124.3826,-9.525,669.7629],[124.387,-9.53,736.6958],[124.3893,-9.5375,632.5975],[124.3885,-9.544,572.9081],[124.3908,-9.5503,627.742],[124.3954,-9.5532,613.0045],[124.3954,-9.5571,627.317],[124.3985,-9.5605,569.0631],[124.4009,-9.5681,508.719],[124.4051,-9.5714,485.286],[124.4049,-9.5742,460.8795],[124.4072,-9.5753,449.3709],[124.4125,-9.567,461.6838],[124.4134,-9.5687,448.8476],[124.4161,-9.5689,440.0283]]]]}}