{"type":"Feature","properties":{"GID_3":"IDN.11.23.16_1","GID_0":"IDN","country":"Indonesia","GID_1":"IDN.11_1","province":"JawaTimur","NL_NAME_1":"NA","GID_2":"IDN.11.23_1","county":"Mojokerto","NL_NAME_2":"NA","city":"Sooko","VARNAME_3":"NA","NL_NAME_3":"NA","TYPE_3":"Kecamatan","ENGTYPE_3":"Sub-district","CC_3":"3516130","HASC_3":"NA","name":"Sooko.city"},
"geometry":{"type": "MultiPolygon","coordinates": [[[[112.4251,-7.5334,42.5487],[112.426,-7.5259,36.5337],[112.4274,-7.5259,36.5337],[112.4276,-7.5243,37.8515],[112.4251,-7.5233,35.3424],[112.4236,-7.5161,29.5539],[112.4282,-7.5121,30.7878],[112.4275,-7.5061,29.7611],[112.4297,-7.5048,27.7787],[112.4293,-7.4985,25.3308],[112.4335,-7.4984,26.1422],[112.4351,-7.4877,23.5177],[112.433,-7.4871,23.7829],[112.4329,-7.4849,24.0117],[112.4276,-7.4836,25.5555],[112.4282,-7.4806,25.8142],[112.4261,-7.4809,25.2355],[112.4248,-7.4835,26.4479],[112.4228,-7.4929,27.9924],[112.415,-7.494,29.7159],[112.4133,-7.4899,26.2129],[112.4076,-7.4894,24.1361],[112.4065,-7.4771,20.4126],[112.4099,-7.4774,20.7405],[112.4122,-7.4725,22.8496],[112.4117,-7.469,23.8471],[112.4175,-7.4657,23.4784],[112.4152,-7.4642,21.2988],[112.4154,-7.4573,20.4362],[112.402,-7.4594,22.1698],[112.4045,-7.4618,26.2318],[112.4027,-7.4627,24.7823],[112.4032,-7.4666,23.8559],[112.3997,-7.4648,22.6069],[112.3927,-7.4673,21.6907],[112.3905,-7.47,22.8635],[112.3901,-7.4788,20.933],[112.3879,-7.4822,21.2709],[112.3886,-7.4942,28.2712],[112.3908,-7.495,30.2558],[112.3915,-7.5017,31.091],[112.3966,-7.5043,30.969],[112.3925,-7.5171,35.2277],[112.3965,-7.5188,36.1921],[112.3971,-7.5221,33.23],[112.3994,-7.521,36.9812],[112.4013,-7.522,37.081],[112.4029,-7.5305,38.6862],[112.4115,-7.5327,41.2826],[112.4152,-7.5356,39.2489],[112.4162,-7.5406,44.6176],[112.4144,-7.5426,42.5412],[112.4169,-7.5413,41.3695],[112.4193,-7.5435,42.1633],[112.4174,-7.5479,42.3764],[112.419,-7.5521,46.9],[112.4257,-7.5523,49.0853],[112.4244,-7.542,45.9389],[112.4213,-7.5366,42.3039],[112.4247,-7.5363,43.8236],[112.4251,-7.5334,42.5487]]]]}}