{"type":"Feature","properties":{"GID_3":"IDN.31.7.15_1","GID_0":"IDN","country":"Indonesia","GID_1":"IDN.31_1","province":"SumateraSelatan","NL_NAME_1":"NA","GID_2":"IDN.31.7_1","county":"MusiRawas","NL_NAME_2":"NA","city":"SukaKarya","VARNAME_3":"NA","NL_NAME_3":"NA","TYPE_3":"Kecamatan","ENGTYPE_3":"Sub-district","CC_3":"1605061","HASC_3":"NA","name":"Suka_Karya.city"},
"geometry":{"type": "MultiPolygon","coordinates": [[[[103.172,-3.2746,70.6766],[103.174,-3.2737,68.877],[103.1794,-3.2761,70.1122],[103.1801,-3.2747,70.1122],[103.1844,-3.2782,69.0124],[103.1913,-3.2766,57.7932],[103.189,-3.2849,62.2257],[103.1936,-3.2839,66.8463],[103.1975,-3.2919,62.8019],[103.1922,-3.2983,68.5605],[103.2136,-3.2974,50.7556],[103.2138,-3.2935,50.2458],[103.2101,-3.2903,48.2826],[103.2101,-3.2885,49.1522],[103.214,-3.2828,51.9793],[103.2142,-3.28,60.0708],[103.2173,-3.2795,50.7926],[103.2143,-3.2721,56.2232],[103.217,-3.2708,48.7264],[103.2191,-3.266,54.4291],[103.2207,-3.2662,50.7289],[103.2234,-3.2627,42.7163],[103.2204,-3.2588,50.4108],[103.2202,-3.2561,45.3596],[103.2212,-3.2566,49.8884],[103.2214,-3.2537,46.9332],[103.2222,-3.2551,50.0494],[103.2265,-3.2528,45.7099],[103.2268,-3.2512,56.3574],[103.2285,-3.2521,49.7011],[103.2339,-3.2505,43.3139],[103.2355,-3.244,48.9203],[103.2325,-3.2453,45.93],[103.2311,-3.2437,50.1954],[103.2311,-3.2423,51.4262],[103.2354,-3.2417,50.8024],[103.2327,-3.2361,59.9474],[103.2341,-3.2344,62.0],[103.2374,-3.2361,51.0661],[103.2377,-3.2325,58.5772],[103.2412,-3.2323,44.4059],[103.2387,-3.2306,47.6406],[103.2404,-3.228,46.0656],[103.2384,-3.2279,46.5756],[103.2387,-3.2267,46.5756],[103.2445,-3.2259,47.8992],[103.2454,-3.2223,41.7267],[103.2435,-3.2211,50.4891],[103.2487,-3.2186,47.9395],[103.2445,-3.2185,49.6421],[103.2447,-3.2171,51.0165],[103.249,-3.2165,44.665],[103.2479,-3.2141,53.1126],[103.251,-3.2125,46.0649],[103.2486,-3.2094,45.0588],[103.2492,-3.2076,46.9806],[103.2545,-3.2082,44.7721],[103.2484,-3.1998,42.2822],[103.2463,-3.2002,44.9407],[103.2452,-3.1966,41.925],[103.2473,-3.1964,43.5364],[103.2449,-3.1946,45.4168],[103.2407,-3.1946,40.7206],[103.2415,-3.1915,47.6179],[103.2312,-3.1788,47.8683],[103.2327,-3.1744,44.9596],[103.2311,-3.1737,45.8958],[103.2308,-3.1704,43.1301],[103.2273,-3.1719,41.9204],[103.2245,-3.1645,47.192],[103.2225,-3.1657,41.9616],[103.2201,-3.1747,53.1965],[103.2151,-3.1757,46.6544],[103.2117,-3.174,47.4467],[103.2104,-3.1709,49.0296],[103.2091,-3.1715,45.951],[103.2051,-3.1734,45.6349],[103.2063,-3.1774,42.6711],[103.1983,-3.1771,45.7905],[103.1979,-3.1808,48.1825],[103.1941,-3.1794,53.0867],[103.1948,-3.1822,49.1552],[103.1934,-3.1848,45.0588],[103.1867,-3.1847,44.7017],[103.182,-3.188,51.0182],[103.1753,-3.1875,53.1959],[103.1725,-3.1923,58.4775],[103.1604,-3.1998,49.5706],[103.1538,-3.2004,54.5417],[103.1484,-3.2075,51.4351],[103.1393,-3.2087,59.2023],[103.1392,-3.2139,55.8151],[103.137,-3.2145,58.8372],[103.1313,-3.2125,60.5624],[103.1295,-3.2159,53.4007],[103.1323,-3.2206,54.7638],[103.1316,-3.2259,55.8805],[103.1298,-3.2346,50.6568],[103.1275,-3.2362,52.7799],[103.1274,-3.241,62.7558],[103.1259,-3.2428,62.4018],[103.1362,-3.2467,56.1187],[103.1342,-3.2529,54.0],[103.1147,-3.2722,54.0],[103.1317,-3.2811,62.8067],[103.167,-3.2743,71.1504],[103.172,-3.2746,70.6766]]]]}}