{"type":"Feature","properties":{"GID_3":"IDN.25.2.12_1","GID_0":"IDN","country":"Indonesia","GID_1":"IDN.25_1","province":"SulawesiBarat","NL_NAME_1":"NA","GID_2":"IDN.25.2_1","county":"Mamasa","NL_NAME_2":"NA","city":"Sesenapadang","VARNAME_3":"NA","NL_NAME_3":"NA","TYPE_3":"Kecamatan","ENGTYPE_3":"Sub-district","CC_3":"7603070","HASC_3":"NA","name":"Sesenapadang.city"},
"geometry":{"type": "MultiPolygon","coordinates": [[[[119.3788,-3.0444,1851.3402],[119.3791,-3.0518,1613.6289],[119.3809,-3.053,1600.7075],[119.3839,-3.0625,1942.9904],[119.3822,-3.0701,2021.1633],[119.388,-3.0816,2279.3213],[119.3906,-3.0973,1923.9156],[119.399,-3.0998,1973.7195],[119.4141,-3.1101,2180.856],[119.4364,-3.1315,2371.2583],[119.4391,-3.1227,2214.1594],[119.4422,-3.1183,2075.7898],[119.4426,-3.112,1936.5161],[119.4464,-3.1071,1910.8781],[119.448,-3.095,2017.7703],[119.4682,-3.0559,2565.0847],[119.4663,-3.045,2341.3433],[119.4583,-3.0346,2253.2476],[119.4631,-3.0236,2181.8169],[119.4627,-3.0019,2227.2048],[119.4671,-2.9958,2359.5518],[119.4605,-2.9828,2203.9585],[119.4651,-2.9767,2104.248],[119.4673,-2.9632,2195.3799],[119.4598,-2.962,1989.0801],[119.4555,-2.963,1872.6555],[119.4113,-2.9787,1286.8107],[119.4123,-2.9734,1298.9688],[119.4104,-2.9686,1248.6853],[119.4074,-2.9734,1260.8691],[119.3988,-2.9777,1250.6263],[119.3874,-2.9796,1223.8942],[119.3778,-2.979,1202.8867],[119.378,-2.9761,1213.9541],[119.3764,-2.9788,1148.6174],[119.3729,-2.9802,1119.2198],[119.3692,-2.9777,1164.1195],[119.3657,-2.978,1123.3098],[119.3642,-2.9747,1123.8593],[119.3583,-2.9751,1135.1525],[119.3546,-2.9785,1095.0996],[119.3504,-2.979,1083.9136],[119.3507,-2.9773,1091.9221],[119.3429,-2.9755,1061.016],[119.341,-2.9836,1055.5967],[119.3392,-2.9829,1088.6141],[119.3392,-2.9849,1066.8796],[119.3358,-2.9855,1058.939],[119.3402,-2.9865,1103.1522],[119.3455,-2.9922,1111.0854],[119.3552,-3.0123,1233.0573],[119.3521,-3.0153,1243.7896],[119.3591,-3.0225,1396.6868],[119.3594,-3.0307,1489.8651],[119.3713,-3.0342,1702.9104],[119.3777,-3.0412,1782.2063],[119.3788,-3.0444,1851.3402]]]]}}