{"type":"Feature","properties":{"GID_3":"IDN.9.5.38_1","GID_0":"IDN","country":"Indonesia","GID_1":"IDN.9_1","province":"JawaBarat","NL_NAME_1":"NA","GID_2":"IDN.9.5_1","county":"Bogor","NL_NAME_2":"NA","city":"Tanjungsari","VARNAME_3":"NA","NL_NAME_3":"NA","TYPE_3":"Kecamatan","ENGTYPE_3":"Sub-district","CC_3":"3201161","HASC_3":"NA","name":"Tanjungsari.city"},
"geometry":{"type": "MultiPolygon","coordinates": [[[[107.2033,-6.5854,859.7825],[107.1912,-6.5767,424.3581],[107.1799,-6.5715,304.3516],[107.1691,-6.5688,135.3354],[107.169,-6.5716,202.802],[107.1656,-6.5738,306.1496],[107.1575,-6.5732,134.3257],[107.1499,-6.5677,93.5969],[107.1354,-6.5668,126.8061],[107.1273,-6.562,180.6068],[107.1223,-6.5617,219.8102],[107.1221,-6.559,224.4266],[107.1154,-6.5609,241.3368],[107.0985,-6.5594,326.1171],[107.0899,-6.565,385.1463],[107.079,-6.5665,297.1867],[107.0778,-6.5718,335.1666],[107.0724,-6.5792,378.6224],[107.0702,-6.5861,396.2336],[107.0612,-6.5972,500.9505],[107.0665,-6.6058,609.8381],[107.0719,-6.6109,659.0392],[107.0831,-6.6153,694.7752],[107.0746,-6.622,956.3104],[107.0688,-6.6242,833.7219],[107.0672,-6.6278,766.7466],[107.0779,-6.636,553.3286],[107.0806,-6.6399,580.8295],[107.0799,-6.6409,580.8295],[107.0845,-6.642,613.0349],[107.0878,-6.6464,674.0195],[107.086,-6.6515,603.9624],[107.0785,-6.654,655.8304],[107.0767,-6.664,448.6039],[107.0849,-6.6649,405.0766],[107.0863,-6.6672,392.5185],[107.0887,-6.6675,383.957],[107.097,-6.664,350.089],[107.1004,-6.6644,340.2588],[107.1025,-6.6668,373.2623],[107.1042,-6.6638,331.1353],[107.1062,-6.6649,333.0721],[107.108,-6.6639,327.9677],[107.1099,-6.6659,315.2265],[107.1132,-6.6635,310.4301],[107.1211,-6.6632999999999996,287.7954],[107.1302,-6.6698,273.2177],[107.1346,-6.6705,262.5209],[107.1377,-6.6668,252.8661],[107.1403,-6.6673,250.7471],[107.1504,-6.663,239.1608],[107.1516,-6.66,227.9473],[107.1503,-6.6541,220.0107],[107.1525,-6.6498,216.8669],[107.1581,-6.6501,243.0563],[107.1577,-6.6475,219.2731],[107.1602,-6.6455,213.5079],[107.165,-6.647,206.7207],[107.169,-6.6433,192.7411],[107.1682,-6.6411,239.1873],[107.1697,-6.6388,197.3079],[107.1797,-6.6465,397.8835],[107.1922,-6.6455,744.5455],[107.2027,-6.6405,472.9637],[107.2151,-6.6373,489.8019],[107.213,-6.6306,436.6702],[107.2146,-6.6201,396.7234],[107.222,-6.6125,693.0739],[107.2271,-6.6021,1143.4761],[107.2205,-6.5907,1264.0684],[107.2135,-6.5905,1128.208],[107.2033,-6.5854,859.7825]]]]}}