{"type":"Feature","properties":{"GID_3":"IDN.21.6.14_1","GID_0":"IDN","country":"Indonesia","GID_1":"IDN.21_1","province":"NusaTenggaraTimur","NL_NAME_1":"NA","GID_2":"IDN.21.6_1","county":"Kupang","NL_NAME_2":"NA","city":"FatuleuTengah","VARNAME_3":"NA","NL_NAME_3":"NA","TYPE_3":"Kecamatan","ENGTYPE_3":"Sub-district","CC_3":"5303161","HASC_3":"NA","name":"Fatuleu_Tengah.city"},
"geometry":{"type": "MultiPolygon","coordinates": [[[[123.9111,-9.9367,486.3369],[123.9119,-9.935,476.967],[123.9124,-9.9371,477.826],[123.9138,-9.9371,477.826],[123.9166,-9.9344,504.6685],[123.9139,-9.9339,468.6693],[123.9137,-9.9318,457.5094],[123.9152,-9.9312,468.8964],[123.9138,-9.9301,476.5994],[123.9155,-9.9284,461.7507],[123.9138,-9.9282,464.7088],[123.9172,-9.927,456.694],[123.918,-9.9249,441.7945],[123.9159,-9.9248,483.1917],[123.9167,-9.9226,455.3819],[123.9192,-9.923,444.9059],[123.9177,-9.9189,474.7473],[123.9204,-9.9191,497.9786],[123.9195,-9.9128,416.3064],[123.9266,-9.9125,533.4836],[123.9251,-9.9012,514.0626],[123.9278,-9.8957,466.0699],[123.9329,-9.8905,379.7484],[123.9332,-9.8879,347.9615],[123.936,-9.8867,335.9231],[123.9356,-9.8844,345.6215],[123.9299,-9.8822,372.3218],[123.9297,-9.8795,405.2065],[123.9248,-9.8745,513.7746],[123.9226,-9.8666,575.4106],[123.9101,-9.864,453.078],[123.9006,-9.8666,310.8871],[123.8972,-9.8638,306.8979],[123.8931,-9.8647,321.0044],[123.893,-9.8627,302.2776],[123.8905,-9.861,313.9643],[123.886,-9.8611,303.5803],[123.8788,-9.8583,290.915],[123.8758,-9.8486,238.251],[123.8707,-9.8475,224.2469],[123.8641,-9.8418,214.8126],[123.86,-9.8439,208.4874],[123.8594,-9.8488,208.5625],[123.8512,-9.85,199.5852],[123.8542,-9.8529,200.0405],[123.856,-9.8531,200.1805],[123.857,-9.8561,205.878],[123.8595,-9.8557,233.2381],[123.8578,-9.8598,233.4015],[123.8588,-9.8637,308.5364],[123.8623,-9.8619,276.4812],[123.8613,-9.8645,314.2341],[123.8625,-9.8665,331.098],[123.8699,-9.8722,342.2138],[123.8669,-9.8728,311.8168],[123.8651,-9.8751,334.2673],[123.87,-9.8819,383.0839],[123.8685,-9.8854,400.5315],[123.8694,-9.8878,394.447],[123.8664,-9.8929,424.5005],[123.8686,-9.8934,413.7159],[123.8687,-9.8964,423.9766],[123.8652,-9.8963,412.3308],[123.8652,-9.8996,423.6418],[123.858,-9.9024,460.013],[123.8532,-9.902,524.508],[123.8518,-9.904,551.6387],[123.8415,-9.9022,753.5492],[123.8248,-9.9116,608.2308],[123.7867,-9.9118,481.2102],[123.7662,-9.9155,640.2343],[123.7635,-9.9138,553.5061],[123.7573,-9.9139,423.4152],[123.76,-9.9162,502.5944],[123.761,-9.9201,534.9447],[123.7566,-9.937,182.1645],[123.7655,-9.9416,319.7162],[123.7711,-9.949,580.1021],[123.7762,-9.9506,588.8534],[123.7782,-9.9551,558.566],[123.7778,-9.9591,596.3367],[123.7802,-9.9611,566.2657],[123.7949,-9.9646,530.3096],[123.7991,-9.9605,645.1527],[123.8217,-9.952,747.7126],[123.8269,-9.9468,824.1167],[123.8374,-9.9457,916.965],[123.8429,-9.9505,824.2711],[123.8418,-9.9706,197.1251],[123.844,-9.9767,237.1084],[123.8462,-9.9793,271.7027],[123.8598,-9.9865,616.1323],[123.8646,-9.9832,643.9226],[123.8744,-9.9838,600.853],[123.8842,-9.9784,676.6013],[123.8949,-9.9752,589.3393],[123.8989,-9.9758,556.7025],[123.9056,-9.9687,527.8277],[123.9126,-9.9683,549.4636],[123.9144,-9.9635,464.3997],[123.9189,-9.9641,457.6115],[123.914,-9.9587,520.595],[123.9123,-9.9526,618.684],[123.9168,-9.9469,532.8624],[123.9168,-9.9438,530.2375],[123.9111,-9.9367,486.3369]]]]}}