{"type":"Feature","properties":{"GID_3":"IDN.9.13.5_1","GID_0":"IDN","country":"Indonesia","GID_1":"IDN.9_1","province":"JawaBarat","NL_NAME_1":"NA","GID_2":"IDN.9.13_1","county":"Karawang","NL_NAME_2":"NA","city":"Cikampek","VARNAME_3":"NA","NL_NAME_3":"NA","TYPE_3":"Kecamatan","ENGTYPE_3":"Sub-district","CC_3":"3215050","HASC_3":"NA","name":"Cikampek.city"},
"geometry":{"type": "MultiPolygon","coordinates": [[[[107.4624,-6.4249,55.3958],[107.4621,-6.4199,51.7636],[107.4597,-6.4179,44.647],[107.4631,-6.4179,49.7624],[107.4648,-6.415,54.4161],[107.4676,-6.4143,52.1801],[107.4709,-6.4086,46.6939],[107.4639,-6.4084,51.6833],[107.4636,-6.4052,48.4786],[107.4592,-6.4032,46.9034],[107.4652,-6.3941,41.2026],[107.455,-6.387,33.6824],[107.456,-6.382,28.3572],[107.4488,-6.3799,28.9962],[107.4406,-6.3815,25.8625],[107.427,-6.3806,25.0346],[107.4259,-6.3878,26.774],[107.422,-6.387,27.9348],[107.4221,-6.391,29.5542],[107.4169,-6.4016,45.1877],[107.4148,-6.4038,54.3888],[107.4098,-6.4037,64.263],[107.4022,-6.4067,38.317],[107.4022,-6.4111,33.9856],[107.4004,-6.4144,31.6185],[107.4019,-6.4179,45.123],[107.399,-6.4251,31.5154],[107.401,-6.4255,30.4329],[107.4012,-6.4282,34.8155],[107.405,-6.4299,36.3738],[107.4147,-6.4267,37.804],[107.4204,-6.4297,39.8868],[107.4227,-6.4324,41.3707],[107.4221,-6.4354,42.1973],[107.4258,-6.4348,56.6448],[107.4233,-6.4394,43.4145],[107.4257,-6.4443,54.4366],[107.4348,-6.4529,64.5446],[107.4371,-6.4483,83.4213],[107.4402,-6.446,100.117],[107.4519,-6.4441,66.1275],[107.4553,-6.4386,57.7149],[107.4589,-6.4369,55.246],[107.4583,-6.4315,58.0351],[107.4625,-6.4267,53.1358],[107.4624,-6.4249,55.3958]]]]}}