{"type":"Feature","properties":{"GID_3":"IDN.9.24.29_1","GID_0":"IDN","country":"Indonesia","GID_1":"IDN.9_1","province":"JawaBarat","NL_NAME_1":"NA","GID_2":"IDN.9.24_1","county":"Sukabumi","NL_NAME_2":"NA","city":"KaliBunder","VARNAME_3":"NA","NL_NAME_3":"NA","TYPE_3":"Kecamatan","ENGTYPE_3":"Sub-district","CC_3":"3202050","HASC_3":"NA","name":"Kali_Bunder.city"},
"geometry":{"type": "MultiPolygon","coordinates": [[[[106.6841,-7.3311,142.4865],[106.6865,-7.3325,81.6313],[106.6886,-7.3251,121.0072],[106.6919,-7.3228,111.7315],[106.697,-7.3207,110.2454],[106.7047,-7.3205,137.405],[106.7143,-7.315,125.6784],[106.7175,-7.309,134.5784],[106.7212,-7.3064,166.5224],[106.7232,-7.3009,142.5941],[106.7277,-7.2998,209.275],[106.7285,-7.2966,201.4571],[106.7328,-7.2926,187.0548],[106.7334,-7.2896,183.4767],[106.7312,-7.288,183.7781],[106.7347,-7.2854,181.3196],[106.7347,-7.2815,173.9746],[106.7436,-7.2807,168.5621],[106.7482,-7.2775,186.5627],[106.7501,-7.2807,156.3536],[106.7554,-7.2778,171.8481],[106.7595,-7.2807,184.1428],[106.7607,-7.2792,172.354],[106.7574,-7.2773,160.9229],[106.7627,-7.2749,194.4054],[106.7622,-7.272,162.0041],[106.7697,-7.2714,215.4618],[106.7701,-7.2685,202.3163],[106.768,-7.268,171.9874],[106.7674,-7.2658,206.699],[106.7704,-7.2616,225.962],[106.7692,-7.2564,227.0192],[106.7659,-7.2548,253.9001],[106.7656,-7.2496,268.0424],[106.754,-7.244,467.8697],[106.7525,-7.2403,505.1851],[106.7458,-7.2389,487.4702],[106.744,-7.237,464.4788],[106.744,-7.231,561.1732],[106.748,-7.2262,610.3629],[106.7489,-7.2215,657.2977],[106.7585,-7.2179,619.3424],[106.7594,-7.2149,619.5909],[106.7483,-7.2007,651.8009],[106.7455,-7.1873,685.1384],[106.7419,-7.1836,692.4019],[106.7336,-7.1833,640.0059],[106.7278,-7.1782,653.8016],[106.7242,-7.1779,668.1483],[106.7253,-7.1841,627.3898],[106.7165,-7.1972,619.9423],[106.7067,-7.1996,634.648],[106.7065,-7.2039,623.4008],[106.7043,-7.2037,646.7379],[106.7055,-7.2119,598.6216],[106.7035,-7.2132,620.645],[106.7046,-7.2147,654.082],[106.7042,-7.2242,699.1017],[106.7067,-7.2256,726.8206],[106.7101,-7.2396,583.667],[106.7085,-7.2469,479.3947],[106.7142,-7.2576,426.0591],[106.7141,-7.2623,373.3795],[106.716,-7.2623,363.425],[106.7106,-7.2677,335.1967],[106.7161,-7.2701,348.2208],[106.7159,-7.2744,417.6039],[106.7096,-7.2718,386.9564],[106.7013,-7.2719,379.928],[106.6989,-7.2706,344.4925],[106.6953,-7.2718,330.1763],[106.6861,-7.2695,334.6151],[106.6806,-7.2735,275.675],[106.6781,-7.2719,226.7287],[106.6748,-7.2741,215.3265],[106.6706,-7.2738,200.7681],[106.668,-7.2798,185.2951],[106.6692,-7.2836,189.2957],[106.667,-7.2852,168.9576],[106.6694,-7.2881,177.8145],[106.6718,-7.2959,167.9],[106.6686,-7.2993,158.2583],[106.6635,-7.2905,163.934],[106.6597,-7.2915,163.2621],[106.6583,-7.2937,184.2169],[106.6564,-7.3021,135.1161],[106.659,-7.305,137.6291],[106.66,-7.3093,138.5847],[106.6571,-7.3151,128.7075],[106.6642,-7.3148,240.7781],[106.667,-7.3187,189.9774],[106.6751,-7.32,239.3277],[106.6841,-7.3311,142.4865]]]]}}