{"type":"Feature","properties":{"GID_3":"IDN.1.20.13_1","GID_0":"IDN","country":"Indonesia","GID_1":"IDN.1_1","province":"Aceh","NL_NAME_1":"NA","GID_2":"IDN.1.20_1","county":"Pidie","NL_NAME_2":"NA","city":"MuaraTiga","VARNAME_3":"NA","NL_NAME_3":"NA","TYPE_3":"Kecamatan","ENGTYPE_3":"Sub-district","CC_3":"1109230","HASC_3":"NA","name":"Muara_Tiga.city"},
"geometry":{"type": "MultiPolygon","coordinates": [[[[95.8795,5.509,0.0],[95.869,5.5147,0.4059],[95.8489,5.5213,0.0],[95.8442,5.5197,1.5],[95.8464,5.5234,1.913],[95.8319,5.5319,6.4368],[95.8283,5.5355,0.0],[95.818,5.5358,0.0],[95.8028,5.5419,0.7615],[95.7985,5.5419,1.9362],[95.7934,5.5456,0.0],[95.7785,5.5508,30.861],[95.7682,5.5589,0.0],[95.7457,5.569,0.0],[95.7427,5.5591,109.017],[95.7283,5.549,212.8347],[95.724,5.5323,220.5394],[95.7253,5.5235,297.5192],[95.7366,5.5157,214.7075],[95.7373,5.5133,144.9676],[95.7337,5.506,211.7147],[95.7248,5.4994,395.2662],[95.7261,5.4953,405.8262],[95.7329,5.4879,286.997],[95.7428,5.4809,183.5546],[95.7514,5.4795,161.2018],[95.7558,5.477,122.8625],[95.7629,5.4654,274.9578],[95.7687,5.4624,261.0613],[95.7807,5.4614,269.8683],[95.7868,5.4591,235.4417],[95.793,5.4526,232.1388],[95.8048,5.454,183.5303],[95.8131,5.4505,73.4454],[95.822,5.4498,41.9829],[95.8414,5.4447,45.4841],[95.8491,5.4467,43.4408],[95.8559,5.4611,30.0987],[95.8668,5.469,93.2301],[95.871,5.4695,107.0069],[95.8804,5.463,83.9101],[95.8897,5.4616,27.8138],[95.8921,5.4856,14.0189],[95.8872,5.5019,19.9839],[95.8795,5.509,0.0]]]]}}