{"type":"Feature","properties":{"GID_3":"IDN.13.8.4_1","GID_0":"IDN","country":"Indonesia","GID_1":"IDN.13_1","province":"KalimantanSelatan","NL_NAME_1":"NA","GID_2":"IDN.13.8_1","county":"HuluSungaiUtara","NL_NAME_2":"NA","city":"Babirik","VARNAME_3":"NA","NL_NAME_3":"NA","TYPE_3":"Kecamatan","ENGTYPE_3":"Sub-district","CC_3":"6308020","HASC_3":"NA","name":"Babirik.city"},
"geometry":{"type": "MultiPolygon","coordinates": [[[[115.1522,-2.5488,3.0461],[115.1752,-2.5582,2.0],[115.1809,-2.5517,2.0],[115.1831,-2.5333,3.0225],[115.1831,-2.5284,3.0183],[115.1777,-2.5084,3.0207],[115.1632,-2.5052,3.4072],[115.161,-2.4887,3.0],[115.1539,-2.4805,3.4341],[115.1231,-2.4798,3.5869],[115.0869,-2.4819,3.4455],[115.0592,-2.4926,3.388],[115.0552,-2.496,3.5495],[115.0496,-2.505,3.5413],[115.0482,-2.5168,3.0869],[115.1417,-2.549,4.2008],[115.1522,-2.5488,3.0461]]]]}}