{"type":"Feature","properties":{"GID_3":"IDN.11.35.29_1","GID_0":"IDN","country":"Indonesia","GID_1":"IDN.11_1","province":"JawaTimur","NL_NAME_1":"NA","GID_2":"IDN.11.35_1","county":"Surabaya","NL_NAME_2":"NA","city":"Wiyung","VARNAME_3":"NA","NL_NAME_3":"NA","TYPE_3":"Kecamatan","ENGTYPE_3":"Sub-district","CC_3":"3578130","HASC_3":"NA","name":"Wiyung.city"},
"geometry":{"type": "MultiPolygon","coordinates": [[[[112.6941,-7.3342,16.4274],[112.6955,-7.3344,9.7812],[112.6963,-7.332,9.4415],[112.6953,-7.3264,7.8321],[112.6903,-7.3243,8.2702],[112.6908,-7.3224,6.464],[112.6976,-7.3238,9.6769],[112.7017,-7.3153,8.2247],[112.7048,-7.3131,9.5657],[112.7113,-7.3127,9.2802],[112.7139,-7.3077,8.3023],[112.7038,-7.3073,8.5502],[112.7043,-7.3038,9.8455],[112.7077,-7.3035,9.1829],[112.7051,-7.3001,12.7857],[112.7025,-7.3021,14.1463],[112.6971,-7.3016,19.3503],[112.6969,-7.3,21.1564],[112.6962,-7.3012,21.1564],[112.6881,-7.2994,19.7919],[112.6865,-7.3013,19.3498],[112.683,-7.3016,18.7717],[112.6841,-7.2989,27.6069],[112.6757,-7.2942,32.2724],[112.6786,-7.2876,30.5721],[112.6786,-7.2837,29.2227],[112.6741,-7.2827,23.586],[112.675,-7.2885,39.6742],[112.6735,-7.2881,35.7796],[112.6717,-7.2938,26.3053],[112.6756,-7.2943,32.2724],[112.6756,-7.2993,24.4202],[112.6741,-7.3002,22.3603],[112.6743,-7.3074,19.2333],[112.6716,-7.3175,8.4503],[112.6792,-7.3194,8.7755],[112.6795,-7.3248,6.56],[112.6793,-7.3288,15.0782],[112.6763,-7.3303,15.7897],[112.675,-7.3331,20.7085],[112.6795,-7.3339,20.91],[112.6845,-7.3316,14.6072],[112.6941,-7.3342,16.4274]]]]}}