{"type":"Feature","properties":{"GID_3":"IDN.22.10.10_1","GID_0":"IDN","country":"Indonesia","GID_1":"IDN.22_1","province":"PapuaBarat","NL_NAME_1":"NA","GID_2":"IDN.22.10_1","county":"TelukBintuni","NL_NAME_2":"NA","city":"Kuri","VARNAME_3":"NA","NL_NAME_3":"NA","TYPE_3":"Distrik","ENGTYPE_3":"District","CC_3":"9104030","HASC_3":"NA","name":"Kuri.city"},
"geometry":{"type": "MultiPolygon","coordinates": [[[[133.9263,-2.9311,287.3312],[134.0741,-2.8688,496.5928],[134.1333,-2.84,181.7248],[134.1726,-2.8523,314.1096],[134.1735,-2.8468,271.4927],[134.171,-2.8358,176.3353],[134.155,-2.7897,182.9243],[134.1457,-2.7686,205.1737],[134.1423,-2.7516,281.4651],[134.1337,-2.7301,318.9062],[134.129,-2.7052,198.0947],[134.12,-2.6835,181.1571],[134.1082,-2.6632,112.1058],[134.0965,-2.6377,231.3436],[134.0917,-2.617,249.8681],[134.0837,-2.6033,193.2948],[134.0806,-2.5947,363.1986],[134.076,-2.5745,183.2184],[134.0713,-2.5094,1083.3888],[134.0716,-2.4802,688.8015],[134.0733,-2.4666,455.1301],[134.0724,-2.4446,389.0754],[134.0741,-2.4274,58.5864],[134.0706,-2.4132,357.2737],[134.0645,-2.3728,5.9723],[134.0622,-2.343,16.3423],[134.057,-2.3158,23.9517],[134.0514,-2.2524,23.1178],[134.0404,-2.2528,24.2059],[133.9799,-2.2473,115.4675],[133.9696,-2.2497,4.5891],[133.96,-2.2489,39.3946],[133.9613,-2.2516,140.0295],[133.9579,-2.2606,66.4942],[133.9547,-2.2806,84.0146],[133.9485,-2.2983,234.2656],[133.9431,-2.3051,231.3602],[133.9322,-2.3078,23.5944],[133.8785,-2.3112,13.3867],[133.8664,-2.317,30.5658],[133.8621,-2.3229,32.5163],[133.8607,-2.3331,26.2673],[133.8723,-2.3498,18.9188],[133.8765,-2.3643,30.6477],[133.8802,-2.3671,31.3091],[133.8898,-2.3678,28.7551],[133.89,-2.3728,28.676],[133.8949,-2.3763,141.3474],[133.9059,-2.379,174.6496],[133.9119,-2.3825,67.7685],[133.9336,-2.3861,10.751],[133.9404,-2.3848,15.5868],[133.9546,-2.3857,6.7269],[133.9677,-2.3834,19.2073],[133.9874,-2.3848,8.1292],[133.9974,-2.3882,13.8701],[134.0009,-2.3932,15.1089],[133.997,-2.3942,14.9337],[133.9794,-2.3915,8.5256],[133.964,-2.3976,22.2308],[133.9586,-2.3976,22.3855],[133.9523,-2.3949,18.8968],[133.9408,-2.3972,22.7872],[133.9275,-2.397,28.4282],[133.9217,-2.3943,0.0],[133.903,-2.3911,0.0],[133.8913,-2.3919,27.7989],[133.886,-2.3875,0.0],[133.8775,-2.3861,0.0],[133.8602,-2.3912,26.003],[133.8515,-2.4042,26.0849],[133.8372,-2.4119,18.193],[133.8268,-2.4128,20.723],[133.8213,-2.416,18.6279],[133.8078,-2.4174,23.6893],[133.797,-2.4207,22.0837],[133.7824,-2.4207,22.7885],[133.772,-2.4233,24.3231],[133.7568,-2.422,9.5661],[133.7518,-2.4262,21.5214],[133.746,-2.4266,20.1139],[133.742,-2.432,15.7356],[133.7408,-2.4414,6.0093],[133.7417,-2.446,8.2017],[133.7502,-2.4406,13.637],[133.7522,-2.4418,24.7448],[133.7425,-2.4493,23.2143],[133.7457,-2.4553,15.3293],[133.7543,-2.4652,10.7181],[133.756,-2.4709,8.5164],[133.7592,-2.4707,13.6639],[133.761,-2.4746,14.3905],[133.7642,-2.476,21.5918],[133.7732,-2.4686,16.0643],[133.7725,-2.4718,14.4938],[133.7668,-2.4765,4.9898],[133.7698,-2.4801,20.2207],[133.7749,-2.4821,4.5398],[133.7782,-2.4818,0.0],[133.781,-2.4785,7.7174],[133.785,-2.4826,0.0],[133.7888,-2.4818,0.0],[133.7923,-2.4771,0.0],[133.7999,-2.486,21.3618],[133.798,-2.4912,0.0],[133.8027,-2.5006,24.0194],[133.8017,-2.5104,28.0306],[133.799,-2.515,24.8688],[133.7971,-2.5169,18.0427],[133.7925,-2.517,0.0],[133.7848,-2.5147,3.0136],[133.7709,-2.5143,13.4142],[133.7567,-2.5113,0.0],[133.7412,-2.5041,0.0],[133.7316,-2.5021,0.0],[133.7469,-2.5221,0.0],[133.7662,-2.575,19.5947],[133.779,-2.6568,12.6053],[133.7753,-2.6784,38.9078],[133.7976,-2.6689,8.9195],[133.8864,-2.7176,9.0102],[133.9234,-2.8884,123.5148],[133.9234,-2.8942,116.9644],[133.9154,-2.9215,499.8667],[133.899,-2.9421,368.6593],[133.9263,-2.9311,287.3312]]],
[[[133.8147,-2.2498,22.0715],[133.8058,-2.2484,10.7075],[133.7818,-2.2485,24.7769],[133.7841,-2.2557,24.7084],[133.7901,-2.265,27.4648],[133.7937,-2.2655,26.2784],[133.8141,-2.2832,26.4631],[133.8291,-2.2919,8.4705],[133.8371,-2.2928,0.0],[133.8556,-2.2876,0.0],[133.8615,-2.2804,0.0],[133.8654,-2.2812,0.0],[133.8712,-2.2783,0.0],[133.8808,-2.2857,67.593],[133.8821,-2.2912,74.1366],[133.8875,-2.2964,11.7111],[133.8946,-2.2981,0.0],[133.908,-2.2971,24.3531],[133.9313,-2.3024,13.8258],[133.9367,-2.2991,47.7813],[133.9388,-2.2945,24.4809],[133.9411,-2.2778,0.0],[133.9401,-2.2753,5.757],[133.9367,-2.2746,0.0],[133.9379,-2.2712,0.0],[133.9455,-2.2639,13.0812],[133.9487,-2.2478,0.0],[133.8696,-2.2508,18.5586],[133.8147,-2.2498,22.0715]]]]}}