{"type":"Feature","properties":{"GID_3":"IDN.32.16.1_1","GID_0":"IDN","country":"Indonesia","GID_1":"IDN.32_1","province":"SumateraUtara","NL_NAME_1":"NA","GID_2":"IDN.32.16_1","county":"MandailingNatal","NL_NAME_2":"NA","city":"Batahan","VARNAME_3":"NA","NL_NAME_3":"NA","TYPE_3":"Kecamatan","ENGTYPE_3":"Sub-district","CC_3":"1202010","HASC_3":"NA","name":"Batahan.city"},
"geometry":{"type": "MultiPolygon","coordinates": [[[[99.2973,0.3369,390.0313],[99.3146,0.3335,275.4791],[99.3174,0.3346,195.1021],[99.3341,0.358,172.2421],[99.3498,0.3863,31.371],[99.3609,0.4118,23.3435],[99.3661,0.4314,32.4686],[99.3823,0.4469,33.9136],[99.3741,0.4539,43.087],[99.3693,0.4556,45.3523],[99.3544,0.4471,71.5855],[99.3483,0.4477,74.5909],[99.3435,0.4455,61.848],[99.3325,0.4499,45.443],[99.2986,0.4536,12.8993],[99.2863,0.4449,13.8434],[99.2831,0.4433,18.956],[99.2787,0.4436,14.4529],[99.2776,0.4334,17.1804],[99.2731,0.4246,15.4067],[99.267,0.422,7.6618],[99.2664,0.4244,11.6633],[99.2634,0.4244,10.9429],[99.263,0.4196,8.4853],[99.2589,0.4167,12.8461],[99.2462,0.4216,8.7104],[99.2397,0.4224,9.7587],[99.2306,0.428,6.6458],[99.215,0.431,7.4657],[99.2039,0.4367,11.1646],[99.1852,0.4369,8.8677],[99.1665,0.4436,5.8449],[99.1669,0.4607,4.0325],[99.1706,0.4695,6.8563],[99.1712,0.4748,6.1958],[99.1625,0.5038,7.6346],[99.1417,0.4908,8.1599],[99.1254,0.4862,0.0],[99.1297,0.4774,2.6011],[99.1363,0.4531,0.0],[99.1396,0.4172,1.7337],[99.1371,0.3997,0.0],[99.1355,0.3981,0.8837],[99.1341,0.3783,1.2739],[99.1199,0.3629,0.0],[99.1207,0.3531,3.7485],[99.1135,0.3493,22.9037],[99.1113,0.3503,0.0],[99.1089,0.3459,2.1165],[99.1149,0.3445,6.7545],[99.1153,0.3407,11.4535],[99.1199,0.3377,0.0],[99.1225,0.3387,0.0],[99.1285,0.3331,0.0],[99.1335,0.3331,4.7443],[99.1349,0.3295,3.1617],[99.1375,0.3329,2.2637],[99.1467,0.3323,0.8904],[99.1503,0.3269,0.0],[99.1575,0.3085,0.355],[99.1605,0.2909,2.7163],[99.1599,0.2717,4.2624],[99.1573,0.2653,9.4322],[99.1551,0.2655,0.0],[99.1527,0.2633,19.1451],[99.1459,0.2645,4.5839],[99.1403,0.2627,0.0],[99.1401,0.2599,6.7943],[99.1369,0.2571,0.0],[99.1373,0.2535,26.2635],[99.1395,0.2509,18.6627],[99.1509,0.2499,0.0],[99.1584,0.2456,3.1377],[99.16,0.2422,5.8401],[99.1583,0.2393,0.0],[99.1616,0.2406,9.264],[99.1635,0.2395,0.0],[99.1658,0.2362,39.0676],[99.1664,0.2299,26.9966],[99.1731,0.241,140.0742],[99.1734,0.248,23.1515],[99.1761,0.2524,24.5545],[99.1843,0.2604,16.4072],[99.1873,0.2661,25.229],[99.1946,0.2714,25.5598],[99.1943,0.2822,17.0333],[99.1998,0.2896,49.681],[99.2248,0.3079,53.4106],[99.2367,0.3227,49.8829],[99.2487,0.3325,93.7937],[99.2655,0.3372,274.0909],[99.2973,0.3369,390.0313]]],
[[[99.1365,0.2635,0.0],[99.1367,0.2641,0.0],[99.1359,0.2641,0.0],[99.1359,0.2635,0.0],[99.1365,0.2635,0.0]]],
[[[99.1497,0.2677,0.0],[99.1489,0.2677,1.1264],[99.1485,0.2673,1.1264],[99.1495,0.2673,0.0],[99.1497,0.2677,0.0]]],
[[[99.1111,0.3513,0.0],[99.1105,0.3513,0.0],[99.1101,0.3511,0.0],[99.1109,0.3507,0.0],[99.1111,0.3513,0.0]]],
[[[99.1013,0.362,0.0],[99.1046,0.3629,0.0],[99.1062,0.3654,0.0],[99.1041,0.3669,1.1079],[99.1059,0.3704,3.6415],[99.1045,0.3737,0.4822],[99.1017,0.373,0.0],[99.0958,0.3657,12.9381],[99.0908,0.3659,5.6646],[99.089,0.3622,1.3264],[99.0976,0.3629,7.3212],[99.1013,0.362,0.0]]]]}}