{"type":"Feature","properties":{"GID_3":"IDN.10.19.1_1","GID_0":"IDN","country":"Indonesia","GID_1":"IDN.10_1","province":"JawaTengah","NL_NAME_1":"NA","GID_2":"IDN.10.19_1","county":"Kudus","NL_NAME_2":"NA","city":"Bae","VARNAME_3":"NA","NL_NAME_3":"NA","TYPE_3":"Kecamatan","ENGTYPE_3":"Sub-district","CC_3":"3319070","HASC_3":"NA","name":"Bae.city"},
"geometry":{"type": "MultiPolygon","coordinates": [[[[110.8791,-6.7658,64.306],[110.8772,-6.7633,66.4334],[110.8753,-6.7632,72.4868],[110.8748,-6.7585,81.2262],[110.8719,-6.758,78.3901],[110.8707,-6.7547,73.136],[110.8672,-6.7555,87.6133],[110.8666,-6.7538,92.5998],[110.8631,-6.754,90.2053],[110.8644,-6.7589,78.9328],[110.8624,-6.7598,77.4006],[110.8591,-6.7521,93.7018],[110.8566,-6.7534,89.6678],[110.8546,-6.751,90.0714],[110.8495,-6.7626,67.7635],[110.8462,-6.767,62.8569],[110.8443,-6.7666,60.32],[110.8423,-6.7723,52.3551],[110.8386,-6.7705,54.1059],[110.8391,-6.7692,56.1497],[110.8364,-6.7703,53.3544],[110.833,-6.7778,42.7274],[110.834,-6.7852,37.934],[110.8367,-6.7857,38.3033],[110.8367,-6.7901,34.9715],[110.8389,-6.7908,35.0294],[110.8388,-6.7846,39.0908],[110.8405,-6.7814,41.8788],[110.8424,-6.7813,41.3794],[110.8451,-6.7859,38.6775],[110.8477,-6.7864,34.6619],[110.8485,-6.7904,30.768],[110.855,-6.7939,30.7996],[110.8545,-6.7969,25.9429],[110.8594,-6.798,24.0573],[110.8595,-6.7999,23.2411],[110.8611,-6.7984,22.8355],[110.862,-6.8015,23.7323],[110.865,-6.8004,23.5626],[110.8657,-6.8037,20.1361],[110.8679,-6.8045,20.7465],[110.8672,-6.8058,18.5077],[110.8687,-6.8068,20.2965],[110.871,-6.8069,19.1434],[110.872,-6.8046,20.4133],[110.88,-6.805,17.3889],[110.8862,-6.8081,14.9045],[110.8874,-6.798,18.6815],[110.8911,-6.7976,14.4403],[110.8937,-6.7952,16.9412],[110.8906,-6.7927,21.4505],[110.8886,-6.7883,27.0659],[110.8898,-6.7763,38.3946],[110.889,-6.7733,45.6679],[110.8872,-6.7736,42.9916],[110.8862,-6.7714,51.3832],[110.8884,-6.7687,51.3152],[110.8866,-6.7652,57.4457],[110.8791,-6.7658,64.306]]]]}}