{"type":"Feature","properties":{"GID_3":"IDN.26.8.9_1","GID_0":"IDN","country":"Indonesia","GID_1":"IDN.26_1","province":"SulawesiSelatan","NL_NAME_1":"NA","GID_2":"IDN.26.8_1","county":"KepulauanSelayar","NL_NAME_2":"NA","city":"PasimassungguTimur","VARNAME_3":"NA","NL_NAME_3":"NA","TYPE_3":"Kecamatan","ENGTYPE_3":"Sub-district","CC_3":"7301022","HASC_3":"NA","name":"Pasimassunggu_Timur.city"},
"geometry":{"type": "MultiPolygon","coordinates": [[[[120.7454,-7.0775,0.0],[120.7363,-7.0744,2.7049],[120.7189,-7.061,0.0],[120.7048,-7.055,5.7395],[120.6898,-7.0705,278.6184],[120.6837,-7.082,254.5201],[120.6871,-7.0861,185.4247],[120.7107,-7.097,77.544],[120.7229,-7.0991,110.8301],[120.7214,-7.1288,5.9286],[120.7286,-7.1287,15.7027],[120.7343,-7.1344,3.2293],[120.7458,-7.1282,13.6209],[120.7476,-7.1305,0.0],[120.7489,-7.1292,17.9417],[120.7589,-7.1306,12.0248],[120.7543,-7.1312,2.7794],[120.7539,-7.1337,4.4174],[120.7568,-7.1355,5.2304],[120.7597,-7.1344,1.5916],[120.7601,-7.1314,6.0725],[120.7633,-7.1339,0.0],[120.7638,-7.1313,9.2559],[120.7673,-7.1354,2.5746],[120.7777,-7.104,5.3719],[120.782,-7.1007,3.6634],[120.7832,-7.0976,0.0],[120.783,-7.0849,0.0],[120.7868,-7.0604,0.0],[120.7847,-7.059,0.0],[120.7826,-7.0597,9.2483],[120.777,-7.0654,4.7117],[120.7763,-7.0681,4.3448],[120.7782,-7.068,4.3448],[120.7772,-7.0693,4.3448],[120.7646,-7.0776,3.9759],[120.7537,-7.0795,0.0],[120.7454,-7.0775,0.0]]],
[[[120.7535,-7.0214,0.0],[120.7537,-7.0216,0.0],[120.7538,-7.0211,0.0],[120.7535,-7.0212,0.0],[120.7535,-7.0214,0.0]]],
[[[120.7528,-7.0194,2.6757],[120.7537,-7.0193,3.7702],[120.7538,-7.0178,0.0],[120.7529,-7.0185,2.6757],[120.7528,-7.0194,2.6757]]]]}}