{"type":"Feature","properties":{"GID_3":"IDN.26.8.11_1","GID_0":"IDN","country":"Indonesia","GID_1":"IDN.26_1","province":"SulawesiSelatan","NL_NAME_1":"NA","GID_2":"IDN.26.8_1","county":"KepulauanSelayar","NL_NAME_2":"NA","city":"Takabonerate","VARNAME_3":"NA","NL_NAME_3":"NA","TYPE_3":"Kecamatan","ENGTYPE_3":"Sub-district","CC_3":"7301021","HASC_3":"NA","name":"Takabonerate.city"},
"geometry":{"type": "MultiPolygon","coordinates": [[[[121.4786,-7.1538,0.0],[121.4806,-7.1499,0.0],[121.4771,-7.146,0.0],[121.4746,-7.1459,0.0],[121.4719,-7.1506,0.0],[121.4753,-7.1534,0.0],[121.4786,-7.1538,0.0]]],
[[[121.4435,-7.1191,0.0],[121.4431,-7.1176,0.0],[121.4411,-7.1181,1.7193],[121.4418,-7.1205,0.0],[121.4435,-7.1191,0.0]]],
[[[121.2179,-7.0037,0.4472],[121.2174,-7.0054,0.4866],[121.2175,-7.0059,0.4866],[121.2184,-7.0025,0.0],[121.2179,-7.0037,0.4472]]],
[[[121.2106,-6.7225,0.0],[121.2106,-6.7229,0.0],[121.2112,-6.7228,0.0],[121.2111,-6.7223,0.0],[121.2106,-6.7225,0.0]]],
[[[121.1201,-7.0754,5.4637],[121.1212,-7.0793,2.0437],[121.1228,-7.0726,4.9025],[121.1221,-7.0683,0.6901],[121.1207,-7.0707,1.916],[121.1201,-7.0754,5.4637]]],
[[[121.1783,-6.8483,0.0],[121.1781,-6.8457,0.0],[121.1774,-6.8476,0.0],[121.1752,-6.848,0.0],[121.1789,-6.8512,0.0],[121.1783,-6.8483,0.0]]],
[[[121.1389,-6.7898,0.0],[121.1386,-6.7825,0.0],[121.1364,-6.7837,0.0],[121.1371,-6.7871,0.0],[121.1351,-6.7992,0.0],[121.1368,-6.7984,0.0],[121.1389,-6.7898,0.0]]],
[[[121.2022,-6.7814,0.0],[121.2022,-6.7831,0.0],[121.2032,-6.7766,0.0],[121.2022,-6.7804,0.0],[121.2022,-6.7814,0.0]]],
[[[121.1704,-6.761,0.0],[121.1715,-6.756,0.0],[121.1707,-6.7594,0.0],[121.17,-6.7576,0.0],[121.1669,-6.7587,0.0],[121.1658,-6.7675,0.0],[121.1674,-6.7647,0.0],[121.165,-6.7697,0.0],[121.1657,-6.7728,0.0],[121.1689,-6.7631,0.0],[121.1718,-6.7601,0.0],[121.1704,-6.761,0.0]]],
[[[121.1399,-6.7632,0.0],[121.1403,-6.7517,0.0],[121.1422,-6.7487,0.0],[121.1408,-6.7469,0.0],[121.1384,-6.7568,0.0],[121.1389,-6.7711,0.0],[121.1407,-6.768,0.0],[121.1399,-6.7632,0.0]]],
[[[121.1007,-6.7423,0.0],[121.1011,-6.7435,0.0],[121.1016,-6.7394,0.0],[121.1008,-6.7403,0.0],[121.1007,-6.7423,0.0]]],
[[[121.1024,-6.7327,0.0],[121.1038,-6.7335,0.0],[121.1053,-6.7314,0.0],[121.1026,-6.7302,0.0],[121.1024,-6.7327,0.0]]],
[[[121.2122,-6.7214,0.0],[121.2119,-6.7219,0.0],[121.2121,-6.7222,0.0],[121.2127,-6.721,0.0],[121.2122,-6.7214,0.0]]],
[[[121.2111,-6.7212,0.0],[121.2108,-6.7206,0.0],[121.2097,-6.7204,0.0],[121.2104,-6.7212,0.0],[121.2111,-6.7212,0.0]]],
[[[121.2066,-6.7193,0.0],[121.2065,-6.7202,0.0],[121.2068,-6.7204,0.0],[121.2073,-6.7195,0.0],[121.2066,-6.7193,0.0]]],
[[[121.2144,-6.7182,0.0],[121.2143,-6.7188,0.0],[121.2146,-6.719,0.0],[121.2148,-6.7181,0.0],[121.2144,-6.7182,0.0]]],
[[[121.0965,-7.0623,0.0],[121.0958,-7.0674,0.6666],[121.0998,-7.0633,0.0],[121.0988,-7.058,1.7314],[121.0965,-7.0623,0.0]]],
[[[121.0626,-7.0452,0.755],[121.063,-7.0464,0.0],[121.0639,-7.045,0.755],[121.0639,-7.0393,0.0],[121.0628,-7.0414,3.2227],[121.0626,-7.0452,0.755]]],
[[[121.0735,-6.7592,0.0],[121.0724,-6.7544,0.0],[121.0719,-6.7566,0.0],[121.07,-6.7568,0.0],[121.0715,-6.758,0.0],[121.0724,-6.7571,0.0],[121.0699,-6.7607,0.0],[121.074,-6.7643,0.0],[121.0732,-6.7607,0.0],[121.0735,-6.7592,0.0]]],
[[[121.1,-6.7441,0.0],[121.1005,-6.7445,0.0],[121.1008,-6.7444,0.0],[121.1003,-6.744,0.0],[121.1,-6.7441,0.0]]],
[[[120.7896,-6.961,8.055],[120.7943,-6.9579,0.0],[120.788,-6.9565,3.7213],[120.7858,-6.9605,1.788],[120.7896,-6.961,8.055]]],
[[[121.0,-6.9452,0.0],[121.0016,-6.948,0.0],[121.0004,-6.9449,0.0],[121.0013,-6.9425,0.0],[121.0004,-6.9425,0.0],[121.0,-6.9452,0.0]]],
[[[120.7917,-6.8802,1.0082],[120.7925,-6.8791,0.0],[120.7906,-6.881,1.0082],[120.7902,-6.8824,0.0],[120.7907,-6.8818,0.0],[120.7917,-6.8802,1.0082]]],
[[[120.8135,-6.831,0.0],[120.809,-6.8184,4.5299],[120.8101,-6.8127,0.0],[120.8073,-6.8072,0.0],[120.8074,-6.7946,0.0],[120.7977,-6.7858,4.3011],[120.7939,-6.7802,1.6581],[120.7928,-6.7797,1.6581],[120.7939,-6.7826,4.4315],[120.7912,-6.781,3.8771],[120.7922,-6.7791,0.0],[120.7887,-6.7787,3.3548],[120.7866,-6.7866,19.803],[120.7834,-6.7884,9.304],[120.7796,-6.799,0.0],[120.7823,-6.8126,10.9264],[120.7867,-6.818,0.0],[120.7891,-6.8174,17.9638],[120.7918,-6.8208,11.372],[120.7936,-6.8623,3.5243],[120.7958,-6.8664,0.0],[120.7988,-6.8653,0.0],[120.8024,-6.8484,3.9477],[120.8079,-6.8443,0.0],[120.8106,-6.8384,6.2427],[120.8135,-6.8359,0.0],[120.8135,-6.831,0.0]]],
[[[120.972,-6.7514,0.0],[120.9688,-6.7508,0.0],[120.9665,-6.7532,4.4654],[120.9675,-6.7648,0.0],[120.9692,-6.7611,4.0768],[120.972,-6.7514,0.0]]],
[[[120.978,-6.7038,0.0],[120.9776,-6.7028,0.0],[120.9747,-6.705,0.0],[120.9753,-6.7049,0.0],[120.978,-6.7038,0.0]]],
[[[121.087,-6.7245,0.0],[121.0843,-6.7223,0.0],[121.0812,-6.7238,0.0],[121.0879,-6.7254,0.0],[121.087,-6.7245,0.0]]],
[[[121.0814,-6.723,0.0],[121.0799,-6.721,0.0],[121.0789,-6.7232,0.0],[121.0795,-6.7235,0.0],[121.0814,-6.723,0.0]]],
[[[121.0951,-6.7182,0.0],[121.0946,-6.717,0.0],[121.0943,-6.717,0.0],[121.0942,-6.7182,0.0],[121.0951,-6.7182,0.0]]],
[[[121.0577,-6.5704,0.0],[121.0577,-6.5726,0.0],[121.0582,-6.5721,0.0],[121.0583,-6.5711,0.0],[121.0577,-6.5704,0.0]]],
[[[121.2106,-6.7192,0.0],[121.2112,-6.7198,0.0],[121.2133,-6.7172,0.0],[121.2111,-6.7162,0.0],[121.2106,-6.7192,0.0]]],
[[[121.1564,-6.7183,0.0],[121.1546,-6.7154,0.0],[121.1538,-6.7177,0.0],[121.1529,-6.7169,0.0],[121.1482,-6.7293,0.0],[121.1417,-6.7376,0.0],[121.1402,-6.7439,0.0],[121.1412,-6.7455,0.0],[121.1424,-6.7385,0.0],[121.1436,-6.7411,0.0],[121.1449,-6.7362,0.0],[121.1478,-6.7357,0.0],[121.1492,-6.7331,0.0],[121.1526,-6.7221,0.0],[121.1564,-6.7183,0.0]]],
[[[121.1714,-6.5553,0.1049],[121.1716,-6.5571,0.0],[121.1719,-6.5544,0.0],[121.1712,-6.5523,0.0],[121.1711,-6.5527,0.0],[121.1714,-6.5553,0.1049]]],
[[[121.1333,-6.4958,2.4049],[121.1352,-6.4968,0.3908],[121.1354,-6.494,0.8026],[121.1318,-6.4904,0.0],[121.1325,-6.495,2.4049],[121.1333,-6.4958,2.4049]]],
[[[121.1305,-6.4616,0.0],[121.1323,-6.464,0.0],[121.1301,-6.4593,1.701],[121.126,-6.4537,0.0],[121.1259,-6.4542,0.0],[121.1305,-6.4616,0.0]]],
[[[121.0239,-6.5766,1.0699],[121.024,-6.5788,0.3947],[121.0254,-6.5758,1.0455],[121.0248,-6.5656,0.0],[121.0234,-6.5708,0.0],[121.0239,-6.5766,1.0699]]],
[[[120.9974,-6.5411,2.7531],[120.9995,-6.5461,0.0],[120.9996,-6.5313,0.0],[120.9972,-6.5355,2.8672],[120.9974,-6.5411,2.7531]]],
[[[120.9503,-6.5217,0.2735],[120.9499,-6.5231,0.0],[120.9541,-6.5087,0.0],[120.9526,-6.5117,0.2988],[120.9503,-6.5217,0.2735]]],
[[[120.989,-6.5039,3.5402],[120.9961,-6.5022,3.3932],[121.0015,-6.4941,0.0],[120.9971,-6.4948,0.4205],[120.9799,-6.5049,0.0],[120.9808,-6.505,0.0],[120.9859,-6.5039,2.602],[120.989,-6.5039,3.5402]]],
[[[121.0979,-6.5708,1.1902],[121.0984,-6.5741,0.4649],[121.1003,-6.5697,0.0],[121.0989,-6.5653,0.0],[121.098,-6.5681,2.6427],[121.0979,-6.5708,1.1902]]],
[[[121.0785,-6.567,0.0],[121.0784,-6.5694,0.0],[121.0801,-6.567,0.0],[121.0794,-6.5649,0.0],[121.0792,-6.5648,0.0],[121.0785,-6.567,0.0]]],
[[[121.0383,-6.5361,0.0],[121.0369,-6.5356,0.0],[121.0357,-6.5363,0.0],[121.0371,-6.5358,0.0],[121.0383,-6.5361,0.0]]],
[[[121.0954,-6.4122,0.6815],[121.0979,-6.411,0.0],[121.0965,-6.4058,0.0],[121.0957,-6.4087,0.5576],[121.0954,-6.4122,0.6815]]]]}}