{"type":"Feature","properties":{"GID_3":"IDN.10.1.18_1","GID_0":"IDN","country":"Indonesia","GID_1":"IDN.10_1","province":"JawaTengah","NL_NAME_1":"NA","GID_2":"IDN.10.1_1","county":"Banjarnegara","NL_NAME_2":"NA","city":"Susukan","VARNAME_3":"NA","NL_NAME_3":"NA","TYPE_3":"Kecamatan","ENGTYPE_3":"Sub-district","CC_3":"3304010","HASC_3":"NA","name":"Susukan.city"},
"geometry":{"type": "MultiPolygon","coordinates": [[[[109.4407,-7.4793,38.8988],[109.436,-7.4807,39.4902],[109.4338,-7.4778,45.9539],[109.4324,-7.4799,48.0714],[109.4266,-7.4796,48.2471],[109.4219,-7.4752,34.3884],[109.42,-7.4752,32.6226],[109.4187,-7.4789,33.542],[109.4136,-7.4785,33.6362],[109.4113,-7.4771,31.4471],[109.4128,-7.4708,31.5869],[109.4081,-7.4713,37.4076],[109.4025,-7.4672,28.2461],[109.4006,-7.4679,30.1789],[109.4036,-7.4732,27.9668],[109.4024,-7.4759,31.1585],[109.3941,-7.4744,37.6306],[109.3861,-7.4776,35.9212],[109.3807,-7.4828,32.2886],[109.3731,-7.4779,32.0888],[109.3719,-7.4847,32.901],[109.364,-7.4874,30.195],[109.3616,-7.4853,28.8758],[109.3617,-7.4888,35.7771],[109.3639,-7.4901,47.4308],[109.363,-7.4947,33.5236],[109.3659,-7.4973,37.7919],[109.3627,-7.5,46.4852],[109.3655,-7.5035,52.1409],[109.3624,-7.5151,98.3968],[109.3644,-7.5175,120.9683],[109.3695,-7.5169,133.9901],[109.3723,-7.5207,198.4393],[109.3766,-7.523,219.9941],[109.3819,-7.522,220.5081],[109.3841,-7.5244,250.6283],[109.3852,-7.5238,268.9918],[109.3876,-7.5302,341.343],[109.3958,-7.5369,773.8482],[109.3982,-7.5346,760.6376],[109.4041,-7.5408,681.3978],[109.4121,-7.5382999999999996,591.7923],[109.4161,-7.5388,661.6683],[109.4192,-7.5339,614.5001],[109.4256,-7.5368,564.7681],[109.4314,-7.537,652.8505],[109.4338,-7.5353,642.8175],[109.435,-7.5289,582.6422],[109.4456,-7.5247,508.9171],[109.4418,-7.5174,313.5036],[109.4472,-7.5044,150.6137],[109.4456,-7.4976,90.3011],[109.4492,-7.4954,75.0385],[109.4475,-7.4914,68.6356],[109.4514,-7.4847,42.0373],[109.4404,-7.4832,51.3724],[109.4402,-7.481,37.7594],[109.4418,-7.4798,37.7594],[109.4407,-7.4793,38.8988]]]]}}