{"type":"Feature","properties":{"GID_3":"IDN.2.1.4_1","GID_0":"IDN","country":"Indonesia","GID_1":"IDN.2_1","province":"Bali","NL_NAME_1":"NA","GID_2":"IDN.2.1_1","county":"Badung","NL_NAME_2":"NA","city":"Kuta","VARNAME_3":"NA","NL_NAME_3":"NA","TYPE_3":"Kecamatan","ENGTYPE_3":"Sub-district","CC_3":"5103020","HASC_3":"NA","name":"Kuta.city"},
"geometry":{"type": "MultiPolygon","coordinates": [[[[115.1899,-8.7698,3.2129],[115.193,-8.7706,1.8939],[115.1885,-8.7639,1.1429],[115.1869,-8.7654,2.4172],[115.1873,-8.7634,1.5828],[115.1859,-8.7628,0.0],[115.1856,-8.7647,2.4172],[115.1828,-8.7651,7.2599],[115.1807,-8.7593,4.8444],[115.1846,-8.7479,4.3217],[115.1893,-8.7478,0.0],[115.1846,-8.7478,4.3217],[115.1845,-8.7446,5.2089],[115.1904,-8.7377,2.0488],[115.187,-8.7347,10.0217],[115.1868,-8.7217,4.8549],[115.1848,-8.7218,6.6239],[115.1875,-8.7183,4.3977],[115.187,-8.7114,10.1217],[115.1835,-8.7051,10.0769],[115.182,-8.7048,8.9529],[115.1812,-8.6999,9.2672],[115.1762,-8.6961,7.4406],[115.1795,-8.6951,5.9541],[115.1798,-8.692,8.7648],[115.1778,-8.6917,8.6464],[115.1756,-8.6832,9.7264],[115.1673,-8.6822,16.9261],[115.159,-8.6842,14.7936],[115.1508,-8.6823,8.0256],[115.1615,-8.6975,6.321],[115.166,-8.7086,0.0],[115.1694,-8.7229,10.672],[115.1643,-8.7304,0.0],[115.1592,-8.7461,0.0],[115.1523,-8.7471,0.9872],[115.1522,-8.7503,0.963],[115.1595,-8.7503,1.4241],[115.1671,-8.7566,0.0],[115.1691,-8.7613,10.2117],[115.169,-8.7673,8.7159],[115.1826,-8.7692,7.1276],[115.1831,-8.7703,3.1636],[115.1899,-8.7698,3.2129]]]]}}