{"type":"Feature","properties":{"GID_3":"IDN.12.2.21_1","GID_0":"IDN","country":"Indonesia","GID_1":"IDN.12_1","province":"KalimantanBarat","NL_NAME_1":"NA","GID_2":"IDN.12.2_1","county":"KapuasHulu","NL_NAME_2":"NA","city":"Selimbau","VARNAME_3":"NA","NL_NAME_3":"NA","TYPE_3":"Kecamatan","ENGTYPE_3":"Sub-district","CC_3":"6108140","HASC_3":"NA","name":"Selimbau.city"},
"geometry":{"type": "MultiPolygon","coordinates": [[[[112.1022,0.4678,55.0017],[112.1099,0.4775,46.6525],[112.1109,0.4631,79.937],[112.1088,0.4511,73.6215],[112.1104,0.4465,73.4803],[112.1409,0.4408,76.1059],[112.1449,0.4384,57.4824],[112.1464,0.4314,79.904],[112.1487,0.4289,67.8829],[112.1566,0.4252,56.2872],[112.1546,0.4382,63.5719],[112.1585,0.4436,118.0893],[112.1623,0.4535,296.8979],[112.1729,0.4587,347.7461],[112.1769,0.4715,307.0502],[112.1806,0.4782,328.0643],[112.1809,0.4858,323.854],[112.1838,0.4915,349.6342],[112.1881,0.4953,312.122],[112.1925,0.4956,281.2766],[112.2055,0.491,284.3909],[112.216,0.491,244.1861],[112.2235,0.4939,221.3168],[112.2329,0.5047,132.8456],[112.2402,0.5061,110.9977],[112.2439,0.511,48.2805],[112.2524,0.5175,38.5665],[112.2578,0.5304,58.7263],[112.2601,0.5442,46.6831],[112.2769,0.57,40.6076],[112.2767,0.5942,43.9966],[112.2613,0.6173,132.961],[112.2623,0.6216,32.912],[112.2682,0.6307,29.9269],[112.2683,0.6383,26.1388],[112.2622,0.651,27.0162],[112.2463,0.6737,16.0],[112.2398,0.6984,26.4911],[112.2318,0.7112,36.816],[112.2239,0.7329,34.3766],[112.2223,0.7545,33.7448],[112.2317,0.7778,28.54],[112.2186,0.7778,29.3193],[112.2049,0.7734,28.7579],[112.1992,0.7678,29.239],[112.1956,0.7496,17.0],[112.2025,0.7165,27.8066],[112.2077,0.7012,39.1615],[112.2089,0.6899,19.0],[112.2061,0.6782,28.8055],[112.2007,0.6663,25.3259],[112.1979,0.667,32.0684],[112.1937,0.672,22.4287],[112.1782,0.667,16.5],[112.1699,0.672,16.5],[112.1607,0.6729,27.5462],[112.1561,0.6702,35.2688],[112.1589,0.6956,32.432],[112.1549,0.6996,35.0296],[112.1484,0.6976,34.5129],[112.1436,0.6927,32.1222],[112.1394,0.6964,32.4694],[112.1369,0.7031,22.3046],[112.1269,0.7162,19.0359],[112.1198,0.7158,18.8131],[112.114,0.7124,20.04],[112.106,0.6985,19.9458],[112.0985,0.6939,27.6305],[112.0902,0.6897,24.2786],[112.0826,0.6906,21.1131],[112.0751,0.6943,16.0],[112.0576,0.72,33.6534],[112.0496,0.7277,34.2012],[112.0504,0.7149,34.6449],[112.0534,0.7045,19.9571],[112.0598,0.6931,28.16],[112.0605,0.6874,28.9582],[112.0574,0.657,30.1244],[112.0594,0.6313,25.8453],[112.0573,0.6246,23.5773],[112.0597,0.6121,21.97],[112.0673,0.5972,31.1266],[112.076,0.5913,39.8697],[112.0881,0.5718,48.276],[112.1068,0.5506,39.7644],[112.1214,0.5289,36.1568],[112.1227,0.5245,44.0466],[112.1159,0.5242,35.0128],[112.0855,0.5138,36.3378],[112.0887,0.4999,40.9865],[112.0871,0.4964,38.4847],[112.074,0.4824,58.6257],[112.0656,0.4674,71.631],[112.0721,0.447,152.0623],[112.0765,0.445,140.9855],[112.0829,0.4457,223.6261],[112.0938,0.4562,129.0795],[112.1022,0.4678,55.0017]]]]}}