{"type":"Feature","properties":{"GID_3":"IDN.11.32.6_1","GID_0":"IDN","country":"Indonesia","GID_1":"IDN.11_1","province":"JawaTimur","NL_NAME_1":"NA","GID_2":"IDN.11.32_1","county":"Sidoarjo","NL_NAME_2":"NA","city":"Krembung","VARNAME_3":"NA","NL_NAME_3":"NA","TYPE_3":"Kecamatan","ENGTYPE_3":"Sub-district","CC_3":"3515030","HASC_3":"NA","name":"Krembung.city"},
"geometry":{"type": "MultiPolygon","coordinates": [[[[112.6512,-7.5462,5.2464],[112.6622,-7.5564,7.7579],[112.667,-7.5487,8.0992],[112.6691,-7.5485,8.6792],[112.6708,-7.5457,8.3797],[112.6698,-7.5435,8.3917],[112.667,-7.5438,8.1015],[112.6728,-7.5352,7.1333],[112.6662,-7.5284,5.0653],[112.6673,-7.5259,5.809],[112.6589,-7.5235,7.1046],[112.6619,-7.5146,8.5794],[112.6662,-7.515,6.5362],[112.6705,-7.5085,4.0751],[112.6619,-7.5059,6.7314],[112.6605,-7.5088,7.9288],[112.6558,-7.5073,7.6554],[112.6546,-7.51,5.6669],[112.6525,-7.5053,7.2301],[112.6445,-7.5024,6.9251],[112.646,-7.4995,7.0283],[112.6414,-7.4982,6.7988],[112.6424,-7.4946,6.9858],[112.639,-7.4937,7.5531],[112.6396,-7.4919,7.3612],[112.6333,-7.4903,11.8699],[112.632,-7.493,11.866],[112.63,-7.4935,11.0712],[112.63,-7.4922,10.2421],[112.62,-7.4896,9.9853],[112.621,-7.4848,9.017],[112.613,-7.4808,9.8009],[112.6134,-7.4777,12.776],[112.6098,-7.4789,11.5946],[112.608,-7.4772,13.178],[112.605,-7.4788,12.9563],[112.6064,-7.4844,16.1109],[112.6054,-7.4882,14.6072],[112.6089,-7.49,11.0097],[112.6075,-7.4928,12.0256],[112.6062,-7.4924,14.2167],[112.6026,-7.5012,12.1442],[112.6054,-7.5066,13.1888],[112.6087,-7.5072,11.2415],[112.6142,-7.5154,12.7064],[112.6199,-7.519,8.7457],[112.6305,-7.5327,9.4987],[112.6467,-7.537,9.0781],[112.6512,-7.5462,5.2464]]]]}}