{"type":"Feature","properties":{"GID_3":"IDN.9.24.32_1","GID_0":"IDN","country":"Indonesia","GID_1":"IDN.9_1","province":"JawaBarat","NL_NAME_1":"NA","GID_2":"IDN.9.24_1","county":"Sukabumi","NL_NAME_2":"NA","city":"Nagrak","VARNAME_3":"NA","NL_NAME_3":"NA","TYPE_3":"Kecamatan","ENGTYPE_3":"Sub-district","CC_3":"3202220","HASC_3":"NA","name":"Nagrak.city"},
"geometry":{"type": "MultiPolygon","coordinates": [[[[106.789,-6.8894,421.2588],[106.791,-6.8912,393.8424],[106.7943,-6.8895,403.7577],[106.7943,-6.888,403.7577],[106.7953,-6.8893,403.7577],[106.8014,-6.888,423.8941],[106.8016,-6.8892,423.8941],[106.8059,-6.8863,436.2603],[106.8194,-6.8852,477.3884],[106.8195,-6.8821,485.4722],[106.8216,-6.8802,483.7095],[106.8273,-6.8807,501.2462],[106.8276,-6.879,507.714],[106.8315,-6.8787,526.8538],[106.8351,-6.8761,548.4941],[106.8394,-6.8791,539.472],[106.8515,-6.8724,574.2452],[106.8568,-6.8614,606.7901],[106.8594,-6.8591,623.9042],[106.8597,-6.8549,631.217],[106.8623,-6.8537,649.1118],[106.8618,-6.8522,646.7283],[106.8644,-6.8492,683.6056],[106.8663,-6.8426,692.2062],[106.8704,-6.8408,709.9644],[106.8727,-6.8353,736.3463],[106.8766,-6.8342,766.9089],[106.8826,-6.8282,910.2781],[106.8967,-6.8193,1103.3027],[106.8984,-6.8154,1091.0588],[106.9198,-6.7985,1361.7721],[106.9321,-6.7781,1913.616],[106.9323,-6.7716,2223.5349],[106.9267,-6.7826,1941.2354],[106.9056,-6.7979,1229.7368],[106.8918,-6.8039,1044.911],[106.8876,-6.8083,1026.8247],[106.8742,-6.81,894.5],[106.87,-6.8038,805.5443],[106.8663,-6.8019,888.4998],[106.8495,-6.8127,627.3863],[106.845,-6.8126,630.192],[106.8419,-6.8145,586.7255],[106.8369,-6.8136,531.0618],[106.8329,-6.8155,528.6566],[106.8311,-6.8142,528.7583],[106.8277,-6.817,498.8828],[106.8179,-6.8189,491.9406],[106.8168,-6.8217,478.5858],[106.8134,-6.8231,484.1111],[106.8146,-6.825,516.6713],[106.8047,-6.8318,496.0393],[106.8045,-6.836,442.858],[106.8013,-6.8427,444.3067],[106.7962,-6.8454,416.4587],[106.7966,-6.848,416.9256],[106.7939,-6.8502,412.6881],[106.7937,-6.8531,403.2309],[106.7851,-6.8571,425.3869],[106.785,-6.8591,405.1193],[106.7881,-6.8613,451.2663],[106.7862,-6.8635,436.1782],[106.782,-6.8645,396.8602],[106.7801,-6.8675,386.1972],[106.7806,-6.8696,378.1798],[106.7778,-6.8721,374.2405],[106.778,-6.8772,364.843],[106.7802,-6.8798,360.946],[106.7769,-6.883,359.9236],[106.7829,-6.8843,397.1545],[106.789,-6.8894,421.2588]]]]}}