{"type":"Feature","properties":{"GID_3":"IDN.6.1.5_1","GID_0":"IDN","country":"Indonesia","GID_1":"IDN.6_1","province":"Gorontalo","NL_NAME_1":"NA","GID_2":"IDN.6.1_1","county":"Boalemo","NL_NAME_2":"NA","city":"Paguyaman","VARNAME_3":"NA","NL_NAME_3":"NA","TYPE_3":"Kecamatan","ENGTYPE_3":"Sub-district","CC_3":"7501050","HASC_3":"NA","name":"Paguyaman.city"},
"geometry":{"type": "MultiPolygon","coordinates": [[[[122.6166,0.5294,268.0237],[122.6186,0.5216,313.8083],[122.6291,0.5183,494.462],[122.6375,0.514,430.774],[122.6393,0.5116,361.9784],[122.6436,0.4758,1.9308],[122.6534,0.4854,0.0],[122.6554,0.4948,12.8714],[122.6523,0.4968,126.6369],[122.6524,0.5,15.3936],[122.6506,0.5019,37.5019],[122.6516,0.5078,0.0],[122.6482,0.5111,86.8715],[122.6466,0.5157,62.3491],[122.6478,0.5179,21.0037],[122.6495,0.5179,0.7926],[122.6465,0.5247,2.6518],[122.6439,0.5277,5.9184],[122.6377,0.5306,12.7236],[122.6359,0.5348,7.1353],[122.6309,0.533,15.3936],[122.6292,0.5347,9.1666],[122.6284,0.5396,11.2246],[122.6336,0.5479,19.2694],[122.6315,0.5534,86.4014],[122.633,0.5613,11.1133],[122.6386,0.5635,10.4715],[122.633,0.5766,8.8431],[122.631,0.5771,19.8026],[122.6319,0.5813,17.917],[122.63,0.5839,10.441],[122.6276,0.5831,58.7909],[122.6306,0.5891,12.5737],[122.6222,0.5927,13.0726],[122.6216,0.5972,28.8438],[122.6172,0.5963,27.7701],[122.6168,0.601,15.796],[122.6118,0.6065,15.9956],[122.6099,0.6114,25.1317],[122.6096,0.6195,15.22],[122.6028,0.6313,12.5201],[122.6067,0.6336,13.6534],[122.603,0.635,14.0131],[122.6037,0.6404,13.4854],[122.6027,0.6413,15.5282],[122.595,0.639,18.6475],[122.595,0.6405,16.5595],[122.5991,0.642,14.4281],[122.6003,0.6492,14.4416],[122.5987,0.6497,15.7377],[122.5964,0.6471,15.1876],[122.5947,0.6479,19.25],[122.5976,0.6516,22.7138],[122.5952,0.6527,16.4031],[122.5937,0.6573,22.1711],[122.5919,0.6524,16.2824],[122.5881,0.6534,16.522],[122.5884,0.6591,18.6752],[122.5862,0.6562,17.4868],[122.5841,0.6564,18.5897],[122.5854,0.6625,20.0275],[122.5804,0.6591,19.1068],[122.5796,0.6552,20.5292],[122.5782,0.6621,20.8715],[122.5768,0.6625,20.8715],[122.572,0.6587,20.9947],[122.5685,0.6606,19.3104],[122.5672,0.6646,18.8481],[122.5714,0.6631,19.7889],[122.5724,0.6647,19.4804],[122.5695,0.6669,21.7897],[122.5694,0.6692,19.4606],[122.5635,0.6729,20.5132],[122.5667,0.6774,22.003],[122.5634,0.6776,20.5142],[122.5558,0.6838,20.6981],[122.5504,0.6926,22.2311],[122.5438,0.6929,22.6654],[122.5435,0.6951,24.3079],[122.5482,0.6955,24.5954],[122.5452,0.6999,20.5],[122.5376,0.702,23.31],[122.5329,0.7003,25.7358],[122.5255,0.7042,24.4541],[122.5222,0.7039,23.0945],[122.5199,0.7099,24.3766],[122.5166,0.7078,25.139],[122.5128,0.709,27.461],[122.5107,0.7064,30.9282],[122.5061,0.7052,29.6651],[122.5045,0.7007,29.6481],[122.505,0.6908,33.9822],[122.5063,0.6896,36.8386],[122.5041,0.6838,55.201],[122.5041,0.6761,63.0757],[122.5076,0.6675,80.7365],[122.5087,0.6575,79.7235],[122.5174,0.6538,61.2234],[122.515,0.641,93.3418],[122.5079,0.6395,98.4814],[122.5062,0.6426,93.3855],[122.5033,0.6379,102.6619],[122.4982,0.6347,117.2831],[122.4928,0.6368,136.7982],[122.4926,0.6354,165.9067],[122.49,0.6354,83.857],[122.4869,0.6329,86.6418],[122.4859,0.6288,100.9324],[122.4619,0.626,154.8324],[122.4584,0.6344,256.5015],[122.4487,0.64,236.2957],[122.4422,0.6505,149.9222],[122.435,0.6491,127.5438],[122.435,0.6466,141.9226],[122.431,0.6397,148.8214],[122.4258,0.6442,131.6598],[122.4245,0.6485,137.3342],[122.421,0.6501,125.5132],[122.4179,0.6477,148.5466],[122.4159,0.643,160.1964],[122.4168,0.6393,143.8917],[122.426,0.6328,157.2436],[122.4266,0.6306,180.0659],[122.4334,0.631,225.8848],[122.4348,0.6329,208.0948],[122.4374,0.6318,220.4644],[122.4633,0.6084,112.1415],[122.4664,0.6044,131.605],[122.4668,0.6001,118.9168],[122.4746,0.584,136.5266],[122.4845,0.588,152.0512],[122.4949,0.588,174.8391],[122.5104,0.5857,302.1378],[122.5192,0.5797,178.5991],[122.5226,0.5805,177.286],[122.5307,0.576,171.207],[122.531,0.5782,158.2131],[122.541,0.5832,217.1072],[122.5415,0.5848,234.6077],[122.5456,0.5847,254.7481],[122.5459,0.5827,258.5305],[122.5498,0.5847,289.8597],[122.5579,0.5822,297.0159],[122.57,0.5949,315.1286],[122.5735,0.5931,182.3495],[122.5907,0.5939,379.097],[122.5934,0.5927,372.2603],[122.6011,0.5967,237.897],[122.6036,0.5956,110.4136],[122.6066,0.5984,127.872],[122.6088,0.5943,207.7482],[122.6106,0.5817,315.2926],[122.6181,0.5765,150.3533],[122.6231,0.5654,214.6694],[122.6232,0.5633,131.4174],[122.6201,0.5598,175.222],[122.6227,0.5558,176.164],[122.6207,0.5533,250.0455],[122.6228,0.5429,235.1366],[122.6166,0.5294,268.0237]]]]}}