{"type":"Feature","properties":{"GID_3":"IDN.23.3.16_1","GID_0":"IDN","country":"Indonesia","GID_1":"IDN.23_1","province":"Papua","NL_NAME_1":"NA","GID_2":"IDN.23.3_1","county":"BovenDigoel","NL_NAME_2":"NA","city":"Ninati","VARNAME_3":"NA","NL_NAME_3":"NA","TYPE_3":"Distrik","ENGTYPE_3":"District","CC_3":"9413052","HASC_3":"NA","name":"Ninati.city"},
"geometry":{"type": "MultiPolygon","coordinates": [[[[140.9017,-5.7753,67.951],[140.9075,-5.7861,47.0635],[140.9386,-5.8013,57.482],[140.9608,-5.8032,73.092],[141.0,-5.8026,85.8291],[141.0,-5.6472,137.3879],[140.9729,-5.6469,98.9963],[140.9646,-5.642,97.3658],[140.961,-5.6376,82.8829],[140.9441,-5.634,114.149],[140.9388,-5.6304,98.6172],[140.9159,-5.5982,127.7528],[140.9147,-5.5694,135.0218],[140.904,-5.5721,173.1045],[140.8853,-5.5721,145.1299],[140.8658,-5.5825,113.7416],[140.8656,-5.603,87.9733],[140.8677,-5.6086,80.9901],[140.8646,-5.6118,83.0346],[140.8658,-5.6144,72.3557],[140.864,-5.616,80.088],[140.8648,-5.6174,97.7064],[140.8681,-5.6166,78.0776],[140.8663,-5.6198,82.1368],[140.8687,-5.6222,86.8117],[140.8718,-5.6198,81.8449],[140.8696,-5.6223,86.8117],[140.8696,-5.6252,78.4052],[140.8714,-5.6286,74.4442],[140.8736,-5.6278,93.4706],[140.8728,-5.6288,105.2612],[140.8691,-5.6301,75.38],[140.8711,-5.6338,74.8581],[140.8663,-5.6342,71.2595],[140.8651,-5.6369,83.0742],[140.8592,-5.6348,75.1933],[140.8578,-5.637,86.066],[140.856,-5.6353,78.3186],[140.8541,-5.636,78.1928],[140.8511,-5.6434,98.3581],[140.8485,-5.6576,112.8602],[140.8487,-5.6597,93.1262],[140.8618,-5.6621,101.1732],[140.8681,-5.6651,100.2488],[140.8606,-5.6758,97.3596],[140.8569,-5.687,102.623],[140.8656,-5.7232,75.5823],[140.8776,-5.7239,83.3799],[140.8903,-5.7302,78.0832],[140.8973,-5.741,86.1468],[140.8986,-5.7632,82.3988],[140.9017,-5.7753,67.951]]]]}}