{"type":"Feature","properties":{"GID_3":"IDN.16.6.1_1","GID_0":"IDN","country":"Indonesia","GID_1":"IDN.16_1","province":"KepulauanRiau","NL_NAME_1":"NA","GID_2":"IDN.16.6_1","county":"Natuna","NL_NAME_2":"NA","city":"BunguranBarat","VARNAME_3":"NA","NL_NAME_3":"NA","TYPE_3":"Kecamatan","ENGTYPE_3":"Sub-district","CC_3":"2103040","HASC_3":"NA","name":"Bunguran_Barat.city"},
"geometry":{"type": "MultiPolygon","coordinates": [[[[108.1809,3.6974,29.9282],[108.1872,3.697,24.8638],[108.1952,3.7003,147.9179],[108.1976,3.7056,137.9477],[108.2036,3.7058,38.8087],[108.2167,3.7146,34.7298],[108.2224,3.7232,29.9262],[108.2266,3.7383,25.1228],[108.234,3.7493,1.4469],[108.2255,3.7551,11.9015],[108.2232,3.7586,16.8618],[108.2187,3.7605,2.0344],[108.2168,3.7669,8.1327],[108.2133,3.7707,8.6972],[108.2078,3.7735,6.2948],[108.2046,3.778,10.9026],[108.1988,3.78,5.0021],[108.1993,3.7817,0.0],[108.1982,3.7802,5.0021],[108.1938,3.7807,7.0983],[108.1943,3.7818,7.0983],[108.1884,3.7834,3.1778],[108.1845,3.78,2.2801],[108.1843,3.7769,16.5182],[108.1812,3.7778,2.8066],[108.1784,3.7752,10.3193],[108.1757,3.775,3.2717],[108.1731,3.772,9.5965],[108.1727,3.7677,9.5882],[108.1674,3.7654,19.2192],[108.1543,3.765,14.7348],[108.1502,3.7612,5.4566],[108.1495,3.76,0.0],[108.1517,3.7585,0.0],[108.1516,3.7549,4.4046],[108.149,3.7507,0.0],[108.1508,3.7425,4.0884],[108.1497,3.7403,4.7855],[108.1479,3.7404,4.7855],[108.1481,3.7439,0.0],[108.144,3.7468,7.1169],[108.1416,3.7513,6.4288],[108.1349,3.7502,0.0],[108.1345,3.7457,1.9056],[108.131,3.7458,6.3164],[108.1265,3.7486,0.9064],[108.1251,3.7462,3.8247],[108.1218,3.7467,5.8545],[108.118,3.7439,4.2165],[108.1153,3.7391,3.2677],[108.1181,3.7298,1.8096],[108.1208,3.7276,2.8258],[108.12,3.726,1.467],[108.1212,3.7237,12.9592],[108.1133,3.7229,3.2849],[108.1125,3.7165,5.0592],[108.1105,3.713,2.2863],[108.1102,3.7097,3.3938],[108.1175,3.7087,99.9401],[108.1298,3.7008,145.4479],[108.1371,3.6999,63.3868],[108.1504,3.6869,57.9344],[108.1564,3.6788,69.3456],[108.1721,3.6915,39.418],[108.178,3.6929,39.3892],[108.1778,3.6958,61.5928],[108.1809,3.6974,29.9282]]],
[[[108.0623,3.7461,18.2477],[108.0648,3.7511,16.2747],[108.0635,3.7524,0.0],[108.0618,3.7478,11.5289],[108.0579,3.7446,43.3514],[108.0594,3.7436,0.0],[108.0623,3.7461,18.2477]]],
[[[108.1176,3.7624,0.0],[108.1154,3.7626,1.9385],[108.115,3.7581,3.1207],[108.1166,3.7562,0.8253],[108.1145,3.7527,0.0],[108.1208,3.7553,1.2455],[108.1257,3.7553,0.0],[108.1261,3.7572,0.0],[108.1226,3.7566,5.6968],[108.119,3.7588,0.0],[108.12,3.7614,0.0],[108.1176,3.7624,0.0]]],
[[[108.1146,3.7664,17.8484],[108.1172,3.7675,0.0],[108.117,3.7695,0.0],[108.1128,3.7726,4.1512],[108.1109,3.7711,27.2432],[108.1109,3.767,13.1461],[108.1123,3.7657,13.1461],[108.1146,3.7664,17.8484]]],
[[[108.1704,3.7907,0.0],[108.1709,3.7901,0.0],[108.1715,3.7908,0.0],[108.1711,3.7912,0.0],[108.1704,3.7907,0.0]]],
[[[108.2237,3.8228,15.9301],[108.2184,3.8289,4.1178],[108.2305,3.8211,0.5],[108.2363,3.8107,3.9798],[108.2346,3.7906,6.0556],[108.2314,3.788,8.3202],[108.2285,3.7891,0.0],[108.2235,3.7848,0.0],[108.2237,3.7828,0.0],[108.2267,3.7775,0.6317],[108.2397,3.773,0.0],[108.246,3.7681,0.0],[108.2528,3.781,21.692],[108.2633,3.7894,26.7015],[108.2767,3.791,22.5878],[108.2953,3.8012,23.2681],[108.2973,3.8009,22.262],[108.2927,3.8064,23.2823],[108.292,3.8102,22.9532],[108.2897,3.8109,24.1502],[108.2884,3.818,12.7789],[108.2842,3.8242,21.2854],[108.282,3.8245,23.316],[108.2828,3.8282,21.9779],[108.2795,3.8339,21.3283],[108.2636,3.8521,32.4394],[108.2495,3.8589,32.298],[108.2303,3.8643,26.3553],[108.2265,3.8674,32.7242],[108.2301,3.8891,51.4126],[108.2295,3.8943,41.6897],[108.22,3.9106,38.7102],[108.2163,3.9138,50.1122],[108.213,3.9138,38.9569],[108.2072,3.9206,32.4846],[108.205,3.9424,30.5177],[108.2024,3.953,28.4823],[108.1955,3.9634,37.2877],[108.1911,3.9683,44.4322],[108.1758,3.9788,50.8553],[108.1542,3.9907,38.7028],[108.1508,3.9873,34.7425],[108.1511,3.9857,36.8599],[108.1596,3.9814,38.7471],[108.158,3.976,51.6583],[108.1597,3.9698,37.4898],[108.1525,3.9598,25.8851],[108.1541,3.9548,25.5939],[108.1525,3.9478,29.5107],[108.1551,3.9438,23.4641],[108.152,3.9425,27.8966],[108.1532,3.9379,19.536],[108.1508,3.9362,32.2876],[108.1545,3.9317,22.2544],[108.1518,3.9296,17.9383],[108.0659,3.9226,24.0256],[108.051,3.9304,10.7799],[108.0474,3.9342,5.589],[108.0362,3.9358,22.5113],[108.0186,3.9262,14.0813],[108.009,3.9181,1.0328],[108.0101,3.9157,1.7],[108.0146,3.9135,9.435],[108.0159,3.9105,1.3815],[108.0257,3.9093,0.0],[108.0308,3.8983,5.7045],[108.0303,3.8924,4.382],[108.0236,3.8928,4.4826],[108.0246,3.8898,3.2525],[108.0182,3.8855,4.8595],[108.0193,3.8782,0.0],[108.0212,3.8764,0.0],[108.0264,3.8773,9.3469],[108.0286,3.8734,0.0],[108.0314,3.8725,6.0735],[108.0329,3.8684,0.0],[108.0392,3.8646,0.0],[108.0454,3.8643,4.7095],[108.0489,3.8598,2.7286],[108.0526,3.8493,0.0],[108.0581,3.8444,5.4058],[108.0629,3.8343,0.0],[108.073,3.8329,0.0],[108.0764,3.8347,0.0],[108.0814,3.8328,0.0],[108.0859,3.8332,0.0],[108.09,3.8294,0.0],[108.0926,3.8207,2.6785],[108.1005,3.8208,0.8388],[108.108,3.8257,5.5156],[108.1178,3.826,5.9256],[108.128,3.8213,6.3492],[108.1317,3.8162,0.0],[108.1468,3.8143,2.3582],[108.1481,3.8108,0.9332],[108.1545,3.8042,0.0],[108.1622,3.8034,0.0],[108.169,3.8078,0.0],[108.1729,3.8045,0.0],[108.182,3.8026,1.3899],[108.1854,3.8055,4.842],[108.1897,3.805,0.0],[108.1933,3.7998,0.0],[108.2073,3.8019,0.0],[108.2078,3.7997,0.0],[108.2159,3.7918,0.0],[108.2232,3.7886,0.0],[108.2269,3.7913,0.0],[108.2305,3.8051,2.6013],[108.2296,3.8134,12.9496],[108.2237,3.8228,15.9301]]],
[[[108.0038,3.8179,0.0],[108.0013,3.8182,0.0],[107.9948,3.8144,0.0],[107.9917,3.8102,0.0],[107.9941,3.8094,0.0],[107.9955,3.8116,9.9806],[107.9995,3.8106,1.5533],[108.0021,3.8115,1.5137],[107.9998,3.8115,1.3488],[108.0006,3.8127,14.6524],[108.0042,3.8128,12.9278],[108.0057,3.8105,4.3806],[108.0035,3.8099,0.0],[108.0031,3.808,0.0],[108.0114,3.8072,6.6005],[108.0156,3.8038,7.6135],[108.0127,3.7971,21.0503],[108.0175,3.7924,3.8802],[108.0173,3.7872,2.1686],[108.0134,3.7854,14.1548],[108.0126,3.7796,70.6174],[108.0141,3.7781,13.9624],[108.0256,3.7762,10.4183],[108.0247,3.7744,2.0046],[108.026,3.7757,10.4183],[108.0262,3.7779,34.8735],[108.0291,3.7794,4.2649],[108.0308,3.7782,5.8354],[108.0312,3.7755,4.8093],[108.0346,3.7752,0.6527],[108.0338,3.7681,3.5839],[108.0298,3.7645,0.0],[108.0302,3.763,0.0],[108.0398,3.7666,2.3822],[108.04,3.7737,0.0],[108.0373,3.7771,24.5796],[108.0382,3.7832,20.9268],[108.0359,3.7843,0.0],[108.033,3.7823,4.5192],[108.0309,3.7847,0.0],[108.0312,3.7886,0.0],[108.0291,3.7893,1.0007],[108.0298,3.7933,2.5766],[108.0348,3.7925,0.0],[108.0354,3.7943,0.329],[108.0333,3.7971,0.0],[108.0331,3.7947,2.6694],[108.0317,3.796,0.6356],[108.0307,3.7946,1.5801],[108.0313,3.8033,0.0],[108.0194,3.8148,19.8807],[108.0166,3.8159,0.0],[108.0125,3.8141,3.0819],[108.0038,3.8179,0.0]]],
[[[107.9926,3.8066,0.0],[107.993,3.806,0.0],[107.9937,3.8065,0.0],[107.9932,3.807,0.0],[107.9926,3.8066,0.0]]],
[[[108.0376,3.8626,3.7441],[108.0373,3.8639,1.3338],[108.0357,3.8642,0.4035],[108.0355,3.8622,1.621],[108.0376,3.8626,3.7441]]],
[[[108.003,3.8642,4.9154],[108.0005,3.8647,0.0],[108.0026,3.863,0.0],[108.0049,3.8633,0.0],[108.003,3.8642,4.9154]]],
[[[108.0454,3.8512,2.4676],[108.0453,3.8523,0.0],[108.043,3.8519,3.515],[108.0437,3.8495,0.9164],[108.0452,3.8495,1.0695],[108.0454,3.8512,2.4676]]],
[[[108.0339,3.8643,0.0],[108.0344,3.864,0.0],[108.0347,3.8645,0.4035],[108.0341,3.8647,0.0],[108.0339,3.8643,0.0]]],
[[[108.0283,3.8673,0.0],[108.0293,3.8681,2.6116],[108.0287,3.8688,0.6455],[108.028,3.8683,0.0],[108.0283,3.8673,0.0]]],
[[[107.9278,3.8733,0.0],[107.9283,3.8742,0.0],[107.9258,3.8769,0.0],[107.9263,3.8752,0.0],[107.9278,3.8733,0.0]]],
[[[107.9008,3.9127,9.0426],[107.8966,3.9134,9.2042],[107.8951,3.9119,16.7477],[107.8946,3.893,0.0],[107.9021,3.8881,1.4032],[107.9036,3.8839,25.2867],[107.9129,3.8823,34.7612],[107.9141,3.8854,20.0592],[107.9193,3.8891,10.9571],[107.921,3.9004,17.6595],[107.9121,3.9082,14.4445],[107.9035,3.9095,5.8105],[107.9008,3.9127,9.0426]]]]}}