{"type":"Feature","properties":{"GID_3":"IDN.32.29.13_1","GID_0":"IDN","country":"Indonesia","GID_1":"IDN.32_1","province":"SumateraUtara","NL_NAME_1":"NA","GID_2":"IDN.32.29_1","county":"Simalungun","NL_NAME_2":"NA","city":"Hatonduhan","VARNAME_3":"NA","NL_NAME_3":"NA","TYPE_3":"Kecamatan","ENGTYPE_3":"Sub-district","CC_3":"1209061","HASC_3":"NA","name":"Hatonduhan.city"},
"geometry":{"type": "MultiPolygon","coordinates": [[[[99.1284,2.7022,774.5555],[99.1357,2.7126,703.3729],[99.1466,2.7194,528.1564],[99.1695,2.7484,481.4985],[99.1762,2.7523,347.9468],[99.1841,2.7544,340.7992],[99.1991,2.7677,274.1555],[99.2079,2.77,265.9836],[99.2122,2.7857,340.9021],[99.2161,2.7897,321.9725],[99.2168,2.794,296.7666],[99.22,2.795,298.2421],[99.2283,2.8023,302.3171],[99.2396,2.8067,271.4218],[99.2411,2.8092,270.5971],[99.2483,2.8125,245.2528],[99.2511,2.8237,187.5527],[99.2575,2.8305,197.9073],[99.2566,2.8371,168.8975],[99.26,2.8419,185.7081],[99.2586,2.8458,164.7566],[99.2635,2.8494,176.3792],[99.2611,2.8529,194.3914],[99.2299,2.8428,236.2108],[99.217,2.8407,264.1597],[99.206,2.8357,272.9237],[99.2017,2.8486,266.7286],[99.1949,2.8595,258.3079],[99.1943,2.8666,257.3491],[99.191,2.8701,239.5772],[99.1802,2.8675,270.0998],[99.1755,2.8641,284.0406],[99.1709,2.8575,302.1866],[99.1731,2.8492,303.735],[99.1698,2.8331,326.8851],[99.1537,2.8242,359.8555],[99.1399,2.808,410.5189],[99.1396,2.8058,415.7475],[99.1296,2.803,444.3096],[99.1169,2.7936,490.1987],[99.1126,2.7945,495.2388],[99.1043,2.7915,543.6644],[99.0958,2.7925,578.2097],[99.0792,2.7617,635.3317],[99.0656,2.7473,738.0139],[99.0528,2.7246,940.8514],[99.0136,2.7033,1255.8422],[99.0166,2.7017,1287.0089],[99.0184,2.6956,1348.9805],[99.0151,2.6743,1370.187],[99.0149,2.6615,1558.0117],[99.0195,2.6527,1562.5315],[99.0391,2.6386,1546.5884],[99.0423,2.6337,1718.7063],[99.0495,2.629,1681.7903],[99.0641,2.6112,1743.5428],[99.0741,2.6046,2081.1675],[99.0729,2.6135,1764.6045],[99.0746,2.6454,1370.1726],[99.0811,2.6523,1252.1777],[99.0908,2.6699,1126.0032],[99.1077,2.6785,999.7736],[99.1193,2.6811,947.535],[99.125,2.6968,829.1127],[99.1284,2.7022,774.5555]]]]}}