{"type":"Feature","properties":{"GID_3":"IDN.1.6.8_1","GID_0":"IDN","country":"Indonesia","GID_1":"IDN.1_1","province":"Aceh","NL_NAME_1":"NA","GID_2":"IDN.1.6_1","county":"AcehSingkil","NL_NAME_2":"NA","city":"Singkil","VARNAME_3":"NA","NL_NAME_3":"NA","TYPE_3":"Kecamatan","ENGTYPE_3":"Sub-district","CC_3":"1102020","HASC_3":"NA","name":"Singkil.city"},
"geometry":{"type": "MultiPolygon","coordinates": [[[[97.868,2.288,3.24],[97.8644,2.2904,3.3144],[97.8609,2.2979,2.7732],[97.8613,2.3021,2.7859],[97.857,2.3076,2.7715],[97.8587,2.3101,1.8112],[97.8654,2.3128,2.9555],[97.8688,2.3202,3.719],[97.8662,2.3271,4.451],[97.8622,2.3277,4.2009],[97.862,2.3315,4.3693],[97.8634,2.3314,4.4285],[97.8655,2.3361,4.7098],[97.8649,2.3385,4.5828],[97.8678,2.3404,4.3625],[97.8696,2.3461,8.8334],[97.875,2.3506,3.2308],[97.8742,2.3525,2.8228],[97.8704,2.3531,9.4964],[97.8707,2.355,3.0296],[97.875,2.3551,4.1807],[97.8573,2.3613,7.9375],[97.7633,2.4399,17.3084],[97.7508,2.3955,25.911],[97.7399,2.3662,21.5756],[97.7339,2.3399,17.3113],[97.7744,2.3182,2.9853],[97.7825,2.3168,1.2248],[97.7776,2.3029,0.5],[97.7721,2.2981,1.0383],[97.7682,2.2969,3.801],[97.7632,2.3005,0.5],[97.7611,2.3109,0.5],[97.758,2.3149,1.7539],[97.752,2.3159,0.6215],[97.7497,2.3121,1.7477],[97.7502,2.3079,2.1876],[97.7534,2.3031,6.3308],[97.7543,2.2959,0.0],[97.7537,2.2743,0.0],[97.7713,2.2546,2.8239],[97.7754,2.2368,0.0],[97.784,2.2307,0.0],[97.7858,2.2334,0.0],[97.7949,2.2391,0.0],[97.7967,2.2446,0.0],[97.7942,2.2513,5.5467],[97.7947,2.2546,1.7366],[97.7999,2.2658,0.0],[97.8051,2.2682,0.0],[97.829,2.2647,0.0],[97.8637,2.2466,0.0],[97.8673,2.2482,5.5149],[97.8677,2.2516,0.3248],[97.8711,2.2521,0.0],[97.8681,2.2558,0.0],[97.8634,2.2541,0.0],[97.8661,2.2568,0.0],[97.8656,2.2584,0.0],[97.8595,2.2594,0.0],[97.8621,2.2643,0.0],[97.8686,2.2699,0.0],[97.8666,2.2817,3.2941],[97.8683,2.2843,2.8302],[97.868,2.288,3.24]],
[[97.8624,2.3498,6.0399],[97.8637,2.3499,1.9766],[97.864,2.3486,1.9895],[97.8614,2.3488,6.0399],[97.8624,2.3498,6.0399]]]]}}