{"type":"Feature","properties":{"GID_3":"IDN.1.2.1_1","GID_0":"IDN","country":"Indonesia","GID_1":"IDN.1_1","province":"Aceh","NL_NAME_1":"NA","GID_2":"IDN.1.2_1","county":"AcehBarat","NL_NAME_2":"NA","city":"AronganLambalek","VARNAME_3":"NA","NL_NAME_3":"NA","TYPE_3":"Kecamatan","ENGTYPE_3":"Sub-district","CC_3":"1107062","HASC_3":"NA","name":"Arongan_Lambalek.city"},
"geometry":{"type": "MultiPolygon","coordinates": [[[[95.9822,4.308,5.4364],[95.9793,4.311,7.6167],[95.9808,4.3142,2.5589],[95.9787,4.3203,3.1402],[95.983,4.3341,5.8054],[95.9827,4.345,11.5785],[95.9786,4.3582,18.1654],[95.9614,4.3861,21.2774],[95.9403,4.3927,22.237],[95.9266,4.3946,8.847],[95.9166,4.3983,19.8007],[95.9068,4.4042,32.9328],[95.8901,4.3795,9.8102],[95.8802,4.3724,2.755],[95.8767,4.3675,0.0],[95.9057,4.3376,0.0],[95.9683,4.2644,0.0],[95.9716,4.2723,1.4391],[95.9788,4.2784,0.9107],[95.9934,4.2758,4.479],[96.0123,4.2763,8.1587],[96.0215,4.2799,10.5677],[96.0254,4.2847,12.2797],[96.0303,4.3068,11.8974],[96.0044,4.3089,8.707],[96.0007,4.3032,14.4263],[95.9961,4.3015,10.3986],[95.9895,4.3088,2.9142],[95.9822,4.308,5.4364]]]]}}