{"type":"Feature","properties":{"GID_3":"IDN.16.1.4_1","GID_0":"IDN","country":"Indonesia","GID_1":"IDN.16_1","province":"KepulauanRiau","NL_NAME_1":"NA","GID_2":"IDN.16.1_1","county":"Batam","NL_NAME_2":"NA","city":"Belakangpadang","VARNAME_3":"NA","NL_NAME_3":"NA","TYPE_3":"Kecamatan","ENGTYPE_3":"Sub-district","CC_3":"2171010","HASC_3":"NA","name":"Belakangpadang.city"},
"geometry":{"type": "MultiPolygon","coordinates": [[[[103.7725,0.9122,0.7996],[103.7725,0.9114,0.8617],[103.7738,0.9113,0.0],[103.7737,0.9124,0.0],[103.7725,0.9122,0.7996]]],
[[[103.7632,0.9361,0.0],[103.7629,0.9355,0.0],[103.7641,0.9351,0.0],[103.7642,0.9354,0.0],[103.7632,0.9361,0.0]]],
[[[103.7712,0.9369,3.8095],[103.7703,0.9381,4.9189],[103.7682,0.9356,0.0],[103.7693,0.9335,2.3417],[103.7708,0.9351,2.2998],[103.7712,0.9369,3.8095]]],
[[[103.7752,0.9467,6.8188],[103.7727,0.9481,1.4341],[103.7712,0.9462,4.7736],[103.7676,0.9462,2.4605],[103.7728,0.939,1.6721],[103.7709,0.9311,1.521],[103.774,0.9319,0.0],[103.778,0.9397,0.0],[103.7759,0.9416,10.8411],[103.7769,0.9462,6.8188],[103.7752,0.9467,6.8188]]],
[[[103.7876,0.9391,19.8907],[103.7905,0.9361,1.7209],[103.789,0.942,11.5171],[103.7855,0.9439,0.0],[103.7854,0.9421,15.4109],[103.7876,0.9391,19.8907]]],
[[[103.7897,0.9658,0.0],[103.7864,0.967,6.0485],[103.7801,0.9639,1.0869],[103.7836,0.9609,3.4829],[103.7857,0.9612,14.6121],[103.7872,0.9586,0.0],[103.7919,0.9589,11.3245],[103.7945,0.9569,0.0],[103.793,0.9637,24.1233],[103.7897,0.9658,0.0]]],
[[[103.8063,0.9674,0.0],[103.8058,0.9714,1.3959],[103.8002,0.9694,3.259],[103.7993,0.967,0.0],[103.8024,0.9608,3.173],[103.8067,0.964,0.0],[103.8075,0.9664,2.3554],[103.8063,0.9674,0.0]]],
[[[103.8062,0.9732,0.0],[103.8063,0.9728,0.0],[103.807,0.9729,0.0],[103.8067,0.9733,0.0],[103.8062,0.9732,0.0]]],
[[[103.7645,0.9475,1.1706],[103.7645,0.9456,3.13],[103.7662,0.9456,6.1585],[103.7666,0.9485,6.3867],[103.7645,0.9475,1.1706]]],
[[[103.7658,0.9645,5.2553],[103.7673,0.9649,0.0],[103.7672,0.9668,5.1688],[103.7653,0.9658,6.8941],[103.7658,0.9645,5.2553]]],
[[[103.7124,0.9667,2.5891],[103.709,0.9674,2.21],[103.7087,0.966,6.0233],[103.71,0.9653,0.0],[103.7124,0.9667,2.5891]]],
[[[103.7766,0.9728,5.1556],[103.7723,0.9795,0.0],[103.7672,0.979,0.0],[103.7658,0.9775,0.0],[103.772,0.9694,2.3407],[103.7766,0.9728,5.1556]]],
[[[103.7802,0.9781,0.0],[103.7813,0.9786,0.0],[103.7798,0.9805,1.1182],[103.7789,0.9796,1.8754],[103.7802,0.9781,0.0]]],
[[[103.8147,0.9796,0.0],[103.8131,0.9852,0.0],[103.8092,0.9874,0.0],[103.8097,0.9798,0.0],[103.8116,0.9777,0.927],[103.8147,0.9796,0.0]]],
[[[103.8113,1.0017,4.7566],[103.8113,1.0033,3.0814],[103.8092,1.0014,1.8344],[103.8093,0.9978,0.0],[103.8108,0.9981,0.8914],[103.81,0.9998,1.0614],[103.8113,1.0017,4.7566]]],
[[[103.7795,1.0444,0.0],[103.7787,1.0477,0.0],[103.7752,1.0505,0.0],[103.7693,1.0488,1.4927],[103.7707,1.0331,4.6402],[103.7649,1.0309,0.8828],[103.7562,1.0344,1.2955],[103.75,1.0313,0.0],[103.7492,1.0294,5.6641],[103.7507,1.0263,1.3055],[103.7559,1.0249,1.2262],[103.7625,1.013,1.2953],[103.764,1.0127,1.2902],[103.7655,1.0147,2.4128],[103.7654,1.0115,0.0],[103.7684,1.0099,1.8522],[103.7652,1.0097,1.7093],[103.7678,1.0006,0.5679],[103.7718,1.0045,0.7209],[103.7742,1.0046,0.0],[103.7755,1.0021,1.0993],[103.7718,0.9991,0.9019],[103.776,0.9937,0.5715],[103.7746,0.9888,0.0],[103.7778,0.9863,5.1682],[103.782,0.9786,0.0],[103.7895,0.9735,0.0],[103.7928,0.9732,0.0],[103.7954,0.9691,5.1821],[103.7981,0.9685,1.2731],[103.8008,0.9715,3.4314],[103.8056,0.9731,1.6092],[103.8008,0.9785,6.3389],[103.8009,0.9907,2.4361],[103.7969,0.9968,1.8049],[103.798,1.0055,0.0],[103.7969,1.0108,0.0],[103.7951,1.0119,2.8942],[103.7993,1.0167,2.5726],[103.7996,1.0251,16.7117],[103.795,1.0288,4.1234],[103.7965,1.0294,6.2965],[103.7971,1.0335,2.4967],[103.7924,1.0412,8.4424],[103.7919,1.0462,0.0],[103.7894,1.0464,1.5113],[103.7881,1.0433,7.9395],[103.7867,1.0432,1.3235],[103.788,1.0367,5.5829],[103.7832,1.0367,4.6604],[103.7862,1.0395,0.0],[103.7849,1.0413,3.0529],[103.7823,1.0407,1.0755],[103.7795,1.0444,0.0]]],
[[[103.8207,0.9571,0.0],[103.8212,0.9567,0.0],[103.8215,0.9575,0.0],[103.8211,0.9578,0.0],[103.8207,0.9571,0.0]]],
[[[103.8238,0.9646,3.1579],[103.8252,0.964,0.0],[103.8209,0.9709,0.0],[103.8228,0.9652,3.1579],[103.8238,0.9646,3.1579]]],
[[[103.8147,0.9739,0.0],[103.8148,0.9746,0.0],[103.8143,0.9749,0.0],[103.8142,0.9741,0.0],[103.8147,0.9739,0.0]]],
[[[103.8227,0.9775,0.0],[103.8228,0.9781,0.0],[103.8214,0.9763,0.0],[103.8222,0.9764,0.0],[103.8227,0.9775,0.0]]],
[[[103.8177,0.9818,0.0],[103.8188,0.9783,0.0],[103.8211,0.9827,0.0],[103.8198,0.9837,1.565],[103.8177,0.9818,0.0]]],
[[[103.8135,0.99,2.1325],[103.8123,0.9918,0.0],[103.8103,0.9914,1.6415],[103.8158,0.985,0.0],[103.8157,0.9879,1.2775],[103.8135,0.99,2.1325]]],
[[[103.82,1.0075,0.0],[103.8213,1.0063,0.0],[103.8221,1.0062,0.0],[103.8215,1.0084,0.0],[103.82,1.0075,0.0]]],
[[[103.8221,1.0384,1.7867],[103.8288,1.0368,0.0],[103.8285,1.039,3.3682],[103.8237,1.0413,5.3199],[103.8209,1.0402,8.8527],[103.8221,1.0384,1.7867]]],
[[[103.8241,0.9952,0.0],[103.8272,0.9953,0.0],[103.8289,0.9969,0.0],[103.8286,1.0056,0.0],[103.8229,0.9989,8.2029],[103.8241,0.9952,0.0]]],
[[[103.8347,1.0334,0.5128],[103.8347,1.034,0.0],[103.834,1.034,0.0],[103.8342,1.0335,0.5128],[103.8347,1.0334,0.5128]]],
[[[103.8371,1.0362,0.0],[103.8355,1.0387,2.9246],[103.833,1.0378,2.959],[103.8342,1.0366,0.612],[103.8371,1.0362,0.0]]],
[[[103.8318,1.0517,0.0],[103.8286,1.0541,0.0],[103.8274,1.052,14.9478],[103.8254,1.0532,3.8086],[103.8249,1.051,10.3461],[103.8188,1.0491,2.819],[103.8189,1.0474,6.0927],[103.824,1.0438,4.6574],[103.8267,1.0455,8.3054],[103.8296,1.0438,6.6236],[103.8322,1.0474,1.0734],[103.8302,1.0496,5.0085],[103.8318,1.0517,0.0]]],
[[[103.807,1.0375,2.0222],[103.8042,1.0399,3.3072],[103.8018,1.0385,0.0],[103.8041,1.0356,10.4074],[103.8095,1.0355,1.8405],[103.807,1.0375,2.0222]]],
[[[103.7972,1.0409,2.9237],[103.7985,1.0399,0.0],[103.7991,1.042,5.1759],[103.7978,1.0424,0.0],[103.7972,1.0409,2.9237]]],
[[[103.7974,1.0453,6.8317],[103.7949,1.0453,14.4859],[103.7959,1.041,2.9237],[103.7973,1.0425,3.7934],[103.7974,1.0453,6.8317]]],
[[[103.814,1.0588,1.0609],[103.8107,1.0596,1.8968],[103.811,1.056,1.1682],[103.8147,1.0571,0.8476],[103.814,1.0588,1.0609]]],
[[[103.8029,1.0151,0.6726],[103.8029,1.0146,0.6726],[103.8033,1.0145,0.6726],[103.8033,1.015,0.6726],[103.8029,1.0151,0.6726]]],
[[[103.8055,1.0162,3.4491],[103.8066,1.0146,0.0],[103.8059,1.019,1.7611],[103.8029,1.0207,0.0],[103.8027,1.0197,0.0],[103.8055,1.0162,3.4491]]],
[[[103.7974,1.0275,3.6787],[103.7992,1.0275,6.9621],[103.7984,1.0302,8.4648],[103.797,1.029,6.2965],[103.7974,1.0275,3.6787]]],
[[[103.8043,1.032,0.0],[103.8013,1.0333,0.0],[103.8028,1.0248,0.0],[103.8044,1.0256,0.0],[103.8043,1.032,0.0]]],
[[[103.7609,1.0116,0.858],[103.7603,1.0147,0.0],[103.7563,1.0182,0.8839],[103.7548,1.0157,3.9324],[103.7549,1.0082,18.5615],[103.7572,1.0035,0.0],[103.761,1.0063,0.0],[103.7605,1.0086,1.8763],[103.7624,1.0099,1.0214],[103.7609,1.0116,0.858]]],
[[[103.7531,1.0187,0.3105],[103.7544,1.018,0.3105],[103.7548,1.019,0.0],[103.7536,1.0192,0.0],[103.7531,1.0187,0.3105]]],
[[[103.7179,1.1053,0.0],[103.7188,1.1045,0.0],[103.7193,1.1049,0.0],[103.7183,1.1061,1.497],[103.7179,1.1053,0.0]]],
[[[103.7153,1.1159,9.7737],[103.7139,1.1171,0.0],[103.712,1.1173,2.2286],[103.7165,1.1145,0.0],[103.7153,1.1159,9.7737]]],
[[[103.8062,1.0609,0.0],[103.8064,1.0619,0.0],[103.8055,1.062,1.1474],[103.8055,1.0611,1.1474],[103.8062,1.0609,0.0]]],
[[[103.7813,1.0897,0.0],[103.7826,1.0921,0.0],[103.7804,1.0909,2.5625],[103.7802,1.0883,0.0],[103.7813,1.0897,0.0]]],
[[[103.779,1.0956,4.9125],[103.7798,1.0945,0.8798],[103.7812,1.0959,7.3276],[103.7795,1.0997,0.37],[103.7785,1.0986,7.757],[103.779,1.0956,4.9125]]],
[[[103.8052,1.1004,0.0],[103.7916,1.1108,0.0],[103.7911,1.0971,0.4782],[103.7995,1.086,1.1517],[103.8121,1.0839,3.8507],[103.8152,1.0865,0.0],[103.8151,1.0892,0.0],[103.811,1.0956,0.0],[103.8064,1.0954,3.9591],[103.8052,1.1004,0.0]]],
[[[103.7266,1.1182,0.0],[103.7268,1.1175,0.0],[103.7272,1.1177,0.0],[103.7272,1.1182,0.0],[103.7266,1.1182,0.0]]],
[[[103.7175,1.1198,0.0],[103.7175,1.1195,0.0],[103.718,1.1195,0.0],[103.7179,1.1198,0.0],[103.7175,1.1198,0.0]]],
[[[103.7158,1.1238,0.0],[103.7156,1.124,0.0],[103.7154,1.1239,0.0],[103.7157,1.1236,0.0],[103.7158,1.1238,0.0]]],
[[[103.7029,1.1248,0.0],[103.7034,1.1242,0.0],[103.704,1.1244,0.0],[103.7035,1.1253,0.0],[103.7029,1.1248,0.0]]],
[[[103.8198,1.0441,0.0],[103.8211,1.0441,0.7396],[103.8213,1.0453,0.7396],[103.82,1.0456,0.0],[103.8198,1.0441,0.0]]],
[[[103.819,1.0556,5.8273],[103.8173,1.0557,3.6613],[103.8158,1.0578,0.8476],[103.815,1.055,8.2602],[103.8107,1.0514,1.2108],[103.8127,1.0493,1.4581],[103.8156,1.0503,0.0],[103.8153,1.0518,1.7346],[103.8187,1.0524,0.0],[103.8182,1.0538,10.6358],[103.82,1.0545,5.3627],[103.819,1.0556,5.8273]]],
[[[103.8208,1.056,4.8068],[103.8228,1.0555,0.0],[103.8218,1.0579,1.2537],[103.8208,1.0571,1.2537],[103.8208,1.056,4.8068]]],
[[[103.8239,1.0579,0.0],[103.8239,1.0571,0.0],[103.8242,1.057,0.0],[103.8245,1.0581,0.0],[103.8239,1.0579,0.0]]],
[[[103.8325,1.0545,1.1495],[103.8334,1.054,0.0],[103.8312,1.0568,2.3513],[103.8309,1.0562,2.3513],[103.8325,1.0545,1.1495]]],
[[[103.8325,1.0601,0.0],[103.8326,1.0596,0.0],[103.8333,1.0595,0.859],[103.8331,1.0605,3.2235],[103.8325,1.0601,0.0]]],
[[[103.8267,1.0641,0.0],[103.827,1.0632,0.0],[103.8273,1.065,0.0],[103.8272,1.065,0.0],[103.8267,1.0641,0.0]]],
[[[103.8273,1.0719,2.7946],[103.8286,1.0712,0.0],[103.8277,1.0729,1.7708],[103.8273,1.0729,1.7708],[103.8273,1.0719,2.7946]]],
[[[103.8152,1.0589,1.1424],[103.8164,1.0585,6.1401],[103.8167,1.0591,4.6115],[103.8152,1.0599,1.1424],[103.8152,1.0589,1.1424]]],
[[[103.8185,1.067,11.9525],[103.8172,1.0676,1.0804],[103.8127,1.0633,7.0438],[103.8159,1.062,2.0557],[103.8172,1.0589,4.6115],[103.8163,1.0577,6.1401],[103.8197,1.0559,5.8273],[103.8214,1.0587,1.2537],[103.8251,1.06,0.0],[103.8185,1.067,11.9525]]],
[[[103.8236,1.0624,0.7369],[103.8235,1.0619,2.4556],[103.8243,1.0619,2.4556],[103.8242,1.0627,0.7369],[103.8236,1.0624,0.7369]]],
[[[103.8173,1.0702,2.8361],[103.8168,1.0721,0.0],[103.815,1.0717,6.4561],[103.8153,1.0689,5.3412],[103.8176,1.0692,2.8361],[103.8173,1.0702,2.8361]]],
[[[103.8291,1.0755,0.0],[103.8287,1.0772,0.0],[103.8242,1.0758,2.3061],[103.8207,1.0765,5.4481],[103.8181,1.0707,1.3809],[103.8205,1.0698,6.4783],[103.8225,1.0667,0.6391],[103.8263,1.0667,0.0],[103.8276,1.0701,1.6021],[103.8267,1.0726,1.7708],[103.8291,1.0755,0.0]]],
[[[103.8189,1.0768,0.0],[103.8196,1.0767,0.0],[103.8197,1.0772,0.0],[103.8189,1.0772,0.0],[103.8189,1.0768,0.0]]],
[[[103.8234,1.0861,1.1434],[103.8249,1.0864,0.0],[103.8239,1.0879,0.9643],[103.8229,1.0873,0.9643],[103.8234,1.0861,1.1434]]],
[[[103.824,1.1016,0.0],[103.8249,1.1009,0.0],[103.8229,1.1042,0.0],[103.8229,1.1029,0.0],[103.824,1.1016,0.0]]],
[[[103.8517,1.0701,6.5476],[103.849,1.0679,3.6309],[103.8479,1.0728,0.0],[103.8434,1.0751,3.3934],[103.8441,1.0698,2.1119],[103.8429,1.0679,2.0615],[103.833,1.0635,10.4405],[103.8345,1.0592,0.859],[103.8376,1.0579,0.5755],[103.8345,1.0562,0.0],[103.8368,1.0529,0.0],[103.8356,1.0484,1.6987],[103.838,1.047,0.0],[103.835,1.0434,7.3877],[103.838,1.0361,0.0],[103.8347,1.0288,0.0],[103.8458,1.0278,2.01],[103.8463,1.0329,2.2782],[103.844,1.0341,1.6021],[103.8444,1.0354,1.6021],[103.8574,1.0394,0.0],[103.8613,1.0422,4.7146],[103.865,1.0388,4.6388],[103.8685,1.0393,0.0],[103.8679,1.043,4.6943],[103.8758,1.0389,9.39],[103.8762,1.0414,0.0],[103.8734,1.0469,9.9888],[103.8671,1.0484,6.8321],[103.8717,1.0479,1.5975],[103.8707,1.052,7.2303],[103.8738,1.0483,0.6767],[103.8799,1.0479,5.0879],[103.8823,1.0529,0.0],[103.8779,1.0604,2.509],[103.8755,1.0585,4.5345],[103.8713,1.0614,0.5166],[103.8687,1.0582,7.1146],[103.8695,1.06,6.9979],[103.8676,1.0644,2.6457],[103.8625,1.0652,9.5463],[103.8534,1.0747,0.0],[103.8517,1.0701,6.5476]]],
[[[103.8658,1.0763,0.0],[103.8602,1.0826,0.8023],[103.8577,1.0824,2.6063],[103.8559,1.0789,5.2545],[103.8587,1.0764,3.7874],[103.8598,1.0695,7.385],[103.862,1.0669,0.0],[103.8668,1.0663,3.0813],[103.87,1.0639,1.617],[103.8707,1.0669,2.8622],[103.8658,1.0763,0.0]]],
[[[103.8505,1.0808,0.0],[103.8515,1.08,0.0],[103.8521,1.0804,0.0],[103.8509,1.0818,0.0],[103.8505,1.0808,0.0]]],
[[[103.8551,1.0903,0.9394],[103.8523,1.0903,0.0],[103.8537,1.0889,0.9394],[103.8519,1.0874,0.7605],[103.8535,1.0876,0.0],[103.8551,1.0903,0.9394]]],
[[[103.8706,1.0769,1.8317],[103.8729,1.0803,2.3278],[103.8704,1.0834,3.269],[103.8676,1.0806,0.0],[103.8706,1.0769,1.8317]]],
[[[103.867,1.085,1.8814],[103.869,1.0839,4.6611],[103.8683,1.0863,0.0],[103.8665,1.0861,4.3392],[103.867,1.085,1.8814]]],
[[[103.8699,1.0856,3.926],[103.8708,1.0842,5.3741],[103.8716,1.0848,5.3741],[103.8712,1.0858,3.926],[103.8699,1.0856,3.926]]],
[[[103.8731,1.0916,8.1163],[103.8714,1.092,15.3242],[103.8687,1.0985,4.5179],[103.8626,1.095,0.0],[103.8664,1.0873,7.581],[103.8702,1.088,1.5387],[103.8743,1.091,0.0],[103.8731,1.0916,8.1163]]],
[[[103.8624,1.0918,8.5824],[103.8596,1.0931,2.5384],[103.8632,1.0874,0.0],[103.8648,1.0871,2.8064],[103.8648,1.0904,0.9786],[103.8624,1.0918,8.5824]]],
[[[103.8562,1.094,0.0],[103.8561,1.0937,0.0],[103.8566,1.0934,0.0],[103.8566,1.0939,0.0],[103.8562,1.094,0.0]]],
[[[103.8509,1.0972,0.0],[103.8512,1.0964,0.0],[103.8514,1.0963,0.0],[103.8516,1.097,0.0],[103.8509,1.0972,0.0]]],
[[[103.8563,1.1009,0.0],[103.8556,1.0995,0.0],[103.8559,1.0989,0.0],[103.857,1.1001,0.0],[103.8563,1.1009,0.0]]],
[[[103.871,1.0954,1.3435],[103.8721,1.098,5.8361],[103.8709,1.099,0.0],[103.8694,1.0979,4.5179],[103.871,1.0954,1.3435]]],
[[[103.8687,1.1002,1.207],[103.8658,1.102,11.1979],[103.8627,1.1009,1.5633],[103.8591,1.0961,1.9521],[103.8674,1.0982,4.9983],[103.8687,1.1002,1.207]]],
[[[103.8725,1.1002,0.0],[103.8721,1.1001,0.0],[103.8722,1.0997,0.0],[103.8726,1.0999,0.0],[103.8725,1.1002,0.0]]],
[[[103.8727,1.1024,0.8097],[103.8733,1.1016,0.0],[103.8749,1.1024,0.0],[103.8742,1.103,0.0],[103.8727,1.1024,0.8097]]],
[[[103.8762,1.0718,0.0],[103.8733,1.073,0.0],[103.8724,1.0694,2.8515],[103.8748,1.0692,0.0],[103.8762,1.0718,0.0]]],
[[[103.8724,1.0747,2.2817],[103.8721,1.0736,0.0],[103.873,1.0735,0.0],[103.8731,1.0745,2.2817],[103.8724,1.0747,2.2817]]],
[[[103.8753,1.0762,0.0],[103.8727,1.0776,1.8421],[103.8703,1.0759,1.8317],[103.8744,1.0745,0.0],[103.8753,1.0762,0.0]]],
[[[103.8732,1.079,2.3278],[103.8729,1.0783,1.8421],[103.8738,1.0782,1.8421],[103.8737,1.0789,2.3278],[103.8732,1.079,2.3278]]],
[[[103.8809,1.0485,1.7578],[103.8811,1.0475,1.7578],[103.8828,1.0478,0.0],[103.8816,1.0498,1.0527],[103.8809,1.0485,1.7578]]],
[[[103.876,1.0626,0.0],[103.8761,1.062,0.0],[103.8766,1.062,0.0],[103.8762,1.063,0.0],[103.876,1.0626,0.0]]],
[[[103.879,1.1055,0.0],[103.8787,1.1055,0.0],[103.8785,1.105,0.0],[103.8789,1.1051,0.0],[103.879,1.1055,0.0]]],
[[[103.8778,1.1063,0.0],[103.878,1.107,0.0],[103.8773,1.1071,0.0],[103.8771,1.1064,0.0],[103.8778,1.1063,0.0]]],
[[[103.8664,1.1022,0.0],[103.8671,1.102,11.1979],[103.8657,1.1029,0.0],[103.8658,1.1023,0.0],[103.8664,1.1022,0.0]]],
[[[103.8657,1.106,0.0],[103.8654,1.1061,1.0523],[103.8648,1.1057,1.0523],[103.866,1.1055,0.0],[103.8657,1.106,0.0]]],
[[[103.8637,1.107,1.0523],[103.8632,1.1065,0.0],[103.8636,1.106,1.0523],[103.8643,1.1066,1.0523],[103.8637,1.107,1.0523]]],
[[[103.8716,1.1172,0.0],[103.8737,1.117,0.0],[103.8724,1.1197,1.4192],[103.8714,1.1187,0.0],[103.8716,1.1172,0.0]]],
[[[103.879,1.1175,2.3831],[103.8764,1.1193,0.0],[103.8756,1.1185,0.9964],[103.8797,1.1157,5.6171],[103.8805,1.1167,2.0568],[103.879,1.1175,2.3831]]],
[[[103.8872,1.1193,5.146],[103.8888,1.1185,0.0],[103.8901,1.1201,7.2925],[103.8881,1.1212,0.0],[103.8863,1.1202,5.146],[103.8872,1.1193,5.146]]],
[[[103.8844,1.1266,1.0503],[103.8811,1.1265,3.9388],[103.8784,1.1245,3.7425],[103.8839,1.1219,0.0],[103.8854,1.126,1.0503],[103.8844,1.1266,1.0503]]],
[[[103.8941,1.1277,1.6234],[103.893,1.1303,0.8287],[103.8895,1.1271,0.0],[103.8917,1.1247,3.1668],[103.8894,1.1237,0.0],[103.8901,1.122,0.9651],[103.8918,1.1215,0.0],[103.8941,1.1277,1.6234]]],
[[[103.859,1.1022,0.0],[103.8591,1.1016,0.0],[103.8599,1.1014,0.0],[103.8599,1.1019,0.0],[103.859,1.1022,0.0]]],
[[[103.8472,1.1022,0.0],[103.8473,1.1016,0.0],[103.8477,1.1014,0.0],[103.8475,1.1026,0.0],[103.8472,1.1022,0.0]]],
[[[103.861,1.1035,3.6502],[103.86,1.1032,3.6502],[103.8602,1.1023,3.6502],[103.8615,1.1029,3.6502],[103.861,1.1035,3.6502]]],
[[[103.8566,1.104,2.674],[103.8567,1.1025,0.0],[103.8582,1.1048,0.0],[103.8565,1.106,0.0],[103.8562,1.1054,2.674],[103.8566,1.104,2.674]]],
[[[103.8605,1.1064,0.0],[103.8602,1.1059,0.0],[103.8606,1.1047,0.0],[103.8611,1.1057,0.0],[103.8605,1.1064,0.0]]],
[[[103.8449,1.1065,0.0],[103.8448,1.1062,0.0],[103.8453,1.1057,0.0],[103.8456,1.1066,0.0],[103.8449,1.1065,0.0]]],
[[[103.8625,1.1081,2.2692],[103.8617,1.1103,4.9788],[103.8595,1.11,9.9784],[103.86,1.1075,2.0426],[103.8625,1.1081,2.2692]]],
[[[103.8436,1.1094,0.0],[103.8437,1.1098,0.0],[103.843,1.1099,0.0],[103.843,1.109,0.0],[103.8436,1.1094,0.0]]],
[[[103.8418,1.1118,0.0],[103.8421,1.1112,0.0],[103.8428,1.1111,0.0],[103.8424,1.1121,0.0],[103.8418,1.1118,0.0]]],
[[[103.8324,1.1202,1.1622],[103.8333,1.1195,0.0],[103.8323,1.1216,0.0],[103.832,1.1212,0.0],[103.8324,1.1202,1.1622]]],
[[[103.8412,1.1237,0.0],[103.8406,1.1254,7.3535],[103.8384,1.125,0.0],[103.8349,1.1208,4.5296],[103.8362,1.1162,0.644],[103.8382,1.1202,3.9375],[103.8414,1.1219,0.0],[103.8412,1.1237,0.0]]],
[[[103.8276,1.1252,0.0],[103.8296,1.1256,0.0],[103.8259,1.1288,0.0],[103.8259,1.1269,1.6657],[103.8276,1.1252,0.0]]],
[[[103.8462,1.1114,0.3345],[103.8474,1.1107,0.0],[103.848,1.113,0.0],[103.8469,1.1132,0.0],[103.8462,1.1114,0.3345]]],
[[[103.8435,1.1256,0.9911],[103.8445,1.1251,0.0],[103.8437,1.1269,0.9911],[103.8434,1.1267,0.9911],[103.8435,1.1256,0.9911]]],
[[[103.854,1.1268,0.0],[103.8541,1.1293,7.6741],[103.8501,1.1329,6.3008],[103.8514,1.1297,18.6331],[103.8505,1.1277,9.5743],[103.8528,1.1259,6.2066],[103.854,1.1268,0.0]]],
[[[103.8493,1.1341,0.0],[103.8498,1.1335,6.3008],[103.8499,1.1336,6.3008],[103.8499,1.1345,0.0],[103.8493,1.1341,0.0]]],
[[[103.8352,1.1334,0.0],[103.835,1.1329,0.0],[103.8361,1.1324,0.0],[103.8358,1.133,0.0],[103.8352,1.1334,0.0]]],
[[[103.8297,1.1357,2.2058],[103.8303,1.1353,0.0],[103.8309,1.1354,0.0],[103.8302,1.1367,2.2058],[103.8297,1.1357,2.2058]]],
[[[103.8397,1.1362,0.0],[103.8377,1.1383,1.7746],[103.8361,1.1369,0.0],[103.8407,1.1342,1.8497],[103.8397,1.1362,0.0]]],
[[[103.8362,1.1395,3.4417],[103.836,1.1405,0.0],[103.8341,1.1394,0.0],[103.836,1.1389,3.4417],[103.8362,1.1395,3.4417]]],
[[[103.8661,1.164,0.0],[103.866,1.163,0.0],[103.8664,1.1628,0.0],[103.8666,1.1642,0.0],[103.8661,1.164,0.0]]],
[[[103.8456,1.1668,0.0],[103.8454,1.1667,0.0],[103.8454,1.1663,0.0],[103.8459,1.1666,0.0],[103.8456,1.1668,0.0]]],
[[[103.8377,1.0889,0.2775],[103.8382,1.0884,0.0],[103.8384,1.09,0.2775],[103.838,1.0899,0.2775],[103.8377,1.0889,0.2775]]],
[[[103.8324,1.0939,0.0],[103.8326,1.0935,0.0],[103.8331,1.0937,0.0],[103.8328,1.094,0.0],[103.8324,1.0939,0.0]]],
[[[103.8276,1.0938,0.4534],[103.8288,1.0934,0.0],[103.8288,1.0948,0.0],[103.8281,1.095,0.4534],[103.8276,1.0938,0.4534]]],
[[[103.8315,1.0956,0.0],[103.8307,1.0959,0.0],[103.831,1.0947,0.0],[103.8316,1.0949,0.0],[103.8315,1.0956,0.0]]],
[[[103.8312,1.1446,0.0],[103.8316,1.1451,0.0],[103.8303,1.1457,0.0],[103.8304,1.1451,0.0],[103.8312,1.1446,0.0]]],
[[[103.8135,1.1574,0.0],[103.8139,1.1565,0.0],[103.8144,1.1566,0.0],[103.8141,1.1574,0.0],[103.8135,1.1574,0.0]]],
[[[103.7751,1.1235,0.0],[103.7757,1.1235,0.0],[103.7757,1.1239,0.0],[103.7752,1.124,0.0],[103.7751,1.1235,0.0]]],
[[[103.7073,1.1253,0.0],[103.7072,1.1251,0.0],[103.7074,1.1249,0.0],[103.7075,1.1252,0.0],[103.7073,1.1253,0.0]]],
[[[103.7121,1.1306,0.0],[103.7121,1.1303,0.0],[103.7126,1.1301,0.0],[103.7127,1.1306,0.0],[103.7121,1.1306,0.0]]],
[[[103.6886,1.1421,0.0],[103.6887,1.1418,0.0],[103.6891,1.1418,0.0],[103.6889,1.1422,0.0],[103.6886,1.1421,0.0]]],
[[[103.6909,1.144,0.0],[103.6908,1.1437,0.0],[103.6911,1.1435,0.0],[103.6913,1.144,0.0],[103.6909,1.144,0.0]]],
[[[103.6575,1.1499,0.6573],[103.6556,1.1508,3.0297],[103.6584,1.1463,2.6927],[103.6571,1.1442,2.1312],[103.6592,1.1447,3.9596],[103.6599,1.1428,2.0206],[103.6603,1.1451,0.8292],[103.6575,1.1499,0.6573]]],
[[[103.8796,1.1285,14.325],[103.8769,1.1306,0.0],[103.8746,1.1284,5.7727],[103.8739,1.1244,3.4892],[103.8801,1.1258,3.9388],[103.8796,1.1285,14.325]]],
[[[103.8806,1.1325,0.6197],[103.8807,1.132,0.0],[103.8812,1.1319,0.0],[103.8813,1.1328,0.6197],[103.8806,1.1325,0.6197]]],
[[[103.8778,1.1356,1.6859],[103.8774,1.1369,1.6859],[103.8761,1.1362,1.6859],[103.8779,1.1345,0.824],[103.8778,1.1356,1.6859]]],
[[[103.8903,1.1582,1.3741],[103.8856,1.1576,0.4443],[103.8839,1.1497,2.5148],[103.8824,1.15,2.5148],[103.8826,1.1531,0.0],[103.881,1.154,0.0],[103.881,1.1491,1.8286],[103.8761,1.1499,2.7961],[103.8771,1.1463,3.6208],[103.8754,1.146,3.8277],[103.8745,1.1433,2.9561],[103.8792,1.1402,0.0],[103.8818,1.1431,4.4567],[103.8893,1.1419,0.0],[103.8926,1.144,0.0],[103.896,1.1507,2.2248],[103.8903,1.1582,1.3741]]],
[[[103.8752,1.1321,0.0],[103.8726,1.133,0.0],[103.8711,1.1307,0.0],[103.8719,1.1283,0.0],[103.8743,1.1288,6.5201],[103.8752,1.1321,0.0]]],
[[[103.8692,1.1311,0.9869],[103.8689,1.1306,0.9869],[103.8695,1.1306,0.9869],[103.8696,1.1311,0.9869],[103.8692,1.1311,0.9869]]],
[[[103.8729,1.1442,3.2752],[103.8743,1.1441,7.1368],[103.8752,1.1461,3.8277],[103.8765,1.1465,3.6208],[103.8733,1.1553,4.7432],[103.8709,1.1549,0.823],[103.869,1.1519,0.7579],[103.8696,1.1466,0.0],[103.8729,1.1442,3.2752]]],
[[[103.864,1.1549,0.0],[103.8654,1.1548,0.0],[103.8678,1.1617,0.0],[103.8632,1.1572,0.0],[103.864,1.1549,0.0]]],
[[[103.9062,1.1497,1.7953],[103.9068,1.1502,0.0],[103.9053,1.1509,0.0],[103.9053,1.1498,1.7953],[103.9062,1.1497,1.7953]]],
[[[103.8826,1.1617,0.0],[103.8799,1.164,0.0],[103.8778,1.1635,0.0],[103.8779,1.1612,0.0],[103.8751,1.1577,2.6172],[103.8765,1.1552,0.0],[103.8793,1.1554,0.0],[103.8823,1.158,0.0],[103.8826,1.1617,0.0]]],
[[[103.899,1.1647,8.0526],[103.8953,1.1657,5.7394],[103.898,1.157,0.0],[103.9048,1.155,0.0],[103.9053,1.1565,0.0],[103.899,1.1647,8.0526]]],
[[[103.9083,1.1608,0.0],[103.9086,1.1604,0.0],[103.909,1.1607,0.0],[103.9084,1.1614,0.0],[103.9083,1.1608,0.0]]],
[[[103.8914,1.1713,0.0],[103.8888,1.173,0.0],[103.8916,1.1681,0.0],[103.8931,1.168,0.0],[103.893,1.1691,0.0],[103.8914,1.1713,0.0]]],
[[[103.8872,1.1752,0.0],[103.8874,1.1746,0.0],[103.8875,1.1744,0.0],[103.8871,1.1757,0.0],[103.8872,1.1752,0.0]]],
[[[103.8882,1.1845,0.0],[103.8883,1.184,0.0],[103.8885,1.184,0.0],[103.8887,1.1844,0.0],[103.8882,1.1845,0.0]]],
[[[103.8828,1.1847,0.0],[103.883,1.1844,0.0],[103.8834,1.1844,0.0],[103.8831,1.1849,0.0],[103.8828,1.1847,0.0]]]]}}