{"type":"Feature","properties":{"GID_3":"IDN.31.11.4_1","GID_0":"IDN","country":"Indonesia","GID_1":"IDN.31_1","province":"SumateraSelatan","NL_NAME_1":"NA","GID_2":"IDN.31.11_1","county":"OganKomeringUluTimur","NL_NAME_2":"NA","city":"BelitangMadangRaya","VARNAME_3":"NA","NL_NAME_3":"NA","TYPE_3":"Kecamatan","ENGTYPE_3":"Sub-district","CC_3":"1609051","HASC_3":"NA","name":"Belitang_Madang_Raya.city"},
"geometry":{"type": "MultiPolygon","coordinates": [[[[104.6396,-4.1099,60.2857],[104.6447,-4.1071,56.6677],[104.6467,-4.1092,53.3997],[104.6511,-4.1092,52.0982],[104.6556,-4.1065,52.8438],[104.6658,-4.0933,51.3845],[104.6664,-4.0945,50.5546],[104.6659,-4.093,51.3845],[104.676,-4.0898,49.815],[104.6877,-4.0745,50.6321],[104.6919,-4.0734,46.8526],[104.698,-4.0683,52.598],[104.6932,-4.0566,48.6285],[104.6864,-4.0497,42.1107],[104.6842,-4.0391,41.0513],[104.6829,-4.0388,41.0513],[104.68,-4.0546,43.167],[104.6723,-4.052,42.7554],[104.6703,-4.0533,45.7865],[104.6684,-4.0507,42.0646],[104.6632,-4.0549,45.9805],[104.6603,-4.0546,43.7865],[104.6581,-4.052,44.3742],[104.6583,-4.0463,45.5376],[104.6403,-4.0593,55.1299],[104.638,-4.0569,56.9359],[104.637,-4.0527,57.4978],[104.6349,-4.0522,64.7776],[104.6251,-4.055,55.2163],[104.6178,-4.0553,53.1388],[104.6089,-4.0386,81.6774],[104.6133,-4.0321,82.6785],[104.615,-4.0321,79.3103],[104.6154,-4.0274,81.5731],[104.611,-4.0253,76.5882],[104.6099,-4.0154,78.0969],[104.6079,-4.0152,65.6333],[104.6084,-4.0109,70.7984],[104.6023,-3.9992,65.4319],[104.6002,-3.9901,63.1009],[104.5641,-4.0079,44.1854],[104.5507,-4.0102,42.5346],[104.5423,-4.0196,48.6138],[104.5369,-4.0194,56.7551],[104.5327,-4.0162,47.7359],[104.536,-4.026,51.7243],[104.5426,-4.0288,55.026],[104.5541,-4.0453,54.8447],[104.5551,-4.0538,51.6755],[104.5574,-4.0561,58.2593],[104.5556,-4.0582,51.9514],[104.5574,-4.0635,56.9741],[104.5686,-4.065,66.4015],[104.5698,-4.0686,75.6261],[104.5739,-4.0719,71.9919],[104.5749,-4.08,82.1485],[104.578,-4.0818,78.6731],[104.5808,-4.0915,87.7211],[104.5861,-4.0935,80.2333],[104.5907,-4.0922,77.6202],[104.5907,-4.0938,74.1431],[104.6011,-4.1029,72.0526],[104.6158,-4.1039,69.8163],[104.6247,-4.1104,58.2275],[104.6314,-4.1188,51.013],[104.634,-4.116,52.17],[104.6365,-4.1158,51.6162],[104.6365,-4.1134,53.3276],[104.634,-4.1127,59.719],[104.6396,-4.1099,60.2857]]]]}}