{"type":"Feature","properties":{"GID_3":"IDN.31.11.6_1","GID_0":"IDN","country":"Indonesia","GID_1":"IDN.31_1","province":"SumateraSelatan","NL_NAME_1":"NA","GID_2":"IDN.31.11_1","county":"OganKomeringUluTimur","NL_NAME_2":"NA","city":"Belitang","VARNAME_3":"NA","NL_NAME_3":"NA","TYPE_3":"Kecamatan","ENGTYPE_3":"Sub-district","CC_3":"1609060","HASC_3":"NA","name":"Belitang.city"},
"geometry":{"type": "MultiPolygon","coordinates": [[[[104.6229,-4.2106,56.093],[104.6252,-4.2145,55.4692],[104.6304,-4.2116,55.6925],[104.6414,-4.2131,63.6205],[104.6424,-4.2114,65.8061],[104.6409,-4.2063,54.7476],[104.6429,-4.2065,62.303],[104.6442,-4.2021,65.6718],[104.6375,-4.1983,56.1242],[104.6414,-4.1941,66.4963],[104.6417,-4.1809,64.8452],[104.6436,-4.1744,54.3627],[104.6414,-4.1686,55.8803],[104.6435,-4.1658,58.0995],[104.6469,-4.167,51.4199],[104.6496,-4.1646,51.53],[104.6624,-4.1675,58.3446],[104.6641,-4.1598,49.9976],[104.6689,-4.1627,66.2693],[104.6695,-4.1514,52.321],[104.6705,-4.1519,56.401],[104.6739,-4.1448,61.082],[104.6784,-4.1445,51.252],[104.68,-4.1402,52.7945],[104.6841,-4.1376,55.8872],[104.689,-4.1377,46.7904],[104.6943,-4.127,47.9001],[104.6879,-4.1217,53.0966],[104.6708,-4.1155,47.4826],[104.6733,-4.0992,46.5256],[104.6671,-4.0968,48.256],[104.6658,-4.0933,51.3845],[104.6556,-4.1065,52.8438],[104.6511,-4.1092,52.0982],[104.6467,-4.1092,53.3997],[104.6447,-4.1071,56.6677],[104.6389,-4.1109,59.7094],[104.6351,-4.1116,59.719],[104.634,-4.1127,59.719],[104.6365,-4.1134,53.3276],[104.6365,-4.1158,51.6162],[104.6309,-4.1185,54.0328],[104.6281,-4.1264,51.5463],[104.6198,-4.1264,51.383],[104.62,-4.1347,52.5969],[104.6216,-4.1376,52.8546],[104.614,-4.1465,53.61],[104.6124,-4.1507,55.5072],[104.6071,-4.1512,57.0834],[104.5968,-4.1565,54.1791],[104.5881,-4.1566,55.5258],[104.587,-4.1579,58.1287],[104.587,-4.1626,58.3755],[104.5896,-4.1635,55.9343],[104.5928,-4.1675,56.0548],[104.5903,-4.1742,57.2426],[104.5917,-4.1818,60.4388],[104.6022,-4.1814,56.1818],[104.6042,-4.1831,57.4466],[104.6086,-4.1914,57.8542],[104.6086,-4.2012,56.8286],[104.6102,-4.2053,60.2034],[104.6131,-4.2053,56.1929],[104.6185,-4.2006,60.631],[104.6203,-4.201,57.0466],[104.6229,-4.2106,56.093]]]]}}