{"type":"Feature","properties":{"GID_3":"IDN.31.11.18_1","GID_0":"IDN","country":"Indonesia","GID_1":"IDN.31_1","province":"SumateraSelatan","NL_NAME_1":"NA","GID_2":"IDN.31.11_1","county":"OganKomeringUluTimur","NL_NAME_2":"NA","city":"SemendawaiBarat","VARNAME_3":"NA","NL_NAME_3":"NA","TYPE_3":"Kecamatan","ENGTYPE_3":"Sub-district","CC_3":"1609101","HASC_3":"NA","name":"Semendawai_Barat.city"},
"geometry":{"type": "MultiPolygon","coordinates": [[[[104.6284,-3.9134,34.6808],[104.6316,-3.9201,35.2076],[104.6337,-3.921,36.4643],[104.6381,-3.9174,45.7352],[104.6446,-3.9209,53.2251],[104.6484,-3.9184,52.5263],[104.6511,-3.9186,53.7795],[104.6561,-3.9142,65.8858],[104.6566,-3.9102,64.8926],[104.6598,-3.9059,56.4858],[104.6641,-3.9042,44.9972],[104.6705,-3.8977,37.7558],[104.6738,-3.9,40.489],[104.6768,-3.8997,37.3257],[104.68,-3.8937,33.606],[104.6835,-3.8927,35.5774],[104.6865,-3.8833,33.484],[104.691,-3.8808,44.4216],[104.6915,-3.8785,38.4985],[104.6935,-3.881,36.1797],[104.6978,-3.8814,34.1127],[104.699,-3.8917,33.5342],[104.7028,-3.8973,35.341],[104.7085,-3.8999,39.7036],[104.7119,-3.8995,42.9199],[104.7107,-3.9051,39.1195],[104.7133,-3.9093,42.7002],[104.7279,-3.9129,47.664],[104.736,-3.9117,44.7217],[104.7448,-3.9127,41.5849],[104.7488,-3.9222,38.3564],[104.7506,-3.9232,35.9436],[104.7705,-3.9215,35.2843],[104.7746,-3.9199,34.2274],[104.7774,-3.916,39.852],[104.7758,-3.9113,33.5752],[104.7789,-3.9073,33.0079],[104.7832,-3.9066,30.0232],[104.7848,-3.9026,34.0555],[104.7923,-3.8959,26.6336],[104.795,-3.8878,28.8629],[104.797,-3.8878,28.2087],[104.7981,-3.8854,26.9911],[104.7978,-3.8834,26.8858],[104.8005,-3.8838,25.0895],[104.8001,-3.8815,26.1596],[104.8032,-3.8815,26.1788],[104.8087,-3.8768,25.2877],[104.8095,-3.8705,26.2095],[104.8079,-3.865,22.718],[104.8095,-3.8591,22.7072],[104.8091,-3.8517,23.132],[104.8104,-3.8513,21.7192],[104.8053,-3.8509,22.9979],[104.8039,-3.8523,24.9537],[104.793,-3.8513,29.1655],[104.7937,-3.8526,27.1083],[104.7752,-3.8537,27.8668],[104.7728,-3.8492,28.8298],[104.7641,-3.8471,32.0139],[104.7627,-3.8408,40.3021],[104.7578,-3.8369,34.9823],[104.7581,-3.8352,33.8151],[104.7557,-3.8355,34.4116],[104.7518,-3.8307,36.3985],[104.7473,-3.8293,37.7506],[104.7459,-3.8247,47.2205],[104.7438,-3.8258,47.8251],[104.7396,-3.8193,37.6212],[104.7298,-3.8179,29.7348],[104.7218,-3.8088,27.0682],[104.7155,-3.8109,26.1098],[104.7148,-3.8144,25.524],[104.7103,-3.8162,25.5204],[104.6848,-3.8099,25.8359],[104.6817,-3.8148,25.7139],[104.6754,-3.8158,28.3093],[104.6698,-3.8148,35.4737],[104.668,-3.8099,33.4176],[104.6649,-3.8081,32.8206],[104.6447,-3.8064,30.5742],[104.6255,-3.7973,31.4557],[104.6056,-3.7963,33.4292],[104.6031,-3.7945,33.7345],[104.5898,-3.7984,36.2894],[104.5728,-3.7942,45.8903],[104.5677,-3.7965,51.7211],[104.559,-3.8069,43.8461],[104.5557,-3.8052,45.8556],[104.5578,-3.8249,36.6148],[104.5433,-3.8394,53.6292],[104.5369,-3.8435,57.0269],[104.531,-3.852,54.6827],[104.5229,-3.8555,57.482],[104.5099,-3.8692,45.8157],[104.5092,-3.8847,48.6852],[104.5172,-3.8815,45.8428],[104.5237,-3.8821,42.2311],[104.5256,-3.8792,42.7574],[104.5291,-3.8795,40.9276],[104.5324,-3.8821,43.4763],[104.5343,-3.8815,43.4763],[104.5356,-3.8821,45.9284],[104.5356,-3.8889,41.3955],[104.5378,-3.8927,44.1975],[104.552,-3.9024,37.9084],[104.5623,-3.9002,36.2982],[104.562,-3.895,39.8011],[104.5652,-3.8915,45.6897],[104.5714,-3.8905,39.5536],[104.581,-3.8934,42.6279],[104.5888,-3.8934,42.04],[104.5936,-3.895,34.863],[104.6013,-3.9021,43.1773],[104.6094,-3.9063,46.8081],[104.621,-3.9014,39.3],[104.6265,-3.9034,35.2343],[104.6284,-3.9134,34.6808]]]]}}