{"type":"Feature","properties":{"GID_3":"IDN.31.11.19_1","GID_0":"IDN","country":"Indonesia","GID_1":"IDN.31_1","province":"SumateraSelatan","NL_NAME_1":"NA","GID_2":"IDN.31.11_1","county":"OganKomeringUluTimur","NL_NAME_2":"NA","city":"SemendawaiSukuIii","VARNAME_3":"NA","NL_NAME_3":"NA","TYPE_3":"Kecamatan","ENGTYPE_3":"Sub-district","CC_3":"1609090","HASC_3":"NA","name":"Semendawai_Suku_Iii.city"},
"geometry":{"type": "MultiPolygon","coordinates": [[[[104.7177,-4.0307,44.2297],[104.7329,-4.0205,44.0258],[104.7332,-4.0186,43.6799],[104.7428,-4.011,38.3307],[104.7478,-4.0098,38.3813],[104.7651,-3.9994,35.7111],[104.7682,-3.9965,35.6389],[104.7738,-3.9853,38.2231],[104.7792,-3.9809,34.7132],[104.7934,-3.9809,33.7985],[104.7839,-3.9508,46.0752],[104.7815,-3.947,48.0139],[104.7811,-3.9383,43.9658],[104.7755,-3.9329,42.8431],[104.7763,-3.9319,42.8431],[104.7701,-3.9235,41.1585],[104.7705,-3.9213,35.2843],[104.7506,-3.9232,35.9436],[104.7488,-3.9222,38.3564],[104.7448,-3.9127,41.5849],[104.736,-3.9117,44.7217],[104.7279,-3.9129,47.664],[104.7133,-3.9093,42.7002],[104.7107,-3.9051,39.1195],[104.7119,-3.8995,42.9199],[104.7085,-3.8999,39.7036],[104.7028,-3.8973,35.341],[104.699,-3.8917,33.5342],[104.6978,-3.8814,34.1127],[104.6935,-3.881,36.1797],[104.6915,-3.8785,38.4985],[104.691,-3.8808,44.4216],[104.6865,-3.8833,33.484],[104.6835,-3.8927,35.5774],[104.68,-3.8937,33.606],[104.6768,-3.8997,37.3257],[104.6738,-3.9,40.489],[104.6705,-3.8977,37.7558],[104.6641,-3.9042,44.9972],[104.6598,-3.9059,56.4858],[104.6566,-3.9102,64.8926],[104.6561,-3.9142,65.8858],[104.6511,-3.9186,53.7795],[104.6484,-3.9184,52.5263],[104.6446,-3.9209,53.2251],[104.6381,-3.9174,45.7352],[104.6344,-3.9194,41.5179],[104.6337,-3.921,36.4643],[104.6381,-3.9259,38.1621],[104.6374,-3.9346,35.6277],[104.6284,-3.9382,44.1184],[104.6262,-3.9417,46.2215],[104.6229,-3.943,40.1111],[104.621,-3.9414,40.1469],[104.6213,-3.9614,46.8332],[104.6165,-3.9662,44.8769],[104.6178,-3.9685,47.995],[104.6159,-3.9695,44.1729],[104.6181,-3.973,50.0774],[104.6165,-3.9769,44.5679],[104.6178,-3.9923,56.5355],[104.6217,-3.9962,68.6755],[104.6255,-3.9975,74.3418],[104.6326,-3.9962,60.8306],[104.6358,-3.9994,66.5426],[104.6371,-4.0056,66.7639],[104.64,-4.0094,70.5207],[104.6536,-4.0217,58.1898],[104.6581,-4.0284,55.5572],[104.6581,-4.052,44.3742],[104.6603,-4.0546,43.7865],[104.6632,-4.0549,45.9805],[104.6684,-4.0507,42.0646],[104.6703,-4.0533,45.7865],[104.6723,-4.052,42.7554],[104.68,-4.0546,43.167],[104.6854,-4.0284,40.5975],[104.6902,-4.0264,40.7147],[104.6902,-4.0251,40.1699],[104.7031,-4.0391,48.2959],[104.7177,-4.0307,44.2297]]]]}}