{"type":"Feature","properties":{"GID_3":"IDN.1.9.6_1","GID_0":"IDN","country":"Indonesia","GID_1":"IDN.1_1","province":"Aceh","NL_NAME_1":"NA","GID_2":"IDN.1.9_1","county":"AcehTenggara","NL_NAME_2":"NA","city":"BukitTusam","VARNAME_3":"NA","NL_NAME_3":"NA","TYPE_3":"Kecamatan","ENGTYPE_3":"Sub-district","CC_3":"1104031","HASC_3":"NA","name":"Bukit_Tusam.city"},
"geometry":{"type": "MultiPolygon","coordinates": [[[[97.8599,3.3904,125.5853],[97.8795,3.3991,126.2421],[97.8797,3.4061,132.3716],[97.8869,3.4085,143.5297],[97.8842,3.4134,145.3925],[97.895,3.4181,203.3274],[97.892,3.4201,190.2564],[97.8931,3.4231,181.71],[97.8913,3.4246,187.0934],[97.8964,3.4277,247.3863],[97.8942,3.4318,259.263],[97.8891,3.431,212.1394],[97.8863,3.4324,213.7211],[97.8803,3.4396,195.8072],[97.8775,3.4357,174.2353],[97.8723,3.437,154.9773],[97.8704,3.4393,149.0395],[97.8675,3.4301,137.3141],[97.8535,3.4286,134.3694],[97.8532,3.4214,133.9957],[97.8503,3.4205,133.4434],[97.849,3.4179,130.3746],[97.8494,3.4142,129.8892],[97.8514,3.4119,128.7317],[97.8514,3.4047,127.7888],[97.8469,3.4008,126.0347],[97.8417,3.3994,128.958],[97.8413,3.3958,128.3311],[97.8459,3.3937,126.295],[97.847,3.3874,122.25],[97.8599,3.3904,125.5853]]]]}}