{"type":"Feature","properties":{"GID_3":"IDN.10.24.17_1","GID_0":"IDN","country":"Indonesia","GID_1":"IDN.10_1","province":"JawaTengah","NL_NAME_1":"NA","GID_2":"IDN.10.24_1","county":"Purbalingga","NL_NAME_2":"NA","city":"Purbalingga","VARNAME_3":"NA","NL_NAME_3":"NA","TYPE_3":"Kecamatan","ENGTYPE_3":"Sub-district","CC_3":"3303060","HASC_3":"NA","name":"Purbalingga.city"},
"geometry":{"type": "MultiPolygon","coordinates": [[[[109.3989,-7.4232,35.7835],[109.4,-7.4196,25.4926],[109.3947,-7.4158,27.294],[109.3948,-7.4104,26.7987],[109.3916,-7.4099,38.5825],[109.3894,-7.4128,35.4151],[109.3864,-7.4112,32.5039],[109.3895,-7.405,35.4554],[109.3982,-7.4038,34.9064],[109.3985,-7.399,32.6312],[109.39,-7.393,30.4023],[109.3866,-7.3941,36.2406],[109.3825,-7.3897,32.6985],[109.3721,-7.3899,47.6621],[109.3711,-7.3858,41.3496],[109.3776,-7.3819,37.5103],[109.3728,-7.377,41.1894],[109.3705,-7.3775,46.8668],[109.367,-7.3752,55.0551],[109.3661,-7.3765,57.4371],[109.3654,-7.3752,51.712],[109.3571,-7.3758,63.1354],[109.3547,-7.374,67.574],[109.3544,-7.379,71.9837],[109.3485,-7.3813,71.7767],[109.3525,-7.3851,65.8655],[109.3476,-7.3966,63.1549],[109.3555,-7.3949,56.2012],[109.3591,-7.3984,49.1732],[109.3644,-7.4005,43.0549],[109.3688,-7.4052,41.9826],[109.3692,-7.4109,33.8683],[109.3707,-7.4117,33.78],[109.3697,-7.4192,32.5198],[109.3715,-7.4194,32.4237],[109.3754,-7.4158,31.2588],[109.3764,-7.4188,32.8366],[109.3805,-7.418,30.9144],[109.3944,-7.4209,31.146],[109.3931,-7.4255,28.1565],[109.3954,-7.427,25.6167],[109.3983,-7.426,33.6621],[109.3989,-7.4232,35.7835]]]]}}