{"type":"Feature","properties":{"GID_3":"IDN.9.21.23_1","GID_0":"IDN","country":"Indonesia","GID_1":"IDN.9_1","province":"JawaBarat","NL_NAME_1":"NA","GID_2":"IDN.9.21_1","county":"Majalengka","NL_NAME_2":"NA","city":"Sindangwangi","VARNAME_3":"NA","NL_NAME_3":"NA","TYPE_3":"Kecamatan","ENGTYPE_3":"Sub-district","CC_3":"3210110","HASC_3":"NA","name":"Sindangwangi.city"},
"geometry":{"type": "MultiPolygon","coordinates": [[[[108.4069,-6.8689,1841.1281],[108.4013,-6.8548,1467.312],[108.4047,-6.8456,1210.6874],[108.401,-6.8299,924.6284],[108.4045,-6.8221,665.3184],[108.4056,-6.8228,672.6288],[108.4078,-6.8192,642.3685],[108.4073,-6.8152,607.4817],[108.4106,-6.8097,556.4175],[108.4083,-6.8055,481.0367],[108.4115,-6.806,443.5845],[108.4133,-6.803,421.0572],[108.4128,-6.7997,357.8851],[108.4098,-6.7979,306.3634],[108.4127,-6.7929,263.172],[108.4092,-6.7902,268.7906],[108.4114,-6.7875,232.6936],[108.4097,-6.7871,228.3139],[108.4108,-6.7855,206.4556],[108.408,-6.7847,204.7798],[108.4087,-6.7867,215.991],[108.4059,-6.7882,231.0949],[108.4026,-6.7858,164.7366],[108.403,-6.7827,160.4249],[108.401,-6.7844,161.899],[108.3981,-6.7841,189.1042],[108.4007,-6.779,142.8501],[108.399,-6.7736,305.4098],[108.389,-6.7675,316.3945],[108.3866,-6.7637,414.9038],[108.3844,-6.7652,328.0392],[108.3741,-6.7596,202.1709],[108.3649,-6.7593,115.8825],[108.3598,-6.7525,159.1464],[108.3552,-6.7574,118.4063],[108.3564,-6.7596,151.7783],[108.3555,-6.7649,167.2025],[108.3507,-6.7715,164.8728],[108.3473,-6.7698,150.8133],[108.3429,-6.7728,135.2927],[108.3398,-6.7731,126.5849],[108.3402,-6.7741,126.5849],[108.3461,-6.7782,160.6186],[108.347,-6.7813,159.7416],[108.3506,-6.7819,175.5605],[108.3515,-6.7838,179.1824],[108.3566,-6.786,204.1071],[108.357,-6.7905,207.2153],[108.3659,-6.7941,284.8926],[108.3662,-6.7987,311.3631],[108.3701,-6.801,337.4864],[108.3695,-6.8037,367.6509],[108.3726,-6.8061,410.1999],[108.3787,-6.8223,526.2085],[108.3821,-6.8269,583.6001],[108.3819,-6.8372,878.2914],[108.3847,-6.8404,952.045],[108.3839,-6.8451,1018.4893],[108.3859,-6.8479,1054.9973],[108.3919,-6.8508,1218.8768],[108.3979,-6.8606,1574.806],[108.3985,-6.8687,1907.373],[108.4072,-6.8949,2845.7329],[108.4069,-6.8689,1841.1281]]]]}}