{"type":"Feature","properties":{"GID_3":"IDN.30.1.11_1","GID_0":"IDN","country":"Indonesia","GID_1":"IDN.30_1","province":"SumateraBarat","NL_NAME_1":"NA","GID_2":"IDN.30.1_1","county":"Agam","NL_NAME_2":"NA","city":"Palembayan","VARNAME_3":"NA","NL_NAME_3":"NA","TYPE_3":"Kecamatan","ENGTYPE_3":"Sub-district","CC_3":"1307100","HASC_3":"NA","name":"Palembayan.city"},
"geometry":{"type": "MultiPolygon","coordinates": [[[[100.2501,-0.2466,1228.7908],[100.2576,-0.2487,1176.8789],[100.26,-0.2475,1164.9626],[100.2651,-0.2398,976.9995],[100.2787,-0.239,829.95],[100.294,-0.2271,739.6841],[100.3016,-0.2282,813.2325],[100.308,-0.2326,835.6906],[100.3257,-0.2187,762.988],[100.3253,-0.2114,731.3237],[100.3194,-0.2045,849.1538],[100.3116,-0.1909,696.8492],[100.3124,-0.1823,716.544],[100.3113,-0.1798,739.621],[100.2999,-0.1757,698.0964],[100.2983,-0.1664,676.6039],[100.2932,-0.1623,610.1623],[100.2856,-0.1567,737.6304],[100.2692,-0.1564,676.3245],[100.2456,-0.1449,611.7297],[100.2379,-0.1445,486.6548],[100.2213,-0.1302,324.817],[100.2134,-0.1171,278.7286],[100.2109,-0.1064,378.7991],[100.2017,-0.0959,344.2112],[100.197,-0.0861,227.1311],[100.1885,-0.0911,176.8864],[100.1877,-0.0932,172.2957],[100.1759,-0.0923,151.2007],[100.1661,-0.1,138.1998],[100.1601,-0.1076,133.9333],[100.1503,-0.1019,135.7434],[100.1404,-0.1024,104.6008],[100.1347,-0.0945,95.1316],[100.1234,-0.0945,83.2876],[100.1216,-0.0866,70.3087],[100.1153,-0.0848,64.0545],[100.114,-0.0794,66.0198],[100.1056,-0.0755,70.1484],[100.0992,-0.0794,52.4334],[100.0943,-0.0797,51.7051],[100.0903,-0.0779,52.5085],[100.0859,-0.0808,45.7243],[100.08,-0.0809,40.7826],[100.0763,-0.0838,42.302],[100.0708,-0.0845,39.7396],[100.0614,-0.0843,38.7454],[100.0506,-0.0812,41.845],[100.0436,-0.0831,51.1143],[100.0374,-0.0815,41.6401],[100.0382,-0.0833,31.0298],[100.0363,-0.0837,31.0298],[100.0318,-0.0918,30.3896],[100.0226,-0.0937,28.4395],[100.0153,-0.0977,28.1876],[100.0162,-0.1035,27.2557],[100.0134,-0.119,25.2177],[100.0082,-0.1231,35.0199],[100.0045,-0.1285,27.5162],[100.0041,-0.1362,25.6059],[100.0078,-0.1458,35.149],[100.0133,-0.1519,32.8702],[100.0274,-0.1556,37.3533],[100.0405,-0.1617,34.3895],[100.0499,-0.163,78.191],[100.0621,-0.1688,237.308],[100.0754,-0.1672,315.2474],[100.094,-0.1683,483.6848],[100.1074,-0.1647,498.0443],[100.1141,-0.1694,575.8714],[100.1265,-0.1834,713.3434],[100.1407,-0.2074,1168.1311],[100.1405,-0.2129,1326.8153],[100.1441,-0.2156,1419.7682],[100.1443,-0.2176,1527.1453],[100.1571,-0.2068,1176.3093],[100.1691,-0.2055,1298.5588],[100.1728,-0.2086,1434.7578],[100.1723,-0.2144,1487.5312],[100.1803,-0.2188,1037.6312],[100.1906,-0.2181,930.9089],[100.1926,-0.2194,932.7518],[100.1925,-0.2227,838.3138],[100.1897,-0.2246,811.7152],[100.1898,-0.2262,811.7152],[100.2,-0.2325,805.7377],[100.2078,-0.2303,957.8418],[100.2121,-0.2401,651.5229],[100.2255,-0.2456,958.6806],[100.235,-0.257,1005.7323],[100.2408,-0.2538,1255.2716],[100.2467,-0.2458,1225.7227],[100.2501,-0.2466,1228.7908]]]]}}