{"type":"Feature","properties":{"GID_3":"IDN.20.6.10_1","GID_0":"IDN","country":"Indonesia","GID_1":"IDN.20_1","province":"NusaTenggaraBarat","NL_NAME_1":"NA","GID_2":"IDN.20.6_1","county":"LombokTimur","NL_NAME_2":"NA","city":"SakraTimur","VARNAME_3":"NA","NL_NAME_3":"NA","TYPE_3":"Kecamatan","ENGTYPE_3":"Sub-district","CC_3":"5203022","HASC_3":"NA","name":"Sakra_Timur.city"},
"geometry":{"type": "MultiPolygon","coordinates": [[[[116.5377,-8.76,0.0],[116.5459,-8.7526,0.0],[116.5456,-8.751,0.0],[116.5524,-8.7409,5.0035],[116.5527,-8.7271,10.2106],[116.5563,-8.7211,0.0],[116.553,-8.7196,8.0665],[116.5497,-8.7112,18.2841],[116.5445,-8.709,36.1679],[116.5486,-8.7011,37.0405],[116.5465,-8.6964,42.857],[116.5475,-8.6949,40.7219],[116.5442,-8.6927,55.366],[116.5418,-8.685,62.1906],[116.5305,-8.6882,95.1172],[116.5279,-8.6864,97.7086],[116.5243,-8.6886,114.3458],[116.5126,-8.6794,151.5805],[116.5112,-8.6744,153.5038],[116.4987,-8.6796,170.1121],[116.4905,-8.6802,179.6514],[116.4896,-8.6828,180.2437],[116.4925,-8.6904,166.7883],[116.4969,-8.6951,161.0961],[116.4952,-8.6989,163.9946],[116.4972,-8.7024,155.5036],[116.4875,-8.7036,168.4102],[116.4887,-8.7091,142.2153],[116.4918,-8.7121,144.2265],[116.4954,-8.7205,128.312],[116.5001,-8.7267,127.6338],[116.5022,-8.7269,109.1297],[116.5054,-8.7303,95.1656],[116.5076,-8.7304,97.092],[116.5094,-8.7325,92.0207],[116.513,-8.7319,81.0022],[116.5159,-8.7344,72.1877],[116.5185,-8.734,67.5132],[116.5298,-8.7504,30.545],[116.5276,-8.756,25.9046],[116.5311,-8.7577,21.9356],[116.5322,-8.7601,9.1583],[116.536,-8.7612,3.1438],[116.5377,-8.76,0.0]]]]}}