{"type":"Feature","properties":{"GID_3":"IDN.35.8.1","GID_0":"IDN","country":"Indonesia","GID_1":"IDN.35_1","province":"KalimantanUtara","NL_NAME_1":"NA","GID_2":"IDN.35.8","county":"Malinau","NL_NAME_2":"NA","city":"BahauHulu","VARNAME_3":"NA","NL_NAME_3":"NA","TYPE_3":"NA","ENGTYPE_3":"NA","CC_3":"NA","HASC_3":"NA","name":"Bahau_Hulu.city"},
"geometry":{"type": "MultiPolygon","coordinates": [[[[115.9167,2.8676,1800.046],[115.9169,2.871,1811.202],[115.933,2.8746,1596.068],[115.9361,2.8719,1577.8153],[115.9398,2.8738,1514.5601],[115.9425,2.8721,1476.0712],[115.9511,2.8735,1369.955],[115.954,2.8721,1337.7877],[115.9712,2.8785,940.2924],[115.9775,2.8874,1006.2649],[115.9805,2.9031,1287.8311],[115.9675,2.9189,1430.0565],[115.964,2.9343,1693.4907],[115.9697,2.9456,1564.5664],[115.9679,2.955,1491.8762],[115.9692,2.9635,1356.9714],[115.9762,2.9753,1237.9734],[115.9755,2.9884,1015.6035],[115.98779999999999,3.0032,756.5233],[115.9908,3.012,740.1922],[115.9894,3.0175,725.7784],[115.9717,3.0307,645.718],[115.9651,3.0323,721.6229],[115.9577,3.0373,695.1626],[115.9493,3.0498,764.8273],[115.9498,3.057,630.6932],[115.958,3.0759,796.0023],[115.9573,3.0856,852.3618],[115.9639,3.0943,823.6486],[115.967,3.1254,848.9123],[115.961,3.13,790.8601],[115.9571,3.1379,878.5613],[115.9477,3.1329,771.3234],[115.94,3.1423,685.4862],[115.9335,3.1472,685.4569],[115.9294,3.1665,957.6],[115.9339,3.1802,1129.7076],[115.9338,3.1997,986.6293],[115.937,3.2114,1054.2422],[115.9379,3.2269,857.9682],[115.9249,3.2393,1358.2544],[115.9251,3.2543,1235.9885],[115.9153,3.2609,1421.9741],[115.9113,3.2684,1190.5824],[115.9053,3.2705,1345.3362],[115.8917,3.2718,1431.3817],[115.8858,3.275,1404.4816],[115.8811,3.2905,1229.9387],[115.8751,3.2998,1266.317],[115.8746,3.3035,1345.1483],[115.8764,3.3091,1309.9883],[115.884,3.3177,1312.7723],[115.9049,3.3481,1457.8632],[115.9196,3.3649,1263.4839],[115.9312,3.3727,1185.3254],[115.9502,3.3778,1489.6997],[115.9595,3.3827,1446.2662],[115.9625,3.389,1569.1825],[115.9646,3.4019,1377.1389],[115.9735,3.4126,947.5996],[115.9747,3.4194,1121.2583],[115.9731,3.4241,1224.4119],[115.9688,3.4299,1398.988],[115.9594,3.4323,1235.545],[115.9571,3.4347,1290.3119],[115.956,3.4506,1307.4146],[115.9406,3.4743,1355.8507],[115.9442,3.4848,1353.4418],[115.9403,3.4946,1424.1846],[115.9426,3.5057,1445.1702],[115.9456,3.5094,1439.2212],[115.9447,3.5111,1433.29],[115.9259,3.4997,1469.9387],[115.9115,3.4937,1365.988],[115.8971,3.4756,1493.0337],[115.8838,3.4696,1419.17],[115.8562,3.4717,1516.6853],[115.8506,3.4864,1476.5862],[115.8386,3.4916,1328.5757],[115.8316,3.4876,1280.5459],[115.826,3.4913,1214.1055],[115.8187,3.4935,1287.3063],[115.8054,3.4895,1322.2229],[115.8073,3.4704,1198.4684],[115.8008,3.4636,1122.9851],[115.79,3.4624,1174.5005],[115.7691,3.463,1613.7903],[115.7624,3.4474,1534.2123],[115.7428,3.4478,1554.9692],[115.7291,3.4449,1481.5161],[115.7142,3.4377,1527.4309],[115.7029,3.4163,1562.1036],[115.6999,3.4026,1526.1143],[115.691,3.4062,1438.321],[115.6749,3.4276,1458.7988],[115.6569,3.4397,1653.8502],[115.6541,3.4369,1657.3857],[115.6489,3.4366,1730.9546],[115.6497,3.4288,1654.0576],[115.6451,3.4245,1622.0405],[115.6413,3.4245,1689.8176],[115.6412,3.4203,1675.0747],[115.6393,3.4175,1678.2341],[115.6237,3.4087,1750.7759],[115.6215,3.4115,1773.5197],[115.6216,3.4178,1818.8273],[115.6178,3.4205,1766.1528],[115.6138,3.4285,1821.6316],[115.6153,3.4344,1861.7333],[115.6097,3.447,1976.062],[115.604,3.4473,1974.3],[115.6009,3.4429,2022.6924],[115.5974,3.4426,2005.8392],[115.5934,3.4483,2020.842],[115.5873,3.4493,2070.0801],[115.5791,3.4279,1730.5487],[115.5787,3.4193,1644.5613],[115.5726,3.4155,1719.8975],[115.5711,3.409,1659.7332],[115.5639,3.4047,1777.9331],[115.5624,3.4007,1831.4673],[115.5638,3.3976,1822.0308],[115.5607,3.3943,1846.3359],[115.5561,3.3933,1923.8177],[115.5558,3.3916,1902.8164],[115.5587,3.389,1871.4214],[115.5584,3.3852,1864.7866],[115.549,3.3753,1869.8291],[115.5433,3.3592,1788.2374],[115.5455,3.3531,1835.0825],[115.5443,3.3491,1906.702],[115.5462,3.3466,1853.488],[115.5443,3.342,1801.5203],[115.5479,3.335,1685.79],[115.5479,3.3297,1717.6165],[115.5475,3.3277,1733.4596],[115.5441,3.3283,1760.239],[115.5424,3.3268,1735.0402],[115.54,3.32,1694.2172],[115.5371,3.3195,1630.921],[115.5365,3.3163,1615.8386],[115.5382,3.2983,1499.4828],[115.5363,3.2916,1604.7693],[115.5363,3.2684,1432.7432],[115.5393,3.2519,1284.2355],[115.5373,3.2359,1522.7571],[115.5338,3.2298,1654.4226],[115.5338,3.2261,1671.5879],[115.526,3.2248,1660.2429],[115.5198,3.2259,1694.4353],[115.5155,3.2227,1653.2588],[115.5189,3.2136,1660.7053],[115.5173,3.2027,1697.427],[115.5214,3.1893,1685.2004],[115.5309,3.182,1568.4485],[115.5344,3.1836,1589.0857],[115.539,3.1809,1552.6256],[115.5426,3.1818,1554.9341],[115.5519,3.1732,1518.6465],[115.5556,3.1711,1491.4923],[115.5595,3.1716,1412.277],[115.5642,3.1614,1460.9846],[115.5609,3.1553,1418.8215],[115.562,3.1515,1414.6162],[115.5555,3.1489,1470.7924],[115.5499,3.1409,1392.5558],[115.5434,3.1414,1350.1047],[115.5296,3.1294,1259.505],[115.5293,3.1234,1292.2292],[115.5266,3.117,1382.1036],[115.5217,3.1151,1370.5016],[115.5214,3.1001,1290.291],[115.5235,3.0908,1121.6958],[115.5217,3.0651,1397.6021],[115.5136,3.0501,1482.6755],[115.5073,3.0451,1605.7103],[115.5057,3.0405,1643.2396],[115.5028,3.0397,1630.0789],[115.5052,3.0366,1626.2487],[115.5061,3.0237,1579.7789],[115.5098,3.0182,1572.6936],[115.5128,3.0082,1480.546],[115.5222,3.0036,1508.0239],[115.5265,2.9989,1459.2911],[115.5461,2.9996,1242.6404],[115.5486,2.9986,1219.9971],[115.553,2.9953,1252.7529],[115.5536,2.9932,1342.1652],[115.5527,2.9829,1280.032],[115.557,2.9807,1278.0222],[115.5618,2.9804,1207.2108],[115.5803,2.9942,1290.3672],[115.5863,3.0011,1306.6926],[115.5884,3.0073,1163.1406],[115.5991,3.0191,1069.925],[115.6028,3.0201,1113.2742],[115.6033,3.0221,1127.8511],[115.6147,3.0151,902.02],[115.6155,3.0128,909.3286],[115.6139,3.0066,1033.6124],[115.6094,3.0035,1095.6102],[115.6067,2.9986,1061.0461],[115.6066,2.9941,1007.3167],[115.6109,2.9806,1041.4427],[115.6082,2.9659,1091.652],[115.6091,2.9535,1085.8459],[115.6141,2.9526,1147.7573],[115.6239,2.9585,1031.2842],[115.6558,2.9366,1230.9944],[115.6576,2.9312,1314.1458],[115.6533,2.9114,1622.1364],[115.6541,2.9086,1585.8549],[115.6627,2.9093,1505.0931],[115.6783,2.9042,1813.9707],[115.684,2.8958,1809.2578],[115.6847,2.8826,1914.5962],[115.6882,2.8766,1857.5217],[115.6917,2.8742,1678.0852],[115.6949,2.8675,1639.6917],[115.7021,2.8605,1629.7363],[115.7036,2.8494,1555.3628],[115.7086,2.8395,1529.4441],[115.7211,2.8375,1190.5328],[115.7263,2.8326,1198.955],[115.7299,2.8317,1192.5093],[115.7299,2.828,1163.0042],[115.7377,2.8214,1118.5271],[115.7431,2.8221,1113.1903],[115.7499,2.8268,1023.8464],[115.7578,2.8293,1068.8396],[115.7605,2.8217,1237.1956],[115.7703,2.8218,1144.2314],[115.7733,2.824,1172.8195],[115.7749,2.8302,1176.1345],[115.7819,2.8344,1122.2163],[115.7868,2.8326,1087.7915],[115.7898,2.8275,1082.3457],[115.7941,2.8268,984.1938],[115.7994,2.8235,915.3411],[115.8025,2.8236,932.2933],[115.8131,2.8295,990.2117],[115.8193,2.8264,808.7555],[115.837,2.8276,471.2937],[115.847,2.833,390.9535],[115.8561,2.8267,598.6318],[115.8692,2.8279,620.9596],[115.8756,2.8334,663.6379],[115.8814,2.8343,907.2802],[115.888,2.8389,1221.7264],[115.8968,2.8417,1366.5461],[115.9069,2.8504,1612.776],[115.9127,2.8524,1673.2952],[115.9151,2.8591,1793.11],[115.9179,2.8611,1806.8059],[115.9167,2.8676,1800.046]]]]}}