{"type":"Feature","properties":{"GID_2":"IDN.7.6_1","GID_0":"IDN","country":"Indonesia","GID_1":"IDN.7_1","province":"JakartaRaya","NL_NAME_1":"NA","county":"KepulauanSeribu","VARNAME_2":"NA","NL_NAME_2":"NA","TYPE_2":"Kabupaten","ENGTYPE_2":"Regency","CC_2":"3101","HASC_2":"ID.JK.KS","name":"Kepulauan_Seribu.county"},
"geometry":{"type": "MultiPolygon","coordinates": [[[[106.7356,-6.0383,2.0843],[106.7353,-6.0401,0.0],[106.7355,-6.0402,0.0],[106.7365,-6.0395,0.0],[106.7356,-6.0383,2.0843]]],
[[[106.7458,-6.0363,0.0],[106.7478,-6.0368,4.0151],[106.7475,-6.034,0.0],[106.7459,-6.0346,2.2425],[106.7458,-6.0363,0.0]]],
[[[106.7333,-6.0338,4.059],[106.7353,-6.0349,0.0],[106.7366,-6.0331,0.0],[106.7344,-6.032,3.9159],[106.7333,-6.0338,4.059]]],
[[[106.7452,-6.0255,0.0],[106.7453,-6.0269,0.0],[106.7456,-6.0258,0.0],[106.745,-6.0249,0.0],[106.7452,-6.0255,0.0]]],
[[[106.8317,-6.0058,0.0],[106.8314,-6.0065,0.0],[106.8317,-6.0069,0.0],[106.8323,-6.0058,0.0],[106.8317,-6.0058,0.0]]],
[[[106.7806,-6.0048,1.1787],[106.782,-6.0054,2.6588],[106.7826,-6.0035,10.5135],[106.7796,-6.0027,0.0],[106.7806,-6.0048,1.1787]]],
[[[106.8471,-5.9846,0.0],[106.8475,-5.9855,0.0],[106.8474,-5.9833,0.0],[106.8463,-5.9837,1.8863],[106.8471,-5.9846,0.0]]],
[[[106.7087,-5.975,0.7874],[106.7054,-5.9745,0.0],[106.7024,-5.9762,0.0],[106.7084,-5.9804,0.6683],[106.7109,-5.9765,1.1817],[106.7087,-5.975,0.7874]]],
[[[106.6936,-5.9713,3.2025],[106.6898,-5.9703,2.1456],[106.6889,-5.9722,4.0974],[106.6901,-5.9759,6.6036],[106.6947,-5.9782,0.0],[106.6952,-5.972,0.5986],[106.6936,-5.9713,3.2025]]],
[[[106.8454,-5.955,0.0],[106.8426,-5.9546,2.776],[106.8411,-5.9562,0.0],[106.8461,-5.9605,0.0],[106.8473,-5.9568,0.0],[106.8454,-5.955,0.0]]],
[[[106.6308,-5.9448,2.138],[106.6327,-5.9455,4.8621],[106.634,-5.943,4.8204],[106.6276,-5.9429,0.0],[106.6283,-5.9442,12.2667],[106.6308,-5.9448,2.138]]],
[[[106.6316,-5.8543,0.0],[106.6221,-5.8544,0.0],[106.6148,-5.8565,1.2301],[106.6134,-5.8605,2.4587],[106.6097,-5.8636,1.5358],[106.6231,-5.8566,0.0],[106.6316,-5.8543,0.0]]],
[[[106.5949,-5.9355,0.6651],[106.5914,-5.9348,0.0],[106.5934,-5.9389,2.1846],[106.5974,-5.9378,1.6247],[106.5949,-5.9355,0.6651]]],
[[[106.5866,-5.9269,1.3639],[106.5839,-5.9252,0.485],[106.5811,-5.926,0.0],[106.5863,-5.9309,4.7821],[106.5874,-5.9339,1.2099],[106.5896,-5.9324,1.4722],[106.5881,-5.932,1.4722],[106.5866,-5.9269,1.3639]]],
[[[106.598,-5.8644,0.0],[106.5989,-5.8659,1.9798],[106.599,-5.8624,0.0],[106.5981,-5.8634,0.0],[106.598,-5.8644,0.0]]],
[[[106.6054,-5.8586,3.8431],[106.6069,-5.8585,1.1671],[106.6066,-5.8568,0.8498],[106.6024,-5.8583,0.4434],[106.6032,-5.8596,0.0],[106.6054,-5.8586,3.8431]]],
[[[106.6005,-5.8567,0.7931],[106.6016,-5.8576,0.7931],[106.5999,-5.8551,0.0],[106.5995,-5.8561,0.0],[106.6005,-5.8567,0.7931]]],
[[[106.6139,-5.8542,0.9391],[106.614,-5.8548,0.0],[106.6144,-5.855,0.0],[106.6143,-5.8536,0.9391],[106.6139,-5.8542,0.9391]]],
[[[106.6197,-5.8537,0.9487],[106.6206,-5.8522,0.3815],[106.6192,-5.8534,0.9487],[106.6196,-5.8546,1.6572],[106.6197,-5.8537,0.9487]]],
[[[106.5824,-5.7638,3.4691],[106.5834,-5.7648,1.0557],[106.5839,-5.7603,0.0],[106.5823,-5.7625,1.1838],[106.5824,-5.7638,3.4691]]],
[[[106.6228,-5.8534,0.0],[106.6227,-5.8539,0.0],[106.6228,-5.854,0.0],[106.623,-5.8531,0.0],[106.6228,-5.8534,0.0]]],
[[[106.6219,-5.8529,0.0],[106.6221,-5.8524,0.0],[106.6214,-5.8523,0.0],[106.6214,-5.8528,0.0],[106.6219,-5.8529,0.0]]],
[[[106.7114,-5.6946,0.0],[106.7111,-5.6964,0.0],[106.7134,-5.6937,1.8315],[106.7124,-5.6932,1.8315],[106.7114,-5.6946,0.0]]],
[[[106.6796,-5.6891,0.0],[106.6809,-5.6867,0.0],[106.6792,-5.6872,0.0],[106.6782,-5.6901,0.0],[106.6796,-5.6891,0.0]]],
[[[106.6081,-5.759,0.0],[106.6072,-5.7592,0.0],[106.6068,-5.7596,1.2195],[106.608,-5.7597,1.2195],[106.6081,-5.759,0.0]]],
[[[106.6121,-5.7472,1.8122],[106.6119,-5.7493,3.348],[106.6144,-5.7474,5.534],[106.6158,-5.7419,3.4819],[106.6142,-5.7421,0.8786],[106.6121,-5.7472,1.8122]]],
[[[106.6032,-5.7415,0.5038],[106.6044,-5.7431,0.0],[106.6019,-5.7371,0.9379],[106.5979,-5.7381,0.0],[106.6011,-5.7389,4.0109],[106.6032,-5.7415,0.5038]]],
[[[106.6155,-5.7395,0.0],[106.6152,-5.7395,0.0],[106.6154,-5.74,0.0],[106.6157,-5.7398,0.0],[106.6155,-5.7395,0.0]]],
[[[106.5995,-5.7345,0.0],[106.6,-5.7358,0.0],[106.6035,-5.7342,0.0],[106.601,-5.7338,1.7493],[106.5995,-5.7345,0.0]]],
[[[106.5862,-5.7275,0.0],[106.5858,-5.7295,0.0],[106.5861,-5.7297,0.0],[106.5872,-5.7266,0.0],[106.5862,-5.7275,0.0]]],
[[[106.587,-5.6791,2.1964],[106.5886,-5.6789,1.8045],[106.5889,-5.6785,1.8045],[106.5877,-5.6783,2.1964],[106.587,-5.6791,2.1964]]],
[[[106.5816,-5.6201,0.0],[106.5834,-5.6207,4.9819],[106.5857,-5.619,2.9435],[106.5835,-5.6182,1.3409],[106.5816,-5.6201,0.0]]],
[[[106.6026,-5.6044,0.0],[106.6032,-5.6048,0.9438],[106.6039,-5.6038,0.0],[106.6029,-5.604,0.0],[106.6026,-5.6044,0.0]]],
[[[106.5889,-5.5871,5.1516],[106.5918,-5.5865,9.0767],[106.592,-5.5836,0.0],[106.5882,-5.586,0.0],[106.5889,-5.5871,5.1516]]],
[[[106.5961,-5.5789,0.5723],[106.5939,-5.5786,0.3217],[106.5927,-5.58,3.1241],[106.5959,-5.5806,2.1135],[106.5961,-5.5789,0.5723]]],
[[[106.5841,-5.5698,4.998],[106.5846,-5.5709,4.998],[106.5854,-5.5694,0.0],[106.5849,-5.569,0.0],[106.5841,-5.5698,4.998]]],
[[[106.5698,-5.5823,1.7956],[106.5708,-5.5815,1.7956],[106.5672,-5.5824,0.0],[106.5679,-5.5827,5.0572],[106.5698,-5.5823,1.7956]]],
[[[106.5799,-5.5754,8.3845],[106.5805,-5.5768,4.2125],[106.5826,-5.5753,7.5783],[106.5807,-5.5737,0.0],[106.5799,-5.5754,8.3845]]],
[[[106.5802,-5.4921,1.1885],[106.5765,-5.4917,3.0005],[106.5762,-5.4948,0.8218],[106.5786,-5.4938,4.8886],[106.5802,-5.4921,1.1885]]],
[[[106.5722,-5.4561,0.6087],[106.5708,-5.4547,3.7679],[106.5682,-5.4555,0.68],[106.5661,-5.4587,11.1517],[106.5682,-5.4592,7.4279],[106.5722,-5.4561,0.6087]]],
[[[106.5584,-5.5709,0.0],[106.5562,-5.5706,0.0],[106.5555,-5.5715,2.2043],[106.5596,-5.5722,0.0],[106.5584,-5.5709,0.0]]],
[[[106.5656,-5.5661,0.0],[106.566,-5.5666,0.0],[106.5664,-5.5658,0.0],[106.5657,-5.5657,0.0],[106.5656,-5.5661,0.0]]],
[[[106.5577,-5.4606,0.0],[106.5536,-5.4607,0.0],[106.5532,-5.4643,11.885],[106.5568,-5.4641,16.4457],[106.5577,-5.4606,0.0]]],
[[[106.5641,-5.4518,0.0],[106.5642,-5.4523,0.0],[106.5647,-5.4523,0.0],[106.5648,-5.4515,0.0],[106.5641,-5.4518,0.0]]],
[[[106.5194,-5.9601,0.0],[106.5225,-5.9592,0.0],[106.5222,-5.9536,0.0],[106.5197,-5.9549,0.0],[106.5194,-5.9601,0.0]]],
[[[106.5278,-5.8031,2.9638],[106.5233,-5.8022,0.4896],[106.5163,-5.8024,0.9467],[106.5306,-5.8039,0.0],[106.5278,-5.8031,2.9638]]],
[[[106.4961,-5.7951,0.8328],[106.4919,-5.7959,0.0],[106.4819,-5.7929,0.0],[106.4783,-5.7932,1.4114],[106.5014,-5.8008,0.6513],[106.5116,-5.8026,2.1137],[106.4961,-5.7951,0.8328]]],
[[[106.5258,-5.5688,3.1149],[106.5276,-5.5703,4.4143],[106.5295,-5.5678,0.0],[106.5254,-5.5669,0.9297],[106.5258,-5.5688,3.1149]]],
[[[106.5494,-5.8142,0.0],[106.5494,-5.8139,0.0],[106.5491,-5.8141,0.0],[106.5493,-5.8142,0.0],[106.5494,-5.8142,0.0]]],
[[[106.5365,-5.8038,0.0],[106.5356,-5.8039,0.0],[106.5355,-5.804,0.0],[106.5365,-5.8042,0.0],[106.5365,-5.8038,0.0]]],
[[[106.5437,-5.7001,1.1485],[106.5353,-5.699,0.0],[106.534,-5.7,2.5347],[106.54,-5.7016,4.4527],[106.5437,-5.7001,1.1485]]],
[[[106.5318,-5.6887,0.0],[106.5309,-5.6895,0.0],[106.531,-5.6899,4.2188],[106.5326,-5.6894,0.0],[106.5318,-5.6887,0.0]]],
[[[106.5472,-5.6235,5.9984],[106.5446,-5.6232,2.6018],[106.5437,-5.624,2.6018],[106.5482,-5.6242,5.9984],[106.5472,-5.6235,5.9984]]],
[[[106.5434,-5.6046,9.3939],[106.5433,-5.6058,9.3939],[106.5465,-5.6036,6.7408],[106.5448,-5.6038,6.7408],[106.5434,-5.6046,9.3939]]],
[[[106.5488,-5.5978,0.0],[106.5489,-5.5984,0.0],[106.5499,-5.5983,0.0],[106.5497,-5.5978,0.0],[106.5488,-5.5978,0.0]]],
[[[106.5417,-5.5918,4.1668],[106.5431,-5.5923,3.3855],[106.5443,-5.5916,3.3855],[106.543,-5.5907,0.0],[106.5417,-5.5918,4.1668]]],
[[[106.5479,-5.5864,12.4291],[106.5452,-5.586,0.0],[106.5443,-5.5867,0.0],[106.5468,-5.5882,1.9304],[106.5479,-5.5864,12.4291]]],
[[[106.5516,-5.5835,0.0],[106.5513,-5.584,0.0],[106.5515,-5.5844,0.0],[106.5524,-5.5834,0.0],[106.5516,-5.5835,0.0]]],
[[[106.5476,-5.5822,3.9151],[106.5499,-5.5822,1.7992],[106.551,-5.5767,0.0],[106.5473,-5.5796,2.1768],[106.5476,-5.5822,3.9151]]],
[[[106.5404,-5.572,4.4451],[106.5393,-5.5745,7.496],[106.5423,-5.5733,5.2363],[106.5434,-5.5708,0.0],[106.5414,-5.5707,1.9019],[106.5404,-5.572,4.4451]]],
[[[106.5555,-5.8198,1.6799],[106.5483,-5.8198,0.0],[106.5559,-5.8232,2.0546],[106.5579,-5.8215,0.0],[106.5555,-5.8198,1.6799]]],
[[[106.5525,-5.8136,0.0],[106.5526,-5.8134,0.0],[106.5522,-5.8134,0.0],[106.5521,-5.8136,0.0],[106.5525,-5.8136,0.0]]],
[[[106.5545,-5.7708,0.0],[106.5545,-5.7707,0.0],[106.5543,-5.7706,0.0],[106.5544,-5.7709,0.0],[106.5545,-5.7708,0.0]]],
[[[106.5594,-5.7702,7.7303],[106.5597,-5.7718,0.855],[106.5613,-5.7693,0.0],[106.5605,-5.7693,0.0],[106.5594,-5.7702,7.7303]]],
[[[106.5835,-5.8625,1.2516],[106.5842,-5.8628,0.0],[106.5838,-5.8622,1.2516],[106.5817,-5.8618,0.0],[106.5818,-5.8623,0.0],[106.5835,-5.8625,1.2516]]],
[[[106.5825,-5.7527,0.0],[106.5827,-5.7528,0.0],[106.5828,-5.7527,0.0],[106.5827,-5.7526,0.0],[106.5825,-5.7527,0.0]]],
[[[106.5718,-5.7293,0.0],[106.5704,-5.73,1.2648],[106.57,-5.7301,1.2648],[106.5716,-5.7301,1.0591],[106.5718,-5.7293,0.0]]],
[[[106.5762,-5.7079,0.0],[106.5759,-5.7078,0.0],[106.5761,-5.7094,0.0],[106.5764,-5.7089,0.0],[106.5762,-5.7079,0.0]]],
[[[106.5647,-5.7336,0.0],[106.5638,-5.7334,0.0],[106.5637,-5.7336,0.0],[106.5652,-5.7338,0.0],[106.5647,-5.7336,0.0]]],
[[[106.5649,-5.7105,0.0],[106.566,-5.7107,0.0],[106.5677,-5.7102,0.0],[106.5651,-5.7103,0.0],[106.5649,-5.7105,0.0]]],
[[[106.5628,-5.6842,0.0],[106.5623,-5.6842,0.0],[106.5614,-5.6854,0.5564],[106.5625,-5.6848,0.5564],[106.5628,-5.6842,0.0]]],
[[[106.5593,-5.6688,2.8322],[106.5602,-5.6688,2.8322],[106.5609,-5.6682,2.8322],[106.5591,-5.6682,0.0],[106.5593,-5.6688,2.8322]]],
[[[106.585,-5.669,0.0],[106.5805,-5.6686,1.5155],[106.5788,-5.6709,1.8283],[106.5843,-5.6696,0.0],[106.585,-5.669,0.0]]],
[[[106.5679,-5.6665,1.1409],[106.5679,-5.6672,1.1409],[106.5689,-5.6667,1.1409],[106.5688,-5.6663,1.1409],[106.5679,-5.6665,1.1409]]],
[[[106.5678,-5.6612,3.5508],[106.5676,-5.6614,8.0197],[106.5655,-5.6628,5.9335],[106.5705,-5.6604,1.9811],[106.5678,-5.6612,3.5508]]],
[[[106.5713,-5.6536,3.1709],[106.5726,-5.6522,0.9569],[106.5675,-5.6533,3.1838],[106.5644,-5.6562,0.0],[106.5667,-5.6566,1.2544],[106.5713,-5.6536,3.1709]]],
[[[106.5813,-5.6527,0.0],[106.5801,-5.6522,0.0],[106.5761,-5.6516,1.3018],[106.5773,-5.6537,1.6866],[106.5813,-5.6527,0.0]]],
[[[106.5677,-5.6487,1.1289],[106.5641,-5.6488,0.0],[106.5644,-5.6493,0.0],[106.5696,-5.6491,0.0],[106.5677,-5.6487,1.1289]]],
[[[106.5852,-5.6349,1.6126],[106.5819,-5.6336,3.1163],[106.575,-5.6344,0.0],[106.5761,-5.636,10.9832],[106.5852,-5.6349,1.6126]]],
[[[106.5729,-5.6274,5.6496],[106.5734,-5.6266,5.6496],[106.5714,-5.627,0.0],[106.5716,-5.6277,5.6496],[106.5729,-5.6274,5.6496]]],
[[[106.5636,-5.6443,1.1578],[106.5671,-5.6431,0.5194],[106.559,-5.6443,0.1934],[106.5575,-5.6462,1.1522],[106.5578,-5.6464,0.0],[106.5636,-5.6443,1.1578]]],
[[[106.5555,-5.6409,0.0],[106.5553,-5.6412,0.0],[106.5559,-5.6422,0.0],[106.5561,-5.6417,0.0],[106.5555,-5.6409,0.0]]],
[[[106.5613,-5.6191,0.0],[106.5609,-5.6193,0.0],[106.5611,-5.62,0.0],[106.5619,-5.6197,0.0],[106.5613,-5.6191,0.0]]],
[[[106.5502,-5.6182,6.8815],[106.5495,-5.6203,4.7873],[106.5565,-5.6157,8.5272],[106.5534,-5.6142,0.0],[106.5502,-5.6182,6.8815]]],
[[[106.5729,-5.6173,0.0],[106.5724,-5.6174,0.0],[106.5716,-5.6181,0.5304],[106.5729,-5.6176,0.0],[106.5729,-5.6173,0.0]]],
[[[106.5729,-5.6115,0.0],[106.5729,-5.6136,0.0],[106.5745,-5.6142,7.2247],[106.583,-5.6098,4.0088],[106.5758,-5.61,3.2755],[106.5729,-5.6115,0.0]]],
[[[106.5668,-5.606,0.0],[106.5665,-5.6066,1.1712],[106.5667,-5.6073,1.1712],[106.5678,-5.6063,0.0],[106.5668,-5.606,0.0]]],
[[[106.5699,-5.5925,0.8584],[106.5696,-5.5911,0.0],[106.567,-5.592,2.6663],[106.5679,-5.5934,5.4597],[106.5699,-5.5925,0.8584]]],
[[[106.5527,-5.5972,0.0],[106.5524,-5.5974,0.0],[106.5525,-5.598,0.0],[106.553,-5.5975,0.0],[106.5527,-5.5972,0.0]]],
[[[106.5616,-5.5933,1.9127],[106.5597,-5.5927,0.0],[106.5569,-5.5954,0.0],[106.5595,-5.595,1.5827],[106.5616,-5.5933,1.9127]]],
[[[106.5578,-5.5904,1.3297],[106.5585,-5.5903,1.3297],[106.5586,-5.5899,1.3297],[106.5575,-5.5897,1.3297],[106.5578,-5.5904,1.3297]]],
[[[106.5513,-5.5898,5.1652],[106.5528,-5.5902,5.1652],[106.5559,-5.5889,2.2404],[106.5536,-5.5887,2.4083],[106.5513,-5.5898,5.1652]]],
[[[106.5257,-5.5566,1.4722],[106.526,-5.5575,1.4722],[106.5279,-5.5567,7.2411],[106.5269,-5.5561,0.0],[106.5257,-5.5566,1.4722]]],
[[[106.5308,-5.5546,9.0401],[106.5306,-5.5559,9.0401],[106.5327,-5.5544,0.0],[106.5321,-5.5538,0.0],[106.5308,-5.5546,9.0401]]],
[[[106.5188,-5.5494,0.0],[106.5184,-5.5506,6.6487],[106.5199,-5.5508,6.6487],[106.5212,-5.5486,3.326],[106.5196,-5.5485,0.0],[106.5188,-5.5494,0.0]]],
[[[106.53,-5.55,5.035],[106.5298,-5.5487,3.1136],[106.5263,-5.5496,2.6923],[106.5276,-5.5503,2.6923],[106.53,-5.55,5.035]]],
[[[106.5495,-5.5692,1.474],[106.5503,-5.5704,8.2877],[106.5516,-5.5688,0.0],[106.5502,-5.5685,1.474],[106.5495,-5.5692,1.474]]],
[[[106.5449,-5.5533,1.9136],[106.5457,-5.5514,3.9221],[106.5426,-5.5512,0.0],[106.5406,-5.5541,3.5443],[106.5426,-5.555,5.4194],[106.5449,-5.5533,1.9136]]],
[[[106.5342,-5.5367,6.0363],[106.5364,-5.5341,0.0],[106.5302,-5.5373,0.0],[106.5321,-5.5373,11.2503],[106.5342,-5.5367,6.0363]]],
[[[106.5444,-5.5294,8.5401],[106.5437,-5.5276,0.0],[106.5411,-5.5279,0.0],[106.5394,-5.5307,10.632],[106.5406,-5.5312,10.632],[106.5444,-5.5294,8.5401]]],
[[[106.5243,-5.5212,1.1499],[106.5249,-5.5226,14.8631],[106.5266,-5.5219,0.0],[106.5259,-5.5204,1.1499],[106.5243,-5.5212,1.1499]]],
[[[106.5286,-5.5125,0.0],[106.527,-5.5118,3.8945],[106.5256,-5.5127,0.0],[106.5279,-5.514,13.1362],[106.5286,-5.5125,0.0]]],
[[[106.5187,-5.5125,0.0],[106.5184,-5.5128,0.0],[106.5191,-5.513,0.0],[106.5191,-5.5127,0.0],[106.5187,-5.5125,0.0]]],
[[[106.3845,-5.4962,0.0],[106.3842,-5.4967,0.0],[106.385,-5.4966,0.0],[106.3848,-5.4963,0.0],[106.3845,-5.4962,0.0]]],
[[[106.5383,-5.5122,14.0502],[106.5381,-5.5105,0.0],[106.5349,-5.5111,0.0],[106.5323,-5.5153,1.3854],[106.5369,-5.5136,4.613],[106.5383,-5.5122,14.0502]]],
[[[106.5347,-5.5016,0.8621],[106.5316,-5.5012,0.0],[106.5332,-5.5033,4.1388],[106.5347,-5.5031,0.0],[106.5347,-5.5016,0.8621]]],
[[[106.5505,-5.4998,7.5431],[106.5467,-5.4993,0.0],[106.5429,-5.5044,7.5688],[106.5496,-5.5021,7.2905],[106.5548,-5.5023,7.8948],[106.5573,-5.5004,0.0],[106.5505,-5.4998,7.5431]]],
[[[106.5447,-5.4624,0.0],[106.5451,-5.4633,3.9972],[106.5464,-5.4627,0.0],[106.5457,-5.4621,0.0],[106.5447,-5.4624,0.0]]],
[[[106.3933,-5.4804,0.1899],[106.3947,-5.4774,0.0],[106.3906,-5.4788,9.7534],[106.3921,-5.4809,2.2675],[106.3933,-5.4804,0.1899]]],
[[[106.5223,-5.4785,8.0005],[106.5253,-5.4782,3.1879],[106.5277,-5.4751,0.0],[106.524,-5.4767,0.8784],[106.5223,-5.4785,8.0005]]],
[[[106.4374,-5.4654,0.0],[106.4385,-5.4659,1.0343],[106.4384,-5.4644,0.0],[106.4375,-5.4645,0.0],[106.4374,-5.4654,0.0]]],
[[[106.4389,-5.4644,0.0],[106.4391,-5.4647,1.0343],[106.4395,-5.4648,1.0343],[106.4392,-5.4638,0.0],[106.4389,-5.4644,0.0]]],
[[[106.4907,-5.422,1.132],[106.4922,-5.4223,4.3351],[106.4948,-5.4184,3.0032],[106.4907,-5.4182,1.0937],[106.4907,-5.422,1.132]]],
[[[106.47,-5.4142,2.8081],[106.4709,-5.4154,0.7492],[106.473,-5.4119,0.0],[106.471,-5.4118,2.8723],[106.47,-5.4142,2.8081]]],
[[[106.4637,-5.2027,0.0],[106.4628,-5.2019,0.0],[106.4595,-5.2035,0.0],[106.4598,-5.2065,0.0],[106.4619,-5.2057,0.2616],[106.4637,-5.2027,0.0]]],
[[[106.3833,-5.1851,0.0],[106.3842,-5.1855,0.0],[106.3842,-5.1845,0.0],[106.3833,-5.1844,0.0],[106.3833,-5.1851,0.0]]]]}}