{"type":"Feature","properties":{"GID_3":"IDN.7.6.2_1","GID_0":"IDN","country":"Indonesia","GID_1":"IDN.7_1","province":"JakartaRaya","NL_NAME_1":"NA","GID_2":"IDN.7.6_1","county":"KepulauanSeribu","NL_NAME_2":"NA","city":"KepulauanSeribuUtara","VARNAME_3":"NA","NL_NAME_3":"NA","TYPE_3":"Kecamatan","ENGTYPE_3":"Sub-district","CC_3":"3101020","HASC_3":"NA","name":"Kepulauan_Seribu_Utara.city"},
"geometry":{"type": "MultiPolygon","coordinates": [[[[106.5825,-5.7641,3.4691],[106.5834,-5.7648,1.0557],[106.5839,-5.7603,0.0],[106.5823,-5.7625,1.1838],[106.5825,-5.7641,3.4691]]],
[[[106.6075,-5.7591,0.0],[106.6068,-5.7596,1.2195],[106.6084,-5.7593,0.0],[106.6081,-5.759,0.0],[106.6075,-5.7591,0.0]]],
[[[106.6116,-5.7483,3.348],[106.6126,-5.7492,3.348],[106.6144,-5.7474,5.534],[106.6156,-5.7417,3.4819],[106.6142,-5.7421,0.8786],[106.6116,-5.7483,3.348]]],
[[[106.6034,-5.7419,0.5038],[106.6044,-5.7431,0.0],[106.602,-5.7372,0.9379],[106.5981,-5.7379,0.0],[106.6011,-5.7389,4.0109],[106.6034,-5.7419,0.5038]]],
[[[106.6154,-5.7394,0.0],[106.6152,-5.7397,0.0],[106.6155,-5.74,0.0],[106.6157,-5.7398,0.0],[106.6154,-5.7394,0.0]]],
[[[106.5989,-5.7348,0.0],[106.6011,-5.7357,2.9642],[106.6035,-5.7342,0.0],[106.6007,-5.7338,1.7493],[106.5989,-5.7348,0.0]]],
[[[106.586,-5.7282,0.0],[106.5861,-5.7297,0.0],[106.5872,-5.7266,0.0],[106.5864,-5.7267,0.0],[106.586,-5.7282,0.0]]],
[[[106.7112,-5.6956,0.0],[106.7126,-5.6956,2.8932],[106.7133,-5.6936,1.8315],[106.7123,-5.6933,1.8315],[106.7112,-5.6956,0.0]]],
[[[106.5827,-5.7528,0.0],[106.5828,-5.7527,0.0],[106.5825,-5.7527,0.0],[106.5826,-5.7528,0.0],[106.5827,-5.7528,0.0]]],
[[[106.5704,-5.73,1.2648],[106.5713,-5.7302,1.2648],[106.572,-5.7295,0.0],[106.5716,-5.7294,0.0],[106.5704,-5.73,1.2648]]],
[[[106.576,-5.7078,0.0],[106.5759,-5.7082,0.0],[106.5761,-5.7094,0.0],[106.5764,-5.7085,0.0],[106.576,-5.7078,0.0]]],
[[[106.5849,-5.6688,0.0],[106.5805,-5.6686,1.5155],[106.5788,-5.6709,1.8283],[106.5849,-5.6694,0.0],[106.5849,-5.6688,0.0]]],
[[[106.68,-5.6888,0.0],[106.6809,-5.6867,0.0],[106.6792,-5.6872,0.0],[106.6782,-5.6901,0.0],[106.68,-5.6888,0.0]]],
[[[106.5871,-5.6792,2.1964],[106.5886,-5.6789,1.8045],[106.5888,-5.6784,1.8045],[106.5866,-5.6788,2.1964],[106.5871,-5.6792,2.1964]]],
[[[106.5817,-5.6203,0.0],[106.5839,-5.6205,2.2385],[106.5857,-5.619,2.9435],[106.5835,-5.6182,1.3409],[106.5817,-5.6203,0.0]]],
[[[106.6026,-5.6042,0.0],[106.6032,-5.6048,0.9438],[106.6039,-5.6038,0.0],[106.6029,-5.604,0.0],[106.6026,-5.6042,0.0]]],
[[[106.5545,-5.7707,0.0],[106.5544,-5.7706,0.0],[106.5543,-5.7706,0.0],[106.5544,-5.7709,0.0],[106.5545,-5.7707,0.0]]],
[[[106.5592,-5.7705,1.053],[106.5597,-5.7718,0.855],[106.5613,-5.7693,0.0],[106.5601,-5.7695,0.0],[106.5592,-5.7705,1.053]]],
[[[106.5643,-5.7335,0.0],[106.5639,-5.7341,0.0],[106.5652,-5.7338,0.0],[106.5647,-5.7336,0.0],[106.5643,-5.7335,0.0]]],
[[[106.565,-5.7106,0.0],[106.566,-5.7107,0.0],[106.5677,-5.7102,0.0],[106.5651,-5.7103,0.0],[106.565,-5.7106,0.0]]],
[[[106.5629,-5.6839,0.0],[106.5623,-5.6842,0.0],[106.5614,-5.6854,0.5564],[106.5625,-5.6848,0.5564],[106.5629,-5.6839,0.0]]],
[[[106.5595,-5.6688,2.8322],[106.5608,-5.6686,2.8322],[106.5609,-5.6682,2.8322],[106.559,-5.6683,0.0],[106.5595,-5.6688,2.8322]]],
[[[106.5676,-5.6487,1.1289],[106.5641,-5.6488,0.0],[106.5644,-5.6493,0.0],[106.5696,-5.6491,0.0],[106.5676,-5.6487,1.1289]]],
[[[106.5637,-5.6442,1.1578],[106.5671,-5.6431,0.5194],[106.559,-5.6443,0.1934],[106.5575,-5.6462,1.1522],[106.5578,-5.6464,0.0],[106.5637,-5.6442,1.1578]]],
[[[106.5679,-5.6666,1.1409],[106.5679,-5.6672,1.1409],[106.5689,-5.6667,1.1409],[106.5688,-5.6663,1.1409],[106.5679,-5.6666,1.1409]]],
[[[106.5676,-5.6614,8.0197],[106.5655,-5.6628,5.9335],[106.5705,-5.6604,1.9811],[106.5697,-5.6599,1.9811],[106.5676,-5.6614,8.0197]]],
[[[106.5715,-5.6534,3.1709],[106.5726,-5.6522,0.9569],[106.5675,-5.6533,3.1838],[106.5644,-5.6562,0.0],[106.5667,-5.6566,1.2544],[106.5715,-5.6534,3.1709]]],
[[[106.5812,-5.6526,0.0],[106.5801,-5.6522,0.0],[106.5761,-5.6516,1.3018],[106.5773,-5.6537,1.6866],[106.5812,-5.6526,0.0]]],
[[[106.5554,-5.641,0.0],[106.5553,-5.6412,0.0],[106.5559,-5.6422,0.0],[106.5559,-5.6414,0.0],[106.5554,-5.641,0.0]]],
[[[106.5611,-5.6191,0.0],[106.561,-5.6199,0.0],[106.5619,-5.6197,0.0],[106.5616,-5.6191,0.0],[106.5611,-5.6191,0.0]]],
[[[106.5498,-5.6194,6.8815],[106.5562,-5.6169,7.5168],[106.5561,-5.615,8.5272],[106.5531,-5.6143,0.0],[106.5498,-5.6194,6.8815]]],
[[[106.5617,-5.5932,1.9127],[106.5597,-5.5927,0.0],[106.5569,-5.5954,0.0],[106.5596,-5.5949,1.5827],[106.5617,-5.5932,1.9127]]],
[[[106.5853,-5.6349,1.6126],[106.5819,-5.6336,3.1163],[106.575,-5.6344,0.0],[106.5761,-5.636,10.9832],[106.5853,-5.6349,1.6126]]],
[[[106.5731,-5.6273,5.6496],[106.5728,-5.6265,5.6496],[106.5714,-5.627,0.0],[106.5716,-5.6277,5.6496],[106.5731,-5.6273,5.6496]]],
[[[106.5724,-5.6174,0.0],[106.5717,-5.6179,0.0],[106.5716,-5.6181,0.5304],[106.573,-5.6173,0.0],[106.5724,-5.6174,0.0]]],
[[[106.5727,-5.6124,0.0],[106.5745,-5.6142,7.2247],[106.583,-5.6098,4.0088],[106.5746,-5.6102,2.1877],[106.5727,-5.6124,0.0]]],
[[[106.5667,-5.6062,0.0],[106.5667,-5.6073,1.1712],[106.5678,-5.6065,0.0],[106.5674,-5.606,0.0],[106.5667,-5.6062,0.0]]],
[[[106.5701,-5.5923,0.8584],[106.5696,-5.5911,0.0],[106.567,-5.592,2.6663],[106.5679,-5.5934,5.4597],[106.5701,-5.5923,0.8584]]],
[[[106.5693,-5.5825,5.0572],[106.5708,-5.5815,1.7956],[106.5672,-5.5824,0.0],[106.5676,-5.5827,5.0572],[106.5693,-5.5825,5.0572]]],
[[[106.5799,-5.5753,8.3845],[106.5802,-5.5768,4.2125],[106.5826,-5.5753,7.5783],[106.5807,-5.5737,0.0],[106.5799,-5.5753,8.3845]]],
[[[106.5887,-5.587,5.1516],[106.5918,-5.5865,9.0767],[106.5922,-5.5839,0.0],[106.5892,-5.585,0.0],[106.5887,-5.587,5.1516]]],
[[[106.5965,-5.5794,0.0],[106.5941,-5.5785,0.3217],[106.5927,-5.58,3.1241],[106.5957,-5.5806,2.1135],[106.5965,-5.5794,0.0]]],
[[[106.5842,-5.5695,0.0],[106.5843,-5.5709,4.998],[106.5852,-5.5706,4.998],[106.5853,-5.5691,0.0],[106.5842,-5.5695,0.0]]],
[[[106.5802,-5.4921,1.1885],[106.5765,-5.4917,3.0005],[106.5762,-5.4948,0.8218],[106.5786,-5.4938,4.8886],[106.5802,-5.4921,1.1885]]],
[[[106.5722,-5.4561,0.6087],[106.5708,-5.4547,3.7679],[106.5682,-5.4555,0.68],[106.5661,-5.4587,11.1517],[106.5682,-5.4592,7.4279],[106.5722,-5.4561,0.6087]]],
[[[106.5431,-5.6994,0.0],[106.5349,-5.699,0.0],[106.534,-5.7,2.5347],[106.5407,-5.7015,0.0],[106.5431,-5.6994,0.0]]],
[[[106.5468,-5.6235,5.9926],[106.5446,-5.6232,2.6018],[106.5437,-5.624,2.6018],[106.5482,-5.6241,5.9984],[106.5468,-5.6235,5.9926]]],
[[[106.5432,-5.605,9.3939],[106.5445,-5.6055,9.3939],[106.5465,-5.6036,6.7408],[106.5448,-5.6038,6.7408],[106.5432,-5.605,9.3939]]],
[[[106.5486,-5.598,0.0],[106.5489,-5.5984,0.0],[106.5499,-5.5983,0.0],[106.5496,-5.5977,0.0],[106.5486,-5.598,0.0]]],
[[[106.5311,-5.6892,0.0],[106.5312,-5.6899,4.2188],[106.5327,-5.6891,0.0],[106.5321,-5.6886,0.0],[106.5311,-5.6892,0.0]]],
[[[106.5263,-5.5693,6.4339],[106.5278,-5.5702,4.4143],[106.5294,-5.5675,0.0],[106.5254,-5.5669,0.9297],[106.5263,-5.5693,6.4339]]],
[[[106.5254,-5.5569,1.4722],[106.5267,-5.5574,7.2411],[106.5279,-5.5567,7.2411],[106.5266,-5.5561,0.0],[106.5254,-5.5569,1.4722]]],
[[[106.5305,-5.5549,9.0401],[106.5309,-5.556,9.0401],[106.5327,-5.5544,0.0],[106.5319,-5.5539,0.0],[106.5305,-5.5549,9.0401]]],
[[[106.5479,-5.5825,3.9151],[106.55,-5.582,1.7992],[106.551,-5.5767,0.0],[106.5473,-5.5796,2.1768],[106.5479,-5.5825,3.9151]]],
[[[106.5402,-5.573,7.496],[106.5393,-5.5745,7.496],[106.5423,-5.5733,5.2363],[106.5433,-5.5707,0.0],[106.5409,-5.571,1.9019],[106.5402,-5.573,7.496]]],
[[[106.5494,-5.5695,1.474],[106.5503,-5.5704,8.2877],[106.5516,-5.5688,0.0],[106.5502,-5.5685,1.474],[106.5494,-5.5695,1.474]]],
[[[106.5454,-5.5528,3.9221],[106.5452,-5.5511,0.0],[106.5414,-5.5516,5.588],[106.5407,-5.5544,13.2961],[106.5426,-5.555,5.4194],[106.5454,-5.5528,3.9221]]],
[[[106.5185,-5.55,6.6487],[106.5202,-5.5507,4.7836],[106.5212,-5.5486,3.326],[106.5194,-5.5486,0.0],[106.5185,-5.55,6.6487]]],
[[[106.5303,-5.5497,5.035],[106.5298,-5.5487,3.1136],[106.5263,-5.5496,2.6923],[106.5276,-5.5503,2.6923],[106.5303,-5.5497,5.035]]],
[[[106.5241,-5.5216,0.0],[106.5256,-5.5227,14.8631],[106.5266,-5.5211,0.0],[106.5251,-5.5205,1.1499],[106.5241,-5.5216,0.0]]],
[[[106.5284,-5.5122,0.0],[106.527,-5.5118,3.8945],[106.5256,-5.5127,0.0],[106.5281,-5.514,13.1362],[106.5284,-5.5122,0.0]]],
[[[106.5526,-5.5972,0.0],[106.5524,-5.5974,0.0],[106.5525,-5.598,0.0],[106.553,-5.5975,0.0],[106.5526,-5.5972,0.0]]],
[[[106.5417,-5.5919,4.1668],[106.5431,-5.5923,3.3855],[106.5443,-5.5916,3.3855],[106.543,-5.5907,0.0],[106.5417,-5.5919,4.1668]]],
[[[106.5476,-5.5864,12.4291],[106.5452,-5.586,0.0],[106.5443,-5.5867,0.0],[106.5468,-5.5882,1.9304],[106.5476,-5.5864,12.4291]]],
[[[106.5515,-5.5837,0.0],[106.5515,-5.5844,0.0],[106.5523,-5.5833,0.0],[106.5517,-5.5834,0.0],[106.5515,-5.5837,0.0]]],
[[[106.558,-5.5904,1.3297],[106.5585,-5.5897,1.3297],[106.5574,-5.5897,1.3297],[106.5574,-5.5901,1.3297],[106.558,-5.5904,1.3297]]],
[[[106.5512,-5.5899,5.1652],[106.5529,-5.5902,5.1652],[106.5559,-5.5889,2.2404],[106.5536,-5.5887,2.4083],[106.5512,-5.5899,5.1652]]],
[[[106.5585,-5.571,0.0],[106.5564,-5.5706,0.0],[106.5555,-5.5715,2.2043],[106.5596,-5.5722,0.0],[106.5585,-5.571,0.0]]],
[[[106.5656,-5.5658,0.0],[106.5656,-5.5666,0.0],[106.5664,-5.5663,0.0],[106.5664,-5.5658,0.0],[106.5656,-5.5658,0.0]]],
[[[106.5501,-5.4994,0.1607],[106.5467,-5.4993,0.0],[106.543,-5.5046,3.8429],[106.5496,-5.5021,7.2905],[106.5548,-5.5023,7.8948],[106.5573,-5.5004,0.0],[106.5501,-5.4994,0.1607]]],
[[[106.5446,-5.4627,0.0],[106.5454,-5.4633,3.9972],[106.5464,-5.4627,0.0],[106.5454,-5.4621,0.0],[106.5446,-5.4627,0.0]]],
[[[106.5577,-5.4606,0.0],[106.5536,-5.4607,0.0],[106.5532,-5.4643,11.885],[106.5568,-5.4641,16.4457],[106.5577,-5.4606,0.0]]],
[[[106.5641,-5.4518,0.0],[106.5642,-5.4523,0.0],[106.5647,-5.4523,0.0],[106.5648,-5.4515,0.0],[106.5641,-5.4518,0.0]]],
[[[106.5344,-5.5366,6.0363],[106.5364,-5.5341,0.0],[106.5302,-5.5373,0.0],[106.5321,-5.5373,11.2503],[106.5344,-5.5366,6.0363]]],
[[[106.5444,-5.5292,8.5401],[106.5437,-5.5276,0.0],[106.5411,-5.5279,0.0],[106.5394,-5.5307,10.632],[106.5406,-5.5312,10.632],[106.5444,-5.5292,8.5401]]],
[[[106.5384,-5.5121,14.0502],[106.5381,-5.5105,0.0],[106.5349,-5.5111,0.0],[106.5323,-5.5153,1.3854],[106.5369,-5.5136,4.613],[106.5384,-5.5121,14.0502]]],
[[[106.5347,-5.5015,0.8621],[106.5316,-5.5012,0.0],[106.5332,-5.5033,4.1388],[106.5347,-5.5031,0.0],[106.5347,-5.5015,0.8621]]],
[[[106.5186,-5.5125,0.0],[106.5185,-5.5129,0.0],[106.5191,-5.5129,0.0],[106.519,-5.5126,0.0],[106.5186,-5.5125,0.0]]],
[[[106.3843,-5.4962,0.0],[106.3842,-5.4967,0.0],[106.385,-5.4966,0.0],[106.3847,-5.4962,0.0],[106.3843,-5.4962,0.0]]],
[[[106.3931,-5.4807,0.1899],[106.3954,-5.4782,0.4303],[106.3947,-5.4774,0.0],[106.3906,-5.4786,9.7534],[106.3931,-5.4807,0.1899]]],
[[[106.5224,-5.4781,8.0005],[106.5245,-5.4787,3.1879],[106.5277,-5.4751,0.0],[106.524,-5.4767,0.8784],[106.5224,-5.4781,8.0005]]],
[[[106.4374,-5.4649,0.0],[106.4375,-5.4657,0.0],[106.4385,-5.4659,1.0343],[106.4384,-5.4644,0.0],[106.4374,-5.4649,0.0]]],
[[[106.4387,-5.464,0.0],[106.4391,-5.4647,1.0343],[106.4395,-5.4648,1.0343],[106.4392,-5.4638,0.0],[106.4387,-5.464,0.0]]],
[[[106.4904,-5.4214,1.132],[106.4922,-5.4223,4.3351],[106.4949,-5.4185,3.0032],[106.4907,-5.4182,1.0937],[106.4904,-5.4214,1.132]]],
[[[106.4701,-5.4136,2.8081],[106.4709,-5.4154,0.7492],[106.473,-5.4119,0.0],[106.471,-5.4118,2.8723],[106.4701,-5.4136,2.8081]]],
[[[106.4634,-5.2029,0.0],[106.4628,-5.2019,0.0],[106.4595,-5.2035,0.0],[106.4598,-5.2065,0.0],[106.4619,-5.2057,0.2616],[106.4634,-5.2029,0.0]]],
[[[106.3832,-5.185,0.0],[106.3837,-5.1854,0.0],[106.3843,-5.1853,0.0],[106.3839,-5.1843,0.0],[106.3832,-5.185,0.0]]]]}}