{"type":"Feature","properties":{"GID_3":"IDN.28.11.11_1","GID_0":"IDN","country":"Indonesia","GID_1":"IDN.28_1","province":"SulawesiTenggara","NL_NAME_1":"NA","GID_2":"IDN.28.11_1","county":"Muna","NL_NAME_2":"NA","city":"Kusambi","VARNAME_3":"NA","NL_NAME_3":"NA","TYPE_3":"Kecamatan","ENGTYPE_3":"Sub-district","CC_3":"7402060","HASC_3":"NA","name":"Kusambi.city"},
"geometry":{"type": "MultiPolygon","coordinates": [[[[122.5537,-4.7936,39.4759],[122.5545,-4.7987,46.3305],[122.5619,-4.8018,51.2921],[122.587,-4.7717,63.8042],[122.6019,-4.7613,68.5462],[122.578,-4.734,40.3722],[122.578,-4.7262,37.3246],[122.5541,-4.6938,3.9244],[122.5523,-4.6915,0.0],[122.5466,-4.6913,0.0],[122.5452,-4.6883,0.0],[122.5291,-4.6972,0.0],[122.5348,-4.7058,1.4097],[122.5282,-4.7084,1.6882],[122.5292,-4.7109,2.5269],[122.5276,-4.7082,1.6882],[122.5231,-4.7084,0.0],[122.5224,-4.7134,4.1671],[122.5186,-4.7117,0.0],[122.5053,-4.7163,3.1812],[122.5041,-4.7185,0.8723],[122.5064,-4.7213,5.4828],[122.5019,-4.7186,2.7292],[122.4995,-4.7218,4.8573],[122.4864,-4.726,2.4378],[122.4811,-4.7261,9.1836],[122.4813,-4.7239,6.7007],[122.479,-4.7233,5.6793],[122.4745,-4.7274,2.4405],[122.4809,-4.7306,4.067],[122.4828,-4.7333,5.1764],[122.4905,-4.7537,12.1764],[122.4995,-4.7497,8.3804],[122.5046,-4.7444,6.1132],[122.5072,-4.7436,10.5722],[122.5192,-4.75,18.114],[122.5282,-4.7511,17.7937],[122.5349,-4.7556,23.2579],[122.5449,-4.7672,30.7378],[122.5537,-4.7936,39.4759]]]]}}