{"type":"Feature","properties":{"GID_2":"IDN.28.6_1","GID_0":"IDN","country":"Indonesia","GID_1":"IDN.28_1","province":"SulawesiTenggara","NL_NAME_1":"NA","county":"KolakaUtara","VARNAME_2":"NA","NL_NAME_2":"NA","TYPE_2":"Kabupaten","ENGTYPE_2":"Regency","CC_2":"7408","HASC_2":"ID.SG.KU","name":"Kolaka_Utara.county"},
"geometry":{"type": "MultiPolygon","coordinates": [[[[121.0063,-3.6756,0.0],[121.0168,-3.6823,0.0],[121.0235,-3.683,10.1272],[121.0235,-3.6865,0.9411],[121.0307,-3.6927,2.2976],[121.0358,-3.6931,1.7795],[121.0412,-3.6969,0.0],[121.0494,-3.6964,2.9831],[121.0576,-3.701,3.8498],[121.063,-3.7014,5.0272],[121.0685,-3.7049,6.0902],[121.0695,-3.7111,0.0],[121.0734,-3.712,0.0],[121.0739,-3.7109,1.0332],[121.0741,-3.7123,0.0],[121.0825,-3.7147,0.0],[121.089,-3.7222,1.6464],[121.0919,-3.7298,0.0],[121.0967,-3.7327,0.0],[121.0983,-3.7432,0.0],[121.1041,-3.7471,0.0],[121.1141,-3.7422,555.6103],[121.1637,-3.7019,1580.6903],[121.2231,-3.6752,2323.458],[121.2315,-3.6692,2386.9429],[121.2528,-3.6585,2509.5088],[121.2497,-3.6534,2534.5654],[121.2479,-3.6459,2396.6152],[121.2437,-3.6179,1937.1469],[121.2372,-3.6041,1849.5681],[121.2195,-3.5941,1915.5063],[121.2118,-3.5791,1800.0658],[121.2019,-3.5701,2040.3423],[121.1936,-3.569,1939.6548],[121.1861,-3.5633,1962.0149],[121.1777,-3.5517,1897.1991],[121.1743,-3.5435,1929.4565],[121.1712,-3.5413,1862.916],[121.1602,-3.5388,1917.3022],[121.1571,-3.5361,1941.9117],[121.1549,-3.5311,1724.036],[121.1549,-3.5261,1656.944],[121.1516,-3.5221,1486.0303],[121.1542,-3.516,1344.5164],[121.1503,-3.5097,1288.4161],[121.1506,-3.5053,1198.7014],[121.1439,-3.505,1155.6508],[121.1374,-3.5024,1078.8424],[121.13,-3.4965,1069.4557],[121.1292,-3.4938,1056.2433],[121.1276,-3.4945,1022.1401],[121.124,-3.4909,1084.8743],[121.1197,-3.49,1029.6238],[121.1223,-3.489,1014.3987],[121.1201,-3.4876,1010.9309],[121.1211,-3.484,1039.697],[121.1266,-3.4807,976.8091],[121.1225,-3.4707,957.9533],[121.1241,-3.4677,930.1317],[121.1279,-3.4671,927.9294],[121.1318,-3.4686,944.1225],[121.1334,-3.4635,901.3697],[121.1371,-3.4602,883.8337],[121.1447,-3.4598,901.3387],[121.1497,-3.4456,812.3598],[121.1535,-3.442,800.0102],[121.1552,-3.4361,796.7241],[121.152,-3.4335,767.6447],[121.1506,-3.4344,745.5591],[121.1497,-3.4322,779.0032],[121.1487,-3.4332,745.5591],[121.148,-3.4309,736.1144],[121.141,-3.4256,804.2628],[121.1374,-3.427,774.4205],[121.1326,-3.4162,732.6053],[121.123,-3.411,699.0416],[121.1295,-3.4001,763.3628],[121.1335,-3.3991,742.9024],[121.1332,-3.3944,736.0776],[121.1356,-3.3889,750.8658],[121.1321,-3.3835,773.2681],[121.1335,-3.3809,781.9122],[121.1311,-3.3761,777.3608],[121.1341,-3.3658,805.7087],[121.1421,-3.3653,847.3267],[121.1428,-3.3595,923.8113],[121.1511,-3.3441,1024.1243],[121.1578,-3.3397,1039.4709],[121.1575,-3.3314,1070.795],[121.1539,-3.3302,1064.2732],[121.1518,-3.3269,1053.1923],[121.1584,-3.3246,1060.3816],[121.1573,-3.3227,1055.2786],[121.1585,-3.321,1057.9103],[121.1591,-3.3047,1124.6804],[121.1576,-3.2975,1247.3411],[121.1607,-3.2926,1278.3263],[121.1697,-3.2966,1272.6],[121.1727,-3.2947,1276.6593],[121.1858,-3.2745,1538.0193],[121.1918,-3.2732,1653.9423],[121.1918,-3.2704,1670.7778],[121.221,-3.2545,1577.3682],[121.2202,-3.2457,1654.3447],[121.2236,-3.2331,1890.2549],[121.2279,-3.2281,1943.9868],[121.2533,-3.2254,1791.3894],[121.2747,-3.2261,1662.707],[121.2785,-3.2311,1670.9592],[121.2854,-3.2621,1509.2896],[121.3023,-3.3001,1680.8],[121.3293,-3.3361,1714.4529],[121.3374,-3.3513,2046.6871],[121.3613,-3.3773,1422.6359],[121.3789,-3.3868,978.2133],[121.3883,-3.3894,954.8918],[121.4311,-3.3894,1357.2021],[121.4618,-3.3863,1230.868],[121.4299,-3.3334,1234.6262],[121.4278,-3.3265,1244.0392],[121.4308,-3.2978,1067.4832],[121.4302,-3.2479,548.1252],[121.4356,-3.2204,502.5312],[121.442,-3.1684,986.0478],[121.4367,-3.1587,1152.9982],[121.4212,-3.1495,1304.8777],[121.4164,-3.1421,1166.8813],[121.4118,-3.1194,1239.2061],[121.412,-3.1097,1500.7595],[121.4093,-3.1054,1563.759],[121.3927,-3.1012,1542.7764],[121.3885,-3.0976,1528.4807],[121.3889,-3.0859,1423.7925],[121.3817,-3.0709,1569.4825],[121.3668,-3.0595,1477.6111],[121.3613,-3.0521,1506.4231],[121.3606,-3.044,1290.4614],[121.3629,-3.0256,1109.7085],[121.3687,-3.0152,950.075],[121.3699,-3.0099,948.6635],[121.3578,-2.9747,548.1643],[121.3496,-2.9701,579.4402],[121.3387,-2.9502,515.5051],[121.3286,-2.9376,598.5273],[121.3369,-2.925,627.4592],[121.3553,-2.9079,957.1851],[121.3577,-2.9039,1055.2748],[121.3577,-2.8993,1154.3469],[121.3535,-2.8859,1113.8318],[121.3405,-2.8597,601.2982],[121.3326,-2.834,634.9199],[121.3187,-2.8077,1015.4169],[121.3081,-2.8056,729.0183],[121.2954,-2.8071,737.1343],[121.2805,-2.8186,863.1571],[121.2413,-2.8253,500.5466],[121.2352,-2.8288,187.3655],[121.2308,-2.8372,134.6665],[121.2332,-2.8421,109.8923],[121.2312,-2.8442,112.3753],[121.2247,-2.8449,111.3179],[121.2208,-2.8431,106.7757],[121.2238,-2.8493,121.4026],[121.2212,-2.8508,112.4933],[121.2233,-2.8536,127.7359],[121.2213,-2.8577,112.8779],[121.219,-2.8578,125.6873],[121.2196,-2.8549,129.6725],[121.2179,-2.8539,122.7872],[121.2147,-2.8554,127.0747],[121.2144,-2.8581,119.7751],[121.2121,-2.8579,131.4806],[121.2076,-2.8533,133.6918],[121.2032,-2.8576,127.5386],[121.1984,-2.8553,142.6968],[121.1969,-2.8519,151.5737],[121.1948,-2.8517,163.3933],[121.1872,-2.8388,216.0747],[121.1813,-2.8358,250.461],[121.177,-2.8306,294.0297],[121.1719,-2.8176,391.7523],[121.1638,-2.8145,522.4291],[121.154,-2.8152,784.3909],[121.133,-2.7978,918.7885],[121.1214,-2.7913,988.0702],[121.0801,-2.7794,445.2424],[121.0687,-2.7875,518.6815],[121.0625,-2.7867,465.5152],[121.053,-2.7919,437.7153],[121.0371,-2.7915,323.7306],[121.0316,-2.7935,204.5272],[121.0295,-2.7962,185.1445],[121.0276,-2.808,219.2708],[121.0194,-2.8198,321.2418],[120.9883,-2.8313,27.6875],[120.9872,-2.8399,0.0],[120.9891,-2.8455,8.9554],[120.9927,-2.8484,10.4101],[120.9954,-2.8569,16.5774],[120.9966,-2.8703,0.0],[121.0007,-2.87,0.0],[121.0036,-2.8665,0.0],[121.0112,-2.8702,0.0],[121.0114,-2.8629,0.0],[121.0043,-2.8614,64.9318],[121.0009,-2.8546,6.0067],[120.997,-2.8534,47.4964],[120.9968,-2.8512,0.0],[120.9937,-2.8486,10.4101],[120.9917,-2.8408,107.9163],[120.9946,-2.8363,0.0],[120.997,-2.836,39.1399],[121.0011,-2.8389,18.1769],[121.0083,-2.837,3.0871],[121.0088,-2.8421,0.0],[121.0167,-2.8377,32.7228],[121.0212,-2.8409,76.3322],[121.0205,-2.8464,0.0],[121.0246,-2.8457,40.062],[121.0277,-2.8497,0.0],[121.0327,-2.8385,20.1355],[121.0327,-2.8359,0.0],[121.0294,-2.8359,4.4476],[121.0272,-2.8336,0.0],[121.0281,-2.8316,0.0],[121.0356,-2.8316,0.0],[121.036,-2.8266,0.0],[121.0329,-2.8233,22.1862],[121.0324,-2.8157,26.3493],[121.0369,-2.8072,12.1292],[121.0399,-2.8223,37.1489],[121.0439,-2.8242,75.0242],[121.0457,-2.8305,14.182],[121.0437,-2.8333,93.0259],[121.0435,-2.8437,0.0],[121.0455,-2.8591,0.0],[121.0484,-2.8612,15.9405],[121.046,-2.8644,10.3897],[121.047,-2.8675,0.0],[121.0532,-2.8681,89.3885],[121.0546,-2.8717,38.2815],[121.0578,-2.8721,28.3915],[121.0606,-2.8758,23.2669],[121.0648,-2.8773,0.0],[121.0669,-2.8729,0.0],[121.0669,-2.8667,6.8066],[121.0641,-2.8597,0.0],[121.0623,-2.8586,0.0],[121.0666,-2.8535,1.8793],[121.0747,-2.8562,12.881],[121.0788,-2.8664,56.0063],[121.0774,-2.8731,3.8489],[121.075,-2.8757,0.0],[121.0764,-2.8823,0.8128],[121.0755,-2.887,11.6421],[121.0724,-2.8891,0.0],[121.0729,-2.8965,3.8023],[121.078,-2.8946,9.4957],[121.08,-2.8956,7.7803],[121.0788,-2.906,10.807],[121.0813,-2.9071,9.8969],[121.0813,-2.9093,10.0265],[121.0906,-2.9235,4.6963],[121.0897,-2.9276,4.541],[121.0854,-2.93,0.0],[121.0866,-2.9388,0.0],[121.0897,-2.9449,8.4082],[121.0885,-2.9463,67.0187],[121.0862,-2.945,7.5342],[121.0823,-2.9481,0.0],[121.0836,-2.9501,41.1927],[121.0816,-2.9553,7.5588],[121.083,-2.9557,78.5315],[121.082,-2.9602,3.5439],[121.0853,-2.9643,38.3492],[121.0848,-2.9672,6.1544],[121.0824,-2.9683,13.2893],[121.081,-2.9717,72.1401],[121.0784,-2.9709,22.8184],[121.0743,-2.9648,18.7873],[121.0676,-2.9604,13.3952],[121.0663,-2.957,0.0],[121.0639,-2.9562,0.0],[121.0632,-2.9577,18.3875],[121.0671,-2.9637,9.9202],[121.0673,-2.966,18.9306],[121.0656,-2.9645,0.0],[121.0641,-2.9654,0.0],[121.0683,-2.9793,0.0],[121.0664,-2.981,0.0],[121.0666,-2.9831,7.6775],[121.0727,-2.9808,0.0],[121.0759,-2.9824,0.0],[121.0747,-2.983,42.1207],[121.0743,-2.9879,0.0],[121.075,-2.9922,7.1562],[121.0774,-2.9933,8.9676],[121.0774,-2.9948,16.5235],[121.0733,-2.9964,21.911],[121.0729,-2.9984,0.0],[121.0793,-2.998,4.0233],[121.0807,-2.9938,52.3777],[121.0819,-2.9944,52.3777],[121.0808,-2.999,4.6327],[121.087,-2.9983,4.6695],[121.089,-2.9959,41.636],[121.0905,-2.9962,41.636],[121.0859,-3.0092,0.0],[121.0887,-3.0151,2.3885],[121.0862,-3.0149,29.0573],[121.079,-3.0081,0.0],[121.0755,-3.0087,2.9635],[121.0746,-3.0104,11.0814],[121.077,-3.0148,41.903],[121.0739,-3.0317,12.3215],[121.0679,-3.0327,0.0],[121.0679,-3.0342,5.6298],[121.0638,-3.037,17.068],[121.0643,-3.0303,0.0],[121.0614,-3.0296,38.9218],[121.0593,-3.0242,5.6117],[121.0565,-3.0221,0.0],[121.0515,-3.0264,0.0],[121.05,-3.0347,21.2831],[121.0482,-3.0355,0.0],[121.0451,-3.0332,5.9205],[121.0432,-3.0364,0.0],[121.0442,-3.0494,12.9255],[121.052,-3.059,2.2362],[121.0526,-3.0566,12.9827],[121.056,-3.0573,0.0],[121.0594,-3.0694,0.0],[121.056,-3.0764,0.0],[121.0578,-3.0894,0.0],[121.0561,-3.1001,3.8101],[121.0552,-3.0973,0.4621],[121.0542,-3.0987,2.6634],[121.0554,-3.1017,6.8819],[121.054,-3.1036,4.9284],[121.054,-3.1012,3.0048],[121.053,-3.1015,1.5378],[121.0504,-3.1114,0.0],[121.0564,-3.1207,0.7949],[121.0589,-3.1331,0.0],[121.061,-3.1342,3.3887],[121.0598,-3.1371,0.0],[121.061,-3.1447,2.6523],[121.0556,-3.1518,0.0],[121.0579,-3.1594,1.3885],[121.0567,-3.1594,1.3885],[121.0558,-3.1681,0.0],[121.0582,-3.1691,3.1142],[121.0558,-3.1705,0.0],[121.0559,-3.1845,0.0],[121.0575,-3.1859,1.7745],[121.0568,-3.1883,2.0184],[121.0607,-3.1922,0.4754],[121.0605,-3.1954,1.3688],[121.0645,-3.1983,3.0043],[121.0653,-3.2009,3.0459],[121.0688,-3.2021,2.682],[121.0691,-3.2049,4.806],[121.0626,-3.2076,1.9318],[121.0504,-3.1991,0.0],[121.0332,-3.2066,0.0],[121.03,-3.2123,0.9518],[121.0287,-3.2195,0.0],[121.0256,-3.2214,0.0],[121.0222,-3.2297,2.2172],[121.0217,-3.2339,2.8102],[121.023,-3.2358,1.9321],[121.0215,-3.2366,2.8416],[121.0204,-3.2447,9.2457],[121.0174,-3.2447,7.3674],[121.0134,-3.2476,0.0],[121.0074,-3.2473,0.0],[120.9945,-3.2541,1.4492],[120.9839,-3.2564,0.9842],[120.9814,-3.2594,1.2009],[120.979,-3.2581,1.5599],[120.9748,-3.2609,0.0],[120.9703,-3.2675,0.0],[120.9706,-3.2709,1.2856],[120.968,-3.278,2.4757],[120.9597,-3.2878,1.2154],[120.9597,-3.2913,7.6379],[120.9568,-3.2918,0.0],[120.9546,-3.2968,0.0],[120.9599,-3.3025,2.713],[120.9571,-3.3067,0.0],[120.9568,-3.3119,0.0],[120.9583,-3.3141,3.1226],[120.9564,-3.3305,1.0838],[120.9518,-3.33,1.0906],[120.937,-3.3355,0.4282],[120.9306,-3.3419,6.8176],[120.9297,-3.3457,0.0],[120.9248,-3.351,5.0946],[120.9194,-3.3538,0.0],[120.913,-3.3699,3.0945],[120.8943,-3.3873,0.0],[120.8958,-3.4032,12.7021],[120.8887,-3.4096,0.0],[120.8872,-3.4144,0.0],[120.8748,-3.4189,0.0],[120.8683,-3.4246,0.0],[120.8657,-3.4282,0.0],[120.8645,-3.4389,0.0],[120.8672,-3.4453,2.344],[120.8674,-3.4501,0.5258],[120.8706,-3.4563,0.5],[120.8692,-3.4633,10.5939],[120.8699,-3.4711,0.6778],[120.8712,-3.4724,45.1512],[120.8709,-3.477,17.6479],[120.8733,-3.4852,2.4508],[120.8731,-3.494,0.6391],[120.8779,-3.5061,2.3715],[120.876,-3.5103,0.0],[120.8782,-3.512,2.9836],[120.877,-3.513,1.4263],[120.8813,-3.5202,1.1974],[120.8802,-3.5309,0.0],[120.8852,-3.5407,0.0],[120.8882,-3.5433,0.0],[120.8936,-3.5448,0.0],[120.9044,-3.5563,8.2598],[120.91,-3.5681,23.6888],[120.9028,-3.5655,7.1649],[120.8984,-3.566,0.0],[120.9032,-3.5717,0.0],[120.905,-3.5764,0.0],[120.9175,-3.5825,0.0],[120.9189,-3.5842,4.8255],[120.9181,-3.5872,0.0],[120.9201,-3.5872,0.0],[120.9261,-3.5948,0.0],[120.9337,-3.5968,0.0],[120.9362,-3.5992,0.0],[120.9349,-3.6038,0.0],[120.9421,-3.6069,3.3005],[120.9457,-3.6128,0.0],[120.9437,-3.6196,0.0],[120.9479,-3.6227,14.7567],[120.9559,-3.6239,7.2359],[120.9626,-3.6281,0.0],[120.9751,-3.6402,1.6533],[120.9858,-3.647,0.0],[120.9998,-3.6639,0.0],[121.0063,-3.6756,0.0]]],
[[[121.0515,-3.0634,0.0],[121.0514,-3.0642,0.0],[121.0523,-3.0651,0.0],[121.053,-3.0625,0.0],[121.0515,-3.0634,0.0]]],
[[[121.0427,-3.0292,0.0],[121.0421,-3.03,0.0],[121.0438,-3.0308,0.0],[121.044,-3.03,0.0],[121.0427,-3.0292,0.0]]],
[[[121.0539,-3.0212,0.0],[121.0539,-3.0216,0.0],[121.0547,-3.0217,0.0],[121.0545,-3.0209,0.0],[121.0539,-3.0212,0.0]]]]}}