{"type":"Feature","properties":{"GID_3":"IDN.23.9.3_1","GID_0":"IDN","country":"Indonesia","GID_1":"IDN.23_1","province":"Papua","NL_NAME_1":"NA","GID_2":"IDN.23.9_1","county":"Keerom","NL_NAME_2":"NA","city":"Senggi","VARNAME_3":"NA","NL_NAME_3":"NA","TYPE_3":"Distrik","ENGTYPE_3":"District","CC_3":"9420020","HASC_3":"NA","name":"Senggi.city"},
"geometry":{"type": "MultiPolygon","coordinates": [[[[140.3803,-3.6452,237.9135],[140.3752,-3.6495,203.7896],[140.3743,-3.6554,217.6423],[140.3775,-3.6599,276.6907],[140.3731,-3.6633,241.5099],[140.3695,-3.663,271.5364],[140.3667,-3.6595,217.7039],[140.3636,-3.662,256.2235],[140.366,-3.6669,229.6576],[140.3605,-3.6682,203.632],[140.3562,-3.6716,197.7885],[140.3469,-3.6697,197.4857],[140.347,-3.6729,197.2398],[140.351,-3.6789,191.8236],[140.3517,-3.6842,196.8564],[140.3421,-3.6886,185.7336],[140.3488,-3.6936,193.0602],[140.3548,-3.6896,191.3656],[140.3562,-3.684,200.1093],[140.3654,-3.6833,187.9971],[140.3656,-3.6927,185.5038],[140.3604,-3.6949,191.234],[140.3589,-3.6977,181.1986],[140.3636,-3.704,192.3563],[140.3612,-3.7055,200.8094],[140.3582,-3.7113,215.9356],[140.3619,-3.7086,193.1616],[140.3704,-3.7106,176.0],[140.3724,-3.7087,214.5026],[140.3759,-3.7128,183.448],[140.3742,-3.716,208.4138],[140.385,-3.7198,178.8773],[140.3866,-3.7221,215.7978],[140.3875,-3.7296,173.2116],[140.3837,-3.7362,174.0604],[140.3943,-3.7394,193.9048],[140.3984,-3.739,173.5],[140.3998,-3.7347,188.6907],[140.4042,-3.7387,181.6568],[140.4034,-3.7435,215.6811],[140.3975,-3.7463,176.0],[140.3985,-3.7489,208.3168],[140.4017,-3.7497,186.3848],[140.4086,-3.7564,200.2948],[140.4021,-3.7662,183.9353],[140.3987,-3.7665,207.0984],[140.3978,-3.7703,178.0],[140.4078,-3.7747,203.6308],[140.4124,-3.7807,178.0],[140.4089,-3.7849,218.2039],[140.405,-3.784,206.642],[140.4033,-3.7884,178.0],[140.4174,-3.7988,217.3031],[140.4176,-3.8027,206.6006],[140.4133,-3.8042,189.8294],[140.4113,-3.8071,178.0],[140.3999,-3.8111,225.8354],[140.3996,-3.8146,184.3385],[140.405,-3.8148,184.3391],[140.4107,-3.8223,183.9602],[140.4139,-3.8194,190.6107],[140.4133,-3.8165,179.5],[140.4205,-3.8181,185.7265],[140.4222,-3.8216,192.6501],[140.4191,-3.8215,195.1132],[140.4202,-3.8354,194.3274],[140.4157,-3.8404,199.0713],[140.4167,-3.8467,181.625],[140.4265,-3.851,189.7937],[140.4308,-3.8505,202.5744],[140.431,-3.856,198.2635],[140.4277,-3.8618,209.98],[140.4237,-3.8638,186.297],[140.421,-3.8682,192.6045],[140.4209,-3.8719,189.6727],[140.4143,-3.8816,182.0],[140.414,-3.8859,190.5955],[140.4178,-3.893,208.9627],[140.4181,-3.899,208.4243],[140.4133,-3.9004,185.4841],[140.4064,-3.893,183.0815],[140.4047,-3.8962,182.0],[140.4045,-3.9032,205.8748],[140.4138,-3.9109,209.0995],[140.4116,-3.9137,198.4582],[140.4057,-3.9117,182.0],[140.4057,-3.9158,182.5112],[140.411,-3.9179,204.4274],[140.417,-3.9176,191.4448],[140.4198,-3.9097,187.4304],[140.4254,-3.9071,195.8059],[140.4353,-3.9102,193.434],[140.4382,-3.9091,206.4595],[140.4418,-3.912,218.7791],[140.4425,-3.9078,203.162],[140.4466,-3.9103,208.7768],[140.4483,-3.9032,197.775],[140.4553,-3.893,190.7682],[140.4555,-3.9049,210.4383],[140.4596,-3.9026,220.3882],[140.4695,-3.9025,244.7184],[140.4661,-3.9054,214.6159],[140.4589,-3.9071,192.25],[140.4646,-3.9105,204.732],[140.4786,-3.9106,227.5128],[140.479,-3.9178,235.7755],[140.4844,-3.9187,219.8153],[140.4879,-3.9214,239.2497],[140.4856,-3.9282,208.0602],[140.4884,-3.9294,214.2259],[140.49,-3.9272,231.0722],[140.494,-3.9287,227.6493],[140.4946,-3.9256,237.3887],[140.5,-3.9224,250.1421],[140.5022,-3.9258,222.1102],[140.508,-3.9281,245.5396],[140.5068,-3.925,232.5414],[140.5001,-3.9192,236.5341],[140.5003,-3.914,235.6255],[140.4986,-3.9121,229.3334],[140.4961,-3.9139,245.9236],[140.4941,-3.912,231.0897],[140.4949,-3.9097,227.5447],[140.4975,-3.9084,226.3645],[140.4976,-3.9049,219.3692],[140.5034,-3.9076,240.4881],[140.5063,-3.9047,230.9367],[140.5089,-3.9077,232.241],[140.5144,-3.9072,234.3665],[140.517,-3.905,236.1057],[140.5194,-3.9066,228.1173],[140.5147,-3.9127,257.1163],[140.5169,-3.9149,225.8365],[140.5239,-3.9138,246.2417],[140.526,-3.9158,246.8584],[140.5254,-3.918,237.2852],[140.5349,-3.9177,237.225],[140.542,-3.9127,239.1307],[140.5442,-3.9146,233.5847],[140.5445,-3.9197,238.9858],[140.5467,-3.9217,234.1266],[140.5516,-3.9144,263.1595],[140.5522,-3.9169,249.7553],[140.5578,-3.9169,286.6291],[140.5603,-3.9214,282.0757],[140.568,-3.9262,265.1475],[140.57,-3.9247,272.1312],[140.581,-3.9291,270.0294],[140.5935,-3.9256,274.8515],[140.5962,-3.9278,278.8569],[140.5951,-3.9306,261.2843],[140.5899,-3.9302,279.4106],[140.5902,-3.933,314.5298],[140.5853,-3.9331,307.263],[140.5872,-3.9373,263.1029],[140.5946,-3.9389,281.6086],[140.5965,-3.9419,289.2371],[140.6089,-3.9447,280.6638],[140.6109,-3.9473,281.7575],[140.6135,-3.9447,278.1361],[140.6128,-3.9407,283.7547],[140.6151,-3.9377,279.2534],[140.6178,-3.9384,280.7919],[140.6203,-3.9359,282.1815],[140.6288,-3.9334,293.7887],[140.6369,-3.9335,297.1876],[140.6398,-3.9315,298.6224],[140.6399,-3.9236,303.3662],[140.6458,-3.9212,296.6266],[140.6512,-3.9156,298.6082],[140.6788,-3.9068,220.9454],[140.6942,-3.91,204.1578],[140.6969,-3.9124,203.0993],[140.7006,-3.9126,199.2407],[140.7022,-3.9101,224.429],[140.7152,-3.9163,187.8386],[140.7306,-3.912,188.4632],[140.7331,-3.9163,159.3306],[140.7414,-3.9178,199.1924],[140.7425,-3.9205,184.338],[140.7395,-3.9245,174.2756],[140.7486,-3.9285,175.311],[140.7524,-3.9284,158.6154],[140.7516,-3.9314,170.2509],[140.7557,-3.936,168.7927],[140.7591,-3.9327,178.3405],[140.7606,-3.927,156.3776],[140.7653,-3.9275,148.1868],[140.7639,-3.9256,160.3038],[140.7689,-3.9258,143.911],[140.7704,-3.9286,139.9173],[140.7685,-3.9315,144.302],[140.7733,-3.9345,145.6575],[140.7753,-3.9337,145.6575],[140.7788,-3.9384,144.2273],[140.7887,-3.9404,182.6897],[140.8074,-3.9404,142.5253],[140.8035,-3.9141,350.5349],[140.7352,-3.8746,459.1228],[140.7342,-3.8639,648.5897],[140.725,-3.8588,636.3026],[140.7238,-3.8395,820.8562],[140.7102,-3.8144,1049.1383],[140.7002,-3.7906,865.0619],[140.676,-3.7848,815.7969],[140.6499,-3.7747,698.2399],[140.6499,-3.761,568.4475],[140.6482,-3.7571,524.2134],[140.6505,-3.7551,507.1435],[140.6529,-3.7577,500.7212],[140.6548,-3.7575,482.4943],[140.6635,-3.75,473.0822],[140.6659,-3.7503,467.4839],[140.6664,-3.7522,475.0312],[140.6671,-3.7494,472.1966],[140.6706,-3.7503,476.1803],[140.6738,-3.7487,457.5577],[140.6738,-3.7469,446.9825],[140.676,-3.7484,453.6231],[140.6769,-3.7461,483.757],[140.6802,-3.7452,444.7779],[140.6791,-3.7439,418.5067],[140.6808,-3.7399,421.9822],[140.6843,-3.7369,423.7558],[140.6863,-3.7374,398.6722],[140.6804,-3.7348,415.7013],[140.6833,-3.7318,413.2277],[140.6799,-3.7302,395.4605],[140.6833,-3.7268,402.2234],[140.6824,-3.7254,398.8198],[140.6788,-3.7276,392.7926],[140.6759,-3.726,380.0374],[140.6759,-3.7288,370.7942],[140.6685,-3.7266,377.375],[140.6749,-3.726,380.0374],[140.6721,-3.7237,373.3121],[140.6683,-3.7239,393.62],[140.6676,-3.7207,374.713],[140.6692,-3.7202,330.3217],[140.6659,-3.7178,380.6254],[140.6693,-3.7164,356.7869],[140.6702,-3.7143,338.2315],[140.6674,-3.7144,346.6288],[140.667,-3.7114,330.1833],[140.6647,-3.7116,341.7859],[140.6643,-3.7064,336.5907],[140.6664,-3.7054,353.9434],[140.6645,-3.7037,329.3103],[140.6677,-3.7018,329.6653],[140.6669,-3.6987,353.3048],[140.6694,-3.6989,331.8189],[140.6703,-3.6966,332.4612],[140.6658,-3.6957,371.1872],[140.6686,-3.6948,324.9299],[140.6669,-3.6908,319.6319],[140.6679,-3.6893,323.9845],[140.6659,-3.6878,362.2735],[140.6644,-3.6811,363.3412],[140.663,-3.6834,325.7983],[140.6611,-3.6819,300.8904],[140.6613,-3.6777,302.216],[140.6592,-3.6773,339.7609],[140.6591,-3.6719,307.4739],[140.6641,-3.6631,284.3254],[140.6619,-3.6625,375.6649],[140.661,-3.6539,294.2495],[140.649,-3.6487,289.4319],[140.6487,-3.6465,280.8768],[140.6534,-3.6432,269.7635],[140.6505,-3.6394,284.9449],[140.6535,-3.6396,291.747],[140.6528,-3.6337,270.6026],[140.6826,-3.598,258.1492],[140.6844,-3.559,237.3051],[140.6993,-3.5349,244.2841],[140.7476,-3.5182,253.0868],[140.803,-3.5043,306.5717],[141.0,-3.4982,362.8193],[141.0,-3.4276,339.8195],[140.9482,-3.4123,403.7874],[140.9055,-3.3845,369.3903],[140.7625,-3.2396,405.6969],[140.6632,-3.1894,385.135],[140.4424,-3.1443,385.2185],[140.3599,-3.1313,396.5733],[140.3613,-3.1421,368.0609],[140.3675,-3.1512,359.7728],[140.3663,-3.1537,345.7354],[140.3677,-3.1574,346.3129],[140.3631,-3.163,324.7026],[140.3571,-3.1665,322.7842],[140.3547,-3.1663,312.6428],[140.342,-3.1767,301.7017],[140.3378,-3.1779,281.5388],[140.3359,-3.1746,288.2054],[140.3312,-3.1771,265.6449],[140.3257,-3.177,262.4096],[140.3229,-3.1846,253.6798],[140.3235,-3.1866,250.5126],[140.3206,-3.1877,247.1847],[140.3186,-3.1933,228.9568],[140.3219,-3.1952,235.861],[140.3256,-3.203,244.769],[140.3296,-3.2042,235.0716],[140.3336,-3.2021,235.8859],[140.3375,-3.2091,227.7938],[140.3351,-3.2129,219.2384],[140.3358,-3.217,216.5442],[140.3329,-3.2213,218.7141],[140.3339,-3.2344,223.1709],[140.3318,-3.2435,225.3163],[140.3281,-3.2496,223.3923],[140.3223,-3.2539,226.3253],[140.3203,-3.2603,224.6656],[140.3242,-3.2742,221.454],[140.3166,-3.2926,218.0795],[140.317,-3.2989,214.9574],[140.3134,-3.3032,213.224],[140.3074,-3.3046,203.3058],[140.306,-3.3081,206.1186],[140.309,-3.3142,202.1578],[140.3143,-3.3168,203.2372],[140.3101,-3.3226,208.6119],[140.3189,-3.3236,205.053],[140.3249,-3.3202,202.8111],[140.3234,-3.3243,202.3249],[140.3243,-3.3287,202.9566],[140.328,-3.3307,204.1739],[140.3315,-3.3362,208.4156],[140.3388,-3.3363,214.4743],[140.3441,-3.3309,199.3982],[140.3461,-3.3362,212.1863],[140.3426,-3.3378,206.1892],[140.3418,-3.3421,198.1482],[140.3463,-3.3427,202.416],[140.3488,-3.3383,201.2275],[140.351,-3.3379,202.7448],[140.352,-3.3436,202.9671],[140.3507,-3.3482,206.3439],[140.3424,-3.3509,202.6393],[140.3469,-3.3552,200.3547],[140.3438,-3.3596,200.4189],[140.3554,-3.3584,202.7136],[140.3581,-3.3606,201.3619],[140.3593,-3.3549,195.3672],[140.3643,-3.3528,206.0604],[140.3647,-3.3592,207.0134],[140.3677,-3.362,196.9601],[140.3616,-3.3626,207.2502],[140.3613,-3.3662,200.899],[140.3636,-3.3706,210.0318],[140.3678,-3.3674,202.2683],[140.3707,-3.3683,196.4276],[140.3706,-3.3741,199.9283],[140.3631,-3.385,200.1797],[140.3616,-3.3846,203.4272],[140.36,-3.3806,206.926],[140.3543,-3.3786,199.0339],[140.3503,-3.3813,197.9867],[140.3535,-3.3883,217.1638],[140.359,-3.3848,198.1219],[140.3601,-3.3921,202.864],[140.3528,-3.3959,210.4135],[140.3526,-3.3977,200.6861],[140.3566,-3.3983,197.5206],[140.3565,-3.4009,196.2025],[140.3494,-3.4005,195.4239],[140.3484,-3.4017,199.3472],[140.3557,-3.4065,207.4194],[140.357,-3.4101,204.4465],[140.3562,-3.4165,202.7884],[140.3504,-3.4147,203.8227],[140.3494,-3.4186,210.588],[140.3544,-3.4208,200.7687],[140.359,-3.4168,207.8257],[140.3616,-3.418,200.9674],[140.3623,-3.4323,191.5],[140.3676,-3.4432,196.1595],[140.3664,-3.4535,208.2076],[140.3632,-3.4559,215.4472],[140.3614,-3.4652,194.0413],[140.3547,-3.468,203.7437],[140.3547,-3.4734,194.4448],[140.3464,-3.4779,196.1556],[140.3442,-3.4827,193.0939],[140.3385,-3.4821,192.6273],[140.3372,-3.4868,205.6706],[140.3452,-3.4905,209.7286],[140.3436,-3.4933,188.0],[140.3444,-3.4945,188.0],[140.3471,-3.4947,212.7017],[140.351,-3.4911,206.8093],[140.3534,-3.4911,193.5007],[140.3507,-3.5012,190.5313],[140.3554,-3.4971,206.6718],[140.3662,-3.4939,201.1101],[140.3672,-3.4978,190.9002],[140.3708,-3.5024,191.5264],[140.3713,-3.5096,191.7155],[140.3698,-3.5109,190.9821],[140.3657,-3.5074,189.0266],[140.3633,-3.5075,208.1691],[140.3641,-3.5155,200.7859],[140.3711,-3.5144,196.281],[140.3743,-3.5212,190.9852],[140.376,-3.5198,190.9852],[140.3748,-3.5123,189.9477],[140.3773,-3.5123,191.7048],[140.3795,-3.515,194.3565],[140.3754,-3.5234,196.9335],[140.3724,-3.5222,204.0152],[140.3689,-3.5231,190.3866],[140.3745,-3.5333,208.5202],[140.369,-3.5327,193.3073],[140.3646,-3.5245,208.5495],[140.3622,-3.5289,193.4566],[140.365,-3.5324,206.3492],[140.3681,-3.5412,200.5637],[140.3694,-3.5418,195.5433],[140.3721,-3.5394,207.8047],[140.374,-3.5434,187.0],[140.3721,-3.5455,203.3835],[140.3726,-3.5475,198.042],[140.38,-3.5449,199.1136],[140.3788,-3.5525,190.5966],[140.3851,-3.5536,190.0334],[140.3862,-3.5552,196.9648],[140.3855,-3.558,217.595],[140.3776,-3.5641,201.637],[140.3802,-3.5684,195.713],[140.3741,-3.5696,209.5446],[140.3762,-3.5729,196.1514],[140.38,-3.5712,200.1965],[140.3823,-3.572,190.0322],[140.381,-3.5818,211.3516],[140.379,-3.5821,191.5949],[140.3771,-3.5784,189.2088],[140.3759,-3.5819,199.1903],[140.3775,-3.5859,192.5233],[140.3847,-3.5911,212.1971],[140.3894,-3.5989,194.455],[140.3842,-3.6009,200.9014],[140.3813,-3.6054,203.0055],[140.3867,-3.614,204.3912],[140.389,-3.621,189.6577],[140.3945,-3.6239,190.7296],[140.397,-3.631,196.9462],[140.3902,-3.6309,214.2926],[140.3886,-3.6394,196.9044],[140.3803,-3.6452,237.9135]]]]}}