{"type":"Feature","properties":{"GID_3":"IDN.24.12.10_1","GID_0":"IDN","country":"Indonesia","GID_1":"IDN.24_1","province":"Riau","NL_NAME_1":"NA","GID_2":"IDN.24.12_1","county":"Siak","NL_NAME_2":"NA","city":"SabakAuh","VARNAME_3":"NA","NL_NAME_3":"NA","TYPE_3":"Kecamatan","ENGTYPE_3":"Sub-district","CC_3":"1405032","HASC_3":"NA","name":"Sabak_Auh.city"},
"geometry":{"type": "MultiPolygon","coordinates": [[[[102.0619,1.077,8.8912],[102.0562,1.0699,8.9123],[102.0666,1.0695,7.2761],[102.0948,1.0531,0.0],[102.1111,1.0598,0.0],[102.1239,1.0567,0.0],[102.1288,1.0597,1.9961],[102.1324,1.0734,0.0],[102.1313,1.0847,0.0],[102.1281,1.0876,0.0],[102.1066,1.0921,0.0],[102.1029,1.0966,0.0],[102.1028,1.1019,0.0],[102.1168,1.1121,0.0],[102.1255,1.1257,0.0],[102.1472,1.1278,0.0],[102.1538,1.1293,0.0],[102.1581,1.1326,0.0],[102.1556,1.1417,0.0],[102.1571,1.1541,0.0],[102.1542,1.1599,0.0],[102.1573,1.1709,0.0],[102.1675,1.1814,0.0],[102.1676,1.1858,0.0],[102.1634,1.1912,0.0],[102.151,1.1869,2.7839],[102.1463,1.1867,4.0595],[102.1426,1.1806,6.6876],[102.1319,1.1769,6.735],[102.1098,1.1474,5.0966],[102.1072,1.1375,3.6175],[102.0946,1.1253,5.4214],[102.0619,1.077,8.8912]]]]}}