{"type":"Feature","properties":{"GID_2":"IDN.30.16_1","GID_0":"IDN","country":"Indonesia","GID_1":"IDN.30_1","province":"SumateraBarat","NL_NAME_1":"NA","county":"Sawahlunto","VARNAME_2":"NA","NL_NAME_2":"NA","TYPE_2":"Kota","ENGTYPE_2":"City","CC_2":"1373","HASC_2":"ID.SB.SL","name":"Sawahlunto.county"},
"geometry":{"type": "MultiPolygon","coordinates": [[[[100.7507,-0.734,373.2407],[100.7543,-0.7356,293.274],[100.7535,-0.7407,387.3417],[100.7599,-0.7406,628.6353],[100.7668,-0.7449,628.8613],[100.7713,-0.7503,656.2098],[100.7765,-0.7515,672.2791],[100.7822,-0.7621,485.5927],[100.7891,-0.7701,440.5607],[100.7981,-0.7688,424.2985],[100.8013,-0.7709,387.6357],[100.802,-0.7733,308.6389],[100.8042,-0.7735,326.4072],[100.8111,-0.7706,315.7062],[100.8112,-0.7663,345.2325],[100.8168,-0.7675,330.0284],[100.8222,-0.7653,285.2823],[100.8221,-0.7583,413.3507],[100.8146,-0.7455,358.8907],[100.8108,-0.7431,416.2213],[100.8108,-0.7347,517.7282],[100.8036,-0.7199,284.7311],[100.8003,-0.7168,463.0071],[100.8043,-0.7078,359.1413],[100.8018,-0.7019,353.4733],[100.7994,-0.6744,391.4518],[100.7908,-0.6684,502.7003],[100.8016,-0.6639,248.6775],[100.8091,-0.6209,392.3531],[100.8144,-0.6154,245.3517],[100.8127,-0.6063,361.2173],[100.8031,-0.5984,418.6128],[100.8013,-0.5948,476.1383],[100.8062,-0.592,404.3174],[100.8079,-0.5876,526.7983],[100.8123,-0.5852,526.4891],[100.8136,-0.5825,535.7164],[100.8126,-0.5787,575.1526],[100.8046,-0.5676,530.9018],[100.7951,-0.5627,540.5338],[100.7907,-0.5633,592.6262],[100.7877,-0.5611,540.8661],[100.787,-0.5573,377.7252],[100.7884,-0.554,504.3991],[100.785,-0.5494,407.2666],[100.781,-0.5535,426.7219],[100.7799,-0.5616,420.0823],[100.7724,-0.558,390.5432],[100.7525,-0.5563,371.9243],[100.7459,-0.5605,396.2467],[100.7327,-0.5537,277.2959],[100.7288,-0.5543,283.3008],[100.7237,-0.5584,238.7555],[100.7189,-0.5689,228.8004],[100.7132,-0.573,302.5625],[100.7068,-0.5742,437.0395],[100.7009,-0.5806,453.7854],[100.6992,-0.5919,513.3508],[100.697,-0.5943,516.7374],[100.7014,-0.5992,331.1859],[100.7056,-0.6005,281.3992],[100.7032,-0.6065,294.546],[100.7032,-0.6167,326.6013],[100.6993,-0.6231,456.2962],[100.6907,-0.6286,474.9246],[100.6947,-0.6328,570.4047],[100.6959,-0.6383,588.0359],[100.6945,-0.6478,606.302],[100.6987,-0.6533,509.9282],[100.706,-0.6572,321.256],[100.7065,-0.6617,350.6445],[100.71,-0.6606,366.7032],[100.7067,-0.6731,513.642],[100.7033,-0.679,565.396],[100.7034,-0.6963,801.5602],[100.6966,-0.711,1046.5343],[100.6972,-0.7186,1159.0948],[100.6958,-0.7242,1059.5195],[100.7009,-0.7275,891.5513],[100.7067,-0.7269,1017.3175],[100.71,-0.7337,984.5708],[100.7141,-0.7345,841.1155],[100.7222,-0.7324,813.097],[100.7283,-0.7236,967.9296],[100.7318,-0.7231,919.8271],[100.7341,-0.7249,753.7598],[100.7467,-0.7239,736.1666],[100.7507,-0.734,373.2407]]]]}}