{"type":"Feature","properties":{"GID_3":"IDN.9.24.37_1","GID_0":"IDN","country":"Indonesia","GID_1":"IDN.9_1","province":"JawaBarat","NL_NAME_1":"NA","GID_2":"IDN.9.24_1","county":"Sukabumi","NL_NAME_2":"NA","city":"PelabuhanRatu","VARNAME_3":"NA","NL_NAME_3":"NA","TYPE_3":"Kecamatan","ENGTYPE_3":"Sub-district","CC_3":"3202110","HASC_3":"NA","name":"Pelabuhan_Ratu.city"},
"geometry":{"type": "MultiPolygon","coordinates": [[[[106.6297,-6.9873,144.6511],[106.6266,-6.9841,185.7002],[106.6262,-6.9828,216.3059],[106.628,-6.9827,171.6308],[106.6247,-6.9786,253.961],[106.6253,-6.9762,274.6372],[106.6237,-6.9729,297.252],[106.6257,-6.9677,327.5887],[106.6254,-6.9641,328.134],[106.6277,-6.9621,309.2396],[106.6274,-6.959,338.5241],[106.6199,-6.9544,239.8417],[106.6171,-6.9559,190.5218],[106.6173,-6.9598,178.5084],[106.6083,-6.9617,127.7501],[106.6069,-6.9552,128.8797],[106.6089,-6.9536,160.4362],[106.6098,-6.9491,162.9549],[106.6082,-6.9475,200.9444],[106.6107,-6.9462,190.9202],[106.6088,-6.9445,156.131],[106.6106,-6.9441,156.131],[106.6104,-6.9417,155.4604],[106.5966,-6.9442,297.0462],[106.5929,-6.9472,356.3214],[106.593,-6.9395,309.4506],[106.5838,-6.9328,462.7748],[106.5744,-6.9308,578.1591],[106.5603,-6.9317,391.4091],[106.5521,-6.9255,360.344],[106.5494,-6.926,412.2228],[106.5459,-6.9317,434.4888],[106.5378,-6.9331,560.6346],[106.5314,-6.9369,468.9409],[106.5156,-6.9599,74.5469],[106.5131,-6.9662,3.5849],[106.5259,-6.9738,0.0],[106.533,-6.9809,8.2523],[106.5354,-6.9804,7.7965],[106.54,-6.9824,3.432],[106.5428,-6.9864,2.8912],[106.5436,-6.9882,3.3905],[106.5421,-6.9905,1.5796],[106.5419,-6.988,0.0],[106.5406,-6.991,0.0],[106.5419,-6.9997,0.0],[106.5394,-7.0059,0.0],[106.5401,-7.0216,0.0],[106.5437,-7.0304,1.0246],[106.5534,-7.0231,2.1508],[106.5543,-7.017,5.316],[106.5566,-7.0146,3.6794],[106.5627,-7.0122,4.7455],[106.5779,-7.0145,7.1701],[106.5848,-7.0194,6.2746],[106.5883,-7.0155,8.5566],[106.5904,-7.0155,3.2222],[106.5979,-7.0226,10.1063],[106.6084,-7.0137,30.5898],[106.6189,-7.0148,12.1793],[106.6222,-7.0166,12.8972],[106.6222,-7.0147,13.5099],[106.6238,-7.0157,15.8498],[106.6271,-7.0133,19.9977],[106.6265,-7.0106,27.2496],[106.6292,-7.0098,79.2064],[106.6289,-7.0075,52.9399],[106.6328,-7.0062,48.1867],[106.6302,-7.0033,55.2517],[106.6303,-7.0005,100.2805],[106.6339,-6.9989,113.649],[106.6346,-6.9921,109.9446],[106.6297,-6.9873,144.6511]]]]}}