{"type":"Feature","properties":{"GID_3":"IDN.32.12.8_1","GID_0":"IDN","country":"Indonesia","GID_1":"IDN.32_1","province":"SumateraUtara","NL_NAME_1":"NA","GID_2":"IDN.32.12_1","county":"LabuhanbatuUtara","NL_NAME_2":"NA","city":"NaIx-X","VARNAME_3":"NA","NL_NAME_3":"NA","TYPE_3":"Kecamatan","ENGTYPE_3":"Sub-district","CC_3":"1223010","HASC_3":"NA","name":"Na_Ix-X.city"},
"geometry":{"type": "MultiPolygon","coordinates": [[[[99.6758,2.0714,96.044],[99.6911,2.0788,113.458],[99.7102,2.0825,159.9162],[99.7178,2.0861,182.1055],[99.727,2.1034,138.1353],[99.7303,2.1155,154.82],[99.7352,2.1201,128.0677],[99.7445,2.1251,79.281],[99.7479,2.1342,71.7233],[99.7608,2.1357,55.7111],[99.7663,2.1379,69.5441],[99.7712,2.1599,45.4591],[99.7716,2.177,73.3102],[99.7739,2.1818,85.7101],[99.7764,2.2176,65.4511],[99.776,2.2403,54.0173],[99.772,2.2599,54.6707],[99.7795,2.2775,24.8507],[99.7891,2.2864,43.537],[99.7897,2.2894,40.1158],[99.7893,2.3134,32.0827],[99.7851,2.3157,31.3759],[99.7814,2.3146,32.6293],[99.7813,2.3128,37.4571],[99.7779,2.3135,36.364],[99.7735,2.3111,41.2872],[99.767,2.3113,39.6784],[99.7594,2.3058,43.5567],[99.7518,2.3052,50.9907],[99.7405,2.3108,44.1127],[99.7327,2.3271,47.8525],[99.7223,2.3277,46.9875],[99.7044,2.3134,155.4063],[99.6955,2.3105,223.3297],[99.6899,2.3048,140.5913],[99.6858,2.296,182.8664],[99.6682,2.2879,116.2842],[99.6405,2.2838,199.932],[99.632,2.2772,164.4164],[99.622,2.2609,185.4718],[99.6203,2.25,231.6108],[99.6164,2.2388,210.627],[99.606,2.228,251.2832],[99.5939,2.2234,553.9236],[99.5916,2.2141,452.5108],[99.5803,2.1995,399.1423],[99.5744,2.201,425.4673],[99.569,2.2074,598.1086],[99.5602,2.2063,669.9865],[99.5558,2.2014,601.1965],[99.554,2.1951,689.6165],[99.539,2.1839,890.5295],[99.5315,2.1814,759.5847],[99.5315,2.1718,755.0598],[99.5357,2.1569,863.7004],[99.5348,2.1533,1014.0018],[99.538,2.1483,1016.9951],[99.5462,2.1422,987.033],[99.5515,2.133,1309.7123],[99.5523,2.1218,1413.7391],[99.551,2.108,1556.5212],[99.5471,2.1002,1578.2985],[99.5431,2.0973,1598.1147],[99.5419,2.0871,1539.6318],[99.5509,2.0781,1590.7822],[99.5465,2.0658,1734.0194],[99.5464,2.0616,1676.8893],[99.5519,2.0543,1526.7806],[99.556,2.0418,1213.4039],[99.5651,2.0302,1348.8878],[99.5678,2.0282,1306.3894],[99.5734,2.029,1157.8665],[99.5803,2.0219,1016.9626],[99.5911,2.0149,1293.1792],[99.5931,2.011,1228.5198],[99.5969,2.0091,1172.3721],[99.5982,2.0032,1158.8805],[99.6089,1.9967,1085.1207],[99.6183,1.9957,1057.3516],[99.6252,1.9975,652.814],[99.6271,2.0004,577.2166],[99.6264,2.006,477.3203],[99.6239,2.0143,277.3722],[99.6172,2.0227,450.8395],[99.6165,2.0405,242.2232],[99.6194,2.0418,315.422],[99.6366,2.0421,371.9098],[99.6403,2.0366,439.4329],[99.6555,2.0293,213.1499],[99.6615,2.0367,185.0587],[99.6631,2.0462,109.9605],[99.6701,2.0548,99.8956],[99.6715,2.069,124.4897],[99.6758,2.0714,96.044]]]]}}