{"type":"Feature","properties":{"GID_3":"IDN.23.5.3_1","GID_0":"IDN","country":"Indonesia","GID_1":"IDN.23_1","province":"Papua","NL_NAME_1":"NA","GID_2":"IDN.23.5_1","county":"Dogiyai","NL_NAME_2":"NA","city":"KamuTimur","VARNAME_3":"NA","NL_NAME_3":"NA","TYPE_3":"Distrik","ENGTYPE_3":"District","CC_3":"9434090","HASC_3":"NA","name":"Kamu_Timur.city"},
"geometry":{"type": "MultiPolygon","coordinates": [[[[136.1022,-4.0348,1544.5101],[136.1123,-4.0422,1783.6829],[136.122,-4.0317,1548.2356],[136.1514,-4.0184,1607.9352],[136.1608,-4.0175,1607.45],[136.1799,-4.0196,2188.7651],[136.1926,-4.0278,2001.6898],[136.2132,-4.0052,2289.0681],[136.2273,-3.9922,2399.9556],[136.2273,-3.9519,2662.115],[136.2045,-3.935,2472.8049],[136.1906,-3.9291,2115.7104],[136.1822,-3.9392,2211.437],[136.1743,-3.9454,2195.8208],[136.1325,-3.9708,1820.99],[136.1184,-3.9857,1564.7826],[136.1027,-3.9921,1556.4102],[136.1002,-3.9948,1555.2798],[136.0893,-4.0097,1549.2906],[136.0984,-4.0303,1544.2664],[136.1022,-4.0348,1544.5101]]]]}}