{"type":"Feature","properties":{"GID_3":"IDN.17.4.15_1","GID_0":"IDN","country":"Indonesia","GID_1":"IDN.17_1","province":"Lampung","NL_NAME_1":"NA","GID_2":"IDN.17.4_1","county":"LampungTengah","NL_NAME_2":"NA","city":"PutraRumbia","VARNAME_3":"NA","NL_NAME_3":"NA","TYPE_3":"Kecamatan","ENGTYPE_3":"Sub-district","CC_3":"1805122","HASC_3":"NA","name":"Putra_Rumbia.city"},
"geometry":{"type": "MultiPolygon","coordinates": [[[[105.6026,-4.8151,13.7642],[105.5998,-4.8176,12.8822],[105.5981,-4.8166,19.7219],[105.5945,-4.8057,21.3527],[105.587,-4.7934,19.5566],[105.5704,-4.7809,23.4139],[105.5559,-4.7797,18.2013],[105.5324,-4.7945,16.1882],[105.5341,-4.7957,14.5752],[105.5338,-4.798,18.0529],[105.5257,-4.8003,15.9594],[105.5248,-4.8097,21.9051],[105.5297,-4.8117,28.1591],[105.5331,-4.8249,34.845],[105.5415,-4.8283,32.5115],[105.5455,-4.8324,25.8935],[105.542,-4.8488,24.9858],[105.5446,-4.8604,23.3929],[105.542,-4.8656,26.7143],[105.5478,-4.8742,22.2805],[105.5548,-4.8727,19.3819],[105.5626,-4.8756,27.0964],[105.5695,-4.8759,4.9676],[105.5753,-4.8783,3.617],[105.5791,-4.8838,4.2155],[105.5903,-4.8823,4.3644],[105.5932,-4.8792,6.6927],[105.5943,-4.8669,4.0663],[105.5997,-4.8626,1.4499],[105.6012,-4.8549,5.475],[105.6052,-4.8519,6.0926],[105.6148,-4.8523,8.1779],[105.6254,-4.8593,2.1602],[105.6265,-4.8557,1.4687],[105.6302,-4.8525,2.6322],[105.6377,-4.8515,10.5995],[105.6394,-4.837,9.4393],[105.6352,-4.8324,1.9941],[105.6373,-4.8266,3.8067],[105.645,-4.8171,1.5601],[105.6526,-4.8131,3.9976],[105.6547,-4.8043,5.2745],[105.6494,-4.7943,3.2884],[105.6569,-4.789,3.4478],[105.6555,-4.7863,2.1768],[105.6491,-4.7826,7.6769],[105.6371,-4.7858,2.4207],[105.6105,-4.8063,13.9427],[105.6081,-4.8119,9.7106],[105.6026,-4.8151,13.7642]]]]}}