{"type":"Feature","properties":{"GID_3":"IDN.24.3.14_1","GID_0":"IDN","country":"Indonesia","GID_1":"IDN.24_1","province":"Riau","NL_NAME_1":"NA","GID_2":"IDN.24.3_1","county":"IndragiriHilir","NL_NAME_2":"NA","city":"Reteh","VARNAME_3":"NA","NL_NAME_3":"NA","TYPE_3":"Kecamatan","ENGTYPE_3":"Sub-district","CC_3":"1403020","HASC_3":"NA","name":"Reteh.city"},
"geometry":{"type": "MultiPolygon","coordinates": [[[[103.3998,-0.7873,4.5068],[103.4249,-0.776,3.8291],[103.4397,-0.7712,5.7292],[103.4853,-0.7684,12.3822],[103.4801,-0.7568,12.2414],[103.4614,-0.736,0.0],[103.4543,-0.7343,0.0],[103.4444,-0.737,9.8469],[103.4428,-0.7407,10.2589],[103.4415,-0.737,8.9771],[103.4373,-0.7375,11.4387],[103.4355,-0.734,3.138],[103.4281,-0.7333,0.0],[103.4195,-0.7301,0.0],[103.4358,-0.7187,0.0],[103.4369,-0.7137,4.0103],[103.4324,-0.7096,11.5134],[103.423,-0.7056,0.0],[103.3982,-0.7045,0.0],[103.3758,-0.6951,0.0],[103.3596,-0.6973,0.0],[103.3289,-0.6976,0.0],[103.3201,-0.6989,0.0],[103.3139,-0.702,9.9973],[103.291,-0.7059,0.0],[103.2688,-0.6999,2.2756],[103.2535,-0.7011,0.0],[103.2298,-0.6889,3.0704],[103.2266,-0.6852,0.0],[103.2114,-0.6836,0.0],[103.189,-0.6876,0.0],[103.1874,-0.6735,4.2023],[103.1833,-0.6622,6.7322],[103.1548,-0.6641,6.3535],[103.1201,-0.6587,6.5738],[103.1024,-0.6541,7.1711],[103.0851,-0.6532,7.1795],[103.0642,-0.6589,6.5743],[103.0489,-0.6683,5.6552],[103.0489,-0.6733,2.8446],[103.0464,-0.6761,1.9477],[103.045,-0.6829,0.0],[103.0366,-0.6857,0.5783],[103.0383,-0.6989,2.8492],[103.0387,-0.7528,6.0358],[103.0831,-0.7535,5.4304],[103.0962,-0.7553,5.7784],[103.1215,-0.7469,8.3058],[103.1419,-0.7498,5.3871],[103.1861,-0.7602,11.01],[103.2034,-0.7669,9.4494],[103.247,-0.7726,10.2905],[103.2871,-0.7748,7.623],[103.3129,-0.7792,6.0168],[103.3367,-0.7845,6.2029],[103.3626,-0.7947,4.6505],[103.37,-0.7961,3.9895],[103.3817,-0.7943,6.3424],[103.3998,-0.7873,4.5068]]],
[[[103.4167,-0.6763,10.1135],[103.4161,-0.6749,11.5125],[103.4209,-0.6664,11.5728],[103.4203,-0.6604,10.7257],[103.4186,-0.658,13.5138],[103.4143,-0.6575,11.7955],[103.4147,-0.6551,10.0914],[103.4125,-0.6553,12.1884],[103.4113,-0.653,11.212],[103.4006,-0.6474,6.0861],[103.3969,-0.6468,4.0202],[103.3719,-0.6517,4.3678],[103.3546,-0.6451,2.8273],[103.3392,-0.6418,5.3641],[103.3338,-0.6461,0.0],[103.3319,-0.6509,7.1857],[103.3248,-0.6596,11.0588],[103.3162,-0.6664,8.3286],[103.2845,-0.6724,0.0],[103.2541,-0.6811,0.0],[103.2407,-0.6812,0.0],[103.2355,-0.685,2.3116],[103.2408,-0.6914,0.0],[103.2502,-0.6965,0.0],[103.2737,-0.697,4.2235],[103.2874,-0.7019,7.901],[103.2916,-0.7018,4.7999],[103.3021,-0.7001,2.3882],[103.3237,-0.6922,11.4004],[103.3481,-0.6927,10.6318],[103.3757,-0.6883,1.8458],[103.3971,-0.6929,9.1996],[103.4038,-0.6893,10.8021],[103.4074,-0.6849,11.4331],[103.4098,-0.685,8.5355],[103.4106,-0.6816,13.6226],[103.4145,-0.6796,13.0938],[103.4167,-0.6763,10.1135]]],
[[[103.3349,-0.6392,2.8287],[103.3015,-0.621,6.0515],[103.3021,-0.6494,5.1607],[103.2932,-0.6497,6.282],[103.2923,-0.6571,6.6564],[103.3173,-0.6609,1.6942],[103.3349,-0.6392,2.8287]]],
[[[103.428,-0.6221,1.8969],[103.4301,-0.6135,10.818],[103.3955,-0.6264,15.1587],[103.3661,-0.6346,13.471],[103.3418,-0.6341,12.8688],[103.3363,-0.6389,2.8287],[103.3443,-0.6384,1.1659],[103.3583,-0.6415,3.5214],[103.3682,-0.646,9.2131],[103.3754,-0.6465,0.8907],[103.4042,-0.6373,4.4537],[103.4134,-0.6365,0.0],[103.4197,-0.6325,7.2698],[103.428,-0.6221,1.8969]]]]}}