{"type":"Feature","properties":{"GID_3":"IDN.24.7.6_1","GID_0":"IDN","country":"Indonesia","GID_1":"IDN.24_1","province":"Riau","NL_NAME_1":"NA","GID_2":"IDN.24.7_1","county":"KuantanSingingi","NL_NAME_2":"NA","city":"KuantanHilir","VARNAME_3":"NA","NL_NAME_3":"NA","TYPE_3":"Kecamatan","ENGTYPE_3":"Sub-district","CC_3":"1401050","HASC_3":"NA","name":"Kuantan_Hilir.city"},
"geometry":{"type": "MultiPolygon","coordinates": [[[[101.8224,-0.6358,72.3849],[101.8261,-0.6381,60.2186],[101.8445,-0.6162,48.0104],[101.8484,-0.6046,35.9065],[101.8612,-0.5986,61.9797],[101.8681,-0.5912,40.6331],[101.8495,-0.594,77.7482],[101.8275,-0.5925,57.6972],[101.8087,-0.5826,95.0641],[101.8011,-0.5753,96.8859],[101.7863,-0.5453,83.7035],[101.7854,-0.5312,50.8908],[101.7745,-0.4854,56.605],[101.7646,-0.4769,39.3014],[101.7634,-0.4722,31.3884],[101.7633,-0.4688,32.9972],[101.7697,-0.4551,36.4515],[101.7699,-0.4251,79.3599],[101.7757,-0.411,74.4894],[101.7797,-0.4071,76.8367],[101.7825,-0.4066,71.3989],[101.7945,-0.4141,79.4151],[101.8095,-0.4332,56.0301],[101.8133,-0.4346,61.9749],[101.8586,-0.4048,101.2717],[101.8494,-0.4044,90.2709],[101.8454,-0.3986,84.5575],[101.8379,-0.3923,76.4176],[101.8343,-0.3819,109.4892],[101.8287,-0.3768,99.9258],[101.8219,-0.3757,91.9544],[101.8109,-0.3819,98.1992],[101.8072,-0.3815,91.7302],[101.8009,-0.3779,84.066],[101.7977,-0.3726,83.3227],[101.7925,-0.3707,83.7259],[101.7885,-0.3657,95.5984],[101.7775,-0.365,84.6825],[101.7651,-0.358,104.2465],[101.7575,-0.3562,113.5833],[101.7407,-0.3762,83.3208],[101.7361,-0.3982,83.551],[101.734,-0.3988,92.1901],[101.7327,-0.3974,74.4505],[101.7282,-0.3876,89.2664],[101.7238,-0.3847,87.9954],[101.718,-0.394,72.7644],[101.7119,-0.3977,62.982],[101.7079,-0.4035,62.1005],[101.704,-0.4049,49.3433],[101.7029,-0.4124,50.7046],[101.7,-0.4172,56.8382],[101.7011,-0.4213,51.1744],[101.6989,-0.4333,39.3009],[101.7006,-0.4363,40.2087],[101.7103,-0.4409,42.8974],[101.7109,-0.4437,47.0227],[101.7015,-0.4692,46.2131],[101.7038,-0.4748,43.6374],[101.7616,-0.5616,70.8979],[101.7929,-0.6058,89.4796],[101.8097,-0.6263,76.0342],[101.8224,-0.6358,72.3849]]]]}}