{"type":"Feature","properties":{"GID_3":"IDN.1.5.12_1","GID_0":"IDN","country":"Indonesia","GID_1":"IDN.1_1","province":"Aceh","NL_NAME_1":"NA","GID_2":"IDN.1.5_1","county":"AcehSelatan","NL_NAME_2":"NA","city":"Samadua","VARNAME_3":"NA","NL_NAME_3":"NA","TYPE_3":"Kecamatan","ENGTYPE_3":"Sub-district","CC_3":"1103060","HASC_3":"NA","name":"Samadua.city"},
"geometry":{"type": "MultiPolygon","coordinates": [[[[97.1601,3.2945,176.1038],[97.1658,3.2975,260.6131],[97.1875,3.3009,618.7736],[97.2047,3.3087,1033.4717],[97.2308,3.3265,1004.7662],[97.2435,3.3448,812.9792],[97.2585,3.3463,875.8663],[97.2708,3.3426,682.6378],[97.249,3.3768,197.8082],[97.2387,3.3993,536.4927],[97.2371,3.4146,773.3242],[97.2337,3.4205,939.8612],[97.2281,3.4116,527.0083],[97.2032,3.3869,1144.1984],[97.1539,3.3601,616.0274],[97.1387,3.3584,316.1762],[97.1225,3.3494,0.0],[97.1206,3.3418,0.0],[97.1213,3.3329,0.0],[97.1264,3.3274,0.0],[97.127,3.3194,0.0],[97.1284,3.3177,0.0],[97.1343,3.317,0.0],[97.1406,3.3124,2.2407],[97.1456,3.3051,0.0],[97.1513,3.2899,0.0],[97.1601,3.2945,176.1038]]]]}}