{"type":"Feature","properties":{"GID_3":"IDN.10.35.24_1","GID_0":"IDN","country":"Indonesia","GID_1":"IDN.10_1","province":"JawaTengah","NL_NAME_1":"NA","GID_2":"IDN.10.35_1","county":"Wonogiri","NL_NAME_2":"NA","city":"WadukGajahmungkur","VARNAME_3":"NA","NL_NAME_3":"NA","TYPE_3":"Kecamatan","ENGTYPE_3":"Sub-district","CC_3":"3312888","HASC_3":"NA","name":"Waduk_Gajahmungkur.city"},
"geometry":{"type": "MultiPolygon","coordinates": [[[[110.9271,-7.9169,135.7976],[110.9295,-7.9159,134.5],[110.9292,-7.9208,141.9172],[110.9325,-7.9179,136.3997],[110.9346,-7.9199,136.8953],[110.9315,-7.9222,140.8582],[110.9314,-7.9301,147.0152],[110.9359,-7.9239,137.089],[110.9379,-7.9257,138.3029],[110.9371,-7.9281,139.3681],[110.9401,-7.9277,138.0461],[110.94,-7.9311,139.5921],[110.9378,-7.9335,138.5644],[110.9403,-7.9337,138.685],[110.9425,-7.9288,138.4532],[110.9444,-7.9301,138.2625],[110.9432,-7.9355,144.0089],[110.9453,-7.9331,139.1688],[110.9442,-7.9276,137.536],[110.9417,-7.9282,138.4069],[110.9379,-7.923,137.6046],[110.9403,-7.9257,136.0],[110.9458,-7.9263,137.3046],[110.9469,-7.9293,137.6691],[110.9508,-7.9295,138.6735],[110.9523,-7.9282,138.6735],[110.9489,-7.928,137.7562],[110.9478,-7.9241,140.6404],[110.9456,-7.9257,136.0],[110.9421,-7.9237,136.0],[110.9448,-7.9215,147.0904],[110.9451,-7.9203,139.4759],[110.9411,-7.9202,136.0],[110.9437,-7.9173,137.9211],[110.9408,-7.9182,136.0],[110.9336,-7.9102,136.7917],[110.9335,-7.9085,138.3404],[110.9413,-7.908,148.0773],[110.9432,-7.9054,139.9304],[110.9402,-7.9061,135.8223],[110.94,-7.9044,141.2977],[110.938,-7.905,134.5],[110.9369,-7.9033,136.4816],[110.9359,-7.9045,135.2781],[110.9346,-7.9013,138.3318],[110.9321,-7.9052,134.5],[110.93,-7.9022,134.9592],[110.9318,-7.9014,134.9592],[110.9322,-7.8982,146.1997],[110.9348,-7.8974,140.1276],[110.9387,-7.8945,144.8398],[110.9374,-7.8953,138.6715],[110.9359,-7.8941,140.3738],[110.9342,-7.8956,134.5],[110.9337,-7.8944,140.3552],[110.9306,-7.8964,134.5],[110.9311,-7.8941,138.1628],[110.9294,-7.8946,134.5],[110.9292,-7.8913,137.3775],[110.9288,-7.8973,134.5],[110.925,-7.8998,134.5],[110.9227,-7.8977,134.5],[110.9241,-7.8919,138.9659],[110.9227,-7.8898,134.5],[110.9198,-7.8895,134.5],[110.9194,-7.8916,134.5],[110.9167,-7.8925,136.8043],[110.9088,-7.891,134.5],[110.912,-7.8895,136.5884],[110.9121,-7.8836,134.9266],[110.914,-7.8812,134.5],[110.9134,-7.8836,135.2594],[110.915,-7.8823,134.8604],[110.9138,-7.8844,135.2594],[110.919,-7.8877,134.5],[110.9254,-7.8861,139.7504],[110.9222,-7.8824,134.5],[110.9259,-7.8809,146.1279],[110.9244,-7.8795,135.7998],[110.9272,-7.878,137.56],[110.9263,-7.8766,135.8337],[110.9289,-7.8778,135.7179],[110.9289,-7.8728,134.5],[110.9306,-7.8738,138.9944],[110.9306,-7.8718,134.5],[110.932,-7.8742,176.3373],[110.9329,-7.8705,141.5473],[110.9381,-7.8697,140.3716],[110.9323,-7.8675,149.3406],[110.9308,-7.8685,134.5],[110.9315,-7.8662,134.5],[110.9303,-7.8656,134.5],[110.9324,-7.8639,142.414],[110.9308,-7.8635,136.6611],[110.9275,-7.8651,141.1496],[110.9285,-7.8683,134.5],[110.9252,-7.8701,134.5],[110.9241,-7.8696,134.5],[110.925,-7.8677,140.2929],[110.9218,-7.8679,134.5],[110.9233,-7.8658,134.5],[110.9202,-7.8636,134.5],[110.9228,-7.8648,134.5],[110.9272,-7.8634,140.1759],[110.9246,-7.8595,134.5],[110.9279,-7.8612,134.5],[110.9362,-7.8608,144.8661],[110.9341,-7.8584,146.8006],[110.9294,-7.8579,136.1228],[110.9277,-7.8553,137.7548],[110.9256,-7.8554,137.3458],[110.9211,-7.8493,134.5],[110.9246,-7.8495,134.5],[110.925,-7.8528,138.4583],[110.9284,-7.8509,134.5],[110.9336,-7.8531,151.6862],[110.9331,-7.851,134.5],[110.9354,-7.851,135.6808],[110.9326,-7.8474,134.7604],[110.9373,-7.8519,137.151],[110.9369,-7.8535,142.2624],[110.9381,-7.8544,137.5278],[110.9393,-7.853,137.5278],[110.9424,-7.8577,138.3255],[110.9459,-7.8575,137.2577],[110.942,-7.8543,134.5],[110.9411,-7.8513,134.5],[110.9424,-7.8508,135.0686],[110.9495,-7.8574,139.5651],[110.954,-7.8551,137.3199],[110.9485,-7.8536,135.7877],[110.952,-7.8538,137.0723],[110.9493,-7.8511,134.5],[110.9517,-7.8531,137.0723],[110.9599,-7.8523,139.9626],[110.9521,-7.8507,138.3111],[110.9515,-7.8494,136.8935],[110.9547,-7.8485,146.691],[110.9519,-7.8472,137.011],[110.9597,-7.8473,145.0554],[110.9627,-7.8452,143.1703],[110.9621,-7.845,143.1703],[110.9611,-7.846,143.1703],[110.9582,-7.8444,158.6921],[110.9538,-7.8457,136.5842],[110.9516,-7.8444,146.3147],[110.946,-7.8468,135.8841],[110.9476,-7.8439,141.4032],[110.9454,-7.8438,144.6783],[110.9452,-7.8457,137.7826],[110.9426,-7.847,136.8439],[110.944,-7.845,139.0235],[110.9426,-7.8437,144.0766],[110.94,-7.8453,135.4194],[110.9396,-7.8431,134.5],[110.9417,-7.8421,135.7097],[110.9387,-7.84,137.9097],[110.9373,-7.841,135.456],[110.9364,-7.838,139.4716],[110.9406,-7.8386,142.3191],[110.9414,-7.8375,134.5],[110.9467,-7.8396,143.1819],[110.9451,-7.836,144.4673],[110.9391,-7.8364,134.5],[110.9386,-7.8347,139.9168],[110.9381,-7.8363,134.5],[110.937,-7.8349,136.2646],[110.935,-7.8365,134.5],[110.9314,-7.8355,135.9387],[110.9258,-7.8395,135.4577],[110.9256,-7.8367,128.7648],[110.9241,-7.842,134.5],[110.9222,-7.843,134.5],[110.9187,-7.842,142.8414],[110.921,-7.8461,143.6123],[110.9165,-7.8479,150.615],[110.9178,-7.8536,134.5],[110.911,-7.8584,134.5],[110.9106,-7.8564,136.7387],[110.9085,-7.8557,152.6341],[110.9067,-7.8592,146.2565],[110.9041,-7.8599,149.9549],[110.9057,-7.8661,137.03],[110.9024,-7.862,141.7107],[110.8999,-7.863,134.5],[110.8973,-7.8618,145.2032],[110.8995,-7.8639,134.5],[110.8973,-7.8653,137.6545],[110.9024,-7.8654,139.805],[110.9029,-7.8663,134.5],[110.9004,-7.8666,142.6427],[110.9027,-7.8688,136.5256],[110.8959,-7.8677,150.5725],[110.8974,-7.8692,136.8269],[110.8954,-7.8697,144.6694],[110.8967,-7.8718,136.2346],[110.8938,-7.871,151.6151],[110.8941,-7.8731,134.5],[110.8917,-7.8722,142.0937],[110.894,-7.877,135.3048],[110.8862,-7.8766,172.0764],[110.8851,-7.8779,172.0764],[110.8862,-7.8804,165.3662],[110.8904,-7.8837,134.5],[110.888,-7.887,144.3046],[110.889,-7.8894,134.5],[110.8858,-7.8903,134.5],[110.8849,-7.8878,143.8002],[110.8824,-7.8916,135.2225],[110.8801,-7.8924,137.7042],[110.8773,-7.8903,136.842],[110.8811,-7.8806,149.3429],[110.8797,-7.878,158.0363],[110.8804,-7.875,146.0798],[110.8792,-7.8777,147.9224],[110.8796,-7.8809,152.9075],[110.8771,-7.8826,143.8572],[110.8765,-7.8869,134.8853],[110.8703,-7.8869,139.8831],[110.871,-7.8883,139.4172],[110.8736,-7.8889,135.0938],[110.8739,-7.8908,136.2145],[110.8732,-7.8928,135.5592],[110.8702,-7.8921,139.0144],[110.8709,-7.8942,143.2684],[110.8731,-7.8942,134.5],[110.8737,-7.8963,144.5999],[110.8777,-7.8946,136.611],[110.8772,-7.8965,137.743],[110.8789,-7.8976,135.2022],[110.8785,-7.8991,136.1996],[110.8757,-7.8993,139.6875],[110.8774,-7.9033,136.1655],[110.8766,-7.9047,134.6645],[110.8736,-7.9051,135.0172],[110.8733,-7.902,139.7746],[110.8712,-7.8998,136.3014],[110.8687,-7.9003,136.7493],[110.8681,-7.8988,145.7131],[110.8678,-7.9006,145.4189],[110.8705,-7.9045,135.7347],[110.8692,-7.9054,142.5343],[110.8695,-7.9092,137.9182],[110.8672,-7.908,136.403],[110.8639,-7.9114,134.7454],[110.8605,-7.91,136.7128],[110.8611,-7.9077,139.3626],[110.8595,-7.9066,136.9584],[110.8582,-7.907,136.9584],[110.8589,-7.9099,134.9477],[110.8556,-7.91,135.0115],[110.8539,-7.9062,146.2891],[110.8513,-7.9062,144.27],[110.8534,-7.9083,146.9816],[110.8538,-7.9116,140.8513],[110.8613,-7.9137,136.4785],[110.8572,-7.9149,136.6322],[110.8562,-7.9192,135.0906],[110.8499,-7.9228,136.7532],[110.8546,-7.9212,134.5],[110.8542,-7.9234,148.4583],[110.8574,-7.9215,140.2779],[110.8604,-7.9163,142.7213],[110.8637,-7.918,143.9601],[110.8653,-7.9152,136.0618],[110.8667,-7.9159,135.6229],[110.8651,-7.9205,140.1033],[110.8707,-7.9189,136.6478],[110.8726,-7.9163,135.9965],[110.8755,-7.917,137.1208],[110.8774,-7.9141,134.5],[110.8802,-7.917,135.8609],[110.8754,-7.9193,137.522],[110.8752,-7.922,135.0721],[110.868,-7.9241,141.1263],[110.8701,-7.9256,138.8074],[110.8688,-7.9283,138.1596],[110.8784,-7.9242,134.5],[110.8817,-7.9268,134.5],[110.8684,-7.9362,137.5367],[110.8782,-7.9336,137.3776],[110.8803,-7.9314,134.5],[110.885,-7.9329,134.5],[110.8849,-7.9364,134.5],[110.8819,-7.9403,134.5],[110.8785,-7.9375,140.5089],[110.8783,-7.9405,136.4339],[110.875,-7.9402,135.8188],[110.8759,-7.9426,134.5],[110.8735,-7.9412,143.1088],[110.8716,-7.9425,140.4244],[110.8752,-7.945,134.5],[110.8698,-7.9467,141.6761],[110.8734,-7.9471,134.5],[110.8716,-7.9517,134.8279],[110.8658,-7.9524,136.4005],[110.8637,-7.9505,139.7382],[110.8605,-7.9528,139.4775],[110.8612,-7.954,139.6894],[110.8627,-7.9531,137.0625],[110.8682,-7.9545,134.6074],[110.8662,-7.9558,137.3798],[110.8687,-7.9592,137.9685],[110.8706,-7.9549,137.0128],[110.8749,-7.9534,142.0225],[110.8767,-7.9486,136.6557],[110.8813,-7.9467,135.7676],[110.8856,-7.9472,134.5],[110.8841,-7.9494,134.5],[110.8813,-7.9498,134.5],[110.8825,-7.9532,134.5],[110.878,-7.9549,138.3297],[110.8831,-7.9561,134.5],[110.8842,-7.9582,135.3272],[110.8777,-7.9647,136.0181],[110.8864,-7.9615,134.5],[110.8874,-7.9642,134.5],[110.8895,-7.9637,134.5],[110.8935,-7.9671,134.5],[110.8925,-7.9698,134.5],[110.8881,-7.9723,134.5],[110.88,-7.9715,135.6112],[110.8832,-7.9734,134.5],[110.8827,-7.976,135.4402],[110.886,-7.974,134.5],[110.8867,-7.9755,136.9172],[110.8909,-7.9757999999999996,134.5],[110.8906,-7.9786,134.5],[110.8882,-7.9807,140.4718],[110.8897,-7.9814,134.5],[110.8868,-7.9836,135.428],[110.8941,-7.9816,135.2971],[110.8946,-7.9842,136.2776],[110.896,-7.9843,136.3274],[110.896,-7.9815,136.693],[110.8939,-7.9801,135.6283],[110.8965,-7.98,135.066],[110.8973,-7.9782,134.5],[110.9033,-7.9818,137.9285],[110.9089,-7.9791,138.6543],[110.902,-7.9793,137.9341],[110.8996,-7.977,139.0193],[110.8993,-7.9724,134.5],[110.9029,-7.9732,139.3109],[110.9058,-7.972,134.5],[110.9012,-7.9696,134.5],[110.9013,-7.9637,139.6682],[110.8974,-7.9603,136.2228],[110.8934,-7.9534,134.5],[110.8963,-7.953,138.3366],[110.8975,-7.9506,137.3932],[110.8988,-7.9513,140.7367],[110.899,-7.9473,139.5721],[110.9012,-7.9456,134.5],[110.9027,-7.9462,134.5],[110.9033,-7.9492,134.5],[110.9017,-7.9498,136.4243],[110.9025,-7.9526,137.7746],[110.9038,-7.9526,134.5],[110.9016,-7.9555,135.2485],[110.906,-7.9572,136.0239],[110.9051,-7.9602,144.4184],[110.9078,-7.96,134.5],[110.9074,-7.9623,137.8416],[110.9096,-7.9615,135.6228],[110.9105,-7.9647,137.7886],[110.9151,-7.9662,135.243],[110.9158,-7.9697,138.2088],[110.9166,-7.9682,135.2472],[110.9184,-7.9686,134.5],[110.9187,-7.9721,138.0437],[110.9205,-7.9723,135.7788],[110.9199,-7.9697,137.3118],[110.9222,-7.9688,134.5],[110.9196,-7.9643,140.2844],[110.9204,-7.9678,134.5],[110.9178,-7.9673,135.1511],[110.9155,-7.9637,142.9569],[110.9169,-7.9617,137.0713],[110.9142,-7.9619,134.5],[110.9092,-7.9554,134.5],[110.9103,-7.9537,140.3055],[110.9089,-7.9534,134.5],[110.9086,-7.9501,135.9324],[110.9116,-7.9509,137.7745],[110.911,-7.9468,134.5],[110.9063,-7.9411,134.5],[110.9073,-7.9399,134.5],[110.9124,-7.9422,136.0699],[110.9174,-7.9527,134.5],[110.9169,-7.9494,134.5],[110.9187,-7.9482,136.3966],[110.9156,-7.9457,138.2369],[110.9205,-7.9436,135.8254],[110.9231,-7.9448,144.0311],[110.9236,-7.9413,135.2367],[110.917,-7.9421,134.5],[110.9151,-7.9407,134.5],[110.9159,-7.9391,148.6987],[110.9094,-7.9362,137.9439],[110.9103,-7.9337,135.416],[110.9173,-7.9306,137.1933],[110.9114,-7.9307,136.7787],[110.9103,-7.929,137.6756],[110.9083,-7.9291,140.5794],[110.9077,-7.9317,134.5],[110.9043,-7.9341,134.9401],[110.9046,-7.9302,135.5272],[110.9027,-7.9312,134.5],[110.9028,-7.9296,134.5],[110.9012,-7.9302,134.5],[110.9016,-7.9286,138.0182],[110.8979,-7.9272,135.2935],[110.9014,-7.9264,141.2504],[110.8976,-7.923,135.6913],[110.898,-7.9201,137.0739],[110.9023,-7.9229,135.0477],[110.9044,-7.9224,135.1373],[110.9064,-7.9259,138.6617],[110.9081,-7.9247,141.7705],[110.908,-7.9226,134.5],[110.9126,-7.9231,142.2666],[110.9103,-7.9198,135.0502],[110.9122,-7.9188,137.8019],[110.9105,-7.9178,139.0977],[110.9055,-7.9187,135.0306],[110.9063,-7.9147,134.5],[110.9031,-7.9127,134.9364],[110.9059,-7.9094,134.5],[110.9074,-7.9132,137.8329],[110.9106,-7.9127,134.9229],[110.9123,-7.9109,134.5],[110.9099,-7.9074,134.5],[110.9111,-7.9059,134.5],[110.9145,-7.9102,136.3726],[110.9131,-7.9144,139.7338],[110.9168,-7.9163,136.8931],[110.9173,-7.9183,142.1419],[110.9188,-7.9132,134.9194],[110.9217,-7.9158,134.5],[110.9215,-7.9186,148.4466],[110.9233,-7.9179,135.182],[110.9236,-7.9197,147.4854],[110.9246,-7.9162,134.5],[110.9271,-7.9169,135.7976]]]]}}