{"type":"Feature","properties":{"GID_3":"IDN.30.1.8_1","GID_0":"IDN","country":"Indonesia","GID_1":"IDN.30_1","province":"SumateraBarat","NL_NAME_1":"NA","GID_2":"IDN.30.1_1","county":"Agam","NL_NAME_2":"NA","city":"LubukBasung","VARNAME_3":"NA","NL_NAME_3":"NA","TYPE_3":"Kecamatan","ENGTYPE_3":"Sub-district","CC_3":"1307020","HASC_3":"NA","name":"Lubuk_Basung.city"},
"geometry":{"type": "MultiPolygon","coordinates": [[[[99.9898,-0.2471,70.5987],[99.9712,-0.2364,44.6785],[99.9526,-0.2183,17.0285],[99.9388,-0.2141,14.6969],[99.9298,-0.2222,16.1435],[99.9304,-0.2241,14.1128],[99.9251,-0.2215,12.8517],[99.9169,-0.2222,14.0422],[99.9151,-0.2264,13.1764],[99.9177,-0.2328,11.3352],[99.91,-0.2377,11.5885],[99.9048,-0.2499,10.2304],[99.8995,-0.2525,8.3653],[99.8966,-0.258,10.8138],[99.918,-0.2851,8.9718],[99.928,-0.2938,7.0582],[99.9385,-0.3093,11.9983],[99.9465,-0.3277,18.6243],[99.9505,-0.3549,42.2558],[99.9545,-0.3582,44.8231],[99.964,-0.3549,46.6884],[99.9675,-0.3556,46.1227],[99.9592,-0.369,37.4361],[99.9591,-0.3721,28.5946],[99.9621,-0.373,36.1558],[99.9644,-0.3691,52.2612],[99.9716,-0.3686,25.0984],[99.975,-0.3649,28.3385],[99.9809,-0.3641,46.1559],[99.9829,-0.3663,30.5079],[99.9864,-0.3663,37.1478],[99.9933,-0.3597,79.8771],[100.0006,-0.3582,87.7942],[100.0178,-0.3637,132.7818],[100.0231,-0.3621,132.202],[100.0291,-0.3652,154.0531],[100.0348,-0.3626,150.4534],[100.0458,-0.3643,178.3462],[100.0483,-0.3635,187.7492],[100.0493,-0.3609,173.3176],[100.0481,-0.3559,104.8111],[100.0569,-0.3485,162.8266],[100.0612,-0.3352,164.4584],[100.0667,-0.3293,127.7234],[100.0873,-0.3246,154.0535],[100.0934,-0.326,159.3496],[100.0975,-0.3309,285.2513],[100.1009,-0.332,381.1815],[100.1007,-0.326,263.1566],[100.1044,-0.3135,292.155],[100.1093,-0.3043,540.3846],[100.1213,-0.2927,710.251],[100.1228,-0.2851,909.3605],[100.1283,-0.2727,1336.5272],[100.1273,-0.2611,1570.4827],[100.1295,-0.2531,1623.2321],[100.1196,-0.2526,1288.2866],[100.1023,-0.2487,968.514],[100.0907,-0.2486,508.3907],[100.0843,-0.2526,391.662],[100.064,-0.251,211.4062],[100.0549,-0.253,126.5435],[100.0457,-0.2592,112.4545],[100.041,-0.2591,84.7049],[100.0348,-0.2581,42.365],[100.03,-0.2545,35.0918],[100.0142,-0.2538,47.2819],[99.9898,-0.2471,70.5987]]]]}}