{"type":"Feature","properties":{"GID_3":"IDN.10.35.20_1","GID_0":"IDN","country":"Indonesia","GID_1":"IDN.10_1","province":"JawaTengah","NL_NAME_1":"NA","GID_2":"IDN.10.35_1","county":"Wonogiri","NL_NAME_2":"NA","city":"Selogiri","VARNAME_3":"NA","NL_NAME_3":"NA","TYPE_3":"Kecamatan","ENGTYPE_3":"Sub-district","CC_3":"3312130","HASC_3":"NA","name":"Selogiri.city"},
"geometry":{"type": "MultiPolygon","coordinates": [[[[110.8721,-7.8351,662.2201],[110.8721,-7.8368,639.0156],[110.8788,-7.8348,757.3214],[110.8968,-7.8372,625.431],[110.9068,-7.8334,359.4673],[110.9068,-7.8288,259.8655],[110.9008,-7.8209,174.926],[110.8972,-7.8118,166.4774],[110.8982,-7.8102,153.9543],[110.9024,-7.8094,143.2223],[110.9044,-7.8065,143.2497],[110.9086,-7.8076,155.2729],[110.9088,-7.8034,154.2479],[110.9121,-7.8023,149.6827],[110.9138,-7.8035,151.4664],[110.9103,-7.7962,149.7384],[110.9103,-7.7911,140.8356],[110.909,-7.791,135.95],[110.9109,-7.7882999999999996,139.798],[110.913,-7.7881,145.4211],[110.9123,-7.7847,157.9325],[110.9074,-7.7811,157.1404],[110.908,-7.772,205.8315],[110.9093,-7.7695,228.4051],[110.9177,-7.7682,158.6861],[110.9198,-7.7665,111.7993],[110.9165,-7.7606,119.1534],[110.9124,-7.759,112.64],[110.9104,-7.7557,112.6386],[110.906,-7.7555,110.1923],[110.904,-7.7527,110.9304],[110.8949,-7.7506,107.5493],[110.8875,-7.7519,105.4033],[110.8835,-7.7551,108.414],[110.883,-7.7498,106.4555],[110.8774,-7.7463,105.0177],[110.8763,-7.7473,108.6084],[110.8782,-7.7518,105.2466],[110.8765,-7.7522,105.2466],[110.8734,-7.7498,105.383],[110.87,-7.7503,108.017],[110.866,-7.754,104.0099],[110.8638,-7.7529,105.3066],[110.8636,-7.7571,102.9792],[110.8602,-7.7592,103.7354],[110.8626,-7.766,104.6806],[110.8598,-7.7662,106.7649],[110.8579,-7.7708,113.6829],[110.8568,-7.776,114.3456],[110.8582,-7.7802,114.6961],[110.8547,-7.7847,118.9745],[110.8571,-7.7875,119.8925],[110.8601,-7.7962,125.665],[110.8558,-7.8014,148.8109],[110.8569,-7.8116,215.261],[110.8503,-7.8149,540.6684],[110.8577,-7.8246,645.7114],[110.8588,-7.8278,676.5942],[110.8579,-7.831,715.3889],[110.8595,-7.8328,714.8281],[110.8627,-7.8323,641.0367],[110.8657,-7.8341,670.6854],[110.87,-7.833,703.0879],[110.8721,-7.8351,662.2201]]]]}}