{"type":"Feature","properties":{"GID_3":"IDN.32.19.5_1","GID_0":"IDN","country":"Indonesia","GID_1":"IDN.32_1","province":"SumateraUtara","NL_NAME_1":"NA","GID_2":"IDN.32.19_1","county":"NiasUtara","NL_NAME_2":"NA","city":"Lahewa","VARNAME_3":"NA","NL_NAME_3":"NA","TYPE_3":"Kecamatan","ENGTYPE_3":"Sub-district","CC_3":"1224110","HASC_3":"NA","name":"Lahewa.city"},
"geometry":{"type": "MultiPolygon","coordinates": [[[[97.202,1.2905,9.1051],[97.2029,1.2897,4.9454],[97.2187,1.3007,32.9293],[97.2362,1.3103,87.5324],[97.2303,1.3246,94.0972],[97.2372,1.3245,93.8491],[97.2462,1.3302,60.7728],[97.2507,1.3306,58.4236],[97.2571,1.3289,71.672],[97.2679,1.3291,60.489],[97.2762,1.3238,88.7632],[97.2783,1.3417,77.128],[97.2849,1.3572,90.3565],[97.2835,1.3632,50.284],[97.2813,1.3691,70.302],[97.2673,1.3843,32.7297],[97.2629,1.3835,31.1367],[97.2603,1.3867,26.07],[97.2613,1.3913,26.4877],[97.2585,1.3933,16.822],[97.2595,1.3975,10.576],[97.2585,1.4013,10.0676],[97.2555,1.4017,8.8785],[97.2569,1.4027,9.4868],[97.2561,1.4055,6.8881],[97.2533,1.4047,8.1894],[97.2527,1.4064,7.6849],[97.2477,1.4073,7.9639],[97.2477,1.4091,7.2408],[97.2429,1.4089,3.6294],[97.2405,1.4105,0.8577],[97.2391,1.4077,3.0091],[97.2385,1.4095,3.35],[97.2327,1.4127,2.7644],[97.2283,1.4123,0.0],[97.2191,1.4045,3.2435],[97.2085,1.4013,3.3731],[97.202,1.4013,4.6239],[97.1996,1.4036,5.257],[97.2003,1.4066,6.7711],[97.193,1.4098,4.3668],[97.1935,1.4135,3.0038],[97.1964,1.4164,7.5958],[97.1935,1.4187,16.9816],[97.1843,1.4157,6.5866],[97.1815,1.4116,5.0407],[97.1776,1.4095,1.8261],[97.1792,1.406,4.3236],[97.1837,1.4072,6.9579],[97.1885,1.4061,6.267],[97.1834,1.4042,3.3774],[97.1841,1.3992,2.453],[97.1825,1.3995,2.453],[97.1816,1.397,2.2993],[97.1789,1.3957,2.313],[97.1796,1.4016,4.7075],[97.1783,1.4025,2.6659],[97.1762,1.3982,4.2395],[97.1714,1.3954,4.3287],[97.1722,1.3969,0.9054],[97.1715,1.3973,0.977],[97.1702,1.3959,2.6692],[97.17,1.4012,0.8112],[97.1737,1.4049,8.471],[97.1736,1.4075,7.727],[97.1629,1.412,15.4335],[97.1587,1.4196,4.2738],[97.1493,1.4221,1.6665],[97.1365,1.4319,14.3548],[97.1311,1.4285,23.6606],[97.1297,1.4233,14.291],[97.1249,1.4285,6.0135],[97.1241,1.4231,9.3295],[97.1139,1.4183,5.3227],[97.1063,1.4187,10.2044],[97.1035,1.4215,5.5259],[97.0951,1.4213,6.1583],[97.0949,1.4231,3.4972],[97.0921,1.4235,7.933],[97.0903,1.4197,7.7439],[97.0833,1.4185,2.7212],[97.0839,1.4211,0.2636],[97.0823,1.4217,4.2107],[97.0731,1.4177,8.0526],[97.0671,1.4131,3.3953],[97.0607,1.4149,-2.1857],[97.0591,1.4125,6.175],[97.0599,1.4085,4.9584],[97.0671,1.4009,7.1411],[97.0693,1.3947,8.0663],[97.0737,1.3899,-1.3487],[97.0775,1.3909,-0.9752],[97.0825,1.4073,4.9309],[97.0907,1.4083,0.4005],[97.0975,1.4073,5.109],[97.1119,1.3989,1.1924],[97.1247,1.3865,3.6238],[97.1493,1.3678,11.162],[97.1553,1.3614,0.0],[97.1548,1.3591,0.0],[97.1602,1.3544,11.7747],[97.1604,1.3507,7.3077],[97.1627,1.3503,0.0],[97.167,1.3459,2.6183],[97.1695,1.3376,0.0],[97.1756,1.3319,2.006],[97.1769,1.3287,0.4631],[97.1843,1.3227,54.7068],[97.1857,1.3164,0.9831],[97.1908,1.311,38.98],[97.1957,1.2931,0.7208],[97.202,1.2905,9.1051]]],
[[[97.1093,1.3565,11.7516],[97.1113,1.3575,16.607],[97.1113,1.3605,0.0],[97.1003,1.3585,9.7288],[97.1023,1.3525,10.2159],[97.1063,1.3525,5.25],[97.1093,1.3565,11.7516]]],
[[[97.2225,1.4133,3.8008],[97.2235,1.4139,2.2746],[97.2235,1.4143,2.2746],[97.2225,1.4145,3.3571],[97.2225,1.4133,3.8008]]],
[[[97.2253,1.4143,0.7695],[97.2251,1.4139,2.2746],[97.2253,1.4141,0.7695],[97.2253,1.4143,0.7695]]],
[[[97.2257,1.4161,8.1991],[97.2283,1.4159,2.2332],[97.2275,1.4199,4.3147],[97.2253,1.4191,5.6235],[97.2257,1.4161,8.1991]]],
[[[97.2183,1.4255,1.7413],[97.2153,1.4257,3.8259],[97.2137,1.4229,6.6911],[97.2167,1.4201,1.1934],[97.2221,1.4209,2.7999],[97.2221,1.4239,2.4935],[97.2183,1.4255,1.7413]]]]}}