{"type":"Feature","properties":{"GID_3":"IDN.24.4.2_1","GID_0":"IDN","country":"Indonesia","GID_1":"IDN.24_1","province":"Riau","NL_NAME_1":"NA","GID_2":"IDN.24.4_1","county":"IndragiriHulu","NL_NAME_2":"NA","city":"BatangGansal","VARNAME_3":"NA","NL_NAME_3":"NA","TYPE_3":"Kecamatan","ENGTYPE_3":"Sub-district","CC_3":"1402022","HASC_3":"NA","name":"Batang_Gansal.city"},
"geometry":{"type": "MultiPolygon","coordinates": [[[[102.4236,-1.0344,495.8755],[102.4329,-1.0422,431.1071],[102.447,-1.0688,203.0768],[102.4602,-1.0772,268.9948],[102.4722,-1.0797,366.3229],[102.4838,-1.08,409.8087],[102.5123,-1.0857,355.7888],[102.5345,-1.0857,357.1771],[102.545,-1.0895,304.8584],[102.555,-1.09,267.4454],[102.5594,-1.0604,200.0156],[102.5627,-1.0205,164.1405],[102.5675,-0.937,224.6595],[102.5733,-0.8999,128.745],[102.578,-0.8817,116.2066],[102.5833,-0.8691,115.8298],[102.591,-0.8581,127.2145],[102.6259,-0.8272,41.249],[102.634,-0.8171,60.931],[102.6386,-0.8059,35.4119],[102.6394,-0.7162,12.8719],[102.6455,-0.6895,6.6837],[102.6566,-0.6792,6.254],[102.6671,-0.6721,4.1497],[102.6677,-0.6567,4.9959],[102.6633,-0.605,3.1975],[102.6661,-0.5909,4.7837],[102.6873,-0.5393,5.5607],[102.6905,-0.4795,5.4051],[102.654,-0.4799,4.333],[102.6356,-0.5084,5.3173],[102.6022,-0.5531,7.1903],[102.5691,-0.591,8.5826],[102.5437,-0.6095,9.7838],[102.5199,-0.6228,14.1617],[102.4972,-0.6326,22.6232],[102.4571,-0.6773,65.9512],[102.4369,-0.6844,91.2276],[102.4209,-0.6998,103.4904],[102.4161,-0.7011,118.5438],[102.4091,-0.6975,129.5717],[102.402,-0.6972,228.2817],[102.3859,-0.6914,220.7369],[102.3598,-0.6848,139.0966],[102.3596,-0.6934,164.8043],[102.3287,-0.7472,119.361],[102.3655,-0.8471,205.5679],[102.3666,-0.8546,252.896],[102.2942,-0.952,185.2877],[102.2977,-0.9567,186.7655],[102.3221,-0.9738,338.489],[102.3435,-0.9844,263.149],[102.3492,-0.9895,361.3244],[102.3523,-0.9954,296.2096],[102.3489,-1.0155,265.2192],[102.3504,-1.0212,280.8532],[102.3543,-1.0263,397.088],[102.4054,-1.0277,433.7101],[102.4167,-1.0301,464.8811],[102.4236,-1.0344,495.8755]]]]}}