{"type":"Feature","properties":{"GID_3":"IDN.28.8.19_1","GID_0":"IDN","country":"Indonesia","GID_1":"IDN.28_1","province":"SulawesiTenggara","NL_NAME_1":"NA","GID_2":"IDN.28.8_1","county":"KonaweSelatan","NL_NAME_2":"NA","city":"RanomeetoBarat","VARNAME_3":"NA","NL_NAME_3":"NA","TYPE_3":"Kecamatan","ENGTYPE_3":"Sub-district","CC_3":"7405091","HASC_3":"NA","name":"Ranomeeto_Barat.city"},
"geometry":{"type": "MultiPolygon","coordinates": [[[[122.3829,-4.0862,92.5525],[122.3874,-4.0881,92.6786],[122.3913,-4.0839,80.9915],[122.3977,-4.0716,61.881],[122.4259,-4.0301,98.0037],[122.4276,-4.0256,122.7473],[122.4209,-4.0103,144.703],[122.372,-4.0019,43.8744],[122.363,-3.9966,72.9691],[122.3591,-3.9994,46.342],[122.3591,-4.0059,21.889],[122.351,-4.0082,17.7103],[122.3501,-4.012,27.606],[122.3517,-4.0195,19.2151],[122.3566,-4.022,19.2464],[122.3546,-4.0252,33.3781],[122.3458,-4.0256,18.6287],[122.345,-4.0235,17.1417],[122.3389,-4.0227,21.7884],[122.3402,-4.0157,19.319],[122.336,-4.0129,29.1847],[122.3333,-4.0131,44.0369],[122.3323,-4.0187,23.1616],[122.3342,-4.0253,46.3119],[122.3341,-4.0349,32.4933],[122.3308,-4.0394,37.8712],[122.3308,-4.0461,49.6892],[122.3341,-4.0518,48.1423],[122.3389,-4.0675,94.5633],[122.3406,-4.082,105.114],[122.3508,-4.0823,88.8604],[122.3515,-4.0725,82.3093],[122.3501,-4.0701,72.5481],[122.3551,-4.0643,99.53],[122.3708,-4.066,75.5699],[122.3669,-4.0838,97.3394],[122.3674,-4.0878,104.7562],[122.3808,-4.0923,104.2038],[122.3821,-4.0917,101.1899],[122.3829,-4.0862,92.5525]]]]}}