{"type":"Feature","properties":{"GID_3":"IDN.9.19.3_1","GID_0":"IDN","country":"Indonesia","GID_1":"IDN.9_1","province":"JawaBarat","NL_NAME_1":"NA","GID_2":"IDN.9.19_1","county":"KotaTasikmalaya","NL_NAME_2":"NA","city":"Cihideung","VARNAME_3":"NA","NL_NAME_3":"NA","TYPE_3":"Kecamatan","ENGTYPE_3":"Sub-district","CC_3":"3278050","HASC_3":"NA","name":"Cihideung.city"},
"geometry":{"type": "MultiPolygon","coordinates": [[[[108.2175,-7.3428,356.5197],[108.2184,-7.3378,353.7295],[108.2205,-7.3386,349.1248],[108.225,-7.3352,346.223],[108.2215,-7.3324,352.6116],[108.2224,-7.3292,351.9652],[108.2212,-7.3291,355.135],[108.2203,-7.3245,354.8479],[108.2132,-7.3222,359.328],[108.2057,-7.3245,363.8975],[108.2021,-7.3232,369.688],[108.2029,-7.3251,369.0754],[108.2008,-7.3242,370.8272],[108.1979,-7.3255,374.2785],[108.2013,-7.3257,369.0754],[108.2006,-7.3295,373.1431],[108.2026,-7.331,370.0204],[108.2015,-7.334,368.2211],[108.207,-7.3352,364.5723],[108.2096,-7.3338,358.5454],[108.2056,-7.3399,364.4969],[108.2056,-7.3435,362.5757],[108.2085,-7.3455,358.7464],[108.209,-7.3488,358.0009],[108.2117,-7.3511,357.619],[108.2178,-7.3539,359.6313],[108.2208,-7.3505,353.526],[108.2175,-7.3428,356.5197]]]]}}