{"type":"Feature","properties":{"GID_3":"IDN.9.6.14_1","GID_0":"IDN","country":"Indonesia","GID_1":"IDN.9_1","province":"JawaBarat","NL_NAME_1":"NA","GID_2":"IDN.9.6_1","county":"Ciamis","NL_NAME_2":"NA","city":"Jatinagara","VARNAME_3":"NA","NL_NAME_3":"NA","TYPE_3":"Kecamatan","ENGTYPE_3":"Sub-district","CC_3":"3207260","HASC_3":"NA","name":"Jatinagara.city"},
"geometry":{"type": "MultiPolygon","coordinates": [[[[108.4045,-7.2297,277.6171],[108.4088,-7.2309,281.483],[108.4144,-7.2212,356.3196],[108.42,-7.2228,321.1714],[108.4225,-7.2205,324.2688],[108.4207,-7.211,457.908],[108.4164,-7.206,452.3367],[108.4175,-7.1987,449.1924],[108.4212,-7.1996,477.6676],[108.4289,-7.1766,421.1681],[108.4285,-7.1726,425.5312],[108.4296,-7.1747,418.0955],[108.4339,-7.1645,467.2407],[108.4298,-7.16,455.2766],[108.4301,-7.1538,476.9357],[108.4258,-7.1543,480.2458],[108.4243,-7.15,508.3879],[108.419,-7.1515,481.8597],[108.4128,-7.1499,496.3929],[108.4099,-7.152,499.5892],[108.4059,-7.1514,494.7613],[108.4033,-7.1487,511.7615],[108.4022,-7.1442,568.7803],[108.3984,-7.1447,566.593],[108.3975,-7.1428,579.2936],[108.3927,-7.1412,626.2244],[108.3896,-7.1472,563.9804],[108.3923,-7.1503,501.6592],[108.3914,-7.1515,500.9088],[108.3881,-7.152,515.0248],[108.3857,-7.1486,527.6866],[108.3827,-7.1499,526.8691],[108.3852,-7.157,476.4565],[108.391,-7.1565,496.3825],[108.3895,-7.1627,504.0594],[108.3837,-7.1646,433.2027],[108.3791,-7.1631,433.0227],[108.377,-7.1592,453.9649],[108.3734,-7.161,465.4534],[108.3782,-7.1762,374.442],[108.3795,-7.1781,364.4575],[108.3805,-7.1774,380.0415],[108.3829,-7.1827,373.998],[108.3848,-7.1827,369.159],[108.392,-7.1908,348.9674],[108.3928,-7.1896,348.669],[108.3942,-7.1924,347.8074],[108.3923,-7.1998,348.3853],[108.3859,-7.2011,334.3776],[108.3843,-7.2031,310.4985],[108.3849,-7.2056,317.2904],[108.3867,-7.2092,302.9291],[108.3887,-7.209,300.0628],[108.3913,-7.2123,347.6305],[108.3956,-7.2135,403.0204],[108.3945,-7.2229,318.9198],[108.4,-7.2247,338.2591],[108.3996,-7.2281,299.878],[108.4013,-7.2274,339.2973],[108.4045,-7.2297,277.6171]]]]}}