{"type":"Feature","properties":{"GID_3":"IDN.32.29.7_1","GID_0":"IDN","country":"Indonesia","GID_1":"IDN.32_1","province":"SumateraUtara","NL_NAME_1":"NA","GID_2":"IDN.32.29_1","county":"Simalungun","NL_NAME_2":"NA","city":"DolokPardamean","VARNAME_3":"NA","NL_NAME_3":"NA","TYPE_3":"Kecamatan","ENGTYPE_3":"Sub-district","CC_3":"1209030","HASC_3":"NA","name":"Dolok_Pardamean.city"},
"geometry":{"type": "MultiPolygon","coordinates": [[[[98.8108,2.7739,901.0],[98.8132,2.7731,901.0],[98.8327,2.8043,1174.9764],[98.8369,2.8138,1169.8269],[98.8458,2.8253,1120.9594],[98.8634,2.8448,1051.9828],[98.873,2.8519,1025.9647],[98.8752,2.8626,994.7168],[98.8804,2.8751,941.5771],[98.8736,2.8938,945.0251],[98.8687,2.9014,953.238],[98.8608,2.906,958.0873],[98.8512,2.9045,981.8333],[98.8445,2.8866,1025.239],[98.838,2.8792,1053.7133],[98.8242,2.8743,1054.4259],[98.7895,2.8739,1151.52],[98.7804,2.8773,1156.1395],[98.7756,2.8809,1174.325],[98.7661,2.8837,1229.8556],[98.7526,2.8847,1271.2998],[98.7574,2.8742,1253.627],[98.7629,2.8528,1266.314],[98.773,2.8342,1486.8774],[98.7737,2.8301,1439.0338],[98.7633,2.8222,1191.894],[98.7544,2.8183,906.7855],[98.7554,2.8151,901.0],[98.76,2.8128,901.0],[98.7638,2.8085,901.0],[98.7721,2.8059,901.0],[98.7759,2.8005,901.0],[98.7853,2.795,901.0],[98.7925,2.7929,901.0],[98.7972,2.7851,901.0],[98.8058,2.7759,950.0542],[98.8059,2.7706,911.3538],[98.8099,2.7648,901.0],[98.811,2.7664,901.0],[98.8088,2.7721,945.5571],[98.8108,2.7739,901.0]]]]}}