{"type":"Feature","properties":{"featurecla":"River","scalerank":8,"rivernum":956,"dissolve":"956River","name":"Asahan","name_alt":null,"note":null,"min_zoom":7.0,"strokeweig":0.25,"name_en":"Asahan","min_label":8.0},
"geometry":{"type": "LineString","coordinates": [[99.1484375,2.415643621869108,901.0],[99.168847656250023,2.46039459843162,934.0712],[99.204199218750034,2.498163153119108,1208.2146],[99.316796875000023,2.5686221374941169,372.0595],[99.329833984375,2.57208893436912,578.7546],[99.365917968750011,2.572137762494108,468.4899],[99.371337890625,2.575799871869108,415.0585],[99.3798828125,2.5854678406191169,309.9757],[99.439697265625,2.6074404968691169,132.2919],[99.47216796875,2.63202545780662,73.1968],[99.497802734375,2.66156647343162,58.5384],[99.526757812500023,2.687860418744108,21.5256],[99.5693359375,2.702997137494108,37.4403],[99.60595703125,2.70172760624412,32.6021],[99.61767578125,2.702997137494108,14.4947],[99.626953125,2.707635809369108,15.9325],[99.643310546875,2.72125885624412,25.6096],[99.6484375,2.7241397156191169,24.4121],[99.66259765625,2.729364324994108,15.3914],[99.671777343750023,2.74201080936912,18.2476],[99.68603515625,2.77130768436912,19.243],[99.697656250000023,2.78400299686912,12.8051],[99.71435546875,2.7973819031191169,13.0799],[99.733300781250023,2.80792877811912,7.1087],[99.75146484375,2.8122744812441169,10.2112],[99.7548828125,2.81720612186912,7.0994],[99.767968750000023,2.84638092655662,10.1414],[99.774316406250023,2.854852606244108,7.2966],[99.815136718750011,2.890985418744108,3.9757],[99.830322265625,2.9084658874941169,8.0601],[99.840039062500011,2.92841217655662,11.4414],[99.843652343750023,2.9531436218691169,6.7083],[99.82470703125,2.976434637494108,13.7474],[99.8232421875,2.98358795780662,9.3859],[99.83447265625,2.9914736999941169,2.2405],[99.848046875000023,2.991815496869108,6.308],[99.857617187500011,2.99506256718162,9.1389],[99.85791015625,3.0114932312441169,4.3738]]}}