{"type":"Feature","properties":{"featurecla":"River","scalerank":9,"rivernum":1088,"dissolve":"1088River","name":"Baram2","name_alt":null,"note":null,"min_zoom":7.1,"strokeweig":0.25,"name_en":"Baram","min_label":8.1},
"geometry":{"type": "LineString","coordinates": [[114.447265625,3.81342194218162,34.5818],[114.44775390625,3.833124090619108,27.6439],[114.463623046875,3.87140534061912,18.5386],[114.46767578125002,3.89166901249412,10.3834],[114.46445312500003,3.91290924686912,17.405],[114.4404296875,3.9773135437441169,8.9472],[114.43994140625,3.98871491093162,25.1206],[114.44169921874999,3.99481842655662,12.1004],[114.441162109375,4.00092194218162,11.2221],[114.43359375,4.01203034061912,5.0],[114.42255859375001,4.0206240906191084,7.1287],[114.39794921875,4.02936432499412,13.8805],[114.37050781250002,4.05048248905662,31.6893],[114.323974609375,4.0749697937441169,18.0211],[114.30322265625,4.0940127624941169,14.2671],[114.29111328125003,4.1129092468691084,11.243],[114.28261718750002,4.13568756718162,17.8468],[114.28515625,4.15485260624412,11.9883],[114.327392578125,4.1688174499941084,6.6336],[114.3251953125,4.18268463749412,11.8422],[114.30322265625,4.2107119812441169,10.5181],[114.302978515625,4.21625397343162,9.1878],[114.30996093750002,4.22516510624412,7.488],[114.31005859375,4.23114655155662,12.5628],[114.299560546875,4.24054596561912,1.5],[114.28232421875003,4.26508209843162,8.4803],[114.27773437500002,4.27423737186912,11.9101],[114.27587890625,4.2891787781191084,4.7402],[114.27919921875002,4.2950381531191084,5.7371],[114.293212890625,4.3072451843691084,9.7594],[114.29638671875,4.31683991093162,7.284],[114.28955078125,4.36151764530662,9.8299],[114.27587890625,4.3819522156191084,8.4534],[114.27587890625,4.4099307312441169,5.7504],[114.26816406250003,4.43793366093162,3.8451],[114.26230468750003,4.44891998905662,6.971],[114.251708984375,4.46051666874412,3.6711],[114.24853515625,4.4670596374941169,4.0509],[114.24755859375,4.47492096561912,9.835],[114.24521484375003,4.48163483280662,8.8656],[114.238037109375,4.4843936218691169,9.025],[114.22265625,4.48480866093162,11.0309],[114.21640625000003,4.4878115906191169,11.386],[114.208740234375,4.5083194031191169,4.2353],[114.197021484375,4.5159854187441084,9.1863],[114.17226562500002,4.52533600468162,6.3823],[114.1396484375,4.5507998718691169,8.904],[114.11865234375,4.5617861999941169,6.3937],[114.06386718750002,4.5701846374941084,1.9549],[113.998779296875,4.6010928406191169,0.0]]}}