{"type":"Feature","properties":{"GID_3":"IDN.10.33.15_1","GID_0":"IDN","country":"Indonesia","GID_1":"IDN.10_1","province":"JawaTengah","NL_NAME_1":"NA","GID_2":"IDN.10.33_1","county":"Temanggung","NL_NAME_2":"NA","city":"Selopampang","VARNAME_3":"NA","NL_NAME_3":"NA","TYPE_3":"Kecamatan","ENGTYPE_3":"Sub-district","CC_3":"3323041","HASC_3":"NA","name":"Selopampang.city"},
"geometry":{"type": "MultiPolygon","coordinates": [[[[110.2163,-7.3883,409.0915],[110.2158,-7.3893,389.5808],[110.2166,-7.3886,409.0915],[110.2166,-7.3876,411.8477],[110.2133,-7.3847,407.5835],[110.2163,-7.3832,411.3011],[110.2129,-7.3731,417.128],[110.214,-7.3735,430.1595],[110.2161,-7.37,442.2513],[110.2184,-7.3698,447.1389],[110.2177,-7.3683,449.0242],[110.2134,-7.3686,429.0107],[110.2133,-7.3674,440.6938],[110.2046,-7.3649,463.4189],[110.194,-7.368,515.3821],[110.1922,-7.3653,530.5043],[110.1902,-7.3654,535.6797],[110.1882,-7.3671,537.9854],[110.1867,-7.3664,554.5811],[110.1853,-7.37,562.1275],[110.1804,-7.3715,584.7776],[110.1766,-7.3703,612.7814],[110.1706,-7.3733,641.2216],[110.1672,-7.3728,671.0228],[110.1637,-7.3699,700.3634],[110.1583,-7.3711,749.6578],[110.15,-7.3682,833.0737],[110.1446,-7.368,876.5805],[110.1412,-7.3711,971.7512],[110.1334,-7.3718,1086.2892],[110.1067,-7.3713,1735.1887],[110.1014,-7.3693,1840.3398],[110.0786,-7.3834,3230.0298],[110.0935,-7.3878,2357.3076],[110.1207,-7.3903,1308.1779],[110.1277,-7.3871,1099.6025],[110.1392,-7.3885,976.3352],[110.1424,-7.3849,883.6117],[110.1468,-7.3836,810.1196],[110.1599,-7.3861,724.0935],[110.1752,-7.381,612.7863],[110.1785,-7.3814,602.4327],[110.1813,-7.3837,564.5015],[110.1892,-7.3838,518.9902],[110.1895,-7.3817,524.9268],[110.1928,-7.38,518.3805],[110.2004,-7.3824,475.6653],[110.2052,-7.3871,452.6241],[110.2119,-7.3855,407.5835],[110.2163,-7.3883,409.0915]]]]}}