{"type":"Feature","properties":{"GID_3":"IDN.14.6.6_1","GID_0":"IDN","country":"Indonesia","GID_1":"IDN.14_1","province":"KalimantanTengah","NL_NAME_1":"NA","GID_2":"IDN.14.6_1","county":"Katingan","NL_NAME_2":"NA","city":"KatinganTengah","VARNAME_3":"NA","NL_NAME_3":"NA","TYPE_3":"Kecamatan","ENGTYPE_3":"Sub-district","CC_3":"6209080","HASC_3":"NA","name":"Katingan_Tengah.city"},
"geometry":{"type": "MultiPolygon","coordinates": [[[[113.2836,-1.4046,89.2321],[113.2394,-1.3412,91.0065],[113.2005,-1.3725,104.7558],[113.1616,-1.3881,60.909],[113.1176,-1.4032,47.8587],[113.1007,-1.4012,44.1235],[113.088,-1.3956,51.0617],[113.081,-1.3894,56.8],[113.0534,-1.3754,63.8056],[113.0015,-1.3206,94.1643],[112.9768,-1.297,129.3108],[112.972,-1.2943,240.4934],[112.9513,-1.2734,88.6288],[112.9352,-1.2511,109.3501],[112.9294,-1.2504,109.2454],[112.9181,-1.2445,112.034],[112.9124,-1.2376,122.6584],[112.8928,-1.1917,101.3607],[112.8669,-1.15,145.666],[112.851,-1.114,100.0274],[112.8283,-1.1549,126.7556],[112.8061,-1.2095,90.3111],[112.786,-1.2452,86.4645],[112.7658,-1.275,87.8416],[112.7416,-1.301,103.4892],[112.802,-1.3615,75.4186],[112.8211,-1.3896,98.5357],[112.8412,-1.4325,70.1525],[112.8547,-1.5092,65.7869],[112.8638,-1.5935,60.9103],[112.9287,-1.6593,45.5374],[112.9285,-1.6766,32.0663],[112.9313,-1.677,34.7136],[112.9312,-1.7044,32.4117],[112.9813,-1.7052,55.0695],[112.9902,-1.7176,35.9242],[113.0023,-1.7054,63.1738],[113.014,-1.6893,69.6818],[113.0682,-1.6025,49.5493],[113.1,-1.5633,44.6891],[113.1242,-1.5422,40.7412],[113.1544,-1.5164,32.1932],[113.2016,-1.4911,48.2315],[113.2748,-1.4588,67.7246],[113.3089,-1.4403,60.809],[113.2836,-1.4046,89.2321]]]]}}