{"type":"Feature","properties":{"GID_2":"IDN.8.2_1","GID_0":"IDN","country":"Indonesia","GID_1":"IDN.8_1","province":"Jambi","NL_NAME_1":"NA","county":"Bungo","VARNAME_2":"NA","NL_NAME_2":"NA","TYPE_2":"Kabupaten","ENGTYPE_2":"Regency","CC_2":"1509","HASC_2":"ID.JA.BT","name":"Bungo.county"},
"geometry":{"type": "MultiPolygon","coordinates": [[[[102.1759,-1.7882,132.9123],[102.1791,-1.7875,117.4808],[102.1813,-1.791,106.5565],[102.1964,-1.7897,135.2766],[102.2077,-1.7877,80.9068],[102.2175,-1.7829,89.7563],[102.2243,-1.7729,95.1474],[102.2251,-1.7619,81.557],[102.2356,-1.7558,93.6678],[102.2431,-1.7464,126.694],[102.2483,-1.7428,114.2686],[102.281,-1.7305,94.6347],[102.3085,-1.7066,96.4535],[102.3174,-1.7042,104.7971],[102.3244,-1.7042,94.6817],[102.3329,-1.6977,118.7053],[102.3321,-1.6883,109.0632],[102.3452,-1.6787,83.7664],[102.3514,-1.6797,110.1008],[102.3555,-1.6822,110.0094],[102.3626,-1.6767,93.1848],[102.3904,-1.6987,81.4905],[102.3993,-1.7145,66.3416],[102.4074,-1.7149,66.1333],[102.444,-1.6983,63.3822],[102.4672,-1.6811,38.8581],[102.487,-1.6576,49.6269],[102.4977,-1.6512,43.3254],[102.52,-1.6458,50.9399],[102.5203,-1.6422,57.3947],[102.5186,-1.6386,52.5176],[102.4953,-1.6417,69.6199],[102.489,-1.6461,57.1028],[102.4874,-1.6371,62.9676],[102.4897,-1.6239,88.1212],[102.4884,-1.6188,76.7344],[102.489,-1.5954,67.0761],[102.4812,-1.5956,49.3265],[102.48,-1.5698,53.2939],[102.4685,-1.5655,68.6941],[102.4518,-1.5636,77.6963],[102.4246,-1.5657,62.6838],[102.4193,-1.5645,68.176],[102.4084,-1.567,69.7346],[102.4008,-1.5657,77.5746],[102.3595,-1.5734,74.0874],[102.3378,-1.5744,58.6893],[102.3238,-1.5729,48.1214],[102.3136,-1.5686,54.4697],[102.3095,-1.5589,43.4466],[102.31,-1.5498,41.897],[102.3117,-1.5414,43.2113],[102.3183,-1.5258,38.6286],[102.3232,-1.5026,36.0321],[102.3218,-1.4982,39.9945],[102.3164,-1.4983,45.597],[102.3154,-1.496,36.3153],[102.3137,-1.4958,35.8965],[102.3148,-1.4914,36.0583],[102.3078,-1.4828,44.5093],[102.3088,-1.4802,42.786],[102.3056,-1.4795,42.6847],[102.3043,-1.4732,42.039],[102.3059,-1.469,40.4246],[102.3085,-1.4682,46.1963],[102.3075,-1.4664,40.5091],[102.3048,-1.465,41.6587],[102.3052,-1.4627,49.2734],[102.3001,-1.4624,45.3156],[102.2962,-1.4577,45.9211],[102.2824,-1.4657,41.037],[102.2781,-1.4658,47.793],[102.2764,-1.4683,43.7415],[102.2701,-1.4713,48.2968],[102.2586,-1.4737,44.2656],[102.2553,-1.4784,48.8937],[102.2283,-1.4772,60.7679],[102.2119,-1.4746,66.4666],[102.2041,-1.4712,58.5893],[102.1905,-1.4528,72.5129],[102.1872,-1.4503,66.8101],[102.1686,-1.4536,60.5016],[102.1529,-1.4598,79.2075],[102.1495,-1.4543,72.4103],[102.1427,-1.4486,77.6672],[102.1241,-1.4222,77.7443],[102.1211,-1.4207,73.3847],[102.1146,-1.4233,80.7504],[102.0981,-1.4184,77.1744],[102.0946,-1.4162,71.5465],[102.0914,-1.4107,76.3897],[102.0828,-1.4063,77.9766],[102.0771,-1.3949,89.006],[102.0608,-1.3935,85.4421],[102.0389,-1.3954,89.5265],[102.0352,-1.392,91.1164],[102.0404,-1.3886,92.0285],[102.0286,-1.389,98.1567],[101.9948,-1.3817,109.9176],[101.9484,-1.3698,105.9076],[101.9169,-1.3568,103.5011],[101.9106,-1.3555,105.9887],[101.9055,-1.3521,121.1137],[101.9007,-1.3531,103.6802],[101.8974,-1.3468,99.801],[101.8866,-1.3385,121.7592],[101.8752,-1.3219,121.3245],[101.8718,-1.3154,105.1435],[101.8723,-1.3054,85.6382],[101.8864,-1.2941,78.9987],[101.8893,-1.2814,106.872],[101.8912,-1.2793,105.468],[101.8952,-1.2783,111.4754],[101.9037,-1.271,108.429],[101.9037,-1.2622,81.4325],[101.9053,-1.259,85.9338],[101.922,-1.2557,106.4221],[101.9553,-1.2562,105.4207],[101.9621,-1.252,90.4123],[101.9633,-1.2426,77.6165],[101.9624,-1.2351,85.0984],[101.9667,-1.232,75.9109],[101.9719,-1.2146,72.1537],[101.9526,-1.2145,80.1597],[101.9474,-1.2084,85.4822],[101.9453,-1.197,82.1852],[101.9513,-1.1898,88.3454],[101.9575,-1.1755,62.2536],[101.9582,-1.166,75.5962],[101.9657,-1.1675,50.3191],[101.9674,-1.1665,53.8928],[101.9714,-1.1603,67.7973],[101.972,-1.1546,61.4366],[101.9698,-1.1502,53.9957],[101.9645,-1.1538,52.3838],[101.9626,-1.1531,58.26],[101.9678,-1.141,52.2128],[101.9671,-1.1388,62.698],[101.9565,-1.1378,64.8834],[101.9464,-1.1465,64.7741],[101.9402,-1.1457,59.6297],[101.939,-1.1429,55.8403],[101.9474,-1.138,64.4274],[101.9489,-1.1342,63.5678],[101.9451,-1.1304,70.9633],[101.9347,-1.1284,65.5587],[101.9235,-1.1293,58.9159],[101.9216,-1.1308,53.9808],[101.9188,-1.139,57.4474],[101.9146,-1.1402,59.2734],[101.9112,-1.1389,60.0468],[101.9046,-1.1285,58.2424],[101.8906,-1.1216,54.8188],[101.8876,-1.1257,54.6467],[101.8884,-1.1289,54.5075],[101.8931,-1.1323,59.7176],[101.8919,-1.1372,56.9674],[101.8867,-1.1376,61.1974],[101.8846,-1.1349,59.5905],[101.8741,-1.1422,78.9455],[101.8715,-1.1486,81.6367],[101.8663,-1.1513,81.5875],[101.8639,-1.1586,87.8655],[101.8138,-1.221,113.7484],[101.7943,-1.22,113.4773],[101.7914,-1.2227,117.3705],[101.7853,-1.2244,108.7865],[101.7809,-1.2341,109.2649],[101.7747,-1.2376,110.4426],[101.7336,-1.2352,115.1561],[101.7262,-1.2401,125.8444],[101.7217,-1.2411,124.2841],[101.7218,-1.2502,126.4943],[101.716,-1.2542,122.7381],[101.7149,-1.2635,135.2713],[101.6973,-1.2866,144.8169],[101.6953,-1.2913,150.9232],[101.701,-1.309,114.5035],[101.7085,-1.3206,81.2905],[101.7142,-1.3363,98.0328],[101.7218,-1.3482,109.7949],[101.7246,-1.3617,82.6412],[101.7227,-1.3666,85.2943],[101.7004,-1.3887,154.5297],[101.6968,-1.3941,160.4994],[101.7048,-1.4137,102.7742],[101.7178,-1.4186,132.0622],[101.7239,-1.4353,176.0474],[101.7236,-1.4387,182.0734],[101.7056,-1.4532,186.4642],[101.6953,-1.4641,206.6027],[101.6883,-1.4771,224.4211],[101.6718,-1.5009,267.1116],[101.671,-1.508,263.4956],[101.6648,-1.5116,269.5467],[101.6618,-1.5155,276.3302],[101.6527,-1.5183,274.5246],[101.65,-1.5226,280.9394],[101.6366,-1.5335,296.4452],[101.6308,-1.5427,302.3913],[101.612,-1.5531,328.4069],[101.6046,-1.5626,326.8865],[101.5817,-1.5774,383.7993],[101.5705,-1.5772,413.0564],[101.5616,-1.5911,444.5785],[101.5491,-1.5963,449.7719],[101.5322,-1.6185,478.797],[101.5276,-1.6302,503.6807],[101.5215,-1.6372,538.1941],[101.5189,-1.6439,554.1566],[101.51,-1.6559,611.9958],[101.5064,-1.6728,708.5038],[101.5016,-1.6792,776.7633],[101.4968,-1.6788,804.4427],[101.4841,-1.6729,880.7259],[101.4807,-1.6735,928.1011],[101.4758,-1.6773,1076.5764],[101.4641,-1.6821,1524.5673],[101.4552,-1.6829,1799.2822],[101.4473,-1.686,2060.4854],[101.4399,-1.6952,2467.8774],[101.4365,-1.6952,2003.9219],[101.4389,-1.7012,2577.3755],[101.4449,-1.7028,2447.731],[101.4508,-1.7094,2015.6539],[101.4672,-1.7311,1825.595],[101.4739,-1.7429,1852.9187],[101.4804,-1.7499,1598.8875],[101.5002,-1.7631,1466.3887],[101.5084,-1.776,1305.5582],[101.5648,-1.829,1305.9563],[101.5895,-1.8482,1475.7407],[101.6162,-1.8789,1447.7429],[101.6313,-1.8915,1851.4735],[101.6385,-1.8903,1628.4143],[101.6412,-1.882,1599.9116],[101.6439,-1.8795,1702.2861],[101.6524,-1.8792,1515.7974],[101.6608,-1.8745,1570.144],[101.6708,-1.874,1533.8781],[101.6769,-1.8759,1389.564],[101.6805,-1.8816,1472.2953],[101.6944,-1.8766,1227.207],[101.7164,-1.8795,1298.451],[101.7311,-1.8765,1294.645],[101.7358,-1.8683,1328.2212],[101.758,-1.8609,1124.6211],[101.7723,-1.8491,953.4085],[101.7812,-1.8357,827.847],[101.7906,-1.8316,716.5488],[101.802,-1.8337,588.0958],[101.8105,-1.8329,733.3055],[101.8215,-1.8239,722.5052],[101.8272,-1.8215,690.2228],[101.8389,-1.8299,639.1236],[101.8421,-1.8309,648.1976],[101.8494,-1.8291,541.7691],[101.8524,-1.8333,506.877],[101.8603,-1.8388,571.7961],[101.8694,-1.8372,570.6818],[101.8727,-1.84,500.1238],[101.8757,-1.8394,486.4851],[101.8852,-1.8484,414.5181],[101.8871,-1.8484,413.7337],[101.8899,-1.8424,385.2792],[101.8936,-1.8396,429.3596],[101.9007,-1.8381,401.2032],[101.905,-1.8437,376.0821],[101.9096,-1.8427,374.7973],[101.9117,-1.8438,366.0566],[101.9141,-1.8371,428.9682],[101.919,-1.8362,323.8506],[101.9217,-1.839,381.1088],[101.9226,-1.8453,339.9691],[101.925,-1.8477,358.6091],[101.9292,-1.8465,280.7371],[101.9319,-1.8491,310.2303],[101.9361,-1.8494,291.7942],[101.9446,-1.8612,338.6253],[101.9471,-1.8628,361.2843],[101.9502,-1.8609,432.6572],[101.9525,-1.8622,450.9782],[101.9563,-1.8583,322.408],[101.9592,-1.8579,386.5356],[101.9673,-1.8718,306.8175],[101.9727,-1.8715,275.5357],[101.9784,-1.8747,342.3202],[101.9801,-1.8772,372.034],[101.9788,-1.8821,390.2105],[101.9852,-1.9007,307.5793],[101.995,-1.9099,214.209],[102.002,-1.9076,309.5413],[102.0069,-1.9006,259.2905],[102.0136,-1.9023,295.6555],[102.017,-1.9075,249.0748],[102.0195,-1.905,275.8253],[102.0229,-1.9075,283.7842],[102.0338,-1.9069,299.9677],[102.0389,-1.9023,272.1547],[102.0423,-1.9014,211.0766],[102.0429,-1.8948,248.8532],[102.0462,-1.8897,207.3859],[102.0545,-1.8889,180.2478],[102.0579,-1.8792,237.7306],[102.0711,-1.8721,191.6807],[102.0775,-1.8732,182.0962],[102.0822,-1.8715,179.6337],[102.0868,-1.8722,177.4289],[102.098,-1.8819,201.9649],[102.1014,-1.8838,195.8696],[102.1073,-1.8839,167.8523],[102.114,-1.8776,228.4887],[102.1153,-1.8691,147.8396],[102.1206,-1.867,158.7822],[102.1215,-1.8566,148.4541],[102.1283,-1.8451,206.1478],[102.1356,-1.8451,199.4958],[102.1431,-1.8347,225.1635],[102.1437,-1.8251,222.6136],[102.1385,-1.813,171.6812],[102.1383,-1.8061,158.8608],[102.1343,-1.7929,100.7333],[102.1351,-1.7916,112.2593],[102.1445,-1.7905,150.7263],[102.1476,-1.7886,189.9496],[102.1565,-1.789,107.6079],[102.1592,-1.7871,122.3577],[102.1657,-1.7871,125.325],[102.1726,-1.7896,126.8222],[102.1759,-1.7882,132.9123]]]]}}