{"type":"Feature","properties":{"GID_3":"IDN.33.3.8_1","GID_0":"IDN","country":"Indonesia","GID_1":"IDN.33_1","province":"Yogyakarta","NL_NAME_1":"NA","GID_2":"IDN.33.3_1","county":"KotaYogyakarta","NL_NAME_2":"NA","city":"Mantrijeron","VARNAME_3":"NA","NL_NAME_3":"NA","TYPE_3":"Kecamatan","ENGTYPE_3":"Sub-district","CC_3":"3471010","HASC_3":"NA","name":"Mantrijeron.city"},
"geometry":{"type": "MultiPolygon","coordinates": [[[[110.3672,-7.8256,85.7266],[110.3674,-7.8266,84.2956],[110.3684,-7.8146,95.6942],[110.356,-7.8129,93.3293],[110.3562,-7.8087,97.665],[110.3537,-7.8083,97.7883],[110.3511,-7.8142,91.1791],[110.3524,-7.8162,90.0406],[110.351,-7.8185,87.3875],[110.3509,-7.8217,85.8752],[110.3526,-7.8235,83.0366],[110.3516,-7.8255,83.9819],[110.3591,-7.8261,84.7683],[110.3604,-7.824,86.7688],[110.3608,-7.8258,86.3572],[110.3672,-7.8256,85.7266]]]]}}