{"type":"Feature","properties":{"GID_3":"IDN.10.1.4_1","GID_0":"IDN","country":"Indonesia","GID_1":"IDN.10_1","province":"JawaTengah","NL_NAME_1":"NA","GID_2":"IDN.10.1_1","county":"Banjarnegara","NL_NAME_2":"NA","city":"Bawang","VARNAME_3":"NA","NL_NAME_3":"NA","TYPE_3":"Kecamatan","ENGTYPE_3":"Sub-district","CC_3":"3304050","HASC_3":"NA","name":"Bawang.city"},
"geometry":{"type": "MultiPolygon","coordinates": [[[[109.6182,-7.4935,464.5259],[109.6309,-7.4829,358.6644],[109.6381,-7.4813,350.9231],[109.6394,-7.4795,361.0143],[109.6391,-7.4755,311.2467],[109.6279,-7.469,252.7012],[109.6313,-7.4589,374.8708],[109.6365,-7.4545,454.8795],[109.6468,-7.4513,493.0534],[109.6524,-7.4477,481.2668],[109.6534,-7.4425,432.9865],[109.6428,-7.4395,392.7121],[109.6471,-7.43,278.3618],[109.6447,-7.4257,224.5787],[109.6485,-7.4253,229.1957],[109.6513,-7.4282,235.0285],[109.6549,-7.426,259.7296],[109.6596,-7.4187,251.6346],[109.6576,-7.4166,235.0217],[109.6582,-7.4141,249.8052],[109.6657,-7.4106,274.5832],[109.6653,-7.407,266.6285],[109.6693,-7.394,230.4179],[109.6655,-7.3895,238.9509],[109.6614,-7.3887,227.3977],[109.6636,-7.3858,233.5439],[109.6623,-7.3843,251.5487],[109.6575,-7.3856,226.8582],[109.6529,-7.3821,229.2833],[109.6476,-7.3826,227.5846],[109.6418,-7.3798,226.6831],[109.6337,-7.3834,226.2951],[109.6257,-7.3826,226.0],[109.625,-7.3851,226.0],[109.6217,-7.3869,226.0],[109.6083,-7.3873,226.0],[109.6053,-7.3942,160.6064],[109.6017,-7.3952,139.04],[109.5987,-7.3991,152.6142],[109.5989,-7.4014,169.1636],[109.5947,-7.4011,158.8386],[109.5917,-7.4046,161.9077],[109.5913,-7.409,175.1687],[109.5936,-7.4112,177.7327],[109.5956,-7.4117,187.7743],[109.5979,-7.4092,183.3461],[109.604,-7.4119,201.8139],[109.6037,-7.4243,198.3576],[109.6051,-7.4267,190.4661],[109.6033,-7.4374,193.8674],[109.6042,-7.4516,174.8003],[109.602,-7.4558,171.9778],[109.6039,-7.4575,175.8409],[109.6026,-7.475,228.1494],[109.6042,-7.4775,245.8266],[109.6018,-7.4864,333.7245],[109.6071,-7.4913,410.5898],[109.6055,-7.4928,369.4883],[109.6055,-7.4976,262.6209],[109.6072,-7.4985,283.8111],[109.6151,-7.4989,448.7096],[109.6152,-7.4966,463.9819],[109.6182,-7.4935,464.5259]]]]}}