{"type":"Feature","properties":{"GID_3":"IDN.14.7.2_1","GID_0":"IDN","country":"Indonesia","GID_1":"IDN.14_1","province":"KalimantanTengah","NL_NAME_1":"NA","GID_2":"IDN.14.7_1","county":"KotawaringinBarat","NL_NAME_2":"NA","city":"ArutUtara","VARNAME_3":"NA","NL_NAME_3":"NA","TYPE_3":"Kecamatan","ENGTYPE_3":"Sub-district","CC_3":"6201070","HASC_3":"NA","name":"Arut_Utara.city"},
"geometry":{"type": "MultiPolygon","coordinates": [[[[111.9848,-2.2203,22.1058],[111.9887,-2.1922,29.3174],[111.9918,-2.1799,55.5743],[112.0087,-2.1403,25.1439],[112.0095,-2.1302,31.7372],[112.0207,-2.0952,33.2367],[112.045,-2.0539,42.2187],[112.0621,-2.0311,53.4287],[112.0786,-2.0276,37.718],[112.0811,-2.0282,40.9078],[112.0905,-2.0015,83.0074],[112.0736,-1.9649,39.1248],[112.0575,-1.9502,46.562],[112.0317,-1.9366,66.0132],[111.9908,-1.8982,46.8251],[111.9631,-1.8496,81.9769],[111.9548,-1.8222,364.057],[111.9534,-1.809,185.4507],[111.956,-1.7965,348.8565],[111.9629,-1.7769,379.166],[111.9614,-1.7631,327.8631],[111.9547,-1.7334,61.473],[111.947,-1.7334,88.9765],[111.9055,-1.7175,90.4015],[111.9014,-1.711,86.8202],[111.8987,-1.6939,91.9208],[111.8808,-1.675,97.9675],[111.8871,-1.6642,106.4642],[111.888,-1.6579,101.4046],[111.8835,-1.6507,176.4535],[111.8853,-1.6363,109.4908],[111.8781,-1.6228,130.4652],[111.862,-1.6165,171.0053],[111.8585,-1.6057,152.0653],[111.8531,-1.5958,161.3423],[111.8361,-1.5949,472.6847],[111.7969,-1.5628,437.2554],[111.8089,-1.583,553.6866],[111.8218,-1.7394,170.2454],[111.8244,-1.7763,93.535],[111.8199,-1.8736,69.3843],[111.7988,-1.9503,41.0417],[111.7912,-1.9716,37.2717],[111.7451,-2.067,44.4232],[111.7211,-2.1112,67.8644],[111.7715,-2.1694,68.497],[111.7929,-2.2076,29.0012],[111.8032,-2.2228,15.3786],[111.7995,-2.231,29.2997],[111.8028,-2.2518,22.8162],[111.8103,-2.2745,25.1412],[111.823,-2.2969,20.5507],[111.8381,-2.3102,25.482],[111.8707,-2.3269,39.3521],[111.9313,-2.3402,42.356],[111.9312,-2.3307,50.0912],[111.9659,-2.3311,37.6665],[111.9861,-2.328,52.3517],[112.0413,-2.3431,47.4869],[112.0247,-2.3005,55.2013],[112.0013,-2.2977,43.142],[111.9906,-2.2893,43.0661],[111.9853,-2.2718,45.349],[111.9833,-2.2554,36.0322],[111.9848,-2.2203,22.1058]]]]}}