{"type":"Feature","properties":{"GID_3":"IDN.9.4.1_1","GID_0":"IDN","country":"Indonesia","GID_1":"IDN.9_1","province":"JawaBarat","NL_NAME_1":"NA","GID_2":"IDN.9.4_1","county":"Bekasi","NL_NAME_2":"NA","city":"Babelan","VARNAME_3":"NA","NL_NAME_3":"NA","TYPE_3":"Kecamatan","ENGTYPE_3":"Sub-district","CC_3":"3216090","HASC_3":"NA","name":"Babelan.city"},
"geometry":{"type": "MultiPolygon","coordinates": [[[[107.0278,-6.1972,12.8171],[107.0325,-6.1984,12.0441],[107.0328,-6.2033,13.435],[107.0371,-6.2066,11.7941],[107.0406,-6.2028,10.412],[107.0406,-6.2006,11.651],[107.0434,-6.1996,12.3889],[107.0415,-6.1958,10.0736],[107.0445,-6.1863,8.8935],[107.0435,-6.1852,9.0018],[107.0411,-6.1862,9.01],[107.0404,-6.1838,9.6488],[107.043,-6.1821,10.1354],[107.0424,-6.1798,9.4942],[107.0445,-6.1762,9.3018],[107.048,-6.174,8.2279],[107.0464,-6.1699,10.4161],[107.0491,-6.1691,7.3013],[107.0495,-6.1651,8.3242],[107.0442,-6.1568,6.4087],[107.0453,-6.1525,6.8018],[107.0474,-6.1518,6.4954],[107.0485,-6.1413,5.8469],[107.0499,-6.1397,6.9147],[107.0544,-6.1394,6.2772],[107.0572,-6.1346,5.2067],[107.0567,-6.1304,5.4273],[107.0594,-6.1272,3.713],[107.0592,-6.1246,3.3811],[107.0614,-6.1244,6.5912],[107.0621,-6.1279,6.3927],[107.0688,-6.1181,3.6656],[107.0699,-6.1129,4.5494],[107.0697,-6.1102,5.5277],[107.067,-6.1088,4.1503],[107.0649,-6.1036,5.8017],[107.059,-6.1022,5.4301],[107.056,-6.0984,6.4238],[107.0539,-6.091,4.414],[107.0561,-6.0866,5.3852],[107.0552,-6.0852,5.5645],[107.0583,-6.082,4.1866],[107.0574,-6.079,5.0034],[107.0608,-6.0769,4.4993],[107.0621,-6.0738,4.5009],[107.0607,-6.0701,3.3913],[107.0625,-6.0685,5.0474],[107.0598,-6.068,3.9656],[107.0597,-6.066,3.7523],[107.058,-6.0652,3.4901],[107.0588,-6.0587,3.8214],[107.0605,-6.0576,3.5104],[107.058,-6.0559,3.1902],[107.0593,-6.0537,1.8172],[107.0568,-6.0526,2.6023],[107.0599,-6.0488,2.2806],[107.0584,-6.047,4.1644],[107.0549,-6.0479,2.0389],[107.0537,-6.0544,2.3379],[107.047,-6.061,1.5065],[107.0436,-6.063,2.5675],[107.0388,-6.0632,1.6674],[107.0269,-6.0596,1.1606],[107.0184,-6.0604,2.3069],[107.0091,-6.0583,2.3507],[107.0064,-6.0547,1.5354],[107.0056,-6.0499,0.5],[106.9994,-6.0481,0.1821],[106.9967,-6.0501,1.5528],[106.9894,-6.0496,1.1014],[106.9946,-6.0516,0.5],[106.9915,-6.0537,0.5705],[106.9985,-6.059,0.5716],[106.9999,-6.0666,1.3552],[107.0028,-6.0698,0.8181],[107.0102,-6.0744,1.7013],[107.0125,-6.0707,1.8365],[107.0164,-6.0692,1.5306],[107.0229,-6.0734,2.2373],[107.0247,-6.0781,1.7531],[107.0296,-6.0796,1.6099],[107.0316,-6.082,1.8353],[107.0291,-6.0838,1.3534],[107.0295,-6.094,1.8789],[107.028,-6.0945,1.431],[107.0306,-6.0994,1.328],[107.0309,-6.1142,1.6552],[107.0253,-6.1218,2.2846],[107.0211,-6.124,2.1511],[107.0197,-6.134,2.0683],[107.0167,-6.1335,1.9609],[107.0123,-6.1388,2.0864],[107.0086,-6.1388,3.8817],[107.0106,-6.1405,2.2036],[107.0095,-6.1434,2.415],[107.0114,-6.1487,2.3828],[107.0095,-6.1515,2.4012],[107.0087,-6.1677,4.6563],[107.0114,-6.1687,3.8196],[107.0108,-6.1748,7.8102],[107.0083,-6.1746,7.6449],[107.0083,-6.1777,7.8367],[107.007,-6.1777,8.1929],[107.006,-6.1956,10.8546],[107.0113,-6.1965,11.5711],[107.0149,-6.1951,10.6443],[107.018,-6.1998,11.6811],[107.0199,-6.1964,10.4738],[107.0278,-6.1972,12.8171]]]]}}