{"type":"Feature","properties":{"GID_3":"IDN.22.11.1_1","GID_0":"IDN","country":"Indonesia","GID_1":"IDN.22_1","province":"PapuaBarat","NL_NAME_1":"NA","GID_2":"IDN.22.11_1","county":"TelukWondama","NL_NAME_2":"NA","city":"Duairi","VARNAME_3":"NA","NL_NAME_3":"NA","TYPE_3":"Distrik","ENGTYPE_3":"District","CC_3":"9103040","HASC_3":"NA","name":"Duairi.city"},
"geometry":{"type": "MultiPolygon","coordinates": [[[[134.5792,-2.481,43.2249],[134.5705,-2.4764,37.8126],[134.5698,-2.4726,0.0],[134.5719,-2.4646,0.0],[134.5676,-2.4617,16.4461],[134.5666,-2.4591,56.8145],[134.5593,-2.4574,52.8873],[134.5565,-2.4584,90.0611],[134.5307,-2.452,0.0],[134.5299,-2.4539,0.0],[134.5329,-2.4572,20.5595],[134.5324,-2.4605,0.0],[134.5339,-2.4628,0.0],[134.5442,-2.4671,0.0],[134.5503,-2.4723,0.0],[134.5511,-2.4749,10.1573],[134.5456,-2.4751,17.8781],[134.5378,-2.471,80.5557],[134.5276,-2.4705,91.3059],[134.5211,-2.4673,80.8644],[134.5187,-2.4675,45.3524],[134.5143,-2.4715,26.442],[134.5129,-2.4775,0.0],[134.5159,-2.4793,0.0],[134.5202,-2.476,0.0],[134.5226,-2.476,0.0],[134.5354,-2.4811,0.0],[134.5455,-2.4777,0.0],[134.5527,-2.4776,0.0],[134.5613,-2.4813,0.0],[134.5695,-2.4827,12.4814],[134.5693,-2.4849,58.9225],[134.5653,-2.489,69.8902],[134.5571,-2.4855,73.8605],[134.551,-2.4851,90.264],[134.5474,-2.4897,0.0],[134.5531,-2.4926,0.0],[134.5526,-2.4951,23.7101],[134.5502,-2.4959,39.9006],[134.5375,-2.4881,45.5472],[134.517,-2.4855,99.8319],[134.5119,-2.4861,2.0971],[134.4964,-2.4999,0.0],[134.4857,-2.5126,0.0],[134.4896,-2.5169,69.8529],[134.4839,-2.5178,0.0],[134.4731,-2.5271,0.0],[134.4642,-2.5491,0.0],[134.4622,-2.5517,1.3718],[134.4595,-2.5521,0.0],[134.4631,-2.5575,0.0],[134.459,-2.5716,0.0],[134.4592,-2.5914,0.0],[134.4637,-2.5997,0.0],[134.4702,-2.6022,0.0],[134.4721,-2.6054,0.0],[134.4923,-2.6003,287.2989],[134.5301,-2.598,331.9865],[134.5456,-2.5945,245.7233],[134.567,-2.5997,822.8044],[134.5742,-2.5999,506.8912],[134.5783,-2.6035,299.5193],[134.5904,-2.6086,610.8853],[134.6139,-2.6157,1456.0347],[134.5988,-2.4891,10.4048],[134.5792,-2.481,43.2249]]],
[[[134.5192,-2.4582,0.0],[134.5241,-2.4581,0.0],[134.5248,-2.4557,30.9286],[134.5213,-2.4528,41.6568],[134.5171,-2.4567,0.0],[134.5192,-2.4582,0.0]]]]}}