{"type":"Feature","properties":{"GID_3":"IDN.11.23.7_1","GID_0":"IDN","country":"Indonesia","GID_1":"IDN.11_1","province":"JawaTimur","NL_NAME_1":"NA","GID_2":"IDN.11.23_1","county":"Mojokerto","NL_NAME_2":"NA","city":"Jetis","VARNAME_3":"NA","NL_NAME_3":"NA","TYPE_3":"Kecamatan","ENGTYPE_3":"Sub-district","CC_3":"3516160","HASC_3":"NA","name":"Jetis.city"},
"geometry":{"type": "MultiPolygon","coordinates": [[[[112.4403,-7.4561,20.8364],[112.4474,-7.4502,18.7704],[112.4567,-7.447,18.6671],[112.4623,-7.4323,19.6062],[112.4735,-7.4291,17.6074],[112.4738,-7.4241,18.3127],[112.4835,-7.417,16.756],[112.4837,-7.4101,16.8415],[112.4938,-7.4092,19.2234],[112.4921,-7.3991,20.1413],[112.4852,-7.3989,22.1255],[112.4847,-7.4001,21.0592],[112.4771,-7.3845,31.7293],[112.4758,-7.3713,43.3873],[112.4788,-7.3657,44.1304],[112.4766,-7.3528,52.2555],[112.4739,-7.353,55.7042],[112.4759,-7.362,55.7464],[112.4742,-7.3591,58.4606],[112.4691,-7.3582,59.5108],[112.4657,-7.3606,50.0957],[112.4651,-7.3633,45.7077],[112.4621,-7.3644,51.6234],[112.4578,-7.3644,60.0837],[112.4562,-7.3624,57.6441],[112.4524,-7.3621,55.1807],[112.4517,-7.3652,58.9458],[112.4533,-7.3664,54.3896],[112.4524,-7.3687,58.2145],[112.4536,-7.3706,55.9543],[112.4501,-7.3708,52.4203],[112.4496,-7.3746,48.8852],[112.4525,-7.382,62.6188],[112.4463,-7.3808,53.4841],[112.4444,-7.3825,41.8145],[112.4447,-7.3866,37.119],[112.4322,-7.3853,66.8097],[112.4342,-7.3787,48.4254],[112.4279,-7.3768,66.4112],[112.428,-7.375,71.1637],[112.4226,-7.3706,75.8892],[112.4191,-7.3699,74.3089],[112.4134,-7.3721,85.1483],[112.4137,-7.3782,77.1926],[112.4104,-7.379,81.6305],[112.4116,-7.3916,43.2169],[112.4064,-7.3885,45.5406],[112.4043,-7.3897,38.1855],[112.4031,-7.3956,31.6704],[112.406,-7.3972,30.9094],[112.4046,-7.402,24.7781],[112.4,-7.4039,26.2094],[112.399,-7.4106,24.6881],[112.4001,-7.4181,20.9883],[112.3981,-7.4184,21.4021],[112.3978,-7.4252,23.3584],[112.4037,-7.426,21.4885],[112.4085,-7.4287,22.0967],[112.4168,-7.4287,21.7364],[112.4226,-7.4223,23.9602],[112.4291,-7.4224,22.4554],[112.4285,-7.4195,23.539],[112.4297,-7.419,23.539],[112.432,-7.4299,18.9679],[112.436,-7.4289,19.1707],[112.4362,-7.4434,18.6846],[112.4332,-7.452,20.0726],[112.4375,-7.4576,21.0575],[112.4403,-7.4561,20.8364]]]]}}