{"type":"Feature","properties":{"GID_3":"IDN.9.10.1_1","GID_0":"IDN","country":"Indonesia","GID_1":"IDN.9_1","province":"JawaBarat","NL_NAME_1":"NA","GID_2":"IDN.9.10_1","county":"Depok","NL_NAME_2":"NA","city":"Beji","VARNAME_3":"NA","NL_NAME_3":"NA","TYPE_3":"Kecamatan","ENGTYPE_3":"Sub-district","CC_3":"3276050","HASC_3":"NA","name":"Beji.city"},
"geometry":{"type": "MultiPolygon","coordinates": [[[[106.819,-6.39,87.4285],[106.8331,-6.3893,71.5506],[106.8315,-6.3825,71.742],[106.8389,-6.3807,64.3755],[106.8394,-6.3779,67.1639],[106.8376,-6.3763,60.8111],[106.8409,-6.3761,60.2203],[106.8419,-6.3728,74.2172],[106.837,-6.3699,61.1326],[106.8415,-6.3678,72.0909],[106.8387,-6.3674,59.1974],[106.8396,-6.3615,62.3457],[106.8383,-6.3618,52.469],[106.8384,-6.3639,54.8349],[106.8369,-6.3626,67.5156],[106.8391,-6.3597,69.1084],[106.837,-6.3575,60.9825],[106.8352,-6.3582,59.1121],[106.8373,-6.3549,61.6321],[106.8273,-6.3569,64.5543],[106.8159,-6.356,66.0809],[106.8106,-6.364,68.5853],[106.803,-6.3634,73.2727],[106.7999,-6.3655,75.7499],[106.7947,-6.3649,67.2191],[106.7972,-6.3799,72.2438],[106.7949,-6.3837,77.9075],[106.8007,-6.3832,72.2834],[106.8027,-6.3901,81.9921],[106.8048,-6.3897,84.1929],[106.8052,-6.3878,84.975],[106.819,-6.39,87.4285]]]]}}