{"type":"Feature","properties":{"GID_2":"IDN.27.8_1","GID_0":"IDN","country":"Indonesia","GID_1":"IDN.27_1","province":"SulawesiTengah","NL_NAME_1":"NA","county":"Poso","VARNAME_2":"NA","NL_NAME_2":"NA","TYPE_2":"Kabupaten","ENGTYPE_2":"Regency","CC_2":"7204","HASC_2":"ID.ST.PO","name":"Poso.county"},
"geometry":{"type": "MultiPolygon","coordinates": [[[[120.6766,-2.1957,1690.5548],[120.6853,-2.2054,1563.8678],[120.6992,-2.2108,1490.3275],[120.7174,-2.2233,1670.3853],[120.7256,-2.2267,1831.4329],[120.7423,-2.2303,1784.7838],[120.7566,-2.239,1495.8604],[120.791,-2.2385,1260.2605],[120.805,-2.2253,1098.854],[120.8421,-2.2184,1258.5623],[120.8415,-2.1832,1202.1743],[120.8387,-2.156,1148.9846],[120.8316,-2.1218,876.2954],[120.8325,-2.1229,841.2485],[120.8298,-2.0946,746.7658],[120.8409,-2.038,493.1114],[120.8437,-2.0309,425.7371],[120.8585,-2.011,417.535],[120.8577,-2.0098,417.581],[120.8732,-1.9919,414.3239],[120.9125,-1.9388,331.3823],[120.9188,-1.9338,324.5984],[120.921,-1.9234,316.3106],[120.9203,-1.9199,315.896],[120.9238,-1.917,311.5885],[120.9285,-1.9157,310.7791],[120.9297,-1.9115,310.2386],[120.9283,-1.9052,314.5666],[120.9245,-1.9051,313.0407],[120.9211,-1.8984,316.9589],[120.916,-1.8944,317.9193],[120.9136,-1.8948,319.9026],[120.9121,-1.8973,318.7394],[120.9077,-1.8902,321.627],[120.9011,-1.8889,321.919],[120.9009,-1.8834,340.9607],[120.8975,-1.8815,395.6446],[120.8955,-1.8778,355.5925],[120.8954,-1.8701,432.2703],[120.8884,-1.8578,429.9559],[120.8853,-1.8562,431.538],[120.8792,-1.8576,449.2651],[120.8712,-1.8517,553.5344],[120.8696,-1.8476,589.8429],[120.8638,-1.842,672.7771],[120.8626,-1.8393,655.6827],[120.8653,-1.8341,716.3684],[120.8641,-1.8257,796.5683],[120.8564,-1.8084,844.0302],[120.851,-1.7882,785.7488],[120.8394,-1.7723,1131.0699],[120.8343,-1.7607,1187.809],[120.8356,-1.7612,1187.809],[120.8337,-1.7522,1174.0227],[120.8575,-1.6813,1341.7913],[120.8823,-1.6249,1559.8853],[120.9619,-1.6237,2067.2883],[120.9309,-1.5826,1869.5299],[120.915,-1.5715,1694.8383],[120.9076,-1.55,1475.326],[120.9059,-1.5402,1479.1714],[120.902,-1.5378,1366.6078],[120.9007,-1.5276,1180.1455],[120.9026,-1.5236,1177.2186],[120.9008,-1.5228,1146.042],[120.9007,-1.52,1157.0176],[120.8981,-1.5201,1119.8334],[120.8969,-1.5173,1082.8826],[120.8955,-1.4979,1056.528],[120.8906,-1.4832,797.0364],[120.8897,-1.4552,444.3886],[120.8913,-1.4411,200.918],[120.8898,-1.4285,36.9836],[120.8922,-1.4289,68.8347],[120.8936,-1.4248,84.1592],[120.8888,-1.4211,15.2239],[120.8888,-1.4149,8.348],[120.891,-1.4152,15.1584],[120.8905,-1.4133,7.0874],[120.8852,-1.4138,13.7135],[120.8831,-1.4099,0.0],[120.8644,-1.4135,5.9806],[120.8589,-1.4121,12.7871],[120.8526,-1.4069,0.0],[120.8486,-1.407,14.1654],[120.8412,-1.4016,12.8357],[120.837,-1.3937,9.5825],[120.8391,-1.3901,10.4298],[120.839,-1.3865,11.8414],[120.8362,-1.3691,83.1615],[120.8403,-1.3673,19.7578],[120.8403,-1.3581,32.3898],[120.8368,-1.3558,0.0],[120.8319,-1.3569,30.7763],[120.8192,-1.3534,0.0],[120.8146,-1.3559,0.0],[120.8095,-1.3562,0.0],[120.8071,-1.3551,14.0119],[120.8071,-1.3513,0.0],[120.8049,-1.3521,0.0],[120.8022,-1.3505,0.0],[120.8002,-1.3558,0.0],[120.7944,-1.3545,0.0],[120.7953,-1.3579,0.0],[120.7894,-1.358,0.0],[120.7901,-1.3617,0.0],[120.7882,-1.3642,0.0],[120.7884,-1.3676,0.0],[120.7847,-1.3721,0.0],[120.7816,-1.372,3.843],[120.775,-1.3683,0.0],[120.7684,-1.3685,22.29],[120.7627,-1.365,0.0],[120.7589,-1.3684,0.0],[120.7575,-1.3713,0.0],[120.7584,-1.3749,0.0],[120.753,-1.3807,0.0],[120.753,-1.3847,0.0],[120.7481,-1.3893,5.4538],[120.7402,-1.3854,19.8828],[120.7383,-1.3811,0.0],[120.7278,-1.3839,0.0],[120.721,-1.388,0.0],[120.7181,-1.3933,0.0],[120.7114,-1.3961,0.0],[120.7119,-1.4032,13.5053],[120.7071,-1.3989,0.0],[120.7042,-1.3999,0.0],[120.7004,-1.4062,0.0],[120.6994,-1.4121,0.0],[120.6942,-1.4162,3.1932],[120.6934,-1.4194,0.0],[120.6855,-1.4191,5.7701],[120.6753,-1.4149,0.5],[120.6725,-1.4051,4.328],[120.6729,-1.3972,4.6792],[120.6672,-1.3921,0.0],[120.6646,-1.3939,2.7176],[120.6654,-1.3835,1.5208],[120.6618,-1.3818,0.9405],[120.6611,-1.3837,3.2302],[120.6608,-1.3807,0.4471],[120.6586,-1.3814,2.3458],[120.6594,-1.3795,0.0],[120.6576,-1.3792,1.5336],[120.6562,-1.3757,1.4901],[120.6459,-1.3692,5.3392],[120.6432,-1.3635,1.0476],[120.6428,-1.3608,0.0],[120.6476,-1.3535,2.7445],[120.6462,-1.3493,5.8719],[120.6473,-1.3341,2.8946],[120.6467,-1.3296,2.5319],[120.6413,-1.321,0.0],[120.6404,-1.3136,0.0],[120.6377,-1.3116,6.1576],[120.6382,-1.3082,1.4931],[120.6339,-1.307,3.8976],[120.6291,-1.3024,4.0057],[120.6292,-1.3003,1.2495],[120.6237,-1.2999,7.6544],[120.6223,-1.2948,3.1009],[120.6122,-1.2849,3.6763],[120.6062,-1.2838,1.739],[120.5972,-1.27,0.0],[120.5946,-1.2697,4.512],[120.5904,-1.265,2.865],[120.5881,-1.2663,2.8149],[120.5888,-1.2644,0.6395],[120.5868,-1.2651,3.7305],[120.5786,-1.2579,0.0],[120.5735,-1.2581,3.824],[120.5712,-1.2562,0.0],[120.5716,-1.2503,0.0],[120.5694,-1.2469,12.0357],[120.5704,-1.2419,0.0],[120.568,-1.2388,17.335],[120.5677,-1.2344,1.1133],[120.565,-1.2321,2.4607],[120.5674,-1.2292,4.5285],[120.5665,-1.2262,1.8796],[120.5708,-1.2195,0.0],[120.572,-1.2123,1.6256],[120.5696,-1.208,5.0538],[120.5723,-1.205,1.2478],[120.5714,-1.1991,0.9023],[120.5758,-1.1986,1.8588],[120.5774,-1.1944,1.379],[120.58,-1.1926,1.5297],[120.5838,-1.1946,0.0],[120.5857,-1.1878,2.0382],[120.5837,-1.1859,7.3758],[120.5868,-1.1864,2.0382],[120.5885,-1.1811,0.7234],[120.5875,-1.1809,0.7234],[120.5915,-1.178,0.0],[120.5931,-1.1683,0.0],[120.591,-1.164,1.4552],[120.5932,-1.1607,0.0],[120.5932,-1.1561,0.0],[120.5913,-1.1534,0.0],[120.5931,-1.1526,0.0],[120.593,-1.1487,2.2066],[120.5887,-1.1452,1.4977],[120.5885,-1.1414,3.5999],[120.5853,-1.1382,1.7446],[120.5852,-1.1355,0.0],[120.5816,-1.1338,1.8703],[120.5832,-1.1318,0.0],[120.5813,-1.1308,0.0],[120.5818,-1.1249,0.6119],[120.5878,-1.1245,1.0056],[120.5872,-1.1204,0.8935],[120.5831,-1.1182,0.8211],[120.5864,-1.114,3.3702],[120.586,-1.1119,3.5176],[120.5806,-1.1085,5.8799],[120.5709,-1.1096,21.8366],[120.568,-1.1128,32.0683],[120.5301,-1.1299,176.798],[120.5118,-1.1314,388.9127],[120.5025,-1.1378,282.5505],[120.4929,-1.142,371.5966],[120.4916,-1.1412,380.1809],[120.4656,-1.148,388.3853],[120.4461,-1.1462,449.1625],[120.4341,-1.1526,301.0839],[120.4272,-1.1497,171.8073],[120.4039,-1.1592,316.0519],[120.3488,-1.1856,465.944],[120.3378,-1.1894,555.4124],[120.3282,-1.1868,633.8048],[120.3236,-1.1939,643.1089],[120.3155,-1.1901,758.8009],[120.3079,-1.1923,824.4193],[120.2994,-1.1959,961.6152],[120.2979,-1.1987,921.8773],[120.2898,-1.2017,1098.658],[120.284,-1.2115,1359.491],[120.2787,-1.2166,1659.2068],[120.2726,-1.2305,2151.0945],[120.2703,-1.2316,2025.0898],[120.26,-1.2302,1818.5669],[120.2483,-1.2308,1569.8975],[120.232,-1.2245,1257.2461],[120.2225,-1.2338,1086.7075],[120.2206,-1.239,1017.3966],[120.2198,-1.2435,956.5302],[120.2249,-1.2511,975.5167],[120.2163,-1.2545,1056.8694],[120.209,-1.2636,1262.8105],[120.1858,-1.2735,1858.4729],[120.1898,-1.2775,1828.6575],[120.1961,-1.2798,1740.6414],[120.2053,-1.2867,1828.0554],[120.2156,-1.2888,1860.3301],[120.2303,-1.2995,1619.9083],[120.2403,-1.311,1874.5205],[120.2574,-1.3219,1957.0171],[120.2607,-1.3356,2108.9646],[120.2652,-1.3392,2224.7061],[120.2715,-1.3414,2170.1987],[120.2764,-1.3461,2047.0924],[120.2825,-1.3585,1671.9027],[120.2875,-1.3636,1567.9357],[120.2881,-1.3665,1535.0624],[120.2864,-1.37,1619.0094],[120.288,-1.3786,1524.5958],[120.282,-1.3844,1533.2209],[120.2652,-1.3858,1666.6418],[120.2711,-1.3876,1620.6897],[120.2748,-1.3908,1576.1223],[120.2755,-1.3955,1578.0135],[120.2794,-1.3993,1522.0968],[120.2777,-1.4069,1565.4617],[120.2671,-1.4159,1485.4741],[120.2604,-1.4158,1492.2551],[120.2538,-1.4118,1501.5013],[120.2501,-1.4129,1485.6761],[120.2441,-1.4239,1566.5723],[120.2419,-1.4355,1583.8507],[120.2267,-1.446,1839.0769],[120.2217,-1.4559,2102.9058],[120.2192,-1.4562,2110.3855],[120.2142,-1.4532,2124.2231],[120.203,-1.4553,1885.6884],[120.1955,-1.4502,1994.8064],[120.1867,-1.4515,1870.1255],[120.181,-1.4481,1816.853],[120.1748,-1.4565,1590.9136],[120.17,-1.4577,1512.9569],[120.1667,-1.4606,1385.8459],[120.1596,-1.4725,1412.5498],[120.1511,-1.479,1618.8655],[120.1438,-1.4927,1982.6511],[120.1371,-1.4958,1978.9657],[120.1364,-1.5039,1910.0361],[120.1306,-1.5024,2064.9966],[120.1279,-1.5037,1980.3636],[120.1203,-1.516,1690.4301],[120.113,-1.5178,1785.0643],[120.1107,-1.5199,1651.2385],[120.1094,-1.5239,1633.6436],[120.1104,-1.5296,1514.743],[120.1067,-1.5355,1539.9888],[120.1061,-1.543,1481.0354],[120.0988,-1.5569,1609.5315],[120.1012,-1.5567,1573.548],[120.1026,-1.5603,1673.4105],[120.1062,-1.5634,1575.9702],[120.1134,-1.5622,1563.6171],[120.1179,-1.5641,1593.6512],[120.1231,-1.5589,1641.5691],[120.1288,-1.5581,1726.2369],[120.1308,-1.5562,1610.2423],[120.1336,-1.5567,1576.5278],[120.1385,-1.5597,1622.0321],[120.14,-1.5662,1717.2067],[120.1431,-1.5711,1633.9736],[120.1424,-1.5932,1550.9537],[120.1403,-1.5993,1695.8448],[120.1408,-1.6041,1697.6573],[120.1446,-1.6083,1493.6447],[120.146,-1.6179,1654.8986],[120.14,-1.6268,1557.6348],[120.1369,-1.629,1495.1769],[120.1377,-1.6413,1592.0341],[120.1359,-1.6508,1742.9196],[120.1438,-1.6577,1554.3792],[120.1454,-1.6691,1790.6914],[120.1514,-1.6822,1703.6257],[120.1484,-1.6986,1881.0652],[120.1559,-1.7142,1967.8922],[120.1563,-1.7186,1965.0854],[120.1513,-1.7215,2009.4719],[120.1556,-1.7279,1943.9775],[120.1605,-1.7308,2026.45],[120.1699,-1.7415,1807.8032],[120.1707,-1.7446,1720.0083],[120.1671,-1.7564,1862.5282],[120.1702,-1.7676,2041.2661],[120.177,-1.777,1814.0604],[120.1776,-1.7809,1983.3958],[120.1721,-1.7853,1731.5232],[120.1469,-1.7927,1312.7195],[120.1214,-1.7988,1025.3292],[120.1124,-1.797,721.7193],[120.1076,-1.8031,789.3988],[120.1091,-1.8154,827.3647],[120.1074,-1.8155,827.3647],[120.1042,-1.8212,629.7639],[120.1006,-1.8236,672.9601],[120.1103,-1.8339,543.3508],[120.1144,-1.8316,612.2791],[120.116,-1.8356,768.4477],[120.1208,-1.837,831.3715],[120.1192,-1.844,627.9896],[120.1237,-1.8458,731.1269],[120.1271,-1.8505,767.9885],[120.1265,-1.855,670.494],[120.1328,-1.8585,835.8206],[120.1331,-1.8609,832.2147],[120.1312,-1.8618,723.8683],[120.1356,-1.8645,750.5718],[120.1356,-1.8714,771.1623],[120.138,-1.8727,792.3916],[120.1448,-1.8862,878.2281],[120.1319,-1.8957,889.8767],[120.1245,-1.9056,815.7626],[120.1207,-1.9042,1222.1851],[120.112,-1.8959,1646.7913],[120.1054,-1.897,1675.0387],[120.103,-1.8994,1381.5894],[120.1032,-1.9166,1255.245],[120.0976,-1.9349,1666.4619],[120.1014,-1.9425,1862.7097],[120.1001,-1.9511,1860.0381],[120.1009,-1.9588,1873.5361],[120.1065,-1.965,1702.1576],[120.099,-1.9857,1933.3513],[120.1104,-1.9921,2239.1125],[120.1134,-1.992,2154.1812],[120.1144,-2.0068,1972.9154],[120.115,-2.009,2019.0996],[120.1194,-2.0124,2117.1943],[120.1417,-2.0216,1727.1935],[120.1519,-2.0226,1774.2266],[120.1642,-2.0296,1737.9224],[120.1747,-2.0319,1443.3083],[120.1791,-2.0344,1343.7162],[120.2034,-2.0362,1040.9659],[120.2178,-2.0326,1184.6136],[120.2324,-2.0321,1358.7085],[120.2383,-2.029,1310.0677],[120.2706,-2.0283,1702.535],[120.2824,-2.0326,1738.3953],[120.2916,-2.0402,1842.0935],[120.3111,-2.0506,1773.3992],[120.3173,-2.0519,1637.3351],[120.3349,-2.0616,1708.6565],[120.3398,-2.0613,1761.0496],[120.3447,-2.0567,1924.396],[120.3493,-2.0301,1926.7809],[120.357,-2.019,1732.9862],[120.358,-2.0129,1728.5532],[120.3619,-2.0108,1730.4343],[120.3629,-1.9916,1720.3972],[120.3721,-1.9629,1669.0784],[120.3754,-1.9611,1617.5518],[120.3793,-1.9534,1481.4163],[120.3795,-1.9452,1463.0808],[120.3888,-1.8975,1713.1362],[120.3908,-1.8952,1733.3922],[120.4034,-1.8955,1667.8719],[120.4085,-1.8973,1561.6377],[120.4188,-1.9145,1480.1937],[120.4274,-1.9241,1273.5433],[120.4416,-1.9365,1450.3379],[120.4462,-1.9373,1544.6902],[120.4618,-1.9537,1279.4524],[120.4657,-1.9611,1421.7853],[120.4705,-1.9629,1565.5293],[120.477,-1.9778,1590.9524],[120.4798,-1.9799,1455.0012],[120.4808,-1.9842,1356.3348],[120.4839,-1.9873,1475.5081],[120.4839,-2.0021,1304.9763],[120.5028,-2.0296,1591.2218],[120.5397,-2.0703,1136.7115],[120.5433,-2.0783,1024.459],[120.5782,-2.1162,970.1447],[120.5803,-2.1226,976.6566],[120.5864,-2.1295,1088.8644],[120.6223,-2.1621,1234.584],[120.6684,-2.1923,1579.0093],[120.6766,-2.1957,1690.5548]]],
[[[120.5791,-1.104,1.4017],[120.5805,-1.1058,0.884],[120.58,-1.1021,0.0],[120.5778,-1.1006,0.953],[120.5789,-1.1023,0.0],[120.5791,-1.104,1.4017]]]]}}