{"type":"Feature","properties":{"GID_3":"IDN.9.14.4_1","GID_0":"IDN","country":"Indonesia","GID_1":"IDN.9_1","province":"JawaBarat","NL_NAME_1":"NA","GID_2":"IDN.9.14_1","county":"KotaBandung","NL_NAME_2":"NA","city":"Astanaanyar","VARNAME_3":"NA","NL_NAME_3":"NA","TYPE_3":"Kecamatan","ENGTYPE_3":"Sub-district","CC_3":"3273050","HASC_3":"NA","name":"Astanaanyar.city"},
"geometry":{"type": "MultiPolygon","coordinates": [[[[107.6125,-6.9575,676.5989],[107.6063,-6.9376,693.284],[107.6031,-6.9373,692.8604],[107.6042,-6.9208,710.697],[107.593,-6.9194,713.7117],[107.5918,-6.922,711.2573],[107.5995,-6.9346,692.3521],[107.5995,-6.9402,689.3503],[107.6027,-6.9431,687.0773],[107.6041,-6.9481,683.244],[107.6096,-6.9525,680.4921],[107.6113,-6.9553,677.3047],[107.6103,-6.9575,674.2213],[107.6125,-6.9575,676.5989]]]]}}