{"type":"Feature","properties":{"GID_3":"IDN.6.2.3_1","GID_0":"IDN","country":"Indonesia","GID_1":"IDN.6_1","province":"Gorontalo","NL_NAME_1":"NA","GID_2":"IDN.6.2_1","county":"BoneBolango","NL_NAME_2":"NA","city":"Bone","VARNAME_3":"NA","NL_NAME_3":"NA","TYPE_3":"Kecamatan","ENGTYPE_3":"Sub-district","CC_3":"7504043","HASC_3":"NA","name":"Bone.city"},
"geometry":{"type": "MultiPolygon","coordinates": [[[[123.3731,0.3268,301.3053],[123.3689,0.313,21.2953],[123.3699,0.3119,0.0],[123.3772,0.3125,8.3101],[123.3805,0.3113,1.0072],[123.3985,0.3153,0.0],[123.4154,0.3113,0.0],[123.4373,0.3181,3.1901],[123.4439,0.3276,10.6609],[123.4561,0.334,0.0],[123.4567,0.3364,2.7414],[123.4591,0.3376,16.5683],[123.4637,0.3331,56.8169],[123.4629,0.3304,0.0],[123.4661,0.3256,11.9096],[123.469,0.3229,4.3569],[123.4712,0.3232,7.7121],[123.4708,0.3217,0.0],[123.4764,0.3166,2.2955],[123.4823,0.3219,137.9208],[123.4829,0.3254,198.0168],[123.4808,0.3363,410.5386],[123.4837,0.3397,352.8948],[123.48,0.3469,386.2781],[123.4803,0.3537,397.5531],[123.4847,0.3561,487.9549],[123.4917,0.3558,531.6652],[123.4942,0.3574,450.846],[123.4916,0.3657,352.0357],[123.4967,0.371,410.5333],[123.4979,0.3821,543.7153],[123.511,0.3963,656.5338],[123.53,0.4085,602.5868],[123.5399,0.426,691.2262],[123.55,0.4343,779.8913],[123.5363,0.4284,706.2262],[123.5323,0.4292,641.2604],[123.5203,0.4269,624.5678],[123.5044,0.428,689.7762],[123.4972,0.432,674.547],[123.4952,0.4356,599.7722],[123.4873,0.4376,740.3361],[123.4792,0.4437,789.4327],[123.4689,0.4306,836.8052],[123.4577,0.4254,798.7127],[123.4497,0.4266,797.3607],[123.4394,0.4198,975.1512],[123.4302,0.4198,706.929],[123.4139,0.4135,892.8993],[123.3916,0.4095,1379.1086],[123.388,0.4075,1391.9009],[123.3877,0.3947,1291.0657],[123.3844,0.3851,992.2846],[123.3785,0.3442,894.0528],[123.3731,0.3268,301.3053]]]]}}