{"type":"Feature","properties":{"GID_3":"IDN.5.3.3_1","GID_0":"IDN","country":"Indonesia","GID_1":"IDN.5_1","province":"Bengkulu","NL_NAME_1":"NA","GID_2":"IDN.5.3_1","county":"BengkuluUtara","NL_NAME_2":"NA","city":"ArgaMakmur","VARNAME_3":"NA","NL_NAME_3":"NA","TYPE_3":"Kecamatan","ENGTYPE_3":"Sub-district","CC_3":"1703060","HASC_3":"NA","name":"Arga_Makmur.city"},
"geometry":{"type": "MultiPolygon","coordinates": [[[[102.2594,-3.3618,992.2266],[102.245,-3.3515,596.7662],[102.2259,-3.3342,825.3158],[102.211,-3.3277,597.4487],[102.189,-3.3235,400.4695],[102.1796,-3.3242,360.9572],[102.1765,-3.3262,359.1538],[102.1749,-3.3278,343.9538],[102.1742,-3.3344,326.91],[102.1793,-3.3526,246.5727],[102.1736,-3.3839,164.5878],[102.1689,-3.3967,142.8797],[102.1536,-3.4212,117.7081],[102.1292,-3.4425,105.7693],[102.1256,-3.4462,99.3095],[102.1248,-3.4496,78.4635],[102.1285,-3.454,69.5651],[102.1537,-3.4715,90.6444],[102.1667,-3.4829,54.0484],[102.1702,-3.4836,73.7273],[102.185,-3.494,90.47],[102.2153,-3.5092,99.2783],[102.2209,-3.5107,105.3503],[102.2295,-3.5091,123.2355],[102.2384,-3.4995,127.8518],[102.2621,-3.4565,224.1513],[102.2861,-3.4352,307.0009],[102.297,-3.4231,672.7893],[102.2991,-3.4158,770.7762],[102.2989,-3.4005,862.6635],[102.295,-3.382,764.5715],[102.3058,-3.3699,978.8413],[102.2922,-3.3642,963.2703],[102.2751,-3.361,1379.6837],[102.274,-3.359,1410.6562],[102.2652,-3.3656,1140.233],[102.2594,-3.3618,992.2266]]]]}}